<?xml version="1.0" encoding="UTF-8" standalone="no"?><gpx xmlns="http://www.topografix.com/GPX/1/1" xmlns:gpxtpx="http://www.garmin.com/xmlschemas/TrackPointExtension/v1" xmlns:xsi="http://www.w3.org/2001/XMLSchema-instance" creator="Sports Tracker" version="1.1" xsi:schemaLocation="http://www.topografix.com/GPX/1/1 http://www.topografix.com/GPX/1/1/gpx.xsd http://www.garmin.com/xmlschemas/TrackPointExtension/v1 http://www.garmin.com/xmlschemas/TrackPointExtensionv1.xsd"><metadata><name/><desc/><author><name>Александр</name></author></metadata><trk><name/><trkseg><trkpt lat="58.006887" lon="38.867407"><ele>126.8</ele><time>2023-10-08T11:04:40Z</time></trkpt><trkpt lat="58.006742" lon="38.86757"><ele>135.5</ele><time>2023-10-08T11:04:41Z</time></trkpt><trkpt lat="58.00694" lon="38.867477"><ele>121.0</ele><time>2023-10-08T11:04:43Z</time></trkpt><trkpt lat="58.006748" lon="38.867997"><ele>120.8</ele><time>2023-10-08T11:04:48Z</time></trkpt><trkpt lat="58.006768" lon="38.867698"><ele>118.8</ele><time>2023-10-08T11:04:49Z</time></trkpt><trkpt lat="58.006563" lon="38.86785"><ele>118.7</ele><time>2023-10-08T11:04:50Z</time></trkpt><trkpt lat="58.006462" lon="38.867935"><ele>116.5</ele><time>2023-10-08T11:04:51Z</time></trkpt><trkpt lat="58.006673" lon="38.867983"><ele>114.7</ele><time>2023-10-08T11:04:52Z</time></trkpt><trkpt lat="58.006722" lon="38.867847"><ele>114.8</ele><time>2023-10-08T11:04:53Z</time></trkpt><trkpt lat="58.006848" lon="38.867785"><ele>117.0</ele><time>2023-10-08T11:04:54Z</time></trkpt><trkpt lat="58.006743" lon="38.867993"><ele>119.7</ele><time>2023-10-08T11:04:55Z</time></trkpt><trkpt lat="58.006695" lon="38.867883"><ele>120.0</ele><time>2023-10-08T11:04:57Z</time></trkpt><trkpt lat="58.006822" lon="38.867838"><ele>119.7</ele><time>2023-10-08T11:04:59Z</time></trkpt><trkpt lat="58.006923" lon="38.867605"><ele>125.1</ele><time>2023-10-08T11:05:02Z</time></trkpt><trkpt lat="58.007078" lon="38.867463"><ele>119.3</ele><time>2023-10-08T11:05:05Z</time></trkpt><trkpt lat="58.006862" lon="38.867657"><ele>121.0</ele><time>2023-10-08T11:05:06Z</time></trkpt><trkpt lat="58.006647" lon="38.867903"><ele>120.5</ele><time>2023-10-08T11:05:07Z</time></trkpt><trkpt lat="58.006757" lon="38.86814"><ele>120.7</ele><time>2023-10-08T11:05:10Z</time></trkpt><trkpt lat="58.006692" lon="38.868202"><ele>121.4</ele><time>2023-10-08T11:05:11Z</time></trkpt><trkpt lat="58.006882" lon="38.868205"><ele>122.3</ele><time>2023-10-08T11:05:12Z</time></trkpt><trkpt lat="58.00695" lon="38.868282"><ele>122.5</ele><time>2023-10-08T11:05:14Z</time></trkpt><trkpt lat="58.006847" lon="38.868497"><ele>122.7</ele><time>2023-10-08T11:05:16Z</time></trkpt><trkpt lat="58.006905" lon="38.868373"><ele>122.9</ele><time>2023-10-08T11:05:17Z</time></trkpt><trkpt lat="58.006872" lon="38.868557"><ele>123.6</ele><time>2023-10-08T11:05:18Z</time></trkpt><trkpt lat="58.00696" lon="38.868532"><ele>125.9</ele><time>2023-10-08T11:05:20Z</time></trkpt><trkpt lat="58.006942" lon="38.868372"><ele>127.8</ele><time>2023-10-08T11:05:22Z</time></trkpt><trkpt lat="58.007035" lon="38.868345"><ele>127.7</ele><time>2023-10-08T11:05:23Z</time></trkpt><trkpt lat="58.00686" lon="38.868575"><ele>127.1</ele><time>2023-10-08T11:05:24Z</time></trkpt><trkpt lat="58.006788" lon="38.868615"><ele>124.3</ele><time>2023-10-08T11:05:27Z</time></trkpt><trkpt lat="58.006822" lon="38.868747"><ele>119.4</ele><time>2023-10-08T11:05:28Z</time></trkpt><trkpt lat="58.006872" lon="38.868425"><ele>119.8</ele><time>2023-10-08T11:05:29Z</time></trkpt><trkpt lat="58.006738" lon="38.868607"><ele>125.1</ele><time>2023-10-08T11:05:30Z</time></trkpt><trkpt lat="58.006628" lon="38.868642"><ele>126.2</ele><time>2023-10-08T11:05:31Z</time></trkpt><trkpt lat="58.006493" lon="38.868663"><ele>123.9</ele><time>2023-10-08T11:05:32Z</time></trkpt><trkpt lat="58.006702" lon="38.868582"><ele>119.8</ele><time>2023-10-08T11:05:33Z</time></trkpt><trkpt lat="58.006917" lon="38.868577"><ele>118.0</ele><time>2023-10-08T11:05:34Z</time></trkpt><trkpt lat="58.006978" lon="38.868463"><ele>115.0</ele><time>2023-10-08T11:05:35Z</time></trkpt><trkpt lat="58.007008" lon="38.868658"><ele>119.6</ele><time>2023-10-08T11:05:36Z</time></trkpt><trkpt lat="58.007075" lon="38.868737"><ele>119.1</ele><time>2023-10-08T11:05:37Z</time></trkpt><trkpt lat="58.00694" lon="38.869003"><ele>120.1</ele><time>2023-10-08T11:05:38Z</time></trkpt><trkpt lat="58.006973" lon="38.868775"><ele>117.9</ele><time>2023-10-08T11:05:40Z</time></trkpt><trkpt lat="58.007007" lon="38.868458"><ele>122.9</ele><time>2023-10-08T11:05:43Z</time></trkpt><trkpt lat="58.007072" lon="38.868565"><ele>122.8</ele><time>2023-10-08T11:05:44Z</time></trkpt><trkpt lat="58.007132" lon="38.868728"><ele>128.6</ele><time>2023-10-08T11:05:47Z</time></trkpt><trkpt lat="58.007275" lon="38.868938"><ele>121.3</ele><time>2023-10-08T11:05:49Z</time></trkpt><trkpt lat="58.007385" lon="38.868905"><ele>117.5</ele><time>2023-10-08T11:05:50Z</time></trkpt><trkpt lat="58.007337" lon="38.869133"><ele>118.0</ele><time>2023-10-08T11:05:51Z</time></trkpt><trkpt lat="58.00742" lon="38.869098"><ele>119.0</ele><time>2023-10-08T11:05:52Z</time></trkpt><trkpt lat="58.00748" lon="38.868807"><ele>121.4</ele><time>2023-10-08T11:05:53Z</time></trkpt><trkpt lat="58.007533" lon="38.869037"><ele>117.5</ele><time>2023-10-08T11:05:54Z</time></trkpt><trkpt lat="58.007447" lon="38.868983"><ele>116.6</ele><time>2023-10-08T11:05:55Z</time></trkpt><trkpt lat="58.007443" lon="38.868822"><ele>122.7</ele><time>2023-10-08T11:05:59Z</time></trkpt><trkpt lat="58.0076" lon="38.86879"><ele>118.7</ele><time>2023-10-08T11:06:00Z</time></trkpt><trkpt lat="58.007538" lon="38.868697"><ele>112.6</ele><time>2023-10-08T11:06:02Z</time></trkpt><trkpt lat="58.00766" lon="38.868578"><ele>112.3</ele><time>2023-10-08T11:06:03Z</time></trkpt><trkpt lat="58.007832" lon="38.86865"><ele>115.2</ele><time>2023-10-08T11:06:04Z</time></trkpt><trkpt lat="58.00794" lon="38.868607"><ele>114.7</ele><time>2023-10-08T11:06:05Z</time></trkpt><trkpt lat="58.00781" lon="38.868698"><ele>114.3</ele><time>2023-10-08T11:06:06Z</time></trkpt><trkpt lat="58.00791" lon="38.868627"><ele>112.7</ele><time>2023-10-08T11:06:07Z</time></trkpt><trkpt lat="58.008035" lon="38.86861"><ele>113.4</ele><time>2023-10-08T11:06:09Z</time></trkpt><trkpt lat="58.007953" lon="38.868683"><ele>115.9</ele><time>2023-10-08T11:06:10Z</time></trkpt><trkpt lat="58.007847" lon="38.868858"><ele>117.0</ele><time>2023-10-08T11:06:11Z</time></trkpt><trkpt lat="58.007922" lon="38.868713"><ele>110.0</ele><time>2023-10-08T11:06:14Z</time></trkpt><trkpt lat="58.008075" lon="38.868587"><ele>111.2</ele><time>2023-10-08T11:06:16Z</time></trkpt><trkpt lat="58.008295" lon="38.86859"><ele>108.0</ele><time>2023-10-08T11:06:18Z</time></trkpt><trkpt lat="58.007953" lon="38.868607"><ele>107.9</ele><time>2023-10-08T11:06:20Z</time></trkpt><trkpt lat="58.007905" lon="38.868435"><ele>118.4</ele><time>2023-10-08T11:06:22Z</time></trkpt><trkpt lat="58.007985" lon="38.868523"><ele>124.9</ele><time>2023-10-08T11:06:24Z</time></trkpt><trkpt lat="58.007897" lon="38.868622"><ele>126.3</ele><time>2023-10-08T11:06:26Z</time></trkpt><trkpt lat="58.007963" lon="38.86852"><ele>118.2</ele><time>2023-10-08T11:06:27Z</time></trkpt><trkpt lat="58.008067" lon="38.868345"><ele>115.7</ele><time>2023-10-08T11:06:28Z</time></trkpt><trkpt lat="58.008122" lon="38.868443"><ele>116.7</ele><time>2023-10-08T11:06:30Z</time></trkpt><trkpt lat="58.008265" lon="38.86835"><ele>114.7</ele><time>2023-10-08T11:06:31Z</time></trkpt><trkpt lat="58.008273" lon="38.868193"><ele>109.6</ele><time>2023-10-08T11:06:33Z</time></trkpt><trkpt lat="58.008238" lon="38.868525"><ele>105.7</ele><time>2023-10-08T11:06:34Z</time></trkpt><trkpt lat="58.00824" lon="38.868672"><ele>110.8</ele><time>2023-10-08T11:06:36Z</time></trkpt><trkpt lat="58.008187" lon="38.868507"><ele>110.1</ele><time>2023-10-08T11:06:38Z</time></trkpt><trkpt lat="58.008252" lon="38.868577"><ele>110.9</ele><time>2023-10-08T11:06:40Z</time></trkpt><trkpt lat="58.008227" lon="38.868738"><ele>108.7</ele><time>2023-10-08T11:06:41Z</time></trkpt><trkpt lat="58.008138" lon="38.868785"><ele>110.6</ele><time>2023-10-08T11:06:42Z</time></trkpt><trkpt lat="58.008152" lon="38.868612"><ele>110.9</ele><time>2023-10-08T11:06:43Z</time></trkpt><trkpt lat="58.008107" lon="38.868722"><ele>119.6</ele><time>2023-10-08T11:06:45Z</time></trkpt><trkpt lat="58.008207" lon="38.868757"><ele>115.9</ele><time>2023-10-08T11:06:46Z</time></trkpt><trkpt lat="58.008322" lon="38.868633"><ele>116.1</ele><time>2023-10-08T11:06:47Z</time></trkpt><trkpt lat="58.008395" lon="38.868685"><ele>112.2</ele><time>2023-10-08T11:06:49Z</time></trkpt><trkpt lat="58.00847" lon="38.868855"><ele>107.2</ele><time>2023-10-08T11:06:52Z</time></trkpt><trkpt lat="58.008507" lon="38.86901"><ele>102.2</ele><time>2023-10-08T11:06:54Z</time></trkpt><trkpt lat="58.008457" lon="38.869202"><ele>112.2</ele><time>2023-10-08T11:06:57Z</time></trkpt><trkpt lat="58.008518" lon="38.869302"><ele>113.3</ele><time>2023-10-08T11:06:58Z</time></trkpt><trkpt lat="58.00851" lon="38.869547"><ele>108.8</ele><time>2023-10-08T11:07:01Z</time></trkpt><trkpt lat="58.008445" lon="38.869623"><ele>107.9</ele><time>2023-10-08T11:07:02Z</time></trkpt><trkpt lat="58.008465" lon="38.869862"><ele>101.0</ele><time>2023-10-08T11:07:04Z</time></trkpt><trkpt lat="58.008508" lon="38.870047"><ele>106.2</ele><time>2023-10-08T11:07:07Z</time></trkpt><trkpt lat="58.00844" lon="38.870238"><ele>105.9</ele><time>2023-10-08T11:07:09Z</time></trkpt><trkpt lat="58.00842" lon="38.870395"><ele>98.4</ele><time>2023-10-08T11:07:11Z</time></trkpt><trkpt lat="58.008477" lon="38.870533"><ele>108.7</ele><time>2023-10-08T11:07:14Z</time></trkpt><trkpt lat="58.008445" lon="38.870658"><ele>99.6</ele><time>2023-10-08T11:07:16Z</time></trkpt><trkpt lat="58.008372" lon="38.870798"><ele>97.4</ele><time>2023-10-08T11:07:17Z</time></trkpt><trkpt lat="58.00837" lon="38.870995"><ele>99.6</ele><time>2023-10-08T11:07:20Z</time></trkpt><trkpt lat="58.008433" lon="38.871117"><ele>96.0</ele><time>2023-10-08T11:07:22Z</time></trkpt><trkpt lat="58.008497" lon="38.871378"><ele>102.3</ele><time>2023-10-08T11:07:25Z</time></trkpt><trkpt lat="58.008488" lon="38.871527"><ele>106.0</ele><time>2023-10-08T11:07:28Z</time></trkpt><trkpt lat="58.008497" lon="38.87171"><ele>96.0</ele><time>2023-10-08T11:07:30Z</time></trkpt><trkpt lat="58.00844" lon="38.871897"><ele>101.2</ele><time>2023-10-08T11:07:33Z</time></trkpt><trkpt lat="58.008428" lon="38.872063"><ele>106.7</ele><time>2023-10-08T11:07:36Z</time></trkpt><trkpt lat="58.008465" lon="38.872223"><ele>104.3</ele><time>2023-10-08T11:07:38Z</time></trkpt><trkpt lat="58.00834" lon="38.872318"><ele>105.8</ele><time>2023-10-08T11:07:39Z</time></trkpt><trkpt lat="58.008365" lon="38.872485"><ele>99.2</ele><time>2023-10-08T11:07:42Z</time></trkpt><trkpt lat="58.008332" lon="38.872622"><ele>99.6</ele><time>2023-10-08T11:07:44Z</time></trkpt><trkpt lat="58.008348" lon="38.872757"><ele>100.8</ele><time>2023-10-08T11:07:47Z</time></trkpt><trkpt lat="58.008275" lon="38.872757"><ele>102.0</ele><time>2023-10-08T11:08:01Z</time></trkpt><trkpt lat="58.008262" lon="38.87289"><ele>102.3</ele><time>2023-10-08T11:08:12Z</time></trkpt><trkpt lat="58.008285" lon="38.873058"><ele>102.4</ele><time>2023-10-08T11:08:16Z</time></trkpt><trkpt lat="58.008302" lon="38.873203"><ele>102.9</ele><time>2023-10-08T11:08:21Z</time></trkpt><trkpt lat="58.008357" lon="38.873338"><ele>102.5</ele><time>2023-10-08T11:08:25Z</time></trkpt><trkpt lat="58.008415" lon="38.87347"><ele>102.2</ele><time>2023-10-08T11:08:28Z</time></trkpt><trkpt lat="58.008432" lon="38.873655"><ele>101.1</ele><time>2023-10-08T11:08:31Z</time></trkpt><trkpt lat="58.008438" lon="38.873848"><ele>100.9</ele><time>2023-10-08T11:08:34Z</time></trkpt><trkpt lat="58.008457" lon="38.873987"><ele>100.8</ele><time>2023-10-08T11:08:36Z</time></trkpt><trkpt lat="58.008467" lon="38.874125"><ele>101.0</ele><time>2023-10-08T11:08:38Z</time></trkpt><trkpt lat="58.008463" lon="38.874327"><ele>101.0</ele><time>2023-10-08T11:08:41Z</time></trkpt><trkpt lat="58.008462" lon="38.874463"><ele>101.5</ele><time>2023-10-08T11:08:43Z</time></trkpt><trkpt lat="58.00845" lon="38.874652"><ele>102.2</ele><time>2023-10-08T11:08:46Z</time></trkpt><trkpt lat="58.008442" lon="38.874848"><ele>103.1</ele><time>2023-10-08T11:08:49Z</time></trkpt><trkpt lat="58.008468" lon="38.875038"><ele>103.3</ele><time>2023-10-08T11:08:52Z</time></trkpt><trkpt lat="58.008482" lon="38.875217"><ele>103.5</ele><time>2023-10-08T11:08:55Z</time></trkpt><trkpt lat="58.008477" lon="38.875388"><ele>103.6</ele><time>2023-10-08T11:08:58Z</time></trkpt><trkpt lat="58.00845" lon="38.875542"><ele>104.1</ele><time>2023-10-08T11:09:01Z</time></trkpt><trkpt lat="58.008373" lon="38.875658"><ele>103.7</ele><time>2023-10-08T11:09:04Z</time></trkpt><trkpt lat="58.008298" lon="38.875693"><ele>103.5</ele><time>2023-10-08T11:09:06Z</time></trkpt><trkpt lat="58.008213" lon="38.875698"><ele>103.5</ele><time>2023-10-08T11:09:08Z</time></trkpt><trkpt lat="58.008127" lon="38.87571"><ele>103.2</ele><time>2023-10-08T11:09:10Z</time></trkpt><trkpt lat="58.008057" lon="38.875762"><ele>103.0</ele><time>2023-10-08T11:09:12Z</time></trkpt><trkpt lat="58.007987" lon="38.875817"><ele>102.9</ele><time>2023-10-08T11:09:14Z</time></trkpt><trkpt lat="58.007907" lon="38.875877"><ele>103.0</ele><time>2023-10-08T11:09:17Z</time></trkpt><trkpt lat="58.007823" lon="38.875933"><ele>103.2</ele><time>2023-10-08T11:09:20Z</time></trkpt><trkpt lat="58.007732" lon="38.876003"><ele>103.5</ele><time>2023-10-08T11:09:23Z</time></trkpt><trkpt lat="58.007653" lon="38.876062"><ele>103.5</ele><time>2023-10-08T11:09:26Z</time></trkpt><trkpt lat="58.007588" lon="38.876208"><ele>103.9</ele><time>2023-10-08T11:09:29Z</time></trkpt><trkpt lat="58.00753" lon="38.876342"><ele>103.6</ele><time>2023-10-08T11:09:32Z</time></trkpt><trkpt lat="58.007528" lon="38.876478"><ele>103.6</ele><time>2023-10-08T11:09:35Z</time></trkpt><trkpt lat="58.007533" lon="38.876672"><ele>103.3</ele><time>2023-10-08T11:09:38Z</time></trkpt><trkpt lat="58.007538" lon="38.876867"><ele>104.0</ele><time>2023-10-08T11:09:41Z</time></trkpt><trkpt lat="58.007523" lon="38.877057"><ele>104.3</ele><time>2023-10-08T11:09:44Z</time></trkpt><trkpt lat="58.007477" lon="38.877193"><ele>104.4</ele><time>2023-10-08T11:09:47Z</time></trkpt><trkpt lat="58.007492" lon="38.877342"><ele>104.2</ele><time>2023-10-08T11:09:53Z</time></trkpt><trkpt lat="58.007437" lon="38.877483"><ele>104.9</ele><time>2023-10-08T11:10:00Z</time></trkpt><trkpt lat="58.007367" lon="38.87758"><ele>104.8</ele><time>2023-10-08T11:10:03Z</time></trkpt><trkpt lat="58.007282" lon="38.87768"><ele>104.7</ele><time>2023-10-08T11:10:06Z</time></trkpt><trkpt lat="58.007203" lon="38.877748"><ele>104.5</ele><time>2023-10-08T11:10:09Z</time></trkpt><trkpt lat="58.007123" lon="38.87787"><ele>104.3</ele><time>2023-10-08T11:10:12Z</time></trkpt><trkpt lat="58.007062" lon="38.877945"><ele>104.6</ele><time>2023-10-08T11:10:15Z</time></trkpt><trkpt lat="58.006992" lon="38.87805"><ele>105.6</ele><time>2023-10-08T11:10:19Z</time></trkpt><trkpt lat="58.006977" lon="38.878183"><ele>106.7</ele><time>2023-10-08T11:10:28Z</time></trkpt><trkpt lat="58.00697" lon="38.878345"><ele>107.0</ele><time>2023-10-08T11:10:36Z</time></trkpt><trkpt lat="58.006943" lon="38.878475"><ele>107.9</ele><time>2023-10-08T11:10:41Z</time></trkpt><trkpt lat="58.00694" lon="38.878623"><ele>109.1</ele><time>2023-10-08T11:10:48Z</time></trkpt><trkpt lat="58.006952" lon="38.878785"><ele>108.9</ele><time>2023-10-08T11:10:54Z</time></trkpt><trkpt lat="58.006987" lon="38.878948"><ele>109.1</ele><time>2023-10-08T11:10:58Z</time></trkpt><trkpt lat="58.00702" lon="38.879083"><ele>109.1</ele><time>2023-10-08T11:11:01Z</time></trkpt><trkpt lat="58.007075" lon="38.879217"><ele>108.9</ele><time>2023-10-08T11:11:04Z</time></trkpt><trkpt lat="58.00713" lon="38.879327"><ele>109.3</ele><time>2023-10-08T11:11:07Z</time></trkpt><trkpt lat="58.007192" lon="38.879425"><ele>109.4</ele><time>2023-10-08T11:11:10Z</time></trkpt><trkpt lat="58.007232" lon="38.879548"><ele>109.6</ele><time>2023-10-08T11:11:13Z</time></trkpt><trkpt lat="58.00719" lon="38.879698"><ele>109.9</ele><time>2023-10-08T11:11:16Z</time></trkpt><trkpt lat="58.007128" lon="38.879783"><ele>110.0</ele><time>2023-10-08T11:11:18Z</time></trkpt><trkpt lat="58.00706" lon="38.87982"><ele>111.3</ele><time>2023-10-08T11:11:21Z</time></trkpt><trkpt lat="58.006982" lon="38.87983"><ele>111.9</ele><time>2023-10-08T11:11:24Z</time></trkpt><trkpt lat="58.006895" lon="38.879867"><ele>112.6</ele><time>2023-10-08T11:11:27Z</time></trkpt><trkpt lat="58.006832" lon="38.879937"><ele>112.9</ele><time>2023-10-08T11:11:32Z</time></trkpt><trkpt lat="58.00675" lon="38.880015"><ele>113.4</ele><time>2023-10-08T11:11:38Z</time></trkpt><trkpt lat="58.006678" lon="38.88016"><ele>113.4</ele><time>2023-10-08T11:11:41Z</time></trkpt><trkpt lat="58.006605" lon="38.880222"><ele>113.7</ele><time>2023-10-08T11:11:44Z</time></trkpt><trkpt lat="58.006527" lon="38.880207"><ele>113.2</ele><time>2023-10-08T11:11:49Z</time></trkpt><trkpt lat="58.006473" lon="38.880102"><ele>113.2</ele><time>2023-10-08T11:11:55Z</time></trkpt><trkpt lat="58.006557" lon="38.880112"><ele>113.6</ele><time>2023-10-08T11:12:09Z</time></trkpt><trkpt lat="58.006632" lon="38.880055"><ele>113.3</ele><time>2023-10-08T11:12:14Z</time></trkpt><trkpt lat="58.00671" lon="38.87998"><ele>113.3</ele><time>2023-10-08T11:12:18Z</time></trkpt><trkpt lat="58.00679" lon="38.879923"><ele>112.8</ele><time>2023-10-08T11:12:22Z</time></trkpt><trkpt lat="58.006875" lon="38.879882"><ele>112.7</ele><time>2023-10-08T11:12:25Z</time></trkpt><trkpt lat="58.006947" lon="38.879843"><ele>113.2</ele><time>2023-10-08T11:12:27Z</time></trkpt><trkpt lat="58.007023" lon="38.879832"><ele>113.2</ele><time>2023-10-08T11:12:31Z</time></trkpt><trkpt lat="58.007105" lon="38.87982"><ele>113.2</ele><time>2023-10-08T11:12:36Z</time></trkpt><trkpt lat="58.007165" lon="38.879663"><ele>112.7</ele><time>2023-10-08T11:12:42Z</time></trkpt><trkpt lat="58.0072" lon="38.87954"><ele>112.8</ele><time>2023-10-08T11:12:44Z</time></trkpt><trkpt lat="58.007253" lon="38.879435"><ele>112.5</ele><time>2023-10-08T11:12:46Z</time></trkpt><trkpt lat="58.00731" lon="38.879352"><ele>111.8</ele><time>2023-10-08T11:12:48Z</time></trkpt><trkpt lat="58.007403" lon="38.879275"><ele>111.2</ele><time>2023-10-08T11:12:51Z</time></trkpt><trkpt lat="58.007478" lon="38.879232"><ele>111.0</ele><time>2023-10-08T11:12:54Z</time></trkpt><trkpt lat="58.007555" lon="38.879203"><ele>111.0</ele><time>2023-10-08T11:12:59Z</time></trkpt><trkpt lat="58.007632" lon="38.879213"><ele>110.9</ele><time>2023-10-08T11:13:07Z</time></trkpt><trkpt lat="58.00769" lon="38.879123"><ele>111.0</ele><time>2023-10-08T11:13:19Z</time></trkpt><trkpt lat="58.007752" lon="38.87921"><ele>111.9</ele><time>2023-10-08T11:13:39Z</time></trkpt><trkpt lat="58.007795" lon="38.87932"><ele>112.0</ele><time>2023-10-08T11:13:44Z</time></trkpt><trkpt lat="58.007835" lon="38.87946"><ele>112.1</ele><time>2023-10-08T11:13:50Z</time></trkpt><trkpt lat="58.00788" lon="38.879588"><ele>111.8</ele><time>2023-10-08T11:14:00Z</time></trkpt><trkpt lat="58.007923" lon="38.879703"><ele>111.2</ele><time>2023-10-08T11:14:08Z</time></trkpt><trkpt lat="58.007847" lon="38.879678"><ele>111.0</ele><time>2023-10-08T11:14:13Z</time></trkpt><trkpt lat="58.007768" lon="38.879722"><ele>111.4</ele><time>2023-10-08T11:14:18Z</time></trkpt><trkpt lat="58.00771" lon="38.879818"><ele>110.9</ele><time>2023-10-08T11:14:22Z</time></trkpt><trkpt lat="58.007687" lon="38.879962"><ele>110.3</ele><time>2023-10-08T11:14:30Z</time></trkpt><trkpt lat="58.00767" lon="38.880107"><ele>110.9</ele><time>2023-10-08T11:14:35Z</time></trkpt><trkpt lat="58.007652" lon="38.88027"><ele>111.0</ele><time>2023-10-08T11:14:40Z</time></trkpt><trkpt lat="58.007668" lon="38.880442"><ele>111.9</ele><time>2023-10-08T11:14:44Z</time></trkpt><trkpt lat="58.007717" lon="38.880575"><ele>112.3</ele><time>2023-10-08T11:14:47Z</time></trkpt><trkpt lat="58.00764" lon="38.880493"><ele>114.3</ele><time>2023-10-08T11:15:12Z</time></trkpt><trkpt lat="58.007545" lon="38.880493"><ele>114.7</ele><time>2023-10-08T11:15:16Z</time></trkpt><trkpt lat="58.007458" lon="38.880415"><ele>114.5</ele><time>2023-10-08T11:15:20Z</time></trkpt><trkpt lat="58.007383" lon="38.880283"><ele>114.7</ele><time>2023-10-08T11:15:24Z</time></trkpt><trkpt lat="58.007282" lon="38.88026"><ele>114.9</ele><time>2023-10-08T11:15:27Z</time></trkpt><trkpt lat="58.007197" lon="38.880238"><ele>115.5</ele><time>2023-10-08T11:15:30Z</time></trkpt><trkpt lat="58.007122" lon="38.880182"><ele>116.2</ele><time>2023-10-08T11:15:34Z</time></trkpt><trkpt lat="58.007048" lon="38.880193"><ele>116.3</ele><time>2023-10-08T11:15:41Z</time></trkpt><trkpt lat="58.006985" lon="38.880265"><ele>117.3</ele><time>2023-10-08T11:15:49Z</time></trkpt><trkpt lat="58.006933" lon="38.880392"><ele>117.5</ele><time>2023-10-08T11:15:52Z</time></trkpt><trkpt lat="58.006883" lon="38.880533"><ele>117.8</ele><time>2023-10-08T11:15:55Z</time></trkpt><trkpt lat="58.006853" lon="38.880702"><ele>117.5</ele><time>2023-10-08T11:15:59Z</time></trkpt><trkpt lat="58.006858" lon="38.880885"><ele>117.6</ele><time>2023-10-08T11:16:03Z</time></trkpt><trkpt lat="58.006837" lon="38.881038"><ele>118.2</ele><time>2023-10-08T11:16:05Z</time></trkpt><trkpt lat="58.006835" lon="38.881213"><ele>118.7</ele><time>2023-10-08T11:16:08Z</time></trkpt><trkpt lat="58.006837" lon="38.881393"><ele>119.1</ele><time>2023-10-08T11:16:11Z</time></trkpt><trkpt lat="58.006858" lon="38.88159"><ele>119.0</ele><time>2023-10-08T11:16:14Z</time></trkpt><trkpt lat="58.006888" lon="38.881743"><ele>118.7</ele><time>2023-10-08T11:16:16Z</time></trkpt><trkpt lat="58.006898" lon="38.88192"><ele>118.9</ele><time>2023-10-08T11:16:19Z</time></trkpt><trkpt lat="58.006902" lon="38.882073"><ele>118.4</ele><time>2023-10-08T11:16:24Z</time></trkpt><trkpt lat="58.006912" lon="38.88224"><ele>118.3</ele><time>2023-10-08T11:16:27Z</time></trkpt><trkpt lat="58.006887" lon="38.882415"><ele>117.9</ele><time>2023-10-08T11:16:30Z</time></trkpt><trkpt lat="58.006872" lon="38.882588"><ele>117.9</ele><time>2023-10-08T11:16:33Z</time></trkpt><trkpt lat="58.006883" lon="38.882727"><ele>117.4</ele><time>2023-10-08T11:16:42Z</time></trkpt><trkpt lat="58.006937" lon="38.882877"><ele>116.6</ele><time>2023-10-08T11:16:49Z</time></trkpt><trkpt lat="58.00697" lon="38.883013"><ele>117.2</ele><time>2023-10-08T11:16:52Z</time></trkpt><trkpt lat="58.00701" lon="38.883135"><ele>117.0</ele><time>2023-10-08T11:16:57Z</time></trkpt><trkpt lat="58.007068" lon="38.883218"><ele>117.3</ele><time>2023-10-08T11:17:00Z</time></trkpt><trkpt lat="58.007107" lon="38.883355"><ele>117.3</ele><time>2023-10-08T11:17:04Z</time></trkpt><trkpt lat="58.007093" lon="38.883488"><ele>115.5</ele><time>2023-10-08T11:17:17Z</time></trkpt><trkpt lat="58.00708" lon="38.883623"><ele>115.8</ele><time>2023-10-08T11:17:24Z</time></trkpt><trkpt lat="58.007067" lon="38.883772"><ele>116.4</ele><time>2023-10-08T11:17:33Z</time></trkpt><trkpt lat="58.007062" lon="38.883913"><ele>117.0</ele><time>2023-10-08T11:17:37Z</time></trkpt><trkpt lat="58.00706" lon="38.884063"><ele>117.2</ele><time>2023-10-08T11:17:42Z</time></trkpt><trkpt lat="58.00702" lon="38.884198"><ele>117.4</ele><time>2023-10-08T11:17:49Z</time></trkpt><trkpt lat="58.007003" lon="38.884362"><ele>117.8</ele><time>2023-10-08T11:17:54Z</time></trkpt><trkpt lat="58.007012" lon="38.88453"><ele>117.0</ele><time>2023-10-08T11:17:58Z</time></trkpt><trkpt lat="58.007005" lon="38.884695"><ele>116.1</ele><time>2023-10-08T11:18:02Z</time></trkpt><trkpt lat="58.006963" lon="38.88484"><ele>116.2</ele><time>2023-10-08T11:18:05Z</time></trkpt><trkpt lat="58.006933" lon="38.885002"><ele>116.0</ele><time>2023-10-08T11:18:08Z</time></trkpt><trkpt lat="58.006922" lon="38.885158"><ele>115.9</ele><time>2023-10-08T11:18:11Z</time></trkpt><trkpt lat="58.006982" lon="38.885252"><ele>116.0</ele><time>2023-10-08T11:18:15Z</time></trkpt><trkpt lat="58.00702" lon="38.88539"><ele>116.1</ele><time>2023-10-08T11:18:23Z</time></trkpt><trkpt lat="58.00701" lon="38.885535"><ele>115.5</ele><time>2023-10-08T11:18:29Z</time></trkpt><trkpt lat="58.007077" lon="38.885587"><ele>115.3</ele><time>2023-10-08T11:18:38Z</time></trkpt><trkpt lat="58.007072" lon="38.885725"><ele>114.7</ele><time>2023-10-08T11:18:47Z</time></trkpt><trkpt lat="58.007083" lon="38.88588"><ele>114.3</ele><time>2023-10-08T11:18:49Z</time></trkpt><trkpt lat="58.00709" lon="38.886088"><ele>113.6</ele><time>2023-10-08T11:18:51Z</time></trkpt><trkpt lat="58.007117" lon="38.886235"><ele>112.9</ele><time>2023-10-08T11:18:53Z</time></trkpt><trkpt lat="58.007132" lon="38.886383"><ele>112.6</ele><time>2023-10-08T11:18:57Z</time></trkpt><trkpt lat="58.007105" lon="38.886515"><ele>113.2</ele><time>2023-10-08T11:19:00Z</time></trkpt><trkpt lat="58.007043" lon="38.886595"><ele>113.7</ele><time>2023-10-08T11:19:03Z</time></trkpt><trkpt lat="58.006967" lon="38.886658"><ele>114.5</ele><time>2023-10-08T11:19:06Z</time></trkpt><trkpt lat="58.006883" lon="38.886745"><ele>114.8</ele><time>2023-10-08T11:19:09Z</time></trkpt><trkpt lat="58.006813" lon="38.886687"><ele>114.6</ele><time>2023-10-08T11:19:16Z</time></trkpt><trkpt lat="58.006743" lon="38.886717"><ele>115.1</ele><time>2023-10-08T11:19:20Z</time></trkpt><trkpt lat="58.006693" lon="38.886858"><ele>115.0</ele><time>2023-10-08T11:19:23Z</time></trkpt><trkpt lat="58.006662" lon="38.887018"><ele>115.3</ele><time>2023-10-08T11:19:26Z</time></trkpt><trkpt lat="58.006633" lon="38.887152"><ele>115.2</ele><time>2023-10-08T11:19:31Z</time></trkpt><trkpt lat="58.006568" lon="38.887287"><ele>114.5</ele><time>2023-10-08T11:19:35Z</time></trkpt><trkpt lat="58.006513" lon="38.887398"><ele>115.1</ele><time>2023-10-08T11:19:40Z</time></trkpt><trkpt lat="58.006448" lon="38.887465"><ele>115.0</ele><time>2023-10-08T11:19:43Z</time></trkpt><trkpt lat="58.006377" lon="38.88755"><ele>114.8</ele><time>2023-10-08T11:19:50Z</time></trkpt><trkpt lat="58.006322" lon="38.887652"><ele>115.4</ele><time>2023-10-08T11:19:53Z</time></trkpt><trkpt lat="58.006278" lon="38.88779"><ele>116.0</ele><time>2023-10-08T11:19:57Z</time></trkpt><trkpt lat="58.006235" lon="38.887905"><ele>116.2</ele><time>2023-10-08T11:20:04Z</time></trkpt><trkpt lat="58.006213" lon="38.888045"><ele>117.2</ele><time>2023-10-08T11:20:11Z</time></trkpt><trkpt lat="58.0062" lon="38.888192"><ele>117.7</ele><time>2023-10-08T11:20:19Z</time></trkpt><trkpt lat="58.00613" lon="38.888237"><ele>117.8</ele><time>2023-10-08T11:20:29Z</time></trkpt><trkpt lat="58.006063" lon="38.888315"><ele>117.8</ele><time>2023-10-08T11:20:36Z</time></trkpt><trkpt lat="58.005995" lon="38.88836"><ele>117.3</ele><time>2023-10-08T11:20:42Z</time></trkpt><trkpt lat="58.005918" lon="38.888363"><ele>116.6</ele><time>2023-10-08T11:20:52Z</time></trkpt><trkpt lat="58.005833" lon="38.888395"><ele>116.3</ele><time>2023-10-08T11:20:59Z</time></trkpt><trkpt lat="58.005762" lon="38.888438"><ele>116.8</ele><time>2023-10-08T11:21:09Z</time></trkpt><trkpt lat="58.005688" lon="38.888363"><ele>116.5</ele><time>2023-10-08T11:21:16Z</time></trkpt><trkpt lat="58.005645" lon="38.888255"><ele>117.1</ele><time>2023-10-08T11:21:20Z</time></trkpt><trkpt lat="58.005588" lon="38.88816"><ele>117.3</ele><time>2023-10-08T11:21:25Z</time></trkpt><trkpt lat="58.005528" lon="38.888077"><ele>116.9</ele><time>2023-10-08T11:21:36Z</time></trkpt><trkpt lat="58.005612" lon="38.888103"><ele>116.6</ele><time>2023-10-08T11:21:57Z</time></trkpt><trkpt lat="58.005667" lon="38.88821"><ele>116.6</ele><time>2023-10-08T11:22:03Z</time></trkpt><trkpt lat="58.00573" lon="38.888318"><ele>117.2</ele><time>2023-10-08T11:22:08Z</time></trkpt><trkpt lat="58.005788" lon="38.888415"><ele>117.9</ele><time>2023-10-08T11:22:12Z</time></trkpt><trkpt lat="58.005858" lon="38.888482"><ele>118.0</ele><time>2023-10-08T11:22:16Z</time></trkpt><trkpt lat="58.005922" lon="38.888565"><ele>117.5</ele><time>2023-10-08T11:22:20Z</time></trkpt><trkpt lat="58.005982" lon="38.888663"><ele>117.4</ele><time>2023-10-08T11:22:32Z</time></trkpt><trkpt lat="58.006033" lon="38.888562"><ele>118.2</ele><time>2023-10-08T11:22:54Z</time></trkpt><trkpt lat="58.00599" lon="38.888445"><ele>118.8</ele><time>2023-10-08T11:22:59Z</time></trkpt><trkpt lat="58.006035" lon="38.88831"><ele>118.4</ele><time>2023-10-08T11:23:04Z</time></trkpt><trkpt lat="58.006075" lon="38.888195"><ele>117.9</ele><time>2023-10-08T11:23:07Z</time></trkpt><trkpt lat="58.006123" lon="38.888062"><ele>118.2</ele><time>2023-10-08T11:23:10Z</time></trkpt><trkpt lat="58.006163" lon="38.887902"><ele>118.6</ele><time>2023-10-08T11:23:14Z</time></trkpt><trkpt lat="58.006192" lon="38.88776"><ele>118.3</ele><time>2023-10-08T11:23:17Z</time></trkpt><trkpt lat="58.006178" lon="38.887575"><ele>118.3</ele><time>2023-10-08T11:23:20Z</time></trkpt><trkpt lat="58.006203" lon="38.887447"><ele>117.6</ele><time>2023-10-08T11:23:23Z</time></trkpt><trkpt lat="58.006267" lon="38.887362"><ele>117.0</ele><time>2023-10-08T11:23:26Z</time></trkpt><trkpt lat="58.006325" lon="38.887248"><ele>116.8</ele><time>2023-10-08T11:23:31Z</time></trkpt><trkpt lat="58.006322" lon="38.887112"><ele>114.6</ele><time>2023-10-08T11:23:40Z</time></trkpt><trkpt lat="58.00634" lon="38.887243"><ele>114.7</ele><time>2023-10-08T11:23:47Z</time></trkpt><trkpt lat="58.006313" lon="38.887387"><ele>115.1</ele><time>2023-10-08T11:23:51Z</time></trkpt><trkpt lat="58.006235" lon="38.887458"><ele>115.3</ele><time>2023-10-08T11:23:55Z</time></trkpt><trkpt lat="58.006158" lon="38.887492"><ele>115.0</ele><time>2023-10-08T11:23:59Z</time></trkpt><trkpt lat="58.00609" lon="38.887535"><ele>115.1</ele><time>2023-10-08T11:24:02Z</time></trkpt><trkpt lat="58.006023" lon="38.887607"><ele>115.6</ele><time>2023-10-08T11:24:05Z</time></trkpt><trkpt lat="58.00595" lon="38.887707"><ele>116.1</ele><time>2023-10-08T11:24:08Z</time></trkpt><trkpt lat="58.005865" lon="38.887747"><ele>116.6</ele><time>2023-10-08T11:24:12Z</time></trkpt><trkpt lat="58.005778" lon="38.887792"><ele>116.9</ele><time>2023-10-08T11:24:16Z</time></trkpt><trkpt lat="58.005697" lon="38.887755"><ele>116.8</ele><time>2023-10-08T11:24:20Z</time></trkpt><trkpt lat="58.005612" lon="38.887713"><ele>116.9</ele><time>2023-10-08T11:24:24Z</time></trkpt><trkpt lat="58.005528" lon="38.887707"><ele>116.7</ele><time>2023-10-08T11:24:27Z</time></trkpt><trkpt lat="58.005462" lon="38.88765"><ele>116.8</ele><time>2023-10-08T11:24:33Z</time></trkpt><trkpt lat="58.005395" lon="38.887703"><ele>116.3</ele><time>2023-10-08T11:24:42Z</time></trkpt><trkpt lat="58.005318" lon="38.887725"><ele>116.0</ele><time>2023-10-08T11:24:50Z</time></trkpt><trkpt lat="58.005255" lon="38.887643"><ele>115.7</ele><time>2023-10-08T11:24:56Z</time></trkpt><trkpt lat="58.005197" lon="38.88754"><ele>115.3</ele><time>2023-10-08T11:25:01Z</time></trkpt><trkpt lat="58.005128" lon="38.887432"><ele>114.7</ele><time>2023-10-08T11:25:06Z</time></trkpt><trkpt lat="58.005073" lon="38.887335"><ele>114.3</ele><time>2023-10-08T11:25:09Z</time></trkpt><trkpt lat="58.00503" lon="38.887195"><ele>114.3</ele><time>2023-10-08T11:25:14Z</time></trkpt><trkpt lat="58.004993" lon="38.887037"><ele>114.3</ele><time>2023-10-08T11:25:18Z</time></trkpt><trkpt lat="58.004955" lon="38.88687"><ele>113.5</ele><time>2023-10-08T11:25:21Z</time></trkpt><trkpt lat="58.004887" lon="38.88677"><ele>113.3</ele><time>2023-10-08T11:25:23Z</time></trkpt><trkpt lat="58.004808" lon="38.88672"><ele>113.4</ele><time>2023-10-08T11:25:25Z</time></trkpt><trkpt lat="58.004735" lon="38.886658"><ele>113.1</ele><time>2023-10-08T11:25:28Z</time></trkpt><trkpt lat="58.004712" lon="38.88652"><ele>113.1</ele><time>2023-10-08T11:25:34Z</time></trkpt><trkpt lat="58.004747" lon="38.886388"><ele>112.3</ele><time>2023-10-08T11:25:38Z</time></trkpt><trkpt lat="58.004797" lon="38.886282"><ele>112.0</ele><time>2023-10-08T11:25:43Z</time></trkpt><trkpt lat="58.004868" lon="38.886188"><ele>112.0</ele><time>2023-10-08T11:25:48Z</time></trkpt><trkpt lat="58.004882" lon="38.88601"><ele>111.9</ele><time>2023-10-08T11:25:54Z</time></trkpt><trkpt lat="58.00482" lon="38.88594"><ele>111.9</ele><time>2023-10-08T11:25:59Z</time></trkpt><trkpt lat="58.00475" lon="38.885993"><ele>112.0</ele><time>2023-10-08T11:26:03Z</time></trkpt><trkpt lat="58.004668" lon="38.886062"><ele>111.5</ele><time>2023-10-08T11:26:06Z</time></trkpt><trkpt lat="58.004602" lon="38.88615"><ele>112.3</ele><time>2023-10-08T11:26:10Z</time></trkpt><trkpt lat="58.00452" lon="38.886193"><ele>112.9</ele><time>2023-10-08T11:26:14Z</time></trkpt><trkpt lat="58.00444" lon="38.886213"><ele>113.2</ele><time>2023-10-08T11:26:20Z</time></trkpt><trkpt lat="58.00435" lon="38.886183"><ele>112.8</ele><time>2023-10-08T11:26:24Z</time></trkpt><trkpt lat="58.004283" lon="38.88607"><ele>112.3</ele><time>2023-10-08T11:26:28Z</time></trkpt><trkpt lat="58.00425" lon="38.885933"><ele>112.2</ele><time>2023-10-08T11:26:31Z</time></trkpt><trkpt lat="58.004223" lon="38.885797"><ele>112.2</ele><time>2023-10-08T11:26:34Z</time></trkpt><trkpt lat="58.004222" lon="38.885655"><ele>112.5</ele><time>2023-10-08T11:26:40Z</time></trkpt><trkpt lat="58.004177" lon="38.885773"><ele>111.5</ele><time>2023-10-08T11:26:46Z</time></trkpt><trkpt lat="58.004225" lon="38.88567"><ele>111.9</ele><time>2023-10-08T11:26:58Z</time></trkpt><trkpt lat="58.004298" lon="38.885633"><ele>112.4</ele><time>2023-10-08T11:27:05Z</time></trkpt><trkpt lat="58.004377" lon="38.885725"><ele>112.9</ele><time>2023-10-08T11:27:10Z</time></trkpt><trkpt lat="58.004448" lon="38.885778"><ele>112.3</ele><time>2023-10-08T11:27:13Z</time></trkpt><trkpt lat="58.004512" lon="38.885873"><ele>111.7</ele><time>2023-10-08T11:27:16Z</time></trkpt><trkpt lat="58.004583" lon="38.885918"><ele>110.5</ele><time>2023-10-08T11:27:22Z</time></trkpt><trkpt lat="58.004647" lon="38.885848"><ele>110.7</ele><time>2023-10-08T11:27:28Z</time></trkpt><trkpt lat="58.004723" lon="38.885803"><ele>110.6</ele><time>2023-10-08T11:27:32Z</time></trkpt><trkpt lat="58.004802" lon="38.885785"><ele>111.6</ele><time>2023-10-08T11:27:41Z</time></trkpt><trkpt lat="58.00486" lon="38.885693"><ele>113.3</ele><time>2023-10-08T11:28:53Z</time></trkpt><trkpt lat="58.00491" lon="38.885588"><ele>114.0</ele><time>2023-10-08T11:28:58Z</time></trkpt><trkpt lat="58.004987" lon="38.885572"><ele>112.0</ele><time>2023-10-08T11:29:02Z</time></trkpt><trkpt lat="58.005082" lon="38.885523"><ele>111.9</ele><time>2023-10-08T11:29:06Z</time></trkpt><trkpt lat="58.005167" lon="38.885483"><ele>112.0</ele><time>2023-10-08T11:29:09Z</time></trkpt><trkpt lat="58.005253" lon="38.885428"><ele>111.8</ele><time>2023-10-08T11:29:12Z</time></trkpt><trkpt lat="58.005317" lon="38.885317"><ele>112.7</ele><time>2023-10-08T11:29:16Z</time></trkpt><trkpt lat="58.005378" lon="38.885202"><ele>113.3</ele><time>2023-10-08T11:29:20Z</time></trkpt><trkpt lat="58.005453" lon="38.8851"><ele>114.3</ele><time>2023-10-08T11:29:24Z</time></trkpt><trkpt lat="58.005507" lon="38.884988"><ele>113.9</ele><time>2023-10-08T11:29:27Z</time></trkpt><trkpt lat="58.005543" lon="38.884857"><ele>115.0</ele><time>2023-10-08T11:29:31Z</time></trkpt><trkpt lat="58.005513" lon="38.884715"><ele>115.7</ele><time>2023-10-08T11:29:39Z</time></trkpt><trkpt lat="58.00551" lon="38.884578"><ele>115.5</ele><time>2023-10-08T11:29:42Z</time></trkpt><trkpt lat="58.005503" lon="38.884415"><ele>115.7</ele><time>2023-10-08T11:29:45Z</time></trkpt><trkpt lat="58.005545" lon="38.884233"><ele>115.1</ele><time>2023-10-08T11:29:48Z</time></trkpt><trkpt lat="58.005608" lon="38.884152"><ele>114.7</ele><time>2023-10-08T11:29:51Z</time></trkpt><trkpt lat="58.00567" lon="38.884057"><ele>114.6</ele><time>2023-10-08T11:29:54Z</time></trkpt><trkpt lat="58.005723" lon="38.883928"><ele>114.2</ele><time>2023-10-08T11:29:57Z</time></trkpt><trkpt lat="58.005773" lon="38.88381"><ele>113.8</ele><time>2023-10-08T11:30:01Z</time></trkpt><trkpt lat="58.005778" lon="38.883657"><ele>114.0</ele><time>2023-10-08T11:30:07Z</time></trkpt><trkpt lat="58.005708" lon="38.883612"><ele>111.8</ele><time>2023-10-08T11:30:16Z</time></trkpt><trkpt lat="58.005743" lon="38.883468"><ele>111.3</ele><time>2023-10-08T11:30:42Z</time></trkpt><trkpt lat="58.005757" lon="38.88332"><ele>111.8</ele><time>2023-10-08T11:30:48Z</time></trkpt><trkpt lat="58.005747" lon="38.883148"><ele>112.4</ele><time>2023-10-08T11:30:53Z</time></trkpt><trkpt lat="58.005725" lon="38.883015"><ele>112.7</ele><time>2023-10-08T11:30:57Z</time></trkpt><trkpt lat="58.005708" lon="38.88287"><ele>113.0</ele><time>2023-10-08T11:31:00Z</time></trkpt><trkpt lat="58.00566" lon="38.882732"><ele>113.0</ele><time>2023-10-08T11:31:03Z</time></trkpt><trkpt lat="58.005578" lon="38.882602"><ele>112.4</ele><time>2023-10-08T11:31:06Z</time></trkpt><trkpt lat="58.005518" lon="38.882523"><ele>112.2</ele><time>2023-10-08T11:31:08Z</time></trkpt><trkpt lat="58.005493" lon="38.882383"><ele>112.5</ele><time>2023-10-08T11:31:11Z</time></trkpt><trkpt lat="58.005515" lon="38.882237"><ele>111.7</ele><time>2023-10-08T11:31:14Z</time></trkpt><trkpt lat="58.005567" lon="38.882095"><ele>111.2</ele><time>2023-10-08T11:31:17Z</time></trkpt><trkpt lat="58.005568" lon="38.881932"><ele>111.3</ele><time>2023-10-08T11:31:21Z</time></trkpt><trkpt lat="58.005597" lon="38.8818"><ele>111.2</ele><time>2023-10-08T11:31:24Z</time></trkpt><trkpt lat="58.005635" lon="38.881632"><ele>111.6</ele><time>2023-10-08T11:31:27Z</time></trkpt><trkpt lat="58.005667" lon="38.881497"><ele>112.3</ele><time>2023-10-08T11:31:31Z</time></trkpt><trkpt lat="58.005713" lon="38.881335"><ele>112.6</ele><time>2023-10-08T11:31:34Z</time></trkpt><trkpt lat="58.005742" lon="38.881197"><ele>113.3</ele><time>2023-10-08T11:31:38Z</time></trkpt><trkpt lat="58.005717" lon="38.88106"><ele>112.8</ele><time>2023-10-08T11:31:45Z</time></trkpt><trkpt lat="58.005753" lon="38.881182"><ele>113.2</ele><time>2023-10-08T11:32:18Z</time></trkpt><trkpt lat="58.005677" lon="38.881255"><ele>111.9</ele><time>2023-10-08T11:32:28Z</time></trkpt><trkpt lat="58.0056" lon="38.88128"><ele>111.5</ele><time>2023-10-08T11:32:35Z</time></trkpt><trkpt lat="58.005548" lon="38.881178"><ele>110.1</ele><time>2023-10-08T11:32:38Z</time></trkpt><trkpt lat="58.005485" lon="38.881072"><ele>109.2</ele><time>2023-10-08T11:32:42Z</time></trkpt><trkpt lat="58.005418" lon="38.880992"><ele>109.8</ele><time>2023-10-08T11:32:47Z</time></trkpt><trkpt lat="58.005352" lon="38.880938"><ele>110.5</ele><time>2023-10-08T11:32:53Z</time></trkpt><trkpt lat="58.005275" lon="38.88094"><ele>110.9</ele><time>2023-10-08T11:32:57Z</time></trkpt><trkpt lat="58.005192" lon="38.880928"><ele>110.7</ele><time>2023-10-08T11:33:02Z</time></trkpt><trkpt lat="58.005112" lon="38.880905"><ele>110.7</ele><time>2023-10-08T11:33:09Z</time></trkpt><trkpt lat="58.005028" lon="38.880855"><ele>110.2</ele><time>2023-10-08T11:33:13Z</time></trkpt><trkpt lat="58.004998" lon="38.880718"><ele>109.6</ele><time>2023-10-08T11:33:16Z</time></trkpt><trkpt lat="58.004973" lon="38.880567"><ele>108.9</ele><time>2023-10-08T11:33:20Z</time></trkpt><trkpt lat="58.004947" lon="38.88041"><ele>108.4</ele><time>2023-10-08T11:33:25Z</time></trkpt><trkpt lat="58.004883" lon="38.880333"><ele>107.8</ele><time>2023-10-08T11:33:30Z</time></trkpt><trkpt lat="58.004802" lon="38.880233"><ele>107.2</ele><time>2023-10-08T11:33:34Z</time></trkpt><trkpt lat="58.004772" lon="38.88009"><ele>106.7</ele><time>2023-10-08T11:33:37Z</time></trkpt><trkpt lat="58.004758" lon="38.879937"><ele>106.1</ele><time>2023-10-08T11:33:40Z</time></trkpt><trkpt lat="58.004748" lon="38.87978"><ele>106.8</ele><time>2023-10-08T11:33:44Z</time></trkpt><trkpt lat="58.004785" lon="38.879608"><ele>107.9</ele><time>2023-10-08T11:33:49Z</time></trkpt><trkpt lat="58.004827" lon="38.879472"><ele>108.6</ele><time>2023-10-08T11:33:53Z</time></trkpt><trkpt lat="58.004868" lon="38.8793"><ele>109.1</ele><time>2023-10-08T11:33:59Z</time></trkpt><trkpt lat="58.004932" lon="38.879198"><ele>109.3</ele><time>2023-10-08T11:34:02Z</time></trkpt><trkpt lat="58.004923" lon="38.879063"><ele>109.3</ele><time>2023-10-08T11:34:06Z</time></trkpt><trkpt lat="58.004933" lon="38.878922"><ele>109.6</ele><time>2023-10-08T11:34:14Z</time></trkpt><trkpt lat="58.004898" lon="38.878792"><ele>109.9</ele><time>2023-10-08T11:34:21Z</time></trkpt><trkpt lat="58.004922" lon="38.878643"><ele>109.5</ele><time>2023-10-08T11:34:25Z</time></trkpt><trkpt lat="58.004927" lon="38.878502"><ele>109.4</ele><time>2023-10-08T11:34:29Z</time></trkpt><trkpt lat="58.004913" lon="38.878355"><ele>110.0</ele><time>2023-10-08T11:34:50Z</time></trkpt><trkpt lat="58.004923" lon="38.878215"><ele>109.1</ele><time>2023-10-08T11:35:10Z</time></trkpt><trkpt lat="58.004972" lon="38.878103"><ele>109.4</ele><time>2023-10-08T11:35:21Z</time></trkpt><trkpt lat="58.005017" lon="38.87799"><ele>109.7</ele><time>2023-10-08T11:35:36Z</time></trkpt><trkpt lat="58.005038" lon="38.877847"><ele>109.0</ele><time>2023-10-08T11:35:43Z</time></trkpt><trkpt lat="58.005065" lon="38.8777"><ele>108.1</ele><time>2023-10-08T11:36:05Z</time></trkpt><trkpt lat="58.005088" lon="38.877567"><ele>108.3</ele><time>2023-10-08T11:36:23Z</time></trkpt><trkpt lat="58.005138" lon="38.877463"><ele>107.5</ele><time>2023-10-08T11:36:39Z</time></trkpt><trkpt lat="58.005212" lon="38.877392"><ele>107.4</ele><time>2023-10-08T11:36:43Z</time></trkpt><trkpt lat="58.005252" lon="38.877275"><ele>106.1</ele><time>2023-10-08T11:36:47Z</time></trkpt><trkpt lat="58.005268" lon="38.877123"><ele>105.7</ele><time>2023-10-08T11:36:50Z</time></trkpt><trkpt lat="58.005288" lon="38.876982"><ele>104.9</ele><time>2023-10-08T11:36:54Z</time></trkpt><trkpt lat="58.005367" lon="38.876945"><ele>104.1</ele><time>2023-10-08T11:36:59Z</time></trkpt><trkpt lat="58.005433" lon="38.876865"><ele>104.5</ele><time>2023-10-08T11:37:04Z</time></trkpt><trkpt lat="58.005512" lon="38.876775"><ele>104.4</ele><time>2023-10-08T11:37:09Z</time></trkpt><trkpt lat="58.005525" lon="38.876608"><ele>105.3</ele><time>2023-10-08T11:37:13Z</time></trkpt><trkpt lat="58.005542" lon="38.876475"><ele>104.3</ele><time>2023-10-08T11:37:21Z</time></trkpt><trkpt lat="58.005587" lon="38.876355"><ele>103.6</ele><time>2023-10-08T11:37:28Z</time></trkpt><trkpt lat="58.005663" lon="38.876318"><ele>103.4</ele><time>2023-10-08T11:37:34Z</time></trkpt><trkpt lat="58.005738" lon="38.876285"><ele>103.4</ele><time>2023-10-08T11:37:41Z</time></trkpt><trkpt lat="58.005813" lon="38.876238"><ele>103.1</ele><time>2023-10-08T11:37:49Z</time></trkpt><trkpt lat="58.005877" lon="38.876173"><ele>102.0</ele><time>2023-10-08T11:37:55Z</time></trkpt><trkpt lat="58.005947" lon="38.876115"><ele>101.8</ele><time>2023-10-08T11:38:05Z</time></trkpt><trkpt lat="58.006022" lon="38.876063"><ele>101.7</ele><time>2023-10-08T11:38:11Z</time></trkpt><trkpt lat="58.006095" lon="38.876017"><ele>101.3</ele><time>2023-10-08T11:38:18Z</time></trkpt><trkpt lat="58.006128" lon="38.875895"><ele>101.6</ele><time>2023-10-08T11:38:53Z</time></trkpt><trkpt lat="58.006143" lon="38.876037"><ele>99.5</ele><time>2023-10-08T11:39:33Z</time></trkpt><trkpt lat="58.006202" lon="38.875918"><ele>99.2</ele><time>2023-10-08T11:40:02Z</time></trkpt><trkpt lat="58.00626" lon="38.87583"><ele>99.0</ele><time>2023-10-08T11:40:05Z</time></trkpt><trkpt lat="58.006323" lon="38.87577"><ele>99.5</ele><time>2023-10-08T11:40:15Z</time></trkpt><trkpt lat="58.006375" lon="38.875662"><ele>99.6</ele><time>2023-10-08T11:40:40Z</time></trkpt><trkpt lat="58.00644" lon="38.87559"><ele>99.0</ele><time>2023-10-08T11:40:46Z</time></trkpt><trkpt lat="58.006513" lon="38.875645"><ele>99.0</ele><time>2023-10-08T11:40:52Z</time></trkpt><trkpt lat="58.006582" lon="38.875578"><ele>98.1</ele><time>2023-10-08T11:41:05Z</time></trkpt><trkpt lat="58.006647" lon="38.875515"><ele>98.6</ele><time>2023-10-08T11:41:13Z</time></trkpt><trkpt lat="58.00672" lon="38.875422"><ele>98.4</ele><time>2023-10-08T11:41:19Z</time></trkpt><trkpt lat="58.006782" lon="38.875328"><ele>98.3</ele><time>2023-10-08T11:41:24Z</time></trkpt><trkpt lat="58.00685" lon="38.87526"><ele>98.8</ele><time>2023-10-08T11:41:27Z</time></trkpt><trkpt lat="58.006908" lon="38.875177"><ele>98.8</ele><time>2023-10-08T11:41:31Z</time></trkpt><trkpt lat="58.006967" lon="38.875062"><ele>98.1</ele><time>2023-10-08T11:41:37Z</time></trkpt><trkpt lat="58.00705" lon="38.874927"><ele>97.8</ele><time>2023-10-08T11:41:40Z</time></trkpt><trkpt lat="58.007103" lon="38.874802"><ele>99.2</ele><time>2023-10-08T11:41:43Z</time></trkpt><trkpt lat="58.007142" lon="38.874658"><ele>99.9</ele><time>2023-10-08T11:41:46Z</time></trkpt><trkpt lat="58.007192" lon="38.874497"><ele>100.0</ele><time>2023-10-08T11:41:49Z</time></trkpt><trkpt lat="58.007255" lon="38.874375"><ele>100.4</ele><time>2023-10-08T11:41:51Z</time></trkpt><trkpt lat="58.007338" lon="38.874398"><ele>101.1</ele><time>2023-10-08T11:41:58Z</time></trkpt><trkpt lat="58.007317" lon="38.874238"><ele>100.8</ele><time>2023-10-08T11:42:13Z</time></trkpt><trkpt lat="58.00736" lon="38.874127"><ele>101.1</ele><time>2023-10-08T11:42:18Z</time></trkpt><trkpt lat="58.007378" lon="38.873983"><ele>100.4</ele><time>2023-10-08T11:42:34Z</time></trkpt><trkpt lat="58.007352" lon="38.87385"><ele>99.9</ele><time>2023-10-08T11:42:39Z</time></trkpt><trkpt lat="58.007377" lon="38.873723"><ele>99.6</ele><time>2023-10-08T11:42:44Z</time></trkpt><trkpt lat="58.007448" lon="38.873757"><ele>99.6</ele><time>2023-10-08T11:42:51Z</time></trkpt><trkpt lat="58.00751" lon="38.87383"><ele>100.5</ele><time>2023-10-08T11:43:00Z</time></trkpt><trkpt lat="58.007572" lon="38.87393"><ele>102.4</ele><time>2023-10-08T11:43:19Z</time></trkpt><trkpt lat="58.00763" lon="38.874028"><ele>103.0</ele><time>2023-10-08T11:43:25Z</time></trkpt><trkpt lat="58.00767" lon="38.874142"><ele>103.6</ele><time>2023-10-08T11:43:32Z</time></trkpt><trkpt lat="58.007725" lon="38.874247"><ele>103.7</ele><time>2023-10-08T11:43:39Z</time></trkpt><trkpt lat="58.007777" lon="38.874358"><ele>103.3</ele><time>2023-10-08T11:43:44Z</time></trkpt><trkpt lat="58.007865" lon="38.874283"><ele>103.0</ele><time>2023-10-08T11:43:51Z</time></trkpt><trkpt lat="58.007932" lon="38.874183"><ele>103.0</ele><time>2023-10-08T11:43:56Z</time></trkpt><trkpt lat="58.00799" lon="38.874088"><ele>103.2</ele><time>2023-10-08T11:44:03Z</time></trkpt><trkpt lat="58.008075" lon="38.874113"><ele>102.5</ele><time>2023-10-08T11:44:09Z</time></trkpt><trkpt lat="58.00815" lon="38.8741"><ele>102.5</ele><time>2023-10-08T11:44:18Z</time></trkpt><trkpt lat="58.008233" lon="38.874102"><ele>102.2</ele><time>2023-10-08T11:44:25Z</time></trkpt><trkpt lat="58.008307" lon="38.874092"><ele>101.7</ele><time>2023-10-08T11:44:28Z</time></trkpt><trkpt lat="58.008365" lon="38.873955"><ele>102.6</ele><time>2023-10-08T11:44:32Z</time></trkpt><trkpt lat="58.00837" lon="38.873808"><ele>102.9</ele><time>2023-10-08T11:44:35Z</time></trkpt><trkpt lat="58.008378" lon="38.87365"><ele>102.8</ele><time>2023-10-08T11:44:38Z</time></trkpt><trkpt lat="58.008382" lon="38.873483"><ele>102.7</ele><time>2023-10-08T11:44:42Z</time></trkpt><trkpt lat="58.008377" lon="38.873315"><ele>102.7</ele><time>2023-10-08T11:44:45Z</time></trkpt><trkpt lat="58.008363" lon="38.873115"><ele>103.3</ele><time>2023-10-08T11:44:48Z</time></trkpt><trkpt lat="58.008353" lon="38.872945"><ele>103.6</ele><time>2023-10-08T11:44:51Z</time></trkpt><trkpt lat="58.008357" lon="38.87279"><ele>104.0</ele><time>2023-10-08T11:44:54Z</time></trkpt><trkpt lat="58.008353" lon="38.872638"><ele>104.2</ele><time>2023-10-08T11:44:57Z</time></trkpt><trkpt lat="58.008358" lon="38.872483"><ele>104.1</ele><time>2023-10-08T11:45:00Z</time></trkpt><trkpt lat="58.008382" lon="38.872313"><ele>103.5</ele><time>2023-10-08T11:45:03Z</time></trkpt><trkpt lat="58.008388" lon="38.872148"><ele>103.1</ele><time>2023-10-08T11:45:06Z</time></trkpt><trkpt lat="58.008393" lon="38.871975"><ele>103.0</ele><time>2023-10-08T11:45:09Z</time></trkpt><trkpt lat="58.0084" lon="38.871777"><ele>103.5</ele><time>2023-10-08T11:45:12Z</time></trkpt><trkpt lat="58.008388" lon="38.87164"><ele>103.6</ele><time>2023-10-08T11:45:15Z</time></trkpt><trkpt lat="58.008375" lon="38.87147"><ele>104.1</ele><time>2023-10-08T11:45:18Z</time></trkpt><trkpt lat="58.008375" lon="38.87127"><ele>103.5</ele><time>2023-10-08T11:45:21Z</time></trkpt><trkpt lat="58.008397" lon="38.87112"><ele>103.2</ele><time>2023-10-08T11:45:23Z</time></trkpt><trkpt lat="58.00841" lon="38.870943"><ele>103.1</ele><time>2023-10-08T11:45:26Z</time></trkpt><trkpt lat="58.008385" lon="38.870777"><ele>103.5</ele><time>2023-10-08T11:45:29Z</time></trkpt><trkpt lat="58.008395" lon="38.870603"><ele>103.5</ele><time>2023-10-08T11:45:32Z</time></trkpt><trkpt lat="58.00841" lon="38.870427"><ele>103.6</ele><time>2023-10-08T11:45:35Z</time></trkpt><trkpt lat="58.008412" lon="38.870253"><ele>103.8</ele><time>2023-10-08T11:45:38Z</time></trkpt><trkpt lat="58.008395" lon="38.870073"><ele>103.5</ele><time>2023-10-08T11:45:41Z</time></trkpt><trkpt lat="58.008395" lon="38.869935"><ele>103.2</ele><time>2023-10-08T11:45:43Z</time></trkpt><trkpt lat="58.008382" lon="38.86978"><ele>102.9</ele><time>2023-10-08T11:45:46Z</time></trkpt><trkpt lat="58.008358" lon="38.869628"><ele>102.5</ele><time>2023-10-08T11:45:49Z</time></trkpt><trkpt lat="58.008358" lon="38.86946"><ele>102.8</ele><time>2023-10-08T11:45:52Z</time></trkpt><trkpt lat="58.008365" lon="38.869302"><ele>103.2</ele><time>2023-10-08T11:45:55Z</time></trkpt><trkpt lat="58.008368" lon="38.869145"><ele>104.1</ele><time>2023-10-08T11:45:58Z</time></trkpt><trkpt lat="58.008378" lon="38.868988"><ele>104.1</ele><time>2023-10-08T11:46:01Z</time></trkpt><trkpt lat="58.00836" lon="38.868837"><ele>104.3</ele><time>2023-10-08T11:46:06Z</time></trkpt><trkpt lat="58.00834" lon="38.868697"><ele>105.8</ele><time>2023-10-08T11:46:11Z</time></trkpt><trkpt lat="58.008273" lon="38.868612"><ele>106.8</ele><time>2023-10-08T11:46:17Z</time></trkpt><trkpt lat="58.008358" lon="38.868635"><ele>107.1</ele><time>2023-10-08T11:46:31Z</time></trkpt><trkpt lat="58.008288" lon="38.868563"><ele>107.3</ele><time>2023-10-08T11:46:37Z</time></trkpt><trkpt lat="58.008208" lon="38.868553"><ele>108.8</ele><time>2023-10-08T11:46:43Z</time></trkpt><trkpt lat="58.008128" lon="38.868548"><ele>110.0</ele><time>2023-10-08T11:46:49Z</time></trkpt><trkpt lat="58.008135" lon="38.868388"><ele>109.3</ele><time>2023-10-08T11:47:11Z</time></trkpt><trkpt lat="58.00809" lon="38.868277"><ele>110.8</ele><time>2023-10-08T11:47:16Z</time></trkpt><trkpt lat="58.00802" lon="38.868212"><ele>113.6</ele><time>2023-10-08T11:47:21Z</time></trkpt><trkpt lat="58.008033" lon="38.868067"><ele>113.8</ele><time>2023-10-08T11:47:27Z</time></trkpt><trkpt lat="58.008012" lon="38.867925"><ele>113.7</ele><time>2023-10-08T11:47:31Z</time></trkpt><trkpt lat="58.007972" lon="38.867805"><ele>111.6</ele><time>2023-10-08T11:47:35Z</time></trkpt><trkpt lat="58.007932" lon="38.867688"><ele>111.0</ele><time>2023-10-08T11:47:38Z</time></trkpt><trkpt lat="58.007962" lon="38.867538"><ele>110.9</ele><time>2023-10-08T11:47:40Z</time></trkpt><trkpt lat="58.008017" lon="38.867377"><ele>110.9</ele><time>2023-10-08T11:47:42Z</time></trkpt><trkpt lat="58.00805" lon="38.867248"><ele>111.3</ele><time>2023-10-08T11:47:45Z</time></trkpt><trkpt lat="58.008097" lon="38.867127"><ele>111.0</ele><time>2023-10-08T11:47:48Z</time></trkpt><trkpt lat="58.008085" lon="38.866985"><ele>111.0</ele><time>2023-10-08T11:47:51Z</time></trkpt><trkpt lat="58.00807" lon="38.866835"><ele>112.4</ele><time>2023-10-08T11:47:55Z</time></trkpt><trkpt lat="58.008083" lon="38.866698"><ele>112.0</ele><time>2023-10-08T11:47:59Z</time></trkpt><trkpt lat="58.00811" lon="38.866553"><ele>111.5</ele><time>2023-10-08T11:48:06Z</time></trkpt><trkpt lat="58.008073" lon="38.86642"><ele>110.7</ele><time>2023-10-08T11:48:12Z</time></trkpt><trkpt lat="58.008078" lon="38.866253"><ele>109.5</ele><time>2023-10-08T11:48:19Z</time></trkpt><trkpt lat="58.008043" lon="38.866117"><ele>109.1</ele><time>2023-10-08T11:48:22Z</time></trkpt><trkpt lat="58.008055" lon="38.865965"><ele>109.1</ele><time>2023-10-08T11:48:25Z</time></trkpt><trkpt lat="58.0081" lon="38.865795"><ele>109.5</ele><time>2023-10-08T11:48:28Z</time></trkpt><trkpt lat="58.008133" lon="38.865652"><ele>109.5</ele><time>2023-10-08T11:48:31Z</time></trkpt><trkpt lat="58.008105" lon="38.865507"><ele>109.8</ele><time>2023-10-08T11:48:36Z</time></trkpt><trkpt lat="58.008082" lon="38.865375"><ele>109.1</ele><time>2023-10-08T11:48:43Z</time></trkpt><trkpt lat="58.008013" lon="38.865307"><ele>108.8</ele><time>2023-10-08T11:48:54Z</time></trkpt><trkpt lat="58.007985" lon="38.865172"><ele>109.8</ele><time>2023-10-08T11:49:01Z</time></trkpt><trkpt lat="58.007978" lon="38.865032"><ele>109.4</ele><time>2023-10-08T11:49:09Z</time></trkpt><trkpt lat="58.007945" lon="38.864912"><ele>109.9</ele><time>2023-10-08T11:49:20Z</time></trkpt><trkpt lat="58.007893" lon="38.865005"><ele>111.5</ele><time>2023-10-08T11:49:48Z</time></trkpt><trkpt lat="58.007948" lon="38.865103"><ele>111.9</ele><time>2023-10-08T11:50:25Z</time></trkpt><trkpt lat="58.007945" lon="38.86526"><ele>111.4</ele><time>2023-10-08T11:50:32Z</time></trkpt><trkpt lat="58.007888" lon="38.865373"><ele>111.9</ele><time>2023-10-08T11:50:36Z</time></trkpt><trkpt lat="58.007815" lon="38.86544"><ele>113.1</ele><time>2023-10-08T11:50:49Z</time></trkpt><trkpt lat="58.007833" lon="38.865592"><ele>112.6</ele><time>2023-10-08T11:50:57Z</time></trkpt><trkpt lat="58.00787" lon="38.865735"><ele>113.0</ele><time>2023-10-08T11:51:02Z</time></trkpt><trkpt lat="58.007893" lon="38.86588"><ele>113.2</ele><time>2023-10-08T11:51:06Z</time></trkpt><trkpt lat="58.007842" lon="38.865988"><ele>112.8</ele><time>2023-10-08T11:51:11Z</time></trkpt><trkpt lat="58.007767" lon="38.866078"><ele>112.6</ele><time>2023-10-08T11:51:14Z</time></trkpt><trkpt lat="58.007695" lon="38.866103"><ele>112.8</ele><time>2023-10-08T11:51:17Z</time></trkpt><trkpt lat="58.007613" lon="38.866162"><ele>113.5</ele><time>2023-10-08T11:51:21Z</time></trkpt><trkpt lat="58.007555" lon="38.866255"><ele>114.0</ele><time>2023-10-08T11:51:26Z</time></trkpt><trkpt lat="58.007478" lon="38.866343"><ele>115.3</ele><time>2023-10-08T11:51:31Z</time></trkpt><trkpt lat="58.007403" lon="38.866435"><ele>115.7</ele><time>2023-10-08T11:51:35Z</time></trkpt><trkpt lat="58.00734" lon="38.866507"><ele>116.0</ele><time>2023-10-08T11:51:39Z</time></trkpt><trkpt lat="58.007298" lon="38.866618"><ele>116.3</ele><time>2023-10-08T11:51:42Z</time></trkpt><trkpt lat="58.007223" lon="38.86663"><ele>116.6</ele><time>2023-10-08T11:51:45Z</time></trkpt><trkpt lat="58.00714" lon="38.866573"><ele>116.3</ele><time>2023-10-08T11:51:49Z</time></trkpt><trkpt lat="58.007068" lon="38.866482"><ele>115.5</ele><time>2023-10-08T11:51:54Z</time></trkpt><trkpt lat="58.006997" lon="38.866472"><ele>115.1</ele><time>2023-10-08T11:51:58Z</time></trkpt><trkpt lat="58.00691" lon="38.866478"><ele>114.6</ele><time>2023-10-08T11:52:02Z</time></trkpt><trkpt lat="58.006865" lon="38.866358"><ele>113.9</ele><time>2023-10-08T11:52:07Z</time></trkpt><trkpt lat="58.00685" lon="38.866225"><ele>114.0</ele><time>2023-10-08T11:52:10Z</time></trkpt><trkpt lat="58.006845" lon="38.866083"><ele>113.6</ele><time>2023-10-08T11:52:14Z</time></trkpt><trkpt lat="58.006762" lon="38.866112"><ele>113.4</ele><time>2023-10-08T11:52:25Z</time></trkpt><trkpt lat="58.00668" lon="38.866117"><ele>112.9</ele><time>2023-10-08T11:52:33Z</time></trkpt><trkpt lat="58.006605" lon="38.86618"><ele>113.2</ele><time>2023-10-08T11:52:39Z</time></trkpt><trkpt lat="58.006522" lon="38.86624"><ele>113.2</ele><time>2023-10-08T11:52:43Z</time></trkpt><trkpt lat="58.006455" lon="38.866295"><ele>113.3</ele><time>2023-10-08T11:52:48Z</time></trkpt><trkpt lat="58.0064" lon="38.866198"><ele>114.9</ele><time>2023-10-08T11:53:03Z</time></trkpt><trkpt lat="58.006318" lon="38.866243"><ele>114.8</ele><time>2023-10-08T11:53:10Z</time></trkpt><trkpt lat="58.006232" lon="38.866207"><ele>114.8</ele><time>2023-10-08T11:53:15Z</time></trkpt><trkpt lat="58.006148" lon="38.866198"><ele>114.5</ele><time>2023-10-08T11:53:20Z</time></trkpt><trkpt lat="58.006082" lon="38.866257"><ele>114.2</ele><time>2023-10-08T11:53:30Z</time></trkpt><trkpt lat="58.006022" lon="38.866355"><ele>114.7</ele><time>2023-10-08T11:53:42Z</time></trkpt><trkpt lat="58.005942" lon="38.866382"><ele>115.3</ele><time>2023-10-08T11:53:49Z</time></trkpt><trkpt lat="58.00587" lon="38.866358"><ele>115.1</ele><time>2023-10-08T11:53:56Z</time></trkpt><trkpt lat="58.005827" lon="38.86624"><ele>114.6</ele><time>2023-10-08T11:53:59Z</time></trkpt><trkpt lat="58.00581" lon="38.866103"><ele>114.5</ele><time>2023-10-08T11:54:02Z</time></trkpt><trkpt lat="58.005815" lon="38.865965"><ele>114.5</ele><time>2023-10-08T11:54:05Z</time></trkpt><trkpt lat="58.005843" lon="38.865808"><ele>114.5</ele><time>2023-10-08T11:54:08Z</time></trkpt><trkpt lat="58.005875" lon="38.865633"><ele>114.4</ele><time>2023-10-08T11:54:12Z</time></trkpt><trkpt lat="58.005885" lon="38.865492"><ele>114.0</ele><time>2023-10-08T11:54:18Z</time></trkpt><trkpt lat="58.005912" lon="38.86535"><ele>113.7</ele><time>2023-10-08T11:54:24Z</time></trkpt><trkpt lat="58.005987" lon="38.865377"><ele>114.2</ele><time>2023-10-08T11:54:36Z</time></trkpt><trkpt lat="58.006012" lon="38.865245"><ele>114.7</ele><time>2023-10-08T11:54:50Z</time></trkpt><trkpt lat="58.006097" lon="38.865212"><ele>114.3</ele><time>2023-10-08T11:54:53Z</time></trkpt><trkpt lat="58.006178" lon="38.865203"><ele>114.4</ele><time>2023-10-08T11:54:56Z</time></trkpt><trkpt lat="58.006265" lon="38.865157"><ele>114.0</ele><time>2023-10-08T11:55:00Z</time></trkpt><trkpt lat="58.006358" lon="38.865127"><ele>113.9</ele><time>2023-10-08T11:55:04Z</time></trkpt><trkpt lat="58.00643" lon="38.865085"><ele>114.0</ele><time>2023-10-08T11:55:11Z</time></trkpt><trkpt lat="58.006503" lon="38.865027"><ele>113.8</ele><time>2023-10-08T11:55:14Z</time></trkpt><trkpt lat="58.006587" lon="38.865007"><ele>113.8</ele><time>2023-10-08T11:55:17Z</time></trkpt><trkpt lat="58.006662" lon="38.865023"><ele>114.3</ele><time>2023-10-08T11:55:23Z</time></trkpt><trkpt lat="58.006743" lon="38.865007"><ele>114.4</ele><time>2023-10-08T11:55:31Z</time></trkpt><trkpt lat="58.00681" lon="38.865065"><ele>114.7</ele><time>2023-10-08T11:55:41Z</time></trkpt><trkpt lat="58.006885" lon="38.8651"><ele>115.0</ele><time>2023-10-08T11:55:52Z</time></trkpt><trkpt lat="58.00684" lon="38.865217"><ele>115.7</ele><time>2023-10-08T11:56:05Z</time></trkpt><trkpt lat="58.00676" lon="38.865222"><ele>115.3</ele><time>2023-10-08T11:56:15Z</time></trkpt><trkpt lat="58.006688" lon="38.865145"><ele>115.2</ele><time>2023-10-08T11:56:20Z</time></trkpt><trkpt lat="58.006597" lon="38.865123"><ele>114.6</ele><time>2023-10-08T11:56:24Z</time></trkpt><trkpt lat="58.006508" lon="38.865162"><ele>114.4</ele><time>2023-10-08T11:56:29Z</time></trkpt><trkpt lat="58.006443" lon="38.86523"><ele>114.4</ele><time>2023-10-08T11:56:33Z</time></trkpt><trkpt lat="58.006357" lon="38.865263"><ele>114.3</ele><time>2023-10-08T11:56:37Z</time></trkpt><trkpt lat="58.00628" lon="38.865307"><ele>114.8</ele><time>2023-10-08T11:56:40Z</time></trkpt><trkpt lat="58.00621" lon="38.865368"><ele>114.6</ele><time>2023-10-08T11:56:42Z</time></trkpt><trkpt lat="58.006138" lon="38.865393"><ele>114.9</ele><time>2023-10-08T11:56:44Z</time></trkpt><trkpt lat="58.006055" lon="38.865468"><ele>115.0</ele><time>2023-10-08T11:57:01Z</time></trkpt><trkpt lat="58.005982" lon="38.865542"><ele>114.9</ele><time>2023-10-08T11:57:05Z</time></trkpt><trkpt lat="58.005888" lon="38.865552"><ele>114.5</ele><time>2023-10-08T11:57:08Z</time></trkpt><trkpt lat="58.005807" lon="38.865587"><ele>114.2</ele><time>2023-10-08T11:57:11Z</time></trkpt><trkpt lat="58.005712" lon="38.865657"><ele>114.1</ele><time>2023-10-08T11:57:14Z</time></trkpt><trkpt lat="58.005628" lon="38.865728"><ele>114.1</ele><time>2023-10-08T11:57:17Z</time></trkpt><trkpt lat="58.005548" lon="38.865783"><ele>114.3</ele><time>2023-10-08T11:57:20Z</time></trkpt><trkpt lat="58.005477" lon="38.865857"><ele>114.6</ele><time>2023-10-08T11:57:23Z</time></trkpt><trkpt lat="58.005405" lon="38.865918"><ele>115.1</ele><time>2023-10-08T11:57:26Z</time></trkpt><trkpt lat="58.005332" lon="38.865985"><ele>115.0</ele><time>2023-10-08T11:57:29Z</time></trkpt><trkpt lat="58.00526" lon="38.866038"><ele>115.2</ele><time>2023-10-08T11:57:32Z</time></trkpt><trkpt lat="58.00517" lon="38.866068"><ele>115.4</ele><time>2023-10-08T11:57:35Z</time></trkpt><trkpt lat="58.005085" lon="38.866103"><ele>115.3</ele><time>2023-10-08T11:57:38Z</time></trkpt><trkpt lat="58.005013" lon="38.866152"><ele>115.3</ele><time>2023-10-08T11:57:42Z</time></trkpt><trkpt lat="58.00497" lon="38.866278"><ele>115.2</ele><time>2023-10-08T11:57:50Z</time></trkpt><trkpt lat="58.004983" lon="38.866422"><ele>116.3</ele><time>2023-10-08T11:58:01Z</time></trkpt><trkpt lat="58.00492" lon="38.866523"><ele>116.3</ele><time>2023-10-08T11:58:07Z</time></trkpt><trkpt lat="58.004868" lon="38.866657"><ele>115.5</ele><time>2023-10-08T11:58:12Z</time></trkpt><trkpt lat="58.00484" lon="38.866783"><ele>115.9</ele><time>2023-10-08T11:58:18Z</time></trkpt><trkpt lat="58.004788" lon="38.866893"><ele>115.4</ele><time>2023-10-08T11:58:24Z</time></trkpt><trkpt lat="58.004772" lon="38.86705"><ele>115.9</ele><time>2023-10-08T11:58:29Z</time></trkpt><trkpt lat="58.004775" lon="38.867212"><ele>116.5</ele><time>2023-10-08T11:58:34Z</time></trkpt><trkpt lat="58.004777" lon="38.86738"><ele>117.8</ele><time>2023-10-08T11:58:41Z</time></trkpt><trkpt lat="58.00474" lon="38.867507"><ele>118.2</ele><time>2023-10-08T11:58:46Z</time></trkpt><trkpt lat="58.004702" lon="38.867633"><ele>115.5</ele><time>2023-10-08T11:58:52Z</time></trkpt><trkpt lat="58.00467" lon="38.86776"><ele>115.2</ele><time>2023-10-08T11:58:59Z</time></trkpt><trkpt lat="58.004612" lon="38.867857"><ele>114.7</ele><time>2023-10-08T11:59:08Z</time></trkpt><trkpt lat="58.004618" lon="38.868018"><ele>115.2</ele><time>2023-10-08T11:59:21Z</time></trkpt><trkpt lat="58.004655" lon="38.868148"><ele>115.0</ele><time>2023-10-08T11:59:27Z</time></trkpt><trkpt lat="58.004647" lon="38.868287"><ele>114.7</ele><time>2023-10-08T11:59:30Z</time></trkpt><trkpt lat="58.004662" lon="38.868442"><ele>114.4</ele><time>2023-10-08T11:59:38Z</time></trkpt><trkpt lat="58.004715" lon="38.868572"><ele>115.2</ele><time>2023-10-08T11:59:42Z</time></trkpt><trkpt lat="58.00477" lon="38.868703"><ele>115.1</ele><time>2023-10-08T11:59:46Z</time></trkpt><trkpt lat="58.004798" lon="38.868835"><ele>114.1</ele><time>2023-10-08T11:59:52Z</time></trkpt><trkpt lat="58.004743" lon="38.868945"><ele>113.5</ele><time>2023-10-08T11:59:55Z</time></trkpt><trkpt lat="58.004687" lon="38.869042"><ele>113.4</ele><time>2023-10-08T11:59:57Z</time></trkpt><trkpt lat="58.004627" lon="38.86915"><ele>112.6</ele><time>2023-10-08T12:00:00Z</time></trkpt><trkpt lat="58.00458" lon="38.869253"><ele>112.2</ele><time>2023-10-08T12:00:03Z</time></trkpt><trkpt lat="58.004538" lon="38.869392"><ele>111.8</ele><time>2023-10-08T12:00:06Z</time></trkpt><trkpt lat="58.0045" lon="38.86954"><ele>111.8</ele><time>2023-10-08T12:00:09Z</time></trkpt><trkpt lat="58.004443" lon="38.869638"><ele>112.0</ele><time>2023-10-08T12:00:12Z</time></trkpt><trkpt lat="58.004413" lon="38.869512"><ele>111.5</ele><time>2023-10-08T12:00:42Z</time></trkpt><trkpt lat="58.004368" lon="38.869667"><ele>111.3</ele><time>2023-10-08T12:00:58Z</time></trkpt><trkpt lat="58.004323" lon="38.869775"><ele>111.8</ele><time>2023-10-08T12:01:01Z</time></trkpt><trkpt lat="58.004267" lon="38.869878"><ele>112.0</ele><time>2023-10-08T12:01:04Z</time></trkpt><trkpt lat="58.004208" lon="38.869992"><ele>111.8</ele><time>2023-10-08T12:01:07Z</time></trkpt><trkpt lat="58.00415" lon="38.870105"><ele>112.7</ele><time>2023-10-08T12:01:11Z</time></trkpt><trkpt lat="58.004095" lon="38.870213"><ele>114.0</ele><time>2023-10-08T12:01:16Z</time></trkpt><trkpt lat="58.004022" lon="38.870297"><ele>114.8</ele><time>2023-10-08T12:01:20Z</time></trkpt><trkpt lat="58.003968" lon="38.87042"><ele>114.9</ele><time>2023-10-08T12:01:24Z</time></trkpt><trkpt lat="58.003893" lon="38.870458"><ele>114.4</ele><time>2023-10-08T12:01:26Z</time></trkpt><trkpt lat="58.003808" lon="38.870502"><ele>114.2</ele><time>2023-10-08T12:01:29Z</time></trkpt><trkpt lat="58.003725" lon="38.870542"><ele>114.2</ele><time>2023-10-08T12:01:33Z</time></trkpt><trkpt lat="58.003648" lon="38.870552"><ele>114.1</ele><time>2023-10-08T12:01:37Z</time></trkpt><trkpt lat="58.003555" lon="38.870508"><ele>114.1</ele><time>2023-10-08T12:01:40Z</time></trkpt><trkpt lat="58.003473" lon="38.870488"><ele>113.5</ele><time>2023-10-08T12:01:42Z</time></trkpt><trkpt lat="58.003393" lon="38.870493"><ele>112.7</ele><time>2023-10-08T12:01:47Z</time></trkpt><trkpt lat="58.003348" lon="38.8706"><ele>112.3</ele><time>2023-10-08T12:01:52Z</time></trkpt><trkpt lat="58.003257" lon="38.870615"><ele>111.1</ele><time>2023-10-08T12:01:56Z</time></trkpt><trkpt lat="58.003165" lon="38.870625"><ele>110.3</ele><time>2023-10-08T12:01:58Z</time></trkpt><trkpt lat="58.00309" lon="38.870653"><ele>109.3</ele><time>2023-10-08T12:02:02Z</time></trkpt><trkpt lat="58.002997" lon="38.870697"><ele>108.3</ele><time>2023-10-08T12:02:05Z</time></trkpt><trkpt lat="58.00294" lon="38.870833"><ele>107.7</ele><time>2023-10-08T12:02:07Z</time></trkpt><trkpt lat="58.002912" lon="38.870982"><ele>106.5</ele><time>2023-10-08T12:02:09Z</time></trkpt><trkpt lat="58.00293" lon="38.871137"><ele>104.5</ele><time>2023-10-08T12:02:12Z</time></trkpt><trkpt lat="58.002993" lon="38.871247"><ele>103.5</ele><time>2023-10-08T12:02:15Z</time></trkpt><trkpt lat="58.003068" lon="38.871362"><ele>103.9</ele><time>2023-10-08T12:02:18Z</time></trkpt><trkpt lat="58.00314" lon="38.871445"><ele>104.0</ele><time>2023-10-08T12:02:21Z</time></trkpt><trkpt lat="58.003213" lon="38.871548"><ele>104.4</ele><time>2023-10-08T12:02:25Z</time></trkpt><trkpt lat="58.00326" lon="38.871688"><ele>104.1</ele><time>2023-10-08T12:02:28Z</time></trkpt><trkpt lat="58.003307" lon="38.871853"><ele>103.1</ele><time>2023-10-08T12:02:31Z</time></trkpt><trkpt lat="58.003342" lon="38.871983"><ele>102.5</ele><time>2023-10-08T12:02:36Z</time></trkpt><trkpt lat="58.003363" lon="38.87215"><ele>102.4</ele><time>2023-10-08T12:02:40Z</time></trkpt><trkpt lat="58.003368" lon="38.872295"><ele>102.6</ele><time>2023-10-08T12:02:43Z</time></trkpt><trkpt lat="58.003383" lon="38.872462"><ele>102.2</ele><time>2023-10-08T12:02:47Z</time></trkpt><trkpt lat="58.003387" lon="38.872605"><ele>101.8</ele><time>2023-10-08T12:02:54Z</time></trkpt><trkpt lat="58.003455" lon="38.872697"><ele>101.1</ele><time>2023-10-08T12:03:00Z</time></trkpt><trkpt lat="58.00354" lon="38.872708"><ele>101.4</ele><time>2023-10-08T12:03:04Z</time></trkpt><trkpt lat="58.003608" lon="38.872753"><ele>102.3</ele><time>2023-10-08T12:03:07Z</time></trkpt><trkpt lat="58.003688" lon="38.87277"><ele>102.5</ele><time>2023-10-08T12:03:10Z</time></trkpt><trkpt lat="58.003765" lon="38.872772"><ele>102.0</ele><time>2023-10-08T12:03:13Z</time></trkpt><trkpt lat="58.003833" lon="38.87283"><ele>102.3</ele><time>2023-10-08T12:03:18Z</time></trkpt><trkpt lat="58.003912" lon="38.872877"><ele>102.7</ele><time>2023-10-08T12:03:24Z</time></trkpt><trkpt lat="58.003987" lon="38.872922"><ele>102.5</ele><time>2023-10-08T12:03:32Z</time></trkpt><trkpt lat="58.004075" lon="38.872905"><ele>101.4</ele><time>2023-10-08T12:03:37Z</time></trkpt><trkpt lat="58.00415" lon="38.87293"><ele>102.1</ele><time>2023-10-08T12:03:40Z</time></trkpt><trkpt lat="58.004233" lon="38.872963"><ele>102.3</ele><time>2023-10-08T12:03:43Z</time></trkpt><trkpt lat="58.004305" lon="38.872993"><ele>102.4</ele><time>2023-10-08T12:03:46Z</time></trkpt><trkpt lat="58.00437" lon="38.873077"><ele>101.9</ele><time>2023-10-08T12:03:51Z</time></trkpt><trkpt lat="58.004423" lon="38.873213"><ele>100.9</ele><time>2023-10-08T12:03:55Z</time></trkpt><trkpt lat="58.004492" lon="38.873262"><ele>100.2</ele><time>2023-10-08T12:04:01Z</time></trkpt><trkpt lat="58.004568" lon="38.873293"><ele>99.5</ele><time>2023-10-08T12:04:07Z</time></trkpt><trkpt lat="58.004625" lon="38.873398"><ele>98.5</ele><time>2023-10-08T12:04:13Z</time></trkpt><trkpt lat="58.004663" lon="38.87353"><ele>98.0</ele><time>2023-10-08T12:04:19Z</time></trkpt><trkpt lat="58.004738" lon="38.873598"><ele>98.3</ele><time>2023-10-08T12:04:25Z</time></trkpt><trkpt lat="58.004813" lon="38.873642"><ele>97.9</ele><time>2023-10-08T12:04:29Z</time></trkpt><trkpt lat="58.004893" lon="38.873627"><ele>97.7</ele><time>2023-10-08T12:04:32Z</time></trkpt><trkpt lat="58.004968" lon="38.873588"><ele>98.5</ele><time>2023-10-08T12:04:36Z</time></trkpt><trkpt lat="58.005047" lon="38.87362"><ele>98.6</ele><time>2023-10-08T12:04:43Z</time></trkpt><trkpt lat="58.005123" lon="38.873603"><ele>99.0</ele><time>2023-10-08T12:04:51Z</time></trkpt><trkpt lat="58.005183" lon="38.87353"><ele>100.0</ele><time>2023-10-08T12:05:00Z</time></trkpt><trkpt lat="58.0052" lon="38.873675"><ele>99.0</ele><time>2023-10-08T12:05:23Z</time></trkpt><trkpt lat="58.005172" lon="38.873852"><ele>98.8</ele><time>2023-10-08T12:05:26Z</time></trkpt><trkpt lat="58.00515" lon="38.874032"><ele>98.6</ele><time>2023-10-08T12:05:29Z</time></trkpt><trkpt lat="58.005138" lon="38.874205"><ele>97.9</ele><time>2023-10-08T12:05:32Z</time></trkpt><trkpt lat="58.00514" lon="38.874385"><ele>98.2</ele><time>2023-10-08T12:05:35Z</time></trkpt><trkpt lat="58.005168" lon="38.874562"><ele>98.1</ele><time>2023-10-08T12:05:38Z</time></trkpt><trkpt lat="58.005197" lon="38.874738"><ele>97.5</ele><time>2023-10-08T12:05:41Z</time></trkpt><trkpt lat="58.005213" lon="38.874918"><ele>97.5</ele><time>2023-10-08T12:05:44Z</time></trkpt><trkpt lat="58.005222" lon="38.875053"><ele>97.5</ele><time>2023-10-08T12:05:49Z</time></trkpt><trkpt lat="58.00521" lon="38.875192"><ele>97.5</ele><time>2023-10-08T12:05:55Z</time></trkpt><trkpt lat="58.005183" lon="38.875322"><ele>97.5</ele><time>2023-10-08T12:06:01Z</time></trkpt><trkpt lat="58.005235" lon="38.875425"><ele>97.9</ele><time>2023-10-08T12:06:09Z</time></trkpt><trkpt lat="58.005308" lon="38.875392"><ele>97.4</ele><time>2023-10-08T12:06:13Z</time></trkpt><trkpt lat="58.005377" lon="38.875317"><ele>97.1</ele><time>2023-10-08T12:06:17Z</time></trkpt><trkpt lat="58.005313" lon="38.875383"><ele>98.7</ele><time>2023-10-08T12:06:36Z</time></trkpt><trkpt lat="58.005235" lon="38.875365"><ele>97.7</ele><time>2023-10-08T12:06:46Z</time></trkpt><trkpt lat="58.005158" lon="38.875335"><ele>97.5</ele><time>2023-10-08T12:06:53Z</time></trkpt><trkpt lat="58.00517" lon="38.875198"><ele>97.6</ele><time>2023-10-08T12:06:59Z</time></trkpt><trkpt lat="58.005202" lon="38.875065"><ele>97.5</ele><time>2023-10-08T12:07:05Z</time></trkpt><trkpt lat="58.00522" lon="38.874913"><ele>97.5</ele><time>2023-10-08T12:07:08Z</time></trkpt><trkpt lat="58.005217" lon="38.874735"><ele>97.5</ele><time>2023-10-08T12:07:11Z</time></trkpt><trkpt lat="58.005195" lon="38.87455"><ele>97.8</ele><time>2023-10-08T12:07:14Z</time></trkpt><trkpt lat="58.005162" lon="38.874397"><ele>97.3</ele><time>2023-10-08T12:07:17Z</time></trkpt><trkpt lat="58.005145" lon="38.874235"><ele>97.4</ele><time>2023-10-08T12:07:20Z</time></trkpt><trkpt lat="58.005152" lon="38.874092"><ele>97.8</ele><time>2023-10-08T12:07:23Z</time></trkpt><trkpt lat="58.005143" lon="38.87394"><ele>98.0</ele><time>2023-10-08T12:07:26Z</time></trkpt><trkpt lat="58.005165" lon="38.873773"><ele>98.1</ele><time>2023-10-08T12:07:29Z</time></trkpt><trkpt lat="58.005197" lon="38.873613"><ele>98.5</ele><time>2023-10-08T12:07:32Z</time></trkpt><trkpt lat="58.005208" lon="38.873442"><ele>98.4</ele><time>2023-10-08T12:07:35Z</time></trkpt><trkpt lat="58.005215" lon="38.87329"><ele>99.1</ele><time>2023-10-08T12:07:38Z</time></trkpt><trkpt lat="58.005177" lon="38.873155"><ele>99.4</ele><time>2023-10-08T12:07:41Z</time></trkpt><trkpt lat="58.005167" lon="38.873005"><ele>100.1</ele><time>2023-10-08T12:07:48Z</time></trkpt><trkpt lat="58.005148" lon="38.872843"><ele>100.4</ele><time>2023-10-08T12:07:53Z</time></trkpt><trkpt lat="58.005133" lon="38.872707"><ele>101.0</ele><time>2023-10-08T12:07:58Z</time></trkpt><trkpt lat="58.00507" lon="38.872588"><ele>101.0</ele><time>2023-10-08T12:08:11Z</time></trkpt><trkpt lat="58.004985" lon="38.872555"><ele>101.4</ele><time>2023-10-08T12:08:15Z</time></trkpt><trkpt lat="58.00492" lon="38.872473"><ele>101.2</ele><time>2023-10-08T12:08:18Z</time></trkpt><trkpt lat="58.004878" lon="38.872357"><ele>101.2</ele><time>2023-10-08T12:08:24Z</time></trkpt><trkpt lat="58.004872" lon="38.872218"><ele>101.3</ele><time>2023-10-08T12:08:29Z</time></trkpt><trkpt lat="58.004837" lon="38.872085"><ele>102.1</ele><time>2023-10-08T12:08:34Z</time></trkpt><trkpt lat="58.004755" lon="38.872025"><ele>102.9</ele><time>2023-10-08T12:08:44Z</time></trkpt><trkpt lat="58.004693" lon="38.871945"><ele>102.7</ele><time>2023-10-08T12:08:51Z</time></trkpt><trkpt lat="58.004702" lon="38.871807"><ele>103.1</ele><time>2023-10-08T12:08:58Z</time></trkpt><trkpt lat="58.004703" lon="38.87165"><ele>102.9</ele><time>2023-10-08T12:09:14Z</time></trkpt><trkpt lat="58.004683" lon="38.871518"><ele>105.2</ele><time>2023-10-08T12:09:20Z</time></trkpt><trkpt lat="58.00464" lon="38.871405"><ele>105.1</ele><time>2023-10-08T12:09:29Z</time></trkpt><trkpt lat="58.004718" lon="38.871415"><ele>105.5</ele><time>2023-10-08T12:09:53Z</time></trkpt><trkpt lat="58.00478" lon="38.871502"><ele>105.8</ele><time>2023-10-08T12:10:12Z</time></trkpt><trkpt lat="58.004858" lon="38.87141"><ele>105.6</ele><time>2023-10-08T12:10:17Z</time></trkpt><trkpt lat="58.004922" lon="38.871332"><ele>105.7</ele><time>2023-10-08T12:10:28Z</time></trkpt><trkpt lat="58.004977" lon="38.87123"><ele>106.1</ele><time>2023-10-08T12:10:33Z</time></trkpt><trkpt lat="58.005053" lon="38.871213"><ele>105.7</ele><time>2023-10-08T12:10:37Z</time></trkpt><trkpt lat="58.004997" lon="38.87132"><ele>106.7</ele><time>2023-10-08T12:10:56Z</time></trkpt><trkpt lat="58.005058" lon="38.871412"><ele>106.0</ele><time>2023-10-08T12:11:09Z</time></trkpt><trkpt lat="58.00514" lon="38.871367"><ele>105.3</ele><time>2023-10-08T12:11:17Z</time></trkpt><trkpt lat="58.00523" lon="38.871427"><ele>105.1</ele><time>2023-10-08T12:11:21Z</time></trkpt><trkpt lat="58.005302" lon="38.871443"><ele>104.4</ele><time>2023-10-08T12:11:25Z</time></trkpt><trkpt lat="58.005368" lon="38.87138"><ele>104.2</ele><time>2023-10-08T12:11:30Z</time></trkpt><trkpt lat="58.005403" lon="38.871247"><ele>104.3</ele><time>2023-10-08T12:11:36Z</time></trkpt><trkpt lat="58.005447" lon="38.871123"><ele>104.5</ele><time>2023-10-08T12:11:44Z</time></trkpt><trkpt lat="58.005477" lon="38.87098"><ele>105.2</ele><time>2023-10-08T12:12:05Z</time></trkpt><trkpt lat="58.00549" lon="38.87081"><ele>104.2</ele><time>2023-10-08T12:12:16Z</time></trkpt><trkpt lat="58.005523" lon="38.870688"><ele>104.3</ele><time>2023-10-08T12:12:20Z</time></trkpt><trkpt lat="58.005553" lon="38.87056"><ele>105.0</ele><time>2023-10-08T12:12:40Z</time></trkpt><trkpt lat="58.005543" lon="38.870717"><ele>105.4</ele><time>2023-10-08T12:12:59Z</time></trkpt><trkpt lat="58.005513" lon="38.870855"><ele>105.1</ele><time>2023-10-08T12:13:07Z</time></trkpt><trkpt lat="58.005525" lon="38.87102"><ele>105.3</ele><time>2023-10-08T12:13:24Z</time></trkpt><trkpt lat="58.005503" lon="38.871152"><ele>105.0</ele><time>2023-10-08T12:13:27Z</time></trkpt><trkpt lat="58.005477" lon="38.871305"><ele>104.8</ele><time>2023-10-08T12:13:30Z</time></trkpt><trkpt lat="58.005463" lon="38.87144"><ele>104.7</ele><time>2023-10-08T12:13:33Z</time></trkpt><trkpt lat="58.005537" lon="38.871477"><ele>104.8</ele><time>2023-10-08T12:13:52Z</time></trkpt><trkpt lat="58.005612" lon="38.871423"><ele>104.8</ele><time>2023-10-08T12:13:56Z</time></trkpt><trkpt lat="58.005695" lon="38.87141"><ele>104.2</ele><time>2023-10-08T12:14:01Z</time></trkpt><trkpt lat="58.005778" lon="38.871382"><ele>103.9</ele><time>2023-10-08T12:14:11Z</time></trkpt><trkpt lat="58.005858" lon="38.871337"><ele>103.8</ele><time>2023-10-08T12:14:15Z</time></trkpt><trkpt lat="58.005925" lon="38.871277"><ele>104.9</ele><time>2023-10-08T12:14:25Z</time></trkpt><trkpt lat="58.005863" lon="38.87137"><ele>103.9</ele><time>2023-10-08T12:14:45Z</time></trkpt><trkpt lat="58.005778" lon="38.871405"><ele>103.4</ele><time>2023-10-08T12:14:50Z</time></trkpt><trkpt lat="58.005693" lon="38.871422"><ele>103.0</ele><time>2023-10-08T12:14:54Z</time></trkpt><trkpt lat="58.005603" lon="38.87143"><ele>103.3</ele><time>2023-10-08T12:15:01Z</time></trkpt><trkpt lat="58.00559" lon="38.87127"><ele>103.0</ele><time>2023-10-08T12:15:13Z</time></trkpt><trkpt lat="58.00562" lon="38.871145"><ele>103.8</ele><time>2023-10-08T12:15:18Z</time></trkpt><trkpt lat="58.005698" lon="38.871067"><ele>104.0</ele><time>2023-10-08T12:15:33Z</time></trkpt><trkpt lat="58.00573" lon="38.870943"><ele>104.5</ele><time>2023-10-08T12:15:37Z</time></trkpt><trkpt lat="58.005682" lon="38.870835"><ele>104.9</ele><time>2023-10-08T12:15:44Z</time></trkpt><trkpt lat="58.005598" lon="38.870767"><ele>105.0</ele><time>2023-10-08T12:15:49Z</time></trkpt><trkpt lat="58.005568" lon="38.870635"><ele>105.3</ele><time>2023-10-08T12:15:57Z</time></trkpt><trkpt lat="58.005542" lon="38.870502"><ele>105.4</ele><time>2023-10-08T12:16:06Z</time></trkpt><trkpt lat="58.005565" lon="38.870368"><ele>105.8</ele><time>2023-10-08T12:16:11Z</time></trkpt><trkpt lat="58.005633" lon="38.870285"><ele>106.7</ele><time>2023-10-08T12:16:18Z</time></trkpt><trkpt lat="58.00569" lon="38.870202"><ele>107.6</ele><time>2023-10-08T12:16:25Z</time></trkpt><trkpt lat="58.005675" lon="38.870058"><ele>107.3</ele><time>2023-10-08T12:16:34Z</time></trkpt><trkpt lat="58.005702" lon="38.86993"><ele>107.1</ele><time>2023-10-08T12:17:06Z</time></trkpt><trkpt lat="58.005632" lon="38.869877"><ele>107.7</ele><time>2023-10-08T12:17:29Z</time></trkpt><trkpt lat="58.005563" lon="38.869942"><ele>107.2</ele><time>2023-10-08T12:17:38Z</time></trkpt><trkpt lat="58.005537" lon="38.870115"><ele>106.5</ele><time>2023-10-08T12:17:47Z</time></trkpt><trkpt lat="58.005533" lon="38.87026"><ele>106.9</ele><time>2023-10-08T12:17:50Z</time></trkpt><trkpt lat="58.005558" lon="38.870412"><ele>106.9</ele><time>2023-10-08T12:17:53Z</time></trkpt><trkpt lat="58.005562" lon="38.870598"><ele>105.6</ele><time>2023-10-08T12:17:56Z</time></trkpt><trkpt lat="58.005545" lon="38.87076"><ele>104.6</ele><time>2023-10-08T12:17:59Z</time></trkpt><trkpt lat="58.005522" lon="38.870922"><ele>104.7</ele><time>2023-10-08T12:18:02Z</time></trkpt><trkpt lat="58.005525" lon="38.871085"><ele>104.5</ele><time>2023-10-08T12:18:05Z</time></trkpt><trkpt lat="58.005538" lon="38.871218"><ele>104.0</ele><time>2023-10-08T12:18:07Z</time></trkpt><trkpt lat="58.005535" lon="38.871353"><ele>103.8</ele><time>2023-10-08T12:18:09Z</time></trkpt><trkpt lat="58.005552" lon="38.8715"><ele>103.9</ele><time>2023-10-08T12:18:12Z</time></trkpt><trkpt lat="58.005612" lon="38.87158"><ele>103.1</ele><time>2023-10-08T12:18:16Z</time></trkpt><trkpt lat="58.00562" lon="38.871445"><ele>102.9</ele><time>2023-10-08T12:18:26Z</time></trkpt><trkpt lat="58.005698" lon="38.871393"><ele>102.7</ele><time>2023-10-08T12:18:45Z</time></trkpt><trkpt lat="58.005773" lon="38.871383"><ele>102.8</ele><time>2023-10-08T12:18:48Z</time></trkpt><trkpt lat="58.005853" lon="38.87133"><ele>103.0</ele><time>2023-10-08T12:18:51Z</time></trkpt><trkpt lat="58.005928" lon="38.871268"><ele>102.7</ele><time>2023-10-08T12:18:54Z</time></trkpt><trkpt lat="58.005993" lon="38.8712"><ele>103.0</ele><time>2023-10-08T12:19:01Z</time></trkpt><trkpt lat="58.00605" lon="38.871092"><ele>103.6</ele><time>2023-10-08T12:19:06Z</time></trkpt><trkpt lat="58.006113" lon="38.870988"><ele>103.6</ele><time>2023-10-08T12:19:09Z</time></trkpt><trkpt lat="58.006195" lon="38.870847"><ele>103.1</ele><time>2023-10-08T12:19:12Z</time></trkpt><trkpt lat="58.006248" lon="38.870738"><ele>102.8</ele><time>2023-10-08T12:19:14Z</time></trkpt><trkpt lat="58.006322" lon="38.870608"><ele>102.3</ele><time>2023-10-08T12:19:17Z</time></trkpt><trkpt lat="58.006383" lon="38.870535"><ele>102.8</ele><time>2023-10-08T12:19:20Z</time></trkpt><trkpt lat="58.006447" lon="38.870443"><ele>103.0</ele><time>2023-10-08T12:19:23Z</time></trkpt><trkpt lat="58.006517" lon="38.87036"><ele>103.2</ele><time>2023-10-08T12:19:25Z</time></trkpt><trkpt lat="58.006588" lon="38.870295"><ele>102.9</ele><time>2023-10-08T12:19:27Z</time></trkpt><trkpt lat="58.006658" lon="38.870243"><ele>101.6</ele><time>2023-10-08T12:19:30Z</time></trkpt><trkpt lat="58.006723" lon="38.87016"><ele>101.2</ele><time>2023-10-08T12:19:39Z</time></trkpt><trkpt lat="58.006777" lon="38.870055"><ele>101.3</ele><time>2023-10-08T12:19:42Z</time></trkpt><trkpt lat="58.006862" lon="38.870127"><ele>100.4</ele><time>2023-10-08T12:19:46Z</time></trkpt><trkpt lat="58.006907" lon="38.870232"><ele>100.6</ele><time>2023-10-08T12:19:48Z</time></trkpt><trkpt lat="58.00697" lon="38.870308"><ele>101.7</ele><time>2023-10-08T12:19:52Z</time></trkpt><trkpt lat="58.007018" lon="38.870208"><ele>101.4</ele><time>2023-10-08T12:20:00Z</time></trkpt><trkpt lat="58.006943" lon="38.870143"><ele>102.6</ele><time>2023-10-08T12:20:34Z</time></trkpt><trkpt lat="58.006928" lon="38.870008"><ele>101.1</ele><time>2023-10-08T12:20:47Z</time></trkpt><trkpt lat="58.006963" lon="38.869855"><ele>101.3</ele><time>2023-10-08T12:20:51Z</time></trkpt><trkpt lat="58.006987" lon="38.869692"><ele>103.0</ele><time>2023-10-08T12:20:55Z</time></trkpt><trkpt lat="58.007015" lon="38.869558"><ele>104.1</ele><time>2023-10-08T12:20:58Z</time></trkpt><trkpt lat="58.006977" lon="38.869423"><ele>103.9</ele><time>2023-10-08T12:21:01Z</time></trkpt><trkpt lat="58.006928" lon="38.869292"><ele>104.5</ele><time>2023-10-08T12:21:05Z</time></trkpt><trkpt lat="58.006837" lon="38.869162"><ele>103.1</ele><time>2023-10-08T12:21:10Z</time></trkpt><trkpt lat="58.006815" lon="38.869018"><ele>109.0</ele><time>2023-10-08T12:21:14Z</time></trkpt><trkpt lat="58.006782" lon="38.86885"><ele>109.8</ele><time>2023-10-08T12:21:19Z</time></trkpt><trkpt lat="58.006743" lon="38.868667"><ele>109.8</ele><time>2023-10-08T12:21:22Z</time></trkpt><trkpt lat="58.006723" lon="38.868493"><ele>110.3</ele><time>2023-10-08T12:21:25Z</time></trkpt><trkpt lat="58.00672" lon="38.868312"><ele>111.4</ele><time>2023-10-08T12:21:28Z</time></trkpt><trkpt lat="58.00675" lon="38.868162"><ele>111.4</ele><time>2023-10-08T12:21:30Z</time></trkpt><trkpt lat="58.006793" lon="38.868012"><ele>111.2</ele><time>2023-10-08T12:21:32Z</time></trkpt><trkpt lat="58.006805" lon="38.867853"><ele>111.6</ele><time>2023-10-08T12:21:35Z</time></trkpt><trkpt lat="58.006728" lon="38.867792"><ele>110.6</ele><time>2023-10-08T12:21:38Z</time></trkpt><trkpt lat="58.006732" lon="38.867652"><ele>109.3</ele><time>2023-10-08T12:21:42Z</time></trkpt><trkpt lat="58.00681" lon="38.867578"><ele>105.9</ele><time>2023-10-08T12:21:46Z</time></trkpt><trkpt lat="58.006863" lon="38.867485"><ele>108.9</ele><time>2023-10-08T12:21:52Z</time></trkpt><trkpt lat="58.006953" lon="38.867473"><ele>108.8</ele><time>2023-10-08T12:21:58Z</time></trkpt><trkpt lat="58.007027" lon="38.867588"><ele>109.2</ele><time>2023-10-08T12:22:01Z</time></trkpt><trkpt lat="58.007118" lon="38.867623"><ele>109.3</ele><time>2023-10-08T12:22:04Z</time></trkpt><trkpt lat="58.0072" lon="38.867635"><ele>108.1</ele><time>2023-10-08T12:22:07Z</time></trkpt><trkpt lat="58.007278" lon="38.867632"><ele>108.3</ele><time>2023-10-08T12:22:10Z</time></trkpt><trkpt lat="58.007357" lon="38.86756"><ele>108.6</ele><time>2023-10-08T12:22:13Z</time></trkpt><trkpt lat="58.007437" lon="38.86752"><ele>110.3</ele><time>2023-10-08T12:22:18Z</time></trkpt><trkpt lat="58.007512" lon="38.867567"><ele>109.5</ele><time>2023-10-08T12:22:21Z</time></trkpt><trkpt lat="58.007385" lon="38.867623"><ele>101.6</ele><time>2023-10-08T12:22:31Z</time></trkpt><trkpt lat="58.007298" lon="38.86763"><ele>111.1</ele><time>2023-10-08T12:22:35Z</time></trkpt><trkpt lat="58.007087" lon="38.867447"><ele>104.9</ele><time>2023-10-08T12:22:41Z</time></trkpt><trkpt lat="58.007012" lon="38.86736"><ele>102.4</ele><time>2023-10-08T12:22:43Z</time></trkpt><trkpt lat="58.006965" lon="38.867255"><ele>109.9</ele><time>2023-10-08T12:22:49Z</time></trkpt><trkpt lat="58.00692" lon="38.867148"><ele>109.6</ele><time>2023-10-08T12:22:59Z</time></trkpt><trkpt lat="58.006848" lon="38.867198"><ele>109.0</ele><time>2023-10-08T12:23:10Z</time></trkpt><trkpt lat="58.006897" lon="38.867305"><ele>110.7</ele><time>2023-10-08T12:23:20Z</time></trkpt><trkpt lat="58.006832" lon="38.867365"><ele>111.9</ele><time>2023-10-08T12:25:19Z</time></trkpt><trkpt lat="58.006732" lon="38.867312"><ele>115.7</ele><time>2023-10-08T12:26:37Z</time></trkpt><trkpt lat="58.006777" lon="38.867188"><ele>114.9</ele><time>2023-10-08T12:26:46Z</time></trkpt><trkpt lat="58.006828" lon="38.867317"><ele>115.4</ele><time>2023-10-08T12:26:56Z</time></trkpt><trkpt lat="58.006787" lon="38.867197"><ele>112.2</ele><time>2023-10-08T12:27:26Z</time></trkpt><trkpt lat="58.006862" lon="38.867193"><ele>112.2</ele><time>2023-10-08T12:28:10Z</time></trkpt></trkseg></trk></gpx>