<?xml version="1.0" encoding="UTF-8" standalone="no"?><gpx xmlns="http://www.topografix.com/GPX/1/1" xmlns:gpxtpx="http://www.garmin.com/xmlschemas/TrackPointExtension/v1" xmlns:xsi="http://www.w3.org/2001/XMLSchema-instance" creator="Sports Tracker" version="1.1" xsi:schemaLocation="http://www.topografix.com/GPX/1/1 http://www.topografix.com/GPX/1/1/gpx.xsd http://www.garmin.com/xmlschemas/TrackPointExtension/v1 http://www.garmin.com/xmlschemas/TrackPointExtensionv1.xsd"><metadata><name>26.04.2026 10:55</name><desc/><author><name>Александр</name></author></metadata><trk><name>26.04.2026 10:55</name><trkseg><trkpt lat="55.617125" lon="37.94227"><ele>156.3</ele><time>2026-04-26T07:55:33Z</time></trkpt><trkpt lat="55.617125" lon="37.94227"><ele>156.3</ele><time>2026-04-26T07:55:33Z</time></trkpt><trkpt lat="55.617127" lon="37.942405"><ele>155.1</ele><time>2026-04-26T07:55:40Z</time></trkpt><trkpt lat="55.617135" lon="37.942537"><ele>153.6</ele><time>2026-04-26T07:55:46Z</time></trkpt><trkpt lat="55.617135" lon="37.942665"><ele>152.6</ele><time>2026-04-26T07:55:51Z</time></trkpt><trkpt lat="55.61714" lon="37.942795"><ele>150.6</ele><time>2026-04-26T07:55:56Z</time></trkpt><trkpt lat="55.617125" lon="37.94294"><ele>151.2</ele><time>2026-04-26T07:56:02Z</time></trkpt><trkpt lat="55.617115" lon="37.943065"><ele>153.2</ele><time>2026-04-26T07:56:07Z</time></trkpt><trkpt lat="55.617185" lon="37.94313"><ele>154.4</ele><time>2026-04-26T07:56:13Z</time></trkpt><trkpt lat="55.617257" lon="37.943185"><ele>157.3</ele><time>2026-04-26T07:56:19Z</time></trkpt><trkpt lat="55.617325" lon="37.943255"><ele>158.0</ele><time>2026-04-26T07:56:26Z</time></trkpt><trkpt lat="55.61729" lon="37.94337"><ele>158.2</ele><time>2026-04-26T07:56:32Z</time></trkpt><trkpt lat="55.61723" lon="37.94346"><ele>157.9</ele><time>2026-04-26T07:56:38Z</time></trkpt><trkpt lat="55.617215" lon="37.943595"><ele>158.0</ele><time>2026-04-26T07:56:44Z</time></trkpt><trkpt lat="55.61723" lon="37.94373"><ele>156.9</ele><time>2026-04-26T07:56:49Z</time></trkpt><trkpt lat="55.617235" lon="37.943865"><ele>155.6</ele><time>2026-04-26T07:56:54Z</time></trkpt><trkpt lat="55.617235" lon="37.94401"><ele>153.3</ele><time>2026-04-26T07:57:00Z</time></trkpt><trkpt lat="55.61724" lon="37.944152"><ele>152.1</ele><time>2026-04-26T07:57:07Z</time></trkpt><trkpt lat="55.617255" lon="37.944292"><ele>150.4</ele><time>2026-04-26T07:57:13Z</time></trkpt><trkpt lat="55.617255" lon="37.944425"><ele>149.9</ele><time>2026-04-26T07:57:18Z</time></trkpt><trkpt lat="55.61724" lon="37.94458"><ele>151.3</ele><time>2026-04-26T07:57:24Z</time></trkpt><trkpt lat="55.61723" lon="37.94472"><ele>147.8</ele><time>2026-04-26T07:57:29Z</time></trkpt><trkpt lat="55.617243" lon="37.94484"><ele>147.5</ele><time>2026-04-26T07:57:36Z</time></trkpt><trkpt lat="55.617243" lon="37.944975"><ele>148.2</ele><time>2026-04-26T07:57:42Z</time></trkpt><trkpt lat="55.617242" lon="37.94511"><ele>148.8</ele><time>2026-04-26T07:57:47Z</time></trkpt><trkpt lat="55.617252" lon="37.945245"><ele>149.9</ele><time>2026-04-26T07:57:52Z</time></trkpt><trkpt lat="55.617265" lon="37.94538"><ele>150.5</ele><time>2026-04-26T07:57:57Z</time></trkpt><trkpt lat="55.61728" lon="37.94552"><ele>149.8</ele><time>2026-04-26T07:58:03Z</time></trkpt><trkpt lat="55.617305" lon="37.945647"><ele>151.0</ele><time>2026-04-26T07:58:08Z</time></trkpt><trkpt lat="55.617335" lon="37.94578"><ele>153.1</ele><time>2026-04-26T07:58:13Z</time></trkpt><trkpt lat="55.61737" lon="37.945915"><ele>153.6</ele><time>2026-04-26T07:58:18Z</time></trkpt><trkpt lat="55.617397" lon="37.946045"><ele>154.9</ele><time>2026-04-26T07:58:25Z</time></trkpt><trkpt lat="55.61743" lon="37.946165"><ele>153.5</ele><time>2026-04-26T07:58:31Z</time></trkpt><trkpt lat="55.617447" lon="37.946295"><ele>154.0</ele><time>2026-04-26T07:58:35Z</time></trkpt><trkpt lat="55.617462" lon="37.946445"><ele>154.4</ele><time>2026-04-26T07:58:40Z</time></trkpt><trkpt lat="55.61748" lon="37.946573"><ele>154.2</ele><time>2026-04-26T07:58:46Z</time></trkpt><trkpt lat="55.617507" lon="37.946707"><ele>153.6</ele><time>2026-04-26T07:58:52Z</time></trkpt><trkpt lat="55.61753" lon="37.946835"><ele>152.0</ele><time>2026-04-26T07:58:59Z</time></trkpt><trkpt lat="55.617547" lon="37.946975"><ele>151.6</ele><time>2026-04-26T07:59:05Z</time></trkpt><trkpt lat="55.61757" lon="37.9471"><ele>152.0</ele><time>2026-04-26T07:59:11Z</time></trkpt><trkpt lat="55.6176" lon="37.94723"><ele>150.5</ele><time>2026-04-26T07:59:17Z</time></trkpt><trkpt lat="55.617622" lon="37.94736"><ele>152.4</ele><time>2026-04-26T07:59:23Z</time></trkpt><trkpt lat="55.61766" lon="37.94748"><ele>151.2</ele><time>2026-04-26T07:59:30Z</time></trkpt><trkpt lat="55.617675" lon="37.947607"><ele>150.7</ele><time>2026-04-26T07:59:35Z</time></trkpt><trkpt lat="55.617685" lon="37.947732"><ele>151.5</ele><time>2026-04-26T07:59:40Z</time></trkpt><trkpt lat="55.617705" lon="37.947872"><ele>150.7</ele><time>2026-04-26T07:59:45Z</time></trkpt><trkpt lat="55.617775" lon="37.947905"><ele>149.9</ele><time>2026-04-26T07:59:51Z</time></trkpt><trkpt lat="55.617847" lon="37.94794"><ele>149.8</ele><time>2026-04-26T07:59:58Z</time></trkpt><trkpt lat="55.617863" lon="37.948085"><ele>151.0</ele><time>2026-04-26T08:00:04Z</time></trkpt><trkpt lat="55.617887" lon="37.94823"><ele>150.9</ele><time>2026-04-26T08:00:10Z</time></trkpt><trkpt lat="55.617912" lon="37.948377"><ele>150.5</ele><time>2026-04-26T08:00:16Z</time></trkpt><trkpt lat="55.617945" lon="37.948495"><ele>149.5</ele><time>2026-04-26T08:00:21Z</time></trkpt><trkpt lat="55.617975" lon="37.948612"><ele>150.2</ele><time>2026-04-26T08:00:26Z</time></trkpt><trkpt lat="55.618002" lon="37.948737"><ele>149.5</ele><time>2026-04-26T08:00:31Z</time></trkpt><trkpt lat="55.618025" lon="37.948865"><ele>148.9</ele><time>2026-04-26T08:00:36Z</time></trkpt><trkpt lat="55.61805" lon="37.948985"><ele>148.7</ele><time>2026-04-26T08:00:41Z</time></trkpt><trkpt lat="55.618073" lon="37.949127"><ele>149.3</ele><time>2026-04-26T08:00:47Z</time></trkpt><trkpt lat="55.618085" lon="37.949275"><ele>148.3</ele><time>2026-04-26T08:00:53Z</time></trkpt><trkpt lat="55.61805" lon="37.949405"><ele>147.9</ele><time>2026-04-26T08:00:59Z</time></trkpt><trkpt lat="55.61802" lon="37.949527"><ele>147.4</ele><time>2026-04-26T08:01:05Z</time></trkpt><trkpt lat="55.618015" lon="37.94966"><ele>145.5</ele><time>2026-04-26T08:01:11Z</time></trkpt><trkpt lat="55.618045" lon="37.94979"><ele>145.4</ele><time>2026-04-26T08:01:17Z</time></trkpt><trkpt lat="55.61806" lon="37.94992"><ele>145.2</ele><time>2026-04-26T08:01:23Z</time></trkpt><trkpt lat="55.61805" lon="37.950072"><ele>145.5</ele><time>2026-04-26T08:01:29Z</time></trkpt><trkpt lat="55.61803" lon="37.950202"><ele>145.9</ele><time>2026-04-26T08:01:36Z</time></trkpt><trkpt lat="55.617975" lon="37.95009"><ele>147.0</ele><time>2026-04-26T08:01:42Z</time></trkpt><trkpt lat="55.617945" lon="37.949957"><ele>150.1</ele><time>2026-04-26T08:01:47Z</time></trkpt><trkpt lat="55.617907" lon="37.949822"><ele>150.5</ele><time>2026-04-26T08:01:53Z</time></trkpt><trkpt lat="55.617882" lon="37.9497"><ele>150.7</ele><time>2026-04-26T08:01:58Z</time></trkpt><trkpt lat="55.617845" lon="37.94957"><ele>151.4</ele><time>2026-04-26T08:02:04Z</time></trkpt><trkpt lat="55.617807" lon="37.949447"><ele>152.5</ele><time>2026-04-26T08:02:09Z</time></trkpt><trkpt lat="55.617772" lon="37.94932"><ele>154.7</ele><time>2026-04-26T08:02:14Z</time></trkpt><trkpt lat="55.617735" lon="37.9492"><ele>153.5</ele><time>2026-04-26T08:02:19Z</time></trkpt><trkpt lat="55.617697" lon="37.949085"><ele>152.9</ele><time>2026-04-26T08:02:24Z</time></trkpt><trkpt lat="55.617637" lon="37.949005"><ele>153.2</ele><time>2026-04-26T08:02:29Z</time></trkpt><trkpt lat="55.617565" lon="37.948985"><ele>154.2</ele><time>2026-04-26T08:02:35Z</time></trkpt><trkpt lat="55.617505" lon="37.949075"><ele>151.1</ele><time>2026-04-26T08:02:40Z</time></trkpt><trkpt lat="55.617445" lon="37.949145"><ele>153.2</ele><time>2026-04-26T08:02:45Z</time></trkpt><trkpt lat="55.617367" lon="37.949205"><ele>154.7</ele><time>2026-04-26T08:02:51Z</time></trkpt><trkpt lat="55.617285" lon="37.949225"><ele>156.5</ele><time>2026-04-26T08:02:57Z</time></trkpt><trkpt lat="55.6172" lon="37.949245"><ele>157.2</ele><time>2026-04-26T08:03:03Z</time></trkpt><trkpt lat="55.617125" lon="37.94926"><ele>156.8</ele><time>2026-04-26T08:03:09Z</time></trkpt><trkpt lat="55.617045" lon="37.94924"><ele>153.1</ele><time>2026-04-26T08:03:16Z</time></trkpt><trkpt lat="55.616995" lon="37.949145"><ele>150.7</ele><time>2026-04-26T08:03:23Z</time></trkpt><trkpt lat="55.61696" lon="37.949025"><ele>149.4</ele><time>2026-04-26T08:03:28Z</time></trkpt><trkpt lat="55.616905" lon="37.94893"><ele>148.2</ele><time>2026-04-26T08:03:34Z</time></trkpt><trkpt lat="55.61686" lon="37.948805"><ele>147.5</ele><time>2026-04-26T08:03:41Z</time></trkpt><trkpt lat="55.61682" lon="37.948675"><ele>145.6</ele><time>2026-04-26T08:03:46Z</time></trkpt><trkpt lat="55.61676" lon="37.94857"><ele>144.1</ele><time>2026-04-26T08:03:52Z</time></trkpt><trkpt lat="55.616707" lon="37.948457"><ele>143.7</ele><time>2026-04-26T08:03:58Z</time></trkpt><trkpt lat="55.616647" lon="37.948365"><ele>140.0</ele><time>2026-04-26T08:04:05Z</time></trkpt><trkpt lat="55.616567" lon="37.94836"><ele>140.2</ele><time>2026-04-26T08:04:11Z</time></trkpt><trkpt lat="55.61649" lon="37.948365"><ele>139.0</ele><time>2026-04-26T08:04:17Z</time></trkpt><trkpt lat="55.616417" lon="37.948385"><ele>139.1</ele><time>2026-04-26T08:04:22Z</time></trkpt><trkpt lat="55.61634" lon="37.94844"><ele>139.6</ele><time>2026-04-26T08:04:28Z</time></trkpt><trkpt lat="55.616272" lon="37.948485"><ele>139.4</ele><time>2026-04-26T08:04:34Z</time></trkpt><trkpt lat="55.616192" lon="37.948525"><ele>140.4</ele><time>2026-04-26T08:04:41Z</time></trkpt><trkpt lat="55.616122" lon="37.94857"><ele>141.2</ele><time>2026-04-26T08:04:47Z</time></trkpt><trkpt lat="55.616065" lon="37.948655"><ele>141.5</ele><time>2026-04-26T08:04:51Z</time></trkpt><trkpt lat="55.616002" lon="37.948715"><ele>143.1</ele><time>2026-04-26T08:04:55Z</time></trkpt><trkpt lat="55.615935" lon="37.94878"><ele>143.4</ele><time>2026-04-26T08:05:00Z</time></trkpt><trkpt lat="55.615877" lon="37.948855"><ele>145.7</ele><time>2026-04-26T08:05:05Z</time></trkpt><trkpt lat="55.615817" lon="37.94893"><ele>147.3</ele><time>2026-04-26T08:05:10Z</time></trkpt><trkpt lat="55.61575" lon="37.949005"><ele>148.4</ele><time>2026-04-26T08:05:16Z</time></trkpt><trkpt lat="55.615685" lon="37.949077"><ele>149.7</ele><time>2026-04-26T08:05:23Z</time></trkpt><trkpt lat="55.61561" lon="37.94914"><ele>151.0</ele><time>2026-04-26T08:05:30Z</time></trkpt><trkpt lat="55.615545" lon="37.94919"><ele>151.8</ele><time>2026-04-26T08:05:37Z</time></trkpt><trkpt lat="55.61548" lon="37.949287"><ele>150.0</ele><time>2026-04-26T08:05:43Z</time></trkpt><trkpt lat="55.615435" lon="37.94939"><ele>148.5</ele><time>2026-04-26T08:05:48Z</time></trkpt><trkpt lat="55.61539" lon="37.949532"><ele>150.9</ele><time>2026-04-26T08:05:53Z</time></trkpt><trkpt lat="55.615343" lon="37.94964"><ele>152.1</ele><time>2026-04-26T08:05:58Z</time></trkpt><trkpt lat="55.615292" lon="37.94973"><ele>152.7</ele><time>2026-04-26T08:06:03Z</time></trkpt><trkpt lat="55.615227" lon="37.949792"><ele>152.6</ele><time>2026-04-26T08:06:09Z</time></trkpt><trkpt lat="55.615145" lon="37.949815"><ele>151.3</ele><time>2026-04-26T08:06:16Z</time></trkpt><trkpt lat="55.61507" lon="37.94986"><ele>150.6</ele><time>2026-04-26T08:06:24Z</time></trkpt><trkpt lat="55.615" lon="37.94987"><ele>148.5</ele><time>2026-04-26T08:06:30Z</time></trkpt><trkpt lat="55.614927" lon="37.949902"><ele>148.9</ele><time>2026-04-26T08:06:37Z</time></trkpt><trkpt lat="55.61487" lon="37.950012"><ele>149.0</ele><time>2026-04-26T08:06:43Z</time></trkpt><trkpt lat="55.614815" lon="37.950115"><ele>149.4</ele><time>2026-04-26T08:06:48Z</time></trkpt><trkpt lat="55.61476" lon="37.950197"><ele>149.9</ele><time>2026-04-26T08:06:53Z</time></trkpt><trkpt lat="55.61469" lon="37.950285"><ele>150.4</ele><time>2026-04-26T08:07:00Z</time></trkpt><trkpt lat="55.61462" lon="37.950365"><ele>151.6</ele><time>2026-04-26T08:07:05Z</time></trkpt><trkpt lat="55.614555" lon="37.950437"><ele>151.1</ele><time>2026-04-26T08:07:11Z</time></trkpt><trkpt lat="55.61449" lon="37.950505"><ele>151.3</ele><time>2026-04-26T08:07:15Z</time></trkpt><trkpt lat="55.614415" lon="37.950572"><ele>149.7</ele><time>2026-04-26T08:07:21Z</time></trkpt><trkpt lat="55.614335" lon="37.950632"><ele>149.0</ele><time>2026-04-26T08:07:27Z</time></trkpt><trkpt lat="55.61427" lon="37.950715"><ele>150.4</ele><time>2026-04-26T08:07:33Z</time></trkpt><trkpt lat="55.614207" lon="37.950807"><ele>151.9</ele><time>2026-04-26T08:07:39Z</time></trkpt><trkpt lat="55.614148" lon="37.95089"><ele>151.9</ele><time>2026-04-26T08:07:45Z</time></trkpt><trkpt lat="55.61408" lon="37.950967"><ele>149.3</ele><time>2026-04-26T08:07:51Z</time></trkpt><trkpt lat="55.614015" lon="37.95104"><ele>149.4</ele><time>2026-04-26T08:07:57Z</time></trkpt><trkpt lat="55.61396" lon="37.951125"><ele>149.5</ele><time>2026-04-26T08:08:02Z</time></trkpt><trkpt lat="55.613895" lon="37.951207"><ele>149.5</ele><time>2026-04-26T08:08:08Z</time></trkpt><trkpt lat="55.613822" lon="37.951272"><ele>149.7</ele><time>2026-04-26T08:08:15Z</time></trkpt><trkpt lat="55.61376" lon="37.951335"><ele>152.2</ele><time>2026-04-26T08:08:20Z</time></trkpt><trkpt lat="55.613695" lon="37.951402"><ele>152.4</ele><time>2026-04-26T08:08:25Z</time></trkpt><trkpt lat="55.613645" lon="37.951525"><ele>153.9</ele><time>2026-04-26T08:08:31Z</time></trkpt><trkpt lat="55.613577" lon="37.951615"><ele>154.6</ele><time>2026-04-26T08:08:35Z</time></trkpt><trkpt lat="55.613507" lon="37.951665"><ele>155.7</ele><time>2026-04-26T08:08:40Z</time></trkpt><trkpt lat="55.613435" lon="37.951735"><ele>156.3</ele><time>2026-04-26T08:08:46Z</time></trkpt><trkpt lat="55.613367" lon="37.951797"><ele>156.0</ele><time>2026-04-26T08:08:52Z</time></trkpt><trkpt lat="55.613298" lon="37.95185"><ele>155.9</ele><time>2026-04-26T08:08:58Z</time></trkpt><trkpt lat="55.613237" lon="37.95193"><ele>156.6</ele><time>2026-04-26T08:09:04Z</time></trkpt><trkpt lat="55.61318" lon="37.952018"><ele>156.3</ele><time>2026-04-26T08:09:10Z</time></trkpt><trkpt lat="55.61312" lon="37.952102"><ele>157.5</ele><time>2026-04-26T08:09:15Z</time></trkpt><trkpt lat="55.61306" lon="37.952172"><ele>157.6</ele><time>2026-04-26T08:09:20Z</time></trkpt><trkpt lat="55.613" lon="37.952255"><ele>157.4</ele><time>2026-04-26T08:09:26Z</time></trkpt><trkpt lat="55.612932" lon="37.95233"><ele>157.6</ele><time>2026-04-26T08:09:32Z</time></trkpt><trkpt lat="55.61287" lon="37.952402"><ele>157.9</ele><time>2026-04-26T08:09:37Z</time></trkpt><trkpt lat="55.612795" lon="37.952482"><ele>157.0</ele><time>2026-04-26T08:09:43Z</time></trkpt><trkpt lat="55.61273" lon="37.952547"><ele>156.5</ele><time>2026-04-26T08:09:49Z</time></trkpt><trkpt lat="55.612657" lon="37.95263"><ele>155.0</ele><time>2026-04-26T08:09:55Z</time></trkpt><trkpt lat="55.61259" lon="37.952702"><ele>155.2</ele><time>2026-04-26T08:10:01Z</time></trkpt><trkpt lat="55.612527" lon="37.952773"><ele>155.6</ele><time>2026-04-26T08:10:06Z</time></trkpt><trkpt lat="55.612467" lon="37.95287"><ele>154.1</ele><time>2026-04-26T08:10:11Z</time></trkpt><trkpt lat="55.612405" lon="37.95295"><ele>154.9</ele><time>2026-04-26T08:10:16Z</time></trkpt><trkpt lat="55.612345" lon="37.953035"><ele>153.4</ele><time>2026-04-26T08:10:21Z</time></trkpt><trkpt lat="55.612275" lon="37.95311"><ele>153.0</ele><time>2026-04-26T08:10:27Z</time></trkpt><trkpt lat="55.612215" lon="37.95318"><ele>153.7</ele><time>2026-04-26T08:10:32Z</time></trkpt><trkpt lat="55.61216" lon="37.95327"><ele>154.4</ele><time>2026-04-26T08:10:37Z</time></trkpt><trkpt lat="55.612107" lon="37.95339"><ele>153.8</ele><time>2026-04-26T08:10:43Z</time></trkpt><trkpt lat="55.61209" lon="37.953535"><ele>154.9</ele><time>2026-04-26T08:10:49Z</time></trkpt><trkpt lat="55.612085" lon="37.953652"><ele>153.6</ele><time>2026-04-26T08:10:56Z</time></trkpt><trkpt lat="55.612035" lon="37.953757"><ele>154.1</ele><time>2026-04-26T08:11:03Z</time></trkpt><trkpt lat="55.61198" lon="37.95386"><ele>154.3</ele><time>2026-04-26T08:11:09Z</time></trkpt><trkpt lat="55.611937" lon="37.953975"><ele>156.4</ele><time>2026-04-26T08:11:16Z</time></trkpt><trkpt lat="55.611885" lon="37.954035"><ele>154.2</ele><time>2026-04-26T08:11:23Z</time></trkpt><trkpt lat="55.611815" lon="37.9541"><ele>151.7</ele><time>2026-04-26T08:11:30Z</time></trkpt><trkpt lat="55.611745" lon="37.954125"><ele>154.0</ele><time>2026-04-26T08:11:38Z</time></trkpt><trkpt lat="55.611675" lon="37.95421"><ele>152.1</ele><time>2026-04-26T08:11:42Z</time></trkpt><trkpt lat="55.611595" lon="37.95425"><ele>152.1</ele><time>2026-04-26T08:11:47Z</time></trkpt><trkpt lat="55.61151" lon="37.95427"><ele>152.4</ele><time>2026-04-26T08:11:52Z</time></trkpt><trkpt lat="55.611435" lon="37.954317"><ele>151.2</ele><time>2026-04-26T08:11:57Z</time></trkpt><trkpt lat="55.61136" lon="37.954375"><ele>151.8</ele><time>2026-04-26T08:12:03Z</time></trkpt><trkpt lat="55.6113" lon="37.954475"><ele>150.3</ele><time>2026-04-26T08:12:08Z</time></trkpt><trkpt lat="55.611227" lon="37.954545"><ele>151.0</ele><time>2026-04-26T08:12:13Z</time></trkpt><trkpt lat="55.611155" lon="37.95461"><ele>151.2</ele><time>2026-04-26T08:12:18Z</time></trkpt><trkpt lat="55.611085" lon="37.954702"><ele>148.5</ele><time>2026-04-26T08:12:24Z</time></trkpt><trkpt lat="55.61103" lon="37.954787"><ele>146.9</ele><time>2026-04-26T08:12:29Z</time></trkpt><trkpt lat="55.610962" lon="37.95487"><ele>149.1</ele><time>2026-04-26T08:12:36Z</time></trkpt><trkpt lat="55.610892" lon="37.95493"><ele>147.7</ele><time>2026-04-26T08:12:42Z</time></trkpt><trkpt lat="55.61082" lon="37.955007"><ele>148.8</ele><time>2026-04-26T08:12:48Z</time></trkpt><trkpt lat="55.61077" lon="37.955115"><ele>149.2</ele><time>2026-04-26T08:12:55Z</time></trkpt><trkpt lat="55.610728" lon="37.95522"><ele>149.4</ele><time>2026-04-26T08:13:02Z</time></trkpt><trkpt lat="55.6107" lon="37.955357"><ele>148.3</ele><time>2026-04-26T08:13:09Z</time></trkpt><trkpt lat="55.610667" lon="37.95549"><ele>147.3</ele><time>2026-04-26T08:13:16Z</time></trkpt><trkpt lat="55.610625" lon="37.955593"><ele>147.7</ele><time>2026-04-26T08:13:21Z</time></trkpt><trkpt lat="55.61056" lon="37.95568"><ele>147.8</ele><time>2026-04-26T08:13:26Z</time></trkpt><trkpt lat="55.61049" lon="37.955752"><ele>148.3</ele><time>2026-04-26T08:13:31Z</time></trkpt><trkpt lat="55.610417" lon="37.955815"><ele>148.5</ele><time>2026-04-26T08:13:36Z</time></trkpt><trkpt lat="55.61034" lon="37.955852"><ele>150.2</ele><time>2026-04-26T08:13:42Z</time></trkpt><trkpt lat="55.610263" lon="37.955895"><ele>149.2</ele><time>2026-04-26T08:13:47Z</time></trkpt><trkpt lat="55.610192" lon="37.95598"><ele>148.9</ele><time>2026-04-26T08:13:53Z</time></trkpt><trkpt lat="55.61013" lon="37.956062"><ele>150.2</ele><time>2026-04-26T08:13:59Z</time></trkpt><trkpt lat="55.610065" lon="37.956132"><ele>149.2</ele><time>2026-04-26T08:14:04Z</time></trkpt><trkpt lat="55.61002" lon="37.956232"><ele>148.1</ele><time>2026-04-26T08:14:10Z</time></trkpt><trkpt lat="55.609968" lon="37.95633"><ele>148.6</ele><time>2026-04-26T08:14:15Z</time></trkpt><trkpt lat="55.609902" lon="37.95638"><ele>150.6</ele><time>2026-04-26T08:14:20Z</time></trkpt><trkpt lat="55.60984" lon="37.956447"><ele>150.5</ele><time>2026-04-26T08:14:25Z</time></trkpt><trkpt lat="55.60977" lon="37.95652"><ele>150.2</ele><time>2026-04-26T08:14:31Z</time></trkpt><trkpt lat="55.6097" lon="37.9566"><ele>152.2</ele><time>2026-04-26T08:14:37Z</time></trkpt><trkpt lat="55.609635" lon="37.95667"><ele>153.3</ele><time>2026-04-26T08:14:43Z</time></trkpt><trkpt lat="55.609565" lon="37.95674"><ele>153.0</ele><time>2026-04-26T08:14:49Z</time></trkpt><trkpt lat="55.609525" lon="37.956865"><ele>151.7</ele><time>2026-04-26T08:14:54Z</time></trkpt><trkpt lat="55.609437" lon="37.956905"><ele>152.7</ele><time>2026-04-26T08:14:58Z</time></trkpt><trkpt lat="55.609355" lon="37.9569"><ele>151.9</ele><time>2026-04-26T08:15:03Z</time></trkpt><trkpt lat="55.609272" lon="37.956905"><ele>154.8</ele><time>2026-04-26T08:15:08Z</time></trkpt><trkpt lat="55.609215" lon="37.956982"><ele>153.0</ele><time>2026-04-26T08:15:14Z</time></trkpt><trkpt lat="55.60916" lon="37.957105"><ele>154.1</ele><time>2026-04-26T08:15:20Z</time></trkpt><trkpt lat="55.60911" lon="37.9572"><ele>153.6</ele><time>2026-04-26T08:15:27Z</time></trkpt><trkpt lat="55.609037" lon="37.957272"><ele>153.9</ele><time>2026-04-26T08:15:34Z</time></trkpt><trkpt lat="55.60897" lon="37.957342"><ele>152.8</ele><time>2026-04-26T08:15:39Z</time></trkpt><trkpt lat="55.608907" lon="37.957415"><ele>151.6</ele><time>2026-04-26T08:15:44Z</time></trkpt><trkpt lat="55.60884" lon="37.957492"><ele>151.2</ele><time>2026-04-26T08:15:50Z</time></trkpt><trkpt lat="55.60877" lon="37.95757"><ele>152.7</ele><time>2026-04-26T08:15:57Z</time></trkpt><trkpt lat="55.6087" lon="37.957645"><ele>153.2</ele><time>2026-04-26T08:16:02Z</time></trkpt><trkpt lat="55.60864" lon="37.9577"><ele>155.4</ele><time>2026-04-26T08:16:09Z</time></trkpt><trkpt lat="55.60857" lon="37.95777"><ele>151.0</ele><time>2026-04-26T08:16:15Z</time></trkpt><trkpt lat="55.6085" lon="37.957825"><ele>151.7</ele><time>2026-04-26T08:16:20Z</time></trkpt><trkpt lat="55.608432" lon="37.95788"><ele>152.7</ele><time>2026-04-26T08:16:24Z</time></trkpt><trkpt lat="55.608405" lon="37.95801"><ele>151.8</ele><time>2026-04-26T08:16:31Z</time></trkpt><trkpt lat="55.608392" lon="37.958145"><ele>149.4</ele><time>2026-04-26T08:16:37Z</time></trkpt><trkpt lat="55.60831" lon="37.958217"><ele>151.1</ele><time>2026-04-26T08:16:42Z</time></trkpt><trkpt lat="55.60822" lon="37.95818"><ele>153.7</ele><time>2026-04-26T08:16:45Z</time></trkpt><trkpt lat="55.608147" lon="37.958132"><ele>155.9</ele><time>2026-04-26T08:16:48Z</time></trkpt><trkpt lat="55.60806" lon="37.95813"><ele>154.5</ele><time>2026-04-26T08:16:52Z</time></trkpt><trkpt lat="55.607982" lon="37.95814"><ele>153.1</ele><time>2026-04-26T08:16:57Z</time></trkpt><trkpt lat="55.6079" lon="37.958135"><ele>153.8</ele><time>2026-04-26T08:17:03Z</time></trkpt><trkpt lat="55.60783" lon="37.95822"><ele>152.3</ele><time>2026-04-26T08:17:10Z</time></trkpt><trkpt lat="55.607757" lon="37.95829"><ele>153.6</ele><time>2026-04-26T08:17:16Z</time></trkpt><trkpt lat="55.607705" lon="37.95839"><ele>147.1</ele><time>2026-04-26T08:17:22Z</time></trkpt><trkpt lat="55.60765" lon="37.958485"><ele>150.2</ele><time>2026-04-26T08:17:28Z</time></trkpt><trkpt lat="55.607622" lon="37.958555"><ele>149.9</ele><time>2026-04-26T08:17:35Z</time></trkpt><trkpt lat="55.60764" lon="37.95857"><ele>151.6</ele><time>2026-04-26T08:17:42Z</time></trkpt><trkpt lat="55.607637" lon="37.95857"><ele>151.5</ele><time>2026-04-26T08:17:45Z</time></trkpt><trkpt lat="55.607625" lon="37.958585"><ele>152.8</ele><time>2026-04-26T08:17:53Z</time></trkpt><trkpt lat="55.607555" lon="37.958665"><ele>148.6</ele><time>2026-04-26T08:18:00Z</time></trkpt><trkpt lat="55.607477" lon="37.9587"><ele>147.5</ele><time>2026-04-26T08:18:06Z</time></trkpt><trkpt lat="55.607402" lon="37.958712"><ele>147.9</ele><time>2026-04-26T08:18:11Z</time></trkpt><trkpt lat="55.60732" lon="37.95873"><ele>148.7</ele><time>2026-04-26T08:18:17Z</time></trkpt><trkpt lat="55.60725" lon="37.958785"><ele>147.8</ele><time>2026-04-26T08:18:24Z</time></trkpt><trkpt lat="55.607205" lon="37.958882"><ele>147.6</ele><time>2026-04-26T08:18:31Z</time></trkpt><trkpt lat="55.60714" lon="37.95895"><ele>148.2</ele><time>2026-04-26T08:18:37Z</time></trkpt><trkpt lat="55.60709" lon="37.959045"><ele>149.9</ele><time>2026-04-26T08:18:44Z</time></trkpt><trkpt lat="55.60702" lon="37.959102"><ele>147.9</ele><time>2026-04-26T08:18:51Z</time></trkpt><trkpt lat="55.60694" lon="37.959145"><ele>151.2</ele><time>2026-04-26T08:18:58Z</time></trkpt><trkpt lat="55.60687" lon="37.959165"><ele>150.1</ele><time>2026-04-26T08:19:04Z</time></trkpt><trkpt lat="55.606792" lon="37.959215"><ele>148.4</ele><time>2026-04-26T08:19:10Z</time></trkpt><trkpt lat="55.606717" lon="37.95923"><ele>147.0</ele><time>2026-04-26T08:19:16Z</time></trkpt><trkpt lat="55.606633" lon="37.95927"><ele>149.2</ele><time>2026-04-26T08:19:22Z</time></trkpt><trkpt lat="55.606555" lon="37.959292"><ele>149.8</ele><time>2026-04-26T08:19:28Z</time></trkpt><trkpt lat="55.60647" lon="37.959285"><ele>148.8</ele><time>2026-04-26T08:19:34Z</time></trkpt><trkpt lat="55.606387" lon="37.959288"><ele>147.6</ele><time>2026-04-26T08:19:40Z</time></trkpt><trkpt lat="55.60633" lon="37.9592"><ele>147.3</ele><time>2026-04-26T08:19:46Z</time></trkpt><trkpt lat="55.60625" lon="37.95913"><ele>146.9</ele><time>2026-04-26T08:19:52Z</time></trkpt><trkpt lat="55.606175" lon="37.95918"><ele>146.9</ele><time>2026-04-26T08:19:58Z</time></trkpt><trkpt lat="55.60611" lon="37.95925"><ele>150.0</ele><time>2026-04-26T08:20:03Z</time></trkpt><trkpt lat="55.606045" lon="37.95934"><ele>149.7</ele><time>2026-04-26T08:20:08Z</time></trkpt><trkpt lat="55.60597" lon="37.959405"><ele>148.9</ele><time>2026-04-26T08:20:13Z</time></trkpt><trkpt lat="55.605905" lon="37.95946"><ele>148.4</ele><time>2026-04-26T08:20:18Z</time></trkpt><trkpt lat="55.605837" lon="37.95951"><ele>145.0</ele><time>2026-04-26T08:20:23Z</time></trkpt><trkpt lat="55.60577" lon="37.959585"><ele>145.3</ele><time>2026-04-26T08:20:28Z</time></trkpt><trkpt lat="55.605745" lon="37.959668"><ele>142.5</ele><time>2026-04-26T08:20:35Z</time></trkpt><trkpt lat="55.605705" lon="37.95979"><ele>145.6</ele><time>2026-04-26T08:20:42Z</time></trkpt><trkpt lat="55.60564" lon="37.95987"><ele>145.8</ele><time>2026-04-26T08:20:48Z</time></trkpt><trkpt lat="55.60558" lon="37.959975"><ele>147.2</ele><time>2026-04-26T08:20:54Z</time></trkpt><trkpt lat="55.605525" lon="37.96009"><ele>145.4</ele><time>2026-04-26T08:21:00Z</time></trkpt><trkpt lat="55.60547" lon="37.96019"><ele>145.5</ele><time>2026-04-26T08:21:05Z</time></trkpt><trkpt lat="55.605423" lon="37.96029"><ele>145.4</ele><time>2026-04-26T08:21:11Z</time></trkpt><trkpt lat="55.60538" lon="37.9604"><ele>145.4</ele><time>2026-04-26T08:21:17Z</time></trkpt><trkpt lat="55.6053" lon="37.960427"><ele>143.8</ele><time>2026-04-26T08:21:22Z</time></trkpt><trkpt lat="55.605222" lon="37.96048"><ele>146.5</ele><time>2026-04-26T08:21:28Z</time></trkpt><trkpt lat="55.605145" lon="37.960535"><ele>148.1</ele><time>2026-04-26T08:21:33Z</time></trkpt><trkpt lat="55.605085" lon="37.960625"><ele>149.9</ele><time>2026-04-26T08:21:38Z</time></trkpt><trkpt lat="55.60503" lon="37.96074"><ele>148.9</ele><time>2026-04-26T08:21:44Z</time></trkpt><trkpt lat="55.604985" lon="37.96081"><ele>150.6</ele><time>2026-04-26T08:21:51Z</time></trkpt><trkpt lat="55.6049" lon="37.960765"><ele>151.5</ele><time>2026-04-26T08:21:57Z</time></trkpt><trkpt lat="55.604815" lon="37.96077"><ele>153.5</ele><time>2026-04-26T08:22:03Z</time></trkpt><trkpt lat="55.60476" lon="37.96085"><ele>155.9</ele><time>2026-04-26T08:22:08Z</time></trkpt><trkpt lat="55.604705" lon="37.960945"><ele>151.1</ele><time>2026-04-26T08:22:14Z</time></trkpt><trkpt lat="55.604655" lon="37.961045"><ele>148.5</ele><time>2026-04-26T08:22:19Z</time></trkpt><trkpt lat="55.604575" lon="37.96108"><ele>149.9</ele><time>2026-04-26T08:22:24Z</time></trkpt><trkpt lat="55.604495" lon="37.96112"><ele>148.6</ele><time>2026-04-26T08:22:29Z</time></trkpt><trkpt lat="55.604432" lon="37.9612"><ele>147.4</ele><time>2026-04-26T08:22:34Z</time></trkpt><trkpt lat="55.60438" lon="37.961295"><ele>147.2</ele><time>2026-04-26T08:22:39Z</time></trkpt><trkpt lat="55.60432" lon="37.96139"><ele>146.0</ele><time>2026-04-26T08:22:46Z</time></trkpt><trkpt lat="55.60429" lon="37.961515"><ele>146.8</ele><time>2026-04-26T08:22:51Z</time></trkpt><trkpt lat="55.60429" lon="37.961643"><ele>145.9</ele><time>2026-04-26T08:22:56Z</time></trkpt><trkpt lat="55.604305" lon="37.96177"><ele>147.6</ele><time>2026-04-26T08:23:01Z</time></trkpt><trkpt lat="55.604315" lon="37.96191"><ele>149.4</ele><time>2026-04-26T08:23:07Z</time></trkpt><trkpt lat="55.604325" lon="37.96205"><ele>150.5</ele><time>2026-04-26T08:23:12Z</time></trkpt><trkpt lat="55.604325" lon="37.962195"><ele>151.2</ele><time>2026-04-26T08:23:17Z</time></trkpt><trkpt lat="55.604305" lon="37.962317"><ele>150.2</ele><time>2026-04-26T08:23:22Z</time></trkpt><trkpt lat="55.60429" lon="37.962445"><ele>149.0</ele><time>2026-04-26T08:23:28Z</time></trkpt><trkpt lat="55.604235" lon="37.962555"><ele>151.4</ele><time>2026-04-26T08:23:34Z</time></trkpt><trkpt lat="55.604185" lon="37.962655"><ele>152.1</ele><time>2026-04-26T08:23:39Z</time></trkpt><trkpt lat="55.60412" lon="37.962747"><ele>149.8</ele><time>2026-04-26T08:23:45Z</time></trkpt><trkpt lat="55.604045" lon="37.962795"><ele>151.0</ele><time>2026-04-26T08:23:50Z</time></trkpt><trkpt lat="55.603972" lon="37.962875"><ele>153.0</ele><time>2026-04-26T08:23:57Z</time></trkpt><trkpt lat="55.60393" lon="37.96298"><ele>148.2</ele><time>2026-04-26T08:24:03Z</time></trkpt><trkpt lat="55.603903" lon="37.96311"><ele>146.7</ele><time>2026-04-26T08:24:08Z</time></trkpt></trkseg></trk></gpx>