<?xml version="1.0" encoding="UTF-8" standalone="no"?><gpx xmlns="http://www.topografix.com/GPX/1/1" xmlns:gpxtpx="http://www.garmin.com/xmlschemas/TrackPointExtension/v1" xmlns:xsi="http://www.w3.org/2001/XMLSchema-instance" creator="Sports Tracker" version="1.1" xsi:schemaLocation="http://www.topografix.com/GPX/1/1 http://www.topografix.com/GPX/1/1/gpx.xsd http://www.garmin.com/xmlschemas/TrackPointExtension/v1 http://www.garmin.com/xmlschemas/TrackPointExtensionv1.xsd"><metadata><name/><desc/><author><name>Александр</name></author></metadata><trk><name/><trkseg><trkpt lat="57.27232" lon="36.071507"><ele>132.3</ele><time>2023-06-28T16:18:46Z</time></trkpt><trkpt lat="57.272285" lon="36.071633"><ele>142.6</ele><time>2023-06-28T16:19:05Z</time></trkpt><trkpt lat="57.27223" lon="36.071723"><ele>140.2</ele><time>2023-06-28T16:19:11Z</time></trkpt><trkpt lat="57.272228" lon="36.071863"><ele>139.0</ele><time>2023-06-28T16:19:20Z</time></trkpt><trkpt lat="57.272242" lon="36.072003"><ele>140.4</ele><time>2023-06-28T16:19:26Z</time></trkpt><trkpt lat="57.272315" lon="36.072045"><ele>141.7</ele><time>2023-06-28T16:19:42Z</time></trkpt><trkpt lat="57.272312" lon="36.07218"><ele>137.4</ele><time>2023-06-28T16:20:22Z</time></trkpt><trkpt lat="57.272307" lon="36.072325"><ele>135.2</ele><time>2023-06-28T16:20:34Z</time></trkpt><trkpt lat="57.272295" lon="36.072467"><ele>135.8</ele><time>2023-06-28T16:20:41Z</time></trkpt><trkpt lat="57.272255" lon="36.072602"><ele>138.4</ele><time>2023-06-28T16:20:47Z</time></trkpt><trkpt lat="57.272228" lon="36.072753"><ele>138.4</ele><time>2023-06-28T16:20:54Z</time></trkpt><trkpt lat="57.27221" lon="36.072905"><ele>139.7</ele><time>2023-06-28T16:21:00Z</time></trkpt><trkpt lat="57.272203" lon="36.073047"><ele>137.6</ele><time>2023-06-28T16:21:07Z</time></trkpt><trkpt lat="57.272205" lon="36.073202"><ele>134.0</ele><time>2023-06-28T16:21:15Z</time></trkpt><trkpt lat="57.27217" lon="36.073337"><ele>133.8</ele><time>2023-06-28T16:21:21Z</time></trkpt><trkpt lat="57.27215" lon="36.073468"><ele>132.2</ele><time>2023-06-28T16:21:37Z</time></trkpt><trkpt lat="57.272152" lon="36.073618"><ele>132.2</ele><time>2023-06-28T16:21:47Z</time></trkpt><trkpt lat="57.27218" lon="36.073745"><ele>131.2</ele><time>2023-06-28T16:21:53Z</time></trkpt><trkpt lat="57.27222" lon="36.073885"><ele>130.7</ele><time>2023-06-28T16:21:59Z</time></trkpt><trkpt lat="57.272257" lon="36.074015"><ele>130.4</ele><time>2023-06-28T16:22:05Z</time></trkpt><trkpt lat="57.272308" lon="36.074135"><ele>129.7</ele><time>2023-06-28T16:22:12Z</time></trkpt><trkpt lat="57.272365" lon="36.074237"><ele>128.6</ele><time>2023-06-28T16:22:19Z</time></trkpt><trkpt lat="57.272428" lon="36.074322"><ele>128.3</ele><time>2023-06-28T16:22:25Z</time></trkpt><trkpt lat="57.272452" lon="36.074447"><ele>128.8</ele><time>2023-06-28T16:22:32Z</time></trkpt><trkpt lat="57.272435" lon="36.074597"><ele>128.1</ele><time>2023-06-28T16:22:39Z</time></trkpt><trkpt lat="57.272413" lon="36.07475"><ele>127.7</ele><time>2023-06-28T16:22:46Z</time></trkpt><trkpt lat="57.272403" lon="36.074895"><ele>126.7</ele><time>2023-06-28T16:22:52Z</time></trkpt><trkpt lat="57.272408" lon="36.075038"><ele>128.3</ele><time>2023-06-28T16:22:58Z</time></trkpt><trkpt lat="57.272427" lon="36.07517"><ele>128.6</ele><time>2023-06-28T16:23:04Z</time></trkpt><trkpt lat="57.272447" lon="36.0753"><ele>127.4</ele><time>2023-06-28T16:23:10Z</time></trkpt><trkpt lat="57.272447" lon="36.075447"><ele>129.1</ele><time>2023-06-28T16:23:16Z</time></trkpt><trkpt lat="57.272425" lon="36.075583"><ele>128.9</ele><time>2023-06-28T16:23:22Z</time></trkpt><trkpt lat="57.272393" lon="36.07572"><ele>128.6</ele><time>2023-06-28T16:23:30Z</time></trkpt><trkpt lat="57.27235" lon="36.075832"><ele>128.8</ele><time>2023-06-28T16:24:24Z</time></trkpt><trkpt lat="57.272333" lon="36.075968"><ele>129.7</ele><time>2023-06-28T16:25:00Z</time></trkpt><trkpt lat="57.272342" lon="36.07611"><ele>130.5</ele><time>2023-06-28T16:25:18Z</time></trkpt><trkpt lat="57.272347" lon="36.076252"><ele>130.5</ele><time>2023-06-28T16:25:25Z</time></trkpt><trkpt lat="57.272323" lon="36.076387"><ele>128.4</ele><time>2023-06-28T16:25:33Z</time></trkpt><trkpt lat="57.272298" lon="36.076515"><ele>127.0</ele><time>2023-06-28T16:25:39Z</time></trkpt><trkpt lat="57.272272" lon="36.07664"><ele>126.2</ele><time>2023-06-28T16:25:44Z</time></trkpt><trkpt lat="57.272235" lon="36.076777"><ele>127.1</ele><time>2023-06-28T16:25:50Z</time></trkpt><trkpt lat="57.272213" lon="36.076915"><ele>126.8</ele><time>2023-06-28T16:25:57Z</time></trkpt><trkpt lat="57.272187" lon="36.077062"><ele>125.0</ele><time>2023-06-28T16:26:03Z</time></trkpt><trkpt lat="57.272215" lon="36.077187"><ele>126.5</ele><time>2023-06-28T16:26:17Z</time></trkpt><trkpt lat="57.272292" lon="36.077188"><ele>126.8</ele><time>2023-06-28T16:31:20Z</time></trkpt><trkpt lat="57.272273" lon="36.07732"><ele>125.9</ele><time>2023-06-28T16:33:45Z</time></trkpt><trkpt lat="57.272277" lon="36.077458"><ele>123.2</ele><time>2023-06-28T16:34:01Z</time></trkpt><trkpt lat="57.272273" lon="36.077592"><ele>123.1</ele><time>2023-06-28T16:34:09Z</time></trkpt><trkpt lat="57.272282" lon="36.077733"><ele>123.3</ele><time>2023-06-28T16:34:18Z</time></trkpt><trkpt lat="57.272332" lon="36.077843"><ele>123.0</ele><time>2023-06-28T16:34:26Z</time></trkpt><trkpt lat="57.272367" lon="36.077962"><ele>124.6</ele><time>2023-06-28T16:34:32Z</time></trkpt><trkpt lat="57.272357" lon="36.078103"><ele>123.3</ele><time>2023-06-28T16:34:40Z</time></trkpt><trkpt lat="57.272368" lon="36.078242"><ele>119.9</ele><time>2023-06-28T16:34:49Z</time></trkpt><trkpt lat="57.272392" lon="36.078367"><ele>125.6</ele><time>2023-06-28T16:34:57Z</time></trkpt><trkpt lat="57.272393" lon="36.0785"><ele>127.5</ele><time>2023-06-28T16:35:04Z</time></trkpt><trkpt lat="57.272423" lon="36.078635"><ele>130.8</ele><time>2023-06-28T16:35:13Z</time></trkpt><trkpt lat="57.272482" lon="36.078722"><ele>130.9</ele><time>2023-06-28T16:35:20Z</time></trkpt><trkpt lat="57.272502" lon="36.078855"><ele>130.3</ele><time>2023-06-28T16:35:30Z</time></trkpt><trkpt lat="57.27252" lon="36.078988"><ele>129.5</ele><time>2023-06-28T16:35:39Z</time></trkpt><trkpt lat="57.272532" lon="36.079122"><ele>129.1</ele><time>2023-06-28T16:35:54Z</time></trkpt><trkpt lat="57.272525" lon="36.079255"><ele>126.3</ele><time>2023-06-28T16:36:03Z</time></trkpt><trkpt lat="57.272522" lon="36.079425"><ele>127.1</ele><time>2023-06-28T16:36:15Z</time></trkpt><trkpt lat="57.272538" lon="36.079562"><ele>125.6</ele><time>2023-06-28T16:36:24Z</time></trkpt><trkpt lat="57.272502" lon="36.079693"><ele>128.9</ele><time>2023-06-28T16:36:34Z</time></trkpt><trkpt lat="57.272485" lon="36.079827"><ele>128.2</ele><time>2023-06-28T16:36:45Z</time></trkpt><trkpt lat="57.272488" lon="36.079963"><ele>128.1</ele><time>2023-06-28T16:36:50Z</time></trkpt><trkpt lat="57.272487" lon="36.0801"><ele>130.6</ele><time>2023-06-28T16:36:55Z</time></trkpt><trkpt lat="57.272478" lon="36.080233"><ele>129.3</ele><time>2023-06-28T16:37:01Z</time></trkpt><trkpt lat="57.272455" lon="36.080393"><ele>129.1</ele><time>2023-06-28T16:37:06Z</time></trkpt><trkpt lat="57.272463" lon="36.080527"><ele>129.5</ele><time>2023-06-28T16:37:12Z</time></trkpt><trkpt lat="57.272453" lon="36.080675"><ele>130.7</ele><time>2023-06-28T16:37:19Z</time></trkpt><trkpt lat="57.272445" lon="36.080813"><ele>132.6</ele><time>2023-06-28T16:37:27Z</time></trkpt><trkpt lat="57.272423" lon="36.080947"><ele>134.6</ele><time>2023-06-28T16:37:34Z</time></trkpt><trkpt lat="57.272408" lon="36.081092"><ele>132.1</ele><time>2023-06-28T16:37:42Z</time></trkpt><trkpt lat="57.272377" lon="36.081218"><ele>131.5</ele><time>2023-06-28T16:37:50Z</time></trkpt><trkpt lat="57.272347" lon="36.081357"><ele>132.3</ele><time>2023-06-28T16:38:04Z</time></trkpt><trkpt lat="57.272333" lon="36.081497"><ele>133.1</ele><time>2023-06-28T16:38:13Z</time></trkpt><trkpt lat="57.27231" lon="36.081623"><ele>131.5</ele><time>2023-06-28T16:38:22Z</time></trkpt><trkpt lat="57.272313" lon="36.081765"><ele>131.3</ele><time>2023-06-28T16:38:30Z</time></trkpt><trkpt lat="57.272313" lon="36.0819"><ele>132.1</ele><time>2023-06-28T16:38:38Z</time></trkpt><trkpt lat="57.272287" lon="36.082048"><ele>131.5</ele><time>2023-06-28T16:38:45Z</time></trkpt><trkpt lat="57.272293" lon="36.082192"><ele>134.7</ele><time>2023-06-28T16:38:55Z</time></trkpt><trkpt lat="57.272317" lon="36.08232"><ele>133.7</ele><time>2023-06-28T16:39:02Z</time></trkpt><trkpt lat="57.272308" lon="36.08247"><ele>133.7</ele><time>2023-06-28T16:39:11Z</time></trkpt><trkpt lat="57.272293" lon="36.082603"><ele>133.4</ele><time>2023-06-28T16:39:18Z</time></trkpt><trkpt lat="57.272302" lon="36.082742"><ele>133.0</ele><time>2023-06-28T16:39:28Z</time></trkpt><trkpt lat="57.272332" lon="36.082877"><ele>133.9</ele><time>2023-06-28T16:39:38Z</time></trkpt><trkpt lat="57.27237" lon="36.082993"><ele>133.8</ele><time>2023-06-28T16:39:47Z</time></trkpt><trkpt lat="57.272435" lon="36.08306"><ele>133.6</ele><time>2023-06-28T16:39:56Z</time></trkpt><trkpt lat="57.272468" lon="36.083182"><ele>131.0</ele><time>2023-06-28T16:40:09Z</time></trkpt><trkpt lat="57.27249" lon="36.08332"><ele>132.0</ele><time>2023-06-28T16:40:17Z</time></trkpt><trkpt lat="57.272537" lon="36.083438"><ele>128.3</ele><time>2023-06-28T16:40:26Z</time></trkpt><trkpt lat="57.272572" lon="36.083563"><ele>131.0</ele><time>2023-06-28T16:40:36Z</time></trkpt><trkpt lat="57.272622" lon="36.08368"><ele>129.7</ele><time>2023-06-28T16:40:45Z</time></trkpt><trkpt lat="57.272675" lon="36.083787"><ele>132.0</ele><time>2023-06-28T16:40:53Z</time></trkpt><trkpt lat="57.272698" lon="36.08393"><ele>131.2</ele><time>2023-06-28T16:41:02Z</time></trkpt><trkpt lat="57.272717" lon="36.08407"><ele>130.3</ele><time>2023-06-28T16:41:11Z</time></trkpt><trkpt lat="57.272725" lon="36.084215"><ele>128.9</ele><time>2023-06-28T16:41:19Z</time></trkpt><trkpt lat="57.272727" lon="36.084353"><ele>126.3</ele><time>2023-06-28T16:41:28Z</time></trkpt><trkpt lat="57.272745" lon="36.08449"><ele>126.2</ele><time>2023-06-28T16:41:37Z</time></trkpt><trkpt lat="57.272793" lon="36.084608"><ele>122.7</ele><time>2023-06-28T16:41:50Z</time></trkpt><trkpt lat="57.272795" lon="36.084742"><ele>124.7</ele><time>2023-06-28T16:42:00Z</time></trkpt><trkpt lat="57.272775" lon="36.084893"><ele>126.1</ele><time>2023-06-28T16:42:10Z</time></trkpt><trkpt lat="57.27276" lon="36.085028"><ele>126.5</ele><time>2023-06-28T16:42:19Z</time></trkpt><trkpt lat="57.272787" lon="36.08517"><ele>128.7</ele><time>2023-06-28T16:42:28Z</time></trkpt><trkpt lat="57.272782" lon="36.085305"><ele>130.7</ele><time>2023-06-28T16:42:37Z</time></trkpt><trkpt lat="57.27279" lon="36.08544"><ele>129.7</ele><time>2023-06-28T16:42:48Z</time></trkpt><trkpt lat="57.272797" lon="36.085585"><ele>128.4</ele><time>2023-06-28T16:42:55Z</time></trkpt><trkpt lat="57.272795" lon="36.085727"><ele>129.7</ele><time>2023-06-28T16:43:04Z</time></trkpt><trkpt lat="57.272785" lon="36.085858"><ele>129.1</ele><time>2023-06-28T16:43:17Z</time></trkpt><trkpt lat="57.272792" lon="36.086"><ele>128.2</ele><time>2023-06-28T16:43:27Z</time></trkpt><trkpt lat="57.2728" lon="36.086143"><ele>128.2</ele><time>2023-06-28T16:43:36Z</time></trkpt><trkpt lat="57.272797" lon="36.086278"><ele>128.8</ele><time>2023-06-28T16:43:44Z</time></trkpt><trkpt lat="57.272828" lon="36.086417"><ele>127.4</ele><time>2023-06-28T16:43:52Z</time></trkpt><trkpt lat="57.27285" lon="36.08655"><ele>124.9</ele><time>2023-06-28T16:43:59Z</time></trkpt><trkpt lat="57.272855" lon="36.086705"><ele>127.5</ele><time>2023-06-28T16:44:06Z</time></trkpt><trkpt lat="57.272848" lon="36.086843"><ele>128.1</ele><time>2023-06-28T16:44:13Z</time></trkpt><trkpt lat="57.27284" lon="36.08698"><ele>130.3</ele><time>2023-06-28T16:44:19Z</time></trkpt><trkpt lat="57.272858" lon="36.087132"><ele>130.8</ele><time>2023-06-28T16:44:26Z</time></trkpt><trkpt lat="57.27286" lon="36.087268"><ele>129.0</ele><time>2023-06-28T16:44:31Z</time></trkpt><trkpt lat="57.272822" lon="36.08739"><ele>129.4</ele><time>2023-06-28T16:44:36Z</time></trkpt><trkpt lat="57.272792" lon="36.087517"><ele>127.4</ele><time>2023-06-28T16:44:44Z</time></trkpt><trkpt lat="57.272755" lon="36.087638"><ele>126.2</ele><time>2023-06-28T16:45:27Z</time></trkpt><trkpt lat="57.272722" lon="36.087762"><ele>127.9</ele><time>2023-06-28T16:45:38Z</time></trkpt><trkpt lat="57.272675" lon="36.087867"><ele>130.0</ele><time>2023-06-28T16:45:47Z</time></trkpt><trkpt lat="57.272623" lon="36.08796"><ele>130.9</ele><time>2023-06-28T16:46:03Z</time></trkpt><trkpt lat="57.272628" lon="36.088097"><ele>130.6</ele><time>2023-06-28T16:46:16Z</time></trkpt><trkpt lat="57.272595" lon="36.088215"><ele>130.8</ele><time>2023-06-28T16:46:25Z</time></trkpt><trkpt lat="57.272568" lon="36.088347"><ele>127.6</ele><time>2023-06-28T16:46:32Z</time></trkpt><trkpt lat="57.27251" lon="36.088443"><ele>127.0</ele><time>2023-06-28T16:46:41Z</time></trkpt><trkpt lat="57.272442" lon="36.08853"><ele>127.0</ele><time>2023-06-28T16:46:49Z</time></trkpt><trkpt lat="57.272385" lon="36.088627"><ele>130.8</ele><time>2023-06-28T16:46:58Z</time></trkpt><trkpt lat="57.272343" lon="36.088737"><ele>127.7</ele><time>2023-06-28T16:47:07Z</time></trkpt><trkpt lat="57.272293" lon="36.088838"><ele>130.6</ele><time>2023-06-28T16:47:18Z</time></trkpt><trkpt lat="57.272222" lon="36.088902"><ele>133.3</ele><time>2023-06-28T16:47:26Z</time></trkpt><trkpt lat="57.272155" lon="36.088988"><ele>134.6</ele><time>2023-06-28T16:47:36Z</time></trkpt><trkpt lat="57.27208" lon="36.089038"><ele>133.3</ele><time>2023-06-28T16:47:48Z</time></trkpt><trkpt lat="57.27201" lon="36.08909"><ele>131.3</ele><time>2023-06-28T16:47:56Z</time></trkpt><trkpt lat="57.271937" lon="36.08916"><ele>131.1</ele><time>2023-06-28T16:48:08Z</time></trkpt><trkpt lat="57.271855" lon="36.089192"><ele>129.3</ele><time>2023-06-28T16:48:19Z</time></trkpt><trkpt lat="57.271778" lon="36.089195"><ele>126.8</ele><time>2023-06-28T16:48:28Z</time></trkpt><trkpt lat="57.271695" lon="36.089197"><ele>127.9</ele><time>2023-06-28T16:48:36Z</time></trkpt><trkpt lat="57.271617" lon="36.089157"><ele>128.3</ele><time>2023-06-28T16:48:47Z</time></trkpt><trkpt lat="57.27154" lon="36.089168"><ele>128.1</ele><time>2023-06-28T16:48:56Z</time></trkpt><trkpt lat="57.271458" lon="36.089192"><ele>128.7</ele><time>2023-06-28T16:49:04Z</time></trkpt><trkpt lat="57.271387" lon="36.089182"><ele>127.4</ele><time>2023-06-28T16:49:10Z</time></trkpt><trkpt lat="57.271308" lon="36.089155"><ele>128.2</ele><time>2023-06-28T16:49:16Z</time></trkpt><trkpt lat="57.271228" lon="36.089138"><ele>129.5</ele><time>2023-06-28T16:49:23Z</time></trkpt><trkpt lat="57.271147" lon="36.089158"><ele>130.3</ele><time>2023-06-28T16:49:31Z</time></trkpt><trkpt lat="57.271063" lon="36.089152"><ele>129.7</ele><time>2023-06-28T16:49:37Z</time></trkpt><trkpt lat="57.270988" lon="36.089135"><ele>132.0</ele><time>2023-06-28T16:49:43Z</time></trkpt><trkpt lat="57.270907" lon="36.089113"><ele>131.5</ele><time>2023-06-28T16:49:50Z</time></trkpt><trkpt lat="57.270833" lon="36.08907"><ele>131.4</ele><time>2023-06-28T16:49:56Z</time></trkpt><trkpt lat="57.27076" lon="36.089035"><ele>129.9</ele><time>2023-06-28T16:50:02Z</time></trkpt><trkpt lat="57.27069" lon="36.089"><ele>129.1</ele><time>2023-06-28T16:50:10Z</time></trkpt><trkpt lat="57.27062" lon="36.088952"><ele>129.8</ele><time>2023-06-28T16:50:16Z</time></trkpt><trkpt lat="57.270548" lon="36.088917"><ele>129.8</ele><time>2023-06-28T16:50:21Z</time></trkpt><trkpt lat="57.270468" lon="36.088917"><ele>132.0</ele><time>2023-06-28T16:50:27Z</time></trkpt><trkpt lat="57.27039" lon="36.088905"><ele>132.0</ele><time>2023-06-28T16:50:32Z</time></trkpt><trkpt lat="57.270317" lon="36.088893"><ele>130.5</ele><time>2023-06-28T16:50:37Z</time></trkpt><trkpt lat="57.270247" lon="36.088863"><ele>130.1</ele><time>2023-06-28T16:50:43Z</time></trkpt><trkpt lat="57.270163" lon="36.088833"><ele>129.9</ele><time>2023-06-28T16:50:50Z</time></trkpt><trkpt lat="57.270088" lon="36.088817"><ele>128.7</ele><time>2023-06-28T16:50:55Z</time></trkpt><trkpt lat="57.270012" lon="36.088815"><ele>129.0</ele><time>2023-06-28T16:51:00Z</time></trkpt><trkpt lat="57.26993" lon="36.088847"><ele>129.4</ele><time>2023-06-28T16:51:07Z</time></trkpt><trkpt lat="57.26985" lon="36.088805"><ele>127.8</ele><time>2023-06-28T16:51:31Z</time></trkpt><trkpt lat="57.26978" lon="36.088762"><ele>126.9</ele><time>2023-06-28T16:51:43Z</time></trkpt><trkpt lat="57.269705" lon="36.088772"><ele>127.2</ele><time>2023-06-28T16:51:50Z</time></trkpt><trkpt lat="57.269647" lon="36.088865"><ele>127.8</ele><time>2023-06-28T16:51:58Z</time></trkpt><trkpt lat="57.269568" lon="36.088895"><ele>125.9</ele><time>2023-06-28T16:52:06Z</time></trkpt><trkpt lat="57.269498" lon="36.08894"><ele>126.5</ele><time>2023-06-28T16:52:46Z</time></trkpt><trkpt lat="57.269425" lon="36.088943"><ele>128.5</ele><time>2023-06-28T16:52:53Z</time></trkpt><trkpt lat="57.26935" lon="36.088943"><ele>128.1</ele><time>2023-06-28T16:53:00Z</time></trkpt><trkpt lat="57.26927" lon="36.088933"><ele>129.9</ele><time>2023-06-28T16:53:10Z</time></trkpt><trkpt lat="57.269187" lon="36.088932"><ele>130.7</ele><time>2023-06-28T16:53:17Z</time></trkpt><trkpt lat="57.269105" lon="36.088952"><ele>129.3</ele><time>2023-06-28T16:53:22Z</time></trkpt><trkpt lat="57.269037" lon="36.088998"><ele>129.3</ele><time>2023-06-28T16:53:27Z</time></trkpt><trkpt lat="57.268962" lon="36.089028"><ele>128.8</ele><time>2023-06-28T16:53:33Z</time></trkpt><trkpt lat="57.268887" lon="36.089038"><ele>129.1</ele><time>2023-06-28T16:53:39Z</time></trkpt><trkpt lat="57.268805" lon="36.089067"><ele>131.9</ele><time>2023-06-28T16:53:46Z</time></trkpt><trkpt lat="57.268733" lon="36.089077"><ele>132.4</ele><time>2023-06-28T16:53:52Z</time></trkpt><trkpt lat="57.268655" lon="36.089092"><ele>128.0</ele><time>2023-06-28T16:53:59Z</time></trkpt><trkpt lat="57.26858" lon="36.089102"><ele>125.6</ele><time>2023-06-28T16:54:05Z</time></trkpt><trkpt lat="57.268507" lon="36.089103"><ele>126.4</ele><time>2023-06-28T16:54:10Z</time></trkpt><trkpt lat="57.268435" lon="36.089148"><ele>126.5</ele><time>2023-06-28T16:54:15Z</time></trkpt><trkpt lat="57.26837" lon="36.089215"><ele>126.5</ele><time>2023-06-28T16:54:20Z</time></trkpt><trkpt lat="57.268305" lon="36.08928"><ele>126.6</ele><time>2023-06-28T16:54:25Z</time></trkpt><trkpt lat="57.268225" lon="36.089323"><ele>127.6</ele><time>2023-06-28T16:54:31Z</time></trkpt><trkpt lat="57.268142" lon="36.089365"><ele>125.9</ele><time>2023-06-28T16:54:36Z</time></trkpt><trkpt lat="57.268065" lon="36.08942"><ele>126.5</ele><time>2023-06-28T16:54:41Z</time></trkpt><trkpt lat="57.268005" lon="36.0895"><ele>128.7</ele><time>2023-06-28T16:54:46Z</time></trkpt><trkpt lat="57.267928" lon="36.089553"><ele>130.3</ele><time>2023-06-28T16:54:51Z</time></trkpt><trkpt lat="57.267845" lon="36.089568"><ele>128.7</ele><time>2023-06-28T16:54:56Z</time></trkpt><trkpt lat="57.267772" lon="36.089553"><ele>129.3</ele><time>2023-06-28T16:55:01Z</time></trkpt><trkpt lat="57.267695" lon="36.089553"><ele>128.7</ele><time>2023-06-28T16:55:06Z</time></trkpt><trkpt lat="57.26762" lon="36.089593"><ele>128.2</ele><time>2023-06-28T16:55:11Z</time></trkpt><trkpt lat="57.267552" lon="36.089658"><ele>127.8</ele><time>2023-06-28T16:55:18Z</time></trkpt><trkpt lat="57.267473" lon="36.089708"><ele>127.8</ele><time>2023-06-28T16:55:24Z</time></trkpt><trkpt lat="57.267397" lon="36.089737"><ele>129.4</ele><time>2023-06-28T16:55:30Z</time></trkpt><trkpt lat="57.26732" lon="36.089728"><ele>133.3</ele><time>2023-06-28T16:55:38Z</time></trkpt><trkpt lat="57.26724" lon="36.089728"><ele>133.6</ele><time>2023-06-28T16:55:45Z</time></trkpt><trkpt lat="57.26716" lon="36.089718"><ele>133.6</ele><time>2023-06-28T16:55:52Z</time></trkpt><trkpt lat="57.26709" lon="36.089687"><ele>135.3</ele><time>2023-06-28T16:55:58Z</time></trkpt><trkpt lat="57.267008" lon="36.08966"><ele>134.6</ele><time>2023-06-28T16:56:04Z</time></trkpt><trkpt lat="57.266937" lon="36.089627"><ele>133.5</ele><time>2023-06-28T16:56:09Z</time></trkpt><trkpt lat="57.266865" lon="36.089575"><ele>133.1</ele><time>2023-06-28T16:56:14Z</time></trkpt><trkpt lat="57.2668" lon="36.089498"><ele>132.3</ele><time>2023-06-28T16:56:19Z</time></trkpt><trkpt lat="57.266732" lon="36.089435"><ele>132.5</ele><time>2023-06-28T16:56:24Z</time></trkpt><trkpt lat="57.266653" lon="36.089367"><ele>131.2</ele><time>2023-06-28T16:56:29Z</time></trkpt><trkpt lat="57.266583" lon="36.08928"><ele>132.2</ele><time>2023-06-28T16:56:34Z</time></trkpt><trkpt lat="57.266543" lon="36.08917"><ele>131.3</ele><time>2023-06-28T16:56:41Z</time></trkpt><trkpt lat="57.266473" lon="36.089113"><ele>130.9</ele><time>2023-06-28T16:56:52Z</time></trkpt><trkpt lat="57.266402" lon="36.089145"><ele>130.6</ele><time>2023-06-28T16:57:01Z</time></trkpt><trkpt lat="57.266327" lon="36.089187"><ele>130.6</ele><time>2023-06-28T16:57:08Z</time></trkpt><trkpt lat="57.266247" lon="36.089143"><ele>131.8</ele><time>2023-06-28T16:57:16Z</time></trkpt><trkpt lat="57.266172" lon="36.0891"><ele>130.8</ele><time>2023-06-28T16:57:21Z</time></trkpt><trkpt lat="57.2661" lon="36.089058"><ele>128.6</ele><time>2023-06-28T16:57:26Z</time></trkpt><trkpt lat="57.266027" lon="36.089013"><ele>126.8</ele><time>2023-06-28T16:57:31Z</time></trkpt><trkpt lat="57.26595" lon="36.088967"><ele>126.9</ele><time>2023-06-28T16:57:37Z</time></trkpt><trkpt lat="57.265868" lon="36.088943"><ele>126.6</ele><time>2023-06-28T16:57:43Z</time></trkpt><trkpt lat="57.265793" lon="36.088972"><ele>134.0</ele><time>2023-06-28T16:57:48Z</time></trkpt><trkpt lat="57.265718" lon="36.088982"><ele>133.9</ele><time>2023-06-28T16:57:53Z</time></trkpt><trkpt lat="57.265645" lon="36.088973"><ele>131.1</ele><time>2023-06-28T16:58:00Z</time></trkpt><trkpt lat="57.265567" lon="36.089003"><ele>132.5</ele><time>2023-06-28T16:58:07Z</time></trkpt><trkpt lat="57.265495" lon="36.089038"><ele>130.9</ele><time>2023-06-28T16:58:13Z</time></trkpt><trkpt lat="57.26542" lon="36.089077"><ele>129.0</ele><time>2023-06-28T16:58:18Z</time></trkpt><trkpt lat="57.265355" lon="36.089165"><ele>126.3</ele><time>2023-06-28T16:58:24Z</time></trkpt><trkpt lat="57.265285" lon="36.089207"><ele>126.9</ele><time>2023-06-28T16:58:29Z</time></trkpt><trkpt lat="57.265232" lon="36.089297"><ele>127.5</ele><time>2023-06-28T16:58:34Z</time></trkpt><trkpt lat="57.265182" lon="36.089432"><ele>125.2</ele><time>2023-06-28T16:58:40Z</time></trkpt><trkpt lat="57.265135" lon="36.08955"><ele>125.8</ele><time>2023-06-28T16:58:44Z</time></trkpt><trkpt lat="57.265085" lon="36.089673"><ele>126.7</ele><time>2023-06-28T16:58:49Z</time></trkpt><trkpt lat="57.265028" lon="36.089763"><ele>125.7</ele><time>2023-06-28T16:58:54Z</time></trkpt><trkpt lat="57.264968" lon="36.089863"><ele>126.1</ele><time>2023-06-28T16:58:59Z</time></trkpt><trkpt lat="57.26492" lon="36.089978"><ele>125.7</ele><time>2023-06-28T16:59:03Z</time></trkpt><trkpt lat="57.26489" lon="36.090105"><ele>125.7</ele><time>2023-06-28T16:59:09Z</time></trkpt><trkpt lat="57.264858" lon="36.090233"><ele>126.5</ele><time>2023-06-28T16:59:14Z</time></trkpt><trkpt lat="57.264808" lon="36.090362"><ele>126.7</ele><time>2023-06-28T16:59:21Z</time></trkpt><trkpt lat="57.264758" lon="36.090467"><ele>128.7</ele><time>2023-06-28T16:59:26Z</time></trkpt><trkpt lat="57.264708" lon="36.090568"><ele>127.3</ele><time>2023-06-28T16:59:31Z</time></trkpt><trkpt lat="57.264663" lon="36.090677"><ele>128.8</ele><time>2023-06-28T16:59:36Z</time></trkpt><trkpt lat="57.264637" lon="36.090812"><ele>129.5</ele><time>2023-06-28T16:59:44Z</time></trkpt><trkpt lat="57.264617" lon="36.090938"><ele>127.9</ele><time>2023-06-28T16:59:50Z</time></trkpt><trkpt lat="57.264597" lon="36.091087"><ele>127.6</ele><time>2023-06-28T16:59:57Z</time></trkpt><trkpt lat="57.264572" lon="36.091215"><ele>128.2</ele><time>2023-06-28T17:00:02Z</time></trkpt><trkpt lat="57.264552" lon="36.091348"><ele>129.3</ele><time>2023-06-28T17:00:07Z</time></trkpt><trkpt lat="57.264528" lon="36.091497"><ele>130.4</ele><time>2023-06-28T17:00:12Z</time></trkpt><trkpt lat="57.264483" lon="36.091612"><ele>128.8</ele><time>2023-06-28T17:00:19Z</time></trkpt><trkpt lat="57.264427" lon="36.091703"><ele>127.5</ele><time>2023-06-28T17:00:24Z</time></trkpt><trkpt lat="57.264372" lon="36.091815"><ele>129.0</ele><time>2023-06-28T17:00:30Z</time></trkpt><trkpt lat="57.264332" lon="36.091938"><ele>128.7</ele><time>2023-06-28T17:00:36Z</time></trkpt><trkpt lat="57.264297" lon="36.092063"><ele>127.4</ele><time>2023-06-28T17:00:42Z</time></trkpt><trkpt lat="57.264263" lon="36.09219"><ele>127.0</ele><time>2023-06-28T17:00:49Z</time></trkpt><trkpt lat="57.264218" lon="36.092295"><ele>126.4</ele><time>2023-06-28T17:00:55Z</time></trkpt><trkpt lat="57.264173" lon="36.092417"><ele>125.7</ele><time>2023-06-28T17:01:01Z</time></trkpt><trkpt lat="57.26413" lon="36.092547"><ele>126.8</ele><time>2023-06-28T17:01:08Z</time></trkpt><trkpt lat="57.264085" lon="36.092668"><ele>128.0</ele><time>2023-06-28T17:01:14Z</time></trkpt><trkpt lat="57.264033" lon="36.092782"><ele>130.0</ele><time>2023-06-28T17:01:20Z</time></trkpt><trkpt lat="57.26398" lon="36.092887"><ele>128.5</ele><time>2023-06-28T17:01:26Z</time></trkpt><trkpt lat="57.263943" lon="36.093012"><ele>129.2</ele><time>2023-06-28T17:01:33Z</time></trkpt><trkpt lat="57.263905" lon="36.093135"><ele>130.0</ele><time>2023-06-28T17:01:39Z</time></trkpt><trkpt lat="57.263868" lon="36.093257"><ele>129.8</ele><time>2023-06-28T17:01:45Z</time></trkpt><trkpt lat="57.263828" lon="36.09337"><ele>128.0</ele><time>2023-06-28T17:01:50Z</time></trkpt><trkpt lat="57.263787" lon="36.09349"><ele>125.6</ele><time>2023-06-28T17:01:56Z</time></trkpt><trkpt lat="57.26374" lon="36.09363"><ele>122.6</ele><time>2023-06-28T17:02:02Z</time></trkpt><trkpt lat="57.263712" lon="36.093757"><ele>120.7</ele><time>2023-06-28T17:02:06Z</time></trkpt><trkpt lat="57.263722" lon="36.093903"><ele>121.1</ele><time>2023-06-28T17:02:11Z</time></trkpt><trkpt lat="57.26373" lon="36.094053"><ele>124.4</ele><time>2023-06-28T17:02:17Z</time></trkpt><trkpt lat="57.263732" lon="36.094207"><ele>128.3</ele><time>2023-06-28T17:02:23Z</time></trkpt><trkpt lat="57.263732" lon="36.094347"><ele>130.1</ele><time>2023-06-28T17:02:28Z</time></trkpt><trkpt lat="57.263745" lon="36.094493"><ele>130.6</ele><time>2023-06-28T17:02:33Z</time></trkpt><trkpt lat="57.263732" lon="36.094638"><ele>128.9</ele><time>2023-06-28T17:02:41Z</time></trkpt><trkpt lat="57.263717" lon="36.09479"><ele>127.2</ele><time>2023-06-28T17:02:49Z</time></trkpt><trkpt lat="57.263702" lon="36.094933"><ele>129.1</ele><time>2023-06-28T17:02:55Z</time></trkpt><trkpt lat="57.263695" lon="36.095082"><ele>128.1</ele><time>2023-06-28T17:03:02Z</time></trkpt><trkpt lat="57.263692" lon="36.095233"><ele>129.3</ele><time>2023-06-28T17:03:08Z</time></trkpt><trkpt lat="57.263707" lon="36.095383"><ele>131.0</ele><time>2023-06-28T17:03:15Z</time></trkpt><trkpt lat="57.263703" lon="36.095532"><ele>134.2</ele><time>2023-06-28T17:03:21Z</time></trkpt><trkpt lat="57.263717" lon="36.09567"><ele>136.5</ele><time>2023-06-28T17:03:26Z</time></trkpt><trkpt lat="57.263735" lon="36.095817"><ele>134.4</ele><time>2023-06-28T17:03:31Z</time></trkpt><trkpt lat="57.263755" lon="36.095952"><ele>134.4</ele><time>2023-06-28T17:03:37Z</time></trkpt><trkpt lat="57.263777" lon="36.096103"><ele>135.3</ele><time>2023-06-28T17:03:43Z</time></trkpt><trkpt lat="57.263782" lon="36.096257"><ele>136.4</ele><time>2023-06-28T17:03:49Z</time></trkpt><trkpt lat="57.2638" lon="36.096402"><ele>136.0</ele><time>2023-06-28T17:03:54Z</time></trkpt><trkpt lat="57.263835" lon="36.096548"><ele>133.9</ele><time>2023-06-28T17:04:00Z</time></trkpt><trkpt lat="57.263862" lon="36.096673"><ele>134.3</ele><time>2023-06-28T17:04:05Z</time></trkpt><trkpt lat="57.263862" lon="36.096828"><ele>134.9</ele><time>2023-06-28T17:04:11Z</time></trkpt><trkpt lat="57.26387" lon="36.096975"><ele>133.4</ele><time>2023-06-28T17:04:17Z</time></trkpt><trkpt lat="57.2639" lon="36.097113"><ele>134.0</ele><time>2023-06-28T17:04:23Z</time></trkpt><trkpt lat="57.263947" lon="36.097227"><ele>131.7</ele><time>2023-06-28T17:04:29Z</time></trkpt><trkpt lat="57.263968" lon="36.097357"><ele>132.0</ele><time>2023-06-28T17:04:34Z</time></trkpt><trkpt lat="57.263983" lon="36.097487"><ele>130.3</ele><time>2023-06-28T17:04:40Z</time></trkpt><trkpt lat="57.263998" lon="36.097637"><ele>128.7</ele><time>2023-06-28T17:04:47Z</time></trkpt><trkpt lat="57.26399" lon="36.097795"><ele>129.2</ele><time>2023-06-28T17:04:53Z</time></trkpt><trkpt lat="57.264023" lon="36.097915"><ele>132.6</ele><time>2023-06-28T17:05:02Z</time></trkpt><trkpt lat="57.264057" lon="36.098033"><ele>132.5</ele><time>2023-06-28T17:05:11Z</time></trkpt><trkpt lat="57.264107" lon="36.098133"><ele>132.1</ele><time>2023-06-28T17:05:22Z</time></trkpt><trkpt lat="57.26413" lon="36.098287"><ele>132.3</ele><time>2023-06-28T17:05:29Z</time></trkpt><trkpt lat="57.264138" lon="36.098425"><ele>130.7</ele><time>2023-06-28T17:05:35Z</time></trkpt><trkpt lat="57.264142" lon="36.098575"><ele>131.4</ele><time>2023-06-28T17:05:42Z</time></trkpt><trkpt lat="57.26414" lon="36.09871"><ele>129.3</ele><time>2023-06-28T17:05:50Z</time></trkpt><trkpt lat="57.264208" lon="36.098747"><ele>128.0</ele><time>2023-06-28T17:06:33Z</time></trkpt><trkpt lat="57.26423" lon="36.098887"><ele>128.5</ele><time>2023-06-28T17:06:42Z</time></trkpt><trkpt lat="57.264223" lon="36.09902"><ele>128.2</ele><time>2023-06-28T17:07:51Z</time></trkpt><trkpt lat="57.26423" lon="36.099153"><ele>129.6</ele><time>2023-06-28T17:07:58Z</time></trkpt><trkpt lat="57.264242" lon="36.099298"><ele>129.5</ele><time>2023-06-28T17:08:09Z</time></trkpt><trkpt lat="57.264245" lon="36.099448"><ele>128.8</ele><time>2023-06-28T17:08:15Z</time></trkpt><trkpt lat="57.264237" lon="36.09959"><ele>128.8</ele><time>2023-06-28T17:08:21Z</time></trkpt><trkpt lat="57.26423" lon="36.099725"><ele>129.5</ele><time>2023-06-28T17:08:26Z</time></trkpt><trkpt lat="57.264207" lon="36.099863"><ele>128.7</ele><time>2023-06-28T17:08:33Z</time></trkpt><trkpt lat="57.26419" lon="36.099995"><ele>128.2</ele><time>2023-06-28T17:08:39Z</time></trkpt><trkpt lat="57.264182" lon="36.100143"><ele>127.5</ele><time>2023-06-28T17:08:47Z</time></trkpt><trkpt lat="57.264173" lon="36.100283"><ele>123.9</ele><time>2023-06-28T17:09:15Z</time></trkpt><trkpt lat="57.264162" lon="36.100418"><ele>127.8</ele><time>2023-06-28T17:13:14Z</time></trkpt></trkseg></trk></gpx>