<?xml version="1.0" encoding="UTF-8" standalone="no"?><gpx xmlns="http://www.topografix.com/GPX/1/1" xmlns:gpxtpx="http://www.garmin.com/xmlschemas/TrackPointExtension/v1" xmlns:xsi="http://www.w3.org/2001/XMLSchema-instance" creator="Sports Tracker" version="1.1" xsi:schemaLocation="http://www.topografix.com/GPX/1/1 http://www.topografix.com/GPX/1/1/gpx.xsd http://www.garmin.com/xmlschemas/TrackPointExtension/v1 http://www.garmin.com/xmlschemas/TrackPointExtensionv1.xsd"><metadata><name/><desc/><author><name>Александр</name></author></metadata><trk><name/><trkseg><trkpt lat="58.058687" lon="38.817185"><ele>102.0</ele><time>2022-09-27T13:50:36Z</time></trkpt><trkpt lat="58.05884" lon="38.817267"><ele>102.6</ele><time>2022-09-27T13:50:43Z</time></trkpt><trkpt lat="58.058743" lon="38.8177"><ele>103.0</ele><time>2022-09-27T13:51:07Z</time></trkpt><trkpt lat="58.0587" lon="38.81804"><ele>102.4</ele><time>2022-09-27T13:51:13Z</time></trkpt><trkpt lat="58.058697" lon="38.818458"><ele>102.5</ele><time>2022-09-27T13:51:19Z</time></trkpt><trkpt lat="58.058657" lon="38.81936"><ele>102.1</ele><time>2022-09-27T13:51:26Z</time></trkpt><trkpt lat="58.0586" lon="38.819208"><ele>101.6</ele><time>2022-09-27T13:51:33Z</time></trkpt><trkpt lat="58.058607" lon="38.819375"><ele>101.2</ele><time>2022-09-27T13:51:37Z</time></trkpt><trkpt lat="58.05863" lon="38.819592"><ele>101.2</ele><time>2022-09-27T13:51:40Z</time></trkpt><trkpt lat="58.058623" lon="38.819793"><ele>101.4</ele><time>2022-09-27T13:51:42Z</time></trkpt><trkpt lat="58.058582" lon="38.820033"><ele>101.7</ele><time>2022-09-27T13:51:44Z</time></trkpt><trkpt lat="58.058553" lon="38.820262"><ele>101.3</ele><time>2022-09-27T13:51:46Z</time></trkpt><trkpt lat="58.05853" lon="38.820482"><ele>101.7</ele><time>2022-09-27T13:51:48Z</time></trkpt><trkpt lat="58.058513" lon="38.820617"><ele>101.8</ele><time>2022-09-27T13:51:51Z</time></trkpt><trkpt lat="58.05845" lon="38.82071"><ele>102.6</ele><time>2022-09-27T13:51:55Z</time></trkpt><trkpt lat="58.058373" lon="38.820688"><ele>101.5</ele><time>2022-09-27T13:51:57Z</time></trkpt><trkpt lat="58.058303" lon="38.820733"><ele>101.4</ele><time>2022-09-27T13:51:59Z</time></trkpt><trkpt lat="58.058212" lon="38.820763"><ele>100.7</ele><time>2022-09-27T13:52:02Z</time></trkpt><trkpt lat="58.058117" lon="38.820757"><ele>101.0</ele><time>2022-09-27T13:52:04Z</time></trkpt><trkpt lat="58.058025" lon="38.820762"><ele>100.8</ele><time>2022-09-27T13:52:05Z</time></trkpt><trkpt lat="58.057937" lon="38.820682"><ele>100.8</ele><time>2022-09-27T13:52:07Z</time></trkpt><trkpt lat="58.057795" lon="38.820672"><ele>100.7</ele><time>2022-09-27T13:52:09Z</time></trkpt><trkpt lat="58.057673" lon="38.82065"><ele>100.6</ele><time>2022-09-27T13:52:11Z</time></trkpt><trkpt lat="58.057535" lon="38.820642"><ele>100.5</ele><time>2022-09-27T13:52:13Z</time></trkpt><trkpt lat="58.057412" lon="38.82061"><ele>100.0</ele><time>2022-09-27T13:52:15Z</time></trkpt><trkpt lat="58.057313" lon="38.820592"><ele>100.1</ele><time>2022-09-27T13:52:18Z</time></trkpt><trkpt lat="58.057217" lon="38.820582"><ele>99.6</ele><time>2022-09-27T13:52:19Z</time></trkpt><trkpt lat="58.057127" lon="38.820568"><ele>99.9</ele><time>2022-09-27T13:52:21Z</time></trkpt><trkpt lat="58.057047" lon="38.82055"><ele>100.3</ele><time>2022-09-27T13:52:23Z</time></trkpt><trkpt lat="58.056937" lon="38.820515"><ele>100.4</ele><time>2022-09-27T13:52:26Z</time></trkpt><trkpt lat="58.056832" lon="38.820488"><ele>100.3</ele><time>2022-09-27T13:52:29Z</time></trkpt><trkpt lat="58.056753" lon="38.820537"><ele>100.2</ele><time>2022-09-27T13:52:33Z</time></trkpt><trkpt lat="58.05673" lon="38.820712"><ele>100.6</ele><time>2022-09-27T13:52:36Z</time></trkpt><trkpt lat="58.0567" lon="38.820893"><ele>100.7</ele><time>2022-09-27T13:52:39Z</time></trkpt><trkpt lat="58.056605" lon="38.820948"><ele>99.4</ele><time>2022-09-27T13:52:42Z</time></trkpt><trkpt lat="58.05652" lon="38.820927"><ele>99.4</ele><time>2022-09-27T13:52:44Z</time></trkpt><trkpt lat="58.056432" lon="38.820907"><ele>99.3</ele><time>2022-09-27T13:52:46Z</time></trkpt><trkpt lat="58.056348" lon="38.820905"><ele>99.0</ele><time>2022-09-27T13:52:48Z</time></trkpt><trkpt lat="58.056257" lon="38.820897"><ele>99.3</ele><time>2022-09-27T13:52:50Z</time></trkpt><trkpt lat="58.056175" lon="38.820897"><ele>98.7</ele><time>2022-09-27T13:52:52Z</time></trkpt><trkpt lat="58.056095" lon="38.820882"><ele>98.1</ele><time>2022-09-27T13:52:54Z</time></trkpt><trkpt lat="58.056018" lon="38.820855"><ele>98.2</ele><time>2022-09-27T13:52:56Z</time></trkpt><trkpt lat="58.055933" lon="38.82086"><ele>98.9</ele><time>2022-09-27T13:52:59Z</time></trkpt><trkpt lat="58.055848" lon="38.820898"><ele>98.8</ele><time>2022-09-27T13:53:02Z</time></trkpt><trkpt lat="58.05577" lon="38.820893"><ele>99.4</ele><time>2022-09-27T13:53:04Z</time></trkpt><trkpt lat="58.055687" lon="38.82087"><ele>99.4</ele><time>2022-09-27T13:53:06Z</time></trkpt><trkpt lat="58.055557" lon="38.820837"><ele>99.4</ele><time>2022-09-27T13:53:08Z</time></trkpt><trkpt lat="58.05545" lon="38.820815"><ele>99.3</ele><time>2022-09-27T13:53:10Z</time></trkpt><trkpt lat="58.055368" lon="38.820753"><ele>99.7</ele><time>2022-09-27T13:53:12Z</time></trkpt><trkpt lat="58.055272" lon="38.820823"><ele>99.9</ele><time>2022-09-27T13:53:15Z</time></trkpt><trkpt lat="58.05526" lon="38.820993"><ele>99.4</ele><time>2022-09-27T13:53:17Z</time></trkpt><trkpt lat="58.055248" lon="38.821193"><ele>99.5</ele><time>2022-09-27T13:53:19Z</time></trkpt><trkpt lat="58.055263" lon="38.821377"><ele>99.5</ele><time>2022-09-27T13:53:21Z</time></trkpt><trkpt lat="58.055243" lon="38.821557"><ele>99.5</ele><time>2022-09-27T13:53:23Z</time></trkpt><trkpt lat="58.055218" lon="38.821752"><ele>99.9</ele><time>2022-09-27T13:53:25Z</time></trkpt><trkpt lat="58.055172" lon="38.82191"><ele>100.3</ele><time>2022-09-27T13:53:28Z</time></trkpt><trkpt lat="58.055068" lon="38.821918"><ele>100.5</ele><time>2022-09-27T13:53:31Z</time></trkpt><trkpt lat="58.054968" lon="38.821908"><ele>100.0</ele><time>2022-09-27T13:53:33Z</time></trkpt><trkpt lat="58.054888" lon="38.821943"><ele>99.4</ele><time>2022-09-27T13:53:35Z</time></trkpt><trkpt lat="58.054797" lon="38.822137"><ele>99.1</ele><time>2022-09-27T13:53:38Z</time></trkpt><trkpt lat="58.054752" lon="38.822325"><ele>98.4</ele><time>2022-09-27T13:53:40Z</time></trkpt><trkpt lat="58.054695" lon="38.822557"><ele>98.5</ele><time>2022-09-27T13:53:42Z</time></trkpt><trkpt lat="58.054675" lon="38.822688"><ele>98.6</ele><time>2022-09-27T13:53:43Z</time></trkpt><trkpt lat="58.054657" lon="38.822822"><ele>98.4</ele><time>2022-09-27T13:53:44Z</time></trkpt><trkpt lat="58.054637" lon="38.822953"><ele>98.2</ele><time>2022-09-27T13:53:45Z</time></trkpt><trkpt lat="58.054588" lon="38.823187"><ele>98.0</ele><time>2022-09-27T13:53:47Z</time></trkpt><trkpt lat="58.054565" lon="38.823378"><ele>98.3</ele><time>2022-09-27T13:53:49Z</time></trkpt><trkpt lat="58.054533" lon="38.823538"><ele>98.5</ele><time>2022-09-27T13:53:51Z</time></trkpt><trkpt lat="58.054507" lon="38.823687"><ele>98.9</ele><time>2022-09-27T13:53:53Z</time></trkpt><trkpt lat="58.054483" lon="38.823888"><ele>98.9</ele><time>2022-09-27T13:53:56Z</time></trkpt><trkpt lat="58.054455" lon="38.824015"><ele>99.4</ele><time>2022-09-27T13:53:59Z</time></trkpt><trkpt lat="58.054453" lon="38.824157"><ele>99.4</ele><time>2022-09-27T13:54:01Z</time></trkpt><trkpt lat="58.054427" lon="38.824283"><ele>100.5</ele><time>2022-09-27T13:54:02Z</time></trkpt><trkpt lat="58.054387" lon="38.824467"><ele>100.4</ele><time>2022-09-27T13:54:06Z</time></trkpt><trkpt lat="58.05433" lon="38.824638"><ele>100.8</ele><time>2022-09-27T13:54:08Z</time></trkpt><trkpt lat="58.054277" lon="38.82481"><ele>101.1</ele><time>2022-09-27T13:54:11Z</time></trkpt><trkpt lat="58.05424" lon="38.824962"><ele>100.9</ele><time>2022-09-27T13:54:14Z</time></trkpt><trkpt lat="58.05421" lon="38.825093"><ele>100.9</ele><time>2022-09-27T13:54:16Z</time></trkpt><trkpt lat="58.054172" lon="38.825278"><ele>101.1</ele><time>2022-09-27T13:54:18Z</time></trkpt><trkpt lat="58.054147" lon="38.82548"><ele>101.4</ele><time>2022-09-27T13:54:20Z</time></trkpt><trkpt lat="58.05412" lon="38.825638"><ele>101.1</ele><time>2022-09-27T13:54:22Z</time></trkpt><trkpt lat="58.054067" lon="38.825855"><ele>100.7</ele><time>2022-09-27T13:54:24Z</time></trkpt><trkpt lat="58.05403" lon="38.826063"><ele>100.9</ele><time>2022-09-27T13:54:26Z</time></trkpt><trkpt lat="58.053997" lon="38.82624"><ele>100.6</ele><time>2022-09-27T13:54:29Z</time></trkpt><trkpt lat="58.053993" lon="38.826385"><ele>101.2</ele><time>2022-09-27T13:54:34Z</time></trkpt><trkpt lat="58.053953" lon="38.826512"><ele>101.4</ele><time>2022-09-27T13:55:19Z</time></trkpt><trkpt lat="58.053942" lon="38.826662"><ele>101.1</ele><time>2022-09-27T13:55:22Z</time></trkpt><trkpt lat="58.053917" lon="38.826838"><ele>101.0</ele><time>2022-09-27T13:55:25Z</time></trkpt><trkpt lat="58.053878" lon="38.827003"><ele>100.1</ele><time>2022-09-27T13:55:28Z</time></trkpt><trkpt lat="58.053835" lon="38.827202"><ele>100.1</ele><time>2022-09-27T13:55:30Z</time></trkpt><trkpt lat="58.053782" lon="38.827433"><ele>100.2</ele><time>2022-09-27T13:55:32Z</time></trkpt><trkpt lat="58.053725" lon="38.827675"><ele>100.1</ele><time>2022-09-27T13:55:33Z</time></trkpt><trkpt lat="58.053687" lon="38.82791"><ele>99.7</ele><time>2022-09-27T13:55:35Z</time></trkpt><trkpt lat="58.053652" lon="38.828103"><ele>101.6</ele><time>2022-09-27T13:55:38Z</time></trkpt><trkpt lat="58.053617" lon="38.828287"><ele>101.5</ele><time>2022-09-27T13:55:39Z</time></trkpt><trkpt lat="58.053573" lon="38.828463"><ele>101.9</ele><time>2022-09-27T13:55:42Z</time></trkpt><trkpt lat="58.053522" lon="38.828562"><ele>101.6</ele><time>2022-09-27T13:55:43Z</time></trkpt><trkpt lat="58.053473" lon="38.828767"><ele>101.0</ele><time>2022-09-27T13:55:45Z</time></trkpt><trkpt lat="58.053442" lon="38.828953"><ele>100.6</ele><time>2022-09-27T13:55:47Z</time></trkpt><trkpt lat="58.053388" lon="38.829095"><ele>100.6</ele><time>2022-09-27T13:55:49Z</time></trkpt><trkpt lat="58.053375" lon="38.829233"><ele>99.8</ele><time>2022-09-27T13:55:51Z</time></trkpt><trkpt lat="58.05334" lon="38.829387"><ele>99.7</ele><time>2022-09-27T13:55:53Z</time></trkpt><trkpt lat="58.053342" lon="38.82954"><ele>99.8</ele><time>2022-09-27T13:55:55Z</time></trkpt><trkpt lat="58.053343" lon="38.829682"><ele>100.0</ele><time>2022-09-27T13:55:57Z</time></trkpt><trkpt lat="58.05332" lon="38.829813"><ele>100.3</ele><time>2022-09-27T13:55:59Z</time></trkpt><trkpt lat="58.053283" lon="38.82994"><ele>99.8</ele><time>2022-09-27T13:56:01Z</time></trkpt><trkpt lat="58.053253" lon="38.830105"><ele>100.2</ele><time>2022-09-27T13:56:03Z</time></trkpt><trkpt lat="58.053237" lon="38.830242"><ele>100.0</ele><time>2022-09-27T13:56:05Z</time></trkpt><trkpt lat="58.053218" lon="38.830385"><ele>99.9</ele><time>2022-09-27T13:56:08Z</time></trkpt><trkpt lat="58.05318" lon="38.830568"><ele>100.1</ele><time>2022-09-27T13:56:11Z</time></trkpt><trkpt lat="58.053125" lon="38.830747"><ele>100.2</ele><time>2022-09-27T13:56:14Z</time></trkpt><trkpt lat="58.053092" lon="38.83088"><ele>100.6</ele><time>2022-09-27T13:56:16Z</time></trkpt><trkpt lat="58.053072" lon="38.831027"><ele>101.1</ele><time>2022-09-27T13:56:18Z</time></trkpt><trkpt lat="58.053047" lon="38.831225"><ele>101.8</ele><time>2022-09-27T13:56:20Z</time></trkpt><trkpt lat="58.05302" lon="38.831352"><ele>101.8</ele><time>2022-09-27T13:56:22Z</time></trkpt><trkpt lat="58.052982" lon="38.831532"><ele>101.6</ele><time>2022-09-27T13:56:25Z</time></trkpt><trkpt lat="58.052917" lon="38.831733"><ele>101.4</ele><time>2022-09-27T13:56:29Z</time></trkpt><trkpt lat="58.052882" lon="38.831865"><ele>101.8</ele><time>2022-09-27T13:56:30Z</time></trkpt><trkpt lat="58.05286" lon="38.832035"><ele>101.8</ele><time>2022-09-27T13:56:34Z</time></trkpt><trkpt lat="58.052895" lon="38.832188"><ele>101.8</ele><time>2022-09-27T13:56:36Z</time></trkpt><trkpt lat="58.052917" lon="38.832355"><ele>102.9</ele><time>2022-09-27T13:56:39Z</time></trkpt><trkpt lat="58.052878" lon="38.832513"><ele>102.5</ele><time>2022-09-27T13:56:44Z</time></trkpt><trkpt lat="58.052842" lon="38.832648"><ele>102.3</ele><time>2022-09-27T13:56:45Z</time></trkpt><trkpt lat="58.0528" lon="38.832768"><ele>102.4</ele><time>2022-09-27T13:56:46Z</time></trkpt><trkpt lat="58.05276" lon="38.832962"><ele>102.3</ele><time>2022-09-27T13:56:48Z</time></trkpt><trkpt lat="58.052712" lon="38.833162"><ele>101.7</ele><time>2022-09-27T13:56:50Z</time></trkpt><trkpt lat="58.052695" lon="38.833328"><ele>101.5</ele><time>2022-09-27T13:56:52Z</time></trkpt><trkpt lat="58.052635" lon="38.833485"><ele>101.7</ele><time>2022-09-27T13:56:54Z</time></trkpt><trkpt lat="58.05261" lon="38.833652"><ele>101.8</ele><time>2022-09-27T13:56:56Z</time></trkpt><trkpt lat="58.052572" lon="38.833785"><ele>101.9</ele><time>2022-09-27T13:56:58Z</time></trkpt><trkpt lat="58.05259" lon="38.833963"><ele>102.2</ele><time>2022-09-27T13:57:01Z</time></trkpt><trkpt lat="58.052582" lon="38.83412"><ele>102.0</ele><time>2022-09-27T13:57:05Z</time></trkpt><trkpt lat="58.05255" lon="38.834303"><ele>102.2</ele><time>2022-09-27T13:57:08Z</time></trkpt><trkpt lat="58.052522" lon="38.834493"><ele>102.5</ele><time>2022-09-27T13:57:11Z</time></trkpt><trkpt lat="58.052488" lon="38.834628"><ele>101.6</ele><time>2022-09-27T13:57:15Z</time></trkpt><trkpt lat="58.05246" lon="38.83481"><ele>101.0</ele><time>2022-09-27T13:57:18Z</time></trkpt><trkpt lat="58.05242" lon="38.834943"><ele>101.2</ele><time>2022-09-27T13:57:20Z</time></trkpt><trkpt lat="58.052375" lon="38.835082"><ele>100.9</ele><time>2022-09-27T13:57:23Z</time></trkpt><trkpt lat="58.052328" lon="38.835267"><ele>100.6</ele><time>2022-09-27T13:57:25Z</time></trkpt><trkpt lat="58.052295" lon="38.83542"><ele>100.5</ele><time>2022-09-27T13:57:27Z</time></trkpt><trkpt lat="58.052257" lon="38.835583"><ele>100.5</ele><time>2022-09-27T13:57:30Z</time></trkpt><trkpt lat="58.05222" lon="38.83575"><ele>100.4</ele><time>2022-09-27T13:57:31Z</time></trkpt><trkpt lat="58.052182" lon="38.835918"><ele>100.6</ele><time>2022-09-27T13:57:33Z</time></trkpt><trkpt lat="58.05216" lon="38.836113"><ele>100.5</ele><time>2022-09-27T13:57:35Z</time></trkpt><trkpt lat="58.05214" lon="38.836277"><ele>100.5</ele><time>2022-09-27T13:57:37Z</time></trkpt><trkpt lat="58.052115" lon="38.836427"><ele>100.5</ele><time>2022-09-27T13:57:39Z</time></trkpt><trkpt lat="58.052082" lon="38.8366"><ele>100.7</ele><time>2022-09-27T13:57:41Z</time></trkpt><trkpt lat="58.052045" lon="38.83678"><ele>101.1</ele><time>2022-09-27T13:57:43Z</time></trkpt><trkpt lat="58.052005" lon="38.836943"><ele>101.2</ele><time>2022-09-27T13:57:45Z</time></trkpt><trkpt lat="58.051968" lon="38.837102"><ele>101.2</ele><time>2022-09-27T13:57:47Z</time></trkpt><trkpt lat="58.051942" lon="38.837318"><ele>101.2</ele><time>2022-09-27T13:57:49Z</time></trkpt><trkpt lat="58.05191" lon="38.837512"><ele>101.4</ele><time>2022-09-27T13:57:51Z</time></trkpt><trkpt lat="58.051902" lon="38.837672"><ele>102.1</ele><time>2022-09-27T13:57:53Z</time></trkpt><trkpt lat="58.051878" lon="38.837822"><ele>102.5</ele><time>2022-09-27T13:57:58Z</time></trkpt><trkpt lat="58.051833" lon="38.837963"><ele>101.6</ele><time>2022-09-27T13:58:04Z</time></trkpt><trkpt lat="58.051733" lon="38.838048"><ele>101.9</ele><time>2022-09-27T13:58:07Z</time></trkpt><trkpt lat="58.05166" lon="38.838062"><ele>101.3</ele><time>2022-09-27T13:58:09Z</time></trkpt><trkpt lat="58.051573" lon="38.838018"><ele>100.1</ele><time>2022-09-27T13:58:12Z</time></trkpt><trkpt lat="58.051468" lon="38.83795"><ele>99.6</ele><time>2022-09-27T13:58:15Z</time></trkpt><trkpt lat="58.051393" lon="38.837897"><ele>99.6</ele><time>2022-09-27T13:58:17Z</time></trkpt><trkpt lat="58.051323" lon="38.837827"><ele>100.0</ele><time>2022-09-27T13:58:19Z</time></trkpt><trkpt lat="58.051243" lon="38.837763"><ele>100.2</ele><time>2022-09-27T13:58:21Z</time></trkpt><trkpt lat="58.051148" lon="38.8377"><ele>100.5</ele><time>2022-09-27T13:58:24Z</time></trkpt><trkpt lat="58.05104" lon="38.837655"><ele>99.2</ele><time>2022-09-27T13:58:27Z</time></trkpt><trkpt lat="58.050925" lon="38.837545"><ele>99.5</ele><time>2022-09-27T13:58:29Z</time></trkpt><trkpt lat="58.050845" lon="38.837468"><ele>99.7</ele><time>2022-09-27T13:58:31Z</time></trkpt><trkpt lat="58.050743" lon="38.837422"><ele>99.7</ele><time>2022-09-27T13:58:34Z</time></trkpt><trkpt lat="58.050673" lon="38.837375"><ele>99.4</ele><time>2022-09-27T13:58:37Z</time></trkpt><trkpt lat="58.050585" lon="38.837337"><ele>100.0</ele><time>2022-09-27T13:59:05Z</time></trkpt><trkpt lat="58.050512" lon="38.83727"><ele>100.4</ele><time>2022-09-27T13:59:08Z</time></trkpt><trkpt lat="58.050458" lon="38.837388"><ele>101.0</ele><time>2022-09-27T13:59:12Z</time></trkpt><trkpt lat="58.05044" lon="38.837565"><ele>100.4</ele><time>2022-09-27T13:59:14Z</time></trkpt><trkpt lat="58.050407" lon="38.837727"><ele>99.9</ele><time>2022-09-27T13:59:16Z</time></trkpt><trkpt lat="58.050372" lon="38.837888"><ele>100.1</ele><time>2022-09-27T13:59:18Z</time></trkpt><trkpt lat="58.050343" lon="38.838027"><ele>99.9</ele><time>2022-09-27T13:59:20Z</time></trkpt><trkpt lat="58.050313" lon="38.838217"><ele>99.7</ele><time>2022-09-27T13:59:23Z</time></trkpt><trkpt lat="58.0503" lon="38.83837"><ele>100.1</ele><time>2022-09-27T13:59:25Z</time></trkpt><trkpt lat="58.050285" lon="38.838545"><ele>100.6</ele><time>2022-09-27T13:59:27Z</time></trkpt><trkpt lat="58.050238" lon="38.838668"><ele>100.3</ele><time>2022-09-27T13:59:30Z</time></trkpt><trkpt lat="58.050207" lon="38.838852"><ele>100.3</ele><time>2022-09-27T13:59:33Z</time></trkpt><trkpt lat="58.050157" lon="38.839003"><ele>100.3</ele><time>2022-09-27T13:59:36Z</time></trkpt><trkpt lat="58.050122" lon="38.839152"><ele>100.4</ele><time>2022-09-27T13:59:38Z</time></trkpt><trkpt lat="58.050098" lon="38.839328"><ele>100.5</ele><time>2022-09-27T13:59:40Z</time></trkpt><trkpt lat="58.050065" lon="38.839493"><ele>100.1</ele><time>2022-09-27T13:59:42Z</time></trkpt><trkpt lat="58.050035" lon="38.839627"><ele>100.5</ele><time>2022-09-27T13:59:44Z</time></trkpt><trkpt lat="58.049957" lon="38.839772"><ele>99.2</ele><time>2022-09-27T13:59:47Z</time></trkpt><trkpt lat="58.049935" lon="38.83998"><ele>99.5</ele><time>2022-09-27T13:59:49Z</time></trkpt><trkpt lat="58.04992" lon="38.840152"><ele>100.1</ele><time>2022-09-27T13:59:51Z</time></trkpt><trkpt lat="58.049862" lon="38.840307"><ele>100.7</ele><time>2022-09-27T13:59:54Z</time></trkpt><trkpt lat="58.049823" lon="38.840443"><ele>100.7</ele><time>2022-09-27T13:59:56Z</time></trkpt><trkpt lat="58.049808" lon="38.840577"><ele>100.7</ele><time>2022-09-27T13:59:58Z</time></trkpt><trkpt lat="58.049792" lon="38.840723"><ele>100.3</ele><time>2022-09-27T14:00:01Z</time></trkpt><trkpt lat="58.049773" lon="38.840907"><ele>101.7</ele><time>2022-09-27T14:00:29Z</time></trkpt><trkpt lat="58.04974" lon="38.841048"><ele>101.4</ele><time>2022-09-27T14:00:31Z</time></trkpt><trkpt lat="58.049713" lon="38.841203"><ele>100.9</ele><time>2022-09-27T14:00:33Z</time></trkpt><trkpt lat="58.049693" lon="38.84138"><ele>100.6</ele><time>2022-09-27T14:00:35Z</time></trkpt><trkpt lat="58.049667" lon="38.841553"><ele>100.5</ele><time>2022-09-27T14:00:38Z</time></trkpt><trkpt lat="58.049643" lon="38.841755"><ele>100.3</ele><time>2022-09-27T14:00:41Z</time></trkpt><trkpt lat="58.049613" lon="38.841913"><ele>100.3</ele><time>2022-09-27T14:00:43Z</time></trkpt><trkpt lat="58.049583" lon="38.84205"><ele>100.4</ele><time>2022-09-27T14:00:45Z</time></trkpt><trkpt lat="58.049535" lon="38.842233"><ele>101.1</ele><time>2022-09-27T14:00:48Z</time></trkpt><trkpt lat="58.049503" lon="38.842372"><ele>101.0</ele><time>2022-09-27T14:00:50Z</time></trkpt><trkpt lat="58.049473" lon="38.842503"><ele>101.0</ele><time>2022-09-27T14:00:52Z</time></trkpt><trkpt lat="58.049447" lon="38.8427"><ele>100.9</ele><time>2022-09-27T14:00:55Z</time></trkpt><trkpt lat="58.049418" lon="38.842873"><ele>101.0</ele><time>2022-09-27T14:00:58Z</time></trkpt><trkpt lat="58.049383" lon="38.84306"><ele>101.2</ele><time>2022-09-27T14:01:01Z</time></trkpt><trkpt lat="58.049368" lon="38.843203"><ele>101.0</ele><time>2022-09-27T14:01:03Z</time></trkpt><trkpt lat="58.049357" lon="38.84334"><ele>100.4</ele><time>2022-09-27T14:01:05Z</time></trkpt><trkpt lat="58.04933" lon="38.843478"><ele>100.6</ele><time>2022-09-27T14:01:07Z</time></trkpt><trkpt lat="58.049298" lon="38.843608"><ele>100.1</ele><time>2022-09-27T14:01:09Z</time></trkpt><trkpt lat="58.049272" lon="38.843752"><ele>100.9</ele><time>2022-09-27T14:01:11Z</time></trkpt><trkpt lat="58.04925" lon="38.843908"><ele>101.2</ele><time>2022-09-27T14:01:13Z</time></trkpt><trkpt lat="58.04923" lon="38.84406"><ele>101.8</ele><time>2022-09-27T14:01:15Z</time></trkpt><trkpt lat="58.04921" lon="38.844193"><ele>101.5</ele><time>2022-09-27T14:01:17Z</time></trkpt><trkpt lat="58.049165" lon="38.844357"><ele>100.3</ele><time>2022-09-27T14:01:21Z</time></trkpt><trkpt lat="58.04913" lon="38.844498"><ele>101.0</ele><time>2022-09-27T14:01:23Z</time></trkpt><trkpt lat="58.049093" lon="38.84465"><ele>101.1</ele><time>2022-09-27T14:01:25Z</time></trkpt><trkpt lat="58.04906" lon="38.844803"><ele>101.3</ele><time>2022-09-27T14:01:27Z</time></trkpt><trkpt lat="58.049032" lon="38.84495"><ele>102.3</ele><time>2022-09-27T14:01:29Z</time></trkpt><trkpt lat="58.04899" lon="38.845118"><ele>102.0</ele><time>2022-09-27T14:01:32Z</time></trkpt><trkpt lat="58.048978" lon="38.84527"><ele>101.9</ele><time>2022-09-27T14:01:35Z</time></trkpt><trkpt lat="58.048972" lon="38.845408"><ele>101.7</ele><time>2022-09-27T14:01:41Z</time></trkpt><trkpt lat="58.04901" lon="38.845878"><ele>102.0</ele><time>2022-09-27T14:02:06Z</time></trkpt><trkpt lat="58.048847" lon="38.845258"><ele>102.1</ele><time>2022-09-27T14:03:05Z</time></trkpt><trkpt lat="58.048873" lon="38.844868"><ele>102.8</ele><time>2022-09-27T14:03:11Z</time></trkpt><trkpt lat="58.049007" lon="38.844905"><ele>102.1</ele><time>2022-09-27T14:03:19Z</time></trkpt><trkpt lat="58.048915" lon="38.844925"><ele>101.6</ele><time>2022-09-27T16:34:15Z</time></trkpt><trkpt lat="58.04906" lon="38.845275"><ele>101.6</ele><time>2022-09-27T16:34:17Z</time></trkpt><trkpt lat="58.049147" lon="38.84533"><ele>102.4</ele><time>2022-09-27T16:34:20Z</time></trkpt><trkpt lat="58.049222" lon="38.845372"><ele>98.8</ele><time>2022-09-27T16:34:42Z</time></trkpt><trkpt lat="58.049298" lon="38.845373"><ele>99.2</ele><time>2022-09-27T16:34:48Z</time></trkpt><trkpt lat="58.049387" lon="38.845353"><ele>99.9</ele><time>2022-09-27T16:34:51Z</time></trkpt><trkpt lat="58.049458" lon="38.845408"><ele>98.8</ele><time>2022-09-27T16:34:53Z</time></trkpt><trkpt lat="58.049532" lon="38.845467"><ele>98.6</ele><time>2022-09-27T16:34:55Z</time></trkpt><trkpt lat="58.049618" lon="38.845508"><ele>98.8</ele><time>2022-09-27T16:34:57Z</time></trkpt><trkpt lat="58.049702" lon="38.845557"><ele>98.8</ele><time>2022-09-27T16:34:59Z</time></trkpt><trkpt lat="58.049805" lon="38.845627"><ele>98.4</ele><time>2022-09-27T16:35:01Z</time></trkpt><trkpt lat="58.049912" lon="38.845713"><ele>98.3</ele><time>2022-09-27T16:35:03Z</time></trkpt><trkpt lat="58.050005" lon="38.845772"><ele>98.5</ele><time>2022-09-27T16:35:05Z</time></trkpt><trkpt lat="58.050077" lon="38.84581"><ele>99.9</ele><time>2022-09-27T16:35:15Z</time></trkpt><trkpt lat="58.050175" lon="38.845858"><ele>101.0</ele><time>2022-09-27T16:35:20Z</time></trkpt><trkpt lat="58.05026" lon="38.845953"><ele>101.2</ele><time>2022-09-27T16:35:22Z</time></trkpt><trkpt lat="58.050353" lon="38.845993"><ele>101.5</ele><time>2022-09-27T16:35:24Z</time></trkpt><trkpt lat="58.050455" lon="38.846022"><ele>101.4</ele><time>2022-09-27T16:35:26Z</time></trkpt><trkpt lat="58.050548" lon="38.84611"><ele>100.3</ele><time>2022-09-27T16:35:28Z</time></trkpt><trkpt lat="58.050655" lon="38.846168"><ele>100.4</ele><time>2022-09-27T16:35:30Z</time></trkpt><trkpt lat="58.050767" lon="38.846223"><ele>100.6</ele><time>2022-09-27T16:35:32Z</time></trkpt><trkpt lat="58.050868" lon="38.846275"><ele>100.5</ele><time>2022-09-27T16:35:34Z</time></trkpt><trkpt lat="58.050957" lon="38.846312"><ele>99.7</ele><time>2022-09-27T16:35:38Z</time></trkpt><trkpt lat="58.051052" lon="38.846383"><ele>99.8</ele><time>2022-09-27T16:35:42Z</time></trkpt><trkpt lat="58.051127" lon="38.846418"><ele>100.8</ele><time>2022-09-27T16:35:44Z</time></trkpt><trkpt lat="58.051203" lon="38.84647"><ele>100.2</ele><time>2022-09-27T16:35:46Z</time></trkpt><trkpt lat="58.05129" lon="38.846495"><ele>98.9</ele><time>2022-09-27T16:35:49Z</time></trkpt><trkpt lat="58.051322" lon="38.84636"><ele>99.1</ele><time>2022-09-27T16:35:52Z</time></trkpt><trkpt lat="58.051333" lon="38.846217"><ele>99.5</ele><time>2022-09-27T16:35:54Z</time></trkpt><trkpt lat="58.051368" lon="38.846032"><ele>100.7</ele><time>2022-09-27T16:35:57Z</time></trkpt><trkpt lat="58.051408" lon="38.845853"><ele>101.0</ele><time>2022-09-27T16:36:00Z</time></trkpt><trkpt lat="58.051432" lon="38.84572"><ele>100.5</ele><time>2022-09-27T16:36:02Z</time></trkpt><trkpt lat="58.051453" lon="38.845573"><ele>98.8</ele><time>2022-09-27T16:36:04Z</time></trkpt><trkpt lat="58.0515" lon="38.845432"><ele>98.3</ele><time>2022-09-27T16:36:06Z</time></trkpt><trkpt lat="58.051528" lon="38.84526"><ele>98.0</ele><time>2022-09-27T16:36:08Z</time></trkpt><trkpt lat="58.051557" lon="38.845128"><ele>97.6</ele><time>2022-09-27T16:36:10Z</time></trkpt><trkpt lat="58.05158" lon="38.844995"><ele>96.9</ele><time>2022-09-27T16:36:12Z</time></trkpt><trkpt lat="58.051622" lon="38.844882"><ele>96.9</ele><time>2022-09-27T16:36:14Z</time></trkpt><trkpt lat="58.051655" lon="38.844723"><ele>96.8</ele><time>2022-09-27T16:36:17Z</time></trkpt><trkpt lat="58.051732" lon="38.844617"><ele>96.9</ele><time>2022-09-27T16:36:20Z</time></trkpt><trkpt lat="58.051817" lon="38.84461"><ele>96.6</ele><time>2022-09-27T16:36:22Z</time></trkpt><trkpt lat="58.051903" lon="38.844612"><ele>95.7</ele><time>2022-09-27T16:36:24Z</time></trkpt><trkpt lat="58.051992" lon="38.844585"><ele>95.3</ele><time>2022-09-27T16:36:26Z</time></trkpt><trkpt lat="58.052085" lon="38.844543"><ele>94.8</ele><time>2022-09-27T16:36:28Z</time></trkpt><trkpt lat="58.052183" lon="38.844485"><ele>94.8</ele><time>2022-09-27T16:36:30Z</time></trkpt><trkpt lat="58.052282" lon="38.844432"><ele>94.0</ele><time>2022-09-27T16:36:32Z</time></trkpt><trkpt lat="58.052383" lon="38.844397"><ele>94.0</ele><time>2022-09-27T16:36:34Z</time></trkpt><trkpt lat="58.052457" lon="38.844338"><ele>93.9</ele><time>2022-09-27T16:36:36Z</time></trkpt><trkpt lat="58.052533" lon="38.844305"><ele>93.8</ele><time>2022-09-27T16:36:38Z</time></trkpt><trkpt lat="58.052632" lon="38.844268"><ele>94.6</ele><time>2022-09-27T16:36:40Z</time></trkpt><trkpt lat="58.052722" lon="38.844228"><ele>94.4</ele><time>2022-09-27T16:36:42Z</time></trkpt><trkpt lat="58.052803" lon="38.844128"><ele>93.3</ele><time>2022-09-27T16:36:44Z</time></trkpt><trkpt lat="58.052865" lon="38.843977"><ele>93.2</ele><time>2022-09-27T16:36:46Z</time></trkpt><trkpt lat="58.052925" lon="38.84378"><ele>93.1</ele><time>2022-09-27T16:36:48Z</time></trkpt><trkpt lat="58.053" lon="38.843572"><ele>93.1</ele><time>2022-09-27T16:36:50Z</time></trkpt><trkpt lat="58.053075" lon="38.843378"><ele>93.6</ele><time>2022-09-27T16:36:52Z</time></trkpt><trkpt lat="58.053125" lon="38.84323"><ele>93.6</ele><time>2022-09-27T16:36:54Z</time></trkpt><trkpt lat="58.053168" lon="38.843075"><ele>97.4</ele><time>2022-09-27T16:37:11Z</time></trkpt><trkpt lat="58.053205" lon="38.842955"><ele>96.9</ele><time>2022-09-27T16:37:14Z</time></trkpt><trkpt lat="58.053253" lon="38.842835"><ele>96.4</ele><time>2022-09-27T16:37:17Z</time></trkpt><trkpt lat="58.053302" lon="38.842705"><ele>94.6</ele><time>2022-09-27T16:37:20Z</time></trkpt><trkpt lat="58.053355" lon="38.842538"><ele>94.6</ele><time>2022-09-27T16:37:23Z</time></trkpt><trkpt lat="58.053393" lon="38.842418"><ele>94.8</ele><time>2022-09-27T16:37:25Z</time></trkpt><trkpt lat="58.053435" lon="38.842297"><ele>96.4</ele><time>2022-09-27T16:37:27Z</time></trkpt><trkpt lat="58.053492" lon="38.842122"><ele>96.5</ele><time>2022-09-27T16:37:29Z</time></trkpt><trkpt lat="58.053543" lon="38.841992"><ele>96.5</ele><time>2022-09-27T16:37:31Z</time></trkpt><trkpt lat="58.053573" lon="38.841805"><ele>96.0</ele><time>2022-09-27T16:37:33Z</time></trkpt><trkpt lat="58.053617" lon="38.841665"><ele>96.6</ele><time>2022-09-27T16:37:35Z</time></trkpt><trkpt lat="58.053658" lon="38.841542"><ele>97.9</ele><time>2022-09-27T16:37:37Z</time></trkpt><trkpt lat="58.053715" lon="38.841415"><ele>99.0</ele><time>2022-09-27T16:37:39Z</time></trkpt><trkpt lat="58.053777" lon="38.841265"><ele>100.0</ele><time>2022-09-27T16:37:41Z</time></trkpt><trkpt lat="58.053823" lon="38.841133"><ele>100.3</ele><time>2022-09-27T16:37:43Z</time></trkpt><trkpt lat="58.053877" lon="38.840977"><ele>98.5</ele><time>2022-09-27T16:37:46Z</time></trkpt><trkpt lat="58.053932" lon="38.8408"><ele>96.7</ele><time>2022-09-27T16:37:49Z</time></trkpt><trkpt lat="58.053972" lon="38.840658"><ele>96.6</ele><time>2022-09-27T16:37:51Z</time></trkpt><trkpt lat="58.054013" lon="38.840517"><ele>96.9</ele><time>2022-09-27T16:37:53Z</time></trkpt><trkpt lat="58.05405" lon="38.840385"><ele>97.7</ele><time>2022-09-27T16:37:55Z</time></trkpt><trkpt lat="58.05411" lon="38.840233"><ele>98.2</ele><time>2022-09-27T16:37:57Z</time></trkpt><trkpt lat="58.05418" lon="38.840067"><ele>99.2</ele><time>2022-09-27T16:37:59Z</time></trkpt><trkpt lat="58.054233" lon="38.839913"><ele>98.8</ele><time>2022-09-27T16:38:01Z</time></trkpt><trkpt lat="58.054278" lon="38.839767"><ele>98.9</ele><time>2022-09-27T16:38:03Z</time></trkpt><trkpt lat="58.054313" lon="38.839647"><ele>98.7</ele><time>2022-09-27T16:38:05Z</time></trkpt><trkpt lat="58.054368" lon="38.839493"><ele>99.0</ele><time>2022-09-27T16:38:08Z</time></trkpt><trkpt lat="58.054407" lon="38.839368"><ele>99.0</ele><time>2022-09-27T16:38:10Z</time></trkpt><trkpt lat="58.054448" lon="38.83925"><ele>99.4</ele><time>2022-09-27T16:38:12Z</time></trkpt><trkpt lat="58.054502" lon="38.839087"><ele>99.0</ele><time>2022-09-27T16:38:15Z</time></trkpt><trkpt lat="58.054543" lon="38.838968"><ele>98.6</ele><time>2022-09-27T16:38:17Z</time></trkpt><trkpt lat="58.054595" lon="38.838838"><ele>96.7</ele><time>2022-09-27T16:38:20Z</time></trkpt><trkpt lat="58.054648" lon="38.838697"><ele>95.5</ele><time>2022-09-27T16:38:23Z</time></trkpt><trkpt lat="58.054685" lon="38.83857"><ele>95.2</ele><time>2022-09-27T16:38:25Z</time></trkpt><trkpt lat="58.054725" lon="38.838443"><ele>94.6</ele><time>2022-09-27T16:38:27Z</time></trkpt><trkpt lat="58.054768" lon="38.83831"><ele>93.7</ele><time>2022-09-27T16:38:29Z</time></trkpt><trkpt lat="58.05481" lon="38.838183"><ele>93.6</ele><time>2022-09-27T16:38:31Z</time></trkpt><trkpt lat="58.054855" lon="38.838042"><ele>93.3</ele><time>2022-09-27T16:38:33Z</time></trkpt><trkpt lat="58.054902" lon="38.837898"><ele>94.4</ele><time>2022-09-27T16:38:35Z</time></trkpt><trkpt lat="58.054942" lon="38.837762"><ele>94.5</ele><time>2022-09-27T16:38:37Z</time></trkpt><trkpt lat="58.054985" lon="38.837627"><ele>94.2</ele><time>2022-09-27T16:38:39Z</time></trkpt><trkpt lat="58.055023" lon="38.8375"><ele>93.5</ele><time>2022-09-27T16:38:41Z</time></trkpt><trkpt lat="58.055062" lon="38.837385"><ele>93.0</ele><time>2022-09-27T16:38:43Z</time></trkpt><trkpt lat="58.055112" lon="38.837222"><ele>92.8</ele><time>2022-09-27T16:38:46Z</time></trkpt><trkpt lat="58.055163" lon="38.837052"><ele>93.1</ele><time>2022-09-27T16:38:49Z</time></trkpt><trkpt lat="58.055213" lon="38.836877"><ele>93.3</ele><time>2022-09-27T16:38:52Z</time></trkpt><trkpt lat="58.055265" lon="38.836718"><ele>92.5</ele><time>2022-09-27T16:38:55Z</time></trkpt><trkpt lat="58.055323" lon="38.83656"><ele>92.2</ele><time>2022-09-27T16:38:58Z</time></trkpt><trkpt lat="58.055367" lon="38.836385"><ele>91.0</ele><time>2022-09-27T16:39:01Z</time></trkpt><trkpt lat="58.055418" lon="38.836205"><ele>91.4</ele><time>2022-09-27T16:39:04Z</time></trkpt><trkpt lat="58.055465" lon="38.836093"><ele>91.1</ele><time>2022-09-27T16:39:06Z</time></trkpt><trkpt lat="58.055517" lon="38.835965"><ele>91.0</ele><time>2022-09-27T16:39:08Z</time></trkpt><trkpt lat="58.055562" lon="38.835838"><ele>91.0</ele><time>2022-09-27T16:39:10Z</time></trkpt><trkpt lat="58.055607" lon="38.835703"><ele>91.5</ele><time>2022-09-27T16:39:12Z</time></trkpt><trkpt lat="58.055648" lon="38.835577"><ele>91.5</ele><time>2022-09-27T16:39:14Z</time></trkpt><trkpt lat="58.055695" lon="38.835448"><ele>91.9</ele><time>2022-09-27T16:39:16Z</time></trkpt><trkpt lat="58.055745" lon="38.835315"><ele>92.2</ele><time>2022-09-27T16:39:18Z</time></trkpt><trkpt lat="58.0558" lon="38.835155"><ele>91.7</ele><time>2022-09-27T16:39:20Z</time></trkpt><trkpt lat="58.055838" lon="38.835002"><ele>92.3</ele><time>2022-09-27T16:39:22Z</time></trkpt><trkpt lat="58.055883" lon="38.834872"><ele>92.3</ele><time>2022-09-27T16:39:24Z</time></trkpt><trkpt lat="58.05593" lon="38.834713"><ele>92.4</ele><time>2022-09-27T16:39:26Z</time></trkpt><trkpt lat="58.055982" lon="38.834563"><ele>92.5</ele><time>2022-09-27T16:39:28Z</time></trkpt><trkpt lat="58.056055" lon="38.834497"><ele>93.2</ele><time>2022-09-27T16:39:30Z</time></trkpt><trkpt lat="58.056085" lon="38.834345"><ele>92.9</ele><time>2022-09-27T16:39:32Z</time></trkpt><trkpt lat="58.056125" lon="38.83417"><ele>92.7</ele><time>2022-09-27T16:39:34Z</time></trkpt><trkpt lat="58.056167" lon="38.834042"><ele>93.0</ele><time>2022-09-27T16:39:36Z</time></trkpt><trkpt lat="58.056212" lon="38.83392"><ele>92.6</ele><time>2022-09-27T16:39:38Z</time></trkpt><trkpt lat="58.05626" lon="38.833773"><ele>93.1</ele><time>2022-09-27T16:39:40Z</time></trkpt><trkpt lat="58.05631" lon="38.833632"><ele>93.1</ele><time>2022-09-27T16:39:42Z</time></trkpt><trkpt lat="58.056355" lon="38.833487"><ele>93.3</ele><time>2022-09-27T16:39:44Z</time></trkpt><trkpt lat="58.056398" lon="38.83334"><ele>92.7</ele><time>2022-09-27T16:39:46Z</time></trkpt><trkpt lat="58.056437" lon="38.83318"><ele>92.8</ele><time>2022-09-27T16:39:48Z</time></trkpt><trkpt lat="58.056475" lon="38.833027"><ele>91.6</ele><time>2022-09-27T16:39:50Z</time></trkpt><trkpt lat="58.05651" lon="38.832888"><ele>92.2</ele><time>2022-09-27T16:39:52Z</time></trkpt><trkpt lat="58.056537" lon="38.832748"><ele>91.7</ele><time>2022-09-27T16:39:54Z</time></trkpt><trkpt lat="58.056562" lon="38.832617"><ele>91.3</ele><time>2022-09-27T16:39:56Z</time></trkpt><trkpt lat="58.056593" lon="38.832492"><ele>91.0</ele><time>2022-09-27T16:39:58Z</time></trkpt><trkpt lat="58.056645" lon="38.832318"><ele>91.6</ele><time>2022-09-27T16:40:01Z</time></trkpt><trkpt lat="58.05669" lon="38.832173"><ele>93.2</ele><time>2022-09-27T16:40:04Z</time></trkpt><trkpt lat="58.056747" lon="38.832002"><ele>94.0</ele><time>2022-09-27T16:40:07Z</time></trkpt><trkpt lat="58.056787" lon="38.831875"><ele>94.1</ele><time>2022-09-27T16:40:09Z</time></trkpt><trkpt lat="58.056825" lon="38.831757"><ele>93.5</ele><time>2022-09-27T16:40:11Z</time></trkpt><trkpt lat="58.056867" lon="38.831633"><ele>93.3</ele><time>2022-09-27T16:40:13Z</time></trkpt><trkpt lat="58.05691" lon="38.831503"><ele>93.0</ele><time>2022-09-27T16:40:15Z</time></trkpt><trkpt lat="58.056948" lon="38.831387"><ele>92.8</ele><time>2022-09-27T16:40:17Z</time></trkpt><trkpt lat="58.057017" lon="38.831238"><ele>92.1</ele><time>2022-09-27T16:40:20Z</time></trkpt><trkpt lat="58.057078" lon="38.831168"><ele>92.4</ele><time>2022-09-27T16:40:22Z</time></trkpt><trkpt lat="58.057143" lon="38.831105"><ele>92.3</ele><time>2022-09-27T16:40:24Z</time></trkpt><trkpt lat="58.05721" lon="38.831038"><ele>92.5</ele><time>2022-09-27T16:40:26Z</time></trkpt><trkpt lat="58.057297" lon="38.830943"><ele>93.8</ele><time>2022-09-27T16:40:29Z</time></trkpt><trkpt lat="58.057365" lon="38.830843"><ele>93.3</ele><time>2022-09-27T16:40:32Z</time></trkpt><trkpt lat="58.057423" lon="38.830738"><ele>93.2</ele><time>2022-09-27T16:40:35Z</time></trkpt><trkpt lat="58.05749" lon="38.830608"><ele>93.0</ele><time>2022-09-27T16:40:38Z</time></trkpt><trkpt lat="58.057557" lon="38.830465"><ele>93.5</ele><time>2022-09-27T16:40:41Z</time></trkpt><trkpt lat="58.057635" lon="38.830325"><ele>93.5</ele><time>2022-09-27T16:40:44Z</time></trkpt><trkpt lat="58.057693" lon="38.830242"><ele>93.4</ele><time>2022-09-27T16:40:46Z</time></trkpt><trkpt lat="58.057755" lon="38.830157"><ele>93.1</ele><time>2022-09-27T16:40:48Z</time></trkpt><trkpt lat="58.057815" lon="38.830075"><ele>92.5</ele><time>2022-09-27T16:40:50Z</time></trkpt><trkpt lat="58.0579" lon="38.829968"><ele>92.8</ele><time>2022-09-27T16:40:53Z</time></trkpt><trkpt lat="58.057958" lon="38.82988"><ele>92.6</ele><time>2022-09-27T16:40:55Z</time></trkpt><trkpt lat="58.058013" lon="38.82979"><ele>92.5</ele><time>2022-09-27T16:40:57Z</time></trkpt><trkpt lat="58.058095" lon="38.829657"><ele>91.3</ele><time>2022-09-27T16:41:00Z</time></trkpt><trkpt lat="58.058155" lon="38.829555"><ele>91.5</ele><time>2022-09-27T16:41:02Z</time></trkpt><trkpt lat="58.058213" lon="38.829455"><ele>91.2</ele><time>2022-09-27T16:41:04Z</time></trkpt><trkpt lat="58.05827" lon="38.829365"><ele>91.5</ele><time>2022-09-27T16:41:06Z</time></trkpt><trkpt lat="58.058328" lon="38.829283"><ele>91.7</ele><time>2022-09-27T16:41:08Z</time></trkpt><trkpt lat="58.058413" lon="38.829173"><ele>92.0</ele><time>2022-09-27T16:41:11Z</time></trkpt><trkpt lat="58.058478" lon="38.829088"><ele>92.1</ele><time>2022-09-27T16:41:13Z</time></trkpt><trkpt lat="58.058542" lon="38.82899"><ele>91.4</ele><time>2022-09-27T16:41:15Z</time></trkpt><trkpt lat="58.0586" lon="38.828835"><ele>92.4</ele><time>2022-09-27T16:41:18Z</time></trkpt><trkpt lat="58.058638" lon="38.828683"><ele>93.4</ele><time>2022-09-27T16:41:21Z</time></trkpt><trkpt lat="58.058675" lon="38.828543"><ele>94.1</ele><time>2022-09-27T16:41:24Z</time></trkpt><trkpt lat="58.058723" lon="38.828392"><ele>94.3</ele><time>2022-09-27T16:41:27Z</time></trkpt><trkpt lat="58.058772" lon="38.828248"><ele>94.1</ele><time>2022-09-27T16:41:29Z</time></trkpt><trkpt lat="58.058822" lon="38.8281"><ele>93.7</ele><time>2022-09-27T16:41:32Z</time></trkpt><trkpt lat="58.058872" lon="38.827957"><ele>94.1</ele><time>2022-09-27T16:41:35Z</time></trkpt><trkpt lat="58.05891" lon="38.827837"><ele>94.5</ele><time>2022-09-27T16:41:37Z</time></trkpt><trkpt lat="58.058948" lon="38.82771"><ele>95.3</ele><time>2022-09-27T16:41:39Z</time></trkpt><trkpt lat="58.058985" lon="38.827592"><ele>95.8</ele><time>2022-09-27T16:41:41Z</time></trkpt><trkpt lat="58.059023" lon="38.827472"><ele>96.1</ele><time>2022-09-27T16:41:43Z</time></trkpt><trkpt lat="58.059065" lon="38.827347"><ele>96.0</ele><time>2022-09-27T16:41:45Z</time></trkpt><trkpt lat="58.059105" lon="38.827223"><ele>95.8</ele><time>2022-09-27T16:41:47Z</time></trkpt><trkpt lat="58.05915" lon="38.827075"><ele>96.2</ele><time>2022-09-27T16:41:49Z</time></trkpt><trkpt lat="58.059193" lon="38.826958"><ele>96.5</ele><time>2022-09-27T16:41:51Z</time></trkpt><trkpt lat="58.059243" lon="38.826818"><ele>96.2</ele><time>2022-09-27T16:41:53Z</time></trkpt><trkpt lat="58.059295" lon="38.82669"><ele>96.1</ele><time>2022-09-27T16:41:55Z</time></trkpt><trkpt lat="58.059352" lon="38.826588"><ele>96.3</ele><time>2022-09-27T16:41:57Z</time></trkpt><trkpt lat="58.059422" lon="38.826442"><ele>96.3</ele><time>2022-09-27T16:42:00Z</time></trkpt><trkpt lat="58.05946" lon="38.826295"><ele>95.5</ele><time>2022-09-27T16:42:03Z</time></trkpt><trkpt lat="58.059442" lon="38.826123"><ele>95.8</ele><time>2022-09-27T16:42:07Z</time></trkpt><trkpt lat="58.059433" lon="38.825943"><ele>95.7</ele><time>2022-09-27T16:42:11Z</time></trkpt><trkpt lat="58.059438" lon="38.825747"><ele>95.9</ele><time>2022-09-27T16:42:14Z</time></trkpt><trkpt lat="58.05942" lon="38.825603"><ele>96.1</ele><time>2022-09-27T16:42:16Z</time></trkpt><trkpt lat="58.059368" lon="38.825427"><ele>95.6</ele><time>2022-09-27T16:42:19Z</time></trkpt><trkpt lat="58.05932" lon="38.825315"><ele>95.5</ele><time>2022-09-27T16:42:21Z</time></trkpt><trkpt lat="58.059273" lon="38.825205"><ele>95.2</ele><time>2022-09-27T16:42:23Z</time></trkpt><trkpt lat="58.059217" lon="38.82505"><ele>95.7</ele><time>2022-09-27T16:42:26Z</time></trkpt><trkpt lat="58.059162" lon="38.824895"><ele>96.5</ele><time>2022-09-27T16:42:29Z</time></trkpt><trkpt lat="58.05912" lon="38.824763"><ele>95.7</ele><time>2022-09-27T16:42:32Z</time></trkpt><trkpt lat="58.059067" lon="38.824653"><ele>95.7</ele><time>2022-09-27T16:42:35Z</time></trkpt><trkpt lat="58.059002" lon="38.824532"><ele>96.0</ele><time>2022-09-27T16:42:38Z</time></trkpt><trkpt lat="58.059022" lon="38.82438"><ele>96.6</ele><time>2022-09-27T16:42:41Z</time></trkpt><trkpt lat="58.059085" lon="38.824267"><ele>97.2</ele><time>2022-09-27T16:42:43Z</time></trkpt><trkpt lat="58.059153" lon="38.824142"><ele>96.9</ele><time>2022-09-27T16:42:45Z</time></trkpt><trkpt lat="58.059222" lon="38.824025"><ele>96.9</ele><time>2022-09-27T16:42:47Z</time></trkpt><trkpt lat="58.059285" lon="38.82391"><ele>97.1</ele><time>2022-09-27T16:42:49Z</time></trkpt><trkpt lat="58.059342" lon="38.823808"><ele>97.3</ele><time>2022-09-27T16:42:51Z</time></trkpt><trkpt lat="58.059397" lon="38.823707"><ele>97.1</ele><time>2022-09-27T16:42:53Z</time></trkpt><trkpt lat="58.05945" lon="38.823605"><ele>97.5</ele><time>2022-09-27T16:42:55Z</time></trkpt><trkpt lat="58.059495" lon="38.823498"><ele>97.4</ele><time>2022-09-27T16:42:57Z</time></trkpt><trkpt lat="58.059537" lon="38.823372"><ele>97.2</ele><time>2022-09-27T16:42:59Z</time></trkpt><trkpt lat="58.05957" lon="38.823237"><ele>98.1</ele><time>2022-09-27T16:43:01Z</time></trkpt><trkpt lat="58.059607" lon="38.823057"><ele>98.0</ele><time>2022-09-27T16:43:04Z</time></trkpt><trkpt lat="58.059637" lon="38.822867"><ele>97.7</ele><time>2022-09-27T16:43:07Z</time></trkpt><trkpt lat="58.059648" lon="38.822725"><ele>98.0</ele><time>2022-09-27T16:43:09Z</time></trkpt><trkpt lat="58.059657" lon="38.822587"><ele>98.4</ele><time>2022-09-27T16:43:11Z</time></trkpt><trkpt lat="58.059668" lon="38.822402"><ele>97.5</ele><time>2022-09-27T16:43:14Z</time></trkpt><trkpt lat="58.05968" lon="38.822215"><ele>98.0</ele><time>2022-09-27T16:43:17Z</time></trkpt><trkpt lat="58.059695" lon="38.822048"><ele>96.2</ele><time>2022-09-27T16:43:20Z</time></trkpt><trkpt lat="58.05971" lon="38.821863"><ele>95.7</ele><time>2022-09-27T16:43:23Z</time></trkpt><trkpt lat="58.059722" lon="38.821698"><ele>96.0</ele><time>2022-09-27T16:43:25Z</time></trkpt><trkpt lat="58.059732" lon="38.821548"><ele>96.2</ele><time>2022-09-27T16:43:27Z</time></trkpt><trkpt lat="58.059765" lon="38.821408"><ele>97.7</ele><time>2022-09-27T16:43:47Z</time></trkpt><trkpt lat="58.059772" lon="38.821218"><ele>97.8</ele><time>2022-09-27T16:43:50Z</time></trkpt><trkpt lat="58.059777" lon="38.821015"><ele>98.0</ele><time>2022-09-27T16:43:52Z</time></trkpt><trkpt lat="58.059785" lon="38.820835"><ele>97.7</ele><time>2022-09-27T16:43:54Z</time></trkpt><trkpt lat="58.059798" lon="38.820688"><ele>98.0</ele><time>2022-09-27T16:43:56Z</time></trkpt><trkpt lat="58.059813" lon="38.8205"><ele>97.8</ele><time>2022-09-27T16:43:58Z</time></trkpt><trkpt lat="58.059815" lon="38.820315"><ele>96.5</ele><time>2022-09-27T16:44:00Z</time></trkpt><trkpt lat="58.059825" lon="38.820148"><ele>96.2</ele><time>2022-09-27T16:44:02Z</time></trkpt><trkpt lat="58.059828" lon="38.819977"><ele>95.7</ele><time>2022-09-27T16:44:04Z</time></trkpt><trkpt lat="58.059838" lon="38.819818"><ele>95.9</ele><time>2022-09-27T16:44:06Z</time></trkpt><trkpt lat="58.059847" lon="38.81967"><ele>96.0</ele><time>2022-09-27T16:44:08Z</time></trkpt><trkpt lat="58.059857" lon="38.81952"><ele>95.6</ele><time>2022-09-27T16:44:10Z</time></trkpt><trkpt lat="58.059868" lon="38.819347"><ele>95.9</ele><time>2022-09-27T16:44:12Z</time></trkpt><trkpt lat="58.059875" lon="38.819185"><ele>96.8</ele><time>2022-09-27T16:44:14Z</time></trkpt><trkpt lat="58.059883" lon="38.819023"><ele>97.3</ele><time>2022-09-27T16:44:16Z</time></trkpt><trkpt lat="58.059893" lon="38.818868"><ele>97.0</ele><time>2022-09-27T16:44:18Z</time></trkpt><trkpt lat="58.059903" lon="38.818728"><ele>97.3</ele><time>2022-09-27T16:44:20Z</time></trkpt><trkpt lat="58.059907" lon="38.818557"><ele>97.7</ele><time>2022-09-27T16:44:23Z</time></trkpt><trkpt lat="58.059915" lon="38.818388"><ele>97.9</ele><time>2022-09-27T16:44:26Z</time></trkpt><trkpt lat="58.059935" lon="38.818188"><ele>98.7</ele><time>2022-09-27T16:44:29Z</time></trkpt><trkpt lat="58.059942" lon="38.818043"><ele>99.2</ele><time>2022-09-27T16:44:31Z</time></trkpt><trkpt lat="58.059945" lon="38.817905"><ele>99.2</ele><time>2022-09-27T16:44:33Z</time></trkpt><trkpt lat="58.059955" lon="38.817745"><ele>98.9</ele><time>2022-09-27T16:44:36Z</time></trkpt><trkpt lat="58.059867" lon="38.817733"><ele>98.6</ele><time>2022-09-27T16:45:13Z</time></trkpt><trkpt lat="58.059773" lon="38.817693"><ele>97.8</ele><time>2022-09-27T16:45:16Z</time></trkpt><trkpt lat="58.059745" lon="38.817562"><ele>97.7</ele><time>2022-09-27T16:45:19Z</time></trkpt><trkpt lat="58.05968" lon="38.81746"><ele>97.1</ele><time>2022-09-27T16:45:23Z</time></trkpt><trkpt lat="58.059592" lon="38.817458"><ele>97.6</ele><time>2022-09-27T16:45:26Z</time></trkpt><trkpt lat="58.0595" lon="38.817453"><ele>98.0</ele><time>2022-09-27T16:45:29Z</time></trkpt><trkpt lat="58.059412" lon="38.817415"><ele>97.5</ele><time>2022-09-27T16:45:33Z</time></trkpt><trkpt lat="58.059323" lon="38.817397"><ele>98.0</ele><time>2022-09-27T16:45:37Z</time></trkpt><trkpt lat="58.059225" lon="38.817437"><ele>97.0</ele><time>2022-09-27T16:45:41Z</time></trkpt><trkpt lat="58.059148" lon="38.817425"><ele>97.7</ele><time>2022-09-27T16:45:44Z</time></trkpt><trkpt lat="58.05907" lon="38.817465"><ele>97.9</ele><time>2022-09-27T16:45:47Z</time></trkpt><trkpt lat="58.05901" lon="38.817568"><ele>98.5</ele><time>2022-09-27T16:45:52Z</time></trkpt><trkpt lat="58.058935" lon="38.817552"><ele>98.8</ele><time>2022-09-27T16:45:55Z</time></trkpt><trkpt lat="58.058865" lon="38.817445"><ele>99.5</ele><time>2022-09-27T16:45:57Z</time></trkpt><trkpt lat="58.05881" lon="38.817345"><ele>99.5</ele><time>2022-09-27T16:45:59Z</time></trkpt><trkpt lat="58.058745" lon="38.817215"><ele>99.4</ele><time>2022-09-27T16:46:02Z</time></trkpt><trkpt lat="58.058703" lon="38.81706"><ele>98.4</ele><time>2022-09-27T16:46:06Z</time></trkpt><trkpt lat="58.058722" lon="38.816907"><ele>99.1</ele><time>2022-09-27T16:46:10Z</time></trkpt><trkpt lat="58.05867" lon="38.816797"><ele>99.5</ele><time>2022-09-27T16:46:22Z</time></trkpt><trkpt lat="58.058748" lon="38.816762"><ele>99.2</ele><time>2022-09-27T16:46:29Z</time></trkpt><trkpt lat="58.058802" lon="38.816857"><ele>99.0</ele><time>2022-09-27T16:46:36Z</time></trkpt></trkseg></trk></gpx>