<?xml version="1.0" encoding="UTF-8" standalone="no"?><gpx xmlns="http://www.topografix.com/GPX/1/1" xmlns:gpxtpx="http://www.garmin.com/xmlschemas/TrackPointExtension/v1" xmlns:xsi="http://www.w3.org/2001/XMLSchema-instance" creator="Sports Tracker" version="1.1" xsi:schemaLocation="http://www.topografix.com/GPX/1/1 http://www.topografix.com/GPX/1/1/gpx.xsd http://www.garmin.com/xmlschemas/TrackPointExtension/v1 http://www.garmin.com/xmlschemas/TrackPointExtensionv1.xsd"><metadata><name>19.08.2025 09:02</name><desc/><author><name>Александр</name></author></metadata><trk><name>19.08.2025 09:02</name><trkseg><trkpt lat="43.254162" lon="42.510352"><ele>2194.2</ele><time>2025-08-19T06:02:55Z</time></trkpt><trkpt lat="43.254162" lon="42.510352"><ele>2194.2</ele><time>2025-08-19T06:02:55Z</time></trkpt><trkpt lat="43.254112" lon="42.51031"><ele>2184.9</ele><time>2025-08-19T06:03:02Z</time></trkpt><trkpt lat="43.254065" lon="42.510242"><ele>2177.0</ele><time>2025-08-19T06:03:09Z</time></trkpt><trkpt lat="43.25402" lon="42.510167"><ele>2175.6</ele><time>2025-08-19T06:03:16Z</time></trkpt><trkpt lat="43.253973" lon="42.510095"><ele>2172.2</ele><time>2025-08-19T06:03:23Z</time></trkpt><trkpt lat="43.25392" lon="42.51001"><ele>2174.5</ele><time>2025-08-19T06:03:30Z</time></trkpt><trkpt lat="43.253902" lon="42.50991"><ele>2175.7</ele><time>2025-08-19T06:03:37Z</time></trkpt><trkpt lat="43.253915" lon="42.509845"><ele>2174.7</ele><time>2025-08-19T06:03:44Z</time></trkpt><trkpt lat="43.25391" lon="42.509755"><ele>2178.1</ele><time>2025-08-19T06:03:51Z</time></trkpt><trkpt lat="43.253905" lon="42.509647"><ele>2174.3</ele><time>2025-08-19T06:03:58Z</time></trkpt><trkpt lat="43.253887" lon="42.50954"><ele>2172.6</ele><time>2025-08-19T06:04:04Z</time></trkpt><trkpt lat="43.253885" lon="42.509447"><ele>2172.3</ele><time>2025-08-19T06:04:11Z</time></trkpt><trkpt lat="43.253875" lon="42.509335"><ele>2174.2</ele><time>2025-08-19T06:04:18Z</time></trkpt><trkpt lat="43.25388" lon="42.50923"><ele>2176.0</ele><time>2025-08-19T06:04:25Z</time></trkpt><trkpt lat="43.253862" lon="42.509115"><ele>2178.6</ele><time>2025-08-19T06:04:31Z</time></trkpt><trkpt lat="43.25386" lon="42.50907"><ele>2180.8</ele><time>2025-08-19T06:04:38Z</time></trkpt><trkpt lat="43.25386" lon="42.50907"><ele>2180.8</ele><time>2025-08-19T06:04:41Z</time></trkpt><trkpt lat="43.253872" lon="42.509082"><ele>2183.0</ele><time>2025-08-19T06:04:54Z</time></trkpt><trkpt lat="43.253872" lon="42.509082"><ele>2182.9</ele><time>2025-08-19T06:04:55Z</time></trkpt><trkpt lat="43.253845" lon="42.509125"><ele>2180.1</ele><time>2025-08-19T06:05:11Z</time></trkpt><trkpt lat="43.25378" lon="42.509165"><ele>2179.8</ele><time>2025-08-19T06:05:17Z</time></trkpt><trkpt lat="43.25367" lon="42.509405"><ele>2182.6</ele><time>2025-08-19T06:05:47Z</time></trkpt><trkpt lat="43.253635" lon="42.509482"><ele>2183.6</ele><time>2025-08-19T06:05:54Z</time></trkpt><trkpt lat="43.253627" lon="42.509585"><ele>2184.7</ele><time>2025-08-19T06:06:01Z</time></trkpt><trkpt lat="43.253565" lon="42.509637"><ele>2183.9</ele><time>2025-08-19T06:06:06Z</time></trkpt><trkpt lat="43.25349" lon="42.509635"><ele>2182.0</ele><time>2025-08-19T06:06:12Z</time></trkpt><trkpt lat="43.25343" lon="42.509685"><ele>2180.6</ele><time>2025-08-19T06:06:19Z</time></trkpt><trkpt lat="43.25339" lon="42.50977"><ele>2180.6</ele><time>2025-08-19T06:06:26Z</time></trkpt><trkpt lat="43.25331" lon="42.50986"><ele>2184.3</ele><time>2025-08-19T06:06:37Z</time></trkpt><trkpt lat="43.25324" lon="42.5099"><ele>2187.1</ele><time>2025-08-19T06:06:44Z</time></trkpt><trkpt lat="43.25322" lon="42.50998"><ele>2184.9</ele><time>2025-08-19T06:06:51Z</time></trkpt><trkpt lat="43.253205" lon="42.51006"><ele>2181.8</ele><time>2025-08-19T06:06:58Z</time></trkpt><trkpt lat="43.253143" lon="42.510057"><ele>2175.5</ele><time>2025-08-19T06:07:05Z</time></trkpt><trkpt lat="43.253025" lon="42.510235"><ele>2169.9</ele><time>2025-08-19T06:07:27Z</time></trkpt><trkpt lat="43.253" lon="42.510287"><ele>2168.8</ele><time>2025-08-19T06:07:34Z</time></trkpt><trkpt lat="43.252995" lon="42.51034"><ele>2169.4</ele><time>2025-08-19T06:07:41Z</time></trkpt><trkpt lat="43.252985" lon="42.51043"><ele>2169.6</ele><time>2025-08-19T06:07:48Z</time></trkpt><trkpt lat="43.252992" lon="42.510542"><ele>2172.6</ele><time>2025-08-19T06:07:55Z</time></trkpt><trkpt lat="43.25293" lon="42.510827"><ele>2167.4</ele><time>2025-08-19T06:08:17Z</time></trkpt><trkpt lat="43.252922" lon="42.510887"><ele>2167.4</ele><time>2025-08-19T06:08:24Z</time></trkpt><trkpt lat="43.252895" lon="42.510827"><ele>2164.0</ele><time>2025-08-19T06:08:31Z</time></trkpt><trkpt lat="43.252895" lon="42.51082"><ele>2164.0</ele><time>2025-08-19T06:08:37Z</time></trkpt><trkpt lat="43.2529" lon="42.51072"><ele>2163.3</ele><time>2025-08-19T06:08:43Z</time></trkpt><trkpt lat="43.25282" lon="42.510607"><ele>2159.6</ele><time>2025-08-19T06:09:07Z</time></trkpt><trkpt lat="43.2528" lon="42.51061"><ele>2158.7</ele><time>2025-08-19T06:09:14Z</time></trkpt><trkpt lat="43.252802" lon="42.51061"><ele>2158.7</ele><time>2025-08-19T06:09:18Z</time></trkpt><trkpt lat="43.252795" lon="42.51061"><ele>2159.6</ele><time>2025-08-19T06:11:58Z</time></trkpt><trkpt lat="43.252795" lon="42.51061"><ele>2159.7</ele><time>2025-08-19T06:11:59Z</time></trkpt><trkpt lat="43.252805" lon="42.510615"><ele>2160.1</ele><time>2025-08-19T06:12:08Z</time></trkpt><trkpt lat="43.252817" lon="42.510605"><ele>2160.1</ele><time>2025-08-19T06:12:15Z</time></trkpt><trkpt lat="43.252817" lon="42.510605"><ele>2160.0</ele><time>2025-08-19T06:12:17Z</time></trkpt><trkpt lat="43.25281" lon="42.510618"><ele>2159.8</ele><time>2025-08-19T06:12:27Z</time></trkpt><trkpt lat="43.25281" lon="42.510618"><ele>2159.8</ele><time>2025-08-19T06:12:28Z</time></trkpt><trkpt lat="43.2528" lon="42.510607"><ele>2160.0</ele><time>2025-08-19T06:12:37Z</time></trkpt><trkpt lat="43.2528" lon="42.510615"><ele>2159.9</ele><time>2025-08-19T06:12:39Z</time></trkpt><trkpt lat="43.252795" lon="42.510622"><ele>2159.3</ele><time>2025-08-19T06:12:48Z</time></trkpt><trkpt lat="43.252792" lon="42.510622"><ele>2159.2</ele><time>2025-08-19T06:12:49Z</time></trkpt><trkpt lat="43.252772" lon="42.510632"><ele>2160.4</ele><time>2025-08-19T06:12:58Z</time></trkpt><trkpt lat="43.252805" lon="42.510617"><ele>2160.6</ele><time>2025-08-19T06:13:05Z</time></trkpt><trkpt lat="43.252805" lon="42.510618"><ele>2160.6</ele><time>2025-08-19T06:13:08Z</time></trkpt><trkpt lat="43.25281" lon="42.51068"><ele>2158.8</ele><time>2025-08-19T06:13:27Z</time></trkpt><trkpt lat="43.25278" lon="42.510755"><ele>2161.3</ele><time>2025-08-19T06:13:34Z</time></trkpt><trkpt lat="43.252785" lon="42.51081"><ele>2159.6</ele><time>2025-08-19T06:13:41Z</time></trkpt><trkpt lat="43.252767" lon="42.51088"><ele>2159.0</ele><time>2025-08-19T06:13:48Z</time></trkpt><trkpt lat="43.252815" lon="42.510895"><ele>2156.8</ele><time>2025-08-19T06:13:55Z</time></trkpt><trkpt lat="43.252795" lon="42.510965"><ele>2158.1</ele><time>2025-08-19T06:14:02Z</time></trkpt><trkpt lat="43.25279" lon="42.51101"><ele>2159.3</ele><time>2025-08-19T06:14:09Z</time></trkpt><trkpt lat="43.25279" lon="42.511072"><ele>2162.0</ele><time>2025-08-19T06:14:16Z</time></trkpt><trkpt lat="43.25279" lon="42.511088"><ele>2162.0</ele><time>2025-08-19T06:14:23Z</time></trkpt><trkpt lat="43.252787" lon="42.511088"><ele>2162.0</ele><time>2025-08-19T06:14:24Z</time></trkpt><trkpt lat="43.252815" lon="42.511077"><ele>2160.9</ele><time>2025-08-19T06:14:32Z</time></trkpt><trkpt lat="43.252812" lon="42.51108"><ele>2157.7</ele><time>2025-08-19T06:14:37Z</time></trkpt><trkpt lat="43.252775" lon="42.51107"><ele>2158.3</ele><time>2025-08-19T06:14:44Z</time></trkpt><trkpt lat="43.252775" lon="42.511072"><ele>2159.4</ele><time>2025-08-19T06:14:49Z</time></trkpt><trkpt lat="43.25276" lon="42.511077"><ele>2159.2</ele><time>2025-08-19T06:14:57Z</time></trkpt><trkpt lat="43.252775" lon="42.511022"><ele>2158.4</ele><time>2025-08-19T06:15:04Z</time></trkpt><trkpt lat="43.25278" lon="42.511045"><ele>2157.0</ele><time>2025-08-19T06:15:11Z</time></trkpt><trkpt lat="43.25281" lon="42.511035"><ele>2156.6</ele><time>2025-08-19T06:15:18Z</time></trkpt><trkpt lat="43.252815" lon="42.511042"><ele>2156.6</ele><time>2025-08-19T06:15:23Z</time></trkpt><trkpt lat="43.252802" lon="42.51114"><ele>2158.3</ele><time>2025-08-19T06:15:40Z</time></trkpt><trkpt lat="43.252795" lon="42.51125"><ele>2160.7</ele><time>2025-08-19T06:15:47Z</time></trkpt><trkpt lat="43.25276" lon="42.511635"><ele>2162.7</ele><time>2025-08-19T06:16:15Z</time></trkpt><trkpt lat="43.252732" lon="42.511725"><ele>2163.3</ele><time>2025-08-19T06:16:22Z</time></trkpt><trkpt lat="43.25271" lon="42.5118"><ele>2164.0</ele><time>2025-08-19T06:16:29Z</time></trkpt><trkpt lat="43.2527" lon="42.511905"><ele>2163.9</ele><time>2025-08-19T06:16:36Z</time></trkpt><trkpt lat="43.252677" lon="42.511952"><ele>2163.6</ele><time>2025-08-19T06:16:43Z</time></trkpt><trkpt lat="43.252685" lon="42.511995"><ele>2159.6</ele><time>2025-08-19T06:17:09Z</time></trkpt><trkpt lat="43.25273" lon="42.511945"><ele>2157.8</ele><time>2025-08-19T06:17:16Z</time></trkpt><trkpt lat="43.252763" lon="42.511912"><ele>2158.0</ele><time>2025-08-19T06:17:23Z</time></trkpt><trkpt lat="43.25279" lon="42.51195"><ele>2157.9</ele><time>2025-08-19T06:17:30Z</time></trkpt><trkpt lat="43.252732" lon="42.51213"><ele>2156.6</ele><time>2025-08-19T06:17:55Z</time></trkpt><trkpt lat="43.252662" lon="42.512162"><ele>2155.3</ele><time>2025-08-19T06:18:01Z</time></trkpt><trkpt lat="43.25262" lon="42.51223"><ele>2158.1</ele><time>2025-08-19T06:18:08Z</time></trkpt><trkpt lat="43.252595" lon="42.512325"><ele>2159.2</ele><time>2025-08-19T06:18:15Z</time></trkpt><trkpt lat="43.252585" lon="42.512425"><ele>2160.9</ele><time>2025-08-19T06:18:22Z</time></trkpt><trkpt lat="43.252537" lon="42.512662"><ele>2158.9</ele><time>2025-08-19T06:18:45Z</time></trkpt><trkpt lat="43.252522" lon="42.51276"><ele>2159.6</ele><time>2025-08-19T06:18:50Z</time></trkpt><trkpt lat="43.252507" lon="42.512862"><ele>2159.6</ele><time>2025-08-19T06:18:57Z</time></trkpt><trkpt lat="43.2525" lon="42.512962"><ele>2162.0</ele><time>2025-08-19T06:19:03Z</time></trkpt><trkpt lat="43.25252" lon="42.513057"><ele>2161.6</ele><time>2025-08-19T06:19:09Z</time></trkpt><trkpt lat="43.252532" lon="42.513422"><ele>2161.1</ele><time>2025-08-19T06:19:35Z</time></trkpt><trkpt lat="43.25251" lon="42.513515"><ele>2161.2</ele><time>2025-08-19T06:19:41Z</time></trkpt><trkpt lat="43.25251" lon="42.5136"><ele>2159.8</ele><time>2025-08-19T06:19:48Z</time></trkpt><trkpt lat="43.252475" lon="42.513695"><ele>2157.2</ele><time>2025-08-19T06:19:55Z</time></trkpt><trkpt lat="43.252435" lon="42.51376"><ele>2158.2</ele><time>2025-08-19T06:20:02Z</time></trkpt><trkpt lat="43.252362" lon="42.51399"><ele>2156.7</ele><time>2025-08-19T06:20:26Z</time></trkpt><trkpt lat="43.25233" lon="42.514097"><ele>2158.3</ele><time>2025-08-19T06:20:26Z</time></trkpt><trkpt lat="43.252295" lon="42.514195"><ele>2159.4</ele><time>2025-08-19T06:20:32Z</time></trkpt><trkpt lat="43.252262" lon="42.51428"><ele>2159.0</ele><time>2025-08-19T06:20:39Z</time></trkpt><trkpt lat="43.252228" lon="42.51437"><ele>2158.8</ele><time>2025-08-19T06:20:46Z</time></trkpt><trkpt lat="43.252207" lon="42.51446"><ele>2158.0</ele><time>2025-08-19T06:20:53Z</time></trkpt><trkpt lat="43.25206" lon="42.514505"><ele>2154.2</ele><time>2025-08-19T06:21:16Z</time></trkpt><trkpt lat="43.25203" lon="42.514512"><ele>2153.5</ele><time>2025-08-19T06:21:23Z</time></trkpt><trkpt lat="43.25202" lon="42.51451"><ele>2153.4</ele><time>2025-08-19T06:21:26Z</time></trkpt><trkpt lat="43.252017" lon="42.514505"><ele>2153.3</ele><time>2025-08-19T06:21:36Z</time></trkpt><trkpt lat="43.252017" lon="42.514505"><ele>2153.3</ele><time>2025-08-19T06:21:37Z</time></trkpt><trkpt lat="43.252045" lon="42.514602"><ele>2150.7</ele><time>2025-08-19T06:22:11Z</time></trkpt><trkpt lat="43.252035" lon="42.51468"><ele>2150.5</ele><time>2025-08-19T06:22:18Z</time></trkpt><trkpt lat="43.252015" lon="42.51475"><ele>2150.3</ele><time>2025-08-19T06:22:25Z</time></trkpt><trkpt lat="43.252022" lon="42.514812"><ele>2150.6</ele><time>2025-08-19T06:22:32Z</time></trkpt><trkpt lat="43.25201" lon="42.515055"><ele>2146.5</ele><time>2025-08-19T06:22:56Z</time></trkpt><trkpt lat="43.252007" lon="42.51507"><ele>2145.9</ele><time>2025-08-19T06:23:03Z</time></trkpt><trkpt lat="43.252003" lon="42.51507"><ele>2145.9</ele><time>2025-08-19T06:23:04Z</time></trkpt><trkpt lat="43.251985" lon="42.515067"><ele>2145.8</ele><time>2025-08-19T06:23:12Z</time></trkpt><trkpt lat="43.251985" lon="42.515065"><ele>2145.8</ele><time>2025-08-19T06:23:13Z</time></trkpt><trkpt lat="43.25199" lon="42.51513"><ele>2146.9</ele><time>2025-08-19T06:23:25Z</time></trkpt><trkpt lat="43.251995" lon="42.515237"><ele>2146.1</ele><time>2025-08-19T06:23:49Z</time></trkpt><trkpt lat="43.25202" lon="42.51533"><ele>2145.3</ele><time>2025-08-19T06:23:56Z</time></trkpt><trkpt lat="43.25203" lon="42.51543"><ele>2145.1</ele><time>2025-08-19T06:24:03Z</time></trkpt><trkpt lat="43.252045" lon="42.515525"><ele>2145.0</ele><time>2025-08-19T06:24:10Z</time></trkpt><trkpt lat="43.252045" lon="42.515765"><ele>2144.7</ele><time>2025-08-19T06:24:36Z</time></trkpt><trkpt lat="43.25203" lon="42.515875"><ele>2144.3</ele><time>2025-08-19T06:24:39Z</time></trkpt><trkpt lat="43.252018" lon="42.515975"><ele>2145.5</ele><time>2025-08-19T06:24:45Z</time></trkpt><trkpt lat="43.25201" lon="42.516062"><ele>2144.5</ele><time>2025-08-19T06:24:52Z</time></trkpt><trkpt lat="43.252017" lon="42.516152"><ele>2143.1</ele><time>2025-08-19T06:24:59Z</time></trkpt><trkpt lat="43.252025" lon="42.516245"><ele>2141.0</ele><time>2025-08-19T06:25:06Z</time></trkpt><trkpt lat="43.251985" lon="42.51652"><ele>2141.6</ele><time>2025-08-19T06:25:26Z</time></trkpt><trkpt lat="43.25198" lon="42.516615"><ele>2141.5</ele><time>2025-08-19T06:25:33Z</time></trkpt><trkpt lat="43.251975" lon="42.516695"><ele>2140.7</ele><time>2025-08-19T06:25:40Z</time></trkpt><trkpt lat="43.251965" lon="42.516757"><ele>2138.1</ele><time>2025-08-19T06:25:47Z</time></trkpt><trkpt lat="43.251955" lon="42.516838"><ele>2138.4</ele><time>2025-08-19T06:25:54Z</time></trkpt><trkpt lat="43.25194" lon="42.516865"><ele>2137.9</ele><time>2025-08-19T06:26:20Z</time></trkpt><trkpt lat="43.25194" lon="42.516865"><ele>2137.8</ele><time>2025-08-19T06:26:22Z</time></trkpt><trkpt lat="43.251935" lon="42.516865"><ele>2137.8</ele><time>2025-08-19T06:26:33Z</time></trkpt><trkpt lat="43.251935" lon="42.516865"><ele>2137.8</ele><time>2025-08-19T06:26:34Z</time></trkpt><trkpt lat="43.251982" lon="42.516758"><ele>2138.4</ele><time>2025-08-19T06:27:03Z</time></trkpt><trkpt lat="43.25199" lon="42.516682"><ele>2138.5</ele><time>2025-08-19T06:27:10Z</time></trkpt><trkpt lat="43.251985" lon="42.51667"><ele>2138.9</ele><time>2025-08-19T06:27:17Z</time></trkpt><trkpt lat="43.251985" lon="42.51667"><ele>2138.9</ele><time>2025-08-19T06:27:18Z</time></trkpt><trkpt lat="43.251992" lon="42.5166"><ele>2138.0</ele><time>2025-08-19T06:28:02Z</time></trkpt><trkpt lat="43.251998" lon="42.516525"><ele>2138.3</ele><time>2025-08-19T06:28:09Z</time></trkpt><trkpt lat="43.252017" lon="42.516435"><ele>2141.1</ele><time>2025-08-19T06:28:16Z</time></trkpt><trkpt lat="43.252045" lon="42.51635"><ele>2143.4</ele><time>2025-08-19T06:28:23Z</time></trkpt><trkpt lat="43.25206" lon="42.516255"><ele>2142.3</ele><time>2025-08-19T06:28:30Z</time></trkpt><trkpt lat="43.252067" lon="42.51616"><ele>2142.9</ele><time>2025-08-19T06:28:37Z</time></trkpt><trkpt lat="43.252055" lon="42.51606"><ele>2143.3</ele><time>2025-08-19T06:28:44Z</time></trkpt><trkpt lat="43.252073" lon="42.51598"><ele>2144.0</ele><time>2025-08-19T06:28:51Z</time></trkpt><trkpt lat="43.25207" lon="42.51588"><ele>2147.1</ele><time>2025-08-19T06:28:58Z</time></trkpt><trkpt lat="43.25207" lon="42.51576"><ele>2148.4</ele><time>2025-08-19T06:29:04Z</time></trkpt><trkpt lat="43.25208" lon="42.515685"><ele>2152.0</ele><time>2025-08-19T06:29:11Z</time></trkpt><trkpt lat="43.2521" lon="42.51561"><ele>2151.2</ele><time>2025-08-19T06:29:18Z</time></trkpt><trkpt lat="43.2521" lon="42.51553"><ele>2151.9</ele><time>2025-08-19T06:29:25Z</time></trkpt><trkpt lat="43.25208" lon="42.515435"><ele>2152.2</ele><time>2025-08-19T06:29:32Z</time></trkpt><trkpt lat="43.25203" lon="42.515145"><ele>2150.2</ele><time>2025-08-19T06:29:55Z</time></trkpt><trkpt lat="43.252035" lon="42.51504"><ele>2149.9</ele><time>2025-08-19T06:30:02Z</time></trkpt><trkpt lat="43.252062" lon="42.51497"><ele>2153.3</ele><time>2025-08-19T06:30:09Z</time></trkpt><trkpt lat="43.252072" lon="42.5149"><ele>2152.8</ele><time>2025-08-19T06:30:16Z</time></trkpt><trkpt lat="43.252105" lon="42.51482"><ele>2154.6</ele><time>2025-08-19T06:30:23Z</time></trkpt><trkpt lat="43.25212" lon="42.514552"><ele>2151.9</ele><time>2025-08-19T06:30:45Z</time></trkpt><trkpt lat="43.252115" lon="42.51445"><ele>2152.7</ele><time>2025-08-19T06:30:52Z</time></trkpt><trkpt lat="43.25208" lon="42.514395"><ele>2152.4</ele><time>2025-08-19T06:30:59Z</time></trkpt><trkpt lat="43.252072" lon="42.514392"><ele>2152.3</ele><time>2025-08-19T06:31:06Z</time></trkpt><trkpt lat="43.252045" lon="42.514375"><ele>2149.4</ele><time>2025-08-19T06:31:57Z</time></trkpt><trkpt lat="43.251975" lon="42.514407"><ele>2146.7</ele><time>2025-08-19T06:32:03Z</time></trkpt><trkpt lat="43.251755" lon="42.514497"><ele>2147.5</ele><time>2025-08-19T06:32:25Z</time></trkpt><trkpt lat="43.25175" lon="42.514525"><ele>2142.9</ele><time>2025-08-19T06:32:32Z</time></trkpt><trkpt lat="43.25173" lon="42.514545"><ele>2143.6</ele><time>2025-08-19T06:32:39Z</time></trkpt><trkpt lat="43.251655" lon="42.514567"><ele>2147.7</ele><time>2025-08-19T06:32:44Z</time></trkpt><trkpt lat="43.251627" lon="42.5146"><ele>2147.3</ele><time>2025-08-19T06:32:51Z</time></trkpt><trkpt lat="43.25165" lon="42.514702"><ele>2148.8</ele><time>2025-08-19T06:32:57Z</time></trkpt><trkpt lat="43.25168" lon="42.514712"><ele>2148.6</ele><time>2025-08-19T06:33:04Z</time></trkpt><trkpt lat="43.25168" lon="42.514755"><ele>2147.7</ele><time>2025-08-19T06:33:11Z</time></trkpt><trkpt lat="43.25168" lon="42.51486"><ele>2146.0</ele><time>2025-08-19T06:33:18Z</time></trkpt><trkpt lat="43.25166" lon="42.514965"><ele>2145.4</ele><time>2025-08-19T06:33:25Z</time></trkpt><trkpt lat="43.251607" lon="42.515065"><ele>2147.6</ele><time>2025-08-19T06:33:32Z</time></trkpt><trkpt lat="43.25159" lon="42.515175"><ele>2148.1</ele><time>2025-08-19T06:33:38Z</time></trkpt><trkpt lat="43.25156" lon="42.51527"><ele>2148.0</ele><time>2025-08-19T06:33:45Z</time></trkpt><trkpt lat="43.251515" lon="42.515355"><ele>2146.6</ele><time>2025-08-19T06:33:51Z</time></trkpt><trkpt lat="43.25151" lon="42.515455"><ele>2147.7</ele><time>2025-08-19T06:33:58Z</time></trkpt><trkpt lat="43.251505" lon="42.515575"><ele>2145.7</ele><time>2025-08-19T06:34:05Z</time></trkpt><trkpt lat="43.251522" lon="42.515675"><ele>2146.8</ele><time>2025-08-19T06:34:12Z</time></trkpt><trkpt lat="43.251525" lon="42.51578"><ele>2148.9</ele><time>2025-08-19T06:34:19Z</time></trkpt><trkpt lat="43.251485" lon="42.51587"><ele>2150.9</ele><time>2025-08-19T06:34:26Z</time></trkpt><trkpt lat="43.25143" lon="42.515942"><ele>2148.5</ele><time>2025-08-19T06:34:33Z</time></trkpt><trkpt lat="43.25139" lon="42.516035"><ele>2148.7</ele><time>2025-08-19T06:34:40Z</time></trkpt><trkpt lat="43.25136" lon="42.516125"><ele>2143.4</ele><time>2025-08-19T06:34:47Z</time></trkpt><trkpt lat="43.25136" lon="42.516233"><ele>2143.1</ele><time>2025-08-19T06:34:54Z</time></trkpt><trkpt lat="43.251365" lon="42.51633"><ele>2142.5</ele><time>2025-08-19T06:35:01Z</time></trkpt><trkpt lat="43.25136" lon="42.516415"><ele>2142.8</ele><time>2025-08-19T06:35:08Z</time></trkpt><trkpt lat="43.251345" lon="42.51652"><ele>2147.1</ele><time>2025-08-19T06:35:15Z</time></trkpt><trkpt lat="43.251398" lon="42.51672"><ele>2147.1</ele><time>2025-08-19T06:35:41Z</time></trkpt><trkpt lat="43.251417" lon="42.5168"><ele>2146.1</ele><time>2025-08-19T06:35:48Z</time></trkpt><trkpt lat="43.251432" lon="42.51687"><ele>2146.1</ele><time>2025-08-19T06:35:55Z</time></trkpt><trkpt lat="43.251455" lon="42.516928"><ele>2145.8</ele><time>2025-08-19T06:36:02Z</time></trkpt><trkpt lat="43.25146" lon="42.516967"><ele>2144.2</ele><time>2025-08-19T06:36:09Z</time></trkpt><trkpt lat="43.251467" lon="42.517068"><ele>2142.3</ele><time>2025-08-19T06:36:21Z</time></trkpt><trkpt lat="43.251462" lon="42.517155"><ele>2144.1</ele><time>2025-08-19T06:36:26Z</time></trkpt><trkpt lat="43.251468" lon="42.51718"><ele>2142.7</ele><time>2025-08-19T06:36:33Z</time></trkpt><trkpt lat="43.251483" lon="42.517185"><ele>2142.2</ele><time>2025-08-19T06:36:40Z</time></trkpt><trkpt lat="43.25154" lon="42.517257"><ele>2140.1</ele><time>2025-08-19T06:36:47Z</time></trkpt><trkpt lat="43.25158" lon="42.51736"><ele>2136.5</ele><time>2025-08-19T06:36:54Z</time></trkpt><trkpt lat="43.25159" lon="42.51746"><ele>2137.0</ele><time>2025-08-19T06:37:00Z</time></trkpt><trkpt lat="43.251605" lon="42.517565"><ele>2135.9</ele><time>2025-08-19T06:37:07Z</time></trkpt><trkpt lat="43.25161" lon="42.51767"><ele>2136.9</ele><time>2025-08-19T06:37:14Z</time></trkpt><trkpt lat="43.25163" lon="42.517767"><ele>2137.8</ele><time>2025-08-19T06:37:21Z</time></trkpt><trkpt lat="43.251595" lon="42.517857"><ele>2137.6</ele><time>2025-08-19T06:37:26Z</time></trkpt><trkpt lat="43.25157" lon="42.51795"><ele>2139.0</ele><time>2025-08-19T06:37:32Z</time></trkpt><trkpt lat="43.251525" lon="42.518045"><ele>2138.4</ele><time>2025-08-19T06:37:39Z</time></trkpt><trkpt lat="43.251505" lon="42.51813"><ele>2137.3</ele><time>2025-08-19T06:37:46Z</time></trkpt><trkpt lat="43.251468" lon="42.518235"><ele>2138.2</ele><time>2025-08-19T06:37:53Z</time></trkpt><trkpt lat="43.25144" lon="42.518345"><ele>2137.2</ele><time>2025-08-19T06:38:00Z</time></trkpt><trkpt lat="43.25143" lon="42.518445"><ele>2137.1</ele><time>2025-08-19T06:38:07Z</time></trkpt><trkpt lat="43.25144" lon="42.518535"><ele>2136.7</ele><time>2025-08-19T06:38:14Z</time></trkpt><trkpt lat="43.25145" lon="42.51862"><ele>2136.0</ele><time>2025-08-19T06:38:21Z</time></trkpt><trkpt lat="43.25143" lon="42.518695"><ele>2134.1</ele><time>2025-08-19T06:38:28Z</time></trkpt><trkpt lat="43.251425" lon="42.518797"><ele>2133.4</ele><time>2025-08-19T06:38:35Z</time></trkpt><trkpt lat="43.25143" lon="42.51888"><ele>2134.1</ele><time>2025-08-19T06:38:42Z</time></trkpt><trkpt lat="43.251467" lon="42.5189"><ele>2132.3</ele><time>2025-08-19T06:38:49Z</time></trkpt><trkpt lat="43.251512" lon="42.518872"><ele>2130.9</ele><time>2025-08-19T06:39:03Z</time></trkpt><trkpt lat="43.25151" lon="42.51887"><ele>2130.5</ele><time>2025-08-19T06:39:04Z</time></trkpt><trkpt lat="43.251475" lon="42.518855"><ele>2131.1</ele><time>2025-08-19T06:39:11Z</time></trkpt><trkpt lat="43.25143" lon="42.518835"><ele>2130.7</ele><time>2025-08-19T06:39:18Z</time></trkpt><trkpt lat="43.25139" lon="42.51891"><ele>2131.1</ele><time>2025-08-19T06:39:25Z</time></trkpt><trkpt lat="43.251365" lon="42.518985"><ele>2131.5</ele><time>2025-08-19T06:39:32Z</time></trkpt><trkpt lat="43.25134" lon="42.51908"><ele>2131.7</ele><time>2025-08-19T06:39:39Z</time></trkpt><trkpt lat="43.251317" lon="42.519152"><ele>2131.2</ele><time>2025-08-19T06:39:46Z</time></trkpt><trkpt lat="43.25131" lon="42.519195"><ele>2129.3</ele><time>2025-08-19T06:39:53Z</time></trkpt><trkpt lat="43.25131" lon="42.519255"><ele>2129.3</ele><time>2025-08-19T06:40:00Z</time></trkpt><trkpt lat="43.251295" lon="42.519333"><ele>2129.4</ele><time>2025-08-19T06:40:07Z</time></trkpt><trkpt lat="43.25128" lon="42.519412"><ele>2127.5</ele><time>2025-08-19T06:40:14Z</time></trkpt><trkpt lat="43.251257" lon="42.519475"><ele>2127.0</ele><time>2025-08-19T06:40:21Z</time></trkpt><trkpt lat="43.25125" lon="42.519472"><ele>2127.1</ele><time>2025-08-19T06:40:27Z</time></trkpt><trkpt lat="43.251235" lon="42.519445"><ele>2127.6</ele><time>2025-08-19T06:40:35Z</time></trkpt><trkpt lat="43.251235" lon="42.519445"><ele>2127.7</ele><time>2025-08-19T06:40:38Z</time></trkpt><trkpt lat="43.251252" lon="42.519495"><ele>2128.6</ele><time>2025-08-19T06:40:46Z</time></trkpt><trkpt lat="43.251255" lon="42.519565"><ele>2126.3</ele><time>2025-08-19T06:40:53Z</time></trkpt><trkpt lat="43.25123" lon="42.51963"><ele>2126.0</ele><time>2025-08-19T06:41:00Z</time></trkpt><trkpt lat="43.251205" lon="42.519713"><ele>2124.8</ele><time>2025-08-19T06:41:07Z</time></trkpt><trkpt lat="43.25118" lon="42.519797"><ele>2124.4</ele><time>2025-08-19T06:41:14Z</time></trkpt><trkpt lat="43.251152" lon="42.519875"><ele>2124.9</ele><time>2025-08-19T06:41:21Z</time></trkpt><trkpt lat="43.251065" lon="42.520145"><ele>2125.6</ele><time>2025-08-19T06:41:46Z</time></trkpt><trkpt lat="43.251065" lon="42.520137"><ele>2125.6</ele><time>2025-08-19T06:41:53Z</time></trkpt><trkpt lat="43.251035" lon="42.520205"><ele>2125.2</ele><time>2025-08-19T06:42:16Z</time></trkpt><trkpt lat="43.25091" lon="42.520385"><ele>2125.7</ele><time>2025-08-19T06:42:36Z</time></trkpt><trkpt lat="43.250855" lon="42.520445"><ele>2125.7</ele><time>2025-08-19T06:42:43Z</time></trkpt><trkpt lat="43.250805" lon="42.520488"><ele>2125.8</ele><time>2025-08-19T06:42:50Z</time></trkpt><trkpt lat="43.250745" lon="42.52053"><ele>2125.4</ele><time>2025-08-19T06:42:57Z</time></trkpt><trkpt lat="43.250675" lon="42.52057"><ele>2124.1</ele><time>2025-08-19T06:43:04Z</time></trkpt><trkpt lat="43.25056" lon="42.520795"><ele>2122.2</ele><time>2025-08-19T06:43:26Z</time></trkpt><trkpt lat="43.25052" lon="42.52088"><ele>2123.0</ele><time>2025-08-19T06:43:33Z</time></trkpt><trkpt lat="43.25046" lon="42.520935"><ele>2125.3</ele><time>2025-08-19T06:43:40Z</time></trkpt><trkpt lat="43.250412" lon="42.521002"><ele>2125.8</ele><time>2025-08-19T06:43:47Z</time></trkpt><trkpt lat="43.250365" lon="42.521077"><ele>2121.5</ele><time>2025-08-19T06:43:53Z</time></trkpt><trkpt lat="43.250225" lon="42.521165"><ele>2122.0</ele><time>2025-08-19T06:44:16Z</time></trkpt><trkpt lat="43.250145" lon="42.52122"><ele>2124.1</ele><time>2025-08-19T06:44:16Z</time></trkpt><trkpt lat="43.25011" lon="42.521307"><ele>2124.5</ele><time>2025-08-19T06:44:23Z</time></trkpt><trkpt lat="43.2501" lon="42.52134"><ele>2122.7</ele><time>2025-08-19T06:44:30Z</time></trkpt><trkpt lat="43.2501" lon="42.52134"><ele>2122.6</ele><time>2025-08-19T06:44:33Z</time></trkpt><trkpt lat="43.2501" lon="42.5213"><ele>2122.6</ele><time>2025-08-19T06:45:06Z</time></trkpt><trkpt lat="43.2501" lon="42.5213"><ele>2122.6</ele><time>2025-08-19T06:45:06Z</time></trkpt><trkpt lat="43.250137" lon="42.52129"><ele>2115.9</ele><time>2025-08-19T06:45:41Z</time></trkpt><trkpt lat="43.25014" lon="42.521315"><ele>2113.7</ele><time>2025-08-19T06:45:46Z</time></trkpt><trkpt lat="43.250107" lon="42.5214"><ele>2114.8</ele><time>2025-08-19T06:45:54Z</time></trkpt><trkpt lat="43.250065" lon="42.52148"><ele>2114.3</ele><time>2025-08-19T06:46:01Z</time></trkpt><trkpt lat="43.250025" lon="42.52157"><ele>2113.6</ele><time>2025-08-19T06:46:08Z</time></trkpt><trkpt lat="43.25" lon="42.521645"><ele>2115.0</ele><time>2025-08-19T06:46:15Z</time></trkpt><trkpt lat="43.249985" lon="42.521735"><ele>2116.1</ele><time>2025-08-19T06:46:22Z</time></trkpt><trkpt lat="43.250015" lon="42.521825"><ele>2114.4</ele><time>2025-08-19T06:46:29Z</time></trkpt><trkpt lat="43.250042" lon="42.521912"><ele>2114.1</ele><time>2025-08-19T06:46:36Z</time></trkpt><trkpt lat="43.250045" lon="42.522008"><ele>2115.1</ele><time>2025-08-19T06:46:43Z</time></trkpt><trkpt lat="43.250025" lon="42.52211"><ele>2115.0</ele><time>2025-08-19T06:46:50Z</time></trkpt><trkpt lat="43.24999" lon="42.522205"><ele>2114.2</ele><time>2025-08-19T06:46:57Z</time></trkpt><trkpt lat="43.249955" lon="42.52227"><ele>2113.4</ele><time>2025-08-19T06:47:04Z</time></trkpt><trkpt lat="43.249925" lon="42.522365"><ele>2116.0</ele><time>2025-08-19T06:47:11Z</time></trkpt><trkpt lat="43.249917" lon="42.522437"><ele>2114.9</ele><time>2025-08-19T06:47:18Z</time></trkpt><trkpt lat="43.249885" lon="42.522527"><ele>2114.9</ele><time>2025-08-19T06:47:25Z</time></trkpt><trkpt lat="43.24983" lon="42.522585"><ele>2115.6</ele><time>2025-08-19T06:47:32Z</time></trkpt><trkpt lat="43.249795" lon="42.522685"><ele>2115.0</ele><time>2025-08-19T06:47:39Z</time></trkpt><trkpt lat="43.24979" lon="42.522795"><ele>2114.2</ele><time>2025-08-19T06:47:46Z</time></trkpt><trkpt lat="43.24976" lon="42.522885"><ele>2114.7</ele><time>2025-08-19T06:47:53Z</time></trkpt><trkpt lat="43.24973" lon="42.522977"><ele>2112.6</ele><time>2025-08-19T06:48:00Z</time></trkpt><trkpt lat="43.24971" lon="42.52308"><ele>2112.5</ele><time>2025-08-19T06:48:07Z</time></trkpt><trkpt lat="43.249687" lon="42.523175"><ele>2112.0</ele><time>2025-08-19T06:48:14Z</time></trkpt><trkpt lat="43.249667" lon="42.52326"><ele>2111.1</ele><time>2025-08-19T06:48:21Z</time></trkpt><trkpt lat="43.249615" lon="42.52333"><ele>2110.2</ele><time>2025-08-19T06:48:28Z</time></trkpt><trkpt lat="43.249578" lon="42.523405"><ele>2109.1</ele><time>2025-08-19T06:48:35Z</time></trkpt><trkpt lat="43.249572" lon="42.52345"><ele>2109.1</ele><time>2025-08-19T06:48:42Z</time></trkpt><trkpt lat="43.249545" lon="42.523513"><ele>2107.4</ele><time>2025-08-19T06:48:49Z</time></trkpt><trkpt lat="43.249487" lon="42.523595"><ele>2106.9</ele><time>2025-08-19T06:48:56Z</time></trkpt><trkpt lat="43.24942" lon="42.523645"><ele>2108.8</ele><time>2025-08-19T06:49:03Z</time></trkpt><trkpt lat="43.24938" lon="42.52368"><ele>2110.6</ele><time>2025-08-19T06:49:10Z</time></trkpt><trkpt lat="43.249355" lon="42.523775"><ele>2105.1</ele><time>2025-08-19T06:49:17Z</time></trkpt><trkpt lat="43.249317" lon="42.52384"><ele>2104.0</ele><time>2025-08-19T06:49:24Z</time></trkpt><trkpt lat="43.24926" lon="42.523878"><ele>2106.1</ele><time>2025-08-19T06:49:31Z</time></trkpt><trkpt lat="43.249273" lon="42.523855"><ele>2105.7</ele><time>2025-08-19T06:49:38Z</time></trkpt><trkpt lat="43.249202" lon="42.524067"><ele>2104.6</ele><time>2025-08-19T06:50:01Z</time></trkpt><trkpt lat="43.24919" lon="42.524188"><ele>2106.8</ele><time>2025-08-19T06:50:06Z</time></trkpt><trkpt lat="43.249215" lon="42.524292"><ele>2108.8</ele><time>2025-08-19T06:50:13Z</time></trkpt><trkpt lat="43.24922" lon="42.52434"><ele>2104.8</ele><time>2025-08-19T06:50:20Z</time></trkpt><trkpt lat="43.24918" lon="42.524422"><ele>2105.1</ele><time>2025-08-19T06:50:27Z</time></trkpt><trkpt lat="43.249012" lon="42.524735"><ele>2102.5</ele><time>2025-08-19T06:50:51Z</time></trkpt><trkpt lat="43.248987" lon="42.524825"><ele>2103.1</ele><time>2025-08-19T06:50:58Z</time></trkpt><trkpt lat="43.24895" lon="42.524897"><ele>2103.7</ele><time>2025-08-19T06:51:05Z</time></trkpt><trkpt lat="43.2489" lon="42.52497"><ele>2102.3</ele><time>2025-08-19T06:51:11Z</time></trkpt><trkpt lat="43.248862" lon="42.525005"><ele>2102.2</ele><time>2025-08-19T06:51:18Z</time></trkpt><trkpt lat="43.2488" lon="42.525325"><ele>2103.1</ele><time>2025-08-19T06:51:41Z</time></trkpt><trkpt lat="43.248805" lon="42.52541"><ele>2103.3</ele><time>2025-08-19T06:51:48Z</time></trkpt><trkpt lat="43.248795" lon="42.525507"><ele>2103.0</ele><time>2025-08-19T06:51:54Z</time></trkpt><trkpt lat="43.248782" lon="42.525587"><ele>2101.0</ele><time>2025-08-19T06:52:01Z</time></trkpt><trkpt lat="43.248755" lon="42.52567"><ele>2104.1</ele><time>2025-08-19T06:52:08Z</time></trkpt><trkpt lat="43.248735" lon="42.525827"><ele>2102.1</ele><time>2025-08-19T06:52:31Z</time></trkpt><trkpt lat="43.24869" lon="42.525975"><ele>2103.6</ele><time>2025-08-19T06:52:31Z</time></trkpt><trkpt lat="43.248667" lon="42.526075"><ele>2104.2</ele><time>2025-08-19T06:52:38Z</time></trkpt><trkpt lat="43.248675" lon="42.52614"><ele>2101.8</ele><time>2025-08-19T06:52:45Z</time></trkpt><trkpt lat="43.24864" lon="42.526225"><ele>2098.7</ele><time>2025-08-19T06:52:52Z</time></trkpt><trkpt lat="43.248615" lon="42.52629"><ele>2098.1</ele><time>2025-08-19T06:52:59Z</time></trkpt><trkpt lat="43.24859" lon="42.526585"><ele>2091.1</ele><time>2025-08-19T06:53:21Z</time></trkpt><trkpt lat="43.248637" lon="42.526655"><ele>2093.1</ele><time>2025-08-19T06:53:28Z</time></trkpt><trkpt lat="43.24865" lon="42.526757"><ele>2092.7</ele><time>2025-08-19T06:53:35Z</time></trkpt><trkpt lat="43.24863" lon="42.526867"><ele>2092.2</ele><time>2025-08-19T06:53:42Z</time></trkpt><trkpt lat="43.24862" lon="42.526972"><ele>2094.2</ele><time>2025-08-19T06:53:49Z</time></trkpt><trkpt lat="43.248682" lon="42.52707"><ele>2089.7</ele><time>2025-08-19T06:54:11Z</time></trkpt><trkpt lat="43.24871" lon="42.527035"><ele>2089.4</ele><time>2025-08-19T06:54:18Z</time></trkpt><trkpt lat="43.248745" lon="42.527025"><ele>2088.2</ele><time>2025-08-19T06:54:25Z</time></trkpt><trkpt lat="43.24875" lon="42.527022"><ele>2087.9</ele><time>2025-08-19T06:54:31Z</time></trkpt><trkpt lat="43.248757" lon="42.52703"><ele>2089.2</ele><time>2025-08-19T06:54:41Z</time></trkpt><trkpt lat="43.24876" lon="42.527027"><ele>2089.2</ele><time>2025-08-19T06:54:42Z</time></trkpt><trkpt lat="43.248737" lon="42.52697"><ele>2091.7</ele><time>2025-08-19T06:54:50Z</time></trkpt><trkpt lat="43.24878" lon="42.526985"><ele>2094.7</ele><time>2025-08-19T06:54:57Z</time></trkpt><trkpt lat="43.248765" lon="42.527003"><ele>2093.2</ele><time>2025-08-19T06:55:04Z</time></trkpt><trkpt lat="43.248765" lon="42.527005"><ele>2093.2</ele><time>2025-08-19T06:55:07Z</time></trkpt><trkpt lat="43.24877" lon="42.52702"><ele>2091.9</ele><time>2025-08-19T06:55:33Z</time></trkpt><trkpt lat="43.24877" lon="42.52702"><ele>2091.9</ele><time>2025-08-19T06:55:34Z</time></trkpt><trkpt lat="43.248772" lon="42.527007"><ele>2093.0</ele><time>2025-08-19T06:55:48Z</time></trkpt><trkpt lat="43.248772" lon="42.527007"><ele>2093.0</ele><time>2025-08-19T06:55:49Z</time></trkpt><trkpt lat="43.248777" lon="42.52697"><ele>2095.3</ele><time>2025-08-19T06:56:22Z</time></trkpt><trkpt lat="43.248772" lon="42.526975"><ele>2097.6</ele><time>2025-08-19T06:56:27Z</time></trkpt><trkpt lat="43.248772" lon="42.526982"><ele>2096.8</ele><time>2025-08-19T06:56:38Z</time></trkpt><trkpt lat="43.248775" lon="42.526982"><ele>2096.8</ele><time>2025-08-19T06:56:39Z</time></trkpt><trkpt lat="43.248775" lon="42.526995"><ele>2096.5</ele><time>2025-08-19T06:57:03Z</time></trkpt><trkpt lat="43.248775" lon="42.526995"><ele>2096.5</ele><time>2025-08-19T06:57:04Z</time></trkpt><trkpt lat="43.248775" lon="42.526955"><ele>2096.1</ele><time>2025-08-19T06:57:20Z</time></trkpt><trkpt lat="43.248765" lon="42.52696"><ele>2096.0</ele><time>2025-08-19T06:57:27Z</time></trkpt><trkpt lat="43.248765" lon="42.526965"><ele>2096.0</ele><time>2025-08-19T06:57:32Z</time></trkpt><trkpt lat="43.24877" lon="42.52696"><ele>2095.0</ele><time>2025-08-19T06:57:46Z</time></trkpt><trkpt lat="43.24877" lon="42.526955"><ele>2095.0</ele><time>2025-08-19T06:57:47Z</time></trkpt><trkpt lat="43.24877" lon="42.526945"><ele>2096.5</ele><time>2025-08-19T06:57:59Z</time></trkpt><trkpt lat="43.24877" lon="42.526945"><ele>2096.5</ele><time>2025-08-19T06:58:00Z</time></trkpt><trkpt lat="43.24877" lon="42.526955"><ele>2096.7</ele><time>2025-08-19T06:58:11Z</time></trkpt><trkpt lat="43.24877" lon="42.526955"><ele>2096.7</ele><time>2025-08-19T06:58:12Z</time></trkpt><trkpt lat="43.248765" lon="42.526845"><ele>2098.5</ele><time>2025-08-19T06:59:24Z</time></trkpt><trkpt lat="43.248785" lon="42.526802"><ele>2097.8</ele><time>2025-08-19T06:59:31Z</time></trkpt><trkpt lat="43.24879" lon="42.526805"><ele>2097.7</ele><time>2025-08-19T06:59:38Z</time></trkpt><trkpt lat="43.24879" lon="42.52681"><ele>2097.2</ele><time>2025-08-19T06:59:50Z</time></trkpt><trkpt lat="43.24879" lon="42.52681"><ele>2097.2</ele><time>2025-08-19T06:59:51Z</time></trkpt><trkpt lat="43.248765" lon="42.526895"><ele>2096.9</ele><time>2025-08-19T07:00:48Z</time></trkpt><trkpt lat="43.248745" lon="42.526945"><ele>2096.8</ele><time>2025-08-19T07:00:55Z</time></trkpt><trkpt lat="43.24871" lon="42.527015"><ele>2097.7</ele><time>2025-08-19T07:01:02Z</time></trkpt><trkpt lat="43.248662" lon="42.527045"><ele>2097.9</ele><time>2025-08-19T07:01:09Z</time></trkpt><trkpt lat="43.2485" lon="42.52724"><ele>2097.5</ele><time>2025-08-19T07:01:33Z</time></trkpt><trkpt lat="43.248455" lon="42.527325"><ele>2098.6</ele><time>2025-08-19T07:01:40Z</time></trkpt><trkpt lat="43.248455" lon="42.52735"><ele>2095.9</ele><time>2025-08-19T07:01:47Z</time></trkpt><trkpt lat="43.24846" lon="42.527345"><ele>2095.9</ele><time>2025-08-19T07:01:53Z</time></trkpt><trkpt lat="43.24846" lon="42.52733"><ele>2097.1</ele><time>2025-08-19T07:02:35Z</time></trkpt><trkpt lat="43.24846" lon="42.52733"><ele>2097.1</ele><time>2025-08-19T07:02:36Z</time></trkpt><trkpt lat="43.248522" lon="42.52733"><ele>2098.6</ele><time>2025-08-19T07:02:47Z</time></trkpt><trkpt lat="43.24869" lon="42.527345"><ele>2095.5</ele><time>2025-08-19T07:03:13Z</time></trkpt><trkpt lat="43.248747" lon="42.5274"><ele>2094.2</ele><time>2025-08-19T07:03:13Z</time></trkpt><trkpt lat="43.248815" lon="42.52743"><ele>2092.7</ele><time>2025-08-19T07:03:17Z</time></trkpt><trkpt lat="43.248892" lon="42.52746"><ele>2094.3</ele><time>2025-08-19T07:03:23Z</time></trkpt><trkpt lat="43.248962" lon="42.52749"><ele>2094.8</ele><time>2025-08-19T07:03:30Z</time></trkpt><trkpt lat="43.24904" lon="42.52753"><ele>2096.7</ele><time>2025-08-19T07:03:37Z</time></trkpt><trkpt lat="43.249112" lon="42.527555"><ele>2101.6</ele><time>2025-08-19T07:03:43Z</time></trkpt><trkpt lat="43.24934" lon="42.527665"><ele>2105.2</ele><time>2025-08-19T07:04:03Z</time></trkpt><trkpt lat="43.249415" lon="42.527665"><ele>2104.2</ele><time>2025-08-19T07:04:09Z</time></trkpt><trkpt lat="43.24947" lon="42.5276"><ele>2105.0</ele><time>2025-08-19T07:04:15Z</time></trkpt><trkpt lat="43.249545" lon="42.527617"><ele>2103.3</ele><time>2025-08-19T07:04:21Z</time></trkpt><trkpt lat="43.249592" lon="42.527705"><ele>2105.2</ele><time>2025-08-19T07:04:27Z</time></trkpt><trkpt lat="43.249652" lon="42.527685"><ele>2103.3</ele><time>2025-08-19T07:04:34Z</time></trkpt><trkpt lat="43.2497" lon="42.527615"><ele>2102.6</ele><time>2025-08-19T07:04:41Z</time></trkpt><trkpt lat="43.249723" lon="42.52753"><ele>2101.7</ele><time>2025-08-19T07:04:48Z</time></trkpt><trkpt lat="43.249755" lon="42.527447"><ele>2099.3</ele><time>2025-08-19T07:04:55Z</time></trkpt><trkpt lat="43.24978" lon="42.527352"><ele>2099.8</ele><time>2025-08-19T07:05:02Z</time></trkpt><trkpt lat="43.2498" lon="42.527255"><ele>2099.6</ele><time>2025-08-19T07:05:09Z</time></trkpt><trkpt lat="43.249802" lon="42.527175"><ele>2100.0</ele><time>2025-08-19T07:05:16Z</time></trkpt><trkpt lat="43.24982" lon="42.52708"><ele>2101.6</ele><time>2025-08-19T07:05:23Z</time></trkpt><trkpt lat="43.249832" lon="42.526985"><ele>2101.8</ele><time>2025-08-19T07:05:30Z</time></trkpt><trkpt lat="43.249847" lon="42.52689"><ele>2101.2</ele><time>2025-08-19T07:05:37Z</time></trkpt><trkpt lat="43.24985" lon="42.526785"><ele>2100.9</ele><time>2025-08-19T07:05:44Z</time></trkpt><trkpt lat="43.249862" lon="42.52669"><ele>2100.4</ele><time>2025-08-19T07:05:51Z</time></trkpt><trkpt lat="43.249878" lon="42.526592"><ele>2101.8</ele><time>2025-08-19T07:05:58Z</time></trkpt><trkpt lat="43.249882" lon="42.526485"><ele>2101.9</ele><time>2025-08-19T07:06:05Z</time></trkpt><trkpt lat="43.249892" lon="42.526382"><ele>2103.2</ele><time>2025-08-19T07:06:12Z</time></trkpt><trkpt lat="43.2499" lon="42.52628"><ele>2104.2</ele><time>2025-08-19T07:06:19Z</time></trkpt><trkpt lat="43.24989" lon="42.526182"><ele>2104.6</ele><time>2025-08-19T07:06:26Z</time></trkpt><trkpt lat="43.249885" lon="42.526075"><ele>2105.5</ele><time>2025-08-19T07:06:33Z</time></trkpt><trkpt lat="43.24986" lon="42.52598"><ele>2105.7</ele><time>2025-08-19T07:06:39Z</time></trkpt><trkpt lat="43.249855" lon="42.525875"><ele>2106.6</ele><time>2025-08-19T07:06:46Z</time></trkpt><trkpt lat="43.249875" lon="42.52579"><ele>2104.7</ele><time>2025-08-19T07:06:53Z</time></trkpt><trkpt lat="43.2499" lon="42.525695"><ele>2104.6</ele><time>2025-08-19T07:07:00Z</time></trkpt><trkpt lat="43.249925" lon="42.525587"><ele>2105.3</ele><time>2025-08-19T07:07:07Z</time></trkpt><trkpt lat="43.24994" lon="42.525485"><ele>2105.9</ele><time>2025-08-19T07:07:13Z</time></trkpt><trkpt lat="43.249945" lon="42.525375"><ele>2105.2</ele><time>2025-08-19T07:07:20Z</time></trkpt><trkpt lat="43.249947" lon="42.52528"><ele>2106.6</ele><time>2025-08-19T07:07:27Z</time></trkpt><trkpt lat="43.24997" lon="42.525188"><ele>2108.1</ele><time>2025-08-19T07:07:34Z</time></trkpt><trkpt lat="43.24997" lon="42.52509"><ele>2107.8</ele><time>2025-08-19T07:07:41Z</time></trkpt><trkpt lat="43.249987" lon="42.525"><ele>2108.2</ele><time>2025-08-19T07:07:48Z</time></trkpt><trkpt lat="43.25" lon="42.52491"><ele>2109.1</ele><time>2025-08-19T07:07:55Z</time></trkpt><trkpt lat="43.250015" lon="42.524815"><ele>2108.2</ele><time>2025-08-19T07:08:02Z</time></trkpt><trkpt lat="43.250032" lon="42.524717"><ele>2107.2</ele><time>2025-08-19T07:08:08Z</time></trkpt><trkpt lat="43.250047" lon="42.524615"><ele>2108.2</ele><time>2025-08-19T07:08:15Z</time></trkpt><trkpt lat="43.25007" lon="42.524535"><ele>2108.0</ele><time>2025-08-19T07:08:22Z</time></trkpt><trkpt lat="43.250075" lon="42.524425"><ele>2108.2</ele><time>2025-08-19T07:08:28Z</time></trkpt><trkpt lat="43.250117" lon="42.524335"><ele>2109.0</ele><time>2025-08-19T07:08:35Z</time></trkpt><trkpt lat="43.250165" lon="42.52424"><ele>2111.5</ele><time>2025-08-19T07:08:42Z</time></trkpt><trkpt lat="43.25021" lon="42.524145"><ele>2111.8</ele><time>2025-08-19T07:08:49Z</time></trkpt><trkpt lat="43.25025" lon="42.524065"><ele>2111.7</ele><time>2025-08-19T07:08:54Z</time></trkpt><trkpt lat="43.250295" lon="42.523977"><ele>2115.4</ele><time>2025-08-19T07:09:01Z</time></trkpt><trkpt lat="43.250305" lon="42.523872"><ele>2113.0</ele><time>2025-08-19T07:09:08Z</time></trkpt><trkpt lat="43.25032" lon="42.5238"><ele>2114.0</ele><time>2025-08-19T07:09:15Z</time></trkpt><trkpt lat="43.25036" lon="42.52372"><ele>2115.4</ele><time>2025-08-19T07:09:22Z</time></trkpt><trkpt lat="43.250412" lon="42.52364"><ele>2115.2</ele><time>2025-08-19T07:09:29Z</time></trkpt><trkpt lat="43.250455" lon="42.52356"><ele>2117.9</ele><time>2025-08-19T07:09:36Z</time></trkpt><trkpt lat="43.25052" lon="42.52349"><ele>2120.1</ele><time>2025-08-19T07:09:42Z</time></trkpt><trkpt lat="43.250695" lon="42.52325"><ele>2123.4</ele><time>2025-08-19T07:10:07Z</time></trkpt><trkpt lat="43.250765" lon="42.52318"><ele>2124.3</ele><time>2025-08-19T07:10:14Z</time></trkpt><trkpt lat="43.250815" lon="42.523097"><ele>2121.1</ele><time>2025-08-19T07:10:20Z</time></trkpt><trkpt lat="43.250862" lon="42.523015"><ele>2120.6</ele><time>2025-08-19T07:10:26Z</time></trkpt><trkpt lat="43.25092" lon="42.522945"><ele>2121.6</ele><time>2025-08-19T07:10:32Z</time></trkpt><trkpt lat="43.25111" lon="42.522677"><ele>2126.7</ele><time>2025-08-19T07:10:57Z</time></trkpt><trkpt lat="43.251152" lon="42.52259"><ele>2121.9</ele><time>2025-08-19T07:11:04Z</time></trkpt><trkpt lat="43.25121" lon="42.522523"><ele>2123.4</ele><time>2025-08-19T07:11:10Z</time></trkpt><trkpt lat="43.25127" lon="42.522443"><ele>2123.4</ele><time>2025-08-19T07:11:16Z</time></trkpt><trkpt lat="43.251317" lon="42.522355"><ele>2123.6</ele><time>2025-08-19T07:11:23Z</time></trkpt><trkpt lat="43.251532" lon="42.52208"><ele>2125.3</ele><time>2025-08-19T07:11:47Z</time></trkpt><trkpt lat="43.2516" lon="42.52202"><ele>2125.5</ele><time>2025-08-19T07:11:54Z</time></trkpt><trkpt lat="43.251635" lon="42.521947"><ele>2124.4</ele><time>2025-08-19T07:12:01Z</time></trkpt><trkpt lat="43.25169" lon="42.521875"><ele>2124.2</ele><time>2025-08-19T07:12:07Z</time></trkpt><trkpt lat="43.251717" lon="42.521785"><ele>2123.6</ele><time>2025-08-19T07:12:14Z</time></trkpt><trkpt lat="43.251957" lon="42.521515"><ele>2125.7</ele><time>2025-08-19T07:12:37Z</time></trkpt><trkpt lat="43.25201" lon="42.521447"><ele>2126.0</ele><time>2025-08-19T07:12:44Z</time></trkpt><trkpt lat="43.252065" lon="42.521388"><ele>2127.8</ele><time>2025-08-19T07:12:51Z</time></trkpt><trkpt lat="43.2521" lon="42.521292"><ele>2126.6</ele><time>2025-08-19T07:12:57Z</time></trkpt><trkpt lat="43.252175" lon="42.521245"><ele>2127.5</ele><time>2025-08-19T07:13:04Z</time></trkpt><trkpt lat="43.252335" lon="42.521005"><ele>2125.7</ele><time>2025-08-19T07:13:27Z</time></trkpt><trkpt lat="43.252382" lon="42.52093"><ele>2124.7</ele><time>2025-08-19T07:13:34Z</time></trkpt><trkpt lat="43.252412" lon="42.520835"><ele>2120.8</ele><time>2025-08-19T07:13:41Z</time></trkpt><trkpt lat="43.252452" lon="42.520752"><ele>2121.2</ele><time>2025-08-19T07:13:46Z</time></trkpt><trkpt lat="43.252515" lon="42.520687"><ele>2122.4</ele><time>2025-08-19T07:13:52Z</time></trkpt><trkpt lat="43.252715" lon="42.520407"><ele>2125.4</ele><time>2025-08-19T07:14:17Z</time></trkpt><trkpt lat="43.252755" lon="42.52031"><ele>2124.8</ele><time>2025-08-19T07:14:23Z</time></trkpt><trkpt lat="43.25282" lon="42.520235"><ele>2125.3</ele><time>2025-08-19T07:14:29Z</time></trkpt><trkpt lat="43.252827" lon="42.520135"><ele>2125.1</ele><time>2025-08-19T07:14:33Z</time></trkpt><trkpt lat="43.252875" lon="42.52007"><ele>2128.2</ele><time>2025-08-19T07:14:40Z</time></trkpt><trkpt lat="43.252945" lon="42.520015"><ele>2129.3</ele><time>2025-08-19T07:14:46Z</time></trkpt><trkpt lat="43.253115" lon="42.519765"><ele>2130.7</ele><time>2025-08-19T07:15:07Z</time></trkpt><trkpt lat="43.253175" lon="42.519685"><ele>2132.0</ele><time>2025-08-19T07:15:13Z</time></trkpt><trkpt lat="43.253205" lon="42.519585"><ele>2130.4</ele><time>2025-08-19T07:15:20Z</time></trkpt><trkpt lat="43.253265" lon="42.519525"><ele>2133.9</ele><time>2025-08-19T07:15:26Z</time></trkpt><trkpt lat="43.253325" lon="42.519455"><ele>2135.2</ele><time>2025-08-19T07:15:32Z</time></trkpt><trkpt lat="43.253462" lon="42.519227"><ele>2136.9</ele><time>2025-08-19T07:15:57Z</time></trkpt><trkpt lat="43.253515" lon="42.519155"><ele>2134.9</ele><time>2025-08-19T07:16:00Z</time></trkpt><trkpt lat="43.253585" lon="42.519112"><ele>2134.5</ele><time>2025-08-19T07:16:07Z</time></trkpt><trkpt lat="43.253647" lon="42.519065"><ele>2137.2</ele><time>2025-08-19T07:16:14Z</time></trkpt><trkpt lat="43.2537" lon="42.519005"><ele>2137.8</ele><time>2025-08-19T07:16:21Z</time></trkpt><trkpt lat="43.253737" lon="42.51894"><ele>2136.9</ele><time>2025-08-19T07:16:28Z</time></trkpt><trkpt lat="43.253785" lon="42.518875"><ele>2136.9</ele><time>2025-08-19T07:16:35Z</time></trkpt><trkpt lat="43.253822" lon="42.51883"><ele>2138.4</ele><time>2025-08-19T07:16:42Z</time></trkpt><trkpt lat="43.253832" lon="42.51881"><ele>2138.5</ele><time>2025-08-19T07:16:49Z</time></trkpt><trkpt lat="43.253895" lon="42.518745"><ele>2138.9</ele><time>2025-08-19T07:16:56Z</time></trkpt><trkpt lat="43.253955" lon="42.518672"><ele>2137.8</ele><time>2025-08-19T07:17:02Z</time></trkpt><trkpt lat="43.254012" lon="42.518605"><ele>2138.5</ele><time>2025-08-19T07:17:08Z</time></trkpt><trkpt lat="43.25407" lon="42.51854"><ele>2139.0</ele><time>2025-08-19T07:17:14Z</time></trkpt><trkpt lat="43.254127" lon="42.518475"><ele>2139.4</ele><time>2025-08-19T07:17:20Z</time></trkpt><trkpt lat="43.254185" lon="42.518405"><ele>2139.8</ele><time>2025-08-19T07:17:26Z</time></trkpt><trkpt lat="43.25424" lon="42.51834"><ele>2140.1</ele><time>2025-08-19T07:17:32Z</time></trkpt><trkpt lat="43.254292" lon="42.518275"><ele>2140.9</ele><time>2025-08-19T07:17:38Z</time></trkpt><trkpt lat="43.254357" lon="42.518202"><ele>2142.4</ele><time>2025-08-19T07:17:45Z</time></trkpt><trkpt lat="43.25441" lon="42.518137"><ele>2143.5</ele><time>2025-08-19T07:17:51Z</time></trkpt><trkpt lat="43.254465" lon="42.51807"><ele>2144.4</ele><time>2025-08-19T07:17:57Z</time></trkpt><trkpt lat="43.25453" lon="42.518"><ele>2145.8</ele><time>2025-08-19T07:18:04Z</time></trkpt><trkpt lat="43.254595" lon="42.517935"><ele>2146.5</ele><time>2025-08-19T07:18:11Z</time></trkpt><trkpt lat="43.254652" lon="42.517865"><ele>2146.6</ele><time>2025-08-19T07:18:17Z</time></trkpt><trkpt lat="43.25471" lon="42.5178"><ele>2147.9</ele><time>2025-08-19T07:18:23Z</time></trkpt><trkpt lat="43.254765" lon="42.517725"><ele>2150.0</ele><time>2025-08-19T07:18:29Z</time></trkpt><trkpt lat="43.254818" lon="42.517657"><ele>2150.0</ele><time>2025-08-19T07:18:35Z</time></trkpt><trkpt lat="43.25504" lon="42.517455"><ele>2152.3</ele><time>2025-08-19T07:19:00Z</time></trkpt><trkpt lat="43.255112" lon="42.51743"><ele>2152.9</ele><time>2025-08-19T07:19:06Z</time></trkpt><trkpt lat="43.25517" lon="42.517372"><ele>2155.6</ele><time>2025-08-19T07:19:12Z</time></trkpt><trkpt lat="43.25522" lon="42.5173"><ele>2154.1</ele><time>2025-08-19T07:19:17Z</time></trkpt><trkpt lat="43.255272" lon="42.517215"><ele>2154.5</ele><time>2025-08-19T07:19:22Z</time></trkpt><trkpt lat="43.25531" lon="42.517122"><ele>2153.7</ele><time>2025-08-19T07:19:27Z</time></trkpt><trkpt lat="43.25536" lon="42.516975"><ele>2153.1</ele><time>2025-08-19T07:19:50Z</time></trkpt><trkpt lat="43.255405" lon="42.516897"><ele>2154.9</ele><time>2025-08-19T07:19:50Z</time></trkpt><trkpt lat="43.255475" lon="42.516847"><ele>2155.5</ele><time>2025-08-19T07:19:56Z</time></trkpt><trkpt lat="43.255525" lon="42.516765"><ele>2154.8</ele><time>2025-08-19T07:20:03Z</time></trkpt><trkpt lat="43.255575" lon="42.516685"><ele>2155.3</ele><time>2025-08-19T07:20:09Z</time></trkpt><trkpt lat="43.255615" lon="42.516602"><ele>2155.2</ele><time>2025-08-19T07:20:15Z</time></trkpt><trkpt lat="43.255765" lon="42.516315"><ele>2153.7</ele><time>2025-08-19T07:20:40Z</time></trkpt><trkpt lat="43.255805" lon="42.516225"><ele>2155.0</ele><time>2025-08-19T07:20:41Z</time></trkpt><trkpt lat="43.255845" lon="42.51616"><ele>2152.8</ele><time>2025-08-19T07:20:48Z</time></trkpt><trkpt lat="43.255915" lon="42.516102"><ele>2153.8</ele><time>2025-08-19T07:20:55Z</time></trkpt><trkpt lat="43.25598" lon="42.51606"><ele>2153.2</ele><time>2025-08-19T07:21:00Z</time></trkpt><trkpt lat="43.256032" lon="42.51598"><ele>2156.9</ele><time>2025-08-19T07:21:06Z</time></trkpt><trkpt lat="43.256235" lon="42.515685"><ele>2158.9</ele><time>2025-08-19T07:21:30Z</time></trkpt><trkpt lat="43.256275" lon="42.515602"><ele>2158.8</ele><time>2025-08-19T07:21:35Z</time></trkpt><trkpt lat="43.256322" lon="42.515517"><ele>2157.0</ele><time>2025-08-19T07:21:42Z</time></trkpt><trkpt lat="43.25632" lon="42.515478"><ele>2156.6</ele><time>2025-08-19T07:21:49Z</time></trkpt><trkpt lat="43.25625" lon="42.51545"><ele>2154.8</ele><time>2025-08-19T07:21:55Z</time></trkpt><trkpt lat="43.256097" lon="42.51527"><ele>2156.2</ele><time>2025-08-19T07:22:20Z</time></trkpt><trkpt lat="43.256097" lon="42.51527"><ele>2156.2</ele><time>2025-08-19T07:22:27Z</time></trkpt><trkpt lat="43.256115" lon="42.51521"><ele>2154.8</ele><time>2025-08-19T07:22:41Z</time></trkpt><trkpt lat="43.25613" lon="42.515175"><ele>2154.9</ele><time>2025-08-19T07:22:48Z</time></trkpt><trkpt lat="43.25613" lon="42.515175"><ele>2154.8</ele><time>2025-08-19T07:22:50Z</time></trkpt><trkpt lat="43.256098" lon="42.515265"><ele>2153.7</ele><time>2025-08-19T07:23:16Z</time></trkpt><trkpt lat="43.2561" lon="42.515272"><ele>2153.7</ele><time>2025-08-19T07:23:22Z</time></trkpt><trkpt lat="43.2561" lon="42.515215"><ele>2156.3</ele><time>2025-08-19T07:23:30Z</time></trkpt><trkpt lat="43.256098" lon="42.515215"><ele>2156.3</ele><time>2025-08-19T07:23:34Z</time></trkpt><trkpt lat="43.256092" lon="42.51522"><ele>2156.9</ele><time>2025-08-19T07:24:11Z</time></trkpt><trkpt lat="43.256092" lon="42.51522"><ele>2156.8</ele><time>2025-08-19T07:24:12Z</time></trkpt><trkpt lat="43.256" lon="42.515247"><ele>2164.2</ele><time>2025-08-19T07:24:53Z</time></trkpt><trkpt lat="43.256035" lon="42.51523"><ele>2163.0</ele><time>2025-08-19T07:25:00Z</time></trkpt><trkpt lat="43.25607" lon="42.515323"><ele>2163.6</ele><time>2025-08-19T07:25:06Z</time></trkpt><trkpt lat="43.256117" lon="42.515407"><ele>2161.9</ele><time>2025-08-19T07:25:12Z</time></trkpt><trkpt lat="43.25618" lon="42.51547"><ele>2158.7</ele><time>2025-08-19T07:25:19Z</time></trkpt><trkpt lat="43.256235" lon="42.515537"><ele>2157.0</ele><time>2025-08-19T07:25:26Z</time></trkpt><trkpt lat="43.256305" lon="42.515532"><ele>2156.9</ele><time>2025-08-19T07:25:33Z</time></trkpt><trkpt lat="43.25634" lon="42.515435"><ele>2155.7</ele><time>2025-08-19T07:25:38Z</time></trkpt><trkpt lat="43.256382" lon="42.515338"><ele>2156.3</ele><time>2025-08-19T07:25:44Z</time></trkpt><trkpt lat="43.256455" lon="42.515285"><ele>2155.4</ele><time>2025-08-19T07:25:50Z</time></trkpt><trkpt lat="43.25651" lon="42.51522"><ele>2155.8</ele><time>2025-08-19T07:25:57Z</time></trkpt><trkpt lat="43.25657" lon="42.515135"><ele>2159.1</ele><time>2025-08-19T07:26:04Z</time></trkpt><trkpt lat="43.25664" lon="42.515075"><ele>2158.9</ele><time>2025-08-19T07:26:09Z</time></trkpt><trkpt lat="43.256685" lon="42.514992"><ele>2157.0</ele><time>2025-08-19T07:26:15Z</time></trkpt><trkpt lat="43.25674" lon="42.514925"><ele>2159.1</ele><time>2025-08-19T07:26:22Z</time></trkpt><trkpt lat="43.256788" lon="42.514845"><ele>2159.3</ele><time>2025-08-19T07:26:28Z</time></trkpt><trkpt lat="43.25682" lon="42.514745"><ele>2160.3</ele><time>2025-08-19T07:26:34Z</time></trkpt><trkpt lat="43.25685" lon="42.514655"><ele>2160.5</ele><time>2025-08-19T07:26:40Z</time></trkpt><trkpt lat="43.25687" lon="42.51456"><ele>2161.4</ele><time>2025-08-19T07:26:47Z</time></trkpt><trkpt lat="43.25691" lon="42.514465"><ele>2162.1</ele><time>2025-08-19T07:26:53Z</time></trkpt><trkpt lat="43.256925" lon="42.514365"><ele>2162.5</ele><time>2025-08-19T07:27:00Z</time></trkpt><trkpt lat="43.256975" lon="42.514285"><ele>2168.9</ele><time>2025-08-19T07:27:05Z</time></trkpt><trkpt lat="43.257025" lon="42.51421"><ele>2165.6</ele><time>2025-08-19T07:27:10Z</time></trkpt><trkpt lat="43.25706" lon="42.51412"><ele>2165.9</ele><time>2025-08-19T07:27:16Z</time></trkpt><trkpt lat="43.257045" lon="42.514107"><ele>2165.7</ele><time>2025-08-19T07:27:23Z</time></trkpt><trkpt lat="43.257045" lon="42.514107"><ele>2165.7</ele><time>2025-08-19T07:27:24Z</time></trkpt><trkpt lat="43.25704" lon="42.51411"><ele>2165.2</ele><time>2025-08-19T07:27:45Z</time></trkpt><trkpt lat="43.257045" lon="42.51411"><ele>2165.5</ele><time>2025-08-19T07:27:46Z</time></trkpt><trkpt lat="43.25716" lon="42.513787"><ele>2170.0</ele><time>2025-08-19T07:28:12Z</time></trkpt><trkpt lat="43.257175" lon="42.51369"><ele>2171.7</ele><time>2025-08-19T07:28:18Z</time></trkpt><trkpt lat="43.257195" lon="42.513585"><ele>2172.0</ele><time>2025-08-19T07:28:24Z</time></trkpt><trkpt lat="43.257242" lon="42.5135"><ele>2172.3</ele><time>2025-08-19T07:28:31Z</time></trkpt><trkpt lat="43.25727" lon="42.513395"><ele>2173.0</ele><time>2025-08-19T07:28:37Z</time></trkpt><trkpt lat="43.257305" lon="42.5133"><ele>2173.4</ele><time>2025-08-19T07:28:43Z</time></trkpt><trkpt lat="43.257317" lon="42.51319"><ele>2173.9</ele><time>2025-08-19T07:28:49Z</time></trkpt><trkpt lat="43.257337" lon="42.513085"><ele>2175.0</ele><time>2025-08-19T07:28:55Z</time></trkpt><trkpt lat="43.257365" lon="42.512985"><ele>2175.9</ele><time>2025-08-19T07:29:01Z</time></trkpt><trkpt lat="43.257377" lon="42.512885"><ele>2176.4</ele><time>2025-08-19T07:29:07Z</time></trkpt><trkpt lat="43.257392" lon="42.51278"><ele>2176.4</ele><time>2025-08-19T07:29:13Z</time></trkpt><trkpt lat="43.257402" lon="42.51267"><ele>2177.0</ele><time>2025-08-19T07:29:19Z</time></trkpt><trkpt lat="43.2574" lon="42.51256"><ele>2177.7</ele><time>2025-08-19T07:29:25Z</time></trkpt><trkpt lat="43.257445" lon="42.512475"><ele>2177.7</ele><time>2025-08-19T07:29:31Z</time></trkpt><trkpt lat="43.25747" lon="42.512368"><ele>2178.7</ele><time>2025-08-19T07:29:37Z</time></trkpt><trkpt lat="43.25749" lon="42.512255"><ele>2179.6</ele><time>2025-08-19T07:29:43Z</time></trkpt><trkpt lat="43.257505" lon="42.512157"><ele>2180.1</ele><time>2025-08-19T07:29:48Z</time></trkpt><trkpt lat="43.257525" lon="42.512047"><ele>2180.2</ele><time>2025-08-19T07:29:54Z</time></trkpt><trkpt lat="43.257532" lon="42.511945"><ele>2180.5</ele><time>2025-08-19T07:30:00Z</time></trkpt><trkpt lat="43.257455" lon="42.5119"><ele>2180.2</ele><time>2025-08-19T07:30:06Z</time></trkpt><trkpt lat="43.257373" lon="42.511875"><ele>2180.4</ele><time>2025-08-19T07:30:12Z</time></trkpt><trkpt lat="43.2573" lon="42.511845"><ele>2179.8</ele><time>2025-08-19T07:30:18Z</time></trkpt><trkpt lat="43.25722" lon="42.5118"><ele>2179.8</ele><time>2025-08-19T07:30:24Z</time></trkpt><trkpt lat="43.257145" lon="42.511747"><ele>2180.4</ele><time>2025-08-19T07:30:30Z</time></trkpt><trkpt lat="43.257065" lon="42.51172"><ele>2180.9</ele><time>2025-08-19T07:30:36Z</time></trkpt><trkpt lat="43.256985" lon="42.511677"><ele>2181.0</ele><time>2025-08-19T07:30:42Z</time></trkpt><trkpt lat="43.256912" lon="42.51164"><ele>2181.7</ele><time>2025-08-19T07:30:48Z</time></trkpt><trkpt lat="43.256837" lon="42.511603"><ele>2181.4</ele><time>2025-08-19T07:30:54Z</time></trkpt><trkpt lat="43.25676" lon="42.51163"><ele>2180.7</ele><time>2025-08-19T07:31:00Z</time></trkpt><trkpt lat="43.25669" lon="42.511687"><ele>2180.0</ele><time>2025-08-19T07:31:06Z</time></trkpt><trkpt lat="43.256632" lon="42.511752"><ele>2179.2</ele><time>2025-08-19T07:31:11Z</time></trkpt><trkpt lat="43.256585" lon="42.511845"><ele>2178.7</ele><time>2025-08-19T07:31:17Z</time></trkpt><trkpt lat="43.256525" lon="42.511913"><ele>2178.6</ele><time>2025-08-19T07:31:23Z</time></trkpt><trkpt lat="43.256467" lon="42.511995"><ele>2178.8</ele><time>2025-08-19T07:31:29Z</time></trkpt><trkpt lat="43.256415" lon="42.512072"><ele>2178.5</ele><time>2025-08-19T07:31:35Z</time></trkpt><trkpt lat="43.256365" lon="42.51217"><ele>2178.0</ele><time>2025-08-19T07:31:41Z</time></trkpt><trkpt lat="43.25631" lon="42.51225"><ele>2177.6</ele><time>2025-08-19T07:31:47Z</time></trkpt><trkpt lat="43.256245" lon="42.512305"><ele>2177.1</ele><time>2025-08-19T07:31:53Z</time></trkpt><trkpt lat="43.256162" lon="42.512305"><ele>2177.0</ele><time>2025-08-19T07:31:59Z</time></trkpt><trkpt lat="43.256085" lon="42.5123"><ele>2176.3</ele><time>2025-08-19T07:32:05Z</time></trkpt><trkpt lat="43.255997" lon="42.51229"><ele>2176.4</ele><time>2025-08-19T07:32:11Z</time></trkpt><trkpt lat="43.255752" lon="42.512085"><ele>2178.6</ele><time>2025-08-19T07:32:32Z</time></trkpt><trkpt lat="43.255685" lon="42.512025"><ele>2177.7</ele><time>2025-08-19T07:32:38Z</time></trkpt><trkpt lat="43.25562" lon="42.51196"><ele>2177.5</ele><time>2025-08-19T07:32:44Z</time></trkpt><trkpt lat="43.255557" lon="42.511897"><ele>2176.9</ele><time>2025-08-19T07:32:50Z</time></trkpt><trkpt lat="43.255497" lon="42.51184"><ele>2175.8</ele><time>2025-08-19T07:32:55Z</time></trkpt><trkpt lat="43.255435" lon="42.511785"><ele>2175.3</ele><time>2025-08-19T07:33:00Z</time></trkpt><trkpt lat="43.255215" lon="42.51164"><ele>2174.4</ele><time>2025-08-19T07:33:22Z</time></trkpt><trkpt lat="43.255155" lon="42.511725"><ele>2173.2</ele><time>2025-08-19T07:33:24Z</time></trkpt><trkpt lat="43.2551" lon="42.51179"><ele>2173.6</ele><time>2025-08-19T07:33:29Z</time></trkpt><trkpt lat="43.255035" lon="42.511855"><ele>2172.5</ele><time>2025-08-19T07:33:35Z</time></trkpt><trkpt lat="43.25497" lon="42.51191"><ele>2172.9</ele><time>2025-08-19T07:33:41Z</time></trkpt><trkpt lat="43.254895" lon="42.511955"><ele>2172.1</ele><time>2025-08-19T07:33:47Z</time></trkpt><trkpt lat="43.254602" lon="42.512072"><ele>2170.3</ele><time>2025-08-19T07:34:12Z</time></trkpt><trkpt lat="43.254525" lon="42.512045"><ele>2170.8</ele><time>2025-08-19T07:34:18Z</time></trkpt><trkpt lat="43.25445" lon="42.511988"><ele>2172.2</ele><time>2025-08-19T07:34:24Z</time></trkpt><trkpt lat="43.25438" lon="42.511935"><ele>2174.1</ele><time>2025-08-19T07:34:30Z</time></trkpt><trkpt lat="43.254315" lon="42.511865"><ele>2174.3</ele><time>2025-08-19T07:34:36Z</time></trkpt><trkpt lat="43.25426" lon="42.51179"><ele>2174.2</ele><time>2025-08-19T07:34:42Z</time></trkpt><trkpt lat="43.254213" lon="42.51148"><ele>2174.1</ele><time>2025-08-19T07:35:02Z</time></trkpt><trkpt lat="43.254225" lon="42.511375"><ele>2173.1</ele><time>2025-08-19T07:35:08Z</time></trkpt><trkpt lat="43.254272" lon="42.51128"><ele>2172.5</ele><time>2025-08-19T07:35:14Z</time></trkpt><trkpt lat="43.254335" lon="42.511212"><ele>2172.8</ele><time>2025-08-19T07:35:20Z</time></trkpt><trkpt lat="43.254405" lon="42.511165"><ele>2173.3</ele><time>2025-08-19T07:35:27Z</time></trkpt><trkpt lat="43.25456" lon="42.510835"><ele>2173.8</ele><time>2025-08-19T07:35:52Z</time></trkpt><trkpt lat="43.25456" lon="42.510725"><ele>2176.3</ele><time>2025-08-19T07:35:58Z</time></trkpt><trkpt lat="43.25452" lon="42.510637"><ele>2178.7</ele><time>2025-08-19T07:36:04Z</time></trkpt><trkpt lat="43.254455" lon="42.51058"><ele>2178.0</ele><time>2025-08-19T07:36:10Z</time></trkpt><trkpt lat="43.254395" lon="42.51056"><ele>2177.5</ele><time>2025-08-19T07:36:17Z</time></trkpt><trkpt lat="43.254348" lon="42.51052"><ele>2176.2</ele><time>2025-08-19T07:36:28Z</time></trkpt><trkpt lat="43.254347" lon="42.51052"><ele>2176.3</ele><time>2025-08-19T07:36:34Z</time></trkpt><trkpt lat="43.254345" lon="42.51051"><ele>2176.6</ele><time>2025-08-19T07:36:57Z</time></trkpt><trkpt lat="43.254345" lon="42.51051"><ele>2176.8</ele><time>2025-08-19T07:36:58Z</time></trkpt><trkpt lat="43.254353" lon="42.51048"><ele>2176.6</ele><time>2025-08-19T07:37:07Z</time></trkpt><trkpt lat="43.25436" lon="42.510495"><ele>2177.2</ele><time>2025-08-19T07:37:14Z</time></trkpt><trkpt lat="43.25436" lon="42.5105"><ele>2177.0</ele><time>2025-08-19T07:37:15Z</time></trkpt><trkpt lat="43.254275" lon="42.510545"><ele>2174.4</ele><time>2025-08-19T07:37:23Z</time></trkpt><trkpt lat="43.254277" lon="42.510607"><ele>2174.1</ele><time>2025-08-19T07:37:30Z</time></trkpt><trkpt lat="43.25445" lon="42.510552"><ele>2166.6</ele><time>2025-08-19T07:37:40Z</time></trkpt><trkpt lat="43.25445" lon="42.510552"><ele>2166.5</ele><time>2025-08-19T07:37:47Z</time></trkpt><trkpt lat="43.25441" lon="42.510515"><ele>2164.8</ele><time>2025-08-19T07:37:54Z</time></trkpt></trkseg></trk></gpx>