<?xml version="1.0" encoding="UTF-8" standalone="no"?><gpx xmlns="http://www.topografix.com/GPX/1/1" xmlns:gpxtpx="http://www.garmin.com/xmlschemas/TrackPointExtension/v1" xmlns:xsi="http://www.w3.org/2001/XMLSchema-instance" creator="Sports Tracker" version="1.1" xsi:schemaLocation="http://www.topografix.com/GPX/1/1 http://www.topografix.com/GPX/1/1/gpx.xsd http://www.garmin.com/xmlschemas/TrackPointExtension/v1 http://www.garmin.com/xmlschemas/TrackPointExtensionv1.xsd"><metadata><name/><desc/><author><name>Александр</name></author></metadata><trk><name/><trkseg><trkpt lat="58.058718" lon="38.807758"><ele>103.0</ele><time>2023-10-26T12:49:32Z</time></trkpt><trkpt lat="58.058572" lon="38.807515"><ele>105.0</ele><time>2023-10-26T12:49:39Z</time></trkpt><trkpt lat="58.058428" lon="38.807402"><ele>105.0</ele><time>2023-10-26T12:49:44Z</time></trkpt><trkpt lat="58.058532" lon="38.807703"><ele>105.0</ele><time>2023-10-26T12:49:45Z</time></trkpt><trkpt lat="58.05856" lon="38.807947"><ele>105.0</ele><time>2023-10-26T12:49:52Z</time></trkpt><trkpt lat="58.058542" lon="38.808215"><ele>105.0</ele><time>2023-10-26T12:49:58Z</time></trkpt><trkpt lat="58.058617" lon="38.808168"><ele>106.0</ele><time>2023-10-26T12:50:04Z</time></trkpt><trkpt lat="58.058525" lon="38.808482"><ele>106.0</ele><time>2023-10-26T12:50:11Z</time></trkpt><trkpt lat="58.05798" lon="38.808922"><ele>106.0</ele><time>2023-10-26T12:50:17Z</time></trkpt><trkpt lat="58.057418" lon="38.808987"><ele>106.0</ele><time>2023-10-26T12:50:24Z</time></trkpt><trkpt lat="58.057315" lon="38.809062"><ele>105.0</ele><time>2023-10-26T12:50:31Z</time></trkpt><trkpt lat="58.057235" lon="38.809203"><ele>108.0</ele><time>2023-10-26T12:50:33Z</time></trkpt><trkpt lat="58.057175" lon="38.80929"><ele>109.0</ele><time>2023-10-26T12:50:35Z</time></trkpt><trkpt lat="58.0571" lon="38.80937"><ele>110.0</ele><time>2023-10-26T12:50:38Z</time></trkpt><trkpt lat="58.057062" lon="38.809523"><ele>110.0</ele><time>2023-10-26T12:50:40Z</time></trkpt><trkpt lat="58.057022" lon="38.809692"><ele>109.0</ele><time>2023-10-26T12:50:42Z</time></trkpt><trkpt lat="58.056948" lon="38.809802"><ele>109.0</ele><time>2023-10-26T12:50:44Z</time></trkpt><trkpt lat="58.056865" lon="38.809843"><ele>108.0</ele><time>2023-10-26T12:50:46Z</time></trkpt><trkpt lat="58.056788" lon="38.809895"><ele>108.0</ele><time>2023-10-26T12:50:49Z</time></trkpt><trkpt lat="58.056783" lon="38.810078"><ele>108.0</ele><time>2023-10-26T12:50:52Z</time></trkpt><trkpt lat="58.056773" lon="38.81023"><ele>108.0</ele><time>2023-10-26T12:50:54Z</time></trkpt><trkpt lat="58.056752" lon="38.81039"><ele>108.0</ele><time>2023-10-26T12:50:56Z</time></trkpt><trkpt lat="58.05678" lon="38.810528"><ele>108.0</ele><time>2023-10-26T12:50:59Z</time></trkpt><trkpt lat="58.056767" lon="38.810707"><ele>107.0</ele><time>2023-10-26T12:51:02Z</time></trkpt><trkpt lat="58.05675" lon="38.810842"><ele>107.0</ele><time>2023-10-26T12:51:07Z</time></trkpt><trkpt lat="58.056667" lon="38.810877"><ele>107.0</ele><time>2023-10-26T12:51:11Z</time></trkpt><trkpt lat="58.056565" lon="38.810885"><ele>106.0</ele><time>2023-10-26T12:51:14Z</time></trkpt><trkpt lat="58.056483" lon="38.810907"><ele>106.0</ele><time>2023-10-26T12:51:16Z</time></trkpt><trkpt lat="58.056403" lon="38.810913"><ele>106.0</ele><time>2023-10-26T12:51:17Z</time></trkpt><trkpt lat="58.056255" lon="38.810935"><ele>106.0</ele><time>2023-10-26T12:51:19Z</time></trkpt><trkpt lat="58.056143" lon="38.810927"><ele>106.0</ele><time>2023-10-26T12:51:21Z</time></trkpt><trkpt lat="58.056062" lon="38.810993"><ele>105.0</ele><time>2023-10-26T12:51:24Z</time></trkpt><trkpt lat="58.056012" lon="38.81109"><ele>105.0</ele><time>2023-10-26T12:51:26Z</time></trkpt><trkpt lat="58.055997" lon="38.811298"><ele>105.0</ele><time>2023-10-26T12:51:29Z</time></trkpt><trkpt lat="58.055992" lon="38.81149"><ele>104.0</ele><time>2023-10-26T12:51:31Z</time></trkpt><trkpt lat="58.055978" lon="38.811648"><ele>104.0</ele><time>2023-10-26T12:51:33Z</time></trkpt><trkpt lat="58.055972" lon="38.8118"><ele>105.0</ele><time>2023-10-26T12:51:35Z</time></trkpt><trkpt lat="58.055957" lon="38.81199"><ele>106.0</ele><time>2023-10-26T12:51:37Z</time></trkpt><trkpt lat="58.05594" lon="38.812132"><ele>105.0</ele><time>2023-10-26T12:51:39Z</time></trkpt><trkpt lat="58.05593" lon="38.812287"><ele>104.0</ele><time>2023-10-26T12:51:41Z</time></trkpt><trkpt lat="58.05592" lon="38.81246"><ele>104.0</ele><time>2023-10-26T12:51:43Z</time></trkpt><trkpt lat="58.055927" lon="38.812683"><ele>105.0</ele><time>2023-10-26T12:51:45Z</time></trkpt><trkpt lat="58.055915" lon="38.812892"><ele>105.0</ele><time>2023-10-26T12:51:47Z</time></trkpt><trkpt lat="58.05589" lon="38.813077"><ele>103.0</ele><time>2023-10-26T12:51:49Z</time></trkpt><trkpt lat="58.05587" lon="38.81327"><ele>103.0</ele><time>2023-10-26T12:51:51Z</time></trkpt><trkpt lat="58.055878" lon="38.813513"><ele>103.0</ele><time>2023-10-26T12:51:53Z</time></trkpt><trkpt lat="58.05587" lon="38.813765"><ele>103.0</ele><time>2023-10-26T12:51:55Z</time></trkpt><trkpt lat="58.055852" lon="38.814005"><ele>104.0</ele><time>2023-10-26T12:51:57Z</time></trkpt><trkpt lat="58.055847" lon="38.814217"><ele>105.0</ele><time>2023-10-26T12:51:59Z</time></trkpt><trkpt lat="58.055817" lon="38.814367"><ele>104.0</ele><time>2023-10-26T12:52:01Z</time></trkpt><trkpt lat="58.055802" lon="38.814528"><ele>104.0</ele><time>2023-10-26T12:52:03Z</time></trkpt><trkpt lat="58.055777" lon="38.814727"><ele>104.0</ele><time>2023-10-26T12:52:05Z</time></trkpt><trkpt lat="58.055752" lon="38.814887"><ele>103.0</ele><time>2023-10-26T12:52:07Z</time></trkpt><trkpt lat="58.055735" lon="38.815023"><ele>103.0</ele><time>2023-10-26T12:52:09Z</time></trkpt><trkpt lat="58.055722" lon="38.815158"><ele>103.0</ele><time>2023-10-26T12:52:10Z</time></trkpt><trkpt lat="58.055653" lon="38.815335"><ele>102.0</ele><time>2023-10-26T12:52:12Z</time></trkpt><trkpt lat="58.05557" lon="38.815537"><ele>103.0</ele><time>2023-10-26T12:52:14Z</time></trkpt><trkpt lat="58.055507" lon="38.815698"><ele>104.0</ele><time>2023-10-26T12:52:16Z</time></trkpt><trkpt lat="58.055433" lon="38.815848"><ele>104.0</ele><time>2023-10-26T12:52:18Z</time></trkpt><trkpt lat="58.055373" lon="38.815975"><ele>105.0</ele><time>2023-10-26T12:52:20Z</time></trkpt><trkpt lat="58.055327" lon="38.816087"><ele>105.0</ele><time>2023-10-26T12:52:22Z</time></trkpt><trkpt lat="58.055318" lon="38.816223"><ele>105.0</ele><time>2023-10-26T12:52:25Z</time></trkpt><trkpt lat="58.055248" lon="38.816288"><ele>104.0</ele><time>2023-10-26T12:52:30Z</time></trkpt><trkpt lat="58.055148" lon="38.816285"><ele>104.0</ele><time>2023-10-26T12:52:33Z</time></trkpt><trkpt lat="58.055062" lon="38.81626"><ele>104.0</ele><time>2023-10-26T12:52:35Z</time></trkpt><trkpt lat="58.054978" lon="38.816305"><ele>104.0</ele><time>2023-10-26T12:52:38Z</time></trkpt><trkpt lat="58.054958" lon="38.816435"><ele>105.0</ele><time>2023-10-26T12:52:40Z</time></trkpt><trkpt lat="58.054955" lon="38.816593"><ele>105.0</ele><time>2023-10-26T12:52:42Z</time></trkpt><trkpt lat="58.054952" lon="38.816757"><ele>104.0</ele><time>2023-10-26T12:52:44Z</time></trkpt><trkpt lat="58.054948" lon="38.816905"><ele>104.0</ele><time>2023-10-26T12:52:46Z</time></trkpt><trkpt lat="58.054947" lon="38.817065"><ele>104.0</ele><time>2023-10-26T12:52:48Z</time></trkpt><trkpt lat="58.05494" lon="38.817288"><ele>103.0</ele><time>2023-10-26T12:52:50Z</time></trkpt><trkpt lat="58.054937" lon="38.817497"><ele>103.0</ele><time>2023-10-26T12:52:52Z</time></trkpt><trkpt lat="58.054927" lon="38.817663"><ele>103.0</ele><time>2023-10-26T12:52:54Z</time></trkpt><trkpt lat="58.054918" lon="38.81785"><ele>102.0</ele><time>2023-10-26T12:52:56Z</time></trkpt><trkpt lat="58.054915" lon="38.818025"><ele>101.0</ele><time>2023-10-26T12:52:58Z</time></trkpt><trkpt lat="58.054888" lon="38.818177"><ele>101.0</ele><time>2023-10-26T12:53:00Z</time></trkpt><trkpt lat="58.054883" lon="38.818315"><ele>101.0</ele><time>2023-10-26T12:53:02Z</time></trkpt><trkpt lat="58.054883" lon="38.81847"><ele>101.0</ele><time>2023-10-26T12:53:04Z</time></trkpt><trkpt lat="58.054882" lon="38.818672"><ele>101.0</ele><time>2023-10-26T12:53:06Z</time></trkpt><trkpt lat="58.054873" lon="38.818838"><ele>101.0</ele><time>2023-10-26T12:53:08Z</time></trkpt><trkpt lat="58.054845" lon="38.81904"><ele>101.0</ele><time>2023-10-26T12:53:10Z</time></trkpt><trkpt lat="58.054823" lon="38.819182"><ele>101.0</ele><time>2023-10-26T12:53:12Z</time></trkpt><trkpt lat="58.054818" lon="38.819357"><ele>101.0</ele><time>2023-10-26T12:53:14Z</time></trkpt><trkpt lat="58.05481" lon="38.819507"><ele>101.0</ele><time>2023-10-26T12:53:16Z</time></trkpt><trkpt lat="58.054805" lon="38.81971"><ele>101.0</ele><time>2023-10-26T12:53:19Z</time></trkpt><trkpt lat="58.05479" lon="38.819847"><ele>100.0</ele><time>2023-10-26T12:53:21Z</time></trkpt><trkpt lat="58.054767" lon="38.82004"><ele>100.0</ele><time>2023-10-26T12:53:23Z</time></trkpt><trkpt lat="58.054775" lon="38.820222"><ele>100.0</ele><time>2023-10-26T12:53:24Z</time></trkpt><trkpt lat="58.054778" lon="38.82043"><ele>101.0</ele><time>2023-10-26T12:53:26Z</time></trkpt><trkpt lat="58.054767" lon="38.820617"><ele>101.0</ele><time>2023-10-26T12:53:28Z</time></trkpt><trkpt lat="58.054748" lon="38.820792"><ele>100.0</ele><time>2023-10-26T12:53:30Z</time></trkpt><trkpt lat="58.054735" lon="38.82098"><ele>100.0</ele><time>2023-10-26T12:53:32Z</time></trkpt><trkpt lat="58.054727" lon="38.821172"><ele>101.0</ele><time>2023-10-26T12:53:34Z</time></trkpt><trkpt lat="58.054712" lon="38.821347"><ele>101.0</ele><time>2023-10-26T12:53:36Z</time></trkpt><trkpt lat="58.054702" lon="38.821515"><ele>101.0</ele><time>2023-10-26T12:53:38Z</time></trkpt><trkpt lat="58.054682" lon="38.821672"><ele>101.0</ele><time>2023-10-26T12:53:40Z</time></trkpt><trkpt lat="58.054647" lon="38.821825"><ele>101.0</ele><time>2023-10-26T12:53:42Z</time></trkpt><trkpt lat="58.054622" lon="38.822002"><ele>101.0</ele><time>2023-10-26T12:53:45Z</time></trkpt><trkpt lat="58.054588" lon="38.822173"><ele>101.0</ele><time>2023-10-26T12:53:47Z</time></trkpt><trkpt lat="58.054552" lon="38.822305"><ele>100.0</ele><time>2023-10-26T12:53:49Z</time></trkpt><trkpt lat="58.054528" lon="38.822443"><ele>100.0</ele><time>2023-10-26T12:53:51Z</time></trkpt><trkpt lat="58.054502" lon="38.82259"><ele>100.0</ele><time>2023-10-26T12:53:53Z</time></trkpt><trkpt lat="58.05446" lon="38.822738"><ele>100.0</ele><time>2023-10-26T12:53:55Z</time></trkpt><trkpt lat="58.054438" lon="38.822887"><ele>100.0</ele><time>2023-10-26T12:53:57Z</time></trkpt><trkpt lat="58.054408" lon="38.82303"><ele>100.0</ele><time>2023-10-26T12:53:59Z</time></trkpt><trkpt lat="58.054387" lon="38.82317"><ele>100.0</ele><time>2023-10-26T12:54:01Z</time></trkpt><trkpt lat="58.054358" lon="38.823322"><ele>100.0</ele><time>2023-10-26T12:54:03Z</time></trkpt><trkpt lat="58.054335" lon="38.823477"><ele>100.0</ele><time>2023-10-26T12:54:05Z</time></trkpt><trkpt lat="58.054285" lon="38.823648"><ele>99.0</ele><time>2023-10-26T12:54:08Z</time></trkpt><trkpt lat="58.054232" lon="38.82375"><ele>99.0</ele><time>2023-10-26T12:54:10Z</time></trkpt><trkpt lat="58.054172" lon="38.823872"><ele>99.0</ele><time>2023-10-26T12:54:12Z</time></trkpt><trkpt lat="58.054158" lon="38.82409"><ele>99.0</ele><time>2023-10-26T12:54:14Z</time></trkpt><trkpt lat="58.054145" lon="38.824295"><ele>101.0</ele><time>2023-10-26T12:54:16Z</time></trkpt><trkpt lat="58.05414" lon="38.824465"><ele>101.0</ele><time>2023-10-26T12:54:18Z</time></trkpt><trkpt lat="58.054092" lon="38.824625"><ele>101.0</ele><time>2023-10-26T12:54:20Z</time></trkpt><trkpt lat="58.054063" lon="38.824815"><ele>101.0</ele><time>2023-10-26T12:54:23Z</time></trkpt><trkpt lat="58.054023" lon="38.82495"><ele>101.0</ele><time>2023-10-26T12:54:25Z</time></trkpt><trkpt lat="58.05399" lon="38.82511"><ele>101.0</ele><time>2023-10-26T12:54:27Z</time></trkpt><trkpt lat="58.053955" lon="38.825242"><ele>101.0</ele><time>2023-10-26T12:54:29Z</time></trkpt><trkpt lat="58.053932" lon="38.825382"><ele>101.0</ele><time>2023-10-26T12:54:31Z</time></trkpt><trkpt lat="58.053927" lon="38.825527"><ele>101.0</ele><time>2023-10-26T12:54:33Z</time></trkpt><trkpt lat="58.053913" lon="38.825678"><ele>102.0</ele><time>2023-10-26T12:54:35Z</time></trkpt><trkpt lat="58.053895" lon="38.825827"><ele>102.0</ele><time>2023-10-26T12:54:37Z</time></trkpt><trkpt lat="58.053877" lon="38.825977"><ele>103.0</ele><time>2023-10-26T12:54:39Z</time></trkpt><trkpt lat="58.053852" lon="38.826115"><ele>103.0</ele><time>2023-10-26T12:54:41Z</time></trkpt><trkpt lat="58.05378" lon="38.826252"><ele>104.0</ele><time>2023-10-26T12:54:44Z</time></trkpt><trkpt lat="58.053725" lon="38.826375"><ele>101.0</ele><time>2023-10-26T12:55:31Z</time></trkpt><trkpt lat="58.05369" lon="38.826523"><ele>101.0</ele><time>2023-10-26T12:55:33Z</time></trkpt><trkpt lat="58.053635" lon="38.826613"><ele>101.0</ele><time>2023-10-26T12:55:35Z</time></trkpt><trkpt lat="58.053542" lon="38.826518"><ele>100.0</ele><time>2023-10-26T12:55:38Z</time></trkpt><trkpt lat="58.053475" lon="38.82644"><ele>100.0</ele><time>2023-10-26T12:55:40Z</time></trkpt><trkpt lat="58.053373" lon="38.826377"><ele>100.0</ele><time>2023-10-26T12:55:42Z</time></trkpt><trkpt lat="58.053277" lon="38.826317"><ele>100.0</ele><time>2023-10-26T12:55:44Z</time></trkpt><trkpt lat="58.05319" lon="38.826268"><ele>101.0</ele><time>2023-10-26T12:55:46Z</time></trkpt><trkpt lat="58.053093" lon="38.82624"><ele>99.0</ele><time>2023-10-26T12:55:49Z</time></trkpt><trkpt lat="58.053017" lon="38.826192"><ele>100.0</ele><time>2023-10-26T12:55:52Z</time></trkpt><trkpt lat="58.052932" lon="38.8261"><ele>99.0</ele><time>2023-10-26T12:55:55Z</time></trkpt><trkpt lat="58.052858" lon="38.826057"><ele>99.0</ele><time>2023-10-26T12:55:57Z</time></trkpt><trkpt lat="58.052762" lon="38.826045"><ele>99.0</ele><time>2023-10-26T12:56:00Z</time></trkpt><trkpt lat="58.05268" lon="38.826047"><ele>99.0</ele><time>2023-10-26T12:56:05Z</time></trkpt><trkpt lat="58.052607" lon="38.826045"><ele>99.0</ele><time>2023-10-26T12:56:10Z</time></trkpt><trkpt lat="58.052557" lon="38.82616"><ele>99.0</ele><time>2023-10-26T12:56:16Z</time></trkpt><trkpt lat="58.052537" lon="38.8263"><ele>99.0</ele><time>2023-10-26T12:56:22Z</time></trkpt><trkpt lat="58.048057" lon="38.8225"><ele>110.0</ele><time>2023-10-26T15:23:10Z</time></trkpt><trkpt lat="58.048128" lon="38.822565"><ele>109.0</ele><time>2023-10-26T15:23:12Z</time></trkpt><trkpt lat="58.048203" lon="38.822518"><ele>110.0</ele><time>2023-10-26T15:23:15Z</time></trkpt><trkpt lat="58.048273" lon="38.822395"><ele>109.0</ele><time>2023-10-26T15:23:18Z</time></trkpt><trkpt lat="58.048348" lon="38.822323"><ele>107.0</ele><time>2023-10-26T15:23:21Z</time></trkpt><trkpt lat="58.048433" lon="38.822235"><ele>107.0</ele><time>2023-10-26T15:23:24Z</time></trkpt><trkpt lat="58.048508" lon="38.822115"><ele>107.0</ele><time>2023-10-26T15:23:26Z</time></trkpt><trkpt lat="58.048607" lon="38.821965"><ele>108.0</ele><time>2023-10-26T15:23:28Z</time></trkpt><trkpt lat="58.048667" lon="38.821868"><ele>106.0</ele><time>2023-10-26T15:23:30Z</time></trkpt><trkpt lat="58.04875" lon="38.821773"><ele>106.0</ele><time>2023-10-26T15:23:33Z</time></trkpt><trkpt lat="58.048798" lon="38.82162"><ele>106.0</ele><time>2023-10-26T15:23:36Z</time></trkpt><trkpt lat="58.048863" lon="38.821532"><ele>107.0</ele><time>2023-10-26T15:23:39Z</time></trkpt><trkpt lat="58.048942" lon="38.821383"><ele>106.0</ele><time>2023-10-26T15:23:42Z</time></trkpt><trkpt lat="58.049013" lon="38.821285"><ele>106.0</ele><time>2023-10-26T15:23:44Z</time></trkpt><trkpt lat="58.049083" lon="38.821195"><ele>106.0</ele><time>2023-10-26T15:23:46Z</time></trkpt><trkpt lat="58.049155" lon="38.821095"><ele>105.0</ele><time>2023-10-26T15:23:48Z</time></trkpt><trkpt lat="58.04922" lon="38.821"><ele>104.0</ele><time>2023-10-26T15:23:50Z</time></trkpt><trkpt lat="58.049305" lon="38.820898"><ele>104.0</ele><time>2023-10-26T15:23:53Z</time></trkpt><trkpt lat="58.049382" lon="38.820842"><ele>104.0</ele><time>2023-10-26T15:23:55Z</time></trkpt><trkpt lat="58.04946" lon="38.820718"><ele>105.0</ele><time>2023-10-26T15:23:57Z</time></trkpt><trkpt lat="58.04952" lon="38.820632"><ele>105.0</ele><time>2023-10-26T15:23:59Z</time></trkpt><trkpt lat="58.049595" lon="38.82056"><ele>105.0</ele><time>2023-10-26T15:24:01Z</time></trkpt><trkpt lat="58.049667" lon="38.820443"><ele>104.0</ele><time>2023-10-26T15:24:04Z</time></trkpt><trkpt lat="58.049712" lon="38.820333"><ele>104.0</ele><time>2023-10-26T15:24:06Z</time></trkpt><trkpt lat="58.049748" lon="38.820197"><ele>104.0</ele><time>2023-10-26T15:24:09Z</time></trkpt><trkpt lat="58.04976" lon="38.82001"><ele>104.0</ele><time>2023-10-26T15:24:12Z</time></trkpt><trkpt lat="58.049822" lon="38.819862"><ele>104.0</ele><time>2023-10-26T15:24:15Z</time></trkpt><trkpt lat="58.049882" lon="38.819718"><ele>104.0</ele><time>2023-10-26T15:24:17Z</time></trkpt><trkpt lat="58.049985" lon="38.819662"><ele>104.0</ele><time>2023-10-26T15:24:20Z</time></trkpt><trkpt lat="58.050072" lon="38.819695"><ele>105.0</ele><time>2023-10-26T15:24:22Z</time></trkpt><trkpt lat="58.050145" lon="38.819725"><ele>104.0</ele><time>2023-10-26T15:24:24Z</time></trkpt><trkpt lat="58.05022" lon="38.819752"><ele>105.0</ele><time>2023-10-26T15:24:26Z</time></trkpt><trkpt lat="58.05032" lon="38.819788"><ele>105.0</ele><time>2023-10-26T15:24:29Z</time></trkpt><trkpt lat="58.050407" lon="38.819825"><ele>105.0</ele><time>2023-10-26T15:24:32Z</time></trkpt><trkpt lat="58.050498" lon="38.819847"><ele>106.0</ele><time>2023-10-26T15:24:35Z</time></trkpt><trkpt lat="58.050598" lon="38.81985"><ele>106.0</ele><time>2023-10-26T15:24:38Z</time></trkpt><trkpt lat="58.0507" lon="38.819867"><ele>105.0</ele><time>2023-10-26T15:24:41Z</time></trkpt><trkpt lat="58.050803" lon="38.819898"><ele>105.0</ele><time>2023-10-26T15:24:44Z</time></trkpt><trkpt lat="58.050877" lon="38.819918"><ele>105.0</ele><time>2023-10-26T15:24:46Z</time></trkpt><trkpt lat="58.050972" lon="38.819902"><ele>104.0</ele><time>2023-10-26T15:24:49Z</time></trkpt><trkpt lat="58.05105" lon="38.819902"><ele>105.0</ele><time>2023-10-26T15:24:51Z</time></trkpt><trkpt lat="58.051123" lon="38.819917"><ele>104.0</ele><time>2023-10-26T15:24:53Z</time></trkpt><trkpt lat="58.05122" lon="38.819917"><ele>103.0</ele><time>2023-10-26T15:24:56Z</time></trkpt><trkpt lat="58.051292" lon="38.81993"><ele>103.0</ele><time>2023-10-26T15:24:58Z</time></trkpt><trkpt lat="58.051402" lon="38.819938"><ele>103.0</ele><time>2023-10-26T15:25:00Z</time></trkpt><trkpt lat="58.051528" lon="38.81998"><ele>103.0</ele><time>2023-10-26T15:25:02Z</time></trkpt><trkpt lat="58.051663" lon="38.820045"><ele>104.0</ele><time>2023-10-26T15:25:04Z</time></trkpt><trkpt lat="58.051778" lon="38.820095"><ele>104.0</ele><time>2023-10-26T15:25:06Z</time></trkpt><trkpt lat="58.051883" lon="38.820152"><ele>104.0</ele><time>2023-10-26T15:25:08Z</time></trkpt><trkpt lat="58.05198" lon="38.820222"><ele>104.0</ele><time>2023-10-26T15:25:11Z</time></trkpt><trkpt lat="58.052067" lon="38.82026"><ele>104.0</ele><time>2023-10-26T15:25:13Z</time></trkpt><trkpt lat="58.052162" lon="38.82027"><ele>105.0</ele><time>2023-10-26T15:25:15Z</time></trkpt><trkpt lat="58.05225" lon="38.820282"><ele>105.0</ele><time>2023-10-26T15:25:17Z</time></trkpt><trkpt lat="58.052373" lon="38.820338"><ele>105.0</ele><time>2023-10-26T15:25:19Z</time></trkpt><trkpt lat="58.052485" lon="38.820362"><ele>104.0</ele><time>2023-10-26T15:25:21Z</time></trkpt><trkpt lat="58.052588" lon="38.820373"><ele>104.0</ele><time>2023-10-26T15:25:23Z</time></trkpt><trkpt lat="58.052693" lon="38.820403"><ele>104.0</ele><time>2023-10-26T15:25:25Z</time></trkpt><trkpt lat="58.052782" lon="38.820423"><ele>104.0</ele><time>2023-10-26T15:25:27Z</time></trkpt><trkpt lat="58.052868" lon="38.820432"><ele>104.0</ele><time>2023-10-26T15:25:29Z</time></trkpt><trkpt lat="58.052943" lon="38.820473"><ele>104.0</ele><time>2023-10-26T15:25:31Z</time></trkpt><trkpt lat="58.053023" lon="38.820518"><ele>105.0</ele><time>2023-10-26T15:25:33Z</time></trkpt><trkpt lat="58.053137" lon="38.820555"><ele>104.0</ele><time>2023-10-26T15:25:36Z</time></trkpt><trkpt lat="58.053215" lon="38.820557"><ele>103.0</ele><time>2023-10-26T15:25:38Z</time></trkpt><trkpt lat="58.053318" lon="38.820538"><ele>104.0</ele><time>2023-10-26T15:25:41Z</time></trkpt><trkpt lat="58.053403" lon="38.820433"><ele>104.0</ele><time>2023-10-26T15:25:44Z</time></trkpt><trkpt lat="58.053485" lon="38.820365"><ele>103.0</ele><time>2023-10-26T15:25:47Z</time></trkpt><trkpt lat="58.053578" lon="38.820373"><ele>104.0</ele><time>2023-10-26T15:25:50Z</time></trkpt><trkpt lat="58.05368" lon="38.820368"><ele>103.0</ele><time>2023-10-26T15:25:53Z</time></trkpt><trkpt lat="58.053755" lon="38.820275"><ele>101.0</ele><time>2023-10-26T15:25:55Z</time></trkpt><trkpt lat="58.053805" lon="38.820132"><ele>100.0</ele><time>2023-10-26T15:25:57Z</time></trkpt><trkpt lat="58.05383" lon="38.819952"><ele>100.0</ele><time>2023-10-26T15:25:59Z</time></trkpt><trkpt lat="58.05384" lon="38.819768"><ele>101.0</ele><time>2023-10-26T15:26:01Z</time></trkpt><trkpt lat="58.053845" lon="38.819592"><ele>101.0</ele><time>2023-10-26T15:26:03Z</time></trkpt><trkpt lat="58.053848" lon="38.819417"><ele>101.0</ele><time>2023-10-26T15:26:05Z</time></trkpt><trkpt lat="58.053858" lon="38.819247"><ele>101.0</ele><time>2023-10-26T15:26:07Z</time></trkpt><trkpt lat="58.053868" lon="38.819078"><ele>102.0</ele><time>2023-10-26T15:26:09Z</time></trkpt><trkpt lat="58.053875" lon="38.818905"><ele>102.0</ele><time>2023-10-26T15:26:11Z</time></trkpt><trkpt lat="58.053887" lon="38.818738"><ele>102.0</ele><time>2023-10-26T15:26:13Z</time></trkpt><trkpt lat="58.053903" lon="38.818573"><ele>102.0</ele><time>2023-10-26T15:26:15Z</time></trkpt><trkpt lat="58.053917" lon="38.81841"><ele>102.0</ele><time>2023-10-26T15:26:17Z</time></trkpt><trkpt lat="58.053923" lon="38.818245"><ele>102.0</ele><time>2023-10-26T15:26:19Z</time></trkpt><trkpt lat="58.05393" lon="38.81808"><ele>103.0</ele><time>2023-10-26T15:26:21Z</time></trkpt><trkpt lat="58.053943" lon="38.817917"><ele>103.0</ele><time>2023-10-26T15:26:23Z</time></trkpt><trkpt lat="58.053963" lon="38.817753"><ele>103.0</ele><time>2023-10-26T15:26:25Z</time></trkpt><trkpt lat="58.053983" lon="38.817598"><ele>103.0</ele><time>2023-10-26T15:26:27Z</time></trkpt><trkpt lat="58.054002" lon="38.817445"><ele>103.0</ele><time>2023-10-26T15:26:29Z</time></trkpt><trkpt lat="58.054017" lon="38.817295"><ele>103.0</ele><time>2023-10-26T15:26:31Z</time></trkpt><trkpt lat="58.054025" lon="38.817145"><ele>103.0</ele><time>2023-10-26T15:26:33Z</time></trkpt><trkpt lat="58.054032" lon="38.817003"><ele>104.0</ele><time>2023-10-26T15:26:35Z</time></trkpt><trkpt lat="58.054047" lon="38.816868"><ele>104.0</ele><time>2023-10-26T15:26:37Z</time></trkpt><trkpt lat="58.054063" lon="38.816733"><ele>105.0</ele><time>2023-10-26T15:26:39Z</time></trkpt><trkpt lat="58.054085" lon="38.816603"><ele>106.0</ele><time>2023-10-26T15:26:41Z</time></trkpt><trkpt lat="58.054108" lon="38.816465"><ele>106.0</ele><time>2023-10-26T15:26:43Z</time></trkpt><trkpt lat="58.054147" lon="38.816337"><ele>106.0</ele><time>2023-10-26T15:26:45Z</time></trkpt><trkpt lat="58.054205" lon="38.816237"><ele>106.0</ele><time>2023-10-26T15:26:47Z</time></trkpt><trkpt lat="58.054282" lon="38.816205"><ele>106.0</ele><time>2023-10-26T15:26:49Z</time></trkpt><trkpt lat="58.054365" lon="38.816223"><ele>106.0</ele><time>2023-10-26T15:26:51Z</time></trkpt><trkpt lat="58.054447" lon="38.816253"><ele>106.0</ele><time>2023-10-26T15:26:53Z</time></trkpt><trkpt lat="58.054528" lon="38.816283"><ele>106.0</ele><time>2023-10-26T15:26:55Z</time></trkpt><trkpt lat="58.054613" lon="38.816335"><ele>106.0</ele><time>2023-10-26T15:26:57Z</time></trkpt><trkpt lat="58.054693" lon="38.816245"><ele>105.0</ele><time>2023-10-26T15:26:59Z</time></trkpt><trkpt lat="58.054815" lon="38.816207"><ele>104.0</ele><time>2023-10-26T15:27:01Z</time></trkpt><trkpt lat="58.054887" lon="38.816218"><ele>104.0</ele><time>2023-10-26T15:27:02Z</time></trkpt><trkpt lat="58.054997" lon="38.816232"><ele>105.0</ele><time>2023-10-26T15:27:04Z</time></trkpt><trkpt lat="58.0551" lon="38.816258"><ele>104.0</ele><time>2023-10-26T15:27:06Z</time></trkpt><trkpt lat="58.055197" lon="38.81627"><ele>104.0</ele><time>2023-10-26T15:27:08Z</time></trkpt><trkpt lat="58.055287" lon="38.816293"><ele>104.0</ele><time>2023-10-26T15:27:10Z</time></trkpt><trkpt lat="58.055353" lon="38.816193"><ele>103.0</ele><time>2023-10-26T15:27:13Z</time></trkpt><trkpt lat="58.055383" lon="38.816033"><ele>104.0</ele><time>2023-10-26T15:27:16Z</time></trkpt><trkpt lat="58.055428" lon="38.815865"><ele>104.0</ele><time>2023-10-26T15:27:19Z</time></trkpt><trkpt lat="58.05549" lon="38.815703"><ele>104.0</ele><time>2023-10-26T15:27:22Z</time></trkpt><trkpt lat="58.055533" lon="38.815593"><ele>104.0</ele><time>2023-10-26T15:27:24Z</time></trkpt><trkpt lat="58.055585" lon="38.81549"><ele>103.0</ele><time>2023-10-26T15:27:26Z</time></trkpt><trkpt lat="58.055637" lon="38.81539"><ele>103.0</ele><time>2023-10-26T15:27:28Z</time></trkpt><trkpt lat="58.055688" lon="38.815287"><ele>103.0</ele><time>2023-10-26T15:27:30Z</time></trkpt><trkpt lat="58.05573" lon="38.81517"><ele>103.0</ele><time>2023-10-26T15:27:32Z</time></trkpt><trkpt lat="58.055758" lon="38.81504"><ele>103.0</ele><time>2023-10-26T15:27:34Z</time></trkpt><trkpt lat="58.055772" lon="38.814897"><ele>103.0</ele><time>2023-10-26T15:27:36Z</time></trkpt><trkpt lat="58.055787" lon="38.81474"><ele>103.0</ele><time>2023-10-26T15:27:38Z</time></trkpt><trkpt lat="58.055812" lon="38.814582"><ele>103.0</ele><time>2023-10-26T15:27:40Z</time></trkpt><trkpt lat="58.055838" lon="38.814418"><ele>104.0</ele><time>2023-10-26T15:27:42Z</time></trkpt><trkpt lat="58.055862" lon="38.814275"><ele>105.0</ele><time>2023-10-26T15:27:44Z</time></trkpt><trkpt lat="58.055897" lon="38.81412"><ele>104.0</ele><time>2023-10-26T15:27:46Z</time></trkpt><trkpt lat="58.055907" lon="38.813948"><ele>104.0</ele><time>2023-10-26T15:27:48Z</time></trkpt><trkpt lat="58.055932" lon="38.813768"><ele>105.0</ele><time>2023-10-26T15:27:50Z</time></trkpt><trkpt lat="58.055925" lon="38.813593"><ele>105.0</ele><time>2023-10-26T15:27:52Z</time></trkpt><trkpt lat="58.05592" lon="38.813418"><ele>104.0</ele><time>2023-10-26T15:27:54Z</time></trkpt><trkpt lat="58.055933" lon="38.813252"><ele>103.0</ele><time>2023-10-26T15:27:56Z</time></trkpt><trkpt lat="58.05593" lon="38.813053"><ele>104.0</ele><time>2023-10-26T15:27:58Z</time></trkpt><trkpt lat="58.055918" lon="38.81292"><ele>103.0</ele><time>2023-10-26T15:28:00Z</time></trkpt><trkpt lat="58.05592" lon="38.812757"><ele>102.0</ele><time>2023-10-26T15:28:02Z</time></trkpt><trkpt lat="58.055923" lon="38.812592"><ele>103.0</ele><time>2023-10-26T15:28:04Z</time></trkpt><trkpt lat="58.055938" lon="38.812432"><ele>103.0</ele><time>2023-10-26T15:28:06Z</time></trkpt><trkpt lat="58.055958" lon="38.812282"><ele>104.0</ele><time>2023-10-26T15:28:08Z</time></trkpt><trkpt lat="58.055973" lon="38.812107"><ele>104.0</ele><time>2023-10-26T15:28:10Z</time></trkpt><trkpt lat="58.055983" lon="38.811887"><ele>104.0</ele><time>2023-10-26T15:28:12Z</time></trkpt><trkpt lat="58.055997" lon="38.811617"><ele>105.0</ele><time>2023-10-26T15:28:14Z</time></trkpt><trkpt lat="58.056005" lon="38.81137"><ele>105.0</ele><time>2023-10-26T15:28:16Z</time></trkpt><trkpt lat="58.056013" lon="38.81116"><ele>105.0</ele><time>2023-10-26T15:28:18Z</time></trkpt><trkpt lat="58.056018" lon="38.810982"><ele>105.0</ele><time>2023-10-26T15:28:20Z</time></trkpt><trkpt lat="58.05602" lon="38.810815"><ele>105.0</ele><time>2023-10-26T15:28:23Z</time></trkpt><trkpt lat="58.056047" lon="38.810642"><ele>105.0</ele><time>2023-10-26T15:28:26Z</time></trkpt><trkpt lat="58.056048" lon="38.810492"><ele>104.0</ele><time>2023-10-26T15:28:28Z</time></trkpt><trkpt lat="58.056085" lon="38.810358"><ele>104.0</ele><time>2023-10-26T15:28:30Z</time></trkpt><trkpt lat="58.05616" lon="38.810335"><ele>104.0</ele><time>2023-10-26T15:28:32Z</time></trkpt><trkpt lat="58.05623" lon="38.810275"><ele>105.0</ele><time>2023-10-26T15:28:34Z</time></trkpt><trkpt lat="58.05629" lon="38.810182"><ele>106.0</ele><time>2023-10-26T15:28:36Z</time></trkpt><trkpt lat="58.056352" lon="38.810068"><ele>106.0</ele><time>2023-10-26T15:28:39Z</time></trkpt><trkpt lat="58.056423" lon="38.809997"><ele>107.0</ele><time>2023-10-26T15:28:42Z</time></trkpt><trkpt lat="58.056498" lon="38.809918"><ele>106.0</ele><time>2023-10-26T15:28:46Z</time></trkpt><trkpt lat="58.056587" lon="38.809847"><ele>106.0</ele><time>2023-10-26T15:28:51Z</time></trkpt><trkpt lat="58.056623" lon="38.809728"><ele>106.0</ele><time>2023-10-26T15:28:53Z</time></trkpt><trkpt lat="58.056643" lon="38.809558"><ele>107.0</ele><time>2023-10-26T15:28:56Z</time></trkpt><trkpt lat="58.056687" lon="38.809412"><ele>107.0</ele><time>2023-10-26T15:29:00Z</time></trkpt><trkpt lat="58.056767" lon="38.809455"><ele>107.0</ele><time>2023-10-26T15:29:03Z</time></trkpt><trkpt lat="58.05683" lon="38.809595"><ele>107.0</ele><time>2023-10-26T15:29:06Z</time></trkpt><trkpt lat="58.056897" lon="38.80972"><ele>107.0</ele><time>2023-10-26T15:29:09Z</time></trkpt><trkpt lat="58.056988" lon="38.809777"><ele>107.0</ele><time>2023-10-26T15:29:12Z</time></trkpt><trkpt lat="58.05709" lon="38.809723"><ele>108.0</ele><time>2023-10-26T15:29:15Z</time></trkpt><trkpt lat="58.057128" lon="38.80944"><ele>108.0</ele><time>2023-10-26T15:29:17Z</time></trkpt><trkpt lat="58.057242" lon="38.809302"><ele>108.0</ele><time>2023-10-26T15:29:19Z</time></trkpt><trkpt lat="58.057322" lon="38.809192"><ele>108.0</ele><time>2023-10-26T15:29:21Z</time></trkpt><trkpt lat="58.057408" lon="38.809088"><ele>108.0</ele><time>2023-10-26T15:29:23Z</time></trkpt><trkpt lat="58.057477" lon="38.808982"><ele>108.0</ele><time>2023-10-26T15:29:25Z</time></trkpt><trkpt lat="58.057555" lon="38.80888"><ele>108.0</ele><time>2023-10-26T15:29:27Z</time></trkpt><trkpt lat="58.057653" lon="38.80886"><ele>107.0</ele><time>2023-10-26T15:29:31Z</time></trkpt><trkpt lat="58.057762" lon="38.808875"><ele>106.0</ele><time>2023-10-26T15:29:35Z</time></trkpt><trkpt lat="58.057853" lon="38.808908"><ele>105.0</ele><time>2023-10-26T15:29:37Z</time></trkpt><trkpt lat="58.057965" lon="38.80891"><ele>105.0</ele><time>2023-10-26T15:29:39Z</time></trkpt><trkpt lat="58.058038" lon="38.808945"><ele>105.0</ele><time>2023-10-26T15:29:41Z</time></trkpt><trkpt lat="58.058138" lon="38.808982"><ele>105.0</ele><time>2023-10-26T15:29:43Z</time></trkpt><trkpt lat="58.058215" lon="38.809027"><ele>105.0</ele><time>2023-10-26T15:29:45Z</time></trkpt><trkpt lat="58.058305" lon="38.80897"><ele>105.0</ele><time>2023-10-26T15:29:47Z</time></trkpt><trkpt lat="58.058387" lon="38.808848"><ele>105.0</ele><time>2023-10-26T15:29:49Z</time></trkpt><trkpt lat="58.058458" lon="38.808873"><ele>105.0</ele><time>2023-10-26T15:29:53Z</time></trkpt><trkpt lat="58.058563" lon="38.80886"><ele>105.0</ele><time>2023-10-26T15:29:56Z</time></trkpt><trkpt lat="58.058595" lon="38.808683"><ele>105.0</ele><time>2023-10-26T15:29:58Z</time></trkpt><trkpt lat="58.058627" lon="38.80843"><ele>104.0</ele><time>2023-10-26T15:30:00Z</time></trkpt><trkpt lat="58.058675" lon="38.808195"><ele>105.0</ele><time>2023-10-26T15:30:02Z</time></trkpt><trkpt lat="58.058703" lon="38.80798"><ele>105.0</ele><time>2023-10-26T15:30:04Z</time></trkpt><trkpt lat="58.058762" lon="38.807837"><ele>106.0</ele><time>2023-10-26T15:30:06Z</time></trkpt><trkpt lat="58.058757" lon="38.8077"><ele>106.0</ele><time>2023-10-26T15:30:09Z</time></trkpt><trkpt lat="58.058652" lon="38.807713"><ele>106.0</ele><time>2023-10-26T15:30:12Z</time></trkpt><trkpt lat="58.058733" lon="38.807802"><ele>106.0</ele><time>2023-10-26T15:30:14Z</time></trkpt></trkseg></trk></gpx>