<?xml version="1.0" encoding="UTF-8" standalone="no"?><gpx xmlns="http://www.topografix.com/GPX/1/1" xmlns:gpxtpx="http://www.garmin.com/xmlschemas/TrackPointExtension/v1" xmlns:xsi="http://www.w3.org/2001/XMLSchema-instance" creator="Sports Tracker" version="1.1" xsi:schemaLocation="http://www.topografix.com/GPX/1/1 http://www.topografix.com/GPX/1/1/gpx.xsd http://www.garmin.com/xmlschemas/TrackPointExtension/v1 http://www.garmin.com/xmlschemas/TrackPointExtensionv1.xsd"><metadata><name/><desc/><author><name>Александр</name></author></metadata><trk><name/><trkseg><trkpt lat="58.058495" lon="38.816923"><ele>102.0</ele><time>2023-07-17T09:16:11Z</time></trkpt><trkpt lat="58.058422" lon="38.81689"><ele>101.0</ele><time>2023-07-17T09:16:23Z</time></trkpt><trkpt lat="58.058312" lon="38.816885"><ele>101.0</ele><time>2023-07-17T09:16:26Z</time></trkpt><trkpt lat="58.058225" lon="38.816887"><ele>102.0</ele><time>2023-07-17T09:16:28Z</time></trkpt><trkpt lat="58.058122" lon="38.816873"><ele>102.0</ele><time>2023-07-17T09:16:30Z</time></trkpt><trkpt lat="58.058028" lon="38.816847"><ele>103.0</ele><time>2023-07-17T09:16:32Z</time></trkpt><trkpt lat="58.057935" lon="38.816785"><ele>103.0</ele><time>2023-07-17T09:16:34Z</time></trkpt><trkpt lat="58.057833" lon="38.816752"><ele>103.0</ele><time>2023-07-17T09:16:36Z</time></trkpt><trkpt lat="58.057718" lon="38.816777"><ele>104.0</ele><time>2023-07-17T09:16:38Z</time></trkpt><trkpt lat="58.057608" lon="38.816775"><ele>104.0</ele><time>2023-07-17T09:16:40Z</time></trkpt><trkpt lat="58.057512" lon="38.816757"><ele>105.0</ele><time>2023-07-17T09:16:42Z</time></trkpt><trkpt lat="58.057422" lon="38.816728"><ele>104.0</ele><time>2023-07-17T09:16:44Z</time></trkpt><trkpt lat="58.057357" lon="38.816643"><ele>104.0</ele><time>2023-07-17T09:16:49Z</time></trkpt><trkpt lat="58.05725" lon="38.816658"><ele>104.0</ele><time>2023-07-17T09:16:51Z</time></trkpt><trkpt lat="58.057152" lon="38.816665"><ele>105.0</ele><time>2023-07-17T09:16:53Z</time></trkpt><trkpt lat="58.057072" lon="38.816672"><ele>105.0</ele><time>2023-07-17T09:16:55Z</time></trkpt><trkpt lat="58.056978" lon="38.816612"><ele>105.0</ele><time>2023-07-17T09:16:58Z</time></trkpt><trkpt lat="58.056902" lon="38.81655"><ele>105.0</ele><time>2023-07-17T09:17:00Z</time></trkpt><trkpt lat="58.056798" lon="38.81651"><ele>105.0</ele><time>2023-07-17T09:17:03Z</time></trkpt><trkpt lat="58.0567" lon="38.816447"><ele>104.0</ele><time>2023-07-17T09:17:06Z</time></trkpt><trkpt lat="58.056605" lon="38.816402"><ele>104.0</ele><time>2023-07-17T09:17:08Z</time></trkpt><trkpt lat="58.056523" lon="38.816392"><ele>103.0</ele><time>2023-07-17T09:17:10Z</time></trkpt><trkpt lat="58.056443" lon="38.816363"><ele>103.0</ele><time>2023-07-17T09:17:12Z</time></trkpt><trkpt lat="58.056358" lon="38.81636"><ele>103.0</ele><time>2023-07-17T09:17:14Z</time></trkpt><trkpt lat="58.05625" lon="38.816347"><ele>103.0</ele><time>2023-07-17T09:17:18Z</time></trkpt><trkpt lat="58.056157" lon="38.81635"><ele>104.0</ele><time>2023-07-17T09:17:21Z</time></trkpt><trkpt lat="58.056068" lon="38.816383"><ele>104.0</ele><time>2023-07-17T09:17:22Z</time></trkpt><trkpt lat="58.055947" lon="38.816378"><ele>104.0</ele><time>2023-07-17T09:17:24Z</time></trkpt><trkpt lat="58.055852" lon="38.81634"><ele>102.0</ele><time>2023-07-17T09:17:26Z</time></trkpt><trkpt lat="58.055732" lon="38.816318"><ele>103.0</ele><time>2023-07-17T09:17:28Z</time></trkpt><trkpt lat="58.055618" lon="38.816283"><ele>103.0</ele><time>2023-07-17T09:17:30Z</time></trkpt><trkpt lat="58.055493" lon="38.816277"><ele>103.0</ele><time>2023-07-17T09:17:32Z</time></trkpt><trkpt lat="58.05542" lon="38.816243"><ele>102.0</ele><time>2023-07-17T09:17:33Z</time></trkpt><trkpt lat="58.055315" lon="38.8162"><ele>102.0</ele><time>2023-07-17T09:17:35Z</time></trkpt><trkpt lat="58.055208" lon="38.81623"><ele>102.0</ele><time>2023-07-17T09:17:37Z</time></trkpt><trkpt lat="58.055102" lon="38.816163"><ele>102.0</ele><time>2023-07-17T09:17:40Z</time></trkpt><trkpt lat="58.05505" lon="38.815973"><ele>103.0</ele><time>2023-07-17T09:17:42Z</time></trkpt><trkpt lat="58.055052" lon="38.815775"><ele>103.0</ele><time>2023-07-17T09:17:44Z</time></trkpt><trkpt lat="58.055065" lon="38.815587"><ele>103.0</ele><time>2023-07-17T09:17:46Z</time></trkpt><trkpt lat="58.055083" lon="38.815398"><ele>103.0</ele><time>2023-07-17T09:17:48Z</time></trkpt><trkpt lat="58.055095" lon="38.815188"><ele>104.0</ele><time>2023-07-17T09:17:50Z</time></trkpt><trkpt lat="58.055112" lon="38.814993"><ele>103.0</ele><time>2023-07-17T09:17:52Z</time></trkpt><trkpt lat="58.055112" lon="38.81479"><ele>104.0</ele><time>2023-07-17T09:17:54Z</time></trkpt><trkpt lat="58.055128" lon="38.814555"><ele>104.0</ele><time>2023-07-17T09:17:56Z</time></trkpt><trkpt lat="58.055145" lon="38.814322"><ele>104.0</ele><time>2023-07-17T09:17:58Z</time></trkpt><trkpt lat="58.055158" lon="38.814058"><ele>104.0</ele><time>2023-07-17T09:18:00Z</time></trkpt><trkpt lat="58.055168" lon="38.813815"><ele>105.0</ele><time>2023-07-17T09:18:02Z</time></trkpt><trkpt lat="58.05518" lon="38.813605"><ele>106.0</ele><time>2023-07-17T09:18:04Z</time></trkpt><trkpt lat="58.055192" lon="38.813452"><ele>106.0</ele><time>2023-07-17T09:18:06Z</time></trkpt><trkpt lat="58.055195" lon="38.813243"><ele>106.0</ele><time>2023-07-17T09:18:08Z</time></trkpt><trkpt lat="58.055207" lon="38.813022"><ele>106.0</ele><time>2023-07-17T09:18:10Z</time></trkpt><trkpt lat="58.05523" lon="38.812803"><ele>108.0</ele><time>2023-07-17T09:18:12Z</time></trkpt><trkpt lat="58.05524" lon="38.812595"><ele>106.0</ele><time>2023-07-17T09:18:14Z</time></trkpt><trkpt lat="58.055238" lon="38.812363"><ele>105.0</ele><time>2023-07-17T09:18:16Z</time></trkpt><trkpt lat="58.055248" lon="38.812148"><ele>106.0</ele><time>2023-07-17T09:18:18Z</time></trkpt><trkpt lat="58.055267" lon="38.811953"><ele>105.0</ele><time>2023-07-17T09:18:20Z</time></trkpt><trkpt lat="58.055275" lon="38.811765"><ele>105.0</ele><time>2023-07-17T09:18:22Z</time></trkpt><trkpt lat="58.055292" lon="38.811563"><ele>105.0</ele><time>2023-07-17T09:18:24Z</time></trkpt><trkpt lat="58.05531" lon="38.811347"><ele>105.0</ele><time>2023-07-17T09:18:26Z</time></trkpt><trkpt lat="58.055335" lon="38.811153"><ele>105.0</ele><time>2023-07-17T09:18:28Z</time></trkpt><trkpt lat="58.055355" lon="38.810957"><ele>106.0</ele><time>2023-07-17T09:18:30Z</time></trkpt><trkpt lat="58.055362" lon="38.810805"><ele>106.0</ele><time>2023-07-17T09:18:32Z</time></trkpt><trkpt lat="58.055368" lon="38.810605"><ele>105.0</ele><time>2023-07-17T09:18:34Z</time></trkpt><trkpt lat="58.05538" lon="38.810423"><ele>105.0</ele><time>2023-07-17T09:18:36Z</time></trkpt><trkpt lat="58.055402" lon="38.810235"><ele>105.0</ele><time>2023-07-17T09:18:38Z</time></trkpt><trkpt lat="58.055413" lon="38.810028"><ele>106.0</ele><time>2023-07-17T09:18:40Z</time></trkpt><trkpt lat="58.055417" lon="38.809867"><ele>106.0</ele><time>2023-07-17T09:18:42Z</time></trkpt><trkpt lat="58.055428" lon="38.809668"><ele>107.0</ele><time>2023-07-17T09:18:44Z</time></trkpt><trkpt lat="58.055437" lon="38.809492"><ele>107.0</ele><time>2023-07-17T09:18:46Z</time></trkpt><trkpt lat="58.055452" lon="38.809337"><ele>107.0</ele><time>2023-07-17T09:18:48Z</time></trkpt><trkpt lat="58.05547" lon="38.809188"><ele>107.0</ele><time>2023-07-17T09:18:50Z</time></trkpt><trkpt lat="58.055487" lon="38.808965"><ele>107.0</ele><time>2023-07-17T09:18:53Z</time></trkpt><trkpt lat="58.055512" lon="38.808775"><ele>108.0</ele><time>2023-07-17T09:18:55Z</time></trkpt><trkpt lat="58.05555" lon="38.808603"><ele>109.0</ele><time>2023-07-17T09:18:57Z</time></trkpt><trkpt lat="58.05556" lon="38.808405"><ele>110.0</ele><time>2023-07-17T09:18:59Z</time></trkpt><trkpt lat="58.055567" lon="38.808247"><ele>110.0</ele><time>2023-07-17T09:19:00Z</time></trkpt><trkpt lat="58.055578" lon="38.808047"><ele>108.0</ele><time>2023-07-17T09:19:02Z</time></trkpt><trkpt lat="58.055578" lon="38.807825"><ele>107.0</ele><time>2023-07-17T09:19:04Z</time></trkpt><trkpt lat="58.055593" lon="38.807555"><ele>107.0</ele><time>2023-07-17T09:19:06Z</time></trkpt><trkpt lat="58.055605" lon="38.807418"><ele>107.0</ele><time>2023-07-17T09:19:07Z</time></trkpt><trkpt lat="58.055625" lon="38.80728"><ele>108.0</ele><time>2023-07-17T09:19:08Z</time></trkpt><trkpt lat="58.055638" lon="38.80714"><ele>108.0</ele><time>2023-07-17T09:19:09Z</time></trkpt><trkpt lat="58.055648" lon="38.806985"><ele>108.0</ele><time>2023-07-17T09:19:10Z</time></trkpt><trkpt lat="58.055665" lon="38.806827"><ele>108.0</ele><time>2023-07-17T09:19:11Z</time></trkpt><trkpt lat="58.05567" lon="38.806552"><ele>108.0</ele><time>2023-07-17T09:19:13Z</time></trkpt><trkpt lat="58.055682" lon="38.806287"><ele>109.0</ele><time>2023-07-17T09:19:15Z</time></trkpt><trkpt lat="58.055718" lon="38.806072"><ele>108.0</ele><time>2023-07-17T09:19:17Z</time></trkpt><trkpt lat="58.055735" lon="38.80586"><ele>108.0</ele><time>2023-07-17T09:19:19Z</time></trkpt><trkpt lat="58.05575" lon="38.805672"><ele>107.0</ele><time>2023-07-17T09:19:21Z</time></trkpt><trkpt lat="58.055762" lon="38.805512"><ele>107.0</ele><time>2023-07-17T09:19:23Z</time></trkpt><trkpt lat="58.055775" lon="38.805308"><ele>107.0</ele><time>2023-07-17T09:19:26Z</time></trkpt><trkpt lat="58.055797" lon="38.805113"><ele>107.0</ele><time>2023-07-17T09:19:29Z</time></trkpt><trkpt lat="58.055818" lon="38.804965"><ele>108.0</ele><time>2023-07-17T09:19:31Z</time></trkpt><trkpt lat="58.055835" lon="38.804762"><ele>110.0</ele><time>2023-07-17T09:19:34Z</time></trkpt><trkpt lat="58.055837" lon="38.804592"><ele>109.0</ele><time>2023-07-17T09:19:36Z</time></trkpt><trkpt lat="58.05586" lon="38.80443"><ele>109.0</ele><time>2023-07-17T09:19:38Z</time></trkpt><trkpt lat="58.055872" lon="38.804212"><ele>110.0</ele><time>2023-07-17T09:19:40Z</time></trkpt><trkpt lat="58.055882" lon="38.803967"><ele>108.0</ele><time>2023-07-17T09:19:42Z</time></trkpt><trkpt lat="58.055878" lon="38.80378"><ele>109.0</ele><time>2023-07-17T09:19:44Z</time></trkpt><trkpt lat="58.055887" lon="38.803563"><ele>109.0</ele><time>2023-07-17T09:19:46Z</time></trkpt><trkpt lat="58.055905" lon="38.80336"><ele>109.0</ele><time>2023-07-17T09:19:48Z</time></trkpt><trkpt lat="58.055908" lon="38.803158"><ele>108.0</ele><time>2023-07-17T09:19:50Z</time></trkpt><trkpt lat="58.05592" lon="38.80294"><ele>108.0</ele><time>2023-07-17T09:19:52Z</time></trkpt><trkpt lat="58.055938" lon="38.802738"><ele>108.0</ele><time>2023-07-17T09:19:54Z</time></trkpt><trkpt lat="58.05595" lon="38.802532"><ele>107.0</ele><time>2023-07-17T09:19:56Z</time></trkpt><trkpt lat="58.055953" lon="38.80233"><ele>107.0</ele><time>2023-07-17T09:19:58Z</time></trkpt><trkpt lat="58.055967" lon="38.802135"><ele>108.0</ele><time>2023-07-17T09:20:00Z</time></trkpt><trkpt lat="58.055968" lon="38.801923"><ele>108.0</ele><time>2023-07-17T09:20:02Z</time></trkpt><trkpt lat="58.055987" lon="38.801698"><ele>109.0</ele><time>2023-07-17T09:20:04Z</time></trkpt><trkpt lat="58.056002" lon="38.801453"><ele>108.0</ele><time>2023-07-17T09:20:06Z</time></trkpt><trkpt lat="58.056012" lon="38.801272"><ele>109.0</ele><time>2023-07-17T09:20:08Z</time></trkpt><trkpt lat="58.05603" lon="38.801115"><ele>108.0</ele><time>2023-07-17T09:20:10Z</time></trkpt><trkpt lat="58.056045" lon="38.80093"><ele>108.0</ele><time>2023-07-17T09:20:12Z</time></trkpt><trkpt lat="58.056048" lon="38.800787"><ele>108.0</ele><time>2023-07-17T09:20:13Z</time></trkpt><trkpt lat="58.056063" lon="38.800587"><ele>108.0</ele><time>2023-07-17T09:20:15Z</time></trkpt><trkpt lat="58.056083" lon="38.800348"><ele>107.0</ele><time>2023-07-17T09:20:17Z</time></trkpt><trkpt lat="58.056092" lon="38.800163"><ele>107.0</ele><time>2023-07-17T09:20:19Z</time></trkpt><trkpt lat="58.056107" lon="38.80002"><ele>108.0</ele><time>2023-07-17T09:20:21Z</time></trkpt><trkpt lat="58.056118" lon="38.799855"><ele>108.0</ele><time>2023-07-17T09:20:23Z</time></trkpt><trkpt lat="58.056145" lon="38.799677"><ele>108.0</ele><time>2023-07-17T09:20:25Z</time></trkpt><trkpt lat="58.05616" lon="38.799497"><ele>109.0</ele><time>2023-07-17T09:20:27Z</time></trkpt><trkpt lat="58.056187" lon="38.799288"><ele>109.0</ele><time>2023-07-17T09:20:29Z</time></trkpt><trkpt lat="58.056212" lon="38.799115"><ele>110.0</ele><time>2023-07-17T09:20:31Z</time></trkpt><trkpt lat="58.056242" lon="38.798928"><ele>109.0</ele><time>2023-07-17T09:20:33Z</time></trkpt><trkpt lat="58.056242" lon="38.79879"><ele>109.0</ele><time>2023-07-17T09:20:35Z</time></trkpt><trkpt lat="58.056258" lon="38.798618"><ele>109.0</ele><time>2023-07-17T09:20:37Z</time></trkpt><trkpt lat="58.056282" lon="38.79843"><ele>109.0</ele><time>2023-07-17T09:20:39Z</time></trkpt><trkpt lat="58.056282" lon="38.79826"><ele>109.0</ele><time>2023-07-17T09:20:41Z</time></trkpt><trkpt lat="58.056297" lon="38.798072"><ele>108.0</ele><time>2023-07-17T09:20:43Z</time></trkpt><trkpt lat="58.056293" lon="38.79786"><ele>108.0</ele><time>2023-07-17T09:20:46Z</time></trkpt><trkpt lat="58.056308" lon="38.797705"><ele>109.0</ele><time>2023-07-17T09:20:48Z</time></trkpt><trkpt lat="58.056287" lon="38.79753"><ele>110.0</ele><time>2023-07-17T09:20:51Z</time></trkpt><trkpt lat="58.056303" lon="38.797317"><ele>112.0</ele><time>2023-07-17T09:20:53Z</time></trkpt><trkpt lat="58.056322" lon="38.79708"><ele>111.0</ele><time>2023-07-17T09:20:55Z</time></trkpt><trkpt lat="58.056337" lon="38.796813"><ele>111.0</ele><time>2023-07-17T09:20:57Z</time></trkpt><trkpt lat="58.056363" lon="38.796598"><ele>112.0</ele><time>2023-07-17T09:20:59Z</time></trkpt><trkpt lat="58.056378" lon="38.796392"><ele>112.0</ele><time>2023-07-17T09:21:01Z</time></trkpt><trkpt lat="58.05639" lon="38.796253"><ele>113.0</ele><time>2023-07-17T09:21:02Z</time></trkpt><trkpt lat="58.05639" lon="38.796003"><ele>114.0</ele><time>2023-07-17T09:21:04Z</time></trkpt><trkpt lat="58.056388" lon="38.795863"><ele>113.0</ele><time>2023-07-17T09:21:05Z</time></trkpt><trkpt lat="58.056415" lon="38.795648"><ele>113.0</ele><time>2023-07-17T09:21:07Z</time></trkpt><trkpt lat="58.056437" lon="38.79542"><ele>113.0</ele><time>2023-07-17T09:21:09Z</time></trkpt><trkpt lat="58.056457" lon="38.79521"><ele>113.0</ele><time>2023-07-17T09:21:11Z</time></trkpt><trkpt lat="58.056467" lon="38.795005"><ele>113.0</ele><time>2023-07-17T09:21:13Z</time></trkpt><trkpt lat="58.056485" lon="38.794808"><ele>114.0</ele><time>2023-07-17T09:21:15Z</time></trkpt><trkpt lat="58.05651" lon="38.794663"><ele>114.0</ele><time>2023-07-17T09:21:16Z</time></trkpt><trkpt lat="58.056508" lon="38.79446"><ele>114.0</ele><time>2023-07-17T09:21:18Z</time></trkpt><trkpt lat="58.056523" lon="38.794325"><ele>114.0</ele><time>2023-07-17T09:21:19Z</time></trkpt><trkpt lat="58.056542" lon="38.794082"><ele>117.0</ele><time>2023-07-17T09:21:21Z</time></trkpt><trkpt lat="58.056535" lon="38.793905"><ele>116.0</ele><time>2023-07-17T09:21:22Z</time></trkpt><trkpt lat="58.056505" lon="38.793745"><ele>115.0</ele><time>2023-07-17T09:21:23Z</time></trkpt><trkpt lat="58.056522" lon="38.793598"><ele>113.0</ele><time>2023-07-17T09:21:24Z</time></trkpt><trkpt lat="58.056558" lon="38.793348"><ele>115.0</ele><time>2023-07-17T09:21:26Z</time></trkpt><trkpt lat="58.056588" lon="38.793045"><ele>115.0</ele><time>2023-07-17T09:21:28Z</time></trkpt><trkpt lat="58.056578" lon="38.792767"><ele>114.0</ele><time>2023-07-17T09:21:30Z</time></trkpt><trkpt lat="58.056568" lon="38.79251"><ele>113.0</ele><time>2023-07-17T09:21:32Z</time></trkpt><trkpt lat="58.056588" lon="38.79227"><ele>114.0</ele><time>2023-07-17T09:21:34Z</time></trkpt><trkpt lat="58.056608" lon="38.792057"><ele>114.0</ele><time>2023-07-17T09:21:36Z</time></trkpt><trkpt lat="58.05657" lon="38.791888"><ele>112.0</ele><time>2023-07-17T09:21:38Z</time></trkpt><trkpt lat="58.0566" lon="38.791677"><ele>111.0</ele><time>2023-07-17T09:21:40Z</time></trkpt><trkpt lat="58.056617" lon="38.79147"><ele>112.0</ele><time>2023-07-17T09:21:42Z</time></trkpt><trkpt lat="58.056638" lon="38.791253"><ele>114.0</ele><time>2023-07-17T09:21:44Z</time></trkpt><trkpt lat="58.056658" lon="38.791055"><ele>115.0</ele><time>2023-07-17T09:21:46Z</time></trkpt><trkpt lat="58.056642" lon="38.790868"><ele>115.0</ele><time>2023-07-17T09:21:48Z</time></trkpt><trkpt lat="58.056662" lon="38.790695"><ele>111.0</ele><time>2023-07-17T09:21:50Z</time></trkpt><trkpt lat="58.056665" lon="38.790485"><ele>112.0</ele><time>2023-07-17T09:21:52Z</time></trkpt><trkpt lat="58.056692" lon="38.790297"><ele>112.0</ele><time>2023-07-17T09:21:54Z</time></trkpt><trkpt lat="58.056707" lon="38.790093"><ele>113.0</ele><time>2023-07-17T09:21:57Z</time></trkpt><trkpt lat="58.05673" lon="38.789918"><ele>113.0</ele><time>2023-07-17T09:21:59Z</time></trkpt><trkpt lat="58.056753" lon="38.789763"><ele>115.0</ele><time>2023-07-17T09:22:01Z</time></trkpt><trkpt lat="58.05677" lon="38.78961"><ele>115.0</ele><time>2023-07-17T09:22:03Z</time></trkpt><trkpt lat="58.056783" lon="38.78946"><ele>115.0</ele><time>2023-07-17T09:22:05Z</time></trkpt><trkpt lat="58.056818" lon="38.789283"><ele>115.0</ele><time>2023-07-17T09:22:07Z</time></trkpt><trkpt lat="58.05683" lon="38.789098"><ele>115.0</ele><time>2023-07-17T09:22:09Z</time></trkpt><trkpt lat="58.056848" lon="38.788945"><ele>115.0</ele><time>2023-07-17T09:22:11Z</time></trkpt><trkpt lat="58.056862" lon="38.788805"><ele>114.0</ele><time>2023-07-17T09:22:13Z</time></trkpt><trkpt lat="58.056863" lon="38.78866"><ele>116.0</ele><time>2023-07-17T09:22:15Z</time></trkpt><trkpt lat="58.056885" lon="38.788457"><ele>115.0</ele><time>2023-07-17T09:22:17Z</time></trkpt><trkpt lat="58.05689" lon="38.788292"><ele>115.0</ele><time>2023-07-17T09:22:19Z</time></trkpt><trkpt lat="58.0569" lon="38.788108"><ele>115.0</ele><time>2023-07-17T09:22:21Z</time></trkpt><trkpt lat="58.056942" lon="38.787892"><ele>115.0</ele><time>2023-07-17T09:22:23Z</time></trkpt><trkpt lat="58.05696" lon="38.787753"><ele>115.0</ele><time>2023-07-17T09:22:24Z</time></trkpt><trkpt lat="58.056973" lon="38.787507"><ele>116.0</ele><time>2023-07-17T09:22:26Z</time></trkpt><trkpt lat="58.056992" lon="38.78725"><ele>115.0</ele><time>2023-07-17T09:22:28Z</time></trkpt><trkpt lat="58.056987" lon="38.787047"><ele>116.0</ele><time>2023-07-17T09:22:30Z</time></trkpt><trkpt lat="58.057013" lon="38.78683"><ele>114.0</ele><time>2023-07-17T09:22:32Z</time></trkpt><trkpt lat="58.057027" lon="38.786592"><ele>113.0</ele><time>2023-07-17T09:22:34Z</time></trkpt><trkpt lat="58.057022" lon="38.786402"><ele>115.0</ele><time>2023-07-17T09:22:36Z</time></trkpt><trkpt lat="58.057013" lon="38.786203"><ele>114.0</ele><time>2023-07-17T09:22:38Z</time></trkpt><trkpt lat="58.057028" lon="38.786003"><ele>114.0</ele><time>2023-07-17T09:22:40Z</time></trkpt><trkpt lat="58.057047" lon="38.78577"><ele>114.0</ele><time>2023-07-17T09:22:42Z</time></trkpt><trkpt lat="58.057075" lon="38.785545"><ele>113.0</ele><time>2023-07-17T09:22:44Z</time></trkpt><trkpt lat="58.057092" lon="38.785378"><ele>114.0</ele><time>2023-07-17T09:22:46Z</time></trkpt><trkpt lat="58.057072" lon="38.785215"><ele>112.0</ele><time>2023-07-17T09:22:49Z</time></trkpt><trkpt lat="58.057098" lon="38.785038"><ele>114.0</ele><time>2023-07-17T09:23:25Z</time></trkpt><trkpt lat="58.057113" lon="38.78487"><ele>112.0</ele><time>2023-07-17T09:23:28Z</time></trkpt><trkpt lat="58.057155" lon="38.784708"><ele>112.0</ele><time>2023-07-17T09:23:30Z</time></trkpt><trkpt lat="58.057233" lon="38.784518"><ele>112.0</ele><time>2023-07-17T09:23:32Z</time></trkpt><trkpt lat="58.057313" lon="38.784318"><ele>113.0</ele><time>2023-07-17T09:23:34Z</time></trkpt><trkpt lat="58.057378" lon="38.784125"><ele>113.0</ele><time>2023-07-17T09:23:36Z</time></trkpt><trkpt lat="58.05744" lon="38.783888"><ele>112.0</ele><time>2023-07-17T09:23:38Z</time></trkpt><trkpt lat="58.057493" lon="38.783712"><ele>110.0</ele><time>2023-07-17T09:23:40Z</time></trkpt><trkpt lat="58.057563" lon="38.783548"><ele>109.0</ele><time>2023-07-17T09:23:42Z</time></trkpt><trkpt lat="58.057625" lon="38.783377"><ele>109.0</ele><time>2023-07-17T09:23:44Z</time></trkpt><trkpt lat="58.05769" lon="38.78318"><ele>108.0</ele><time>2023-07-17T09:23:46Z</time></trkpt><trkpt lat="58.057753" lon="38.782982"><ele>108.0</ele><time>2023-07-17T09:23:47Z</time></trkpt><trkpt lat="58.057825" lon="38.782785"><ele>108.0</ele><time>2023-07-17T09:23:49Z</time></trkpt><trkpt lat="58.057885" lon="38.782597"><ele>109.0</ele><time>2023-07-17T09:23:51Z</time></trkpt><trkpt lat="58.057947" lon="38.782422"><ele>110.0</ele><time>2023-07-17T09:23:53Z</time></trkpt><trkpt lat="58.058017" lon="38.782228"><ele>110.0</ele><time>2023-07-17T09:23:55Z</time></trkpt><trkpt lat="58.058093" lon="38.78201"><ele>111.0</ele><time>2023-07-17T09:23:57Z</time></trkpt><trkpt lat="58.058128" lon="38.781855"><ele>110.0</ele><time>2023-07-17T09:23:59Z</time></trkpt><trkpt lat="58.058188" lon="38.781673"><ele>110.0</ele><time>2023-07-17T09:24:01Z</time></trkpt><trkpt lat="58.058277" lon="38.781513"><ele>111.0</ele><time>2023-07-17T09:24:03Z</time></trkpt><trkpt lat="58.058335" lon="38.781335"><ele>112.0</ele><time>2023-07-17T09:24:05Z</time></trkpt><trkpt lat="58.058393" lon="38.781142"><ele>111.0</ele><time>2023-07-17T09:24:07Z</time></trkpt><trkpt lat="58.058467" lon="38.780933"><ele>110.0</ele><time>2023-07-17T09:24:09Z</time></trkpt><trkpt lat="58.05853" lon="38.780758"><ele>111.0</ele><time>2023-07-17T09:24:11Z</time></trkpt><trkpt lat="58.058572" lon="38.78064"><ele>110.0</ele><time>2023-07-17T09:24:12Z</time></trkpt><trkpt lat="58.05865" lon="38.780443"><ele>111.0</ele><time>2023-07-17T09:24:14Z</time></trkpt><trkpt lat="58.058708" lon="38.780313"><ele>109.0</ele><time>2023-07-17T09:24:16Z</time></trkpt><trkpt lat="58.05876" lon="38.780168"><ele>109.0</ele><time>2023-07-17T09:24:18Z</time></trkpt><trkpt lat="58.058805" lon="38.780032"><ele>109.0</ele><time>2023-07-17T09:24:19Z</time></trkpt><trkpt lat="58.058798" lon="38.779857"><ele>107.0</ele><time>2023-07-17T09:24:30Z</time></trkpt><trkpt lat="58.058852" lon="38.779707"><ele>106.0</ele><time>2023-07-17T09:24:34Z</time></trkpt><trkpt lat="58.058923" lon="38.779545"><ele>107.0</ele><time>2023-07-17T09:24:37Z</time></trkpt><trkpt lat="58.058978" lon="38.779437"><ele>107.0</ele><time>2023-07-17T09:24:39Z</time></trkpt><trkpt lat="58.059023" lon="38.779307"><ele>107.0</ele><time>2023-07-17T09:24:41Z</time></trkpt><trkpt lat="58.059067" lon="38.779185"><ele>108.0</ele><time>2023-07-17T09:24:43Z</time></trkpt><trkpt lat="58.05911" lon="38.779055"><ele>111.0</ele><time>2023-07-17T09:24:45Z</time></trkpt><trkpt lat="58.059173" lon="38.778887"><ele>112.0</ele><time>2023-07-17T09:24:47Z</time></trkpt><trkpt lat="58.059223" lon="38.778742"><ele>111.0</ele><time>2023-07-17T09:24:50Z</time></trkpt><trkpt lat="58.059282" lon="38.77859"><ele>110.0</ele><time>2023-07-17T09:24:53Z</time></trkpt><trkpt lat="58.059328" lon="38.778428"><ele>108.0</ele><time>2023-07-17T09:24:56Z</time></trkpt><trkpt lat="58.05938" lon="38.77828"><ele>107.0</ele><time>2023-07-17T09:24:59Z</time></trkpt><trkpt lat="58.059417" lon="38.778153"><ele>107.0</ele><time>2023-07-17T09:25:01Z</time></trkpt><trkpt lat="58.059455" lon="38.777975"><ele>105.0</ele><time>2023-07-17T09:25:04Z</time></trkpt><trkpt lat="58.059498" lon="38.777852"><ele>105.0</ele><time>2023-07-17T09:25:06Z</time></trkpt><trkpt lat="58.05955" lon="38.777723"><ele>106.0</ele><time>2023-07-17T09:25:08Z</time></trkpt><trkpt lat="58.0596" lon="38.777607"><ele>106.0</ele><time>2023-07-17T09:25:10Z</time></trkpt><trkpt lat="58.059645" lon="38.777492"><ele>108.0</ele><time>2023-07-17T09:25:12Z</time></trkpt><trkpt lat="58.059692" lon="38.777362"><ele>108.0</ele><time>2023-07-17T09:25:14Z</time></trkpt><trkpt lat="58.059738" lon="38.777222"><ele>109.0</ele><time>2023-07-17T09:25:16Z</time></trkpt><trkpt lat="58.059767" lon="38.777082"><ele>107.0</ele><time>2023-07-17T09:25:18Z</time></trkpt><trkpt lat="58.05975" lon="38.776892"><ele>108.0</ele><time>2023-07-17T09:25:19Z</time></trkpt><trkpt lat="58.059765" lon="38.776712"><ele>107.0</ele><time>2023-07-17T09:25:21Z</time></trkpt><trkpt lat="58.059785" lon="38.776468"><ele>106.0</ele><time>2023-07-17T09:25:23Z</time></trkpt><trkpt lat="58.059758" lon="38.776278"><ele>108.0</ele><time>2023-07-17T09:25:25Z</time></trkpt><trkpt lat="58.059753" lon="38.776128"><ele>106.0</ele><time>2023-07-17T09:25:27Z</time></trkpt><trkpt lat="58.05975" lon="38.77599"><ele>104.0</ele><time>2023-07-17T09:25:29Z</time></trkpt><trkpt lat="58.059782" lon="38.775817"><ele>105.0</ele><time>2023-07-17T09:25:32Z</time></trkpt><trkpt lat="58.059802" lon="38.775663"><ele>105.0</ele><time>2023-07-17T09:25:34Z</time></trkpt><trkpt lat="58.059822" lon="38.775498"><ele>105.0</ele><time>2023-07-17T09:25:36Z</time></trkpt><trkpt lat="58.059832" lon="38.775327"><ele>105.0</ele><time>2023-07-17T09:25:39Z</time></trkpt><trkpt lat="58.05985" lon="38.775143"><ele>106.0</ele><time>2023-07-17T09:25:42Z</time></trkpt><trkpt lat="58.059865" lon="38.774987"><ele>103.0</ele><time>2023-07-17T09:25:44Z</time></trkpt><trkpt lat="58.05988" lon="38.774838"><ele>104.0</ele><time>2023-07-17T09:25:46Z</time></trkpt><trkpt lat="58.0599" lon="38.774648"><ele>105.0</ele><time>2023-07-17T09:25:49Z</time></trkpt><trkpt lat="58.059903" lon="38.77449"><ele>104.0</ele><time>2023-07-17T09:25:51Z</time></trkpt><trkpt lat="58.059893" lon="38.77433"><ele>104.0</ele><time>2023-07-17T09:25:53Z</time></trkpt><trkpt lat="58.059887" lon="38.77415"><ele>106.0</ele><time>2023-07-17T09:25:56Z</time></trkpt><trkpt lat="58.0598" lon="38.774057"><ele>105.0</ele><time>2023-07-17T09:25:59Z</time></trkpt><trkpt lat="58.059723" lon="38.773993"><ele>106.0</ele><time>2023-07-17T09:26:01Z</time></trkpt><trkpt lat="58.059615" lon="38.773993"><ele>107.0</ele><time>2023-07-17T09:26:02Z</time></trkpt><trkpt lat="58.059525" lon="38.77389"><ele>106.0</ele><time>2023-07-17T09:26:04Z</time></trkpt><trkpt lat="58.059428" lon="38.773752"><ele>108.0</ele><time>2023-07-17T09:26:06Z</time></trkpt><trkpt lat="58.059373" lon="38.773652"><ele>108.0</ele><time>2023-07-17T09:26:08Z</time></trkpt><trkpt lat="58.05927" lon="38.773553"><ele>107.0</ele><time>2023-07-17T09:26:11Z</time></trkpt><trkpt lat="58.059178" lon="38.773435"><ele>107.0</ele><time>2023-07-17T09:26:13Z</time></trkpt><trkpt lat="58.05911" lon="38.773338"><ele>107.0</ele><time>2023-07-17T09:26:15Z</time></trkpt><trkpt lat="58.05904" lon="38.773193"><ele>108.0</ele><time>2023-07-17T09:26:17Z</time></trkpt><trkpt lat="58.058957" lon="38.773095"><ele>107.0</ele><time>2023-07-17T09:26:19Z</time></trkpt><trkpt lat="58.058867" lon="38.772978"><ele>109.0</ele><time>2023-07-17T09:26:21Z</time></trkpt><trkpt lat="58.058798" lon="38.772875"><ele>109.0</ele><time>2023-07-17T09:26:23Z</time></trkpt><trkpt lat="58.058718" lon="38.772768"><ele>109.0</ele><time>2023-07-17T09:26:25Z</time></trkpt><trkpt lat="58.058658" lon="38.772658"><ele>108.0</ele><time>2023-07-17T09:26:27Z</time></trkpt><trkpt lat="58.05863" lon="38.772525"><ele>109.0</ele><time>2023-07-17T09:26:29Z</time></trkpt><trkpt lat="58.058637" lon="38.77237"><ele>109.0</ele><time>2023-07-17T09:26:32Z</time></trkpt><trkpt lat="58.0586" lon="38.77222"><ele>107.0</ele><time>2023-07-17T09:26:36Z</time></trkpt><trkpt lat="58.058573" lon="38.772052"><ele>106.0</ele><time>2023-07-17T09:26:39Z</time></trkpt><trkpt lat="58.058548" lon="38.771912"><ele>104.0</ele><time>2023-07-17T09:26:41Z</time></trkpt><trkpt lat="58.058537" lon="38.771777"><ele>104.0</ele><time>2023-07-17T09:26:43Z</time></trkpt><trkpt lat="58.058512" lon="38.771613"><ele>105.0</ele><time>2023-07-17T09:26:45Z</time></trkpt><trkpt lat="58.058488" lon="38.771447"><ele>104.0</ele><time>2023-07-17T09:26:47Z</time></trkpt><trkpt lat="58.058473" lon="38.771282"><ele>106.0</ele><time>2023-07-17T09:26:49Z</time></trkpt><trkpt lat="58.058465" lon="38.771113"><ele>105.0</ele><time>2023-07-17T09:26:51Z</time></trkpt><trkpt lat="58.058457" lon="38.77097"><ele>105.0</ele><time>2023-07-17T09:26:53Z</time></trkpt><trkpt lat="58.05843" lon="38.770773"><ele>104.0</ele><time>2023-07-17T09:26:56Z</time></trkpt><trkpt lat="58.05842" lon="38.770638"><ele>104.0</ele><time>2023-07-17T09:26:58Z</time></trkpt><trkpt lat="58.058417" lon="38.770438"><ele>105.0</ele><time>2023-07-17T09:27:01Z</time></trkpt><trkpt lat="58.058408" lon="38.770282"><ele>106.0</ele><time>2023-07-17T09:27:03Z</time></trkpt><trkpt lat="58.058403" lon="38.770137"><ele>106.0</ele><time>2023-07-17T09:27:05Z</time></trkpt><trkpt lat="58.058397" lon="38.769938"><ele>105.0</ele><time>2023-07-17T09:27:08Z</time></trkpt><trkpt lat="58.058388" lon="38.769777"><ele>106.0</ele><time>2023-07-17T09:27:10Z</time></trkpt><trkpt lat="58.058387" lon="38.769595"><ele>103.0</ele><time>2023-07-17T09:27:12Z</time></trkpt><trkpt lat="58.058378" lon="38.769407"><ele>105.0</ele><time>2023-07-17T09:27:15Z</time></trkpt><trkpt lat="58.058372" lon="38.769207"><ele>105.0</ele><time>2023-07-17T09:27:18Z</time></trkpt><trkpt lat="58.05834" lon="38.769042"><ele>105.0</ele><time>2023-07-17T09:27:20Z</time></trkpt><trkpt lat="58.058323" lon="38.768883"><ele>104.0</ele><time>2023-07-17T09:27:22Z</time></trkpt><trkpt lat="58.058327" lon="38.768702"><ele>105.0</ele><time>2023-07-17T09:27:25Z</time></trkpt><trkpt lat="58.058315" lon="38.768557"><ele>105.0</ele><time>2023-07-17T09:27:27Z</time></trkpt><trkpt lat="58.058292" lon="38.76842"><ele>104.0</ele><time>2023-07-17T09:27:29Z</time></trkpt><trkpt lat="58.058253" lon="38.768273"><ele>103.0</ele><time>2023-07-17T09:27:32Z</time></trkpt><trkpt lat="58.058182" lon="38.76813"><ele>103.0</ele><time>2023-07-17T09:27:35Z</time></trkpt><trkpt lat="58.058092" lon="38.76807"><ele>103.0</ele><time>2023-07-17T09:27:37Z</time></trkpt><trkpt lat="58.058005" lon="38.768103"><ele>103.0</ele><time>2023-07-17T09:27:38Z</time></trkpt><trkpt lat="58.057923" lon="38.76812"><ele>105.0</ele><time>2023-07-17T09:27:41Z</time></trkpt><trkpt lat="58.057832" lon="38.768133"><ele>107.0</ele><time>2023-07-17T09:27:43Z</time></trkpt><trkpt lat="58.05773" lon="38.768172"><ele>108.0</ele><time>2023-07-17T09:27:45Z</time></trkpt><trkpt lat="58.057652" lon="38.768197"><ele>108.0</ele><time>2023-07-17T09:27:47Z</time></trkpt><trkpt lat="58.057578" lon="38.768237"><ele>108.0</ele><time>2023-07-17T09:27:49Z</time></trkpt><trkpt lat="58.057495" lon="38.768237"><ele>110.0</ele><time>2023-07-17T09:27:51Z</time></trkpt><trkpt lat="58.057357" lon="38.768245"><ele>109.0</ele><time>2023-07-17T09:27:53Z</time></trkpt><trkpt lat="58.057267" lon="38.76824"><ele>112.0</ele><time>2023-07-17T09:27:55Z</time></trkpt><trkpt lat="58.057123" lon="38.768005"><ele>112.0</ele><time>2023-07-17T09:27:57Z</time></trkpt><trkpt lat="58.056977" lon="38.767862"><ele>119.0</ele><time>2023-07-17T09:27:58Z</time></trkpt><trkpt lat="58.056918" lon="38.767763"><ele>119.0</ele><time>2023-07-17T09:27:59Z</time></trkpt><trkpt lat="58.05685" lon="38.767832"><ele>122.0</ele><time>2023-07-17T09:28:01Z</time></trkpt><trkpt lat="58.056725" lon="38.767842"><ele>122.0</ele><time>2023-07-17T09:28:02Z</time></trkpt><trkpt lat="58.056635" lon="38.767907"><ele>121.0</ele><time>2023-07-17T09:28:04Z</time></trkpt><trkpt lat="58.056538" lon="38.768013"><ele>122.0</ele><time>2023-07-17T09:28:06Z</time></trkpt><trkpt lat="58.056417" lon="38.768183"><ele>122.0</ele><time>2023-07-17T09:28:08Z</time></trkpt><trkpt lat="58.056308" lon="38.768233"><ele>120.0</ele><time>2023-07-17T09:28:10Z</time></trkpt><trkpt lat="58.056207" lon="38.768278"><ele>119.0</ele><time>2023-07-17T09:28:12Z</time></trkpt><trkpt lat="58.05612" lon="38.7683"><ele>119.0</ele><time>2023-07-17T09:28:14Z</time></trkpt><trkpt lat="58.056047" lon="38.768298"><ele>117.0</ele><time>2023-07-17T09:28:17Z</time></trkpt><trkpt lat="58.05604" lon="38.768145"><ele>113.0</ele><time>2023-07-17T09:28:28Z</time></trkpt><trkpt lat="58.056073" lon="38.768018"><ele>112.0</ele><time>2023-07-17T09:28:33Z</time></trkpt><trkpt lat="58.056113" lon="38.767878"><ele>110.0</ele><time>2023-07-17T09:28:40Z</time></trkpt><trkpt lat="58.056158" lon="38.76777"><ele>110.0</ele><time>2023-07-17T09:28:43Z</time></trkpt><trkpt lat="58.05613" lon="38.767637"><ele>110.0</ele><time>2023-07-17T09:28:51Z</time></trkpt><trkpt lat="58.056028" lon="38.767638"><ele>109.0</ele><time>2023-07-17T09:28:54Z</time></trkpt><trkpt lat="58.055955" lon="38.767743"><ele>110.0</ele><time>2023-07-17T09:28:56Z</time></trkpt><trkpt lat="58.055893" lon="38.76788"><ele>109.0</ele><time>2023-07-17T09:28:58Z</time></trkpt><trkpt lat="58.055835" lon="38.767968"><ele>109.0</ele><time>2023-07-17T09:29:00Z</time></trkpt><trkpt lat="58.055753" lon="38.767988"><ele>109.0</ele><time>2023-07-17T09:29:02Z</time></trkpt><trkpt lat="58.055663" lon="38.767993"><ele>110.0</ele><time>2023-07-17T09:29:04Z</time></trkpt><trkpt lat="58.055573" lon="38.768015"><ele>108.0</ele><time>2023-07-17T09:29:06Z</time></trkpt><trkpt lat="58.055483" lon="38.76797"><ele>108.0</ele><time>2023-07-17T09:29:09Z</time></trkpt><trkpt lat="58.055425" lon="38.767867"><ele>109.0</ele><time>2023-07-17T09:29:11Z</time></trkpt><trkpt lat="58.055358" lon="38.767738"><ele>110.0</ele><time>2023-07-17T09:29:13Z</time></trkpt><trkpt lat="58.055258" lon="38.767642"><ele>109.0</ele><time>2023-07-17T09:29:15Z</time></trkpt><trkpt lat="58.055177" lon="38.767558"><ele>109.0</ele><time>2023-07-17T09:29:17Z</time></trkpt><trkpt lat="58.055098" lon="38.76747"><ele>110.0</ele><time>2023-07-17T09:29:19Z</time></trkpt><trkpt lat="58.055015" lon="38.767395"><ele>110.0</ele><time>2023-07-17T09:29:21Z</time></trkpt><trkpt lat="58.05493" lon="38.76731"><ele>110.0</ele><time>2023-07-17T09:29:23Z</time></trkpt><trkpt lat="58.054855" lon="38.76723"><ele>109.0</ele><time>2023-07-17T09:29:25Z</time></trkpt><trkpt lat="58.054773" lon="38.767158"><ele>110.0</ele><time>2023-07-17T09:29:28Z</time></trkpt><trkpt lat="58.054698" lon="38.767153"><ele>110.0</ele><time>2023-07-17T09:29:30Z</time></trkpt><trkpt lat="58.054612" lon="38.76711"><ele>109.0</ele><time>2023-07-17T09:29:32Z</time></trkpt><trkpt lat="58.05451" lon="38.76701"><ele>112.0</ele><time>2023-07-17T09:29:35Z</time></trkpt><trkpt lat="58.054432" lon="38.766995"><ele>110.0</ele><time>2023-07-17T09:29:37Z</time></trkpt><trkpt lat="58.05433" lon="38.76698"><ele>108.0</ele><time>2023-07-17T09:29:39Z</time></trkpt><trkpt lat="58.054203" lon="38.766928"><ele>108.0</ele><time>2023-07-17T09:29:41Z</time></trkpt><trkpt lat="58.054112" lon="38.766925"><ele>105.0</ele><time>2023-07-17T09:29:43Z</time></trkpt><trkpt lat="58.054025" lon="38.766948"><ele>106.0</ele><time>2023-07-17T09:29:45Z</time></trkpt><trkpt lat="58.053915" lon="38.76698"><ele>105.0</ele><time>2023-07-17T09:29:47Z</time></trkpt><trkpt lat="58.05383" lon="38.766993"><ele>106.0</ele><time>2023-07-17T09:29:49Z</time></trkpt><trkpt lat="58.053752" lon="38.767005"><ele>107.0</ele><time>2023-07-17T09:29:51Z</time></trkpt><trkpt lat="58.053665" lon="38.767007"><ele>109.0</ele><time>2023-07-17T09:29:53Z</time></trkpt><trkpt lat="58.053577" lon="38.766983"><ele>109.0</ele><time>2023-07-17T09:29:54Z</time></trkpt><trkpt lat="58.05346" lon="38.766993"><ele>105.0</ele><time>2023-07-17T09:29:56Z</time></trkpt><trkpt lat="58.053358" lon="38.767007"><ele>106.0</ele><time>2023-07-17T09:29:58Z</time></trkpt><trkpt lat="58.05325" lon="38.767017"><ele>104.0</ele><time>2023-07-17T09:30:00Z</time></trkpt><trkpt lat="58.053127" lon="38.76705"><ele>104.0</ele><time>2023-07-17T09:30:02Z</time></trkpt><trkpt lat="58.053013" lon="38.767077"><ele>103.0</ele><time>2023-07-17T09:30:04Z</time></trkpt><trkpt lat="58.052895" lon="38.767095"><ele>104.0</ele><time>2023-07-17T09:30:06Z</time></trkpt><trkpt lat="58.052792" lon="38.767137"><ele>105.0</ele><time>2023-07-17T09:30:08Z</time></trkpt><trkpt lat="58.052678" lon="38.767167"><ele>106.0</ele><time>2023-07-17T09:30:10Z</time></trkpt><trkpt lat="58.052538" lon="38.76718"><ele>107.0</ele><time>2023-07-17T09:30:12Z</time></trkpt><trkpt lat="58.052408" lon="38.767197"><ele>106.0</ele><time>2023-07-17T09:30:14Z</time></trkpt><trkpt lat="58.052293" lon="38.767227"><ele>106.0</ele><time>2023-07-17T09:30:16Z</time></trkpt><trkpt lat="58.05217" lon="38.76727"><ele>105.0</ele><time>2023-07-17T09:30:18Z</time></trkpt><trkpt lat="58.05206" lon="38.767302"><ele>105.0</ele><time>2023-07-17T09:30:20Z</time></trkpt><trkpt lat="58.051933" lon="38.767347"><ele>106.0</ele><time>2023-07-17T09:30:22Z</time></trkpt><trkpt lat="58.051813" lon="38.767387"><ele>106.0</ele><time>2023-07-17T09:30:24Z</time></trkpt><trkpt lat="58.051692" lon="38.767423"><ele>106.0</ele><time>2023-07-17T09:30:26Z</time></trkpt><trkpt lat="58.051565" lon="38.76746"><ele>106.0</ele><time>2023-07-17T09:30:28Z</time></trkpt><trkpt lat="58.051418" lon="38.767478"><ele>105.0</ele><time>2023-07-17T09:30:30Z</time></trkpt><trkpt lat="58.051287" lon="38.767498"><ele>104.0</ele><time>2023-07-17T09:30:32Z</time></trkpt><trkpt lat="58.051158" lon="38.767553"><ele>105.0</ele><time>2023-07-17T09:30:34Z</time></trkpt><trkpt lat="58.051033" lon="38.767598"><ele>107.0</ele><time>2023-07-17T09:30:36Z</time></trkpt><trkpt lat="58.050938" lon="38.767633"><ele>106.0</ele><time>2023-07-17T09:30:38Z</time></trkpt><trkpt lat="58.050828" lon="38.767648"><ele>106.0</ele><time>2023-07-17T09:30:40Z</time></trkpt><trkpt lat="58.050705" lon="38.767662"><ele>108.0</ele><time>2023-07-17T09:30:42Z</time></trkpt><trkpt lat="58.05059" lon="38.767675"><ele>109.0</ele><time>2023-07-17T09:30:44Z</time></trkpt><trkpt lat="58.050473" lon="38.767687"><ele>109.0</ele><time>2023-07-17T09:30:46Z</time></trkpt><trkpt lat="58.050383" lon="38.767723"><ele>111.0</ele><time>2023-07-17T09:30:48Z</time></trkpt><trkpt lat="58.050295" lon="38.76776"><ele>110.0</ele><time>2023-07-17T09:30:50Z</time></trkpt><trkpt lat="58.05019" lon="38.76774"><ele>107.0</ele><time>2023-07-17T09:30:54Z</time></trkpt><trkpt lat="58.050113" lon="38.767708"><ele>104.0</ele><time>2023-07-17T09:30:56Z</time></trkpt><trkpt lat="58.05003" lon="38.767752"><ele>106.0</ele><time>2023-07-17T09:30:59Z</time></trkpt><trkpt lat="58.049945" lon="38.76773"><ele>104.0</ele><time>2023-07-17T09:31:01Z</time></trkpt><trkpt lat="58.049868" lon="38.767677"><ele>104.0</ele><time>2023-07-17T09:31:03Z</time></trkpt><trkpt lat="58.049788" lon="38.767595"><ele>105.0</ele><time>2023-07-17T09:31:05Z</time></trkpt><trkpt lat="58.049715" lon="38.76752"><ele>106.0</ele><time>2023-07-17T09:31:07Z</time></trkpt><trkpt lat="58.049637" lon="38.767428"><ele>107.0</ele><time>2023-07-17T09:31:10Z</time></trkpt><trkpt lat="58.049582" lon="38.767327"><ele>108.0</ele><time>2023-07-17T09:31:13Z</time></trkpt><trkpt lat="58.049492" lon="38.767197"><ele>108.0</ele><time>2023-07-17T09:31:17Z</time></trkpt><trkpt lat="58.049398" lon="38.767137"><ele>106.0</ele><time>2023-07-17T09:31:20Z</time></trkpt><trkpt lat="58.049312" lon="38.767115"><ele>106.0</ele><time>2023-07-17T09:31:22Z</time></trkpt><trkpt lat="58.049225" lon="38.767093"><ele>107.0</ele><time>2023-07-17T09:31:24Z</time></trkpt><trkpt lat="58.049127" lon="38.767087"><ele>105.0</ele><time>2023-07-17T09:31:26Z</time></trkpt><trkpt lat="58.049022" lon="38.767075"><ele>105.0</ele><time>2023-07-17T09:31:28Z</time></trkpt><trkpt lat="58.048935" lon="38.767065"><ele>105.0</ele><time>2023-07-17T09:31:29Z</time></trkpt><trkpt lat="58.04885" lon="38.767053"><ele>105.0</ele><time>2023-07-17T09:31:31Z</time></trkpt><trkpt lat="58.048765" lon="38.766982"><ele>104.0</ele><time>2023-07-17T09:31:33Z</time></trkpt><trkpt lat="58.048683" lon="38.76689"><ele>105.0</ele><time>2023-07-17T09:31:35Z</time></trkpt><trkpt lat="58.048595" lon="38.766765"><ele>107.0</ele><time>2023-07-17T09:31:38Z</time></trkpt><trkpt lat="58.048515" lon="38.766668"><ele>107.0</ele><time>2023-07-17T09:31:40Z</time></trkpt><trkpt lat="58.048445" lon="38.766568"><ele>107.0</ele><time>2023-07-17T09:31:42Z</time></trkpt><trkpt lat="58.048382" lon="38.76646"><ele>108.0</ele><time>2023-07-17T09:31:43Z</time></trkpt><trkpt lat="58.048327" lon="38.766358"><ele>109.0</ele><time>2023-07-17T09:31:45Z</time></trkpt><trkpt lat="58.048248" lon="38.76627"><ele>110.0</ele><time>2023-07-17T09:31:47Z</time></trkpt><trkpt lat="58.048178" lon="38.76617"><ele>110.0</ele><time>2023-07-17T09:31:49Z</time></trkpt><trkpt lat="58.048115" lon="38.766078"><ele>111.0</ele><time>2023-07-17T09:31:51Z</time></trkpt><trkpt lat="58.04805" lon="38.765995"><ele>111.0</ele><time>2023-07-17T09:31:53Z</time></trkpt><trkpt lat="58.047983" lon="38.765902"><ele>112.0</ele><time>2023-07-17T09:31:55Z</time></trkpt><trkpt lat="58.047917" lon="38.765807"><ele>111.0</ele><time>2023-07-17T09:31:57Z</time></trkpt><trkpt lat="58.047855" lon="38.76573"><ele>110.0</ele><time>2023-07-17T09:31:59Z</time></trkpt><trkpt lat="58.047788" lon="38.765615"><ele>112.0</ele><time>2023-07-17T09:32:02Z</time></trkpt><trkpt lat="58.04771" lon="38.765488"><ele>113.0</ele><time>2023-07-17T09:32:05Z</time></trkpt><trkpt lat="58.047647" lon="38.765402"><ele>113.0</ele><time>2023-07-17T09:32:07Z</time></trkpt><trkpt lat="58.047573" lon="38.76531"><ele>114.0</ele><time>2023-07-17T09:32:09Z</time></trkpt><trkpt lat="58.0475" lon="38.765225"><ele>114.0</ele><time>2023-07-17T09:32:11Z</time></trkpt><trkpt lat="58.047437" lon="38.765158"><ele>114.0</ele><time>2023-07-17T09:32:13Z</time></trkpt><trkpt lat="58.04734" lon="38.765063"><ele>115.0</ele><time>2023-07-17T09:32:17Z</time></trkpt><trkpt lat="58.047245" lon="38.764988"><ele>115.0</ele><time>2023-07-17T09:32:20Z</time></trkpt><trkpt lat="58.047163" lon="38.764892"><ele>115.0</ele><time>2023-07-17T09:32:23Z</time></trkpt><trkpt lat="58.0471" lon="38.764808"><ele>115.0</ele><time>2023-07-17T09:32:25Z</time></trkpt><trkpt lat="58.047033" lon="38.764728"><ele>116.0</ele><time>2023-07-17T09:32:27Z</time></trkpt><trkpt lat="58.04695" lon="38.764618"><ele>115.0</ele><time>2023-07-17T09:32:30Z</time></trkpt><trkpt lat="58.046848" lon="38.764527"><ele>114.0</ele><time>2023-07-17T09:32:33Z</time></trkpt><trkpt lat="58.04677" lon="38.764453"><ele>113.0</ele><time>2023-07-17T09:32:35Z</time></trkpt><trkpt lat="58.046703" lon="38.764378"><ele>112.0</ele><time>2023-07-17T09:32:37Z</time></trkpt><trkpt lat="58.046642" lon="38.764305"><ele>112.0</ele><time>2023-07-17T09:32:39Z</time></trkpt><trkpt lat="58.046565" lon="38.764173"><ele>113.0</ele><time>2023-07-17T09:32:42Z</time></trkpt><trkpt lat="58.04652" lon="38.764005"><ele>113.0</ele><time>2023-07-17T09:32:45Z</time></trkpt><trkpt lat="58.046575" lon="38.763817"><ele>113.0</ele><time>2023-07-17T09:32:48Z</time></trkpt><trkpt lat="58.046653" lon="38.763672"><ele>112.0</ele><time>2023-07-17T09:32:50Z</time></trkpt><trkpt lat="58.046718" lon="38.763512"><ele>111.0</ele><time>2023-07-17T09:32:52Z</time></trkpt><trkpt lat="58.046773" lon="38.763355"><ele>111.0</ele><time>2023-07-17T09:32:54Z</time></trkpt><trkpt lat="58.046835" lon="38.763192"><ele>110.0</ele><time>2023-07-17T09:32:56Z</time></trkpt><trkpt lat="58.046877" lon="38.76307"><ele>109.0</ele><time>2023-07-17T09:32:58Z</time></trkpt><trkpt lat="58.046927" lon="38.76296"><ele>109.0</ele><time>2023-07-17T09:33:00Z</time></trkpt><trkpt lat="58.046983" lon="38.762817"><ele>109.0</ele><time>2023-07-17T09:33:02Z</time></trkpt><trkpt lat="58.047027" lon="38.762678"><ele>109.0</ele><time>2023-07-17T09:33:04Z</time></trkpt><trkpt lat="58.047085" lon="38.762535"><ele>109.0</ele><time>2023-07-17T09:33:06Z</time></trkpt><trkpt lat="58.04712" lon="38.762398"><ele>109.0</ele><time>2023-07-17T09:33:08Z</time></trkpt><trkpt lat="58.047153" lon="38.762247"><ele>106.0</ele><time>2023-07-17T09:33:10Z</time></trkpt><trkpt lat="58.047217" lon="38.762088"><ele>106.0</ele><time>2023-07-17T09:33:12Z</time></trkpt><trkpt lat="58.04727" lon="38.761937"><ele>105.0</ele><time>2023-07-17T09:33:14Z</time></trkpt><trkpt lat="58.04733" lon="38.761773"><ele>105.0</ele><time>2023-07-17T09:33:16Z</time></trkpt><trkpt lat="58.047393" lon="38.761613"><ele>104.0</ele><time>2023-07-17T09:33:18Z</time></trkpt><trkpt lat="58.047445" lon="38.761468"><ele>105.0</ele><time>2023-07-17T09:33:20Z</time></trkpt><trkpt lat="58.047497" lon="38.761317"><ele>105.0</ele><time>2023-07-17T09:33:22Z</time></trkpt><trkpt lat="58.047538" lon="38.761167"><ele>104.0</ele><time>2023-07-17T09:33:24Z</time></trkpt><trkpt lat="58.04759" lon="38.760957"><ele>103.0</ele><time>2023-07-17T09:33:27Z</time></trkpt><trkpt lat="58.047652" lon="38.760797"><ele>103.0</ele><time>2023-07-17T09:33:29Z</time></trkpt><trkpt lat="58.047702" lon="38.760653"><ele>103.0</ele><time>2023-07-17T09:33:31Z</time></trkpt><trkpt lat="58.047742" lon="38.760535"><ele>103.0</ele><time>2023-07-17T09:33:33Z</time></trkpt><trkpt lat="58.047785" lon="38.76042"><ele>104.0</ele><time>2023-07-17T09:33:35Z</time></trkpt><trkpt lat="58.047842" lon="38.760283"><ele>104.0</ele><time>2023-07-17T09:33:37Z</time></trkpt><trkpt lat="58.047897" lon="38.760162"><ele>104.0</ele><time>2023-07-17T09:33:39Z</time></trkpt><trkpt lat="58.047945" lon="38.760052"><ele>106.0</ele><time>2023-07-17T09:33:41Z</time></trkpt><trkpt lat="58.048012" lon="38.7599"><ele>106.0</ele><time>2023-07-17T09:33:43Z</time></trkpt><trkpt lat="58.048062" lon="38.7598"><ele>107.0</ele><time>2023-07-17T09:33:45Z</time></trkpt><trkpt lat="58.048122" lon="38.759653"><ele>106.0</ele><time>2023-07-17T09:33:47Z</time></trkpt><trkpt lat="58.04818" lon="38.759527"><ele>106.0</ele><time>2023-07-17T09:33:49Z</time></trkpt><trkpt lat="58.048238" lon="38.759387"><ele>106.0</ele><time>2023-07-17T09:33:51Z</time></trkpt><trkpt lat="58.048297" lon="38.759253"><ele>106.0</ele><time>2023-07-17T09:33:53Z</time></trkpt><trkpt lat="58.048337" lon="38.759133"><ele>105.0</ele><time>2023-07-17T09:33:55Z</time></trkpt><trkpt lat="58.04836" lon="38.758917"><ele>105.0</ele><time>2023-07-17T09:33:58Z</time></trkpt><trkpt lat="58.048348" lon="38.758767"><ele>106.0</ele><time>2023-07-17T09:34:01Z</time></trkpt><trkpt lat="58.048308" lon="38.758632"><ele>107.0</ele><time>2023-07-17T09:34:03Z</time></trkpt><trkpt lat="58.048257" lon="38.758497"><ele>108.0</ele><time>2023-07-17T09:34:05Z</time></trkpt><trkpt lat="58.048197" lon="38.75835"><ele>109.0</ele><time>2023-07-17T09:34:07Z</time></trkpt><trkpt lat="58.048105" lon="38.75825"><ele>108.0</ele><time>2023-07-17T09:34:09Z</time></trkpt><trkpt lat="58.048035" lon="38.758172"><ele>109.0</ele><time>2023-07-17T09:34:11Z</time></trkpt><trkpt lat="58.04797" lon="38.758097"><ele>110.0</ele><time>2023-07-17T09:34:13Z</time></trkpt><trkpt lat="58.047885" lon="38.758002"><ele>109.0</ele><time>2023-07-17T09:34:15Z</time></trkpt><trkpt lat="58.047862" lon="38.75786"><ele>112.0</ele><time>2023-07-17T09:34:18Z</time></trkpt><trkpt lat="58.047878" lon="38.757657"><ele>111.0</ele><time>2023-07-17T09:34:21Z</time></trkpt><trkpt lat="58.047913" lon="38.757538"><ele>111.0</ele><time>2023-07-17T09:34:23Z</time></trkpt><trkpt lat="58.047947" lon="38.757413"><ele>110.0</ele><time>2023-07-17T09:34:25Z</time></trkpt><trkpt lat="58.04798" lon="38.75729"><ele>110.0</ele><time>2023-07-17T09:34:27Z</time></trkpt><trkpt lat="58.048022" lon="38.757153"><ele>111.0</ele><time>2023-07-17T09:34:29Z</time></trkpt><trkpt lat="58.048058" lon="38.756987"><ele>112.0</ele><time>2023-07-17T09:34:31Z</time></trkpt><trkpt lat="58.048105" lon="38.756845"><ele>112.0</ele><time>2023-07-17T09:34:34Z</time></trkpt><trkpt lat="58.04813" lon="38.75668"><ele>112.0</ele><time>2023-07-17T09:34:36Z</time></trkpt><trkpt lat="58.048168" lon="38.756545"><ele>111.0</ele><time>2023-07-17T09:34:38Z</time></trkpt><trkpt lat="58.048225" lon="38.75641"><ele>111.0</ele><time>2023-07-17T09:34:41Z</time></trkpt><trkpt lat="58.048272" lon="38.756288"><ele>111.0</ele><time>2023-07-17T09:34:43Z</time></trkpt><trkpt lat="58.048318" lon="38.756157"><ele>110.0</ele><time>2023-07-17T09:34:45Z</time></trkpt><trkpt lat="58.048363" lon="38.756033"><ele>111.0</ele><time>2023-07-17T09:34:47Z</time></trkpt><trkpt lat="58.048407" lon="38.755922"><ele>110.0</ele><time>2023-07-17T09:34:49Z</time></trkpt><trkpt lat="58.048458" lon="38.755772"><ele>108.0</ele><time>2023-07-17T09:34:52Z</time></trkpt><trkpt lat="58.048503" lon="38.75565"><ele>110.0</ele><time>2023-07-17T09:34:54Z</time></trkpt><trkpt lat="58.04855" lon="38.755532"><ele>110.0</ele><time>2023-07-17T09:34:56Z</time></trkpt><trkpt lat="58.048607" lon="38.755367"><ele>110.0</ele><time>2023-07-17T09:34:59Z</time></trkpt><trkpt lat="58.048672" lon="38.755222"><ele>109.0</ele><time>2023-07-17T09:35:01Z</time></trkpt><trkpt lat="58.048735" lon="38.755093"><ele>108.0</ele><time>2023-07-17T09:35:04Z</time></trkpt><trkpt lat="58.048775" lon="38.754967"><ele>108.0</ele><time>2023-07-17T09:35:06Z</time></trkpt><trkpt lat="58.048803" lon="38.754832"><ele>108.0</ele><time>2023-07-17T09:35:08Z</time></trkpt><trkpt lat="58.04883" lon="38.754677"><ele>110.0</ele><time>2023-07-17T09:35:11Z</time></trkpt><trkpt lat="58.04887" lon="38.754558"><ele>109.0</ele><time>2023-07-17T09:35:13Z</time></trkpt><trkpt lat="58.048913" lon="38.754428"><ele>110.0</ele><time>2023-07-17T09:35:15Z</time></trkpt><trkpt lat="58.048963" lon="38.754302"><ele>110.0</ele><time>2023-07-17T09:35:17Z</time></trkpt><trkpt lat="58.04901" lon="38.754177"><ele>110.0</ele><time>2023-07-17T09:35:19Z</time></trkpt><trkpt lat="58.049062" lon="38.754015"><ele>107.0</ele><time>2023-07-17T09:35:22Z</time></trkpt><trkpt lat="58.049107" lon="38.753855"><ele>108.0</ele><time>2023-07-17T09:35:25Z</time></trkpt><trkpt lat="58.049145" lon="38.753707"><ele>108.0</ele><time>2023-07-17T09:35:28Z</time></trkpt><trkpt lat="58.04918" lon="38.75357"><ele>107.0</ele><time>2023-07-17T09:35:31Z</time></trkpt><trkpt lat="58.04922" lon="38.75345"><ele>108.0</ele><time>2023-07-17T09:35:34Z</time></trkpt><trkpt lat="58.04925" lon="38.753323"><ele>110.0</ele><time>2023-07-17T09:35:38Z</time></trkpt><trkpt lat="58.04922" lon="38.752672"><ele>125.0</ele><time>2023-07-17T12:38:39Z</time></trkpt><trkpt lat="58.049257" lon="38.752812"><ele>133.0</ele><time>2023-07-17T12:38:46Z</time></trkpt><trkpt lat="58.049272" lon="38.752948"><ele>126.0</ele><time>2023-07-17T12:38:54Z</time></trkpt><trkpt lat="58.049328" lon="38.75303"><ele>133.0</ele><time>2023-07-17T12:39:00Z</time></trkpt><trkpt lat="58.049317" lon="38.753198"><ele>124.0</ele><time>2023-07-17T12:39:07Z</time></trkpt><trkpt lat="58.049278" lon="38.753317"><ele>123.0</ele><time>2023-07-17T12:39:10Z</time></trkpt><trkpt lat="58.049235" lon="38.753438"><ele>123.0</ele><time>2023-07-17T12:39:13Z</time></trkpt><trkpt lat="58.049193" lon="38.753607"><ele>121.0</ele><time>2023-07-17T12:39:17Z</time></trkpt><trkpt lat="58.049157" lon="38.753762"><ele>121.0</ele><time>2023-07-17T12:39:20Z</time></trkpt><trkpt lat="58.049122" lon="38.753903"><ele>121.0</ele><time>2023-07-17T12:39:23Z</time></trkpt><trkpt lat="58.049082" lon="38.754057"><ele>119.0</ele><time>2023-07-17T12:39:27Z</time></trkpt><trkpt lat="58.04904" lon="38.75418"><ele>119.0</ele><time>2023-07-17T12:39:31Z</time></trkpt><trkpt lat="58.048995" lon="38.754302"><ele>117.0</ele><time>2023-07-17T12:39:34Z</time></trkpt><trkpt lat="58.048948" lon="38.75443"><ele>117.0</ele><time>2023-07-17T12:39:38Z</time></trkpt><trkpt lat="58.048908" lon="38.754567"><ele>114.0</ele><time>2023-07-17T12:39:43Z</time></trkpt><trkpt lat="58.048867" lon="38.754682"><ele>113.0</ele><time>2023-07-17T12:39:48Z</time></trkpt><trkpt lat="58.04883" lon="38.754833"><ele>112.0</ele><time>2023-07-17T12:39:53Z</time></trkpt><trkpt lat="58.048777" lon="38.75496"><ele>111.0</ele><time>2023-07-17T12:39:58Z</time></trkpt><trkpt lat="58.048713" lon="38.755065"><ele>110.0</ele><time>2023-07-17T12:40:06Z</time></trkpt><trkpt lat="58.048652" lon="38.755185"><ele>110.0</ele><time>2023-07-17T12:41:31Z</time></trkpt><trkpt lat="58.048602" lon="38.755315"><ele>110.0</ele><time>2023-07-17T12:41:35Z</time></trkpt><trkpt lat="58.048543" lon="38.755402"><ele>109.0</ele><time>2023-07-17T12:41:39Z</time></trkpt><trkpt lat="58.048508" lon="38.75554"><ele>109.0</ele><time>2023-07-17T12:41:42Z</time></trkpt><trkpt lat="58.048473" lon="38.75566"><ele>108.0</ele><time>2023-07-17T12:41:45Z</time></trkpt><trkpt lat="58.04845" lon="38.755795"><ele>108.0</ele><time>2023-07-17T12:41:48Z</time></trkpt><trkpt lat="58.0484" lon="38.75594"><ele>109.0</ele><time>2023-07-17T12:41:51Z</time></trkpt><trkpt lat="58.048342" lon="38.756113"><ele>109.0</ele><time>2023-07-17T12:41:54Z</time></trkpt><trkpt lat="58.04831" lon="38.756238"><ele>102.0</ele><time>2023-07-17T12:41:56Z</time></trkpt><trkpt lat="58.048282" lon="38.756367"><ele>102.0</ele><time>2023-07-17T12:41:58Z</time></trkpt><trkpt lat="58.048238" lon="38.756532"><ele>103.0</ele><time>2023-07-17T12:42:01Z</time></trkpt><trkpt lat="58.048195" lon="38.756687"><ele>104.0</ele><time>2023-07-17T12:42:04Z</time></trkpt><trkpt lat="58.048155" lon="38.756858"><ele>102.0</ele><time>2023-07-17T12:42:07Z</time></trkpt><trkpt lat="58.048115" lon="38.756985"><ele>101.0</ele><time>2023-07-17T12:42:09Z</time></trkpt><trkpt lat="58.048083" lon="38.757115"><ele>100.0</ele><time>2023-07-17T12:42:11Z</time></trkpt><trkpt lat="58.048032" lon="38.757288"><ele>101.0</ele><time>2023-07-17T12:42:14Z</time></trkpt><trkpt lat="58.04798" lon="38.757455"><ele>100.0</ele><time>2023-07-17T12:42:17Z</time></trkpt><trkpt lat="58.047935" lon="38.7576"><ele>98.0</ele><time>2023-07-17T12:42:20Z</time></trkpt><trkpt lat="58.047895" lon="38.757745"><ele>97.0</ele><time>2023-07-17T12:42:23Z</time></trkpt><trkpt lat="58.047882" lon="38.757903"><ele>97.0</ele><time>2023-07-17T12:42:26Z</time></trkpt><trkpt lat="58.047922" lon="38.758062"><ele>99.0</ele><time>2023-07-17T12:42:29Z</time></trkpt><trkpt lat="58.047977" lon="38.758153"><ele>97.0</ele><time>2023-07-17T12:42:31Z</time></trkpt><trkpt lat="58.048045" lon="38.758233"><ele>97.0</ele><time>2023-07-17T12:42:33Z</time></trkpt><trkpt lat="58.04813" lon="38.758322"><ele>98.0</ele><time>2023-07-17T12:42:36Z</time></trkpt><trkpt lat="58.048227" lon="38.758398"><ele>98.0</ele><time>2023-07-17T12:42:39Z</time></trkpt><trkpt lat="58.048308" lon="38.758478"><ele>100.0</ele><time>2023-07-17T12:42:41Z</time></trkpt><trkpt lat="58.048348" lon="38.758603"><ele>101.0</ele><time>2023-07-17T12:42:43Z</time></trkpt><trkpt lat="58.04839" lon="38.758767"><ele>101.0</ele><time>2023-07-17T12:42:46Z</time></trkpt><trkpt lat="58.048383" lon="38.758937"><ele>100.0</ele><time>2023-07-17T12:42:49Z</time></trkpt><trkpt lat="58.048353" lon="38.75907"><ele>99.0</ele><time>2023-07-17T12:42:51Z</time></trkpt><trkpt lat="58.048313" lon="38.759197"><ele>98.0</ele><time>2023-07-17T12:42:53Z</time></trkpt><trkpt lat="58.048248" lon="38.759352"><ele>101.0</ele><time>2023-07-17T12:42:56Z</time></trkpt><trkpt lat="58.048202" lon="38.759455"><ele>100.0</ele><time>2023-07-17T12:42:58Z</time></trkpt><trkpt lat="58.048148" lon="38.759567"><ele>101.0</ele><time>2023-07-17T12:43:00Z</time></trkpt><trkpt lat="58.048092" lon="38.759728"><ele>100.0</ele><time>2023-07-17T12:43:02Z</time></trkpt><trkpt lat="58.048023" lon="38.759908"><ele>99.0</ele><time>2023-07-17T12:43:04Z</time></trkpt><trkpt lat="58.047947" lon="38.760068"><ele>100.0</ele><time>2023-07-17T12:43:06Z</time></trkpt><trkpt lat="58.047878" lon="38.760188"><ele>99.0</ele><time>2023-07-17T12:43:08Z</time></trkpt><trkpt lat="58.047817" lon="38.760327"><ele>99.0</ele><time>2023-07-17T12:43:10Z</time></trkpt><trkpt lat="58.047762" lon="38.760453"><ele>101.0</ele><time>2023-07-17T12:43:12Z</time></trkpt><trkpt lat="58.047725" lon="38.760577"><ele>101.0</ele><time>2023-07-17T12:43:14Z</time></trkpt><trkpt lat="58.047677" lon="38.760733"><ele>102.0</ele><time>2023-07-17T12:43:16Z</time></trkpt><trkpt lat="58.047622" lon="38.760895"><ele>101.0</ele><time>2023-07-17T12:43:18Z</time></trkpt><trkpt lat="58.047567" lon="38.76108"><ele>101.0</ele><time>2023-07-17T12:43:20Z</time></trkpt><trkpt lat="58.04751" lon="38.761263"><ele>102.0</ele><time>2023-07-17T12:43:22Z</time></trkpt><trkpt lat="58.047453" lon="38.761445"><ele>102.0</ele><time>2023-07-17T12:43:24Z</time></trkpt><trkpt lat="58.047383" lon="38.761617"><ele>103.0</ele><time>2023-07-17T12:43:26Z</time></trkpt><trkpt lat="58.04731" lon="38.761787"><ele>103.0</ele><time>2023-07-17T12:43:28Z</time></trkpt><trkpt lat="58.047245" lon="38.761963"><ele>105.0</ele><time>2023-07-17T12:43:30Z</time></trkpt><trkpt lat="58.047165" lon="38.762115"><ele>104.0</ele><time>2023-07-17T12:43:32Z</time></trkpt><trkpt lat="58.047098" lon="38.76228"><ele>101.0</ele><time>2023-07-17T12:43:34Z</time></trkpt><trkpt lat="58.04704" lon="38.762457"><ele>101.0</ele><time>2023-07-17T12:43:36Z</time></trkpt><trkpt lat="58.046982" lon="38.762642"><ele>102.0</ele><time>2023-07-17T12:43:38Z</time></trkpt><trkpt lat="58.04692" lon="38.762805"><ele>101.0</ele><time>2023-07-17T12:43:40Z</time></trkpt><trkpt lat="58.046847" lon="38.762973"><ele>102.0</ele><time>2023-07-17T12:43:42Z</time></trkpt><trkpt lat="58.046785" lon="38.76314"><ele>102.0</ele><time>2023-07-17T12:43:44Z</time></trkpt><trkpt lat="58.046727" lon="38.763287"><ele>103.0</ele><time>2023-07-17T12:43:46Z</time></trkpt><trkpt lat="58.046685" lon="38.763437"><ele>103.0</ele><time>2023-07-17T12:43:48Z</time></trkpt><trkpt lat="58.046622" lon="38.763598"><ele>103.0</ele><time>2023-07-17T12:43:50Z</time></trkpt><trkpt lat="58.04657" lon="38.763757"><ele>103.0</ele><time>2023-07-17T12:43:52Z</time></trkpt><trkpt lat="58.046543" lon="38.763918"><ele>103.0</ele><time>2023-07-17T12:43:54Z</time></trkpt><trkpt lat="58.04656" lon="38.764087"><ele>103.0</ele><time>2023-07-17T12:43:56Z</time></trkpt><trkpt lat="58.046607" lon="38.764192"><ele>102.0</ele><time>2023-07-17T12:43:58Z</time></trkpt><trkpt lat="58.046673" lon="38.764318"><ele>101.0</ele><time>2023-07-17T12:44:00Z</time></trkpt><trkpt lat="58.046747" lon="38.764415"><ele>102.0</ele><time>2023-07-17T12:44:02Z</time></trkpt><trkpt lat="58.046835" lon="38.76453"><ele>101.0</ele><time>2023-07-17T12:44:04Z</time></trkpt><trkpt lat="58.046927" lon="38.764625"><ele>100.0</ele><time>2023-07-17T12:44:06Z</time></trkpt><trkpt lat="58.047005" lon="38.764712"><ele>99.0</ele><time>2023-07-17T12:44:08Z</time></trkpt><trkpt lat="58.047085" lon="38.764822"><ele>100.0</ele><time>2023-07-17T12:44:10Z</time></trkpt><trkpt lat="58.047168" lon="38.764918"><ele>99.0</ele><time>2023-07-17T12:44:12Z</time></trkpt><trkpt lat="58.047233" lon="38.765003"><ele>98.0</ele><time>2023-07-17T12:44:14Z</time></trkpt><trkpt lat="58.047313" lon="38.765067"><ele>98.0</ele><time>2023-07-17T12:44:16Z</time></trkpt><trkpt lat="58.04739" lon="38.765135"><ele>98.0</ele><time>2023-07-17T12:44:18Z</time></trkpt><trkpt lat="58.047453" lon="38.765198"><ele>97.0</ele><time>2023-07-17T12:44:20Z</time></trkpt><trkpt lat="58.047525" lon="38.765292"><ele>97.0</ele><time>2023-07-17T12:44:22Z</time></trkpt><trkpt lat="58.047612" lon="38.765387"><ele>97.0</ele><time>2023-07-17T12:44:24Z</time></trkpt><trkpt lat="58.047687" lon="38.765512"><ele>98.0</ele><time>2023-07-17T12:44:26Z</time></trkpt><trkpt lat="58.047758" lon="38.765598"><ele>98.0</ele><time>2023-07-17T12:44:28Z</time></trkpt><trkpt lat="58.047823" lon="38.765697"><ele>98.0</ele><time>2023-07-17T12:44:30Z</time></trkpt><trkpt lat="58.047883" lon="38.765792"><ele>97.0</ele><time>2023-07-17T12:44:32Z</time></trkpt><trkpt lat="58.04796" lon="38.765867"><ele>97.0</ele><time>2023-07-17T12:44:34Z</time></trkpt><trkpt lat="58.04806" lon="38.76597"><ele>97.0</ele><time>2023-07-17T12:44:36Z</time></trkpt><trkpt lat="58.048133" lon="38.766073"><ele>98.0</ele><time>2023-07-17T12:44:38Z</time></trkpt><trkpt lat="58.048205" lon="38.766148"><ele>98.0</ele><time>2023-07-17T12:44:41Z</time></trkpt><trkpt lat="58.048292" lon="38.766282"><ele>98.0</ele><time>2023-07-17T12:44:45Z</time></trkpt><trkpt lat="58.04837" lon="38.766383"><ele>98.0</ele><time>2023-07-17T12:44:47Z</time></trkpt><trkpt lat="58.048435" lon="38.766473"><ele>98.0</ele><time>2023-07-17T12:44:49Z</time></trkpt><trkpt lat="58.048502" lon="38.766562"><ele>98.0</ele><time>2023-07-17T12:44:51Z</time></trkpt><trkpt lat="58.048578" lon="38.766675"><ele>98.0</ele><time>2023-07-17T12:44:53Z</time></trkpt><trkpt lat="58.048655" lon="38.766787"><ele>97.0</ele><time>2023-07-17T12:44:55Z</time></trkpt><trkpt lat="58.048743" lon="38.766893"><ele>98.0</ele><time>2023-07-17T12:44:57Z</time></trkpt><trkpt lat="58.048823" lon="38.766987"><ele>98.0</ele><time>2023-07-17T12:44:59Z</time></trkpt><trkpt lat="58.04891" lon="38.767033"><ele>99.0</ele><time>2023-07-17T12:45:01Z</time></trkpt><trkpt lat="58.049007" lon="38.76707"><ele>98.0</ele><time>2023-07-17T12:45:03Z</time></trkpt><trkpt lat="58.049113" lon="38.767088"><ele>98.0</ele><time>2023-07-17T12:45:05Z</time></trkpt><trkpt lat="58.0492" lon="38.767113"><ele>97.0</ele><time>2023-07-17T12:45:07Z</time></trkpt><trkpt lat="58.049297" lon="38.767095"><ele>98.0</ele><time>2023-07-17T12:45:09Z</time></trkpt><trkpt lat="58.049382" lon="38.767108"><ele>98.0</ele><time>2023-07-17T12:45:11Z</time></trkpt><trkpt lat="58.049477" lon="38.767187"><ele>96.0</ele><time>2023-07-17T12:45:14Z</time></trkpt><trkpt lat="58.049563" lon="38.767305"><ele>96.0</ele><time>2023-07-17T12:45:17Z</time></trkpt><trkpt lat="58.049617" lon="38.767422"><ele>96.0</ele><time>2023-07-17T12:45:19Z</time></trkpt><trkpt lat="58.049648" lon="38.767568"><ele>97.0</ele><time>2023-07-17T12:45:21Z</time></trkpt><trkpt lat="58.04967" lon="38.767743"><ele>97.0</ele><time>2023-07-17T12:45:24Z</time></trkpt><trkpt lat="58.049768" lon="38.767783"><ele>99.0</ele><time>2023-07-17T12:45:27Z</time></trkpt><trkpt lat="58.049838" lon="38.767742"><ele>97.0</ele><time>2023-07-17T12:45:29Z</time></trkpt><trkpt lat="58.04994" lon="38.767728"><ele>98.0</ele><time>2023-07-17T12:45:32Z</time></trkpt><trkpt lat="58.050033" lon="38.76773"><ele>98.0</ele><time>2023-07-17T12:45:35Z</time></trkpt><trkpt lat="58.050112" lon="38.767728"><ele>99.0</ele><time>2023-07-17T12:45:37Z</time></trkpt><trkpt lat="58.050192" lon="38.76772"><ele>99.0</ele><time>2023-07-17T12:45:39Z</time></trkpt><trkpt lat="58.050268" lon="38.767708"><ele>100.0</ele><time>2023-07-17T12:45:41Z</time></trkpt><trkpt lat="58.050348" lon="38.767695"><ele>100.0</ele><time>2023-07-17T12:45:43Z</time></trkpt><trkpt lat="58.050452" lon="38.767653"><ele>100.0</ele><time>2023-07-17T12:45:46Z</time></trkpt><trkpt lat="58.050522" lon="38.767618"><ele>100.0</ele><time>2023-07-17T12:45:48Z</time></trkpt><trkpt lat="58.050618" lon="38.767582"><ele>98.0</ele><time>2023-07-17T12:45:50Z</time></trkpt><trkpt lat="58.050702" lon="38.767527"><ele>99.0</ele><time>2023-07-17T12:45:53Z</time></trkpt><trkpt lat="58.050805" lon="38.767493"><ele>100.0</ele><time>2023-07-17T12:45:56Z</time></trkpt><trkpt lat="58.050877" lon="38.767488"><ele>99.0</ele><time>2023-07-17T12:45:58Z</time></trkpt><trkpt lat="58.050955" lon="38.76742"><ele>100.0</ele><time>2023-07-17T12:46:01Z</time></trkpt><trkpt lat="58.051043" lon="38.767445"><ele>101.0</ele><time>2023-07-17T12:46:04Z</time></trkpt><trkpt lat="58.051128" lon="38.767495"><ele>100.0</ele><time>2023-07-17T12:46:07Z</time></trkpt><trkpt lat="58.051213" lon="38.767548"><ele>100.0</ele><time>2023-07-17T12:46:10Z</time></trkpt><trkpt lat="58.051312" lon="38.767613"><ele>99.0</ele><time>2023-07-17T12:46:12Z</time></trkpt><trkpt lat="58.05143" lon="38.767667"><ele>99.0</ele><time>2023-07-17T12:46:14Z</time></trkpt><trkpt lat="58.051542" lon="38.767687"><ele>99.0</ele><time>2023-07-17T12:46:16Z</time></trkpt><trkpt lat="58.051612" lon="38.767747"><ele>99.0</ele><time>2023-07-17T12:46:18Z</time></trkpt><trkpt lat="58.051682" lon="38.767765"><ele>100.0</ele><time>2023-07-17T12:46:20Z</time></trkpt><trkpt lat="58.05177" lon="38.767743"><ele>102.0</ele><time>2023-07-17T12:46:22Z</time></trkpt><trkpt lat="58.051863" lon="38.767728"><ele>102.0</ele><time>2023-07-17T12:46:24Z</time></trkpt><trkpt lat="58.051948" lon="38.767715"><ele>101.0</ele><time>2023-07-17T12:46:26Z</time></trkpt><trkpt lat="58.052048" lon="38.767723"><ele>102.0</ele><time>2023-07-17T12:46:28Z</time></trkpt><trkpt lat="58.05217" lon="38.767702"><ele>100.0</ele><time>2023-07-17T12:46:30Z</time></trkpt><trkpt lat="58.052242" lon="38.76769"><ele>100.0</ele><time>2023-07-17T12:46:31Z</time></trkpt><trkpt lat="58.052317" lon="38.767677"><ele>100.0</ele><time>2023-07-17T12:46:32Z</time></trkpt><trkpt lat="58.052395" lon="38.767667"><ele>100.0</ele><time>2023-07-17T12:46:33Z</time></trkpt><trkpt lat="58.052475" lon="38.76766"><ele>100.0</ele><time>2023-07-17T12:46:34Z</time></trkpt><trkpt lat="58.052557" lon="38.767648"><ele>101.0</ele><time>2023-07-17T12:46:35Z</time></trkpt><trkpt lat="58.052633" lon="38.76762"><ele>101.0</ele><time>2023-07-17T12:46:36Z</time></trkpt><trkpt lat="58.052708" lon="38.767607"><ele>102.0</ele><time>2023-07-17T12:46:38Z</time></trkpt><trkpt lat="58.052785" lon="38.767593"><ele>102.0</ele><time>2023-07-17T12:46:39Z</time></trkpt><trkpt lat="58.052918" lon="38.767575"><ele>103.0</ele><time>2023-07-17T12:46:41Z</time></trkpt><trkpt lat="58.05304" lon="38.767562"><ele>103.0</ele><time>2023-07-17T12:46:43Z</time></trkpt><trkpt lat="58.053167" lon="38.76752"><ele>102.0</ele><time>2023-07-17T12:46:45Z</time></trkpt><trkpt lat="58.053295" lon="38.76749"><ele>102.0</ele><time>2023-07-17T12:46:47Z</time></trkpt><trkpt lat="58.053408" lon="38.767482"><ele>101.0</ele><time>2023-07-17T12:46:49Z</time></trkpt><trkpt lat="58.053503" lon="38.767465"><ele>100.0</ele><time>2023-07-17T12:46:51Z</time></trkpt><trkpt lat="58.053625" lon="38.767447"><ele>97.0</ele><time>2023-07-17T12:46:53Z</time></trkpt><trkpt lat="58.053737" lon="38.767392"><ele>97.0</ele><time>2023-07-17T12:46:55Z</time></trkpt><trkpt lat="58.053853" lon="38.767393"><ele>97.0</ele><time>2023-07-17T12:46:57Z</time></trkpt><trkpt lat="58.053943" lon="38.767383"><ele>96.0</ele><time>2023-07-17T12:46:59Z</time></trkpt><trkpt lat="58.054033" lon="38.767353"><ele>96.0</ele><time>2023-07-17T12:47:01Z</time></trkpt><trkpt lat="58.054127" lon="38.767342"><ele>95.0</ele><time>2023-07-17T12:47:03Z</time></trkpt><trkpt lat="58.054212" lon="38.767357"><ele>96.0</ele><time>2023-07-17T12:47:05Z</time></trkpt><trkpt lat="58.054322" lon="38.76736"><ele>96.0</ele><time>2023-07-17T12:47:07Z</time></trkpt><trkpt lat="58.05442" lon="38.76737"><ele>97.0</ele><time>2023-07-17T12:47:09Z</time></trkpt><trkpt lat="58.054517" lon="38.767403"><ele>97.0</ele><time>2023-07-17T12:47:11Z</time></trkpt><trkpt lat="58.054602" lon="38.767458"><ele>96.0</ele><time>2023-07-17T12:47:13Z</time></trkpt><trkpt lat="58.054682" lon="38.767505"><ele>97.0</ele><time>2023-07-17T12:47:15Z</time></trkpt><trkpt lat="58.05475" lon="38.767577"><ele>97.0</ele><time>2023-07-17T12:47:17Z</time></trkpt><trkpt lat="58.054837" lon="38.767677"><ele>98.0</ele><time>2023-07-17T12:47:19Z</time></trkpt><trkpt lat="58.054933" lon="38.767745"><ele>98.0</ele><time>2023-07-17T12:47:21Z</time></trkpt><trkpt lat="58.055017" lon="38.767838"><ele>98.0</ele><time>2023-07-17T12:47:23Z</time></trkpt><trkpt lat="58.055092" lon="38.767927"><ele>98.0</ele><time>2023-07-17T12:47:25Z</time></trkpt><trkpt lat="58.055137" lon="38.768052"><ele>99.0</ele><time>2023-07-17T12:47:27Z</time></trkpt><trkpt lat="58.055177" lon="38.768195"><ele>98.0</ele><time>2023-07-17T12:47:29Z</time></trkpt><trkpt lat="58.055208" lon="38.768363"><ele>98.0</ele><time>2023-07-17T12:47:32Z</time></trkpt><trkpt lat="58.05522" lon="38.768503"><ele>97.0</ele><time>2023-07-17T12:47:34Z</time></trkpt><trkpt lat="58.055233" lon="38.768645"><ele>97.0</ele><time>2023-07-17T12:47:36Z</time></trkpt><trkpt lat="58.055247" lon="38.76878"><ele>96.0</ele><time>2023-07-17T12:47:38Z</time></trkpt><trkpt lat="58.05527" lon="38.76897"><ele>99.0</ele><time>2023-07-17T12:47:41Z</time></trkpt><trkpt lat="58.055328" lon="38.76911"><ele>99.0</ele><time>2023-07-17T12:47:44Z</time></trkpt><trkpt lat="58.05541" lon="38.769175"><ele>101.0</ele><time>2023-07-17T12:47:48Z</time></trkpt><trkpt lat="58.055345" lon="38.7693"><ele>100.0</ele><time>2023-07-17T12:47:56Z</time></trkpt><trkpt lat="58.055283" lon="38.769463"><ele>99.0</ele><time>2023-07-17T12:47:59Z</time></trkpt><trkpt lat="58.055243" lon="38.769597"><ele>98.0</ele><time>2023-07-17T12:48:01Z</time></trkpt><trkpt lat="58.0552" lon="38.769732"><ele>99.0</ele><time>2023-07-17T12:48:03Z</time></trkpt><trkpt lat="58.055153" lon="38.769862"><ele>100.0</ele><time>2023-07-17T12:48:05Z</time></trkpt><trkpt lat="58.055115" lon="38.769985"><ele>101.0</ele><time>2023-07-17T12:48:07Z</time></trkpt><trkpt lat="58.055148" lon="38.770107"><ele>100.0</ele><time>2023-07-17T12:48:14Z</time></trkpt><trkpt lat="58.055232" lon="38.770168"><ele>98.0</ele><time>2023-07-17T12:48:18Z</time></trkpt><trkpt lat="58.055295" lon="38.770243"><ele>98.0</ele><time>2023-07-17T12:48:22Z</time></trkpt><trkpt lat="58.055275" lon="38.770388"><ele>98.0</ele><time>2023-07-17T12:48:27Z</time></trkpt><trkpt lat="58.055203" lon="38.770538"><ele>98.0</ele><time>2023-07-17T12:48:30Z</time></trkpt><trkpt lat="58.055138" lon="38.770658"><ele>99.0</ele><time>2023-07-17T12:48:32Z</time></trkpt><trkpt lat="58.05508" lon="38.770787"><ele>98.0</ele><time>2023-07-17T12:48:34Z</time></trkpt><trkpt lat="58.055002" lon="38.770918"><ele>99.0</ele><time>2023-07-17T12:48:36Z</time></trkpt><trkpt lat="58.054933" lon="38.77109"><ele>98.0</ele><time>2023-07-17T12:48:38Z</time></trkpt><trkpt lat="58.054877" lon="38.771263"><ele>99.0</ele><time>2023-07-17T12:48:40Z</time></trkpt><trkpt lat="58.054852" lon="38.771442"><ele>98.0</ele><time>2023-07-17T12:48:42Z</time></trkpt><trkpt lat="58.05482" lon="38.771588"><ele>95.0</ele><time>2023-07-17T12:48:44Z</time></trkpt><trkpt lat="58.054762" lon="38.77172"><ele>96.0</ele><time>2023-07-17T12:48:46Z</time></trkpt><trkpt lat="58.054717" lon="38.771877"><ele>96.0</ele><time>2023-07-17T12:48:48Z</time></trkpt><trkpt lat="58.05466" lon="38.772035"><ele>95.0</ele><time>2023-07-17T12:48:50Z</time></trkpt><trkpt lat="58.054615" lon="38.772188"><ele>95.0</ele><time>2023-07-17T12:48:52Z</time></trkpt><trkpt lat="58.054567" lon="38.77233"><ele>93.0</ele><time>2023-07-17T12:48:54Z</time></trkpt><trkpt lat="58.054517" lon="38.772465"><ele>93.0</ele><time>2023-07-17T12:48:56Z</time></trkpt><trkpt lat="58.054458" lon="38.772593"><ele>92.0</ele><time>2023-07-17T12:48:58Z</time></trkpt><trkpt lat="58.054413" lon="38.772708"><ele>92.0</ele><time>2023-07-17T12:49:00Z</time></trkpt><trkpt lat="58.054367" lon="38.772827"><ele>92.0</ele><time>2023-07-17T12:49:02Z</time></trkpt><trkpt lat="58.054343" lon="38.773037"><ele>94.0</ele><time>2023-07-17T12:49:05Z</time></trkpt><trkpt lat="58.054272" lon="38.773163"><ele>93.0</ele><time>2023-07-17T12:49:07Z</time></trkpt><trkpt lat="58.05423" lon="38.773312"><ele>93.0</ele><time>2023-07-17T12:49:09Z</time></trkpt><trkpt lat="58.054185" lon="38.773497"><ele>92.0</ele><time>2023-07-17T12:49:12Z</time></trkpt><trkpt lat="58.054135" lon="38.773663"><ele>91.0</ele><time>2023-07-17T12:49:15Z</time></trkpt><trkpt lat="58.054078" lon="38.773822"><ele>91.0</ele><time>2023-07-17T12:49:18Z</time></trkpt><trkpt lat="58.05402" lon="38.773958"><ele>89.0</ele><time>2023-07-17T12:49:21Z</time></trkpt><trkpt lat="58.053973" lon="38.774067"><ele>88.0</ele><time>2023-07-17T12:49:31Z</time></trkpt><trkpt lat="58.053915" lon="38.774228"><ele>88.0</ele><time>2023-07-17T12:49:35Z</time></trkpt><trkpt lat="58.05385" lon="38.774408"><ele>87.0</ele><time>2023-07-17T12:49:37Z</time></trkpt><trkpt lat="58.053795" lon="38.774587"><ele>88.0</ele><time>2023-07-17T12:49:39Z</time></trkpt><trkpt lat="58.053733" lon="38.774737"><ele>87.0</ele><time>2023-07-17T12:49:41Z</time></trkpt><trkpt lat="58.053677" lon="38.774875"><ele>88.0</ele><time>2023-07-17T12:49:43Z</time></trkpt><trkpt lat="58.053625" lon="38.775022"><ele>87.0</ele><time>2023-07-17T12:49:45Z</time></trkpt><trkpt lat="58.05359" lon="38.775172"><ele>89.0</ele><time>2023-07-17T12:49:47Z</time></trkpt><trkpt lat="58.053537" lon="38.775308"><ele>88.0</ele><time>2023-07-17T12:49:49Z</time></trkpt><trkpt lat="58.053502" lon="38.77545"><ele>89.0</ele><time>2023-07-17T12:49:51Z</time></trkpt><trkpt lat="58.05345" lon="38.775588"><ele>89.0</ele><time>2023-07-17T12:49:53Z</time></trkpt><trkpt lat="58.053405" lon="38.775707"><ele>90.0</ele><time>2023-07-17T12:49:55Z</time></trkpt><trkpt lat="58.05335" lon="38.77586"><ele>92.0</ele><time>2023-07-17T12:49:58Z</time></trkpt><trkpt lat="58.053307" lon="38.775977"><ele>92.0</ele><time>2023-07-17T12:50:00Z</time></trkpt><trkpt lat="58.053268" lon="38.776093"><ele>91.0</ele><time>2023-07-17T12:50:02Z</time></trkpt><trkpt lat="58.053213" lon="38.77623"><ele>92.0</ele><time>2023-07-17T12:50:05Z</time></trkpt><trkpt lat="58.053162" lon="38.776388"><ele>94.0</ele><time>2023-07-17T12:50:08Z</time></trkpt><trkpt lat="58.053108" lon="38.776558"><ele>96.0</ele><time>2023-07-17T12:50:11Z</time></trkpt><trkpt lat="58.053067" lon="38.776683"><ele>95.0</ele><time>2023-07-17T12:50:13Z</time></trkpt><trkpt lat="58.053025" lon="38.776803"><ele>99.0</ele><time>2023-07-17T12:50:15Z</time></trkpt><trkpt lat="58.052982" lon="38.776938"><ele>96.0</ele><time>2023-07-17T12:50:17Z</time></trkpt><trkpt lat="58.052947" lon="38.77708"><ele>96.0</ele><time>2023-07-17T12:50:19Z</time></trkpt><trkpt lat="58.05291" lon="38.7772"><ele>95.0</ele><time>2023-07-17T12:50:21Z</time></trkpt><trkpt lat="58.052848" lon="38.777362"><ele>96.0</ele><time>2023-07-17T12:50:24Z</time></trkpt><trkpt lat="58.052793" lon="38.777522"><ele>94.0</ele><time>2023-07-17T12:50:27Z</time></trkpt><trkpt lat="58.052755" lon="38.777662"><ele>94.0</ele><time>2023-07-17T12:50:30Z</time></trkpt><trkpt lat="58.052708" lon="38.777795"><ele>93.0</ele><time>2023-07-17T12:50:33Z</time></trkpt><trkpt lat="58.052657" lon="38.777932"><ele>92.0</ele><time>2023-07-17T12:50:36Z</time></trkpt><trkpt lat="58.05261" lon="38.77807"><ele>94.0</ele><time>2023-07-17T12:50:39Z</time></trkpt><trkpt lat="58.052558" lon="38.77821"><ele>96.0</ele><time>2023-07-17T12:50:42Z</time></trkpt><trkpt lat="58.052517" lon="38.778335"><ele>96.0</ele><time>2023-07-17T12:50:46Z</time></trkpt><trkpt lat="58.05248" lon="38.778452"><ele>96.0</ele><time>2023-07-17T12:50:49Z</time></trkpt><trkpt lat="58.052433" lon="38.778598"><ele>97.0</ele><time>2023-07-17T12:50:52Z</time></trkpt><trkpt lat="58.052402" lon="38.778725"><ele>98.0</ele><time>2023-07-17T12:50:54Z</time></trkpt><trkpt lat="58.052368" lon="38.778848"><ele>98.0</ele><time>2023-07-17T12:50:56Z</time></trkpt><trkpt lat="58.052323" lon="38.778965"><ele>98.0</ele><time>2023-07-17T12:50:58Z</time></trkpt><trkpt lat="58.052255" lon="38.779103"><ele>99.0</ele><time>2023-07-17T12:51:01Z</time></trkpt><trkpt lat="58.052237" lon="38.779293"><ele>98.0</ele><time>2023-07-17T12:51:04Z</time></trkpt><trkpt lat="58.052242" lon="38.779445"><ele>97.0</ele><time>2023-07-17T12:51:06Z</time></trkpt><trkpt lat="58.052268" lon="38.779605"><ele>95.0</ele><time>2023-07-17T12:51:08Z</time></trkpt><trkpt lat="58.05228" lon="38.779743"><ele>95.0</ele><time>2023-07-17T12:51:10Z</time></trkpt><trkpt lat="58.052302" lon="38.77989"><ele>94.0</ele><time>2023-07-17T12:51:12Z</time></trkpt><trkpt lat="58.052332" lon="38.780067"><ele>95.0</ele><time>2023-07-17T12:51:14Z</time></trkpt><trkpt lat="58.052362" lon="38.78024"><ele>95.0</ele><time>2023-07-17T12:51:16Z</time></trkpt><trkpt lat="58.052383" lon="38.780385"><ele>95.0</ele><time>2023-07-17T12:51:18Z</time></trkpt><trkpt lat="58.052402" lon="38.780588"><ele>96.0</ele><time>2023-07-17T12:51:21Z</time></trkpt><trkpt lat="58.052432" lon="38.78074"><ele>96.0</ele><time>2023-07-17T12:51:23Z</time></trkpt><trkpt lat="58.052457" lon="38.7809"><ele>95.0</ele><time>2023-07-17T12:51:26Z</time></trkpt><trkpt lat="58.052472" lon="38.781067"><ele>95.0</ele><time>2023-07-17T12:51:29Z</time></trkpt><trkpt lat="58.052507" lon="38.781193"><ele>95.0</ele><time>2023-07-17T12:51:31Z</time></trkpt><trkpt lat="58.052535" lon="38.781338"><ele>96.0</ele><time>2023-07-17T12:51:33Z</time></trkpt><trkpt lat="58.052558" lon="38.781488"><ele>96.0</ele><time>2023-07-17T12:51:35Z</time></trkpt><trkpt lat="58.052573" lon="38.781648"><ele>96.0</ele><time>2023-07-17T12:51:37Z</time></trkpt><trkpt lat="58.052618" lon="38.78185"><ele>97.0</ele><time>2023-07-17T12:51:39Z</time></trkpt><trkpt lat="58.052643" lon="38.782015"><ele>97.0</ele><time>2023-07-17T12:51:41Z</time></trkpt><trkpt lat="58.052683" lon="38.782155"><ele>98.0</ele><time>2023-07-17T12:51:43Z</time></trkpt><trkpt lat="58.05268" lon="38.782335"><ele>98.0</ele><time>2023-07-17T12:51:46Z</time></trkpt><trkpt lat="58.052698" lon="38.782512"><ele>99.0</ele><time>2023-07-17T12:51:49Z</time></trkpt><trkpt lat="58.052723" lon="38.782638"><ele>99.0</ele><time>2023-07-17T12:51:51Z</time></trkpt><trkpt lat="58.052757" lon="38.782807"><ele>100.0</ele><time>2023-07-17T12:51:54Z</time></trkpt><trkpt lat="58.052785" lon="38.782937"><ele>101.0</ele><time>2023-07-17T12:51:56Z</time></trkpt><trkpt lat="58.052807" lon="38.783102"><ele>100.0</ele><time>2023-07-17T12:51:58Z</time></trkpt><trkpt lat="58.052853" lon="38.78324"><ele>101.0</ele><time>2023-07-17T12:52:00Z</time></trkpt><trkpt lat="58.05291" lon="38.783342"><ele>102.0</ele><time>2023-07-17T12:52:02Z</time></trkpt><trkpt lat="58.053" lon="38.78335"><ele>103.0</ele><time>2023-07-17T12:52:04Z</time></trkpt><trkpt lat="58.053077" lon="38.78327"><ele>104.0</ele><time>2023-07-17T12:52:05Z</time></trkpt><trkpt lat="58.053198" lon="38.783223"><ele>104.0</ele><time>2023-07-17T12:52:07Z</time></trkpt><trkpt lat="58.053307" lon="38.783175"><ele>104.0</ele><time>2023-07-17T12:52:09Z</time></trkpt><trkpt lat="58.053432" lon="38.783103"><ele>103.0</ele><time>2023-07-17T12:52:11Z</time></trkpt><trkpt lat="58.053555" lon="38.783047"><ele>101.0</ele><time>2023-07-17T12:52:13Z</time></trkpt><trkpt lat="58.05366" lon="38.783067"><ele>102.0</ele><time>2023-07-17T12:52:15Z</time></trkpt><trkpt lat="58.053778" lon="38.783023"><ele>103.0</ele><time>2023-07-17T12:52:17Z</time></trkpt><trkpt lat="58.053895" lon="38.782982"><ele>103.0</ele><time>2023-07-17T12:52:19Z</time></trkpt><trkpt lat="58.053992" lon="38.78296"><ele>103.0</ele><time>2023-07-17T12:52:21Z</time></trkpt><trkpt lat="58.054095" lon="38.782893"><ele>104.0</ele><time>2023-07-17T12:52:23Z</time></trkpt><trkpt lat="58.054187" lon="38.78282"><ele>102.0</ele><time>2023-07-17T12:52:25Z</time></trkpt><trkpt lat="58.05426" lon="38.782763"><ele>103.0</ele><time>2023-07-17T12:52:27Z</time></trkpt><trkpt lat="58.05434" lon="38.78267"><ele>103.0</ele><time>2023-07-17T12:52:29Z</time></trkpt><trkpt lat="58.054413" lon="38.782633"><ele>101.0</ele><time>2023-07-17T12:52:31Z</time></trkpt><trkpt lat="58.054498" lon="38.782633"><ele>102.0</ele><time>2023-07-17T12:52:34Z</time></trkpt><trkpt lat="58.054588" lon="38.782635"><ele>102.0</ele><time>2023-07-17T12:52:37Z</time></trkpt><trkpt lat="58.054662" lon="38.782622"><ele>102.0</ele><time>2023-07-17T12:52:39Z</time></trkpt><trkpt lat="58.054757" lon="38.782632"><ele>101.0</ele><time>2023-07-17T12:52:42Z</time></trkpt><trkpt lat="58.054837" lon="38.782635"><ele>102.0</ele><time>2023-07-17T12:52:45Z</time></trkpt><trkpt lat="58.054923" lon="38.782698"><ele>101.0</ele><time>2023-07-17T12:52:48Z</time></trkpt><trkpt lat="58.054988" lon="38.782768"><ele>100.0</ele><time>2023-07-17T12:52:50Z</time></trkpt><trkpt lat="58.055072" lon="38.782807"><ele>99.0</ele><time>2023-07-17T12:52:52Z</time></trkpt><trkpt lat="58.055152" lon="38.782843"><ele>99.0</ele><time>2023-07-17T12:52:54Z</time></trkpt><trkpt lat="58.055252" lon="38.782902"><ele>99.0</ele><time>2023-07-17T12:52:57Z</time></trkpt><trkpt lat="58.05536" lon="38.78292"><ele>100.0</ele><time>2023-07-17T12:53:00Z</time></trkpt><trkpt lat="58.05548" lon="38.782943"><ele>100.0</ele><time>2023-07-17T12:53:02Z</time></trkpt><trkpt lat="58.055597" lon="38.782965"><ele>100.0</ele><time>2023-07-17T12:53:03Z</time></trkpt><trkpt lat="58.055695" lon="38.783015"><ele>100.0</ele><time>2023-07-17T12:53:05Z</time></trkpt><trkpt lat="58.055792" lon="38.783073"><ele>101.0</ele><time>2023-07-17T12:53:08Z</time></trkpt><trkpt lat="58.05588" lon="38.783153"><ele>101.0</ele><time>2023-07-17T12:53:10Z</time></trkpt><trkpt lat="58.055947" lon="38.783218"><ele>101.0</ele><time>2023-07-17T12:53:11Z</time></trkpt><trkpt lat="58.05606" lon="38.783342"><ele>100.0</ele><time>2023-07-17T12:53:13Z</time></trkpt><trkpt lat="58.056145" lon="38.783473"><ele>101.0</ele><time>2023-07-17T12:53:15Z</time></trkpt><trkpt lat="58.056252" lon="38.783523"><ele>100.0</ele><time>2023-07-17T12:53:17Z</time></trkpt><trkpt lat="58.056322" lon="38.783648"><ele>100.0</ele><time>2023-07-17T12:53:19Z</time></trkpt><trkpt lat="58.056388" lon="38.783758"><ele>103.0</ele><time>2023-07-17T12:53:21Z</time></trkpt><trkpt lat="58.05645" lon="38.78386"><ele>105.0</ele><time>2023-07-17T12:53:23Z</time></trkpt><trkpt lat="58.056538" lon="38.78397"><ele>105.0</ele><time>2023-07-17T12:53:25Z</time></trkpt><trkpt lat="58.056645" lon="38.784082"><ele>105.0</ele><time>2023-07-17T12:53:27Z</time></trkpt><trkpt lat="58.056715" lon="38.784173"><ele>103.0</ele><time>2023-07-17T12:53:29Z</time></trkpt><trkpt lat="58.056787" lon="38.784295"><ele>104.0</ele><time>2023-07-17T12:53:31Z</time></trkpt><trkpt lat="58.056855" lon="38.784415"><ele>104.0</ele><time>2023-07-17T12:53:33Z</time></trkpt><trkpt lat="58.056927" lon="38.784497"><ele>104.0</ele><time>2023-07-17T12:53:35Z</time></trkpt><trkpt lat="58.057003" lon="38.784567"><ele>104.0</ele><time>2023-07-17T12:53:37Z</time></trkpt><trkpt lat="58.057078" lon="38.784622"><ele>103.0</ele><time>2023-07-17T12:53:39Z</time></trkpt><trkpt lat="58.057107" lon="38.784768"><ele>102.0</ele><time>2023-07-17T12:53:42Z</time></trkpt><trkpt lat="58.05707" lon="38.784943"><ele>103.0</ele><time>2023-07-17T12:53:44Z</time></trkpt><trkpt lat="58.057023" lon="38.785098"><ele>103.0</ele><time>2023-07-17T12:53:46Z</time></trkpt><trkpt lat="58.057037" lon="38.785278"><ele>100.0</ele><time>2023-07-17T12:53:49Z</time></trkpt><trkpt lat="58.057047" lon="38.785428"><ele>100.0</ele><time>2023-07-17T12:53:51Z</time></trkpt><trkpt lat="58.057028" lon="38.785613"><ele>99.0</ele><time>2023-07-17T12:53:53Z</time></trkpt><trkpt lat="58.057005" lon="38.785822"><ele>101.0</ele><time>2023-07-17T12:53:55Z</time></trkpt><trkpt lat="58.057013" lon="38.785978"><ele>101.0</ele><time>2023-07-17T12:53:56Z</time></trkpt><trkpt lat="58.056985" lon="38.786237"><ele>102.0</ele><time>2023-07-17T12:53:58Z</time></trkpt><trkpt lat="58.056972" lon="38.786467"><ele>102.0</ele><time>2023-07-17T12:54:00Z</time></trkpt><trkpt lat="58.056928" lon="38.786695"><ele>101.0</ele><time>2023-07-17T12:54:02Z</time></trkpt><trkpt lat="58.056917" lon="38.78691"><ele>100.0</ele><time>2023-07-17T12:54:04Z</time></trkpt><trkpt lat="58.056933" lon="38.787128"><ele>101.0</ele><time>2023-07-17T12:54:06Z</time></trkpt><trkpt lat="58.056927" lon="38.78735"><ele>102.0</ele><time>2023-07-17T12:54:08Z</time></trkpt><trkpt lat="58.05692" lon="38.787535"><ele>101.0</ele><time>2023-07-17T12:54:10Z</time></trkpt><trkpt lat="58.056912" lon="38.787713"><ele>104.0</ele><time>2023-07-17T12:54:12Z</time></trkpt><trkpt lat="58.056908" lon="38.787873"><ele>105.0</ele><time>2023-07-17T12:54:14Z</time></trkpt><trkpt lat="58.05689" lon="38.788032"><ele>106.0</ele><time>2023-07-17T12:54:16Z</time></trkpt><trkpt lat="58.056877" lon="38.788188"><ele>105.0</ele><time>2023-07-17T12:54:18Z</time></trkpt><trkpt lat="58.056875" lon="38.788362"><ele>106.0</ele><time>2023-07-17T12:54:20Z</time></trkpt><trkpt lat="58.056885" lon="38.788522"><ele>106.0</ele><time>2023-07-17T12:54:22Z</time></trkpt><trkpt lat="58.05686" lon="38.788677"><ele>103.0</ele><time>2023-07-17T12:54:24Z</time></trkpt><trkpt lat="58.056843" lon="38.788833"><ele>104.0</ele><time>2023-07-17T12:54:26Z</time></trkpt><trkpt lat="58.056857" lon="38.788988"><ele>102.0</ele><time>2023-07-17T12:54:28Z</time></trkpt><trkpt lat="58.056828" lon="38.789163"><ele>106.0</ele><time>2023-07-17T12:54:30Z</time></trkpt><trkpt lat="58.0568" lon="38.789363"><ele>103.0</ele><time>2023-07-17T12:54:32Z</time></trkpt><trkpt lat="58.056787" lon="38.78956"><ele>103.0</ele><time>2023-07-17T12:54:34Z</time></trkpt><trkpt lat="58.056765" lon="38.789725"><ele>103.0</ele><time>2023-07-17T12:54:36Z</time></trkpt><trkpt lat="58.056748" lon="38.78989"><ele>101.0</ele><time>2023-07-17T12:54:38Z</time></trkpt><trkpt lat="58.056747" lon="38.790097"><ele>101.0</ele><time>2023-07-17T12:54:40Z</time></trkpt><trkpt lat="58.056772" lon="38.790267"><ele>105.0</ele><time>2023-07-17T12:54:42Z</time></trkpt><trkpt lat="58.056748" lon="38.79047"><ele>103.0</ele><time>2023-07-17T12:54:44Z</time></trkpt><trkpt lat="58.056725" lon="38.790673"><ele>105.0</ele><time>2023-07-17T12:54:46Z</time></trkpt><trkpt lat="58.056722" lon="38.790897"><ele>106.0</ele><time>2023-07-17T12:54:48Z</time></trkpt><trkpt lat="58.056698" lon="38.791092"><ele>105.0</ele><time>2023-07-17T12:54:50Z</time></trkpt><trkpt lat="58.056685" lon="38.791268"><ele>106.0</ele><time>2023-07-17T12:54:52Z</time></trkpt><trkpt lat="58.056658" lon="38.791437"><ele>106.0</ele><time>2023-07-17T12:54:54Z</time></trkpt><trkpt lat="58.056642" lon="38.791598"><ele>106.0</ele><time>2023-07-17T12:54:56Z</time></trkpt><trkpt lat="58.056627" lon="38.79175"><ele>106.0</ele><time>2023-07-17T12:54:58Z</time></trkpt><trkpt lat="58.056615" lon="38.79194"><ele>106.0</ele><time>2023-07-17T12:55:00Z</time></trkpt><trkpt lat="58.056593" lon="38.792132"><ele>106.0</ele><time>2023-07-17T12:55:02Z</time></trkpt><trkpt lat="58.05659" lon="38.792333"><ele>106.0</ele><time>2023-07-17T12:55:04Z</time></trkpt><trkpt lat="58.05658" lon="38.792557"><ele>106.0</ele><time>2023-07-17T12:55:06Z</time></trkpt><trkpt lat="58.056578" lon="38.792792"><ele>108.0</ele><time>2023-07-17T12:55:08Z</time></trkpt><trkpt lat="58.056552" lon="38.792942"><ele>109.0</ele><time>2023-07-17T12:55:10Z</time></trkpt><trkpt lat="58.056517" lon="38.79317"><ele>109.0</ele><time>2023-07-17T12:55:12Z</time></trkpt><trkpt lat="58.0565" lon="38.793433"><ele>109.0</ele><time>2023-07-17T12:55:14Z</time></trkpt><trkpt lat="58.056505" lon="38.793575"><ele>108.0</ele><time>2023-07-17T12:55:15Z</time></trkpt><trkpt lat="58.056495" lon="38.793718"><ele>109.0</ele><time>2023-07-17T12:55:16Z</time></trkpt><trkpt lat="58.056503" lon="38.79392"><ele>109.0</ele><time>2023-07-17T12:55:17Z</time></trkpt><trkpt lat="58.05648" lon="38.794087"><ele>110.0</ele><time>2023-07-17T12:55:18Z</time></trkpt><trkpt lat="58.056507" lon="38.79422"><ele>110.0</ele><time>2023-07-17T12:55:19Z</time></trkpt><trkpt lat="58.056507" lon="38.79436"><ele>109.0</ele><time>2023-07-17T12:55:20Z</time></trkpt><trkpt lat="58.056488" lon="38.794512"><ele>109.0</ele><time>2023-07-17T12:55:21Z</time></trkpt><trkpt lat="58.056482" lon="38.794647"><ele>109.0</ele><time>2023-07-17T12:55:22Z</time></trkpt><trkpt lat="58.056468" lon="38.794797"><ele>109.0</ele><time>2023-07-17T12:55:23Z</time></trkpt><trkpt lat="58.05646" lon="38.794933"><ele>108.0</ele><time>2023-07-17T12:55:24Z</time></trkpt><trkpt lat="58.05647" lon="38.795072"><ele>108.0</ele><time>2023-07-17T12:55:25Z</time></trkpt><trkpt lat="58.056458" lon="38.79533"><ele>108.0</ele><time>2023-07-17T12:55:27Z</time></trkpt><trkpt lat="58.056447" lon="38.795568"><ele>107.0</ele><time>2023-07-17T12:55:29Z</time></trkpt><trkpt lat="58.056422" lon="38.795705"><ele>107.0</ele><time>2023-07-17T12:55:30Z</time></trkpt><trkpt lat="58.056353" lon="38.795882"><ele>107.0</ele><time>2023-07-17T12:55:31Z</time></trkpt><trkpt lat="58.05632" lon="38.796135"><ele>105.0</ele><time>2023-07-17T12:55:33Z</time></trkpt><trkpt lat="58.056283" lon="38.796285"><ele>104.0</ele><time>2023-07-17T12:55:34Z</time></trkpt><trkpt lat="58.056267" lon="38.796422"><ele>103.0</ele><time>2023-07-17T12:55:35Z</time></trkpt><trkpt lat="58.05623" lon="38.796565"><ele>103.0</ele><time>2023-07-17T12:55:36Z</time></trkpt><trkpt lat="58.056212" lon="38.796698"><ele>103.0</ele><time>2023-07-17T12:55:37Z</time></trkpt><trkpt lat="58.056217" lon="38.796957"><ele>103.0</ele><time>2023-07-17T12:55:39Z</time></trkpt><trkpt lat="58.056167" lon="38.797198"><ele>103.0</ele><time>2023-07-17T12:55:41Z</time></trkpt><trkpt lat="58.056113" lon="38.797412"><ele>102.0</ele><time>2023-07-17T12:55:43Z</time></trkpt><trkpt lat="58.056183" lon="38.79754"><ele>103.0</ele><time>2023-07-17T12:55:45Z</time></trkpt><trkpt lat="58.056245" lon="38.79768"><ele>106.0</ele><time>2023-07-17T12:55:47Z</time></trkpt><trkpt lat="58.056248" lon="38.797842"><ele>106.0</ele><time>2023-07-17T12:55:49Z</time></trkpt><trkpt lat="58.056253" lon="38.798033"><ele>106.0</ele><time>2023-07-17T12:55:51Z</time></trkpt><trkpt lat="58.056258" lon="38.798283"><ele>107.0</ele><time>2023-07-17T12:55:53Z</time></trkpt><trkpt lat="58.056237" lon="38.79847"><ele>108.0</ele><time>2023-07-17T12:55:55Z</time></trkpt><trkpt lat="58.056222" lon="38.798673"><ele>109.0</ele><time>2023-07-17T12:55:57Z</time></trkpt><trkpt lat="58.05619" lon="38.798842"><ele>108.0</ele><time>2023-07-17T12:55:59Z</time></trkpt><trkpt lat="58.056165" lon="38.799072"><ele>107.0</ele><time>2023-07-17T12:56:01Z</time></trkpt><trkpt lat="58.056148" lon="38.799273"><ele>106.0</ele><time>2023-07-17T12:56:03Z</time></trkpt><trkpt lat="58.05613" lon="38.799458"><ele>107.0</ele><time>2023-07-17T12:56:05Z</time></trkpt><trkpt lat="58.056133" lon="38.799632"><ele>108.0</ele><time>2023-07-17T12:56:07Z</time></trkpt><trkpt lat="58.05609" lon="38.799825"><ele>107.0</ele><time>2023-07-17T12:56:09Z</time></trkpt><trkpt lat="58.056077" lon="38.800027"><ele>107.0</ele><time>2023-07-17T12:56:11Z</time></trkpt><trkpt lat="58.056067" lon="38.80025"><ele>107.0</ele><time>2023-07-17T12:56:13Z</time></trkpt><trkpt lat="58.056057" lon="38.800447"><ele>107.0</ele><time>2023-07-17T12:56:15Z</time></trkpt><trkpt lat="58.05604" lon="38.800648"><ele>108.0</ele><time>2023-07-17T12:56:17Z</time></trkpt><trkpt lat="58.056052" lon="38.800835"><ele>108.0</ele><time>2023-07-17T12:56:19Z</time></trkpt><trkpt lat="58.05605" lon="38.801033"><ele>107.0</ele><time>2023-07-17T12:56:21Z</time></trkpt><trkpt lat="58.05601" lon="38.801203"><ele>103.0</ele><time>2023-07-17T12:56:23Z</time></trkpt><trkpt lat="58.055998" lon="38.801417"><ele>102.0</ele><time>2023-07-17T12:56:25Z</time></trkpt><trkpt lat="58.055972" lon="38.801593"><ele>100.0</ele><time>2023-07-17T12:56:27Z</time></trkpt><trkpt lat="58.055967" lon="38.801815"><ele>100.0</ele><time>2023-07-17T12:56:29Z</time></trkpt><trkpt lat="58.055948" lon="38.802048"><ele>104.0</ele><time>2023-07-17T12:56:31Z</time></trkpt><trkpt lat="58.05593" lon="38.802253"><ele>103.0</ele><time>2023-07-17T12:56:33Z</time></trkpt><trkpt lat="58.055898" lon="38.802452"><ele>103.0</ele><time>2023-07-17T12:56:35Z</time></trkpt><trkpt lat="58.055923" lon="38.80272"><ele>103.0</ele><time>2023-07-17T12:56:37Z</time></trkpt><trkpt lat="58.055903" lon="38.802903"><ele>102.0</ele><time>2023-07-17T12:56:39Z</time></trkpt><trkpt lat="58.055902" lon="38.803108"><ele>101.0</ele><time>2023-07-17T12:56:41Z</time></trkpt><trkpt lat="58.05589" lon="38.803253"><ele>99.0</ele><time>2023-07-17T12:56:43Z</time></trkpt><trkpt lat="58.055885" lon="38.80341"><ele>99.0</ele><time>2023-07-17T12:56:45Z</time></trkpt><trkpt lat="58.055867" lon="38.803575"><ele>98.0</ele><time>2023-07-17T12:56:47Z</time></trkpt><trkpt lat="58.055853" lon="38.803727"><ele>98.0</ele><time>2023-07-17T12:56:49Z</time></trkpt><trkpt lat="58.055833" lon="38.803872"><ele>99.0</ele><time>2023-07-17T12:56:51Z</time></trkpt><trkpt lat="58.055815" lon="38.804025"><ele>99.0</ele><time>2023-07-17T12:56:53Z</time></trkpt><trkpt lat="58.055883" lon="38.804083"><ele>98.0</ele><time>2023-07-17T12:56:59Z</time></trkpt><trkpt lat="58.05598" lon="38.804155"><ele>99.0</ele><time>2023-07-17T12:57:15Z</time></trkpt><trkpt lat="58.056067" lon="38.804158"><ele>100.0</ele><time>2023-07-17T12:57:17Z</time></trkpt><trkpt lat="58.05615" lon="38.80416"><ele>98.0</ele><time>2023-07-17T12:57:19Z</time></trkpt><trkpt lat="58.056227" lon="38.804187"><ele>99.0</ele><time>2023-07-17T12:57:21Z</time></trkpt><trkpt lat="58.056298" lon="38.80423"><ele>99.0</ele><time>2023-07-17T12:57:23Z</time></trkpt><trkpt lat="58.056398" lon="38.804263"><ele>100.0</ele><time>2023-07-17T12:57:26Z</time></trkpt><trkpt lat="58.056493" lon="38.804357"><ele>100.0</ele><time>2023-07-17T12:57:29Z</time></trkpt><trkpt lat="58.056568" lon="38.804408"><ele>100.0</ele><time>2023-07-17T12:57:31Z</time></trkpt><trkpt lat="58.05665" lon="38.804423"><ele>100.0</ele><time>2023-07-17T12:57:33Z</time></trkpt><trkpt lat="58.056723" lon="38.804448"><ele>100.0</ele><time>2023-07-17T12:57:35Z</time></trkpt><trkpt lat="58.05678" lon="38.804553"><ele>100.0</ele><time>2023-07-17T12:57:38Z</time></trkpt><trkpt lat="58.056792" lon="38.804703"><ele>101.0</ele><time>2023-07-17T12:57:44Z</time></trkpt><trkpt lat="58.056842" lon="38.804853"><ele>100.0</ele><time>2023-07-17T12:57:47Z</time></trkpt><trkpt lat="58.056898" lon="38.804968"><ele>100.0</ele><time>2023-07-17T12:57:49Z</time></trkpt><trkpt lat="58.056962" lon="38.805065"><ele>100.0</ele><time>2023-07-17T12:57:51Z</time></trkpt><trkpt lat="58.057022" lon="38.805162"><ele>100.0</ele><time>2023-07-17T12:57:53Z</time></trkpt><trkpt lat="58.057082" lon="38.805267"><ele>100.0</ele><time>2023-07-17T12:57:55Z</time></trkpt><trkpt lat="58.057155" lon="38.805318"><ele>101.0</ele><time>2023-07-17T12:57:57Z</time></trkpt><trkpt lat="58.057253" lon="38.80531"><ele>101.0</ele><time>2023-07-17T12:58:00Z</time></trkpt><trkpt lat="58.057335" lon="38.80523"><ele>102.0</ele><time>2023-07-17T12:58:03Z</time></trkpt><trkpt lat="58.057422" lon="38.805202"><ele>102.0</ele><time>2023-07-17T12:58:06Z</time></trkpt><trkpt lat="58.057502" lon="38.805285"><ele>102.0</ele><time>2023-07-17T12:58:09Z</time></trkpt><trkpt lat="58.057578" lon="38.805355"><ele>102.0</ele><time>2023-07-17T12:58:12Z</time></trkpt><trkpt lat="58.057662" lon="38.805395"><ele>103.0</ele><time>2023-07-17T12:58:15Z</time></trkpt><trkpt lat="58.057748" lon="38.805523"><ele>103.0</ele><time>2023-07-17T12:58:18Z</time></trkpt><trkpt lat="58.057807" lon="38.805647"><ele>102.0</ele><time>2023-07-17T12:58:20Z</time></trkpt><trkpt lat="58.057865" lon="38.80577"><ele>101.0</ele><time>2023-07-17T12:58:22Z</time></trkpt><trkpt lat="58.057917" lon="38.805868"><ele>100.0</ele><time>2023-07-17T12:58:25Z</time></trkpt><trkpt lat="58.057958" lon="38.80604"><ele>102.0</ele><time>2023-07-17T12:58:29Z</time></trkpt><trkpt lat="58.058" lon="38.806172"><ele>102.0</ele><time>2023-07-17T12:58:31Z</time></trkpt><trkpt lat="58.058072" lon="38.806288"><ele>103.0</ele><time>2023-07-17T12:58:33Z</time></trkpt><trkpt lat="58.058132" lon="38.806388"><ele>102.0</ele><time>2023-07-17T12:58:35Z</time></trkpt><trkpt lat="58.058187" lon="38.806553"><ele>102.0</ele><time>2023-07-17T12:58:38Z</time></trkpt><trkpt lat="58.058245" lon="38.80674"><ele>103.0</ele><time>2023-07-17T12:58:40Z</time></trkpt><trkpt lat="58.058312" lon="38.806918"><ele>102.0</ele><time>2023-07-17T12:58:42Z</time></trkpt><trkpt lat="58.058383" lon="38.807018"><ele>101.0</ele><time>2023-07-17T12:58:44Z</time></trkpt><trkpt lat="58.058493" lon="38.807093"><ele>102.0</ele><time>2023-07-17T12:58:46Z</time></trkpt><trkpt lat="58.058568" lon="38.807107"><ele>102.0</ele><time>2023-07-17T12:58:48Z</time></trkpt><trkpt lat="58.058662" lon="38.807173"><ele>102.0</ele><time>2023-07-17T12:58:51Z</time></trkpt><trkpt lat="58.05867" lon="38.807358"><ele>101.0</ele><time>2023-07-17T12:58:54Z</time></trkpt><trkpt lat="58.058672" lon="38.8075"><ele>101.0</ele><time>2023-07-17T12:58:56Z</time></trkpt><trkpt lat="58.058683" lon="38.807665"><ele>102.0</ele><time>2023-07-17T12:58:59Z</time></trkpt></trkseg></trk></gpx>