<?xml version="1.0" encoding="UTF-8" standalone="no"?><gpx xmlns="http://www.topografix.com/GPX/1/1" xmlns:gpxtpx="http://www.garmin.com/xmlschemas/TrackPointExtension/v1" xmlns:xsi="http://www.w3.org/2001/XMLSchema-instance" creator="Sports Tracker" version="1.1" xsi:schemaLocation="http://www.topografix.com/GPX/1/1 http://www.topografix.com/GPX/1/1/gpx.xsd http://www.garmin.com/xmlschemas/TrackPointExtension/v1 http://www.garmin.com/xmlschemas/TrackPointExtensionv1.xsd"><metadata><name>12.01.2024 17:55</name><desc/><author><name>Александр</name></author></metadata><trk><name>12.01.2024 17:55</name><trkseg><trkpt lat="58.044287" lon="38.83808"><ele>91.7</ele><time>2024-01-12T14:55:54Z</time></trkpt><trkpt lat="58.044287" lon="38.83808"><ele>91.7</ele><time>2024-01-12T14:56:01Z</time></trkpt><trkpt lat="58.04423" lon="38.837922"><ele>90.6</ele><time>2024-01-12T14:56:02Z</time></trkpt><trkpt lat="58.044155" lon="38.83794"><ele>110.6</ele><time>2024-01-12T14:56:09Z</time></trkpt><trkpt lat="58.044125" lon="38.837835"><ele>105.7</ele><time>2024-01-12T14:56:16Z</time></trkpt><trkpt lat="58.044083" lon="38.83771"><ele>102.1</ele><time>2024-01-12T14:56:22Z</time></trkpt><trkpt lat="58.04409" lon="38.837565"><ele>100.7</ele><time>2024-01-12T14:56:27Z</time></trkpt><trkpt lat="58.044095" lon="38.83743"><ele>98.3</ele><time>2024-01-12T14:56:32Z</time></trkpt><trkpt lat="58.044105" lon="38.83729"><ele>98.5</ele><time>2024-01-12T14:56:39Z</time></trkpt><trkpt lat="58.04405" lon="38.837205"><ele>101.1</ele><time>2024-01-12T14:56:45Z</time></trkpt><trkpt lat="58.043987" lon="38.83709"><ele>99.9</ele><time>2024-01-12T14:56:49Z</time></trkpt><trkpt lat="58.04391" lon="38.83713"><ele>97.8</ele><time>2024-01-12T14:56:52Z</time></trkpt><trkpt lat="58.043825" lon="38.837175"><ele>97.8</ele><time>2024-01-12T14:56:59Z</time></trkpt><trkpt lat="58.04375" lon="38.83711"><ele>97.1</ele><time>2024-01-12T14:57:03Z</time></trkpt><trkpt lat="58.0437" lon="38.83699"><ele>99.5</ele><time>2024-01-12T14:57:08Z</time></trkpt><trkpt lat="58.043612" lon="38.836965"><ele>102.2</ele><time>2024-01-12T14:57:13Z</time></trkpt><trkpt lat="58.043525" lon="38.83686"><ele>104.6</ele><time>2024-01-12T14:57:16Z</time></trkpt><trkpt lat="58.043462" lon="38.83679"><ele>105.2</ele><time>2024-01-12T14:57:17Z</time></trkpt><trkpt lat="58.043408" lon="38.836895"><ele>106.6</ele><time>2024-01-12T14:57:24Z</time></trkpt><trkpt lat="58.04332" lon="38.836907"><ele>103.9</ele><time>2024-01-12T14:57:29Z</time></trkpt><trkpt lat="58.043252" lon="38.83686"><ele>102.9</ele><time>2024-01-12T14:57:31Z</time></trkpt><trkpt lat="58.043295" lon="38.836875"><ele>104.0</ele><time>2024-01-12T14:57:38Z</time></trkpt><trkpt lat="58.043317" lon="38.836842"><ele>104.8</ele><time>2024-01-12T14:57:45Z</time></trkpt><trkpt lat="58.043315" lon="38.836835"><ele>104.2</ele><time>2024-01-12T14:57:47Z</time></trkpt><trkpt lat="58.04329" lon="38.836835"><ele>107.6</ele><time>2024-01-12T14:57:55Z</time></trkpt><trkpt lat="58.043287" lon="38.836827"><ele>108.4</ele><time>2024-01-12T14:57:57Z</time></trkpt><trkpt lat="58.04329" lon="38.83681"><ele>107.6</ele><time>2024-01-12T14:58:11Z</time></trkpt><trkpt lat="58.04329" lon="38.83681"><ele>107.6</ele><time>2024-01-12T14:58:12Z</time></trkpt><trkpt lat="58.043285" lon="38.83681"><ele>108.1</ele><time>2024-01-12T14:58:30Z</time></trkpt><trkpt lat="58.043285" lon="38.83681"><ele>108.1</ele><time>2024-01-12T14:58:31Z</time></trkpt><trkpt lat="58.043227" lon="38.836682"><ele>106.6</ele><time>2024-01-12T14:58:59Z</time></trkpt><trkpt lat="58.04317" lon="38.83656"><ele>106.2</ele><time>2024-01-12T14:59:04Z</time></trkpt><trkpt lat="58.043135" lon="38.836445"><ele>104.7</ele><time>2024-01-12T14:59:10Z</time></trkpt><trkpt lat="58.043107" lon="38.836315"><ele>103.1</ele><time>2024-01-12T14:59:16Z</time></trkpt><trkpt lat="58.043035" lon="38.836232"><ele>104.6</ele><time>2024-01-12T14:59:22Z</time></trkpt><trkpt lat="58.042955" lon="38.836195"><ele>106.2</ele><time>2024-01-12T14:59:28Z</time></trkpt><trkpt lat="58.042885" lon="38.83613"><ele>107.1</ele><time>2024-01-12T14:59:33Z</time></trkpt><trkpt lat="58.042807" lon="38.83609"><ele>108.0</ele><time>2024-01-12T14:59:38Z</time></trkpt><trkpt lat="58.04273" lon="38.836025"><ele>110.4</ele><time>2024-01-12T14:59:43Z</time></trkpt><trkpt lat="58.042675" lon="38.835922"><ele>110.0</ele><time>2024-01-12T14:59:48Z</time></trkpt><trkpt lat="58.04267" lon="38.83577"><ele>109.6</ele><time>2024-01-12T14:59:53Z</time></trkpt><trkpt lat="58.042657" lon="38.835605"><ele>109.0</ele><time>2024-01-12T14:59:58Z</time></trkpt><trkpt lat="58.04266" lon="38.835415"><ele>110.0</ele><time>2024-01-12T15:00:02Z</time></trkpt><trkpt lat="58.04268" lon="38.835277"><ele>107.8</ele><time>2024-01-12T15:00:07Z</time></trkpt><trkpt lat="58.042655" lon="38.83515"><ele>107.0</ele><time>2024-01-12T15:00:12Z</time></trkpt><trkpt lat="58.042615" lon="38.835022"><ele>108.8</ele><time>2024-01-12T15:00:17Z</time></trkpt><trkpt lat="58.042628" lon="38.83488"><ele>111.9</ele><time>2024-01-12T15:00:24Z</time></trkpt><trkpt lat="58.04267" lon="38.83475"><ele>109.6</ele><time>2024-01-12T15:00:29Z</time></trkpt><trkpt lat="58.042712" lon="38.834635"><ele>108.8</ele><time>2024-01-12T15:00:35Z</time></trkpt><trkpt lat="58.04274" lon="38.83448"><ele>109.2</ele><time>2024-01-12T15:00:41Z</time></trkpt><trkpt lat="58.042765" lon="38.834345"><ele>109.0</ele><time>2024-01-12T15:00:46Z</time></trkpt><trkpt lat="58.042795" lon="38.834205"><ele>107.4</ele><time>2024-01-12T15:00:51Z</time></trkpt><trkpt lat="58.042815" lon="38.833985"><ele>107.8</ele><time>2024-01-12T15:00:57Z</time></trkpt><trkpt lat="58.042815" lon="38.833845"><ele>107.8</ele><time>2024-01-12T15:00:59Z</time></trkpt><trkpt lat="58.04284" lon="38.833755"><ele>106.8</ele><time>2024-01-12T15:01:06Z</time></trkpt><trkpt lat="58.042855" lon="38.833728"><ele>108.4</ele><time>2024-01-12T15:01:13Z</time></trkpt><trkpt lat="58.042853" lon="38.83373"><ele>108.5</ele><time>2024-01-12T15:01:15Z</time></trkpt><trkpt lat="58.042858" lon="38.833745"><ele>107.8</ele><time>2024-01-12T15:01:26Z</time></trkpt><trkpt lat="58.042858" lon="38.833747"><ele>107.8</ele><time>2024-01-12T15:01:27Z</time></trkpt><trkpt lat="58.04287" lon="38.833782"><ele>110.2</ele><time>2024-01-12T15:02:18Z</time></trkpt><trkpt lat="58.04285" lon="38.83372"><ele>110.2</ele><time>2024-01-12T15:02:25Z</time></trkpt><trkpt lat="58.042825" lon="38.83368"><ele>109.3</ele><time>2024-01-12T15:02:32Z</time></trkpt><trkpt lat="58.04282" lon="38.833675"><ele>109.6</ele><time>2024-01-12T15:02:35Z</time></trkpt><trkpt lat="58.04282" lon="38.833665"><ele>108.1</ele><time>2024-01-12T15:02:46Z</time></trkpt><trkpt lat="58.04282" lon="38.833667"><ele>108.4</ele><time>2024-01-12T15:02:47Z</time></trkpt></trkseg></trk></gpx>