<?xml version="1.0" encoding="UTF-8" standalone="no"?><gpx xmlns="http://www.topografix.com/GPX/1/1" xmlns:gpxtpx="http://www.garmin.com/xmlschemas/TrackPointExtension/v1" xmlns:xsi="http://www.w3.org/2001/XMLSchema-instance" creator="Sports Tracker" version="1.1" xsi:schemaLocation="http://www.topografix.com/GPX/1/1 http://www.topografix.com/GPX/1/1/gpx.xsd http://www.garmin.com/xmlschemas/TrackPointExtension/v1 http://www.garmin.com/xmlschemas/TrackPointExtensionv1.xsd"><metadata><name/><desc/><author><name>Александр</name></author></metadata><trk><name/><trkseg><trkpt lat="61.494138" lon="30.291222"><ele>36.4</ele><time>2023-08-08T12:56:15Z</time></trkpt><trkpt lat="61.494127" lon="30.29137"><ele>38.7</ele><time>2023-08-08T12:56:28Z</time></trkpt><trkpt lat="61.494133" lon="30.29152"><ele>35.9</ele><time>2023-08-08T12:56:42Z</time></trkpt><trkpt lat="61.494142" lon="30.291682"><ele>36.2</ele><time>2023-08-08T12:56:53Z</time></trkpt><trkpt lat="61.494142" lon="30.291682"><ele>36.2</ele><time>2023-08-08T12:56:53Z</time></trkpt><trkpt lat="61.494165" lon="30.291832"><ele>33.6</ele><time>2023-08-08T12:57:03Z</time></trkpt><trkpt lat="61.494165" lon="30.291832"><ele>33.6</ele><time>2023-08-08T12:57:03Z</time></trkpt><trkpt lat="61.49419" lon="30.291973"><ele>32.3</ele><time>2023-08-08T12:57:13Z</time></trkpt><trkpt lat="61.49419" lon="30.291973"><ele>32.3</ele><time>2023-08-08T12:57:13Z</time></trkpt><trkpt lat="61.494165" lon="30.29212"><ele>31.9</ele><time>2023-08-08T12:57:23Z</time></trkpt><trkpt lat="61.494165" lon="30.29212"><ele>31.9</ele><time>2023-08-08T12:57:23Z</time></trkpt><trkpt lat="61.494172" lon="30.292275"><ele>30.9</ele><time>2023-08-08T12:57:33Z</time></trkpt><trkpt lat="61.494172" lon="30.292275"><ele>30.9</ele><time>2023-08-08T12:57:33Z</time></trkpt><trkpt lat="61.494183" lon="30.292435"><ele>29.7</ele><time>2023-08-08T12:57:41Z</time></trkpt><trkpt lat="61.494183" lon="30.292435"><ele>29.7</ele><time>2023-08-08T12:57:41Z</time></trkpt><trkpt lat="61.494182" lon="30.292598"><ele>29.4</ele><time>2023-08-08T12:57:50Z</time></trkpt><trkpt lat="61.494182" lon="30.292598"><ele>29.4</ele><time>2023-08-08T12:57:50Z</time></trkpt><trkpt lat="61.494202" lon="30.292755"><ele>27.8</ele><time>2023-08-08T12:58:03Z</time></trkpt><trkpt lat="61.494202" lon="30.292755"><ele>27.8</ele><time>2023-08-08T12:58:03Z</time></trkpt><trkpt lat="61.494225" lon="30.292907"><ele>26.8</ele><time>2023-08-08T12:58:11Z</time></trkpt><trkpt lat="61.494225" lon="30.292907"><ele>26.8</ele><time>2023-08-08T12:58:11Z</time></trkpt><trkpt lat="61.494235" lon="30.293063"><ele>25.4</ele><time>2023-08-08T12:58:19Z</time></trkpt><trkpt lat="61.494235" lon="30.293063"><ele>25.4</ele><time>2023-08-08T12:58:19Z</time></trkpt><trkpt lat="61.494227" lon="30.29323"><ele>24.2</ele><time>2023-08-08T12:58:28Z</time></trkpt><trkpt lat="61.494227" lon="30.29323"><ele>24.2</ele><time>2023-08-08T12:58:28Z</time></trkpt><trkpt lat="61.494233" lon="30.293387"><ele>22.9</ele><time>2023-08-08T12:58:37Z</time></trkpt><trkpt lat="61.494233" lon="30.293387"><ele>22.9</ele><time>2023-08-08T12:58:37Z</time></trkpt><trkpt lat="61.494247" lon="30.293542"><ele>22.1</ele><time>2023-08-08T12:58:47Z</time></trkpt><trkpt lat="61.494247" lon="30.293542"><ele>22.1</ele><time>2023-08-08T12:58:47Z</time></trkpt><trkpt lat="61.494263" lon="30.2937"><ele>20.5</ele><time>2023-08-08T12:58:57Z</time></trkpt><trkpt lat="61.494263" lon="30.2937"><ele>20.5</ele><time>2023-08-08T12:58:57Z</time></trkpt><trkpt lat="61.494283" lon="30.293855"><ele>19.0</ele><time>2023-08-08T12:59:06Z</time></trkpt><trkpt lat="61.494283" lon="30.293855"><ele>19.0</ele><time>2023-08-08T12:59:06Z</time></trkpt><trkpt lat="61.494342" lon="30.293955"><ele>19.4</ele><time>2023-08-08T12:59:14Z</time></trkpt><trkpt lat="61.494342" lon="30.293955"><ele>19.4</ele><time>2023-08-08T12:59:14Z</time></trkpt><trkpt lat="61.494377" lon="30.294102"><ele>19.3</ele><time>2023-08-08T12:59:24Z</time></trkpt><trkpt lat="61.494377" lon="30.294102"><ele>19.3</ele><time>2023-08-08T12:59:24Z</time></trkpt><trkpt lat="61.494408" lon="30.294243"><ele>18.0</ele><time>2023-08-08T12:59:33Z</time></trkpt><trkpt lat="61.494408" lon="30.294243"><ele>18.0</ele><time>2023-08-08T12:59:33Z</time></trkpt><trkpt lat="61.494443" lon="30.294377"><ele>17.3</ele><time>2023-08-08T13:00:00Z</time></trkpt><trkpt lat="61.494443" lon="30.294377"><ele>17.3</ele><time>2023-08-08T13:00:00Z</time></trkpt><trkpt lat="61.494448" lon="30.294535"><ele>17.8</ele><time>2023-08-08T13:00:09Z</time></trkpt><trkpt lat="61.494448" lon="30.294535"><ele>17.8</ele><time>2023-08-08T13:00:09Z</time></trkpt><trkpt lat="61.49444" lon="30.294707"><ele>16.5</ele><time>2023-08-08T13:00:29Z</time></trkpt><trkpt lat="61.49444" lon="30.294707"><ele>16.5</ele><time>2023-08-08T13:00:29Z</time></trkpt><trkpt lat="61.494425" lon="30.294862"><ele>15.3</ele><time>2023-08-08T13:00:34Z</time></trkpt><trkpt lat="61.494425" lon="30.294862"><ele>15.3</ele><time>2023-08-08T13:00:34Z</time></trkpt><trkpt lat="61.494413" lon="30.295033"><ele>15.5</ele><time>2023-08-08T13:00:40Z</time></trkpt><trkpt lat="61.494413" lon="30.295033"><ele>15.5</ele><time>2023-08-08T13:00:40Z</time></trkpt><trkpt lat="61.494385" lon="30.295175"><ele>14.3</ele><time>2023-08-08T13:00:49Z</time></trkpt><trkpt lat="61.494385" lon="30.295175"><ele>14.3</ele><time>2023-08-08T13:00:49Z</time></trkpt><trkpt lat="61.49436" lon="30.295332"><ele>12.9</ele><time>2023-08-08T13:00:58Z</time></trkpt><trkpt lat="61.49436" lon="30.295332"><ele>12.9</ele><time>2023-08-08T13:00:58Z</time></trkpt><trkpt lat="61.494325" lon="30.295477"><ele>12.7</ele><time>2023-08-08T13:01:08Z</time></trkpt><trkpt lat="61.494325" lon="30.295477"><ele>12.7</ele><time>2023-08-08T13:01:08Z</time></trkpt><trkpt lat="61.494302" lon="30.295622"><ele>12.0</ele><time>2023-08-08T13:01:17Z</time></trkpt><trkpt lat="61.494302" lon="30.295622"><ele>12.0</ele><time>2023-08-08T13:01:17Z</time></trkpt><trkpt lat="61.494292" lon="30.295772"><ele>12.2</ele><time>2023-08-08T13:01:29Z</time></trkpt><trkpt lat="61.494292" lon="30.295772"><ele>12.2</ele><time>2023-08-08T13:01:29Z</time></trkpt><trkpt lat="61.494272" lon="30.295955"><ele>13.5</ele><time>2023-08-08T13:02:17Z</time></trkpt><trkpt lat="61.494272" lon="30.295955"><ele>13.5</ele><time>2023-08-08T13:02:17Z</time></trkpt><trkpt lat="61.494288" lon="30.296108"><ele>13.7</ele><time>2023-08-08T13:02:27Z</time></trkpt><trkpt lat="61.494288" lon="30.296108"><ele>13.7</ele><time>2023-08-08T13:02:27Z</time></trkpt><trkpt lat="61.494357" lon="30.296173"><ele>14.8</ele><time>2023-08-08T13:02:48Z</time></trkpt><trkpt lat="61.494357" lon="30.296173"><ele>14.8</ele><time>2023-08-08T13:02:48Z</time></trkpt><trkpt lat="61.49443" lon="30.296218"><ele>14.4</ele><time>2023-08-08T13:02:55Z</time></trkpt><trkpt lat="61.49443" lon="30.296218"><ele>14.4</ele><time>2023-08-08T13:02:55Z</time></trkpt><trkpt lat="61.494505" lon="30.29625"><ele>13.2</ele><time>2023-08-08T13:03:04Z</time></trkpt><trkpt lat="61.494505" lon="30.29625"><ele>13.2</ele><time>2023-08-08T13:03:04Z</time></trkpt><trkpt lat="61.49458" lon="30.296228"><ele>11.6</ele><time>2023-08-08T13:03:22Z</time></trkpt><trkpt lat="61.49458" lon="30.296228"><ele>11.6</ele><time>2023-08-08T13:03:22Z</time></trkpt><trkpt lat="61.494647" lon="30.296307"><ele>12.9</ele><time>2023-08-08T13:03:39Z</time></trkpt><trkpt lat="61.494647" lon="30.296307"><ele>12.9</ele><time>2023-08-08T13:03:39Z</time></trkpt><trkpt lat="61.494685" lon="30.296437"><ele>10.1</ele><time>2023-08-08T13:03:54Z</time></trkpt><trkpt lat="61.494685" lon="30.296437"><ele>10.1</ele><time>2023-08-08T13:03:54Z</time></trkpt><trkpt lat="61.494735" lon="30.29655"><ele>8.3</ele><time>2023-08-08T13:04:02Z</time></trkpt><trkpt lat="61.494735" lon="30.29655"><ele>8.3</ele><time>2023-08-08T13:04:02Z</time></trkpt><trkpt lat="61.49476" lon="30.296693"><ele>7.6</ele><time>2023-08-08T13:04:11Z</time></trkpt><trkpt lat="61.49476" lon="30.296693"><ele>7.6</ele><time>2023-08-08T13:04:11Z</time></trkpt><trkpt lat="61.494773" lon="30.296842"><ele>7.0</ele><time>2023-08-08T13:04:20Z</time></trkpt><trkpt lat="61.494773" lon="30.296842"><ele>7.0</ele><time>2023-08-08T13:04:20Z</time></trkpt><trkpt lat="61.494818" lon="30.296965"><ele>4.3</ele><time>2023-08-08T13:04:32Z</time></trkpt><trkpt lat="61.494818" lon="30.296965"><ele>4.3</ele><time>2023-08-08T13:04:32Z</time></trkpt><trkpt lat="61.494887" lon="30.297028"><ele>4.4</ele><time>2023-08-08T13:04:41Z</time></trkpt><trkpt lat="61.494887" lon="30.297028"><ele>4.4</ele><time>2023-08-08T13:04:41Z</time></trkpt><trkpt lat="61.494943" lon="30.297127"><ele>5.8</ele><time>2023-08-08T13:04:50Z</time></trkpt><trkpt lat="61.494943" lon="30.297127"><ele>5.8</ele><time>2023-08-08T13:04:50Z</time></trkpt><trkpt lat="61.495003" lon="30.297228"><ele>9.3</ele><time>2023-08-08T13:05:01Z</time></trkpt><trkpt lat="61.495003" lon="30.297228"><ele>9.3</ele><time>2023-08-08T13:05:01Z</time></trkpt><trkpt lat="61.495068" lon="30.2973"><ele>11.0</ele><time>2023-08-08T13:05:15Z</time></trkpt><trkpt lat="61.495068" lon="30.2973"><ele>11.0</ele><time>2023-08-08T13:05:15Z</time></trkpt><trkpt lat="61.495113" lon="30.297428"><ele>13.5</ele><time>2023-08-08T13:05:27Z</time></trkpt><trkpt lat="61.495113" lon="30.297428"><ele>13.5</ele><time>2023-08-08T13:05:27Z</time></trkpt><trkpt lat="61.495173" lon="30.297518"><ele>14.6</ele><time>2023-08-08T13:05:44Z</time></trkpt><trkpt lat="61.495173" lon="30.297518"><ele>14.6</ele><time>2023-08-08T13:05:44Z</time></trkpt><trkpt lat="61.49522" lon="30.297642"><ele>18.6</ele><time>2023-08-08T13:06:03Z</time></trkpt><trkpt lat="61.49522" lon="30.297642"><ele>18.6</ele><time>2023-08-08T13:06:03Z</time></trkpt><trkpt lat="61.495287" lon="30.2977"><ele>17.6</ele><time>2023-08-08T13:06:19Z</time></trkpt><trkpt lat="61.495287" lon="30.2977"><ele>17.6</ele><time>2023-08-08T13:06:19Z</time></trkpt><trkpt lat="61.495305" lon="30.297847"><ele>17.0</ele><time>2023-08-08T13:06:27Z</time></trkpt><trkpt lat="61.495305" lon="30.297847"><ele>17.0</ele><time>2023-08-08T13:06:27Z</time></trkpt><trkpt lat="61.495278" lon="30.297988"><ele>17.6</ele><time>2023-08-08T13:06:42Z</time></trkpt><trkpt lat="61.495278" lon="30.297988"><ele>17.6</ele><time>2023-08-08T13:06:42Z</time></trkpt><trkpt lat="61.495208" lon="30.298037"><ele>19.0</ele><time>2023-08-08T13:07:16Z</time></trkpt><trkpt lat="61.495208" lon="30.298037"><ele>19.0</ele><time>2023-08-08T13:07:16Z</time></trkpt><trkpt lat="61.495148" lon="30.298125"><ele>16.2</ele><time>2023-08-08T13:07:26Z</time></trkpt><trkpt lat="61.495148" lon="30.298125"><ele>16.2</ele><time>2023-08-08T13:07:26Z</time></trkpt><trkpt lat="61.495087" lon="30.2982"><ele>20.4</ele><time>2023-08-08T13:07:34Z</time></trkpt><trkpt lat="61.495087" lon="30.2982"><ele>20.4</ele><time>2023-08-08T13:07:34Z</time></trkpt><trkpt lat="61.495025" lon="30.298288"><ele>21.2</ele><time>2023-08-08T13:07:47Z</time></trkpt><trkpt lat="61.495025" lon="30.298288"><ele>21.2</ele><time>2023-08-08T13:07:47Z</time></trkpt><trkpt lat="61.49495" lon="30.298288"><ele>19.9</ele><time>2023-08-08T13:08:15Z</time></trkpt><trkpt lat="61.49495" lon="30.298288"><ele>19.9</ele><time>2023-08-08T13:08:15Z</time></trkpt><trkpt lat="61.494875" lon="30.298285"><ele>21.7</ele><time>2023-08-08T13:08:22Z</time></trkpt><trkpt lat="61.494875" lon="30.298285"><ele>21.7</ele><time>2023-08-08T13:08:22Z</time></trkpt><trkpt lat="61.494798" lon="30.29831"><ele>18.3</ele><time>2023-08-08T13:08:32Z</time></trkpt><trkpt lat="61.494798" lon="30.29831"><ele>18.3</ele><time>2023-08-08T13:08:32Z</time></trkpt><trkpt lat="61.494728" lon="30.298343"><ele>18.0</ele><time>2023-08-08T13:08:41Z</time></trkpt><trkpt lat="61.494728" lon="30.298343"><ele>18.0</ele><time>2023-08-08T13:08:41Z</time></trkpt><trkpt lat="61.494657" lon="30.298373"><ele>19.2</ele><time>2023-08-08T13:08:54Z</time></trkpt><trkpt lat="61.494657" lon="30.298373"><ele>19.2</ele><time>2023-08-08T13:08:54Z</time></trkpt><trkpt lat="61.494583" lon="30.298412"><ele>19.0</ele><time>2023-08-08T13:09:09Z</time></trkpt><trkpt lat="61.494583" lon="30.298412"><ele>19.0</ele><time>2023-08-08T13:09:09Z</time></trkpt><trkpt lat="61.494517" lon="30.298498"><ele>20.2</ele><time>2023-08-08T13:09:18Z</time></trkpt><trkpt lat="61.494517" lon="30.298498"><ele>20.2</ele><time>2023-08-08T13:09:18Z</time></trkpt><trkpt lat="61.49445" lon="30.29859"><ele>20.5</ele><time>2023-08-08T13:09:25Z</time></trkpt><trkpt lat="61.49445" lon="30.29859"><ele>20.5</ele><time>2023-08-08T13:09:25Z</time></trkpt><trkpt lat="61.494372" lon="30.29866"><ele>20.7</ele><time>2023-08-08T13:09:30Z</time></trkpt><trkpt lat="61.494372" lon="30.29866"><ele>20.7</ele><time>2023-08-08T13:09:30Z</time></trkpt><trkpt lat="61.4943" lon="30.29866"><ele>22.8</ele><time>2023-08-08T13:09:40Z</time></trkpt><trkpt lat="61.4943" lon="30.29866"><ele>22.8</ele><time>2023-08-08T13:09:40Z</time></trkpt><trkpt lat="61.494227" lon="30.298688"><ele>21.0</ele><time>2023-08-08T13:09:49Z</time></trkpt><trkpt lat="61.494227" lon="30.298688"><ele>21.0</ele><time>2023-08-08T13:09:49Z</time></trkpt><trkpt lat="61.494165" lon="30.298792"><ele>20.0</ele><time>2023-08-08T13:09:59Z</time></trkpt><trkpt lat="61.494165" lon="30.298792"><ele>20.0</ele><time>2023-08-08T13:09:59Z</time></trkpt><trkpt lat="61.494093" lon="30.298828"><ele>18.7</ele><time>2023-08-08T13:10:21Z</time></trkpt><trkpt lat="61.494093" lon="30.298828"><ele>18.7</ele><time>2023-08-08T13:10:21Z</time></trkpt><trkpt lat="61.494032" lon="30.298933"><ele>19.0</ele><time>2023-08-08T13:10:31Z</time></trkpt><trkpt lat="61.494032" lon="30.298933"><ele>19.0</ele><time>2023-08-08T13:10:31Z</time></trkpt><trkpt lat="61.49397" lon="30.299035"><ele>18.4</ele><time>2023-08-08T13:10:38Z</time></trkpt><trkpt lat="61.49397" lon="30.299035"><ele>18.4</ele><time>2023-08-08T13:10:38Z</time></trkpt><trkpt lat="61.493897" lon="30.29901"><ele>12.3</ele><time>2023-08-08T13:18:53Z</time></trkpt><trkpt lat="61.493897" lon="30.29901"><ele>12.3</ele><time>2023-08-08T13:18:53Z</time></trkpt><trkpt lat="61.493977" lon="30.299022"><ele>12.3</ele><time>2023-08-08T13:19:53Z</time></trkpt><trkpt lat="61.493977" lon="30.299022"><ele>12.3</ele><time>2023-08-08T13:19:53Z</time></trkpt><trkpt lat="61.493887" lon="30.299077"><ele>10.4</ele><time>2023-08-08T13:24:51Z</time></trkpt><trkpt lat="61.493887" lon="30.299077"><ele>10.4</ele><time>2023-08-08T13:24:51Z</time></trkpt><trkpt lat="61.49395" lon="30.298985"><ele>13.2</ele><time>2023-08-08T13:25:30Z</time></trkpt><trkpt lat="61.49395" lon="30.298985"><ele>13.2</ele><time>2023-08-08T13:25:30Z</time></trkpt><trkpt lat="61.494027" lon="30.299037"><ele>11.8</ele><time>2023-08-08T13:31:22Z</time></trkpt><trkpt lat="61.494027" lon="30.299037"><ele>11.8</ele><time>2023-08-08T13:31:22Z</time></trkpt><trkpt lat="61.494098" lon="30.299095"><ele>13.4</ele><time>2023-08-08T13:31:30Z</time></trkpt><trkpt lat="61.494098" lon="30.299095"><ele>13.4</ele><time>2023-08-08T13:31:30Z</time></trkpt><trkpt lat="61.494172" lon="30.299122"><ele>18.0</ele><time>2023-08-08T13:31:47Z</time></trkpt><trkpt lat="61.494172" lon="30.299122"><ele>18.0</ele><time>2023-08-08T13:31:47Z</time></trkpt><trkpt lat="61.494215" lon="30.298993"><ele>18.0</ele><time>2023-08-08T13:32:14Z</time></trkpt><trkpt lat="61.494215" lon="30.298993"><ele>18.0</ele><time>2023-08-08T13:32:14Z</time></trkpt><trkpt lat="61.4942" lon="30.298832"><ele>18.1</ele><time>2023-08-08T13:32:38Z</time></trkpt><trkpt lat="61.4942" lon="30.298832"><ele>18.1</ele><time>2023-08-08T13:32:38Z</time></trkpt><trkpt lat="61.494262" lon="30.29873"><ele>19.3</ele><time>2023-08-08T13:32:59Z</time></trkpt><trkpt lat="61.494133" lon="30.29152"><ele>35.9</ele><time>2023-08-08T13:32:59Z</time></trkpt><trkpt lat="61.494262" lon="30.29873"><ele>19.3</ele><time>2023-08-08T13:32:59Z</time></trkpt><trkpt lat="61.494622" lon="30.298345"><ele>19.9</ele><time>2023-08-08T13:33:58Z</time></trkpt><trkpt lat="61.494683" lon="30.298255"><ele>22.2</ele><time>2023-08-08T13:34:16Z</time></trkpt><trkpt lat="61.494758" lon="30.298243"><ele>22.7</ele><time>2023-08-08T13:34:34Z</time></trkpt><trkpt lat="61.494828" lon="30.298287"><ele>24.3</ele><time>2023-08-08T13:34:47Z</time></trkpt><trkpt lat="61.494903" lon="30.298265"><ele>24.6</ele><time>2023-08-08T13:34:59Z</time></trkpt><trkpt lat="61.494977" lon="30.298205"><ele>24.4</ele><time>2023-08-08T13:35:13Z</time></trkpt><trkpt lat="61.49505" lon="30.298178"><ele>24.8</ele><time>2023-08-08T13:35:23Z</time></trkpt><trkpt lat="61.495113" lon="30.298082"><ele>26.4</ele><time>2023-08-08T13:35:32Z</time></trkpt><trkpt lat="61.495185" lon="30.298035"><ele>26.6</ele><time>2023-08-08T13:35:43Z</time></trkpt><trkpt lat="61.495247" lon="30.297958"><ele>26.8</ele><time>2023-08-08T13:35:50Z</time></trkpt><trkpt lat="61.495305" lon="30.297863"><ele>27.3</ele><time>2023-08-08T13:36:10Z</time></trkpt><trkpt lat="61.49532" lon="30.297715"><ele>23.9</ele><time>2023-08-08T13:36:23Z</time></trkpt><trkpt lat="61.49525" lon="30.297675"><ele>20.7</ele><time>2023-08-08T13:36:40Z</time></trkpt><trkpt lat="61.49518" lon="30.297618"><ele>18.1</ele><time>2023-08-08T13:36:52Z</time></trkpt><trkpt lat="61.495145" lon="30.297473"><ele>15.6</ele><time>2023-08-08T13:37:18Z</time></trkpt><trkpt lat="61.495103" lon="30.297338"><ele>15.8</ele><time>2023-08-08T13:37:29Z</time></trkpt><trkpt lat="61.495028" lon="30.297298"><ele>13.3</ele><time>2023-08-08T13:37:38Z</time></trkpt><trkpt lat="61.494957" lon="30.297263"><ele>11.8</ele><time>2023-08-08T13:37:47Z</time></trkpt><trkpt lat="61.4949" lon="30.297155"><ele>10.0</ele><time>2023-08-08T13:37:55Z</time></trkpt><trkpt lat="61.494838" lon="30.297077"><ele>9.7</ele><time>2023-08-08T13:38:06Z</time></trkpt><trkpt lat="61.494778" lon="30.296973"><ele>8.4</ele><time>2023-08-08T13:38:14Z</time></trkpt><trkpt lat="61.494748" lon="30.296825"><ele>9.0</ele><time>2023-08-08T13:38:23Z</time></trkpt><trkpt lat="61.494723" lon="30.29668"><ele>8.3</ele><time>2023-08-08T13:38:33Z</time></trkpt><trkpt lat="61.494703" lon="30.296518"><ele>8.9</ele><time>2023-08-08T13:38:40Z</time></trkpt><trkpt lat="61.494653" lon="30.296398"><ele>9.1</ele><time>2023-08-08T13:38:48Z</time></trkpt><trkpt lat="61.494583" lon="30.296335"><ele>7.7</ele><time>2023-08-08T13:38:56Z</time></trkpt><trkpt lat="61.494522" lon="30.296255"><ele>7.4</ele><time>2023-08-08T13:39:04Z</time></trkpt><trkpt lat="61.49445" lon="30.296253"><ele>8.3</ele><time>2023-08-08T13:39:12Z</time></trkpt><trkpt lat="61.494372" lon="30.296213"><ele>9.5</ele><time>2023-08-08T13:39:21Z</time></trkpt><trkpt lat="61.494298" lon="30.296157"><ele>8.6</ele><time>2023-08-08T13:39:30Z</time></trkpt><trkpt lat="61.494235" lon="30.296058"><ele>8.2</ele><time>2023-08-08T13:39:39Z</time></trkpt><trkpt lat="61.49423" lon="30.295903"><ele>8.7</ele><time>2023-08-08T13:39:48Z</time></trkpt><trkpt lat="61.494272" lon="30.295777"><ele>8.9</ele><time>2023-08-08T13:39:57Z</time></trkpt><trkpt lat="61.494283" lon="30.295615"><ele>9.2</ele><time>2023-08-08T13:40:06Z</time></trkpt><trkpt lat="61.49431" lon="30.295458"><ele>9.9</ele><time>2023-08-08T13:40:14Z</time></trkpt><trkpt lat="61.494325" lon="30.295303"><ele>10.8</ele><time>2023-08-08T13:40:22Z</time></trkpt><trkpt lat="61.49435" lon="30.295148"><ele>11.6</ele><time>2023-08-08T13:40:30Z</time></trkpt><trkpt lat="61.49438" lon="30.295003"><ele>10.0</ele><time>2023-08-08T13:40:39Z</time></trkpt><trkpt lat="61.494398" lon="30.294853"><ele>9.3</ele><time>2023-08-08T13:40:48Z</time></trkpt><trkpt lat="61.494415" lon="30.294705"><ele>10.7</ele><time>2023-08-08T13:40:56Z</time></trkpt><trkpt lat="61.49441" lon="30.294538"><ele>11.0</ele><time>2023-08-08T13:41:05Z</time></trkpt><trkpt lat="61.494407" lon="30.294378"><ele>12.6</ele><time>2023-08-08T13:41:14Z</time></trkpt><trkpt lat="61.494378" lon="30.294235"><ele>12.3</ele><time>2023-08-08T13:41:23Z</time></trkpt><trkpt lat="61.494345" lon="30.2941"><ele>12.9</ele><time>2023-08-08T13:41:31Z</time></trkpt><trkpt lat="61.494315" lon="30.29395"><ele>13.0</ele><time>2023-08-08T13:41:40Z</time></trkpt><trkpt lat="61.494267" lon="30.293818"><ele>13.7</ele><time>2023-08-08T13:41:49Z</time></trkpt><trkpt lat="61.494227" lon="30.293687"><ele>13.2</ele><time>2023-08-08T13:41:59Z</time></trkpt><trkpt lat="61.49422" lon="30.293525"><ele>13.5</ele><time>2023-08-08T13:42:07Z</time></trkpt><trkpt lat="61.494202" lon="30.293358"><ele>14.5</ele><time>2023-08-08T13:42:15Z</time></trkpt><trkpt lat="61.494192" lon="30.293207"><ele>14.3</ele><time>2023-08-08T13:42:22Z</time></trkpt><trkpt lat="61.494242" lon="30.293082"><ele>14.7</ele><time>2023-08-08T13:42:39Z</time></trkpt><trkpt lat="61.494295" lon="30.292955"><ele>15.3</ele><time>2023-08-08T13:42:51Z</time></trkpt><trkpt lat="61.49436" lon="30.292882"><ele>15.2</ele><time>2023-08-08T13:43:02Z</time></trkpt><trkpt lat="61.494412" lon="30.292775"><ele>14.7</ele><time>2023-08-08T13:43:09Z</time></trkpt><trkpt lat="61.494477" lon="30.292695"><ele>15.2</ele><time>2023-08-08T13:43:18Z</time></trkpt><trkpt lat="61.494522" lon="30.292573"><ele>14.8</ele><time>2023-08-08T13:43:26Z</time></trkpt><trkpt lat="61.49452" lon="30.292407"><ele>16.8</ele><time>2023-08-08T13:43:45Z</time></trkpt><trkpt lat="61.494488" lon="30.292263"><ele>16.2</ele><time>2023-08-08T13:43:53Z</time></trkpt><trkpt lat="61.49446" lon="30.292123"><ele>18.1</ele><time>2023-08-08T13:44:03Z</time></trkpt><trkpt lat="61.494422" lon="30.291977"><ele>18.9</ele><time>2023-08-08T13:44:13Z</time></trkpt><trkpt lat="61.494383" lon="30.291838"><ele>18.1</ele><time>2023-08-08T13:44:21Z</time></trkpt><trkpt lat="61.494382" lon="30.291668"><ele>18.5</ele><time>2023-08-08T13:44:29Z</time></trkpt><trkpt lat="61.494355" lon="30.291513"><ele>17.1</ele><time>2023-08-08T13:44:37Z</time></trkpt><trkpt lat="61.494338" lon="30.291355"><ele>18.0</ele><time>2023-08-08T13:44:45Z</time></trkpt><trkpt lat="61.49433" lon="30.291202"><ele>17.2</ele><time>2023-08-08T13:44:52Z</time></trkpt><trkpt lat="61.494293" lon="30.291065"><ele>16.1</ele><time>2023-08-08T13:44:59Z</time></trkpt><trkpt lat="61.494283" lon="30.290913"><ele>16.6</ele><time>2023-08-08T13:45:06Z</time></trkpt><trkpt lat="61.494275" lon="30.290752"><ele>19.1</ele><time>2023-08-08T13:45:18Z</time></trkpt><trkpt lat="61.494242" lon="30.290598"><ele>19.8</ele><time>2023-08-08T13:45:27Z</time></trkpt><trkpt lat="61.494218" lon="30.29045"><ele>19.6</ele><time>2023-08-08T13:45:35Z</time></trkpt><trkpt lat="61.494183" lon="30.290317"><ele>19.4</ele><time>2023-08-08T13:45:43Z</time></trkpt><trkpt lat="61.49418" lon="30.290152"><ele>19.3</ele><time>2023-08-08T13:45:52Z</time></trkpt><trkpt lat="61.494185" lon="30.289988"><ele>17.9</ele><time>2023-08-08T13:46:00Z</time></trkpt><trkpt lat="61.494165" lon="30.289825"><ele>17.6</ele><time>2023-08-08T13:46:07Z</time></trkpt><trkpt lat="61.494148" lon="30.289665"><ele>18.6</ele><time>2023-08-08T13:46:15Z</time></trkpt><trkpt lat="61.494147" lon="30.289503"><ele>18.1</ele><time>2023-08-08T13:46:23Z</time></trkpt><trkpt lat="61.494118" lon="30.289357"><ele>19.2</ele><time>2023-08-08T13:46:31Z</time></trkpt><trkpt lat="61.49412" lon="30.2892"><ele>19.0</ele><time>2023-08-08T13:46:40Z</time></trkpt><trkpt lat="61.494145" lon="30.289042"><ele>21.0</ele><time>2023-08-08T13:46:51Z</time></trkpt><trkpt lat="61.494152" lon="30.288863"><ele>22.1</ele><time>2023-08-08T13:46:59Z</time></trkpt><trkpt lat="61.494185" lon="30.288723"><ele>23.0</ele><time>2023-08-08T13:47:06Z</time></trkpt><trkpt lat="61.494252" lon="30.288652"><ele>23.3</ele><time>2023-08-08T13:47:14Z</time></trkpt><trkpt lat="61.494275" lon="30.28849"><ele>23.6</ele><time>2023-08-08T13:47:22Z</time></trkpt><trkpt lat="61.494285" lon="30.28833"><ele>23.8</ele><time>2023-08-08T13:47:31Z</time></trkpt><trkpt lat="61.494282" lon="30.288167"><ele>22.8</ele><time>2023-08-08T13:47:39Z</time></trkpt><trkpt lat="61.494292" lon="30.287995"><ele>22.8</ele><time>2023-08-08T13:47:46Z</time></trkpt><trkpt lat="61.49427" lon="30.28784"><ele>24.1</ele><time>2023-08-08T13:47:53Z</time></trkpt><trkpt lat="61.494262" lon="30.287685"><ele>22.7</ele><time>2023-08-08T13:47:59Z</time></trkpt><trkpt lat="61.494253" lon="30.287518"><ele>23.8</ele><time>2023-08-08T13:48:05Z</time></trkpt><trkpt lat="61.494257" lon="30.287352"><ele>24.5</ele><time>2023-08-08T13:48:26Z</time></trkpt><trkpt lat="61.494257" lon="30.287193"><ele>26.2</ele><time>2023-08-08T13:48:34Z</time></trkpt><trkpt lat="61.494247" lon="30.287027"><ele>27.4</ele><time>2023-08-08T13:48:43Z</time></trkpt><trkpt lat="61.494217" lon="30.286867"><ele>28.6</ele><time>2023-08-08T13:48:52Z</time></trkpt><trkpt lat="61.4942" lon="30.286708"><ele>28.9</ele><time>2023-08-08T13:48:58Z</time></trkpt><trkpt lat="61.494178" lon="30.286558"><ele>28.2</ele><time>2023-08-08T13:49:05Z</time></trkpt><trkpt lat="61.494198" lon="30.286407"><ele>26.9</ele><time>2023-08-08T13:49:12Z</time></trkpt><trkpt lat="61.494197" lon="30.286243"><ele>23.9</ele><time>2023-08-08T13:49:20Z</time></trkpt><trkpt lat="61.494218" lon="30.286097"><ele>23.4</ele><time>2023-08-08T13:49:27Z</time></trkpt><trkpt lat="61.494205" lon="30.285945"><ele>25.0</ele><time>2023-08-08T13:49:34Z</time></trkpt><trkpt lat="61.49418" lon="30.285803"><ele>25.9</ele><time>2023-08-08T13:49:40Z</time></trkpt><trkpt lat="61.494165" lon="30.285645"><ele>25.0</ele><time>2023-08-08T13:49:46Z</time></trkpt><trkpt lat="61.49416" lon="30.28547"><ele>25.2</ele><time>2023-08-08T13:49:53Z</time></trkpt><trkpt lat="61.494167" lon="30.285318"><ele>24.6</ele><time>2023-08-08T13:50:00Z</time></trkpt><trkpt lat="61.494162" lon="30.285167"><ele>23.6</ele><time>2023-08-08T13:50:08Z</time></trkpt><trkpt lat="61.494165" lon="30.285003"><ele>21.6</ele><time>2023-08-08T13:50:20Z</time></trkpt><trkpt lat="61.494132" lon="30.284852"><ele>21.4</ele><time>2023-08-08T13:50:27Z</time></trkpt><trkpt lat="61.494117" lon="30.284697"><ele>20.2</ele><time>2023-08-08T13:50:37Z</time></trkpt><trkpt lat="61.494117" lon="30.28454"><ele>20.3</ele><time>2023-08-08T13:50:47Z</time></trkpt><trkpt lat="61.494113" lon="30.284385"><ele>17.7</ele><time>2023-08-08T13:50:59Z</time></trkpt><trkpt lat="61.494133" lon="30.284235"><ele>15.1</ele><time>2023-08-08T13:51:09Z</time></trkpt><trkpt lat="61.494135" lon="30.284068"><ele>15.1</ele><time>2023-08-08T13:51:19Z</time></trkpt><trkpt lat="61.494105" lon="30.283928"><ele>14.6</ele><time>2023-08-08T13:51:26Z</time></trkpt><trkpt lat="61.494103" lon="30.283772"><ele>13.4</ele><time>2023-08-08T13:51:34Z</time></trkpt><trkpt lat="61.494143" lon="30.283645"><ele>12.7</ele><time>2023-08-08T13:51:43Z</time></trkpt><trkpt lat="61.494098" lon="30.28377"><ele>8.8</ele><time>2023-08-08T13:52:25Z</time></trkpt><trkpt lat="61.494093" lon="30.283923"><ele>9.8</ele><time>2023-08-08T13:52:36Z</time></trkpt><trkpt lat="61.494047" lon="30.284042"><ele>9.1</ele><time>2023-08-08T13:52:45Z</time></trkpt><trkpt lat="61.493977" lon="30.284077"><ele>8.7</ele><time>2023-08-08T13:52:54Z</time></trkpt><trkpt lat="61.493907" lon="30.284048"><ele>9.0</ele><time>2023-08-08T13:53:03Z</time></trkpt><trkpt lat="61.493832" lon="30.284082"><ele>8.6</ele><time>2023-08-08T13:53:13Z</time></trkpt><trkpt lat="61.493765" lon="30.284172"><ele>9.2</ele><time>2023-08-08T13:53:21Z</time></trkpt><trkpt lat="61.49371" lon="30.284275"><ele>9.5</ele><time>2023-08-08T13:53:30Z</time></trkpt><trkpt lat="61.493635" lon="30.284252"><ele>9.5</ele><time>2023-08-08T13:53:38Z</time></trkpt><trkpt lat="61.493563" lon="30.284255"><ele>9.5</ele><time>2023-08-08T13:53:45Z</time></trkpt><trkpt lat="61.49349" lon="30.284272"><ele>9.3</ele><time>2023-08-08T13:53:54Z</time></trkpt><trkpt lat="61.49342" lon="30.284343"><ele>9.1</ele><time>2023-08-08T13:54:04Z</time></trkpt><trkpt lat="61.49335" lon="30.284433"><ele>8.7</ele><time>2023-08-08T13:54:16Z</time></trkpt><trkpt lat="61.493283" lon="30.284498"><ele>8.5</ele><time>2023-08-08T13:54:25Z</time></trkpt><trkpt lat="61.493223" lon="30.284587"><ele>8.3</ele><time>2023-08-08T13:54:41Z</time></trkpt><trkpt lat="61.493158" lon="30.284665"><ele>9.3</ele><time>2023-08-08T13:54:50Z</time></trkpt><trkpt lat="61.49311" lon="30.284788"><ele>8.5</ele><time>2023-08-08T13:54:59Z</time></trkpt><trkpt lat="61.493075" lon="30.284923"><ele>8.9</ele><time>2023-08-08T13:55:07Z</time></trkpt><trkpt lat="61.493112" lon="30.28479"><ele>13.7</ele><time>2023-08-08T13:55:57Z</time></trkpt><trkpt lat="61.493165" lon="30.284682"><ele>12.7</ele><time>2023-08-08T13:56:29Z</time></trkpt><trkpt lat="61.493097" lon="30.284628"><ele>14.6</ele><time>2023-08-08T13:56:56Z</time></trkpt><trkpt lat="61.493028" lon="30.284745"><ele>12.5</ele><time>2023-08-08T13:57:08Z</time></trkpt><trkpt lat="61.492985" lon="30.284868"><ele>11.0</ele><time>2023-08-08T13:57:15Z</time></trkpt><trkpt lat="61.492922" lon="30.284947"><ele>10.4</ele><time>2023-08-08T13:57:24Z</time></trkpt><trkpt lat="61.492855" lon="30.285008"><ele>11.0</ele><time>2023-08-08T13:57:33Z</time></trkpt><trkpt lat="61.49278" lon="30.284958"><ele>12.5</ele><time>2023-08-08T13:57:50Z</time></trkpt><trkpt lat="61.492783" lon="30.284805"><ele>13.5</ele><time>2023-08-08T13:57:58Z</time></trkpt><trkpt lat="61.492712" lon="30.284817"><ele>12.1</ele><time>2023-08-08T13:58:19Z</time></trkpt><trkpt lat="61.492635" lon="30.284802"><ele>12.3</ele><time>2023-08-08T13:58:31Z</time></trkpt><trkpt lat="61.49256" lon="30.284743"><ele>11.9</ele><time>2023-08-08T13:58:39Z</time></trkpt></trkseg></trk></gpx>