<?xml version="1.0" encoding="UTF-8" standalone="no"?><gpx xmlns="http://www.topografix.com/GPX/1/1" xmlns:gpxtpx="http://www.garmin.com/xmlschemas/TrackPointExtension/v1" xmlns:xsi="http://www.w3.org/2001/XMLSchema-instance" creator="Sports Tracker" version="1.1" xsi:schemaLocation="http://www.topografix.com/GPX/1/1 http://www.topografix.com/GPX/1/1/gpx.xsd http://www.garmin.com/xmlschemas/TrackPointExtension/v1 http://www.garmin.com/xmlschemas/TrackPointExtensionv1.xsd"><metadata><name/><desc/><author><name>Александр</name></author></metadata><trk><name/><trkseg><trkpt lat="58.32814" lon="38.877822"><ele>113.1</ele><time>2023-08-01T17:35:45Z</time></trkpt><trkpt lat="58.328217" lon="38.877922"><ele>111.7</ele><time>2023-08-01T17:35:56Z</time></trkpt><trkpt lat="58.328168" lon="38.877813"><ele>117.1</ele><time>2023-08-01T17:36:01Z</time></trkpt><trkpt lat="58.328155" lon="38.87766"><ele>115.7</ele><time>2023-08-01T17:36:07Z</time></trkpt><trkpt lat="58.328205" lon="38.87756"><ele>117.2</ele><time>2023-08-01T17:36:19Z</time></trkpt><trkpt lat="58.328223" lon="38.877417"><ele>117.6</ele><time>2023-08-01T17:36:25Z</time></trkpt><trkpt lat="58.32823" lon="38.877278"><ele>117.5</ele><time>2023-08-01T17:36:30Z</time></trkpt><trkpt lat="58.32825" lon="38.877147"><ele>117.7</ele><time>2023-08-01T17:36:35Z</time></trkpt><trkpt lat="58.328203" lon="38.877027"><ele>117.3</ele><time>2023-08-01T17:36:42Z</time></trkpt><trkpt lat="58.328132" lon="38.877"><ele>117.0</ele><time>2023-08-01T17:36:46Z</time></trkpt><trkpt lat="58.328053" lon="38.87695"><ele>116.3</ele><time>2023-08-01T17:36:52Z</time></trkpt><trkpt lat="58.327975" lon="38.876912"><ele>116.8</ele><time>2023-08-01T17:36:57Z</time></trkpt><trkpt lat="58.3279" lon="38.876875"><ele>117.7</ele><time>2023-08-01T17:37:02Z</time></trkpt><trkpt lat="58.32783" lon="38.876835"><ele>118.4</ele><time>2023-08-01T17:37:07Z</time></trkpt><trkpt lat="58.32775" lon="38.876792"><ele>118.6</ele><time>2023-08-01T17:37:13Z</time></trkpt><trkpt lat="58.327682" lon="38.876753"><ele>118.1</ele><time>2023-08-01T17:37:20Z</time></trkpt><trkpt lat="58.327597" lon="38.876717"><ele>118.0</ele><time>2023-08-01T17:37:27Z</time></trkpt><trkpt lat="58.327525" lon="38.876633"><ele>118.2</ele><time>2023-08-01T17:37:32Z</time></trkpt><trkpt lat="58.327568" lon="38.876498"><ele>119.0</ele><time>2023-08-01T17:37:38Z</time></trkpt><trkpt lat="58.327615" lon="38.876377"><ele>118.9</ele><time>2023-08-01T17:37:43Z</time></trkpt><trkpt lat="58.327632" lon="38.876237"><ele>118.6</ele><time>2023-08-01T17:37:53Z</time></trkpt><trkpt lat="58.327685" lon="38.876127"><ele>118.9</ele><time>2023-08-01T17:37:58Z</time></trkpt><trkpt lat="58.327722" lon="38.87598"><ele>118.8</ele><time>2023-08-01T17:38:03Z</time></trkpt><trkpt lat="58.327758" lon="38.875835"><ele>119.1</ele><time>2023-08-01T17:38:08Z</time></trkpt><trkpt lat="58.327805" lon="38.875707"><ele>118.7</ele><time>2023-08-01T17:38:14Z</time></trkpt><trkpt lat="58.32784" lon="38.875567"><ele>118.2</ele><time>2023-08-01T17:38:21Z</time></trkpt><trkpt lat="58.327878" lon="38.875438"><ele>118.2</ele><time>2023-08-01T17:38:27Z</time></trkpt><trkpt lat="58.327898" lon="38.875302"><ele>117.8</ele><time>2023-08-01T17:38:33Z</time></trkpt><trkpt lat="58.327913" lon="38.87515"><ele>117.0</ele><time>2023-08-01T17:38:40Z</time></trkpt><trkpt lat="58.32794" lon="38.875022"><ele>116.5</ele><time>2023-08-01T17:38:46Z</time></trkpt><trkpt lat="58.327975" lon="38.874902"><ele>116.6</ele><time>2023-08-01T17:38:51Z</time></trkpt><trkpt lat="58.328007" lon="38.874755"><ele>116.7</ele><time>2023-08-01T17:38:54Z</time></trkpt><trkpt lat="58.328033" lon="38.874608"><ele>117.1</ele><time>2023-08-01T17:38:58Z</time></trkpt><trkpt lat="58.328" lon="38.874465"><ele>117.6</ele><time>2023-08-01T17:39:06Z</time></trkpt><trkpt lat="58.327995" lon="38.874305"><ele>117.9</ele><time>2023-08-01T17:39:10Z</time></trkpt><trkpt lat="58.327987" lon="38.874165"><ele>118.6</ele><time>2023-08-01T17:39:16Z</time></trkpt><trkpt lat="58.328007" lon="38.874025"><ele>118.4</ele><time>2023-08-01T17:39:23Z</time></trkpt><trkpt lat="58.328065" lon="38.873908"><ele>119.1</ele><time>2023-08-01T17:39:30Z</time></trkpt><trkpt lat="58.328137" lon="38.873828"><ele>118.9</ele><time>2023-08-01T17:39:35Z</time></trkpt><trkpt lat="58.32819" lon="38.873707"><ele>118.3</ele><time>2023-08-01T17:39:40Z</time></trkpt><trkpt lat="58.328235" lon="38.87359"><ele>118.0</ele><time>2023-08-01T17:39:45Z</time></trkpt><trkpt lat="58.328288" lon="38.873453"><ele>118.2</ele><time>2023-08-01T17:39:51Z</time></trkpt><trkpt lat="58.328325" lon="38.873308"><ele>117.7</ele><time>2023-08-01T17:39:56Z</time></trkpt><trkpt lat="58.32837" lon="38.873195"><ele>116.6</ele><time>2023-08-01T17:40:01Z</time></trkpt><trkpt lat="58.328447" lon="38.873128"><ele>116.1</ele><time>2023-08-01T17:40:07Z</time></trkpt><trkpt lat="58.328525" lon="38.873108"><ele>115.8</ele><time>2023-08-01T17:40:12Z</time></trkpt><trkpt lat="58.328595" lon="38.873062"><ele>115.8</ele><time>2023-08-01T17:40:17Z</time></trkpt><trkpt lat="58.328677" lon="38.873008"><ele>116.5</ele><time>2023-08-01T17:40:23Z</time></trkpt><trkpt lat="58.328752" lon="38.872952"><ele>116.8</ele><time>2023-08-01T17:40:28Z</time></trkpt><trkpt lat="58.328835" lon="38.872903"><ele>116.5</ele><time>2023-08-01T17:40:31Z</time></trkpt><trkpt lat="58.328915" lon="38.872852"><ele>116.4</ele><time>2023-08-01T17:40:34Z</time></trkpt><trkpt lat="58.328982" lon="38.872798"><ele>116.5</ele><time>2023-08-01T17:40:38Z</time></trkpt><trkpt lat="58.329052" lon="38.872737"><ele>116.5</ele><time>2023-08-01T17:40:43Z</time></trkpt><trkpt lat="58.329125" lon="38.872693"><ele>116.6</ele><time>2023-08-01T17:40:48Z</time></trkpt><trkpt lat="58.329205" lon="38.87266"><ele>116.6</ele><time>2023-08-01T17:40:53Z</time></trkpt><trkpt lat="58.329283" lon="38.872635"><ele>115.5</ele><time>2023-08-01T17:40:58Z</time></trkpt><trkpt lat="58.329362" lon="38.872608"><ele>115.6</ele><time>2023-08-01T17:41:03Z</time></trkpt><trkpt lat="58.329437" lon="38.872615"><ele>115.5</ele><time>2023-08-01T17:41:08Z</time></trkpt><trkpt lat="58.329522" lon="38.87265"><ele>115.7</ele><time>2023-08-01T17:41:14Z</time></trkpt><trkpt lat="58.329593" lon="38.872673"><ele>115.8</ele><time>2023-08-01T17:41:19Z</time></trkpt><trkpt lat="58.329667" lon="38.872695"><ele>115.4</ele><time>2023-08-01T17:41:24Z</time></trkpt><trkpt lat="58.32974" lon="38.872647"><ele>113.7</ele><time>2023-08-01T17:41:30Z</time></trkpt><trkpt lat="58.329777" lon="38.87252"><ele>114.1</ele><time>2023-08-01T17:41:35Z</time></trkpt><trkpt lat="58.329817" lon="38.872402"><ele>113.5</ele><time>2023-08-01T17:41:40Z</time></trkpt><trkpt lat="58.329867" lon="38.872297"><ele>113.5</ele><time>2023-08-01T17:41:45Z</time></trkpt><trkpt lat="58.329927" lon="38.872208"><ele>113.8</ele><time>2023-08-01T17:41:50Z</time></trkpt><trkpt lat="58.329985" lon="38.87213"><ele>114.0</ele><time>2023-08-01T17:41:55Z</time></trkpt><trkpt lat="58.330052" lon="38.87207"><ele>113.8</ele><time>2023-08-01T17:42:00Z</time></trkpt><trkpt lat="58.330132" lon="38.872022"><ele>114.6</ele><time>2023-08-01T17:42:05Z</time></trkpt><trkpt lat="58.330203" lon="38.871968"><ele>115.0</ele><time>2023-08-01T17:42:10Z</time></trkpt><trkpt lat="58.33027" lon="38.871912"><ele>114.9</ele><time>2023-08-01T17:42:15Z</time></trkpt><trkpt lat="58.330308" lon="38.871777"><ele>114.8</ele><time>2023-08-01T17:42:21Z</time></trkpt><trkpt lat="58.330388" lon="38.87174"><ele>114.3</ele><time>2023-08-01T17:42:28Z</time></trkpt><trkpt lat="58.33045" lon="38.871668"><ele>113.6</ele><time>2023-08-01T17:42:33Z</time></trkpt><trkpt lat="58.330527" lon="38.871578"><ele>113.4</ele><time>2023-08-01T17:42:41Z</time></trkpt><trkpt lat="58.330595" lon="38.871522"><ele>113.3</ele><time>2023-08-01T17:42:45Z</time></trkpt><trkpt lat="58.330665" lon="38.871432"><ele>112.9</ele><time>2023-08-01T17:42:50Z</time></trkpt><trkpt lat="58.330745" lon="38.87141"><ele>111.8</ele><time>2023-08-01T17:42:55Z</time></trkpt><trkpt lat="58.330823" lon="38.871415"><ele>112.3</ele><time>2023-08-01T17:43:00Z</time></trkpt><trkpt lat="58.330897" lon="38.8714"><ele>112.6</ele><time>2023-08-01T17:43:05Z</time></trkpt><trkpt lat="58.330973" lon="38.871383"><ele>113.1</ele><time>2023-08-01T17:43:10Z</time></trkpt><trkpt lat="58.331048" lon="38.871395"><ele>113.0</ele><time>2023-08-01T17:43:15Z</time></trkpt><trkpt lat="58.33112" lon="38.871347"><ele>113.5</ele><time>2023-08-01T17:43:21Z</time></trkpt><trkpt lat="58.33119" lon="38.87126"><ele>113.2</ele><time>2023-08-01T17:43:28Z</time></trkpt><trkpt lat="58.331212" lon="38.871107"><ele>110.9</ele><time>2023-08-01T17:43:35Z</time></trkpt><trkpt lat="58.331247" lon="38.870972"><ele>111.0</ele><time>2023-08-01T17:43:41Z</time></trkpt><trkpt lat="58.33129" lon="38.870855"><ele>110.3</ele><time>2023-08-01T17:43:47Z</time></trkpt><trkpt lat="58.331353" lon="38.870772"><ele>109.8</ele><time>2023-08-01T17:43:53Z</time></trkpt><trkpt lat="58.33141" lon="38.870665"><ele>108.3</ele><time>2023-08-01T17:44:00Z</time></trkpt><trkpt lat="58.331472" lon="38.870582"><ele>107.6</ele><time>2023-08-01T17:44:15Z</time></trkpt><trkpt lat="58.331528" lon="38.87049"><ele>106.3</ele><time>2023-08-01T17:44:23Z</time></trkpt><trkpt lat="58.331577" lon="38.870372"><ele>106.0</ele><time>2023-08-01T17:44:31Z</time></trkpt><trkpt lat="58.331613" lon="38.87023"><ele>105.2</ele><time>2023-08-01T17:44:39Z</time></trkpt><trkpt lat="58.331653" lon="38.870108"><ele>105.2</ele><time>2023-08-01T17:44:48Z</time></trkpt><trkpt lat="58.331618" lon="38.870235"><ele>103.8</ele><time>2023-08-01T18:03:23Z</time></trkpt><trkpt lat="58.331543" lon="38.870265"><ele>103.2</ele><time>2023-08-01T18:03:31Z</time></trkpt><trkpt lat="58.331468" lon="38.870313"><ele>103.6</ele><time>2023-08-01T18:03:40Z</time></trkpt><trkpt lat="58.331403" lon="38.870373"><ele>104.2</ele><time>2023-08-01T18:03:49Z</time></trkpt><trkpt lat="58.331332" lon="38.870412"><ele>104.1</ele><time>2023-08-01T18:03:58Z</time></trkpt><trkpt lat="58.331255" lon="38.870445"><ele>104.1</ele><time>2023-08-01T18:04:09Z</time></trkpt><trkpt lat="58.33118" lon="38.870488"><ele>104.0</ele><time>2023-08-01T18:04:17Z</time></trkpt><trkpt lat="58.331113" lon="38.870552"><ele>103.9</ele><time>2023-08-01T18:04:25Z</time></trkpt><trkpt lat="58.331057" lon="38.870642"><ele>104.4</ele><time>2023-08-01T18:04:31Z</time></trkpt><trkpt lat="58.330983" lon="38.870693"><ele>104.7</ele><time>2023-08-01T18:04:38Z</time></trkpt><trkpt lat="58.330908" lon="38.870715"><ele>105.0</ele><time>2023-08-01T18:04:45Z</time></trkpt><trkpt lat="58.330878" lon="38.870842"><ele>105.4</ele><time>2023-08-01T18:04:52Z</time></trkpt><trkpt lat="58.33084" lon="38.870973"><ele>105.7</ele><time>2023-08-01T18:05:00Z</time></trkpt><trkpt lat="58.330848" lon="38.871118"><ele>105.7</ele><time>2023-08-01T18:05:09Z</time></trkpt><trkpt lat="58.330775" lon="38.871195"><ele>105.8</ele><time>2023-08-01T18:05:18Z</time></trkpt><trkpt lat="58.3307" lon="38.871205"><ele>106.2</ele><time>2023-08-01T18:05:24Z</time></trkpt><trkpt lat="58.330623" lon="38.871168"><ele>106.7</ele><time>2023-08-01T18:05:31Z</time></trkpt><trkpt lat="58.330565" lon="38.871253"><ele>106.8</ele><time>2023-08-01T18:05:36Z</time></trkpt><trkpt lat="58.330507" lon="38.871338"><ele>106.6</ele><time>2023-08-01T18:05:43Z</time></trkpt><trkpt lat="58.330475" lon="38.87148"><ele>106.8</ele><time>2023-08-01T18:05:52Z</time></trkpt><trkpt lat="58.33041" lon="38.87154"><ele>107.3</ele><time>2023-08-01T18:05:58Z</time></trkpt><trkpt lat="58.330342" lon="38.871612"><ele>107.4</ele><time>2023-08-01T18:06:06Z</time></trkpt><trkpt lat="58.330277" lon="38.871708"><ele>108.4</ele><time>2023-08-01T18:06:17Z</time></trkpt><trkpt lat="58.330242" lon="38.871843"><ele>108.7</ele><time>2023-08-01T18:06:22Z</time></trkpt><trkpt lat="58.330167" lon="38.871873"><ele>109.3</ele><time>2023-08-01T18:06:27Z</time></trkpt><trkpt lat="58.330097" lon="38.871927"><ele>108.9</ele><time>2023-08-01T18:06:32Z</time></trkpt><trkpt lat="58.330037" lon="38.872017"><ele>108.8</ele><time>2023-08-01T18:06:40Z</time></trkpt><trkpt lat="58.329965" lon="38.872022"><ele>109.3</ele><time>2023-08-01T18:06:50Z</time></trkpt><trkpt lat="58.329925" lon="38.872162"><ele>109.1</ele><time>2023-08-01T18:06:58Z</time></trkpt><trkpt lat="58.329868" lon="38.872247"><ele>108.4</ele><time>2023-08-01T18:07:04Z</time></trkpt><trkpt lat="58.329807" lon="38.872345"><ele>108.6</ele><time>2023-08-01T18:07:11Z</time></trkpt><trkpt lat="58.32972" lon="38.872373"><ele>108.2</ele><time>2023-08-01T18:07:31Z</time></trkpt><trkpt lat="58.329673" lon="38.872487"><ele>108.7</ele><time>2023-08-01T18:07:44Z</time></trkpt><trkpt lat="58.329627" lon="38.872595"><ele>108.9</ele><time>2023-08-01T18:07:51Z</time></trkpt><trkpt lat="58.32959" lon="38.872727"><ele>109.2</ele><time>2023-08-01T18:07:54Z</time></trkpt><trkpt lat="58.329525" lon="38.872665"><ele>109.4</ele><time>2023-08-01T18:08:08Z</time></trkpt><trkpt lat="58.329445" lon="38.87262"><ele>108.8</ele><time>2023-08-01T18:08:17Z</time></trkpt><trkpt lat="58.329363" lon="38.872585"><ele>109.5</ele><time>2023-08-01T18:08:24Z</time></trkpt><trkpt lat="58.32928" lon="38.872597"><ele>109.8</ele><time>2023-08-01T18:08:33Z</time></trkpt><trkpt lat="58.329205" lon="38.872623"><ele>110.0</ele><time>2023-08-01T18:08:40Z</time></trkpt><trkpt lat="58.32913" lon="38.872673"><ele>110.2</ele><time>2023-08-01T18:08:53Z</time></trkpt><trkpt lat="58.32906" lon="38.872698"><ele>110.3</ele><time>2023-08-01T18:09:05Z</time></trkpt><trkpt lat="58.329005" lon="38.872595"><ele>109.7</ele><time>2023-08-01T18:09:16Z</time></trkpt><trkpt lat="58.328938" lon="38.87265"><ele>110.4</ele><time>2023-08-01T18:09:30Z</time></trkpt><trkpt lat="58.328865" lon="38.872718"><ele>110.3</ele><time>2023-08-01T18:09:44Z</time></trkpt><trkpt lat="58.328792" lon="38.872737"><ele>110.7</ele><time>2023-08-01T18:09:51Z</time></trkpt><trkpt lat="58.328822" lon="38.872867"><ele>111.7</ele><time>2023-08-01T18:10:02Z</time></trkpt><trkpt lat="58.328743" lon="38.872885"><ele>112.7</ele><time>2023-08-01T18:10:10Z</time></trkpt><trkpt lat="58.328672" lon="38.872932"><ele>112.8</ele><time>2023-08-01T18:10:17Z</time></trkpt><trkpt lat="58.328615" lon="38.87302"><ele>112.9</ele><time>2023-08-01T18:10:20Z</time></trkpt><trkpt lat="58.328537" lon="38.873013"><ele>111.7</ele><time>2023-08-01T18:10:33Z</time></trkpt><trkpt lat="58.328615" lon="38.873037"><ele>112.6</ele><time>2023-08-01T18:10:51Z</time></trkpt><trkpt lat="58.328537" lon="38.873095"><ele>112.0</ele><time>2023-08-01T18:10:58Z</time></trkpt><trkpt lat="58.328442" lon="38.873062"><ele>111.8</ele><time>2023-08-01T18:11:04Z</time></trkpt><trkpt lat="58.328363" lon="38.873052"><ele>111.6</ele><time>2023-08-01T18:11:09Z</time></trkpt><trkpt lat="58.328333" lon="38.873182"><ele>110.9</ele><time>2023-08-01T18:11:38Z</time></trkpt><trkpt lat="58.328268" lon="38.87327"><ele>110.5</ele><time>2023-08-01T18:12:10Z</time></trkpt><trkpt lat="58.328225" lon="38.873392"><ele>111.1</ele><time>2023-08-01T18:12:20Z</time></trkpt><trkpt lat="58.32819" lon="38.873515"><ele>111.4</ele><time>2023-08-01T18:12:27Z</time></trkpt><trkpt lat="58.32813" lon="38.873613"><ele>111.6</ele><time>2023-08-01T18:12:37Z</time></trkpt><trkpt lat="58.328108" lon="38.873755"><ele>113.4</ele><time>2023-08-01T18:12:48Z</time></trkpt><trkpt lat="58.328068" lon="38.873883"><ele>113.7</ele><time>2023-08-01T18:12:58Z</time></trkpt><trkpt lat="58.328047" lon="38.874022"><ele>113.9</ele><time>2023-08-01T18:13:04Z</time></trkpt><trkpt lat="58.327977" lon="38.874103"><ele>113.9</ele><time>2023-08-01T18:13:13Z</time></trkpt><trkpt lat="58.32795" lon="38.87424"><ele>114.1</ele><time>2023-08-01T18:13:23Z</time></trkpt><trkpt lat="58.327958" lon="38.8744"><ele>113.4</ele><time>2023-08-01T18:13:31Z</time></trkpt><trkpt lat="58.327992" lon="38.874527"><ele>113.6</ele><time>2023-08-01T18:13:37Z</time></trkpt><trkpt lat="58.327967" lon="38.874658"><ele>113.3</ele><time>2023-08-01T18:13:44Z</time></trkpt><trkpt lat="58.327913" lon="38.874758"><ele>112.6</ele><time>2023-08-01T18:13:54Z</time></trkpt><trkpt lat="58.327895" lon="38.874893"><ele>112.5</ele><time>2023-08-01T18:13:59Z</time></trkpt><trkpt lat="58.327875" lon="38.875028"><ele>112.2</ele><time>2023-08-01T18:14:06Z</time></trkpt><trkpt lat="58.327855" lon="38.87518"><ele>112.2</ele><time>2023-08-01T18:14:14Z</time></trkpt><trkpt lat="58.327843" lon="38.875318"><ele>112.4</ele><time>2023-08-01T18:14:20Z</time></trkpt><trkpt lat="58.32783" lon="38.875463"><ele>112.5</ele><time>2023-08-01T18:14:29Z</time></trkpt><trkpt lat="58.327777" lon="38.875558"><ele>112.3</ele><time>2023-08-01T18:14:38Z</time></trkpt><trkpt lat="58.327745" lon="38.8757"><ele>111.8</ele><time>2023-08-01T18:14:47Z</time></trkpt><trkpt lat="58.327698" lon="38.87581"><ele>111.5</ele><time>2023-08-01T18:14:59Z</time></trkpt><trkpt lat="58.327683" lon="38.875952"><ele>111.1</ele><time>2023-08-01T18:15:11Z</time></trkpt><trkpt lat="58.327638" lon="38.87607"><ele>111.5</ele><time>2023-08-01T18:15:16Z</time></trkpt><trkpt lat="58.327612" lon="38.876198"><ele>111.9</ele><time>2023-08-01T18:15:25Z</time></trkpt><trkpt lat="58.327575" lon="38.876317"><ele>113.0</ele><time>2023-08-01T18:15:34Z</time></trkpt><trkpt lat="58.327558" lon="38.876455"><ele>112.0</ele><time>2023-08-01T18:15:43Z</time></trkpt><trkpt lat="58.32751" lon="38.876557"><ele>111.9</ele><time>2023-08-01T18:15:54Z</time></trkpt><trkpt lat="58.327557" lon="38.87666"><ele>113.9</ele><time>2023-08-01T18:16:29Z</time></trkpt><trkpt lat="58.327633" lon="38.87667"><ele>114.2</ele><time>2023-08-01T18:16:40Z</time></trkpt><trkpt lat="58.32771" lon="38.876693"><ele>113.8</ele><time>2023-08-01T18:16:49Z</time></trkpt><trkpt lat="58.327785" lon="38.876742"><ele>114.9</ele><time>2023-08-01T18:16:58Z</time></trkpt><trkpt lat="58.327862" lon="38.876792"><ele>116.6</ele><time>2023-08-01T18:17:06Z</time></trkpt><trkpt lat="58.327935" lon="38.876822"><ele>117.7</ele><time>2023-08-01T18:17:13Z</time></trkpt><trkpt lat="58.328015" lon="38.876828"><ele>117.6</ele><time>2023-08-01T18:17:25Z</time></trkpt><trkpt lat="58.328087" lon="38.876892"><ele>117.7</ele><time>2023-08-01T18:17:31Z</time></trkpt><trkpt lat="58.328153" lon="38.87695"><ele>117.8</ele><time>2023-08-01T18:17:37Z</time></trkpt><trkpt lat="58.328227" lon="38.876972"><ele>117.4</ele><time>2023-08-01T18:17:43Z</time></trkpt><trkpt lat="58.328183" lon="38.877092"><ele>116.2</ele><time>2023-08-01T18:17:58Z</time></trkpt><trkpt lat="58.328162" lon="38.877232"><ele>116.3</ele><time>2023-08-01T18:18:03Z</time></trkpt><trkpt lat="58.328152" lon="38.877368"><ele>115.5</ele><time>2023-08-01T18:18:12Z</time></trkpt><trkpt lat="58.328138" lon="38.877505"><ele>115.4</ele><time>2023-08-01T18:18:23Z</time></trkpt><trkpt lat="58.328128" lon="38.877648"><ele>115.5</ele><time>2023-08-01T18:18:32Z</time></trkpt><trkpt lat="58.328135" lon="38.877792"><ele>115.3</ele><time>2023-08-01T18:18:39Z</time></trkpt><trkpt lat="58.328208" lon="38.87781"><ele>114.9</ele><time>2023-08-01T18:18:48Z</time></trkpt><trkpt lat="58.328222" lon="38.877952"><ele>113.3</ele><time>2023-08-01T18:19:16Z</time></trkpt><trkpt lat="58.328268" lon="38.87807"><ele>113.6</ele><time>2023-08-01T18:19:39Z</time></trkpt><trkpt lat="58.328337" lon="38.878113"><ele>114.8</ele><time>2023-08-01T18:19:49Z</time></trkpt><trkpt lat="58.328408" lon="38.87814"><ele>115.6</ele><time>2023-08-01T18:20:01Z</time></trkpt><trkpt lat="58.328438" lon="38.878012"><ele>115.3</ele><time>2023-08-01T18:20:28Z</time></trkpt><trkpt lat="58.328433" lon="38.877867"><ele>115.3</ele><time>2023-08-01T18:20:32Z</time></trkpt><trkpt lat="58.328492" lon="38.877958"><ele>116.0</ele><time>2023-08-01T18:20:41Z</time></trkpt><trkpt lat="58.328457" lon="38.87808"><ele>115.2</ele><time>2023-08-01T18:20:57Z</time></trkpt><trkpt lat="58.3285" lon="38.878202"><ele>115.1</ele><time>2023-08-01T18:21:03Z</time></trkpt><trkpt lat="58.328497" lon="38.878363"><ele>115.5</ele><time>2023-08-01T18:21:09Z</time></trkpt><trkpt lat="58.328435" lon="38.878437"><ele>116.9</ele><time>2023-08-01T18:21:40Z</time></trkpt><trkpt lat="58.328417" lon="38.878578"><ele>115.6</ele><time>2023-08-01T18:25:04Z</time></trkpt></trkseg></trk></gpx>