<?xml version="1.0" encoding="UTF-8" standalone="no"?><gpx xmlns="http://www.topografix.com/GPX/1/1" xmlns:gpxtpx="http://www.garmin.com/xmlschemas/TrackPointExtension/v1" xmlns:xsi="http://www.w3.org/2001/XMLSchema-instance" creator="Sports Tracker" version="1.1" xsi:schemaLocation="http://www.topografix.com/GPX/1/1 http://www.topografix.com/GPX/1/1/gpx.xsd http://www.garmin.com/xmlschemas/TrackPointExtension/v1 http://www.garmin.com/xmlschemas/TrackPointExtensionv1.xsd"><metadata><name/><desc/><author><name>Александр</name></author></metadata><trk><name/><trkseg><trkpt lat="58.023547" lon="38.86524"><ele>105.6</ele><time>2022-03-29T11:09:49Z</time></trkpt><trkpt lat="58.023468" lon="38.865218"><ele>105.0</ele><time>2022-03-29T11:09:55Z</time></trkpt><trkpt lat="58.023397" lon="38.865192"><ele>105.6</ele><time>2022-03-29T11:10:00Z</time></trkpt><trkpt lat="58.023318" lon="38.865157"><ele>105.1</ele><time>2022-03-29T11:10:06Z</time></trkpt><trkpt lat="58.02325" lon="38.865108"><ele>105.0</ele><time>2022-03-29T11:10:12Z</time></trkpt><trkpt lat="58.023175" lon="38.865063"><ele>105.4</ele><time>2022-03-29T11:10:18Z</time></trkpt><trkpt lat="58.023102" lon="38.865008"><ele>105.0</ele><time>2022-03-29T11:10:24Z</time></trkpt><trkpt lat="58.023027" lon="38.864942"><ele>104.9</ele><time>2022-03-29T11:10:30Z</time></trkpt><trkpt lat="58.02295" lon="38.864888"><ele>105.0</ele><time>2022-03-29T11:10:36Z</time></trkpt><trkpt lat="58.022875" lon="38.864837"><ele>105.1</ele><time>2022-03-29T11:10:42Z</time></trkpt><trkpt lat="58.022798" lon="38.864792"><ele>105.2</ele><time>2022-03-29T11:10:48Z</time></trkpt><trkpt lat="58.022728" lon="38.864752"><ele>105.1</ele><time>2022-03-29T11:10:54Z</time></trkpt><trkpt lat="58.022652" lon="38.864673"><ele>104.9</ele><time>2022-03-29T11:11:01Z</time></trkpt><trkpt lat="58.02258" lon="38.864643"><ele>105.2</ele><time>2022-03-29T11:11:06Z</time></trkpt><trkpt lat="58.02251" lon="38.864577"><ele>106.0</ele><time>2022-03-29T11:11:24Z</time></trkpt><trkpt lat="58.022443" lon="38.864493"><ele>105.7</ele><time>2022-03-29T11:11:41Z</time></trkpt><trkpt lat="58.022367" lon="38.864512"><ele>104.9</ele><time>2022-03-29T11:11:47Z</time></trkpt><trkpt lat="58.022287" lon="38.864528"><ele>104.3</ele><time>2022-03-29T11:11:53Z</time></trkpt><trkpt lat="58.02221" lon="38.86451"><ele>105.0</ele><time>2022-03-29T11:12:00Z</time></trkpt><trkpt lat="58.022137" lon="38.864527"><ele>104.9</ele><time>2022-03-29T11:12:07Z</time></trkpt><trkpt lat="58.022063" lon="38.864485"><ele>105.0</ele><time>2022-03-29T11:12:14Z</time></trkpt><trkpt lat="58.021992" lon="38.864502"><ele>104.8</ele><time>2022-03-29T11:12:19Z</time></trkpt><trkpt lat="58.021913" lon="38.864533"><ele>104.8</ele><time>2022-03-29T11:12:24Z</time></trkpt><trkpt lat="58.021843" lon="38.864573"><ele>104.2</ele><time>2022-03-29T11:12:30Z</time></trkpt><trkpt lat="58.021762" lon="38.864593"><ele>104.5</ele><time>2022-03-29T11:12:37Z</time></trkpt><trkpt lat="58.021688" lon="38.86464"><ele>104.8</ele><time>2022-03-29T11:12:43Z</time></trkpt><trkpt lat="58.021612" lon="38.864635"><ele>104.5</ele><time>2022-03-29T11:12:49Z</time></trkpt><trkpt lat="58.021527" lon="38.864642"><ele>104.4</ele><time>2022-03-29T11:12:55Z</time></trkpt><trkpt lat="58.021453" lon="38.86465"><ele>105.0</ele><time>2022-03-29T11:13:00Z</time></trkpt><trkpt lat="58.021377" lon="38.86464"><ele>104.4</ele><time>2022-03-29T11:13:05Z</time></trkpt><trkpt lat="58.021298" lon="38.86462"><ele>104.3</ele><time>2022-03-29T11:13:11Z</time></trkpt><trkpt lat="58.021217" lon="38.86463"><ele>103.6</ele><time>2022-03-29T11:13:16Z</time></trkpt><trkpt lat="58.021133" lon="38.864642"><ele>103.0</ele><time>2022-03-29T11:13:22Z</time></trkpt><trkpt lat="58.02105" lon="38.864648"><ele>102.8</ele><time>2022-03-29T11:13:28Z</time></trkpt><trkpt lat="58.02097" lon="38.864673"><ele>102.2</ele><time>2022-03-29T11:13:34Z</time></trkpt><trkpt lat="58.020893" lon="38.864712"><ele>101.8</ele><time>2022-03-29T11:13:40Z</time></trkpt><trkpt lat="58.020818" lon="38.864742"><ele>101.4</ele><time>2022-03-29T11:13:46Z</time></trkpt><trkpt lat="58.020745" lon="38.864745"><ele>100.9</ele><time>2022-03-29T11:13:51Z</time></trkpt><trkpt lat="58.020665" lon="38.864748"><ele>101.1</ele><time>2022-03-29T11:13:57Z</time></trkpt><trkpt lat="58.020587" lon="38.864755"><ele>101.3</ele><time>2022-03-29T11:14:03Z</time></trkpt><trkpt lat="58.020512" lon="38.864778"><ele>101.0</ele><time>2022-03-29T11:14:09Z</time></trkpt><trkpt lat="58.020432" lon="38.864782"><ele>100.7</ele><time>2022-03-29T11:14:15Z</time></trkpt><trkpt lat="58.020352" lon="38.864803"><ele>100.5</ele><time>2022-03-29T11:14:22Z</time></trkpt><trkpt lat="58.020265" lon="38.864813"><ele>99.9</ele><time>2022-03-29T11:14:28Z</time></trkpt><trkpt lat="58.020187" lon="38.864848"><ele>99.8</ele><time>2022-03-29T11:14:33Z</time></trkpt><trkpt lat="58.020113" lon="38.864882"><ele>99.3</ele><time>2022-03-29T11:14:38Z</time></trkpt><trkpt lat="58.020037" lon="38.864903"><ele>98.8</ele><time>2022-03-29T11:14:44Z</time></trkpt><trkpt lat="58.019963" lon="38.864905"><ele>98.8</ele><time>2022-03-29T11:14:49Z</time></trkpt><trkpt lat="58.019885" lon="38.864923"><ele>98.7</ele><time>2022-03-29T11:14:55Z</time></trkpt><trkpt lat="58.019805" lon="38.864937"><ele>98.3</ele><time>2022-03-29T11:15:01Z</time></trkpt><trkpt lat="58.019727" lon="38.864952"><ele>98.6</ele><time>2022-03-29T11:15:07Z</time></trkpt><trkpt lat="58.01965" lon="38.864945"><ele>98.8</ele><time>2022-03-29T11:15:13Z</time></trkpt><trkpt lat="58.019577" lon="38.864948"><ele>98.7</ele><time>2022-03-29T11:15:19Z</time></trkpt><trkpt lat="58.019507" lon="38.864997"><ele>98.6</ele><time>2022-03-29T11:15:26Z</time></trkpt><trkpt lat="58.019428" lon="38.865005"><ele>98.9</ele><time>2022-03-29T11:15:32Z</time></trkpt><trkpt lat="58.019343" lon="38.864983"><ele>98.7</ele><time>2022-03-29T11:15:38Z</time></trkpt><trkpt lat="58.019262" lon="38.865003"><ele>98.4</ele><time>2022-03-29T11:15:44Z</time></trkpt><trkpt lat="58.019187" lon="38.864982"><ele>97.9</ele><time>2022-03-29T11:15:51Z</time></trkpt><trkpt lat="58.019103" lon="38.864968"><ele>97.7</ele><time>2022-03-29T11:15:58Z</time></trkpt><trkpt lat="58.019025" lon="38.864965"><ele>98.5</ele><time>2022-03-29T11:16:04Z</time></trkpt><trkpt lat="58.018947" lon="38.864948"><ele>98.6</ele><time>2022-03-29T11:16:10Z</time></trkpt><trkpt lat="58.01887" lon="38.864923"><ele>98.5</ele><time>2022-03-29T11:16:16Z</time></trkpt><trkpt lat="58.018792" lon="38.86493"><ele>98.4</ele><time>2022-03-29T11:16:21Z</time></trkpt><trkpt lat="58.018717" lon="38.864923"><ele>98.6</ele><time>2022-03-29T11:16:26Z</time></trkpt><trkpt lat="58.01864" lon="38.86492"><ele>98.9</ele><time>2022-03-29T11:16:30Z</time></trkpt><trkpt lat="58.018563" lon="38.864897"><ele>99.3</ele><time>2022-03-29T11:16:35Z</time></trkpt><trkpt lat="58.018483" lon="38.86489"><ele>99.9</ele><time>2022-03-29T11:16:41Z</time></trkpt><trkpt lat="58.018407" lon="38.86488"><ele>100.0</ele><time>2022-03-29T11:16:47Z</time></trkpt><trkpt lat="58.018325" lon="38.864867"><ele>99.3</ele><time>2022-03-29T11:16:54Z</time></trkpt><trkpt lat="58.018253" lon="38.864862"><ele>99.8</ele><time>2022-03-29T11:17:01Z</time></trkpt><trkpt lat="58.018177" lon="38.864857"><ele>99.4</ele><time>2022-03-29T11:17:07Z</time></trkpt><trkpt lat="58.018097" lon="38.864855"><ele>99.6</ele><time>2022-03-29T11:17:13Z</time></trkpt><trkpt lat="58.018023" lon="38.864828"><ele>99.1</ele><time>2022-03-29T11:17:19Z</time></trkpt><trkpt lat="58.017948" lon="38.864815"><ele>99.1</ele><time>2022-03-29T11:17:24Z</time></trkpt><trkpt lat="58.01787" lon="38.864788"><ele>98.9</ele><time>2022-03-29T11:17:32Z</time></trkpt><trkpt lat="58.017795" lon="38.864775"><ele>98.4</ele><time>2022-03-29T11:17:39Z</time></trkpt><trkpt lat="58.017718" lon="38.864775"><ele>98.4</ele><time>2022-03-29T11:17:46Z</time></trkpt><trkpt lat="58.017647" lon="38.86476"><ele>98.3</ele><time>2022-03-29T11:17:52Z</time></trkpt><trkpt lat="58.01757" lon="38.864743"><ele>98.3</ele><time>2022-03-29T11:17:59Z</time></trkpt><trkpt lat="58.01749" lon="38.86473"><ele>98.9</ele><time>2022-03-29T11:18:05Z</time></trkpt><trkpt lat="58.017418" lon="38.864712"><ele>98.6</ele><time>2022-03-29T11:18:13Z</time></trkpt><trkpt lat="58.01734" lon="38.864707"><ele>98.9</ele><time>2022-03-29T11:18:20Z</time></trkpt><trkpt lat="58.01727" lon="38.864682"><ele>99.5</ele><time>2022-03-29T11:18:26Z</time></trkpt><trkpt lat="58.017197" lon="38.86467"><ele>100.0</ele><time>2022-03-29T11:18:31Z</time></trkpt><trkpt lat="58.017125" lon="38.86464"><ele>100.5</ele><time>2022-03-29T11:18:36Z</time></trkpt><trkpt lat="58.017055" lon="38.864597"><ele>100.5</ele><time>2022-03-29T11:18:41Z</time></trkpt><trkpt lat="58.016982" lon="38.86459"><ele>100.7</ele><time>2022-03-29T11:18:46Z</time></trkpt><trkpt lat="58.016907" lon="38.864582"><ele>100.8</ele><time>2022-03-29T11:18:51Z</time></trkpt><trkpt lat="58.016835" lon="38.864545"><ele>101.9</ele><time>2022-03-29T11:19:14Z</time></trkpt><trkpt lat="58.01677" lon="38.864658"><ele>101.7</ele><time>2022-03-29T11:19:19Z</time></trkpt><trkpt lat="58.016693" lon="38.864627"><ele>101.4</ele><time>2022-03-29T11:19:27Z</time></trkpt><trkpt lat="58.016617" lon="38.864568"><ele>102.0</ele><time>2022-03-29T11:19:33Z</time></trkpt><trkpt lat="58.016548" lon="38.864512"><ele>102.5</ele><time>2022-03-29T11:19:39Z</time></trkpt><trkpt lat="58.016475" lon="38.86445"><ele>103.7</ele><time>2022-03-29T11:19:45Z</time></trkpt><trkpt lat="58.016405" lon="38.864405"><ele>104.0</ele><time>2022-03-29T11:19:50Z</time></trkpt><trkpt lat="58.016335" lon="38.864355"><ele>104.1</ele><time>2022-03-29T11:19:55Z</time></trkpt><trkpt lat="58.016263" lon="38.864288"><ele>103.6</ele><time>2022-03-29T11:20:02Z</time></trkpt><trkpt lat="58.01619" lon="38.864248"><ele>103.3</ele><time>2022-03-29T11:20:07Z</time></trkpt><trkpt lat="58.016115" lon="38.864178"><ele>103.6</ele><time>2022-03-29T11:20:13Z</time></trkpt><trkpt lat="58.016037" lon="38.864113"><ele>104.0</ele><time>2022-03-29T11:20:19Z</time></trkpt><trkpt lat="58.01597" lon="38.864057"><ele>104.0</ele><time>2022-03-29T11:20:24Z</time></trkpt><trkpt lat="58.015902" lon="38.863995"><ele>104.1</ele><time>2022-03-29T11:20:29Z</time></trkpt><trkpt lat="58.01583" lon="38.863945"><ele>103.4</ele><time>2022-03-29T11:20:35Z</time></trkpt><trkpt lat="58.015758" lon="38.863885"><ele>103.6</ele><time>2022-03-29T11:20:41Z</time></trkpt><trkpt lat="58.01569" lon="38.86383"><ele>103.4</ele><time>2022-03-29T11:20:47Z</time></trkpt><trkpt lat="58.015618" lon="38.86376"><ele>103.5</ele><time>2022-03-29T11:20:53Z</time></trkpt><trkpt lat="58.015553" lon="38.8637"><ele>103.4</ele><time>2022-03-29T11:20:59Z</time></trkpt><trkpt lat="58.015492" lon="38.863628"><ele>103.6</ele><time>2022-03-29T11:21:05Z</time></trkpt><trkpt lat="58.01543" lon="38.863562"><ele>103.9</ele><time>2022-03-29T11:21:12Z</time></trkpt><trkpt lat="58.01535" lon="38.863505"><ele>103.7</ele><time>2022-03-29T11:21:18Z</time></trkpt><trkpt lat="58.01528" lon="38.863448"><ele>103.8</ele><time>2022-03-29T11:21:23Z</time></trkpt><trkpt lat="58.015205" lon="38.86339"><ele>104.0</ele><time>2022-03-29T11:21:29Z</time></trkpt><trkpt lat="58.015133" lon="38.863323"><ele>103.7</ele><time>2022-03-29T11:21:35Z</time></trkpt><trkpt lat="58.015052" lon="38.863257"><ele>104.2</ele><time>2022-03-29T11:21:41Z</time></trkpt><trkpt lat="58.01498" lon="38.863208"><ele>104.7</ele><time>2022-03-29T11:21:46Z</time></trkpt><trkpt lat="58.014902" lon="38.863165"><ele>104.3</ele><time>2022-03-29T11:21:52Z</time></trkpt><trkpt lat="58.014825" lon="38.863097"><ele>104.1</ele><time>2022-03-29T11:21:58Z</time></trkpt><trkpt lat="58.014747" lon="38.863038"><ele>104.0</ele><time>2022-03-29T11:22:04Z</time></trkpt><trkpt lat="58.01468" lon="38.862973"><ele>103.6</ele><time>2022-03-29T11:22:09Z</time></trkpt><trkpt lat="58.014612" lon="38.8629"><ele>103.7</ele><time>2022-03-29T11:22:15Z</time></trkpt><trkpt lat="58.014542" lon="38.862832"><ele>103.5</ele><time>2022-03-29T11:22:21Z</time></trkpt><trkpt lat="58.014478" lon="38.86276"><ele>102.2</ele><time>2022-03-29T11:22:28Z</time></trkpt><trkpt lat="58.014418" lon="38.862668"><ele>101.9</ele><time>2022-03-29T11:22:34Z</time></trkpt><trkpt lat="58.01435" lon="38.862587"><ele>102.6</ele><time>2022-03-29T11:22:40Z</time></trkpt><trkpt lat="58.014277" lon="38.8626"><ele>102.7</ele><time>2022-03-29T11:22:49Z</time></trkpt><trkpt lat="58.014207" lon="38.862567"><ele>102.8</ele><time>2022-03-29T11:31:07Z</time></trkpt><trkpt lat="58.014123" lon="38.8626"><ele>101.7</ele><time>2022-03-29T11:31:15Z</time></trkpt><trkpt lat="58.014052" lon="38.862663"><ele>103.3</ele><time>2022-03-29T11:31:23Z</time></trkpt><trkpt lat="58.01398" lon="38.862702"><ele>103.0</ele><time>2022-03-29T11:31:32Z</time></trkpt><trkpt lat="58.013908" lon="38.862723"><ele>102.6</ele><time>2022-03-29T11:31:39Z</time></trkpt><trkpt lat="58.013837" lon="38.86277"><ele>102.6</ele><time>2022-03-29T11:31:46Z</time></trkpt><trkpt lat="58.01377" lon="38.86285"><ele>102.1</ele><time>2022-03-29T11:31:54Z</time></trkpt><trkpt lat="58.013692" lon="38.86286"><ele>100.9</ele><time>2022-03-29T11:32:03Z</time></trkpt><trkpt lat="58.013627" lon="38.862945"><ele>101.7</ele><time>2022-03-29T11:32:09Z</time></trkpt><trkpt lat="58.013563" lon="38.863017"><ele>102.2</ele><time>2022-03-29T11:32:15Z</time></trkpt><trkpt lat="58.013493" lon="38.863097"><ele>101.6</ele><time>2022-03-29T11:32:21Z</time></trkpt><trkpt lat="58.013422" lon="38.863165"><ele>101.6</ele><time>2022-03-29T11:32:28Z</time></trkpt><trkpt lat="58.013348" lon="38.86324"><ele>101.2</ele><time>2022-03-29T11:32:34Z</time></trkpt><trkpt lat="58.013278" lon="38.86329"><ele>101.5</ele><time>2022-03-29T11:32:39Z</time></trkpt><trkpt lat="58.01321" lon="38.863342"><ele>101.0</ele><time>2022-03-29T11:32:44Z</time></trkpt><trkpt lat="58.01314" lon="38.863392"><ele>100.4</ele><time>2022-03-29T11:32:49Z</time></trkpt><trkpt lat="58.013075" lon="38.863458"><ele>102.7</ele><time>2022-03-29T11:35:40Z</time></trkpt><trkpt lat="58.013022" lon="38.863553"><ele>101.5</ele><time>2022-03-29T11:36:42Z</time></trkpt><trkpt lat="58.012943" lon="38.86357"><ele>102.4</ele><time>2022-03-29T11:36:56Z</time></trkpt><trkpt lat="58.012872" lon="38.863625"><ele>102.8</ele><time>2022-03-29T11:37:04Z</time></trkpt><trkpt lat="58.012798" lon="38.863683"><ele>102.4</ele><time>2022-03-29T11:37:14Z</time></trkpt><trkpt lat="58.012723" lon="38.863712"><ele>101.8</ele><time>2022-03-29T11:37:21Z</time></trkpt><trkpt lat="58.01265" lon="38.863758"><ele>102.6</ele><time>2022-03-29T11:37:27Z</time></trkpt><trkpt lat="58.012578" lon="38.8638"><ele>103.0</ele><time>2022-03-29T11:37:34Z</time></trkpt><trkpt lat="58.012498" lon="38.863847"><ele>102.2</ele><time>2022-03-29T11:37:42Z</time></trkpt><trkpt lat="58.012418" lon="38.863867"><ele>102.3</ele><time>2022-03-29T11:37:48Z</time></trkpt><trkpt lat="58.012348" lon="38.863902"><ele>101.6</ele><time>2022-03-29T11:37:54Z</time></trkpt><trkpt lat="58.012277" lon="38.863965"><ele>102.8</ele><time>2022-03-29T11:38:04Z</time></trkpt><trkpt lat="58.0122" lon="38.863977"><ele>103.4</ele><time>2022-03-29T11:38:12Z</time></trkpt><trkpt lat="58.012122" lon="38.863995"><ele>104.0</ele><time>2022-03-29T11:38:19Z</time></trkpt><trkpt lat="58.012048" lon="38.864057"><ele>104.2</ele><time>2022-03-29T11:38:25Z</time></trkpt><trkpt lat="58.011977" lon="38.864113"><ele>103.9</ele><time>2022-03-29T11:38:31Z</time></trkpt><trkpt lat="58.011907" lon="38.864152"><ele>103.3</ele><time>2022-03-29T11:38:37Z</time></trkpt><trkpt lat="58.011835" lon="38.864178"><ele>103.2</ele><time>2022-03-29T11:38:44Z</time></trkpt><trkpt lat="58.01176" lon="38.864197"><ele>102.6</ele><time>2022-03-29T11:38:51Z</time></trkpt><trkpt lat="58.011682" lon="38.864212"><ele>104.1</ele><time>2022-03-29T11:40:07Z</time></trkpt><trkpt lat="58.011598" lon="38.864233"><ele>105.1</ele><time>2022-03-29T11:40:13Z</time></trkpt><trkpt lat="58.011515" lon="38.864255"><ele>103.2</ele><time>2022-03-29T11:40:18Z</time></trkpt><trkpt lat="58.011447" lon="38.864315"><ele>102.3</ele><time>2022-03-29T11:40:24Z</time></trkpt><trkpt lat="58.011372" lon="38.864357"><ele>101.8</ele><time>2022-03-29T11:40:30Z</time></trkpt><trkpt lat="58.011297" lon="38.864395"><ele>101.3</ele><time>2022-03-29T11:40:36Z</time></trkpt><trkpt lat="58.011218" lon="38.86444"><ele>101.1</ele><time>2022-03-29T11:40:44Z</time></trkpt><trkpt lat="58.011147" lon="38.864485"><ele>100.9</ele><time>2022-03-29T11:40:51Z</time></trkpt><trkpt lat="58.01108" lon="38.864548"><ele>102.0</ele><time>2022-03-29T11:40:59Z</time></trkpt><trkpt lat="58.011005" lon="38.864602"><ele>101.5</ele><time>2022-03-29T11:41:05Z</time></trkpt><trkpt lat="58.010928" lon="38.864663"><ele>101.9</ele><time>2022-03-29T11:41:12Z</time></trkpt><trkpt lat="58.010845" lon="38.864682"><ele>103.3</ele><time>2022-03-29T11:41:18Z</time></trkpt><trkpt lat="58.01077" lon="38.86473"><ele>102.6</ele><time>2022-03-29T11:41:24Z</time></trkpt><trkpt lat="58.010703" lon="38.864778"><ele>102.8</ele><time>2022-03-29T11:41:29Z</time></trkpt><trkpt lat="58.01065" lon="38.864878"><ele>103.3</ele><time>2022-03-29T11:41:36Z</time></trkpt><trkpt lat="58.010588" lon="38.864967"><ele>103.4</ele><time>2022-03-29T11:41:44Z</time></trkpt><trkpt lat="58.010528" lon="38.865045"><ele>103.6</ele><time>2022-03-29T11:41:54Z</time></trkpt><trkpt lat="58.010453" lon="38.865065"><ele>105.9</ele><time>2022-03-29T11:42:22Z</time></trkpt><trkpt lat="58.010463" lon="38.864925"><ele>108.3</ele><time>2022-03-29T11:42:47Z</time></trkpt><trkpt lat="58.010423" lon="38.865055"><ele>107.9</ele><time>2022-03-29T11:43:17Z</time></trkpt><trkpt lat="58.010502" lon="38.865053"><ele>109.0</ele><time>2022-03-29T11:44:17Z</time></trkpt><trkpt lat="58.010433" lon="38.865137"><ele>108.1</ele><time>2022-03-29T11:45:29Z</time></trkpt><trkpt lat="58.01037" lon="38.865205"><ele>106.2</ele><time>2022-03-29T11:45:43Z</time></trkpt><trkpt lat="58.010287" lon="38.86524"><ele>103.6</ele><time>2022-03-29T11:45:49Z</time></trkpt><trkpt lat="58.010218" lon="38.865297"><ele>103.2</ele><time>2022-03-29T11:45:54Z</time></trkpt><trkpt lat="58.010163" lon="38.865393"><ele>103.2</ele><time>2022-03-29T11:46:01Z</time></trkpt><trkpt lat="58.010098" lon="38.865477"><ele>104.2</ele><time>2022-03-29T11:46:09Z</time></trkpt><trkpt lat="58.010053" lon="38.865582"><ele>103.3</ele><time>2022-03-29T11:47:26Z</time></trkpt><trkpt lat="58.010002" lon="38.865693"><ele>102.8</ele><time>2022-03-29T11:47:35Z</time></trkpt><trkpt lat="58.009933" lon="38.865752"><ele>103.7</ele><time>2022-03-29T11:48:08Z</time></trkpt><trkpt lat="58.009862" lon="38.865792"><ele>101.6</ele><time>2022-03-29T11:49:32Z</time></trkpt><trkpt lat="58.009812" lon="38.865892"><ele>101.2</ele><time>2022-03-29T11:49:41Z</time></trkpt><trkpt lat="58.009748" lon="38.865982"><ele>100.5</ele><time>2022-03-29T11:49:50Z</time></trkpt><trkpt lat="58.009693" lon="38.866068"><ele>99.7</ele><time>2022-03-29T11:49:56Z</time></trkpt><trkpt lat="58.009627" lon="38.866158"><ele>100.4</ele><time>2022-03-29T11:50:03Z</time></trkpt><trkpt lat="58.00955" lon="38.866128"><ele>98.9</ele><time>2022-03-29T11:51:35Z</time></trkpt><trkpt lat="58.009472" lon="38.866157"><ele>100.6</ele><time>2022-03-29T11:51:51Z</time></trkpt><trkpt lat="58.009395" lon="38.8662"><ele>100.9</ele><time>2022-03-29T11:51:58Z</time></trkpt><trkpt lat="58.009322" lon="38.866242"><ele>102.1</ele><time>2022-03-29T11:52:10Z</time></trkpt><trkpt lat="58.009255" lon="38.866317"><ele>100.7</ele><time>2022-03-29T11:52:21Z</time></trkpt><trkpt lat="58.009198" lon="38.866417"><ele>103.0</ele><time>2022-03-29T11:53:10Z</time></trkpt><trkpt lat="58.009117" lon="38.866452"><ele>104.0</ele><time>2022-03-29T11:53:36Z</time></trkpt><trkpt lat="58.00904" lon="38.866493"><ele>103.1</ele><time>2022-03-29T11:53:45Z</time></trkpt><trkpt lat="58.009" lon="38.866608"><ele>104.3</ele><time>2022-03-29T11:54:50Z</time></trkpt><trkpt lat="58.008933" lon="38.86666"><ele>104.4</ele><time>2022-03-29T11:55:01Z</time></trkpt><trkpt lat="58.008945" lon="38.866802"><ele>105.3</ele><time>2022-03-29T11:55:20Z</time></trkpt><trkpt lat="58.008905" lon="38.866917"><ele>106.2</ele><time>2022-03-29T11:55:35Z</time></trkpt><trkpt lat="58.008853" lon="38.86703"><ele>106.3</ele><time>2022-03-29T11:55:47Z</time></trkpt><trkpt lat="58.008812" lon="38.86716"><ele>105.6</ele><time>2022-03-29T11:55:53Z</time></trkpt><trkpt lat="58.00876" lon="38.867275"><ele>105.6</ele><time>2022-03-29T11:55:59Z</time></trkpt><trkpt lat="58.008717" lon="38.867395"><ele>104.8</ele><time>2022-03-29T11:56:06Z</time></trkpt><trkpt lat="58.008657" lon="38.867495"><ele>105.0</ele><time>2022-03-29T11:56:13Z</time></trkpt><trkpt lat="58.008598" lon="38.867607"><ele>104.6</ele><time>2022-03-29T11:56:21Z</time></trkpt><trkpt lat="58.00859" lon="38.867768"><ele>104.0</ele><time>2022-03-29T11:56:25Z</time></trkpt><trkpt lat="58.008622" lon="38.86789"><ele>103.8</ele><time>2022-03-29T11:56:34Z</time></trkpt><trkpt lat="58.0086" lon="38.868025"><ele>102.3</ele><time>2022-03-29T11:57:12Z</time></trkpt><trkpt lat="58.008597" lon="38.868182"><ele>100.8</ele><time>2022-03-29T11:57:19Z</time></trkpt><trkpt lat="58.008595" lon="38.868332"><ele>98.3</ele><time>2022-03-29T11:57:26Z</time></trkpt><trkpt lat="58.008548" lon="38.868442"><ele>98.1</ele><time>2022-03-29T11:57:34Z</time></trkpt><trkpt lat="58.00847" lon="38.86841"><ele>99.0</ele><time>2022-03-29T11:57:45Z</time></trkpt><trkpt lat="58.008405" lon="38.86849"><ele>98.8</ele><time>2022-03-29T11:57:50Z</time></trkpt><trkpt lat="58.008363" lon="38.868602"><ele>98.5</ele><time>2022-03-29T11:57:57Z</time></trkpt><trkpt lat="58.00829" lon="38.868622"><ele>99.0</ele><time>2022-03-29T11:58:14Z</time></trkpt><trkpt lat="58.00821" lon="38.868623"><ele>99.4</ele><time>2022-03-29T11:58:23Z</time></trkpt><trkpt lat="58.008138" lon="38.868668"><ele>100.4</ele><time>2022-03-29T11:58:30Z</time></trkpt><trkpt lat="58.00806" lon="38.86872"><ele>102.9</ele><time>2022-03-29T11:58:45Z</time></trkpt><trkpt lat="58.00797" lon="38.86881"><ele>104.3</ele><time>2022-03-29T11:58:49Z</time></trkpt><trkpt lat="58.00789" lon="38.86881"><ele>102.1</ele><time>2022-03-29T11:58:57Z</time></trkpt><trkpt lat="58.007962" lon="38.868827"><ele>102.3</ele><time>2022-03-29T11:59:07Z</time></trkpt><trkpt lat="58.008035" lon="38.868747"><ele>103.3</ele><time>2022-03-29T11:59:22Z</time></trkpt><trkpt lat="58.008098" lon="38.86865"><ele>110.3</ele><time>2022-03-29T11:59:58Z</time></trkpt><trkpt lat="58.008023" lon="38.868628"><ele>106.2</ele><time>2022-03-29T12:00:27Z</time></trkpt><trkpt lat="58.00795" lon="38.86865"><ele>107.6</ele><time>2022-03-29T12:00:34Z</time></trkpt><trkpt lat="58.007892" lon="38.868732"><ele>106.0</ele><time>2022-03-29T12:00:45Z</time></trkpt><trkpt lat="58.007833" lon="38.86884"><ele>104.6</ele><time>2022-03-29T12:00:49Z</time></trkpt><trkpt lat="58.007762" lon="38.868895"><ele>102.9</ele><time>2022-03-29T12:00:55Z</time></trkpt><trkpt lat="58.007677" lon="38.868927"><ele>102.8</ele><time>2022-03-29T12:01:03Z</time></trkpt><trkpt lat="58.007605" lon="38.868932"><ele>101.8</ele><time>2022-03-29T12:01:07Z</time></trkpt><trkpt lat="58.007537" lon="38.868975"><ele>101.9</ele><time>2022-03-29T12:01:13Z</time></trkpt><trkpt lat="58.00748" lon="38.869063"><ele>101.5</ele><time>2022-03-29T12:01:18Z</time></trkpt><trkpt lat="58.00741" lon="38.869132"><ele>101.0</ele><time>2022-03-29T12:01:23Z</time></trkpt><trkpt lat="58.007335" lon="38.86912"><ele>100.6</ele><time>2022-03-29T12:02:05Z</time></trkpt><trkpt lat="58.007262" lon="38.869148"><ele>101.8</ele><time>2022-03-29T12:02:11Z</time></trkpt><trkpt lat="58.00719" lon="38.869128"><ele>100.3</ele><time>2022-03-29T12:02:33Z</time></trkpt><trkpt lat="58.00717" lon="38.869262"><ele>99.4</ele><time>2022-03-29T12:02:42Z</time></trkpt><trkpt lat="58.00711" lon="38.869352"><ele>98.0</ele><time>2022-03-29T12:02:47Z</time></trkpt><trkpt lat="58.007137" lon="38.86948"><ele>97.5</ele><time>2022-03-29T12:02:58Z</time></trkpt><trkpt lat="58.007108" lon="38.869618"><ele>98.8</ele><time>2022-03-29T12:03:04Z</time></trkpt><trkpt lat="58.007037" lon="38.869688"><ele>98.7</ele><time>2022-03-29T12:03:13Z</time></trkpt><trkpt lat="58.00698" lon="38.869777"><ele>97.1</ele><time>2022-03-29T12:03:20Z</time></trkpt><trkpt lat="58.006918" lon="38.869852"><ele>95.5</ele><time>2022-03-29T12:03:26Z</time></trkpt><trkpt lat="58.00688" lon="38.869972"><ele>95.4</ele><time>2022-03-29T12:03:33Z</time></trkpt><trkpt lat="58.006853" lon="38.87011"><ele>96.0</ele><time>2022-03-29T12:03:48Z</time></trkpt><trkpt lat="58.006807" lon="38.870233"><ele>95.6</ele><time>2022-03-29T12:03:57Z</time></trkpt><trkpt lat="58.006802" lon="38.870382"><ele>95.4</ele><time>2022-03-29T12:04:04Z</time></trkpt><trkpt lat="58.006755" lon="38.870507"><ele>96.1</ele><time>2022-03-29T12:04:11Z</time></trkpt><trkpt lat="58.006713" lon="38.870622"><ele>95.7</ele><time>2022-03-29T12:04:18Z</time></trkpt><trkpt lat="58.006682" lon="38.870748"><ele>96.5</ele><time>2022-03-29T12:04:24Z</time></trkpt><trkpt lat="58.006622" lon="38.870833"><ele>96.0</ele><time>2022-03-29T12:04:40Z</time></trkpt><trkpt lat="58.006668" lon="38.870945"><ele>96.3</ele><time>2022-03-29T12:05:02Z</time></trkpt><trkpt lat="58.00664" lon="38.871085"><ele>100.2</ele><time>2022-03-29T12:08:41Z</time></trkpt><trkpt lat="58.00659" lon="38.8712"><ele>96.8</ele><time>2022-03-29T12:08:47Z</time></trkpt><trkpt lat="58.006542" lon="38.871315"><ele>96.2</ele><time>2022-03-29T12:08:53Z</time></trkpt><trkpt lat="58.006482" lon="38.871413"><ele>95.2</ele><time>2022-03-29T12:09:00Z</time></trkpt><trkpt lat="58.006437" lon="38.871527"><ele>94.3</ele><time>2022-03-29T12:09:06Z</time></trkpt><trkpt lat="58.00638" lon="38.871622"><ele>94.0</ele><time>2022-03-29T12:09:14Z</time></trkpt><trkpt lat="58.006307" lon="38.87164"><ele>95.3</ele><time>2022-03-29T12:09:27Z</time></trkpt><trkpt lat="58.00623" lon="38.871618"><ele>94.1</ele><time>2022-03-29T12:09:34Z</time></trkpt><trkpt lat="58.006162" lon="38.871553"><ele>93.7</ele><time>2022-03-29T12:09:50Z</time></trkpt><trkpt lat="58.006138" lon="38.871415"><ele>94.6</ele><time>2022-03-29T12:14:11Z</time></trkpt><trkpt lat="58.00608" lon="38.871328"><ele>95.4</ele><time>2022-03-29T12:14:25Z</time></trkpt><trkpt lat="58.00601" lon="38.87126"><ele>94.1</ele><time>2022-03-29T12:15:10Z</time></trkpt><trkpt lat="58.00593" lon="38.871218"><ele>93.8</ele><time>2022-03-29T12:15:17Z</time></trkpt><trkpt lat="58.005848" lon="38.871257"><ele>94.9</ele><time>2022-03-29T12:16:13Z</time></trkpt><trkpt lat="58.005768" lon="38.871285"><ele>98.1</ele><time>2022-03-29T12:16:20Z</time></trkpt><trkpt lat="58.005692" lon="38.871312"><ele>98.5</ele><time>2022-03-29T12:16:25Z</time></trkpt><trkpt lat="58.005623" lon="38.871402"><ele>98.3</ele><time>2022-03-29T12:16:33Z</time></trkpt><trkpt lat="58.005538" lon="38.871408"><ele>98.3</ele><time>2022-03-29T12:16:50Z</time></trkpt><trkpt lat="58.005465" lon="38.871448"><ele>96.8</ele><time>2022-03-29T12:17:19Z</time></trkpt><trkpt lat="58.005388" lon="38.87148"><ele>97.6</ele><time>2022-03-29T12:18:26Z</time></trkpt><trkpt lat="58.005312" lon="38.871457"><ele>100.4</ele><time>2022-03-29T12:18:37Z</time></trkpt><trkpt lat="58.005245" lon="38.871395"><ele>99.4</ele><time>2022-03-29T12:18:54Z</time></trkpt><trkpt lat="58.005167" lon="38.871348"><ele>98.0</ele><time>2022-03-29T12:19:02Z</time></trkpt><trkpt lat="58.00509" lon="38.871315"><ele>99.8</ele><time>2022-03-29T12:19:09Z</time></trkpt><trkpt lat="58.005012" lon="38.87132"><ele>98.8</ele><time>2022-03-29T12:19:16Z</time></trkpt><trkpt lat="58.00494" lon="38.871375"><ele>98.2</ele><time>2022-03-29T12:19:23Z</time></trkpt><trkpt lat="58.00489" lon="38.871488"><ele>100.5</ele><time>2022-03-29T12:19:40Z</time></trkpt><trkpt lat="58.004822" lon="38.871577"><ele>102.0</ele><time>2022-03-29T12:19:49Z</time></trkpt><trkpt lat="58.004755" lon="38.871643"><ele>96.5</ele><time>2022-03-29T12:20:05Z</time></trkpt><trkpt lat="58.004705" lon="38.871742"><ele>95.8</ele><time>2022-03-29T12:20:23Z</time></trkpt><trkpt lat="58.004645" lon="38.871825"><ele>94.6</ele><time>2022-03-29T12:20:51Z</time></trkpt><trkpt lat="58.004573" lon="38.871772"><ele>95.8</ele><time>2022-03-29T12:21:44Z</time></trkpt><trkpt lat="58.004527" lon="38.871665"><ele>94.7</ele><time>2022-03-29T12:21:54Z</time></trkpt><trkpt lat="58.00449" lon="38.871538"><ele>95.4</ele><time>2022-03-29T12:22:03Z</time></trkpt><trkpt lat="58.004447" lon="38.871422"><ele>95.5</ele><time>2022-03-29T12:22:20Z</time></trkpt><trkpt lat="58.00439" lon="38.87152"><ele>98.0</ele><time>2022-03-29T12:22:42Z</time></trkpt><trkpt lat="58.00435" lon="38.871368"><ele>94.6</ele><time>2022-03-29T12:24:00Z</time></trkpt><trkpt lat="58.004297" lon="38.871278"><ele>101.6</ele><time>2022-03-29T12:24:14Z</time></trkpt><trkpt lat="58.004265" lon="38.871153"><ele>98.8</ele><time>2022-03-29T12:24:33Z</time></trkpt><trkpt lat="58.004188" lon="38.87113"><ele>98.3</ele><time>2022-03-29T12:25:04Z</time></trkpt><trkpt lat="58.004113" lon="38.871108"><ele>99.5</ele><time>2022-03-29T12:25:18Z</time></trkpt><trkpt lat="58.00404" lon="38.871093"><ele>99.9</ele><time>2022-03-29T12:25:34Z</time></trkpt><trkpt lat="58.003965" lon="38.871068"><ele>99.8</ele><time>2022-03-29T12:25:45Z</time></trkpt><trkpt lat="58.00389" lon="38.871058"><ele>99.8</ele><time>2022-03-29T12:26:06Z</time></trkpt><trkpt lat="58.00382" lon="38.87109"><ele>101.6</ele><time>2022-03-29T12:26:27Z</time></trkpt><trkpt lat="58.003758" lon="38.871165"><ele>99.1</ele><time>2022-03-29T12:26:45Z</time></trkpt><trkpt lat="58.003693" lon="38.871102"><ele>99.1</ele><time>2022-03-29T12:26:52Z</time></trkpt><trkpt lat="58.00364" lon="38.871008"><ele>99.0</ele><time>2022-03-29T12:27:04Z</time></trkpt><trkpt lat="58.003573" lon="38.870933"><ele>99.2</ele><time>2022-03-29T12:27:13Z</time></trkpt><trkpt lat="58.003548" lon="38.870793"><ele>101.2</ele><time>2022-03-29T12:27:28Z</time></trkpt><trkpt lat="58.003498" lon="38.870682"><ele>100.9</ele><time>2022-03-29T12:27:35Z</time></trkpt><trkpt lat="58.003468" lon="38.870557"><ele>99.2</ele><time>2022-03-29T12:27:45Z</time></trkpt><trkpt lat="58.003402" lon="38.870465"><ele>99.2</ele><time>2022-03-29T12:27:52Z</time></trkpt><trkpt lat="58.003337" lon="38.870382"><ele>98.8</ele><time>2022-03-29T12:27:58Z</time></trkpt><trkpt lat="58.003283" lon="38.87026"><ele>98.5</ele><time>2022-03-29T12:28:04Z</time></trkpt><trkpt lat="58.003232" lon="38.87015"><ele>96.9</ele><time>2022-03-29T12:28:11Z</time></trkpt><trkpt lat="58.003158" lon="38.869998"><ele>98.7</ele><time>2022-03-29T12:29:21Z</time></trkpt><trkpt lat="58.003053" lon="38.869957"><ele>97.7</ele><time>2022-03-29T12:30:05Z</time></trkpt><trkpt lat="58.00311" lon="38.869872"><ele>96.5</ele><time>2022-03-29T12:33:09Z</time></trkpt><trkpt lat="58.003123" lon="38.869722"><ele>97.3</ele><time>2022-03-29T12:33:19Z</time></trkpt><trkpt lat="58.00315" lon="38.869585"><ele>98.6</ele><time>2022-03-29T12:33:27Z</time></trkpt><trkpt lat="58.003182" lon="38.869445"><ele>99.4</ele><time>2022-03-29T12:33:36Z</time></trkpt><trkpt lat="58.003222" lon="38.869317"><ele>99.8</ele><time>2022-03-29T12:33:45Z</time></trkpt><trkpt lat="58.003252" lon="38.869188"><ele>99.8</ele><time>2022-03-29T12:33:51Z</time></trkpt><trkpt lat="58.003242" lon="38.869028"><ele>98.5</ele><time>2022-03-29T12:34:33Z</time></trkpt><trkpt lat="58.003318" lon="38.869015"><ele>99.8</ele><time>2022-03-29T12:36:17Z</time></trkpt><trkpt lat="58.003403" lon="38.869002"><ele>98.1</ele><time>2022-03-29T12:36:58Z</time></trkpt><trkpt lat="58.003478" lon="38.86897"><ele>99.2</ele><time>2022-03-29T12:37:04Z</time></trkpt><trkpt lat="58.003553" lon="38.868958"><ele>99.7</ele><time>2022-03-29T12:37:09Z</time></trkpt><trkpt lat="58.00363" lon="38.868937"><ele>100.3</ele><time>2022-03-29T12:37:14Z</time></trkpt><trkpt lat="58.003703" lon="38.868933"><ele>100.7</ele><time>2022-03-29T12:37:21Z</time></trkpt><trkpt lat="58.00378" lon="38.86892"><ele>100.3</ele><time>2022-03-29T12:37:28Z</time></trkpt><trkpt lat="58.003852" lon="38.868883"><ele>100.8</ele><time>2022-03-29T12:37:35Z</time></trkpt><trkpt lat="58.00392" lon="38.868825"><ele>102.1</ele><time>2022-03-29T12:37:42Z</time></trkpt><trkpt lat="58.003992" lon="38.86878"><ele>101.0</ele><time>2022-03-29T12:37:49Z</time></trkpt><trkpt lat="58.004073" lon="38.86875"><ele>100.2</ele><time>2022-03-29T12:37:57Z</time></trkpt><trkpt lat="58.004145" lon="38.868723"><ele>99.8</ele><time>2022-03-29T12:38:02Z</time></trkpt><trkpt lat="58.004217" lon="38.868645"><ele>98.4</ele><time>2022-03-29T12:38:09Z</time></trkpt><trkpt lat="58.004288" lon="38.8686"><ele>99.4</ele><time>2022-03-29T12:38:15Z</time></trkpt><trkpt lat="58.004362" lon="38.868557"><ele>99.5</ele><time>2022-03-29T12:38:24Z</time></trkpt><trkpt lat="58.004415" lon="38.868462"><ele>101.7</ele><time>2022-03-29T12:38:35Z</time></trkpt><trkpt lat="58.004487" lon="38.868407"><ele>102.2</ele><time>2022-03-29T12:38:43Z</time></trkpt><trkpt lat="58.004563" lon="38.868383"><ele>104.8</ele><time>2022-03-29T12:38:54Z</time></trkpt><trkpt lat="58.004633" lon="38.868345"><ele>106.4</ele><time>2022-03-29T12:39:30Z</time></trkpt><trkpt lat="58.004698" lon="38.868268"><ele>108.0</ele><time>2022-03-29T12:39:41Z</time></trkpt><trkpt lat="58.004763" lon="38.868192"><ele>107.6</ele><time>2022-03-29T12:39:49Z</time></trkpt><trkpt lat="58.00484" lon="38.868145"><ele>104.2</ele><time>2022-03-29T12:39:59Z</time></trkpt><trkpt lat="58.004915" lon="38.868112"><ele>105.9</ele><time>2022-03-29T12:40:07Z</time></trkpt><trkpt lat="58.00499" lon="38.86806"><ele>107.1</ele><time>2022-03-29T12:40:16Z</time></trkpt><trkpt lat="58.005057" lon="38.867998"><ele>107.6</ele><time>2022-03-29T12:40:22Z</time></trkpt><trkpt lat="58.00511" lon="38.867902"><ele>113.0</ele><time>2022-03-29T12:41:01Z</time></trkpt><trkpt lat="58.00519" lon="38.867837"><ele>117.4</ele><time>2022-03-29T12:41:54Z</time></trkpt><trkpt lat="58.005263" lon="38.867805"><ele>117.6</ele><time>2022-03-29T12:42:24Z</time></trkpt><trkpt lat="58.00531" lon="38.867687"><ele>116.3</ele><time>2022-03-29T12:42:34Z</time></trkpt><trkpt lat="58.005307" lon="38.867545"><ele>116.2</ele><time>2022-03-29T12:42:41Z</time></trkpt><trkpt lat="58.005352" lon="38.867428"><ele>116.0</ele><time>2022-03-29T12:42:52Z</time></trkpt><trkpt lat="58.005337" lon="38.86727"><ele>115.7</ele><time>2022-03-29T12:42:59Z</time></trkpt><trkpt lat="58.005303" lon="38.867133"><ele>115.0</ele><time>2022-03-29T12:43:07Z</time></trkpt><trkpt lat="58.005258" lon="38.867023"><ele>115.0</ele><time>2022-03-29T12:43:17Z</time></trkpt><trkpt lat="58.005273" lon="38.866888"><ele>114.7</ele><time>2022-03-29T12:43:30Z</time></trkpt><trkpt lat="58.005317" lon="38.866768"><ele>114.0</ele><time>2022-03-29T12:43:47Z</time></trkpt><trkpt lat="58.005265" lon="38.866673"><ele>114.0</ele><time>2022-03-29T12:43:58Z</time></trkpt><trkpt lat="58.005223" lon="38.866553"><ele>112.8</ele><time>2022-03-29T12:44:04Z</time></trkpt><trkpt lat="58.005172" lon="38.866445"><ele>111.1</ele><time>2022-03-29T12:44:18Z</time></trkpt><trkpt lat="58.005142" lon="38.866322"><ele>110.1</ele><time>2022-03-29T12:44:42Z</time></trkpt><trkpt lat="58.005138" lon="38.866182"><ele>107.3</ele><time>2022-03-29T12:44:55Z</time></trkpt><trkpt lat="58.005102" lon="38.866052"><ele>106.8</ele><time>2022-03-29T12:45:04Z</time></trkpt><trkpt lat="58.005042" lon="38.865955"><ele>107.8</ele><time>2022-03-29T12:45:16Z</time></trkpt><trkpt lat="58.005108" lon="38.865897"><ele>106.7</ele><time>2022-03-29T12:46:24Z</time></trkpt><trkpt lat="58.005185" lon="38.865873"><ele>107.0</ele><time>2022-03-29T12:46:31Z</time></trkpt><trkpt lat="58.005262" lon="38.865855"><ele>107.2</ele><time>2022-03-29T12:46:37Z</time></trkpt><trkpt lat="58.00534" lon="38.86583"><ele>106.8</ele><time>2022-03-29T12:46:43Z</time></trkpt><trkpt lat="58.005413" lon="38.86581"><ele>108.0</ele><time>2022-03-29T12:46:50Z</time></trkpt><trkpt lat="58.005473" lon="38.865732"><ele>111.5</ele><time>2022-03-29T12:47:41Z</time></trkpt><trkpt lat="58.005547" lon="38.865685"><ele>110.8</ele><time>2022-03-29T12:47:44Z</time></trkpt><trkpt lat="58.005622" lon="38.865643"><ele>110.2</ele><time>2022-03-29T12:47:55Z</time></trkpt><trkpt lat="58.00569" lon="38.865602"><ele>110.1</ele><time>2022-03-29T12:48:04Z</time></trkpt><trkpt lat="58.005768" lon="38.865572"><ele>110.3</ele><time>2022-03-29T12:48:14Z</time></trkpt><trkpt lat="58.005845" lon="38.865527"><ele>110.4</ele><time>2022-03-29T12:48:20Z</time></trkpt><trkpt lat="58.00591" lon="38.86546"><ele>110.9</ele><time>2022-03-29T12:48:25Z</time></trkpt><trkpt lat="58.005982" lon="38.865402"><ele>110.9</ele><time>2022-03-29T12:48:32Z</time></trkpt><trkpt lat="58.006032" lon="38.865288"><ele>112.4</ele><time>2022-03-29T12:48:56Z</time></trkpt><trkpt lat="58.006093" lon="38.86536"><ele>113.8</ele><time>2022-03-29T12:49:40Z</time></trkpt><trkpt lat="58.006142" lon="38.86547"><ele>113.3</ele><time>2022-03-29T12:49:49Z</time></trkpt><trkpt lat="58.006195" lon="38.865562"><ele>112.4</ele><time>2022-03-29T12:49:58Z</time></trkpt><trkpt lat="58.006242" lon="38.865675"><ele>112.7</ele><time>2022-03-29T12:50:04Z</time></trkpt><trkpt lat="58.006262" lon="38.86582"><ele>113.2</ele><time>2022-03-29T12:50:09Z</time></trkpt><trkpt lat="58.006302" lon="38.865948"><ele>112.5</ele><time>2022-03-29T12:50:15Z</time></trkpt><trkpt lat="58.006348" lon="38.866052"><ele>112.0</ele><time>2022-03-29T12:50:22Z</time></trkpt><trkpt lat="58.006405" lon="38.866142"><ele>109.9</ele><time>2022-03-29T12:50:28Z</time></trkpt><trkpt lat="58.006463" lon="38.866247"><ele>109.2</ele><time>2022-03-29T12:50:34Z</time></trkpt><trkpt lat="58.006508" lon="38.86636"><ele>108.2</ele><time>2022-03-29T12:50:43Z</time></trkpt><trkpt lat="58.006528" lon="38.866508"><ele>107.0</ele><time>2022-03-29T12:50:51Z</time></trkpt><trkpt lat="58.006568" lon="38.86664"><ele>106.9</ele><time>2022-03-29T12:51:00Z</time></trkpt><trkpt lat="58.006627" lon="38.866723"><ele>106.8</ele><time>2022-03-29T12:51:07Z</time></trkpt><trkpt lat="58.006675" lon="38.866837"><ele>106.7</ele><time>2022-03-29T12:51:13Z</time></trkpt><trkpt lat="58.006747" lon="38.866915"><ele>106.6</ele><time>2022-03-29T12:51:21Z</time></trkpt><trkpt lat="58.006822" lon="38.866955"><ele>106.7</ele><time>2022-03-29T12:51:29Z</time></trkpt><trkpt lat="58.006892" lon="38.86701"><ele>107.1</ele><time>2022-03-29T12:51:33Z</time></trkpt><trkpt lat="58.00683" lon="38.867082"><ele>112.4</ele><time>2022-03-29T12:53:02Z</time></trkpt><trkpt lat="58.006893" lon="38.867153"><ele>112.8</ele><time>2022-03-29T12:53:09Z</time></trkpt><trkpt lat="58.006937" lon="38.867268"><ele>111.4</ele><time>2022-03-29T12:53:21Z</time></trkpt><trkpt lat="58.00699" lon="38.867388"><ele>111.2</ele><time>2022-03-29T12:53:31Z</time></trkpt><trkpt lat="58.007058" lon="38.867433"><ele>110.5</ele><time>2022-03-29T12:53:39Z</time></trkpt><trkpt lat="58.007122" lon="38.867547"><ele>114.0</ele><time>2022-03-29T12:53:49Z</time></trkpt><trkpt lat="58.007167" lon="38.867663"><ele>114.4</ele><time>2022-03-29T12:53:58Z</time></trkpt><trkpt lat="58.007242" lon="38.867687"><ele>114.1</ele><time>2022-03-29T12:54:04Z</time></trkpt><trkpt lat="58.0073" lon="38.867773"><ele>114.4</ele><time>2022-03-29T12:54:12Z</time></trkpt><trkpt lat="58.007372" lon="38.867898"><ele>114.0</ele><time>2022-03-29T12:54:20Z</time></trkpt><trkpt lat="58.007435" lon="38.86802"><ele>114.8</ele><time>2022-03-29T12:54:23Z</time></trkpt><trkpt lat="58.007498" lon="38.868123"><ele>113.7</ele><time>2022-03-29T12:54:26Z</time></trkpt><trkpt lat="58.007553" lon="38.868208"><ele>109.7</ele><time>2022-03-29T12:54:38Z</time></trkpt><trkpt lat="58.007602" lon="38.868338"><ele>108.5</ele><time>2022-03-29T12:54:45Z</time></trkpt><trkpt lat="58.007678" lon="38.868383"><ele>112.7</ele><time>2022-03-29T12:56:56Z</time></trkpt><trkpt lat="58.007738" lon="38.868488"><ele>111.4</ele><time>2022-03-29T12:57:02Z</time></trkpt><trkpt lat="58.007808" lon="38.868525"><ele>109.5</ele><time>2022-03-29T12:57:09Z</time></trkpt><trkpt lat="58.007878" lon="38.868615"><ele>109.5</ele><time>2022-03-29T12:57:17Z</time></trkpt><trkpt lat="58.007952" lon="38.868663"><ele>109.2</ele><time>2022-03-29T12:57:24Z</time></trkpt><trkpt lat="58.008028" lon="38.86868"><ele>108.7</ele><time>2022-03-29T12:57:29Z</time></trkpt><trkpt lat="58.008107" lon="38.868643"><ele>108.1</ele><time>2022-03-29T12:57:39Z</time></trkpt><trkpt lat="58.008178" lon="38.86864"><ele>106.2</ele><time>2022-03-29T12:57:45Z</time></trkpt><trkpt lat="58.008267" lon="38.868667"><ele>103.7</ele><time>2022-03-29T12:57:50Z</time></trkpt><trkpt lat="58.008338" lon="38.868637"><ele>102.7</ele><time>2022-03-29T12:58:00Z</time></trkpt><trkpt lat="58.008427" lon="38.868642"><ele>101.7</ele><time>2022-03-29T12:58:15Z</time></trkpt><trkpt lat="58.008502" lon="38.868625"><ele>101.7</ele><time>2022-03-29T12:58:19Z</time></trkpt><trkpt lat="58.008557" lon="38.868533"><ele>101.6</ele><time>2022-03-29T12:58:25Z</time></trkpt><trkpt lat="58.00863" lon="38.868518"><ele>101.7</ele><time>2022-03-29T12:58:42Z</time></trkpt><trkpt lat="58.008708" lon="38.868518"><ele>101.8</ele><time>2022-03-29T12:58:51Z</time></trkpt><trkpt lat="58.008783" lon="38.868542"><ele>102.3</ele><time>2022-03-29T12:58:58Z</time></trkpt><trkpt lat="58.008855" lon="38.868518"><ele>103.0</ele><time>2022-03-29T12:59:04Z</time></trkpt><trkpt lat="58.008935" lon="38.868505"><ele>102.7</ele><time>2022-03-29T12:59:16Z</time></trkpt><trkpt lat="58.009005" lon="38.868475"><ele>102.7</ele><time>2022-03-29T12:59:23Z</time></trkpt><trkpt lat="58.009077" lon="38.868433"><ele>103.4</ele><time>2022-03-29T12:59:30Z</time></trkpt><trkpt lat="58.009142" lon="38.868368"><ele>103.8</ele><time>2022-03-29T12:59:52Z</time></trkpt><trkpt lat="58.00921" lon="38.868323"><ele>104.8</ele><time>2022-03-29T13:00:12Z</time></trkpt><trkpt lat="58.009255" lon="38.868198"><ele>105.0</ele><time>2022-03-29T13:00:22Z</time></trkpt><trkpt lat="58.009297" lon="38.868067"><ele>105.3</ele><time>2022-03-29T13:00:29Z</time></trkpt><trkpt lat="58.009365" lon="38.868005"><ele>105.5</ele><time>2022-03-29T13:00:39Z</time></trkpt><trkpt lat="58.009423" lon="38.867917"><ele>105.0</ele><time>2022-03-29T13:00:55Z</time></trkpt><trkpt lat="58.009482" lon="38.867817"><ele>106.0</ele><time>2022-03-29T13:02:37Z</time></trkpt><trkpt lat="58.009545" lon="38.867738"><ele>105.3</ele><time>2022-03-29T13:02:43Z</time></trkpt><trkpt lat="58.009617" lon="38.867678"><ele>103.6</ele><time>2022-03-29T13:02:51Z</time></trkpt><trkpt lat="58.009673" lon="38.867573"><ele>102.7</ele><time>2022-03-29T13:02:58Z</time></trkpt><trkpt lat="58.009722" lon="38.867448"><ele>102.8</ele><time>2022-03-29T13:03:05Z</time></trkpt><trkpt lat="58.009785" lon="38.867365"><ele>103.1</ele><time>2022-03-29T13:03:11Z</time></trkpt><trkpt lat="58.009845" lon="38.86728"><ele>103.8</ele><time>2022-03-29T13:03:22Z</time></trkpt><trkpt lat="58.0099" lon="38.86717"><ele>103.7</ele><time>2022-03-29T13:03:34Z</time></trkpt><trkpt lat="58.009975" lon="38.867093"><ele>103.6</ele><time>2022-03-29T13:03:41Z</time></trkpt><trkpt lat="58.01004" lon="38.86702"><ele>102.8</ele><time>2022-03-29T13:03:49Z</time></trkpt><trkpt lat="58.01003" lon="38.866885"><ele>102.2</ele><time>2022-03-29T13:04:09Z</time></trkpt><trkpt lat="58.00999" lon="38.867"><ele>100.6</ele><time>2022-03-29T13:07:09Z</time></trkpt><trkpt lat="58.009942" lon="38.866885"><ele>99.1</ele><time>2022-03-29T13:07:59Z</time></trkpt><trkpt lat="58.010015" lon="38.866882"><ele>98.0</ele><time>2022-03-29T13:10:05Z</time></trkpt><trkpt lat="58.009978" lon="38.867007"><ele>101.1</ele><time>2022-03-29T13:11:02Z</time></trkpt><trkpt lat="58.010023" lon="38.866888"><ele>99.9</ele><time>2022-03-29T13:13:04Z</time></trkpt><trkpt lat="58.010102" lon="38.866892"><ele>102.0</ele><time>2022-03-29T13:27:23Z</time></trkpt><trkpt lat="58.01017" lon="38.866852"><ele>102.5</ele><time>2022-03-29T13:27:32Z</time></trkpt><trkpt lat="58.010238" lon="38.866762"><ele>103.4</ele><time>2022-03-29T13:27:39Z</time></trkpt><trkpt lat="58.010307" lon="38.866683"><ele>103.1</ele><time>2022-03-29T13:27:46Z</time></trkpt><trkpt lat="58.010378" lon="38.866638"><ele>103.5</ele><time>2022-03-29T13:27:58Z</time></trkpt><trkpt lat="58.010412" lon="38.866515"><ele>104.8</ele><time>2022-03-29T13:28:13Z</time></trkpt><trkpt lat="58.010475" lon="38.866442"><ele>105.5</ele><time>2022-03-29T13:28:41Z</time></trkpt><trkpt lat="58.01054" lon="38.866377"><ele>105.0</ele><time>2022-03-29T13:28:48Z</time></trkpt><trkpt lat="58.010602" lon="38.86629"><ele>105.7</ele><time>2022-03-29T13:28:58Z</time></trkpt><trkpt lat="58.010663" lon="38.86621"><ele>105.5</ele><time>2022-03-29T13:29:08Z</time></trkpt><trkpt lat="58.010725" lon="38.866112"><ele>104.7</ele><time>2022-03-29T13:29:18Z</time></trkpt><trkpt lat="58.010783" lon="38.866022"><ele>103.9</ele><time>2022-03-29T13:29:34Z</time></trkpt><trkpt lat="58.010858" lon="38.866005"><ele>104.6</ele><time>2022-03-29T13:30:11Z</time></trkpt><trkpt lat="58.010863" lon="38.86586"><ele>104.9</ele><time>2022-03-29T13:30:49Z</time></trkpt><trkpt lat="58.010925" lon="38.865768"><ele>104.7</ele><time>2022-03-29T13:30:57Z</time></trkpt><trkpt lat="58.01099" lon="38.865668"><ele>105.0</ele><time>2022-03-29T13:31:07Z</time></trkpt><trkpt lat="58.011035" lon="38.865557"><ele>105.1</ele><time>2022-03-29T13:31:13Z</time></trkpt><trkpt lat="58.011092" lon="38.865462"><ele>104.8</ele><time>2022-03-29T13:31:22Z</time></trkpt><trkpt lat="58.011162" lon="38.865418"><ele>105.2</ele><time>2022-03-29T13:32:29Z</time></trkpt><trkpt lat="58.011235" lon="38.865382"><ele>105.4</ele><time>2022-03-29T13:32:38Z</time></trkpt><trkpt lat="58.011305" lon="38.86533"><ele>105.2</ele><time>2022-03-29T13:32:57Z</time></trkpt><trkpt lat="58.011383" lon="38.865298"><ele>104.9</ele><time>2022-03-29T13:33:06Z</time></trkpt><trkpt lat="58.011442" lon="38.865203"><ele>105.2</ele><time>2022-03-29T13:33:15Z</time></trkpt><trkpt lat="58.011518" lon="38.865195"><ele>105.3</ele><time>2022-03-29T13:33:23Z</time></trkpt><trkpt lat="58.01159" lon="38.86523"><ele>105.1</ele><time>2022-03-29T13:33:32Z</time></trkpt><trkpt lat="58.011653" lon="38.865162"><ele>104.8</ele><time>2022-03-29T13:33:39Z</time></trkpt><trkpt lat="58.011728" lon="38.865112"><ele>105.7</ele><time>2022-03-29T13:33:50Z</time></trkpt><trkpt lat="58.011777" lon="38.865005"><ele>105.7</ele><time>2022-03-29T13:34:01Z</time></trkpt><trkpt lat="58.01183" lon="38.864908"><ele>107.0</ele><time>2022-03-29T13:34:15Z</time></trkpt><trkpt lat="58.011902" lon="38.864947"><ele>107.4</ele><time>2022-03-29T13:34:49Z</time></trkpt><trkpt lat="58.011978" lon="38.864913"><ele>107.3</ele><time>2022-03-29T13:34:56Z</time></trkpt><trkpt lat="58.012048" lon="38.864858"><ele>107.2</ele><time>2022-03-29T13:35:04Z</time></trkpt><trkpt lat="58.012118" lon="38.864812"><ele>107.4</ele><time>2022-03-29T13:35:12Z</time></trkpt><trkpt lat="58.01219" lon="38.86477"><ele>107.7</ele><time>2022-03-29T13:35:18Z</time></trkpt><trkpt lat="58.01226" lon="38.8647"><ele>107.4</ele><time>2022-03-29T13:35:26Z</time></trkpt><trkpt lat="58.012335" lon="38.864673"><ele>106.7</ele><time>2022-03-29T13:35:35Z</time></trkpt><trkpt lat="58.012413" lon="38.864645"><ele>106.9</ele><time>2022-03-29T13:35:49Z</time></trkpt><trkpt lat="58.012488" lon="38.864602"><ele>107.7</ele><time>2022-03-29T13:35:55Z</time></trkpt><trkpt lat="58.01256" lon="38.864542"><ele>107.7</ele><time>2022-03-29T13:36:02Z</time></trkpt><trkpt lat="58.012657" lon="38.864517"><ele>106.8</ele><time>2022-03-29T13:36:52Z</time></trkpt><trkpt lat="58.012585" lon="38.864477"><ele>105.0</ele><time>2022-03-29T13:38:27Z</time></trkpt><trkpt lat="58.01265" lon="38.86439"><ele>104.2</ele><time>2022-03-29T13:38:52Z</time></trkpt><trkpt lat="58.012667" lon="38.864243"><ele>103.7</ele><time>2022-03-29T13:39:00Z</time></trkpt><trkpt lat="58.012682" lon="38.864107"><ele>104.6</ele><time>2022-03-29T13:39:07Z</time></trkpt><trkpt lat="58.012722" lon="38.86398"><ele>105.0</ele><time>2022-03-29T13:39:14Z</time></trkpt><trkpt lat="58.012782" lon="38.863895"><ele>105.2</ele><time>2022-03-29T13:39:22Z</time></trkpt><trkpt lat="58.012835" lon="38.86379"><ele>104.9</ele><time>2022-03-29T13:39:30Z</time></trkpt><trkpt lat="58.012887" lon="38.863683"><ele>104.6</ele><time>2022-03-29T13:39:38Z</time></trkpt><trkpt lat="58.012928" lon="38.863565"><ele>104.6</ele><time>2022-03-29T13:39:44Z</time></trkpt><trkpt lat="58.012988" lon="38.863458"><ele>105.5</ele><time>2022-03-29T13:39:51Z</time></trkpt><trkpt lat="58.013055" lon="38.863398"><ele>105.5</ele><time>2022-03-29T13:39:58Z</time></trkpt><trkpt lat="58.013128" lon="38.863397"><ele>105.4</ele><time>2022-03-29T13:41:28Z</time></trkpt><trkpt lat="58.013187" lon="38.863298"><ele>106.1</ele><time>2022-03-29T13:41:37Z</time></trkpt><trkpt lat="58.01326" lon="38.863235"><ele>106.7</ele><time>2022-03-29T13:41:45Z</time></trkpt><trkpt lat="58.013333" lon="38.863173"><ele>106.7</ele><time>2022-03-29T13:41:54Z</time></trkpt><trkpt lat="58.01339" lon="38.863087"><ele>107.1</ele><time>2022-03-29T13:42:00Z</time></trkpt><trkpt lat="58.013465" lon="38.863037"><ele>106.7</ele><time>2022-03-29T13:42:08Z</time></trkpt><trkpt lat="58.013535" lon="38.862977"><ele>106.5</ele><time>2022-03-29T13:42:14Z</time></trkpt><trkpt lat="58.013613" lon="38.862945"><ele>107.1</ele><time>2022-03-29T13:42:21Z</time></trkpt><trkpt lat="58.013695" lon="38.862907"><ele>106.9</ele><time>2022-03-29T13:42:28Z</time></trkpt><trkpt lat="58.013768" lon="38.86283"><ele>107.4</ele><time>2022-03-29T13:42:35Z</time></trkpt><trkpt lat="58.013843" lon="38.862762"><ele>107.1</ele><time>2022-03-29T13:42:42Z</time></trkpt><trkpt lat="58.013917" lon="38.862722"><ele>107.1</ele><time>2022-03-29T13:42:49Z</time></trkpt><trkpt lat="58.013992" lon="38.862673"><ele>106.6</ele><time>2022-03-29T13:42:58Z</time></trkpt><trkpt lat="58.014065" lon="38.862622"><ele>106.2</ele><time>2022-03-29T13:43:05Z</time></trkpt><trkpt lat="58.014138" lon="38.862562"><ele>105.6</ele><time>2022-03-29T13:43:12Z</time></trkpt><trkpt lat="58.014212" lon="38.86255"><ele>104.5</ele><time>2022-03-29T13:43:20Z</time></trkpt><trkpt lat="58.014292" lon="38.862557"><ele>104.9</ele><time>2022-03-29T13:43:27Z</time></trkpt><trkpt lat="58.01437" lon="38.862555"><ele>102.4</ele><time>2022-03-29T13:44:10Z</time></trkpt><trkpt lat="58.01444" lon="38.862617"><ele>102.8</ele><time>2022-03-29T13:44:18Z</time></trkpt><trkpt lat="58.014512" lon="38.862692"><ele>103.0</ele><time>2022-03-29T13:44:27Z</time></trkpt><trkpt lat="58.014582" lon="38.862762"><ele>103.6</ele><time>2022-03-29T13:44:34Z</time></trkpt><trkpt lat="58.01465" lon="38.862672"><ele>104.0</ele><time>2022-03-29T13:44:39Z</time></trkpt><trkpt lat="58.014725" lon="38.862722"><ele>104.8</ele><time>2022-03-29T13:44:46Z</time></trkpt><trkpt lat="58.014795" lon="38.86278"><ele>105.2</ele><time>2022-03-29T13:44:52Z</time></trkpt><trkpt lat="58.014865" lon="38.862837"><ele>105.6</ele><time>2022-03-29T13:44:58Z</time></trkpt><trkpt lat="58.01494" lon="38.862905"><ele>105.7</ele><time>2022-03-29T13:45:05Z</time></trkpt><trkpt lat="58.015012" lon="38.862965"><ele>105.2</ele><time>2022-03-29T13:45:11Z</time></trkpt><trkpt lat="58.015087" lon="38.863037"><ele>105.4</ele><time>2022-03-29T13:45:17Z</time></trkpt><trkpt lat="58.01516" lon="38.863107"><ele>105.1</ele><time>2022-03-29T13:45:24Z</time></trkpt><trkpt lat="58.01524" lon="38.863173"><ele>105.1</ele><time>2022-03-29T13:45:30Z</time></trkpt><trkpt lat="58.015315" lon="38.863228"><ele>104.3</ele><time>2022-03-29T13:45:35Z</time></trkpt><trkpt lat="58.015388" lon="38.863295"><ele>104.2</ele><time>2022-03-29T13:45:41Z</time></trkpt><trkpt lat="58.01546" lon="38.86334"><ele>104.3</ele><time>2022-03-29T13:45:46Z</time></trkpt><trkpt lat="58.015532" lon="38.86338"><ele>104.9</ele><time>2022-03-29T13:45:51Z</time></trkpt><trkpt lat="58.015602" lon="38.863442"><ele>105.5</ele><time>2022-03-29T13:45:57Z</time></trkpt><trkpt lat="58.015668" lon="38.863505"><ele>105.8</ele><time>2022-03-29T13:46:03Z</time></trkpt><trkpt lat="58.015732" lon="38.863587"><ele>106.1</ele><time>2022-03-29T13:46:10Z</time></trkpt><trkpt lat="58.015807" lon="38.863647"><ele>106.5</ele><time>2022-03-29T13:46:16Z</time></trkpt><trkpt lat="58.015883" lon="38.863703"><ele>106.8</ele><time>2022-03-29T13:46:22Z</time></trkpt><trkpt lat="58.015958" lon="38.86377"><ele>106.5</ele><time>2022-03-29T13:46:28Z</time></trkpt><trkpt lat="58.01603" lon="38.863832"><ele>106.4</ele><time>2022-03-29T13:46:34Z</time></trkpt><trkpt lat="58.016102" lon="38.863887"><ele>106.0</ele><time>2022-03-29T13:46:40Z</time></trkpt><trkpt lat="58.016167" lon="38.863947"><ele>105.6</ele><time>2022-03-29T13:46:46Z</time></trkpt><trkpt lat="58.016233" lon="38.864012"><ele>105.6</ele><time>2022-03-29T13:46:52Z</time></trkpt><trkpt lat="58.016303" lon="38.864092"><ele>105.8</ele><time>2022-03-29T13:46:59Z</time></trkpt><trkpt lat="58.016377" lon="38.864157"><ele>105.1</ele><time>2022-03-29T13:47:06Z</time></trkpt><trkpt lat="58.016445" lon="38.86422"><ele>105.1</ele><time>2022-03-29T13:47:12Z</time></trkpt><trkpt lat="58.016515" lon="38.864272"><ele>105.6</ele><time>2022-03-29T13:47:18Z</time></trkpt><trkpt lat="58.016583" lon="38.864328"><ele>105.4</ele><time>2022-03-29T13:47:24Z</time></trkpt><trkpt lat="58.016653" lon="38.864395"><ele>105.9</ele><time>2022-03-29T13:47:32Z</time></trkpt><trkpt lat="58.016723" lon="38.864447"><ele>106.0</ele><time>2022-03-29T13:47:38Z</time></trkpt><trkpt lat="58.016797" lon="38.864503"><ele>106.1</ele><time>2022-03-29T13:47:45Z</time></trkpt><trkpt lat="58.016877" lon="38.864528"><ele>106.3</ele><time>2022-03-29T13:47:51Z</time></trkpt><trkpt lat="58.016947" lon="38.864563"><ele>105.6</ele><time>2022-03-29T13:47:59Z</time></trkpt><trkpt lat="58.017025" lon="38.864598"><ele>106.5</ele><time>2022-03-29T13:48:06Z</time></trkpt><trkpt lat="58.017102" lon="38.864652"><ele>106.3</ele><time>2022-03-29T13:48:13Z</time></trkpt><trkpt lat="58.01718" lon="38.86468"><ele>105.9</ele><time>2022-03-29T13:48:20Z</time></trkpt><trkpt lat="58.017253" lon="38.864695"><ele>105.5</ele><time>2022-03-29T13:48:26Z</time></trkpt><trkpt lat="58.017332" lon="38.864703"><ele>105.4</ele><time>2022-03-29T13:48:32Z</time></trkpt><trkpt lat="58.017405" lon="38.864705"><ele>105.6</ele><time>2022-03-29T13:48:39Z</time></trkpt><trkpt lat="58.01748" lon="38.864735"><ele>106.0</ele><time>2022-03-29T13:48:45Z</time></trkpt><trkpt lat="58.017555" lon="38.86477"><ele>106.1</ele><time>2022-03-29T13:48:51Z</time></trkpt><trkpt lat="58.017628" lon="38.8648"><ele>106.0</ele><time>2022-03-29T13:48:56Z</time></trkpt><trkpt lat="58.017703" lon="38.864807"><ele>106.1</ele><time>2022-03-29T13:49:02Z</time></trkpt><trkpt lat="58.017782" lon="38.8648"><ele>105.9</ele><time>2022-03-29T13:49:08Z</time></trkpt><trkpt lat="58.017855" lon="38.864818"><ele>105.7</ele><time>2022-03-29T13:49:13Z</time></trkpt><trkpt lat="58.017937" lon="38.86485"><ele>105.6</ele><time>2022-03-29T13:49:19Z</time></trkpt><trkpt lat="58.018012" lon="38.864853"><ele>105.6</ele><time>2022-03-29T13:49:24Z</time></trkpt><trkpt lat="58.018088" lon="38.864867"><ele>105.6</ele><time>2022-03-29T13:49:30Z</time></trkpt><trkpt lat="58.018167" lon="38.864872"><ele>105.7</ele><time>2022-03-29T13:49:36Z</time></trkpt><trkpt lat="58.018243" lon="38.864872"><ele>105.5</ele><time>2022-03-29T13:49:42Z</time></trkpt><trkpt lat="58.018318" lon="38.864882"><ele>105.0</ele><time>2022-03-29T13:49:48Z</time></trkpt><trkpt lat="58.0184" lon="38.864875"><ele>105.1</ele><time>2022-03-29T13:49:55Z</time></trkpt><trkpt lat="58.018487" lon="38.864892"><ele>104.5</ele><time>2022-03-29T13:50:02Z</time></trkpt><trkpt lat="58.018572" lon="38.864898"><ele>104.4</ele><time>2022-03-29T13:50:08Z</time></trkpt><trkpt lat="58.018647" lon="38.86492"><ele>103.6</ele><time>2022-03-29T13:50:14Z</time></trkpt><trkpt lat="58.018725" lon="38.864928"><ele>103.7</ele><time>2022-03-29T13:50:20Z</time></trkpt><trkpt lat="58.018798" lon="38.864938"><ele>103.5</ele><time>2022-03-29T13:50:26Z</time></trkpt><trkpt lat="58.018877" lon="38.864962"><ele>102.8</ele><time>2022-03-29T13:50:33Z</time></trkpt><trkpt lat="58.01895" lon="38.86497"><ele>102.7</ele><time>2022-03-29T13:50:39Z</time></trkpt><trkpt lat="58.019025" lon="38.864982"><ele>102.5</ele><time>2022-03-29T13:50:44Z</time></trkpt><trkpt lat="58.01911" lon="38.864988"><ele>101.8</ele><time>2022-03-29T13:50:50Z</time></trkpt><trkpt lat="58.019185" lon="38.86501"><ele>102.0</ele><time>2022-03-29T13:50:56Z</time></trkpt><trkpt lat="58.019268" lon="38.865027"><ele>101.5</ele><time>2022-03-29T13:51:03Z</time></trkpt><trkpt lat="58.01935" lon="38.865048"><ele>101.7</ele><time>2022-03-29T13:51:09Z</time></trkpt><trkpt lat="58.019423" lon="38.865057"><ele>101.2</ele><time>2022-03-29T13:51:15Z</time></trkpt><trkpt lat="58.019492" lon="38.865007"><ele>101.5</ele><time>2022-03-29T13:51:21Z</time></trkpt><trkpt lat="58.01957" lon="38.864962"><ele>101.8</ele><time>2022-03-29T13:51:28Z</time></trkpt><trkpt lat="58.019652" lon="38.864948"><ele>101.8</ele><time>2022-03-29T13:51:34Z</time></trkpt><trkpt lat="58.019728" lon="38.864945"><ele>102.0</ele><time>2022-03-29T13:51:40Z</time></trkpt><trkpt lat="58.0198" lon="38.864922"><ele>101.7</ele><time>2022-03-29T13:51:45Z</time></trkpt><trkpt lat="58.019883" lon="38.8649"><ele>101.1</ele><time>2022-03-29T13:51:51Z</time></trkpt><trkpt lat="58.019965" lon="38.864908"><ele>101.2</ele><time>2022-03-29T13:51:57Z</time></trkpt><trkpt lat="58.020043" lon="38.864913"><ele>101.3</ele><time>2022-03-29T13:52:02Z</time></trkpt><trkpt lat="58.020117" lon="38.86487"><ele>101.4</ele><time>2022-03-29T13:52:07Z</time></trkpt><trkpt lat="58.02019" lon="38.864843"><ele>101.6</ele><time>2022-03-29T13:52:12Z</time></trkpt><trkpt lat="58.020267" lon="38.864823"><ele>101.6</ele><time>2022-03-29T13:52:18Z</time></trkpt><trkpt lat="58.020343" lon="38.8648"><ele>102.7</ele><time>2022-03-29T13:52:24Z</time></trkpt><trkpt lat="58.020427" lon="38.864783"><ele>102.9</ele><time>2022-03-29T13:52:31Z</time></trkpt><trkpt lat="58.0205" lon="38.864765"><ele>103.6</ele><time>2022-03-29T13:52:37Z</time></trkpt><trkpt lat="58.020577" lon="38.864757"><ele>103.6</ele><time>2022-03-29T13:52:43Z</time></trkpt><trkpt lat="58.02065" lon="38.864728"><ele>103.5</ele><time>2022-03-29T13:52:49Z</time></trkpt><trkpt lat="58.02072" lon="38.864698"><ele>103.6</ele><time>2022-03-29T13:52:54Z</time></trkpt><trkpt lat="58.020798" lon="38.864672"><ele>103.8</ele><time>2022-03-29T13:53:00Z</time></trkpt><trkpt lat="58.020873" lon="38.864668"><ele>104.0</ele><time>2022-03-29T13:53:07Z</time></trkpt><trkpt lat="58.020947" lon="38.864645"><ele>104.4</ele><time>2022-03-29T13:53:13Z</time></trkpt><trkpt lat="58.02102" lon="38.864625"><ele>104.6</ele><time>2022-03-29T13:53:18Z</time></trkpt><trkpt lat="58.021105" lon="38.864613"><ele>104.7</ele><time>2022-03-29T13:53:24Z</time></trkpt><trkpt lat="58.021188" lon="38.864615"><ele>105.3</ele><time>2022-03-29T13:53:31Z</time></trkpt><trkpt lat="58.021267" lon="38.864593"><ele>105.8</ele><time>2022-03-29T13:53:37Z</time></trkpt><trkpt lat="58.021348" lon="38.864598"><ele>106.7</ele><time>2022-03-29T13:53:43Z</time></trkpt><trkpt lat="58.021427" lon="38.864588"><ele>106.9</ele><time>2022-03-29T13:53:50Z</time></trkpt><trkpt lat="58.021508" lon="38.864582"><ele>107.5</ele><time>2022-03-29T13:53:56Z</time></trkpt><trkpt lat="58.021582" lon="38.864558"><ele>107.4</ele><time>2022-03-29T13:54:02Z</time></trkpt><trkpt lat="58.021658" lon="38.864525"><ele>107.1</ele><time>2022-03-29T13:54:09Z</time></trkpt><trkpt lat="58.021733" lon="38.864533"><ele>107.1</ele><time>2022-03-29T13:54:16Z</time></trkpt><trkpt lat="58.02181" lon="38.864515"><ele>107.4</ele><time>2022-03-29T13:54:22Z</time></trkpt><trkpt lat="58.021887" lon="38.864505"><ele>107.6</ele><time>2022-03-29T13:54:28Z</time></trkpt><trkpt lat="58.021958" lon="38.864497"><ele>107.6</ele><time>2022-03-29T13:54:33Z</time></trkpt><trkpt lat="58.022033" lon="38.864497"><ele>108.1</ele><time>2022-03-29T13:54:38Z</time></trkpt><trkpt lat="58.022118" lon="38.86451"><ele>107.6</ele><time>2022-03-29T13:54:44Z</time></trkpt><trkpt lat="58.02219" lon="38.864492"><ele>106.9</ele><time>2022-03-29T13:54:49Z</time></trkpt><trkpt lat="58.022265" lon="38.864485"><ele>106.5</ele><time>2022-03-29T13:54:54Z</time></trkpt><trkpt lat="58.022343" lon="38.864498"><ele>105.7</ele><time>2022-03-29T13:54:59Z</time></trkpt><trkpt lat="58.022423" lon="38.864527"><ele>105.7</ele><time>2022-03-29T13:55:29Z</time></trkpt><trkpt lat="58.022495" lon="38.864592"><ele>105.6</ele><time>2022-03-29T13:55:35Z</time></trkpt><trkpt lat="58.022572" lon="38.86464"><ele>106.1</ele><time>2022-03-29T13:55:42Z</time></trkpt><trkpt lat="58.022638" lon="38.864715"><ele>105.6</ele><time>2022-03-29T13:55:49Z</time></trkpt><trkpt lat="58.022713" lon="38.864758"><ele>105.1</ele><time>2022-03-29T13:55:56Z</time></trkpt><trkpt lat="58.022785" lon="38.864795"><ele>104.9</ele><time>2022-03-29T13:56:02Z</time></trkpt><trkpt lat="58.022862" lon="38.864825"><ele>104.4</ele><time>2022-03-29T13:56:08Z</time></trkpt><trkpt lat="58.02294" lon="38.864863"><ele>103.9</ele><time>2022-03-29T13:56:15Z</time></trkpt><trkpt lat="58.023017" lon="38.864905"><ele>103.4</ele><time>2022-03-29T13:56:22Z</time></trkpt><trkpt lat="58.023093" lon="38.86496"><ele>103.2</ele><time>2022-03-29T13:56:28Z</time></trkpt><trkpt lat="58.023167" lon="38.865012"><ele>102.6</ele><time>2022-03-29T13:56:34Z</time></trkpt><trkpt lat="58.023238" lon="38.865077"><ele>103.2</ele><time>2022-03-29T13:56:40Z</time></trkpt><trkpt lat="58.023315" lon="38.86513"><ele>103.3</ele><time>2022-03-29T13:56:46Z</time></trkpt><trkpt lat="58.023392" lon="38.86516"><ele>103.4</ele><time>2022-03-29T13:56:52Z</time></trkpt><trkpt lat="58.023468" lon="38.865197"><ele>103.4</ele><time>2022-03-29T13:56:59Z</time></trkpt><trkpt lat="58.02354" lon="38.865218"><ele>102.6</ele><time>2022-03-29T13:57:05Z</time></trkpt><trkpt lat="58.023618" lon="38.865215"><ele>103.1</ele><time>2022-03-29T13:57:10Z</time></trkpt><trkpt lat="58.023692" lon="38.865203"><ele>103.1</ele><time>2022-03-29T13:57:15Z</time></trkpt><trkpt lat="58.023773" lon="38.865215"><ele>103.4</ele><time>2022-03-29T13:57:21Z</time></trkpt><trkpt lat="58.023852" lon="38.865235"><ele>103.5</ele><time>2022-03-29T13:57:27Z</time></trkpt><trkpt lat="58.02393" lon="38.865242"><ele>103.6</ele><time>2022-03-29T13:57:33Z</time></trkpt><trkpt lat="58.024005" lon="38.865218"><ele>103.8</ele><time>2022-03-29T13:57:45Z</time></trkpt><trkpt lat="58.024063" lon="38.865127"><ele>104.7</ele><time>2022-03-29T13:57:56Z</time></trkpt><trkpt lat="58.024137" lon="38.865102"><ele>105.3</ele><time>2022-03-29T13:58:28Z</time></trkpt><trkpt lat="58.024222" lon="38.8651"><ele>105.0</ele><time>2022-03-29T13:58:34Z</time></trkpt><trkpt lat="58.024302" lon="38.865057"><ele>105.3</ele><time>2022-03-29T13:58:39Z</time></trkpt><trkpt lat="58.024367" lon="38.864982"><ele>105.5</ele><time>2022-03-29T13:58:50Z</time></trkpt></trkseg></trk></gpx>