<?xml version="1.0" encoding="UTF-8" standalone="no"?><gpx xmlns="http://www.topografix.com/GPX/1/1" xmlns:gpxtpx="http://www.garmin.com/xmlschemas/TrackPointExtension/v1" xmlns:xsi="http://www.w3.org/2001/XMLSchema-instance" creator="Sports Tracker" version="1.1" xsi:schemaLocation="http://www.topografix.com/GPX/1/1 http://www.topografix.com/GPX/1/1/gpx.xsd http://www.garmin.com/xmlschemas/TrackPointExtension/v1 http://www.garmin.com/xmlschemas/TrackPointExtensionv1.xsd"><metadata><name/><desc/><author><name>Александр</name></author></metadata><trk><name/><trkseg><trkpt lat="58.051245" lon="38.843958"><ele>97.5</ele><time>2023-08-01T01:09:48Z</time></trkpt><trkpt lat="58.05246" lon="38.845232"><ele>104.9</ele><time>2023-08-01T01:09:52Z</time></trkpt><trkpt lat="58.052428" lon="38.845392"><ele>94.8</ele><time>2023-08-01T01:10:01Z</time></trkpt><trkpt lat="58.05239" lon="38.84558"><ele>93.8</ele><time>2023-08-01T01:10:03Z</time></trkpt><trkpt lat="58.052355" lon="38.84581"><ele>93.0</ele><time>2023-08-01T01:10:05Z</time></trkpt><trkpt lat="58.052325" lon="38.846042"><ele>93.0</ele><time>2023-08-01T01:10:07Z</time></trkpt><trkpt lat="58.052252" lon="38.846212"><ele>92.6</ele><time>2023-08-01T01:10:09Z</time></trkpt><trkpt lat="58.052207" lon="38.846345"><ele>92.1</ele><time>2023-08-01T01:10:10Z</time></trkpt><trkpt lat="58.052168" lon="38.846467"><ele>92.2</ele><time>2023-08-01T01:10:11Z</time></trkpt><trkpt lat="58.052125" lon="38.846648"><ele>92.2</ele><time>2023-08-01T01:10:13Z</time></trkpt><trkpt lat="58.052078" lon="38.846832"><ele>92.5</ele><time>2023-08-01T01:10:15Z</time></trkpt><trkpt lat="58.052017" lon="38.84707"><ele>92.5</ele><time>2023-08-01T01:10:17Z</time></trkpt><trkpt lat="58.051975" lon="38.84729"><ele>92.7</ele><time>2023-08-01T01:10:19Z</time></trkpt><trkpt lat="58.05194" lon="38.847473"><ele>93.5</ele><time>2023-08-01T01:10:21Z</time></trkpt><trkpt lat="58.051907" lon="38.847662"><ele>93.4</ele><time>2023-08-01T01:10:23Z</time></trkpt><trkpt lat="58.051882" lon="38.84787"><ele>93.4</ele><time>2023-08-01T01:10:25Z</time></trkpt><trkpt lat="58.051843" lon="38.848078"><ele>93.2</ele><time>2023-08-01T01:10:27Z</time></trkpt><trkpt lat="58.051813" lon="38.848283"><ele>93.6</ele><time>2023-08-01T01:10:29Z</time></trkpt><trkpt lat="58.051778" lon="38.848487"><ele>92.7</ele><time>2023-08-01T01:10:31Z</time></trkpt><trkpt lat="58.051747" lon="38.848712"><ele>91.5</ele><time>2023-08-01T01:10:33Z</time></trkpt><trkpt lat="58.051698" lon="38.848907"><ele>91.4</ele><time>2023-08-01T01:10:35Z</time></trkpt><trkpt lat="58.051643" lon="38.84913"><ele>91.4</ele><time>2023-08-01T01:10:37Z</time></trkpt><trkpt lat="58.051585" lon="38.849355"><ele>91.1</ele><time>2023-08-01T01:10:39Z</time></trkpt><trkpt lat="58.051548" lon="38.849507"><ele>91.3</ele><time>2023-08-01T01:10:40Z</time></trkpt><trkpt lat="58.051493" lon="38.8496"><ele>91.1</ele><time>2023-08-01T01:10:41Z</time></trkpt><trkpt lat="58.051447" lon="38.84973"><ele>91.3</ele><time>2023-08-01T01:10:42Z</time></trkpt><trkpt lat="58.051405" lon="38.849858"><ele>91.2</ele><time>2023-08-01T01:10:43Z</time></trkpt><trkpt lat="58.051365" lon="38.850023"><ele>91.3</ele><time>2023-08-01T01:10:44Z</time></trkpt><trkpt lat="58.051307" lon="38.85016"><ele>91.2</ele><time>2023-08-01T01:10:45Z</time></trkpt><trkpt lat="58.051258" lon="38.850322"><ele>91.7</ele><time>2023-08-01T01:10:46Z</time></trkpt><trkpt lat="58.051207" lon="38.85047"><ele>91.5</ele><time>2023-08-01T01:10:47Z</time></trkpt><trkpt lat="58.051162" lon="38.850622"><ele>91.1</ele><time>2023-08-01T01:10:48Z</time></trkpt><trkpt lat="58.051065" lon="38.850832"><ele>92.8</ele><time>2023-08-01T01:10:50Z</time></trkpt><trkpt lat="58.05103" lon="38.850957"><ele>92.7</ele><time>2023-08-01T01:10:51Z</time></trkpt><trkpt lat="58.05095" lon="38.851192"><ele>92.9</ele><time>2023-08-01T01:10:53Z</time></trkpt><trkpt lat="58.050865" lon="38.85141"><ele>93.0</ele><time>2023-08-01T01:10:55Z</time></trkpt><trkpt lat="58.05081" lon="38.851628"><ele>94.3</ele><time>2023-08-01T01:10:57Z</time></trkpt><trkpt lat="58.050773" lon="38.851745"><ele>94.4</ele><time>2023-08-01T01:10:58Z</time></trkpt><trkpt lat="58.050702" lon="38.851952"><ele>94.3</ele><time>2023-08-01T01:11:00Z</time></trkpt><trkpt lat="58.050637" lon="38.852122"><ele>94.9</ele><time>2023-08-01T01:11:02Z</time></trkpt><trkpt lat="58.050573" lon="38.852273"><ele>95.3</ele><time>2023-08-01T01:11:04Z</time></trkpt><trkpt lat="58.050535" lon="38.852418"><ele>95.8</ele><time>2023-08-01T01:11:06Z</time></trkpt><trkpt lat="58.050473" lon="38.852603"><ele>96.0</ele><time>2023-08-01T01:11:08Z</time></trkpt><trkpt lat="58.050417" lon="38.852737"><ele>96.5</ele><time>2023-08-01T01:11:10Z</time></trkpt><trkpt lat="58.050358" lon="38.852892"><ele>96.7</ele><time>2023-08-01T01:11:12Z</time></trkpt><trkpt lat="58.050297" lon="38.85302"><ele>96.3</ele><time>2023-08-01T01:11:14Z</time></trkpt><trkpt lat="58.050268" lon="38.853168"><ele>96.5</ele><time>2023-08-01T01:11:16Z</time></trkpt><trkpt lat="58.05024" lon="38.85332"><ele>96.8</ele><time>2023-08-01T01:11:18Z</time></trkpt><trkpt lat="58.050208" lon="38.853508"><ele>96.4</ele><time>2023-08-01T01:11:20Z</time></trkpt><trkpt lat="58.05017" lon="38.85371"><ele>94.8</ele><time>2023-08-01T01:11:22Z</time></trkpt><trkpt lat="58.050122" lon="38.853913"><ele>94.3</ele><time>2023-08-01T01:11:24Z</time></trkpt><trkpt lat="58.05008" lon="38.854117"><ele>94.5</ele><time>2023-08-01T01:11:26Z</time></trkpt><trkpt lat="58.050047" lon="38.854302"><ele>94.9</ele><time>2023-08-01T01:11:28Z</time></trkpt><trkpt lat="58.050017" lon="38.854485"><ele>94.8</ele><time>2023-08-01T01:11:30Z</time></trkpt><trkpt lat="58.049983" lon="38.854638"><ele>95.2</ele><time>2023-08-01T01:11:32Z</time></trkpt><trkpt lat="58.049975" lon="38.85484"><ele>95.0</ele><time>2023-08-01T01:11:34Z</time></trkpt><trkpt lat="58.04996" lon="38.855047"><ele>95.2</ele><time>2023-08-01T01:11:36Z</time></trkpt><trkpt lat="58.049948" lon="38.85526"><ele>93.8</ele><time>2023-08-01T01:11:38Z</time></trkpt><trkpt lat="58.049902" lon="38.855442"><ele>93.8</ele><time>2023-08-01T01:11:40Z</time></trkpt><trkpt lat="58.049882" lon="38.855675"><ele>92.9</ele><time>2023-08-01T01:11:42Z</time></trkpt><trkpt lat="58.049832" lon="38.855883"><ele>93.1</ele><time>2023-08-01T01:11:44Z</time></trkpt><trkpt lat="58.049798" lon="38.856107"><ele>93.4</ele><time>2023-08-01T01:11:46Z</time></trkpt><trkpt lat="58.049757" lon="38.856303"><ele>93.7</ele><time>2023-08-01T01:11:48Z</time></trkpt><trkpt lat="58.049703" lon="38.85651"><ele>93.1</ele><time>2023-08-01T01:11:50Z</time></trkpt><trkpt lat="58.049655" lon="38.856737"><ele>91.8</ele><time>2023-08-01T01:11:52Z</time></trkpt><trkpt lat="58.049603" lon="38.856965"><ele>92.2</ele><time>2023-08-01T01:11:54Z</time></trkpt><trkpt lat="58.049528" lon="38.857178"><ele>93.3</ele><time>2023-08-01T01:11:56Z</time></trkpt><trkpt lat="58.049438" lon="38.85741"><ele>94.4</ele><time>2023-08-01T01:11:58Z</time></trkpt><trkpt lat="58.049388" lon="38.857528"><ele>95.0</ele><time>2023-08-01T01:11:59Z</time></trkpt><trkpt lat="58.049338" lon="38.85763"><ele>95.2</ele><time>2023-08-01T01:12:00Z</time></trkpt><trkpt lat="58.04926" lon="38.85783"><ele>93.9</ele><time>2023-08-01T01:12:02Z</time></trkpt><trkpt lat="58.049205" lon="38.858023"><ele>94.8</ele><time>2023-08-01T01:12:04Z</time></trkpt><trkpt lat="58.049157" lon="38.858178"><ele>95.3</ele><time>2023-08-01T01:12:06Z</time></trkpt><trkpt lat="58.049103" lon="38.85834"><ele>95.2</ele><time>2023-08-01T01:12:09Z</time></trkpt><trkpt lat="58.049057" lon="38.858458"><ele>96.1</ele><time>2023-08-01T01:12:12Z</time></trkpt><trkpt lat="58.04903" lon="38.858612"><ele>97.3</ele><time>2023-08-01T01:12:15Z</time></trkpt><trkpt lat="58.048975" lon="38.858735"><ele>98.6</ele><time>2023-08-01T01:12:18Z</time></trkpt><trkpt lat="58.048922" lon="38.858853"><ele>98.7</ele><time>2023-08-01T01:12:21Z</time></trkpt><trkpt lat="58.04884" lon="38.85882"><ele>98.9</ele><time>2023-08-01T01:12:26Z</time></trkpt><trkpt lat="58.048778" lon="38.858728"><ele>98.2</ele><time>2023-08-01T01:12:30Z</time></trkpt><trkpt lat="58.0487" lon="38.858812"><ele>98.9</ele><time>2023-08-01T01:12:35Z</time></trkpt><trkpt lat="58.048667" lon="38.858985"><ele>98.5</ele><time>2023-08-01T01:12:38Z</time></trkpt><trkpt lat="58.04863" lon="38.859145"><ele>98.6</ele><time>2023-08-01T01:12:40Z</time></trkpt><trkpt lat="58.048562" lon="38.859365"><ele>98.9</ele><time>2023-08-01T01:12:42Z</time></trkpt><trkpt lat="58.048488" lon="38.859398"><ele>99.1</ele><time>2023-08-01T01:12:44Z</time></trkpt><trkpt lat="58.048413" lon="38.859393"><ele>99.3</ele><time>2023-08-01T01:12:46Z</time></trkpt><trkpt lat="58.04832" lon="38.859405"><ele>99.9</ele><time>2023-08-01T01:12:49Z</time></trkpt><trkpt lat="58.048238" lon="38.859323"><ele>100.4</ele><time>2023-08-01T01:12:52Z</time></trkpt><trkpt lat="58.048175" lon="38.859188"><ele>100.3</ele><time>2023-08-01T01:12:55Z</time></trkpt><trkpt lat="58.048122" lon="38.859052"><ele>100.3</ele><time>2023-08-01T01:12:58Z</time></trkpt><trkpt lat="58.048025" lon="38.858925"><ele>100.3</ele><time>2023-08-01T01:13:01Z</time></trkpt><trkpt lat="58.047953" lon="38.858943"><ele>100.5</ele><time>2023-08-01T01:13:03Z</time></trkpt><trkpt lat="58.047895" lon="38.859105"><ele>100.9</ele><time>2023-08-01T01:13:06Z</time></trkpt><trkpt lat="58.047837" lon="38.85925"><ele>101.8</ele><time>2023-08-01T01:13:09Z</time></trkpt><trkpt lat="58.047832" lon="38.859407"><ele>101.4</ele><time>2023-08-01T01:13:11Z</time></trkpt><trkpt lat="58.04785" lon="38.859593"><ele>102.1</ele><time>2023-08-01T01:13:14Z</time></trkpt><trkpt lat="58.047903" lon="38.859715"><ele>100.9</ele><time>2023-08-01T01:13:17Z</time></trkpt><trkpt lat="58.047988" lon="38.8598"><ele>99.9</ele><time>2023-08-01T01:13:20Z</time></trkpt><trkpt lat="58.048052" lon="38.85987"><ele>99.9</ele><time>2023-08-01T01:13:22Z</time></trkpt><trkpt lat="58.048125" lon="38.859935"><ele>100.1</ele><time>2023-08-01T01:13:24Z</time></trkpt><trkpt lat="58.048208" lon="38.859987"><ele>99.8</ele><time>2023-08-01T01:13:26Z</time></trkpt><trkpt lat="58.048327" lon="38.860052"><ele>99.7</ele><time>2023-08-01T01:13:28Z</time></trkpt><trkpt lat="58.048398" lon="38.860117"><ele>99.8</ele><time>2023-08-01T01:13:30Z</time></trkpt><trkpt lat="58.04848" lon="38.860172"><ele>99.3</ele><time>2023-08-01T01:13:32Z</time></trkpt><trkpt lat="58.048575" lon="38.860237"><ele>98.8</ele><time>2023-08-01T01:13:34Z</time></trkpt><trkpt lat="58.048658" lon="38.860283"><ele>98.8</ele><time>2023-08-01T01:13:36Z</time></trkpt><trkpt lat="58.048752" lon="38.860327"><ele>98.2</ele><time>2023-08-01T01:13:38Z</time></trkpt><trkpt lat="58.048823" lon="38.860358"><ele>96.9</ele><time>2023-08-01T01:13:40Z</time></trkpt><trkpt lat="58.048912" lon="38.860423"><ele>96.2</ele><time>2023-08-01T01:13:42Z</time></trkpt><trkpt lat="58.049" lon="38.860472"><ele>95.6</ele><time>2023-08-01T01:13:44Z</time></trkpt><trkpt lat="58.049097" lon="38.86053"><ele>94.4</ele><time>2023-08-01T01:13:46Z</time></trkpt><trkpt lat="58.049188" lon="38.860593"><ele>93.8</ele><time>2023-08-01T01:13:48Z</time></trkpt><trkpt lat="58.049292" lon="38.860678"><ele>93.9</ele><time>2023-08-01T01:13:51Z</time></trkpt><trkpt lat="58.049375" lon="38.860728"><ele>93.7</ele><time>2023-08-01T01:13:53Z</time></trkpt><trkpt lat="58.04945" lon="38.860792"><ele>93.6</ele><time>2023-08-01T01:13:56Z</time></trkpt><trkpt lat="58.049543" lon="38.860848"><ele>93.4</ele><time>2023-08-01T01:13:59Z</time></trkpt><trkpt lat="58.049638" lon="38.860928"><ele>94.0</ele><time>2023-08-01T01:14:02Z</time></trkpt><trkpt lat="58.049732" lon="38.86099"><ele>94.4</ele><time>2023-08-01T01:14:05Z</time></trkpt><trkpt lat="58.049815" lon="38.861037"><ele>93.8</ele><time>2023-08-01T01:14:08Z</time></trkpt><trkpt lat="58.049887" lon="38.861075"><ele>93.7</ele><time>2023-08-01T01:14:11Z</time></trkpt><trkpt lat="58.04996" lon="38.861128"><ele>93.5</ele><time>2023-08-01T01:14:15Z</time></trkpt><trkpt lat="58.050052" lon="38.861148"><ele>93.0</ele><time>2023-08-01T01:16:11Z</time></trkpt><trkpt lat="58.049967" lon="38.861153"><ele>93.2</ele><time>2023-08-01T01:29:05Z</time></trkpt><trkpt lat="58.049902" lon="38.86109"><ele>93.4</ele><time>2023-08-01T01:29:08Z</time></trkpt><trkpt lat="58.049822" lon="38.861042"><ele>93.2</ele><time>2023-08-01T01:29:11Z</time></trkpt><trkpt lat="58.049732" lon="38.86099"><ele>93.5</ele><time>2023-08-01T01:29:14Z</time></trkpt><trkpt lat="58.049653" lon="38.860918"><ele>93.7</ele><time>2023-08-01T01:29:16Z</time></trkpt><trkpt lat="58.049553" lon="38.860843"><ele>94.4</ele><time>2023-08-01T01:29:18Z</time></trkpt><trkpt lat="58.049428" lon="38.860762"><ele>95.0</ele><time>2023-08-01T01:29:20Z</time></trkpt><trkpt lat="58.049317" lon="38.860657"><ele>95.4</ele><time>2023-08-01T01:29:22Z</time></trkpt><trkpt lat="58.04922" lon="38.860562"><ele>95.5</ele><time>2023-08-01T01:29:24Z</time></trkpt><trkpt lat="58.049118" lon="38.860505"><ele>97.6</ele><time>2023-08-01T01:29:26Z</time></trkpt><trkpt lat="58.049035" lon="38.860422"><ele>97.8</ele><time>2023-08-01T01:29:28Z</time></trkpt><trkpt lat="58.048932" lon="38.860338"><ele>97.4</ele><time>2023-08-01T01:29:30Z</time></trkpt><trkpt lat="58.048833" lon="38.86027"><ele>98.6</ele><time>2023-08-01T01:29:32Z</time></trkpt><trkpt lat="58.048735" lon="38.860213"><ele>98.7</ele><time>2023-08-01T01:29:34Z</time></trkpt><trkpt lat="58.048622" lon="38.860167"><ele>99.1</ele><time>2023-08-01T01:29:36Z</time></trkpt><trkpt lat="58.048525" lon="38.860077"><ele>100.3</ele><time>2023-08-01T01:29:38Z</time></trkpt><trkpt lat="58.048447" lon="38.860038"><ele>101.6</ele><time>2023-08-01T01:29:40Z</time></trkpt><trkpt lat="58.048375" lon="38.860002"><ele>101.5</ele><time>2023-08-01T01:29:42Z</time></trkpt><trkpt lat="58.0483" lon="38.859955"><ele>101.6</ele><time>2023-08-01T01:29:44Z</time></trkpt><trkpt lat="58.048202" lon="38.859878"><ele>100.9</ele><time>2023-08-01T01:29:47Z</time></trkpt><trkpt lat="58.048098" lon="38.859815"><ele>101.2</ele><time>2023-08-01T01:29:50Z</time></trkpt><trkpt lat="58.04801" lon="38.859788"><ele>101.5</ele><time>2023-08-01T01:29:53Z</time></trkpt><trkpt lat="58.047923" lon="38.859772"><ele>102.8</ele><time>2023-08-01T01:29:57Z</time></trkpt><trkpt lat="58.047842" lon="38.859802"><ele>102.9</ele><time>2023-08-01T01:30:00Z</time></trkpt><trkpt lat="58.04775" lon="38.859908"><ele>102.8</ele><time>2023-08-01T01:30:03Z</time></trkpt><trkpt lat="58.047642" lon="38.860032"><ele>102.5</ele><time>2023-08-01T01:30:04Z</time></trkpt><trkpt lat="58.047643" lon="38.860187"><ele>100.4</ele><time>2023-08-01T01:30:10Z</time></trkpt><trkpt lat="58.047718" lon="38.860227"><ele>99.8</ele><time>2023-08-01T01:30:14Z</time></trkpt><trkpt lat="58.047807" lon="38.860272"><ele>99.3</ele><time>2023-08-01T01:30:18Z</time></trkpt><trkpt lat="58.047908" lon="38.860212"><ele>99.3</ele><time>2023-08-01T01:30:21Z</time></trkpt><trkpt lat="58.047983" lon="38.860217"><ele>99.4</ele><time>2023-08-01T01:30:23Z</time></trkpt><trkpt lat="58.048075" lon="38.860288"><ele>99.1</ele><time>2023-08-01T01:30:26Z</time></trkpt><trkpt lat="58.04817" lon="38.860358"><ele>98.6</ele><time>2023-08-01T01:30:29Z</time></trkpt><trkpt lat="58.048258" lon="38.860425"><ele>98.2</ele><time>2023-08-01T01:30:32Z</time></trkpt><trkpt lat="58.048333" lon="38.860495"><ele>98.7</ele><time>2023-08-01T01:30:35Z</time></trkpt><trkpt lat="58.048398" lon="38.860565"><ele>98.0</ele><time>2023-08-01T01:30:38Z</time></trkpt><trkpt lat="58.048403" lon="38.860717"><ele>98.4</ele><time>2023-08-01T01:30:42Z</time></trkpt><trkpt lat="58.048377" lon="38.860853"><ele>98.4</ele><time>2023-08-01T01:30:45Z</time></trkpt><trkpt lat="58.04842" lon="38.860993"><ele>98.1</ele><time>2023-08-01T01:30:50Z</time></trkpt><trkpt lat="58.048463" lon="38.861122"><ele>97.4</ele><time>2023-08-01T01:30:56Z</time></trkpt><trkpt lat="58.048462" lon="38.861268"><ele>97.1</ele><time>2023-08-01T01:31:00Z</time></trkpt><trkpt lat="58.048412" lon="38.861385"><ele>97.2</ele><time>2023-08-01T01:31:03Z</time></trkpt><trkpt lat="58.048358" lon="38.86153"><ele>96.5</ele><time>2023-08-01T01:31:07Z</time></trkpt><trkpt lat="58.048317" lon="38.861663"><ele>96.2</ele><time>2023-08-01T01:31:11Z</time></trkpt><trkpt lat="58.04827" lon="38.861803"><ele>95.6</ele><time>2023-08-01T01:31:16Z</time></trkpt><trkpt lat="58.048222" lon="38.86193"><ele>96.2</ele><time>2023-08-01T01:31:25Z</time></trkpt><trkpt lat="58.048173" lon="38.862047"><ele>95.9</ele><time>2023-08-01T01:31:31Z</time></trkpt><trkpt lat="58.048138" lon="38.862188"><ele>95.6</ele><time>2023-08-01T01:31:37Z</time></trkpt><trkpt lat="58.048102" lon="38.862328"><ele>95.9</ele><time>2023-08-01T01:31:43Z</time></trkpt><trkpt lat="58.048067" lon="38.862472"><ele>96.0</ele><time>2023-08-01T01:31:49Z</time></trkpt><trkpt lat="58.048047" lon="38.86263"><ele>96.1</ele><time>2023-08-01T01:31:54Z</time></trkpt><trkpt lat="58.04801" lon="38.862768"><ele>96.5</ele><time>2023-08-01T01:31:58Z</time></trkpt><trkpt lat="58.047987" lon="38.862908"><ele>96.8</ele><time>2023-08-01T01:32:02Z</time></trkpt><trkpt lat="58.047943" lon="38.863042"><ele>96.9</ele><time>2023-08-01T01:32:06Z</time></trkpt><trkpt lat="58.047903" lon="38.863193"><ele>96.3</ele><time>2023-08-01T01:32:10Z</time></trkpt><trkpt lat="58.047855" lon="38.863307"><ele>96.5</ele><time>2023-08-01T01:32:14Z</time></trkpt><trkpt lat="58.047822" lon="38.863448"><ele>96.8</ele><time>2023-08-01T01:32:18Z</time></trkpt><trkpt lat="58.047798" lon="38.86362"><ele>97.5</ele><time>2023-08-01T01:32:23Z</time></trkpt><trkpt lat="58.047778" lon="38.863755"><ele>97.8</ele><time>2023-08-01T01:32:25Z</time></trkpt><trkpt lat="58.047757" lon="38.863902"><ele>97.9</ele><time>2023-08-01T01:32:28Z</time></trkpt><trkpt lat="58.047735" lon="38.864055"><ele>97.6</ele><time>2023-08-01T01:32:32Z</time></trkpt><trkpt lat="58.047732" lon="38.86421"><ele>97.0</ele><time>2023-08-01T01:32:36Z</time></trkpt><trkpt lat="58.047763" lon="38.864365"><ele>96.6</ele><time>2023-08-01T01:32:40Z</time></trkpt><trkpt lat="58.047757" lon="38.864518"><ele>95.8</ele><time>2023-08-01T01:32:43Z</time></trkpt><trkpt lat="58.047735" lon="38.864657"><ele>95.5</ele><time>2023-08-01T01:32:45Z</time></trkpt><trkpt lat="58.047708" lon="38.864805"><ele>95.2</ele><time>2023-08-01T01:32:47Z</time></trkpt><trkpt lat="58.047683" lon="38.864952"><ele>95.1</ele><time>2023-08-01T01:32:49Z</time></trkpt><trkpt lat="58.04766" lon="38.865088"><ele>94.3</ele><time>2023-08-01T01:32:51Z</time></trkpt><trkpt lat="58.047633" lon="38.865275"><ele>94.6</ele><time>2023-08-01T01:32:54Z</time></trkpt><trkpt lat="58.047617" lon="38.865422"><ele>95.5</ele><time>2023-08-01T01:32:57Z</time></trkpt><trkpt lat="58.047595" lon="38.865553"><ele>95.0</ele><time>2023-08-01T01:33:00Z</time></trkpt><trkpt lat="58.047587" lon="38.865732"><ele>96.0</ele><time>2023-08-01T01:33:05Z</time></trkpt><trkpt lat="58.04759" lon="38.865893"><ele>96.1</ele><time>2023-08-01T01:33:09Z</time></trkpt><trkpt lat="58.047638" lon="38.865995"><ele>96.8</ele><time>2023-08-01T01:33:13Z</time></trkpt><trkpt lat="58.047722" lon="38.866025"><ele>94.2</ele><time>2023-08-01T01:33:18Z</time></trkpt><trkpt lat="58.04779" lon="38.866085"><ele>93.1</ele><time>2023-08-01T01:34:51Z</time></trkpt><trkpt lat="58.047702" lon="38.866088"><ele>90.0</ele><time>2023-08-01T02:47:46Z</time></trkpt><trkpt lat="58.047617" lon="38.866005"><ele>91.2</ele><time>2023-08-01T02:47:49Z</time></trkpt><trkpt lat="58.04755" lon="38.865867"><ele>92.4</ele><time>2023-08-01T02:47:52Z</time></trkpt><trkpt lat="58.047563" lon="38.865677"><ele>93.6</ele><time>2023-08-01T02:47:55Z</time></trkpt><trkpt lat="58.047587" lon="38.865548"><ele>93.0</ele><time>2023-08-01T02:47:58Z</time></trkpt><trkpt lat="58.0476" lon="38.8654"><ele>92.3</ele><time>2023-08-01T02:48:02Z</time></trkpt><trkpt lat="58.04762" lon="38.865268"><ele>92.4</ele><time>2023-08-01T02:48:05Z</time></trkpt><trkpt lat="58.047643" lon="38.86511"><ele>92.3</ele><time>2023-08-01T02:48:08Z</time></trkpt><trkpt lat="58.047673" lon="38.864967"><ele>92.4</ele><time>2023-08-01T02:48:11Z</time></trkpt><trkpt lat="58.0477" lon="38.864808"><ele>92.6</ele><time>2023-08-01T02:48:14Z</time></trkpt><trkpt lat="58.047712" lon="38.864642"><ele>92.8</ele><time>2023-08-01T02:48:17Z</time></trkpt><trkpt lat="58.047735" lon="38.864487"><ele>93.1</ele><time>2023-08-01T02:48:21Z</time></trkpt><trkpt lat="58.047748" lon="38.864345"><ele>93.3</ele><time>2023-08-01T02:48:26Z</time></trkpt><trkpt lat="58.047748" lon="38.864205"><ele>93.7</ele><time>2023-08-01T02:48:30Z</time></trkpt><trkpt lat="58.047728" lon="38.864062"><ele>94.7</ele><time>2023-08-01T02:48:35Z</time></trkpt><trkpt lat="58.047765" lon="38.863933"><ele>95.4</ele><time>2023-08-01T02:48:39Z</time></trkpt><trkpt lat="58.047807" lon="38.863805"><ele>95.6</ele><time>2023-08-01T02:48:43Z</time></trkpt><trkpt lat="58.047843" lon="38.86366"><ele>95.6</ele><time>2023-08-01T02:48:47Z</time></trkpt><trkpt lat="58.04788" lon="38.86351"><ele>96.0</ele><time>2023-08-01T02:48:51Z</time></trkpt><trkpt lat="58.047915" lon="38.863365"><ele>96.2</ele><time>2023-08-01T02:48:57Z</time></trkpt><trkpt lat="58.047935" lon="38.863215"><ele>96.2</ele><time>2023-08-01T02:49:02Z</time></trkpt><trkpt lat="58.04799" lon="38.863103"><ele>96.0</ele><time>2023-08-01T02:49:06Z</time></trkpt><trkpt lat="58.048028" lon="38.862987"><ele>96.5</ele><time>2023-08-01T02:49:10Z</time></trkpt><trkpt lat="58.048068" lon="38.862845"><ele>96.9</ele><time>2023-08-01T02:49:15Z</time></trkpt><trkpt lat="58.048097" lon="38.862712"><ele>96.6</ele><time>2023-08-01T02:49:21Z</time></trkpt><trkpt lat="58.048133" lon="38.862587"><ele>96.1</ele><time>2023-08-01T02:49:28Z</time></trkpt><trkpt lat="58.04817" lon="38.862468"><ele>96.5</ele><time>2023-08-01T02:49:33Z</time></trkpt><trkpt lat="58.048212" lon="38.86234"><ele>96.2</ele><time>2023-08-01T02:49:39Z</time></trkpt><trkpt lat="58.048228" lon="38.8622"><ele>95.9</ele><time>2023-08-01T02:49:45Z</time></trkpt><trkpt lat="58.04826" lon="38.862058"><ele>96.9</ele><time>2023-08-01T02:49:52Z</time></trkpt><trkpt lat="58.048293" lon="38.86193"><ele>97.1</ele><time>2023-08-01T02:49:57Z</time></trkpt><trkpt lat="58.048323" lon="38.86179"><ele>98.1</ele><time>2023-08-01T02:50:04Z</time></trkpt><trkpt lat="58.048353" lon="38.861662"><ele>98.4</ele><time>2023-08-01T02:50:09Z</time></trkpt><trkpt lat="58.04839" lon="38.861532"><ele>98.4</ele><time>2023-08-01T02:50:14Z</time></trkpt><trkpt lat="58.048425" lon="38.8614"><ele>97.6</ele><time>2023-08-01T02:50:20Z</time></trkpt><trkpt lat="58.048463" lon="38.861257"><ele>97.3</ele><time>2023-08-01T02:50:26Z</time></trkpt><trkpt lat="58.048458" lon="38.861122"><ele>97.1</ele><time>2023-08-01T02:50:35Z</time></trkpt><trkpt lat="58.048433" lon="38.860973"><ele>97.1</ele><time>2023-08-01T02:50:41Z</time></trkpt><trkpt lat="58.048412" lon="38.860833"><ele>98.0</ele><time>2023-08-01T02:50:44Z</time></trkpt><trkpt lat="58.048425" lon="38.860672"><ele>99.1</ele><time>2023-08-01T02:50:47Z</time></trkpt><trkpt lat="58.04844" lon="38.860527"><ele>98.1</ele><time>2023-08-01T02:50:50Z</time></trkpt><trkpt lat="58.04847" lon="38.860357"><ele>98.3</ele><time>2023-08-01T02:50:53Z</time></trkpt><trkpt lat="58.048517" lon="38.860188"><ele>98.5</ele><time>2023-08-01T02:50:56Z</time></trkpt><trkpt lat="58.048555" lon="38.860053"><ele>98.5</ele><time>2023-08-01T02:50:59Z</time></trkpt><trkpt lat="58.048565" lon="38.8599"><ele>98.9</ele><time>2023-08-01T02:51:03Z</time></trkpt><trkpt lat="58.048597" lon="38.85977"><ele>99.4</ele><time>2023-08-01T02:51:06Z</time></trkpt><trkpt lat="58.048622" lon="38.859628"><ele>100.0</ele><time>2023-08-01T02:51:08Z</time></trkpt><trkpt lat="58.048653" lon="38.859483"><ele>100.6</ele><time>2023-08-01T02:51:10Z</time></trkpt><trkpt lat="58.04869" lon="38.859323"><ele>100.8</ele><time>2023-08-01T02:51:12Z</time></trkpt><trkpt lat="58.048717" lon="38.85919"><ele>101.9</ele><time>2023-08-01T02:51:14Z</time></trkpt><trkpt lat="58.048738" lon="38.85901"><ele>101.0</ele><time>2023-08-01T02:51:17Z</time></trkpt><trkpt lat="58.048753" lon="38.858857"><ele>100.7</ele><time>2023-08-01T02:51:20Z</time></trkpt><trkpt lat="58.048752" lon="38.858687"><ele>100.6</ele><time>2023-08-01T02:51:22Z</time></trkpt><trkpt lat="58.048758" lon="38.858498"><ele>100.6</ele><time>2023-08-01T02:51:25Z</time></trkpt><trkpt lat="58.04874" lon="38.858315"><ele>100.5</ele><time>2023-08-01T02:51:28Z</time></trkpt><trkpt lat="58.048687" lon="38.858185"><ele>100.7</ele><time>2023-08-01T02:51:31Z</time></trkpt><trkpt lat="58.04866" lon="38.858053"><ele>101.2</ele><time>2023-08-01T02:51:34Z</time></trkpt><trkpt lat="58.048612" lon="38.857907"><ele>100.7</ele><time>2023-08-01T02:51:38Z</time></trkpt><trkpt lat="58.048558" lon="38.85774"><ele>100.8</ele><time>2023-08-01T02:51:41Z</time></trkpt><trkpt lat="58.0485" lon="38.857588"><ele>100.3</ele><time>2023-08-01T02:51:44Z</time></trkpt><trkpt lat="58.04841" lon="38.857487"><ele>100.4</ele><time>2023-08-01T02:51:47Z</time></trkpt><trkpt lat="58.048338" lon="38.857437"><ele>100.9</ele><time>2023-08-01T02:51:50Z</time></trkpt><trkpt lat="58.048315" lon="38.857298"><ele>101.1</ele><time>2023-08-01T02:51:53Z</time></trkpt><trkpt lat="58.048327" lon="38.857145"><ele>99.0</ele><time>2023-08-01T02:51:59Z</time></trkpt><trkpt lat="58.048345" lon="38.857005"><ele>98.3</ele><time>2023-08-01T02:52:02Z</time></trkpt><trkpt lat="58.048385" lon="38.856877"><ele>98.7</ele><time>2023-08-01T02:52:04Z</time></trkpt><trkpt lat="58.048418" lon="38.856727"><ele>98.8</ele><time>2023-08-01T02:52:06Z</time></trkpt><trkpt lat="58.048442" lon="38.856582"><ele>98.3</ele><time>2023-08-01T02:52:08Z</time></trkpt><trkpt lat="58.048468" lon="38.85639"><ele>97.3</ele><time>2023-08-01T02:52:11Z</time></trkpt><trkpt lat="58.048495" lon="38.856255"><ele>97.7</ele><time>2023-08-01T02:52:13Z</time></trkpt><trkpt lat="58.048528" lon="38.856133"><ele>98.8</ele><time>2023-08-01T02:52:15Z</time></trkpt><trkpt lat="58.048562" lon="38.856008"><ele>99.4</ele><time>2023-08-01T02:52:17Z</time></trkpt><trkpt lat="58.048583" lon="38.855865"><ele>99.3</ele><time>2023-08-01T02:52:19Z</time></trkpt><trkpt lat="58.048595" lon="38.855717"><ele>100.0</ele><time>2023-08-01T02:52:21Z</time></trkpt><trkpt lat="58.048607" lon="38.855575"><ele>100.8</ele><time>2023-08-01T02:52:23Z</time></trkpt><trkpt lat="58.048628" lon="38.855428"><ele>100.6</ele><time>2023-08-01T02:52:25Z</time></trkpt><trkpt lat="58.048657" lon="38.855278"><ele>101.0</ele><time>2023-08-01T02:52:27Z</time></trkpt><trkpt lat="58.048672" lon="38.855135"><ele>100.5</ele><time>2023-08-01T02:52:29Z</time></trkpt><trkpt lat="58.048687" lon="38.854993"><ele>100.0</ele><time>2023-08-01T02:52:31Z</time></trkpt><trkpt lat="58.048708" lon="38.854862"><ele>100.8</ele><time>2023-08-01T02:52:33Z</time></trkpt><trkpt lat="58.048738" lon="38.854678"><ele>101.1</ele><time>2023-08-01T02:52:36Z</time></trkpt><trkpt lat="58.048765" lon="38.854538"><ele>101.3</ele><time>2023-08-01T02:52:38Z</time></trkpt><trkpt lat="58.04879" lon="38.854397"><ele>101.2</ele><time>2023-08-01T02:52:40Z</time></trkpt><trkpt lat="58.048825" lon="38.85421"><ele>100.7</ele><time>2023-08-01T02:52:43Z</time></trkpt><trkpt lat="58.048863" lon="38.854035"><ele>100.7</ele><time>2023-08-01T02:52:46Z</time></trkpt><trkpt lat="58.048895" lon="38.853857"><ele>100.9</ele><time>2023-08-01T02:52:49Z</time></trkpt><trkpt lat="58.048922" lon="38.853688"><ele>100.9</ele><time>2023-08-01T02:52:52Z</time></trkpt><trkpt lat="58.048952" lon="38.853515"><ele>101.3</ele><time>2023-08-01T02:52:55Z</time></trkpt><trkpt lat="58.048978" lon="38.853365"><ele>100.9</ele><time>2023-08-01T02:52:58Z</time></trkpt><trkpt lat="58.048995" lon="38.853167"><ele>101.0</ele><time>2023-08-01T02:53:01Z</time></trkpt><trkpt lat="58.049022" lon="38.852987"><ele>101.7</ele><time>2023-08-01T02:53:04Z</time></trkpt><trkpt lat="58.04906" lon="38.852842"><ele>103.1</ele><time>2023-08-01T02:53:07Z</time></trkpt><trkpt lat="58.049102" lon="38.852687"><ele>102.9</ele><time>2023-08-01T02:53:10Z</time></trkpt><trkpt lat="58.049142" lon="38.852527"><ele>103.3</ele><time>2023-08-01T02:53:13Z</time></trkpt><trkpt lat="58.04921" lon="38.852417"><ele>102.7</ele><time>2023-08-01T02:53:17Z</time></trkpt><trkpt lat="58.0493" lon="38.852473"><ele>103.1</ele><time>2023-08-01T02:53:21Z</time></trkpt><trkpt lat="58.049355" lon="38.852557"><ele>103.3</ele><time>2023-08-01T02:53:24Z</time></trkpt><trkpt lat="58.04943" lon="38.852597"><ele>102.1</ele><time>2023-08-01T02:53:27Z</time></trkpt><trkpt lat="58.049512" lon="38.852623"><ele>102.4</ele><time>2023-08-01T02:53:30Z</time></trkpt><trkpt lat="58.049583" lon="38.85265"><ele>102.8</ele><time>2023-08-01T02:53:33Z</time></trkpt><trkpt lat="58.049652" lon="38.852703"><ele>102.4</ele><time>2023-08-01T02:53:38Z</time></trkpt><trkpt lat="58.049728" lon="38.852737"><ele>102.1</ele><time>2023-08-01T02:53:41Z</time></trkpt><trkpt lat="58.049818" lon="38.852772"><ele>101.2</ele><time>2023-08-01T02:53:45Z</time></trkpt><trkpt lat="58.049902" lon="38.852802"><ele>100.3</ele><time>2023-08-01T02:53:49Z</time></trkpt><trkpt lat="58.04998" lon="38.85282"><ele>100.7</ele><time>2023-08-01T02:53:53Z</time></trkpt><trkpt lat="58.050073" lon="38.852832"><ele>101.3</ele><time>2023-08-01T02:53:56Z</time></trkpt><trkpt lat="58.050165" lon="38.852937"><ele>100.9</ele><time>2023-08-01T02:53:58Z</time></trkpt><trkpt lat="58.050243" lon="38.853025"><ele>99.8</ele><time>2023-08-01T02:54:00Z</time></trkpt><trkpt lat="58.05034" lon="38.852967"><ele>97.9</ele><time>2023-08-01T02:54:02Z</time></trkpt><trkpt lat="58.050433" lon="38.85283"><ele>97.9</ele><time>2023-08-01T02:54:04Z</time></trkpt><trkpt lat="58.050492" lon="38.852627"><ele>97.9</ele><time>2023-08-01T02:54:06Z</time></trkpt><trkpt lat="58.050535" lon="38.852458"><ele>96.9</ele><time>2023-08-01T02:54:08Z</time></trkpt><trkpt lat="58.050602" lon="38.852295"><ele>96.0</ele><time>2023-08-01T02:54:10Z</time></trkpt><trkpt lat="58.050657" lon="38.852123"><ele>95.8</ele><time>2023-08-01T02:54:12Z</time></trkpt><trkpt lat="58.050715" lon="38.85195"><ele>94.2</ele><time>2023-08-01T02:54:14Z</time></trkpt><trkpt lat="58.050768" lon="38.851817"><ele>93.3</ele><time>2023-08-01T02:54:16Z</time></trkpt><trkpt lat="58.050837" lon="38.851662"><ele>93.2</ele><time>2023-08-01T02:54:18Z</time></trkpt><trkpt lat="58.050907" lon="38.851485"><ele>93.9</ele><time>2023-08-01T02:54:20Z</time></trkpt><trkpt lat="58.050985" lon="38.851332"><ele>93.0</ele><time>2023-08-01T02:54:22Z</time></trkpt><trkpt lat="58.051037" lon="38.851118"><ele>92.6</ele><time>2023-08-01T02:54:24Z</time></trkpt><trkpt lat="58.051137" lon="38.850953"><ele>92.8</ele><time>2023-08-01T02:54:26Z</time></trkpt><trkpt lat="58.051195" lon="38.850788"><ele>92.0</ele><time>2023-08-01T02:54:28Z</time></trkpt><trkpt lat="58.051248" lon="38.850643"><ele>91.5</ele><time>2023-08-01T02:54:30Z</time></trkpt><trkpt lat="58.051292" lon="38.850472"><ele>91.7</ele><time>2023-08-01T02:54:32Z</time></trkpt><trkpt lat="58.051325" lon="38.850272"><ele>92.1</ele><time>2023-08-01T02:54:34Z</time></trkpt><trkpt lat="58.051393" lon="38.85008"><ele>92.2</ele><time>2023-08-01T02:54:36Z</time></trkpt><trkpt lat="58.05145" lon="38.849882"><ele>92.1</ele><time>2023-08-01T02:54:38Z</time></trkpt><trkpt lat="58.0515" lon="38.849682"><ele>91.6</ele><time>2023-08-01T02:54:40Z</time></trkpt><trkpt lat="58.051588" lon="38.849515"><ele>91.3</ele><time>2023-08-01T02:54:42Z</time></trkpt><trkpt lat="58.05165" lon="38.849332"><ele>90.8</ele><time>2023-08-01T02:54:44Z</time></trkpt><trkpt lat="58.051703" lon="38.849127"><ele>90.3</ele><time>2023-08-01T02:54:46Z</time></trkpt><trkpt lat="58.051777" lon="38.848913"><ele>90.0</ele><time>2023-08-01T02:54:48Z</time></trkpt><trkpt lat="58.051832" lon="38.848727"><ele>91.1</ele><time>2023-08-01T02:54:50Z</time></trkpt><trkpt lat="58.05187" lon="38.848515"><ele>91.5</ele><time>2023-08-01T02:54:52Z</time></trkpt><trkpt lat="58.051915" lon="38.848312"><ele>91.3</ele><time>2023-08-01T02:54:54Z</time></trkpt><trkpt lat="58.051958" lon="38.848148"><ele>91.2</ele><time>2023-08-01T02:54:56Z</time></trkpt><trkpt lat="58.051972" lon="38.847957"><ele>91.6</ele><time>2023-08-01T02:54:58Z</time></trkpt><trkpt lat="58.052008" lon="38.847743"><ele>91.2</ele><time>2023-08-01T02:55:00Z</time></trkpt><trkpt lat="58.052013" lon="38.847563"><ele>91.1</ele><time>2023-08-01T02:55:02Z</time></trkpt><trkpt lat="58.052027" lon="38.847392"><ele>91.8</ele><time>2023-08-01T02:55:04Z</time></trkpt><trkpt lat="58.05206" lon="38.847192"><ele>91.3</ele><time>2023-08-01T02:55:06Z</time></trkpt><trkpt lat="58.05209" lon="38.847027"><ele>91.0</ele><time>2023-08-01T02:55:08Z</time></trkpt><trkpt lat="58.05215" lon="38.84686"><ele>90.7</ele><time>2023-08-01T02:55:10Z</time></trkpt><trkpt lat="58.052193" lon="38.846713"><ele>90.2</ele><time>2023-08-01T02:55:12Z</time></trkpt><trkpt lat="58.052252" lon="38.846608"><ele>89.9</ele><time>2023-08-01T02:55:14Z</time></trkpt><trkpt lat="58.052293" lon="38.846453"><ele>89.0</ele><time>2023-08-01T02:55:16Z</time></trkpt><trkpt lat="58.05234" lon="38.846268"><ele>89.9</ele><time>2023-08-01T02:55:19Z</time></trkpt><trkpt lat="58.052377" lon="38.846113"><ele>90.1</ele><time>2023-08-01T02:55:21Z</time></trkpt><trkpt lat="58.0524" lon="38.845933"><ele>90.3</ele><time>2023-08-01T02:55:23Z</time></trkpt><trkpt lat="58.05241" lon="38.845763"><ele>90.0</ele><time>2023-08-01T02:55:25Z</time></trkpt><trkpt lat="58.052427" lon="38.845615"><ele>90.1</ele><time>2023-08-01T02:55:27Z</time></trkpt><trkpt lat="58.052452" lon="38.845465"><ele>89.8</ele><time>2023-08-01T02:55:29Z</time></trkpt><trkpt lat="58.052465" lon="38.84532"><ele>89.3</ele><time>2023-08-01T02:55:31Z</time></trkpt><trkpt lat="58.052498" lon="38.845157"><ele>90.8</ele><time>2023-08-01T02:55:34Z</time></trkpt><trkpt lat="58.052553" lon="38.845062"><ele>91.5</ele><time>2023-08-01T02:55:36Z</time></trkpt><trkpt lat="58.052623" lon="38.844943"><ele>91.9</ele><time>2023-08-01T02:55:38Z</time></trkpt><trkpt lat="58.052677" lon="38.844807"><ele>91.3</ele><time>2023-08-01T02:55:40Z</time></trkpt><trkpt lat="58.052727" lon="38.844673"><ele>90.9</ele><time>2023-08-01T02:55:42Z</time></trkpt><trkpt lat="58.052767" lon="38.844523"><ele>89.7</ele><time>2023-08-01T02:55:44Z</time></trkpt><trkpt lat="58.052822" lon="38.844392"><ele>89.5</ele><time>2023-08-01T02:55:46Z</time></trkpt><trkpt lat="58.052867" lon="38.844263"><ele>90.0</ele><time>2023-08-01T02:55:48Z</time></trkpt><trkpt lat="58.052928" lon="38.84411"><ele>89.7</ele><time>2023-08-01T02:55:50Z</time></trkpt><trkpt lat="58.052978" lon="38.843902"><ele>89.9</ele><time>2023-08-01T02:55:52Z</time></trkpt><trkpt lat="58.053025" lon="38.843748"><ele>90.0</ele><time>2023-08-01T02:55:54Z</time></trkpt><trkpt lat="58.053077" lon="38.843608"><ele>89.7</ele><time>2023-08-01T02:55:56Z</time></trkpt><trkpt lat="58.053117" lon="38.84344"><ele>89.4</ele><time>2023-08-01T02:55:58Z</time></trkpt><trkpt lat="58.053135" lon="38.84328"><ele>88.6</ele><time>2023-08-01T02:56:01Z</time></trkpt><trkpt lat="58.0532" lon="38.843155"><ele>88.8</ele><time>2023-08-01T02:56:03Z</time></trkpt><trkpt lat="58.053257" lon="38.843027"><ele>89.1</ele><time>2023-08-01T02:56:05Z</time></trkpt><trkpt lat="58.053312" lon="38.842917"><ele>89.6</ele><time>2023-08-01T02:56:07Z</time></trkpt><trkpt lat="58.053368" lon="38.842765"><ele>89.0</ele><time>2023-08-01T02:56:09Z</time></trkpt><trkpt lat="58.053428" lon="38.842635"><ele>89.2</ele><time>2023-08-01T02:56:11Z</time></trkpt><trkpt lat="58.053503" lon="38.84245"><ele>89.8</ele><time>2023-08-01T02:56:13Z</time></trkpt><trkpt lat="58.053607" lon="38.842127"><ele>90.1</ele><time>2023-08-01T02:56:16Z</time></trkpt><trkpt lat="58.053627" lon="38.841975"><ele>90.5</ele><time>2023-08-01T02:56:17Z</time></trkpt><trkpt lat="58.053673" lon="38.841842"><ele>90.8</ele><time>2023-08-01T02:56:18Z</time></trkpt><trkpt lat="58.053687" lon="38.841702"><ele>90.8</ele><time>2023-08-01T02:56:20Z</time></trkpt><trkpt lat="58.05375" lon="38.841608"><ele>92.3</ele><time>2023-08-01T02:56:21Z</time></trkpt><trkpt lat="58.053822" lon="38.841453"><ele>93.7</ele><time>2023-08-01T02:56:23Z</time></trkpt><trkpt lat="58.053895" lon="38.841262"><ele>93.8</ele><time>2023-08-01T02:56:25Z</time></trkpt><trkpt lat="58.05394" lon="38.841153"><ele>93.4</ele><time>2023-08-01T02:56:26Z</time></trkpt><trkpt lat="58.054002" lon="38.840957"><ele>93.5</ele><time>2023-08-01T02:56:28Z</time></trkpt><trkpt lat="58.054057" lon="38.840773"><ele>93.3</ele><time>2023-08-01T02:56:30Z</time></trkpt><trkpt lat="58.054105" lon="38.840608"><ele>93.1</ele><time>2023-08-01T02:56:32Z</time></trkpt><trkpt lat="58.054175" lon="38.840462"><ele>92.6</ele><time>2023-08-01T02:56:34Z</time></trkpt><trkpt lat="58.054228" lon="38.840333"><ele>93.8</ele><time>2023-08-01T02:56:36Z</time></trkpt><trkpt lat="58.05427" lon="38.840207"><ele>93.8</ele><time>2023-08-01T02:56:38Z</time></trkpt><trkpt lat="58.054312" lon="38.840087"><ele>94.4</ele><time>2023-08-01T02:56:40Z</time></trkpt><trkpt lat="58.054368" lon="38.839982"><ele>93.6</ele><time>2023-08-01T02:56:42Z</time></trkpt><trkpt lat="58.054435" lon="38.839857"><ele>93.7</ele><time>2023-08-01T02:56:44Z</time></trkpt><trkpt lat="58.054503" lon="38.839737"><ele>94.0</ele><time>2023-08-01T02:56:46Z</time></trkpt><trkpt lat="58.054545" lon="38.83958"><ele>94.3</ele><time>2023-08-01T02:56:48Z</time></trkpt><trkpt lat="58.054598" lon="38.839437"><ele>94.1</ele><time>2023-08-01T02:56:50Z</time></trkpt><trkpt lat="58.054633" lon="38.839273"><ele>93.8</ele><time>2023-08-01T02:56:52Z</time></trkpt><trkpt lat="58.054682" lon="38.839118"><ele>92.9</ele><time>2023-08-01T02:56:54Z</time></trkpt><trkpt lat="58.054713" lon="38.83893"><ele>92.3</ele><time>2023-08-01T02:56:56Z</time></trkpt><trkpt lat="58.054748" lon="38.838758"><ele>91.8</ele><time>2023-08-01T02:56:58Z</time></trkpt><trkpt lat="58.05479" lon="38.838598"><ele>91.6</ele><time>2023-08-01T02:57:00Z</time></trkpt><trkpt lat="58.054835" lon="38.838433"><ele>91.6</ele><time>2023-08-01T02:57:02Z</time></trkpt><trkpt lat="58.054882" lon="38.838288"><ele>91.5</ele><time>2023-08-01T02:57:04Z</time></trkpt><trkpt lat="58.054948" lon="38.838193"><ele>91.4</ele><time>2023-08-01T02:57:06Z</time></trkpt><trkpt lat="58.055002" lon="38.838058"><ele>92.2</ele><time>2023-08-01T02:57:08Z</time></trkpt><trkpt lat="58.055055" lon="38.837927"><ele>92.7</ele><time>2023-08-01T02:57:10Z</time></trkpt><trkpt lat="58.055097" lon="38.837787"><ele>92.1</ele><time>2023-08-01T02:57:12Z</time></trkpt><trkpt lat="58.05515" lon="38.83764"><ele>92.0</ele><time>2023-08-01T02:57:14Z</time></trkpt><trkpt lat="58.055197" lon="38.837497"><ele>91.5</ele><time>2023-08-01T02:57:16Z</time></trkpt><trkpt lat="58.055238" lon="38.837308"><ele>91.6</ele><time>2023-08-01T02:57:18Z</time></trkpt><trkpt lat="58.055275" lon="38.83716"><ele>90.7</ele><time>2023-08-01T02:57:20Z</time></trkpt><trkpt lat="58.055335" lon="38.836992"><ele>89.8</ele><time>2023-08-01T02:57:22Z</time></trkpt><trkpt lat="58.055387" lon="38.836878"><ele>89.7</ele><time>2023-08-01T02:57:24Z</time></trkpt><trkpt lat="58.055435" lon="38.836755"><ele>90.0</ele><time>2023-08-01T02:57:26Z</time></trkpt><trkpt lat="58.055455" lon="38.8366"><ele>90.0</ele><time>2023-08-01T02:57:28Z</time></trkpt><trkpt lat="58.055513" lon="38.836428"><ele>90.1</ele><time>2023-08-01T02:57:31Z</time></trkpt><trkpt lat="58.05556" lon="38.83629"><ele>90.0</ele><time>2023-08-01T02:57:33Z</time></trkpt><trkpt lat="58.055603" lon="38.836103"><ele>89.4</ele><time>2023-08-01T02:57:36Z</time></trkpt><trkpt lat="58.055637" lon="38.835982"><ele>89.8</ele><time>2023-08-01T02:57:38Z</time></trkpt><trkpt lat="58.055678" lon="38.835817"><ele>91.1</ele><time>2023-08-01T02:57:41Z</time></trkpt><trkpt lat="58.055722" lon="38.835648"><ele>91.6</ele><time>2023-08-01T02:57:44Z</time></trkpt><trkpt lat="58.055767" lon="38.835495"><ele>91.3</ele><time>2023-08-01T02:57:47Z</time></trkpt><trkpt lat="58.055818" lon="38.83532"><ele>91.5</ele><time>2023-08-01T02:57:50Z</time></trkpt><trkpt lat="58.055852" lon="38.835193"><ele>91.7</ele><time>2023-08-01T02:57:52Z</time></trkpt><trkpt lat="58.05589" lon="38.835075"><ele>91.7</ele><time>2023-08-01T02:57:54Z</time></trkpt><trkpt lat="58.055927" lon="38.834943"><ele>90.9</ele><time>2023-08-01T02:57:56Z</time></trkpt><trkpt lat="58.055962" lon="38.834818"><ele>91.0</ele><time>2023-08-01T02:57:58Z</time></trkpt><trkpt lat="58.056003" lon="38.834705"><ele>90.5</ele><time>2023-08-01T02:58:00Z</time></trkpt><trkpt lat="58.056043" lon="38.834588"><ele>90.6</ele><time>2023-08-01T02:58:02Z</time></trkpt><trkpt lat="58.056102" lon="38.834423"><ele>90.6</ele><time>2023-08-01T02:58:05Z</time></trkpt><trkpt lat="58.056142" lon="38.834305"><ele>91.0</ele><time>2023-08-01T02:58:07Z</time></trkpt><trkpt lat="58.056197" lon="38.834145"><ele>90.3</ele><time>2023-08-01T02:58:10Z</time></trkpt><trkpt lat="58.05625" lon="38.83399"><ele>90.7</ele><time>2023-08-01T02:58:13Z</time></trkpt><trkpt lat="58.056307" lon="38.833828"><ele>90.4</ele><time>2023-08-01T02:58:16Z</time></trkpt><trkpt lat="58.056367" lon="38.833663"><ele>89.9</ele><time>2023-08-01T02:58:19Z</time></trkpt><trkpt lat="58.056405" lon="38.833537"><ele>90.0</ele><time>2023-08-01T02:58:21Z</time></trkpt><trkpt lat="58.056442" lon="38.833415"><ele>89.4</ele><time>2023-08-01T02:58:23Z</time></trkpt><trkpt lat="58.056498" lon="38.83326"><ele>89.3</ele><time>2023-08-01T02:58:26Z</time></trkpt><trkpt lat="58.056538" lon="38.833103"><ele>89.6</ele><time>2023-08-01T02:58:29Z</time></trkpt><trkpt lat="58.056593" lon="38.832933"><ele>90.3</ele><time>2023-08-01T02:58:32Z</time></trkpt><trkpt lat="58.05664" lon="38.832815"><ele>90.0</ele><time>2023-08-01T02:58:33Z</time></trkpt><trkpt lat="58.056687" lon="38.8327"><ele>90.3</ele><time>2023-08-01T02:58:35Z</time></trkpt><trkpt lat="58.056732" lon="38.832577"><ele>90.2</ele><time>2023-08-01T02:58:37Z</time></trkpt><trkpt lat="58.056777" lon="38.832448"><ele>91.2</ele><time>2023-08-01T02:58:39Z</time></trkpt><trkpt lat="58.056822" lon="38.832335"><ele>91.8</ele><time>2023-08-01T02:58:41Z</time></trkpt><trkpt lat="58.056862" lon="38.83217"><ele>92.5</ele><time>2023-08-01T02:58:44Z</time></trkpt><trkpt lat="58.056903" lon="38.831998"><ele>91.9</ele><time>2023-08-01T02:58:47Z</time></trkpt><trkpt lat="58.05694" lon="38.831873"><ele>91.8</ele><time>2023-08-01T02:58:49Z</time></trkpt><trkpt lat="58.056987" lon="38.831743"><ele>91.4</ele><time>2023-08-01T02:58:51Z</time></trkpt><trkpt lat="58.057032" lon="38.831608"><ele>91.7</ele><time>2023-08-01T02:58:53Z</time></trkpt><trkpt lat="58.057083" lon="38.831468"><ele>92.0</ele><time>2023-08-01T02:58:55Z</time></trkpt><trkpt lat="58.057138" lon="38.831345"><ele>92.2</ele><time>2023-08-01T02:58:57Z</time></trkpt><trkpt lat="58.057197" lon="38.831263"><ele>92.7</ele><time>2023-08-01T02:58:59Z</time></trkpt><trkpt lat="58.057285" lon="38.831167"><ele>93.0</ele><time>2023-08-01T02:59:02Z</time></trkpt><trkpt lat="58.057363" lon="38.831095"><ele>92.2</ele><time>2023-08-01T02:59:05Z</time></trkpt><trkpt lat="58.057432" lon="38.831018"><ele>93.1</ele><time>2023-08-01T02:59:08Z</time></trkpt><trkpt lat="58.057495" lon="38.830905"><ele>92.8</ele><time>2023-08-01T02:59:12Z</time></trkpt><trkpt lat="58.057553" lon="38.830817"><ele>93.3</ele><time>2023-08-01T02:59:14Z</time></trkpt><trkpt lat="58.057613" lon="38.83074"><ele>93.5</ele><time>2023-08-01T02:59:16Z</time></trkpt><trkpt lat="58.057705" lon="38.830623"><ele>93.6</ele><time>2023-08-01T02:59:19Z</time></trkpt><trkpt lat="58.057768" lon="38.830515"><ele>93.0</ele><time>2023-08-01T02:59:21Z</time></trkpt><trkpt lat="58.057802" lon="38.830392"><ele>92.5</ele><time>2023-08-01T02:59:23Z</time></trkpt><trkpt lat="58.057787" lon="38.830242"><ele>92.9</ele><time>2023-08-01T02:59:25Z</time></trkpt><trkpt lat="58.057762" lon="38.830103"><ele>94.0</ele><time>2023-08-01T02:59:27Z</time></trkpt><trkpt lat="58.057732" lon="38.829925"><ele>94.2</ele><time>2023-08-01T02:59:30Z</time></trkpt><trkpt lat="58.057732" lon="38.829748"><ele>94.5</ele><time>2023-08-01T02:59:34Z</time></trkpt><trkpt lat="58.05776" lon="38.829617"><ele>94.8</ele><time>2023-08-01T02:59:37Z</time></trkpt><trkpt lat="58.0578" lon="38.829465"><ele>95.0</ele><time>2023-08-01T02:59:41Z</time></trkpt><trkpt lat="58.057853" lon="38.829338"><ele>94.5</ele><time>2023-08-01T02:59:45Z</time></trkpt><trkpt lat="58.05791" lon="38.829218"><ele>94.9</ele><time>2023-08-01T02:59:49Z</time></trkpt><trkpt lat="58.057955" lon="38.829085"><ele>95.0</ele><time>2023-08-01T02:59:53Z</time></trkpt><trkpt lat="58.058015" lon="38.828973"><ele>94.9</ele><time>2023-08-01T02:59:57Z</time></trkpt><trkpt lat="58.058047" lon="38.828843"><ele>95.3</ele><time>2023-08-01T03:00:00Z</time></trkpt><trkpt lat="58.058073" lon="38.828717"><ele>95.5</ele><time>2023-08-01T03:00:03Z</time></trkpt><trkpt lat="58.058108" lon="38.828598"><ele>95.5</ele><time>2023-08-01T03:00:06Z</time></trkpt><trkpt lat="58.058107" lon="38.828443"><ele>95.6</ele><time>2023-08-01T03:00:10Z</time></trkpt><trkpt lat="58.058072" lon="38.828293"><ele>95.3</ele><time>2023-08-01T03:00:14Z</time></trkpt><trkpt lat="58.058048" lon="38.828117"><ele>95.1</ele><time>2023-08-01T03:00:18Z</time></trkpt><trkpt lat="58.058013" lon="38.827957"><ele>95.3</ele><time>2023-08-01T03:00:22Z</time></trkpt><trkpt lat="58.057983" lon="38.827815"><ele>95.6</ele><time>2023-08-01T03:00:26Z</time></trkpt><trkpt lat="58.057973" lon="38.827668"><ele>95.2</ele><time>2023-08-01T03:00:33Z</time></trkpt><trkpt lat="58.057973" lon="38.827512"><ele>94.4</ele><time>2023-08-01T03:00:39Z</time></trkpt><trkpt lat="58.057892" lon="38.827523"><ele>94.1</ele><time>2023-08-01T03:00:50Z</time></trkpt><trkpt lat="58.057883" lon="38.827667"><ele>94.9</ele><time>2023-08-01T03:00:55Z</time></trkpt><trkpt lat="58.05794" lon="38.827763"><ele>94.8</ele><time>2023-08-01T03:01:01Z</time></trkpt><trkpt lat="58.057897" lon="38.82763"><ele>95.2</ele><time>2023-08-01T03:01:54Z</time></trkpt><trkpt lat="58.057917" lon="38.827488"><ele>94.8</ele><time>2023-08-01T03:02:00Z</time></trkpt><trkpt lat="58.05797" lon="38.82738"><ele>95.1</ele><time>2023-08-01T03:02:07Z</time></trkpt><trkpt lat="58.058015" lon="38.827242"><ele>95.0</ele><time>2023-08-01T03:02:14Z</time></trkpt><trkpt lat="58.058" lon="38.827098"><ele>94.7</ele><time>2023-08-01T03:02:19Z</time></trkpt><trkpt lat="58.057938" lon="38.827007"><ele>95.1</ele><time>2023-08-01T03:02:23Z</time></trkpt><trkpt lat="58.057875" lon="38.826918"><ele>95.7</ele><time>2023-08-01T03:02:27Z</time></trkpt><trkpt lat="58.05783" lon="38.826807"><ele>95.2</ele><time>2023-08-01T03:02:31Z</time></trkpt><trkpt lat="58.057873" lon="38.826687"><ele>95.9</ele><time>2023-08-01T03:02:35Z</time></trkpt><trkpt lat="58.057943" lon="38.826583"><ele>95.8</ele><time>2023-08-01T03:02:39Z</time></trkpt><trkpt lat="58.058003" lon="38.82648"><ele>96.1</ele><time>2023-08-01T03:02:42Z</time></trkpt><trkpt lat="58.058067" lon="38.826377"><ele>96.6</ele><time>2023-08-01T03:02:45Z</time></trkpt><trkpt lat="58.05813" lon="38.82628"><ele>96.6</ele><time>2023-08-01T03:02:49Z</time></trkpt><trkpt lat="58.058198" lon="38.826162"><ele>96.4</ele><time>2023-08-01T03:02:53Z</time></trkpt><trkpt lat="58.058248" lon="38.826055"><ele>97.1</ele><time>2023-08-01T03:02:56Z</time></trkpt><trkpt lat="58.05831" lon="38.825955"><ele>96.9</ele><time>2023-08-01T03:03:00Z</time></trkpt><trkpt lat="58.058363" lon="38.825837"><ele>96.6</ele><time>2023-08-01T03:03:04Z</time></trkpt><trkpt lat="58.058418" lon="38.825718"><ele>95.9</ele><time>2023-08-01T03:03:08Z</time></trkpt><trkpt lat="58.05847" lon="38.825612"><ele>97.2</ele><time>2023-08-01T03:03:12Z</time></trkpt><trkpt lat="58.058518" lon="38.825483"><ele>96.9</ele><time>2023-08-01T03:03:15Z</time></trkpt><trkpt lat="58.058572" lon="38.82534"><ele>97.1</ele><time>2023-08-01T03:03:18Z</time></trkpt><trkpt lat="58.05865" lon="38.825215"><ele>97.5</ele><time>2023-08-01T03:03:21Z</time></trkpt><trkpt lat="58.058718" lon="38.825095"><ele>97.8</ele><time>2023-08-01T03:03:24Z</time></trkpt><trkpt lat="58.058777" lon="38.82499"><ele>98.1</ele><time>2023-08-01T03:03:27Z</time></trkpt><trkpt lat="58.05883" lon="38.824878"><ele>97.5</ele><time>2023-08-01T03:03:30Z</time></trkpt><trkpt lat="58.05889" lon="38.824735"><ele>96.7</ele><time>2023-08-01T03:03:34Z</time></trkpt><trkpt lat="58.058943" lon="38.824597"><ele>96.8</ele><time>2023-08-01T03:03:38Z</time></trkpt><trkpt lat="58.058992" lon="38.824473"><ele>96.7</ele><time>2023-08-01T03:03:42Z</time></trkpt><trkpt lat="58.05904" lon="38.82436"><ele>96.8</ele><time>2023-08-01T03:03:46Z</time></trkpt><trkpt lat="58.059103" lon="38.824225"><ele>95.8</ele><time>2023-08-01T03:03:50Z</time></trkpt><trkpt lat="58.05916" lon="38.82412"><ele>96.2</ele><time>2023-08-01T03:03:53Z</time></trkpt><trkpt lat="58.059227" lon="38.823995"><ele>96.7</ele><time>2023-08-01T03:03:57Z</time></trkpt><trkpt lat="58.05928" lon="38.823882"><ele>96.4</ele><time>2023-08-01T03:04:00Z</time></trkpt><trkpt lat="58.059343" lon="38.82375"><ele>96.5</ele><time>2023-08-01T03:04:03Z</time></trkpt><trkpt lat="58.059398" lon="38.823658"><ele>96.6</ele><time>2023-08-01T03:04:05Z</time></trkpt><trkpt lat="58.059448" lon="38.823558"><ele>96.8</ele><time>2023-08-01T03:04:07Z</time></trkpt><trkpt lat="58.0595" lon="38.823437"><ele>96.7</ele><time>2023-08-01T03:04:09Z</time></trkpt><trkpt lat="58.059552" lon="38.823313"><ele>97.1</ele><time>2023-08-01T03:04:11Z</time></trkpt><trkpt lat="58.059595" lon="38.823198"><ele>97.0</ele><time>2023-08-01T03:04:13Z</time></trkpt><trkpt lat="58.059633" lon="38.823043"><ele>97.0</ele><time>2023-08-01T03:04:16Z</time></trkpt><trkpt lat="58.05965" lon="38.822893"><ele>98.2</ele><time>2023-08-01T03:04:19Z</time></trkpt><trkpt lat="58.059658" lon="38.822717"><ele>98.4</ele><time>2023-08-01T03:04:22Z</time></trkpt><trkpt lat="58.059673" lon="38.82254"><ele>98.9</ele><time>2023-08-01T03:04:25Z</time></trkpt><trkpt lat="58.059678" lon="38.822343"><ele>98.7</ele><time>2023-08-01T03:04:28Z</time></trkpt><trkpt lat="58.059677" lon="38.822182"><ele>99.0</ele><time>2023-08-01T03:04:31Z</time></trkpt><trkpt lat="58.059677" lon="38.822038"><ele>98.5</ele><time>2023-08-01T03:04:34Z</time></trkpt><trkpt lat="58.059692" lon="38.82187"><ele>98.1</ele><time>2023-08-01T03:04:37Z</time></trkpt><trkpt lat="58.059702" lon="38.821712"><ele>98.9</ele><time>2023-08-01T03:04:40Z</time></trkpt><trkpt lat="58.059705" lon="38.821555"><ele>99.4</ele><time>2023-08-01T03:04:43Z</time></trkpt><trkpt lat="58.059718" lon="38.821403"><ele>101.1</ele><time>2023-08-01T03:04:46Z</time></trkpt><trkpt lat="58.059737" lon="38.82125"><ele>100.4</ele><time>2023-08-01T03:04:49Z</time></trkpt><trkpt lat="58.059743" lon="38.821097"><ele>100.8</ele><time>2023-08-01T03:04:53Z</time></trkpt><trkpt lat="58.059745" lon="38.820937"><ele>100.7</ele><time>2023-08-01T03:04:56Z</time></trkpt><trkpt lat="58.059758" lon="38.820803"><ele>100.5</ele><time>2023-08-01T03:04:59Z</time></trkpt><trkpt lat="58.059768" lon="38.820657"><ele>100.7</ele><time>2023-08-01T03:05:02Z</time></trkpt><trkpt lat="58.05978" lon="38.820485"><ele>100.6</ele><time>2023-08-01T03:05:05Z</time></trkpt><trkpt lat="58.059795" lon="38.82034"><ele>100.9</ele><time>2023-08-01T03:05:08Z</time></trkpt><trkpt lat="58.059812" lon="38.820172"><ele>100.4</ele><time>2023-08-01T03:05:12Z</time></trkpt><trkpt lat="58.059828" lon="38.820035"><ele>100.0</ele><time>2023-08-01T03:05:15Z</time></trkpt><trkpt lat="58.059845" lon="38.819888"><ele>100.2</ele><time>2023-08-01T03:05:18Z</time></trkpt><trkpt lat="58.059867" lon="38.81972"><ele>100.8</ele><time>2023-08-01T03:05:22Z</time></trkpt><trkpt lat="58.059883" lon="38.819555"><ele>100.7</ele><time>2023-08-01T03:05:26Z</time></trkpt><trkpt lat="58.059888" lon="38.819398"><ele>100.0</ele><time>2023-08-01T03:05:29Z</time></trkpt><trkpt lat="58.059888" lon="38.819243"><ele>99.8</ele><time>2023-08-01T03:05:32Z</time></trkpt><trkpt lat="58.059893" lon="38.819073"><ele>99.7</ele><time>2023-08-01T03:05:35Z</time></trkpt><trkpt lat="58.059892" lon="38.81892"><ele>99.4</ele><time>2023-08-01T03:05:38Z</time></trkpt><trkpt lat="58.0599" lon="38.81874"><ele>100.2</ele><time>2023-08-01T03:05:42Z</time></trkpt><trkpt lat="58.05991" lon="38.818588"><ele>101.0</ele><time>2023-08-01T03:05:44Z</time></trkpt><trkpt lat="58.059923" lon="38.818448"><ele>100.6</ele><time>2023-08-01T03:05:47Z</time></trkpt><trkpt lat="58.059925" lon="38.818278"><ele>100.2</ele><time>2023-08-01T03:05:51Z</time></trkpt><trkpt lat="58.059928" lon="38.818132"><ele>100.7</ele><time>2023-08-01T03:05:54Z</time></trkpt><trkpt lat="58.059933" lon="38.81799"><ele>100.4</ele><time>2023-08-01T03:05:57Z</time></trkpt><trkpt lat="58.059945" lon="38.817838"><ele>100.8</ele><time>2023-08-01T03:06:00Z</time></trkpt><trkpt lat="58.059935" lon="38.817678"><ele>100.7</ele><time>2023-08-01T03:06:04Z</time></trkpt><trkpt lat="58.059948" lon="38.817512"><ele>100.9</ele><time>2023-08-01T03:06:08Z</time></trkpt><trkpt lat="58.059963" lon="38.81734"><ele>101.1</ele><time>2023-08-01T03:06:11Z</time></trkpt><trkpt lat="58.059972" lon="38.817163"><ele>100.9</ele><time>2023-08-01T03:06:14Z</time></trkpt><trkpt lat="58.059978" lon="38.817008"><ele>101.0</ele><time>2023-08-01T03:06:17Z</time></trkpt><trkpt lat="58.059995" lon="38.816873"><ele>101.5</ele><time>2023-08-01T03:06:20Z</time></trkpt><trkpt lat="58.060017" lon="38.816708"><ele>101.3</ele><time>2023-08-01T03:06:26Z</time></trkpt><trkpt lat="58.060038" lon="38.816545"><ele>101.8</ele><time>2023-08-01T03:06:31Z</time></trkpt><trkpt lat="58.060047" lon="38.8164"><ele>102.3</ele><time>2023-08-01T03:06:35Z</time></trkpt><trkpt lat="58.060037" lon="38.816233"><ele>102.7</ele><time>2023-08-01T03:06:39Z</time></trkpt><trkpt lat="58.06004" lon="38.81606"><ele>103.0</ele><time>2023-08-01T03:06:43Z</time></trkpt><trkpt lat="58.060043" lon="38.815913"><ele>103.3</ele><time>2023-08-01T03:06:47Z</time></trkpt><trkpt lat="58.060052" lon="38.815768"><ele>103.4</ele><time>2023-08-01T03:06:51Z</time></trkpt><trkpt lat="58.060063" lon="38.81561"><ele>103.5</ele><time>2023-08-01T03:06:55Z</time></trkpt><trkpt lat="58.060082" lon="38.815478"><ele>103.9</ele><time>2023-08-01T03:06:58Z</time></trkpt><trkpt lat="58.060098" lon="38.815318"><ele>103.9</ele><time>2023-08-01T03:07:02Z</time></trkpt><trkpt lat="58.060112" lon="38.815163"><ele>103.7</ele><time>2023-08-01T03:07:06Z</time></trkpt><trkpt lat="58.060118" lon="38.815002"><ele>103.5</ele><time>2023-08-01T03:07:11Z</time></trkpt><trkpt lat="58.060118" lon="38.814823"><ele>103.8</ele><time>2023-08-01T03:07:15Z</time></trkpt><trkpt lat="58.060113" lon="38.814665"><ele>103.7</ele><time>2023-08-01T03:07:19Z</time></trkpt><trkpt lat="58.06013" lon="38.814525"><ele>103.4</ele><time>2023-08-01T03:07:23Z</time></trkpt><trkpt lat="58.060158" lon="38.814382"><ele>103.1</ele><time>2023-08-01T03:07:26Z</time></trkpt><trkpt lat="58.060163" lon="38.81422"><ele>102.7</ele><time>2023-08-01T03:07:29Z</time></trkpt><trkpt lat="58.060167" lon="38.81408"><ele>102.9</ele><time>2023-08-01T03:07:32Z</time></trkpt><trkpt lat="58.06017" lon="38.813937"><ele>103.1</ele><time>2023-08-01T03:07:35Z</time></trkpt><trkpt lat="58.060175" lon="38.813775"><ele>103.4</ele><time>2023-08-01T03:07:38Z</time></trkpt><trkpt lat="58.060187" lon="38.813602"><ele>104.0</ele><time>2023-08-01T03:07:41Z</time></trkpt><trkpt lat="58.060197" lon="38.813433"><ele>104.0</ele><time>2023-08-01T03:07:44Z</time></trkpt><trkpt lat="58.060227" lon="38.813292"><ele>104.0</ele><time>2023-08-01T03:07:47Z</time></trkpt><trkpt lat="58.06023" lon="38.813115"><ele>104.5</ele><time>2023-08-01T03:07:51Z</time></trkpt><trkpt lat="58.060232" lon="38.812945"><ele>104.6</ele><time>2023-08-01T03:07:54Z</time></trkpt><trkpt lat="58.060232" lon="38.812807"><ele>104.4</ele><time>2023-08-01T03:07:57Z</time></trkpt><trkpt lat="58.060247" lon="38.812632"><ele>104.0</ele><time>2023-08-01T03:08:01Z</time></trkpt><trkpt lat="58.060247" lon="38.812485"><ele>104.0</ele><time>2023-08-01T03:08:04Z</time></trkpt><trkpt lat="58.060242" lon="38.812322"><ele>103.7</ele><time>2023-08-01T03:08:08Z</time></trkpt><trkpt lat="58.060257" lon="38.812168"><ele>103.8</ele><time>2023-08-01T03:08:11Z</time></trkpt><trkpt lat="58.060292" lon="38.812007"><ele>104.2</ele><time>2023-08-01T03:08:15Z</time></trkpt><trkpt lat="58.060303" lon="38.811858"><ele>104.3</ele><time>2023-08-01T03:08:18Z</time></trkpt><trkpt lat="58.060322" lon="38.8117"><ele>104.8</ele><time>2023-08-01T03:08:21Z</time></trkpt><trkpt lat="58.060313" lon="38.81154"><ele>105.0</ele><time>2023-08-01T03:08:24Z</time></trkpt><trkpt lat="58.060227" lon="38.811435"><ele>105.2</ele><time>2023-08-01T03:08:27Z</time></trkpt><trkpt lat="58.060183" lon="38.811257"><ele>104.7</ele><time>2023-08-01T03:08:30Z</time></trkpt><trkpt lat="58.060192" lon="38.811062"><ele>104.6</ele><time>2023-08-01T03:08:33Z</time></trkpt><trkpt lat="58.060217" lon="38.810905"><ele>104.3</ele><time>2023-08-01T03:08:36Z</time></trkpt><trkpt lat="58.060235" lon="38.810757"><ele>104.1</ele><time>2023-08-01T03:08:39Z</time></trkpt><trkpt lat="58.060247" lon="38.810597"><ele>104.2</ele><time>2023-08-01T03:08:42Z</time></trkpt><trkpt lat="58.060252" lon="38.810418"><ele>104.1</ele><time>2023-08-01T03:08:46Z</time></trkpt><trkpt lat="58.060265" lon="38.810272"><ele>103.4</ele><time>2023-08-01T03:08:50Z</time></trkpt><trkpt lat="58.060272" lon="38.810113"><ele>103.4</ele><time>2023-08-01T03:08:54Z</time></trkpt><trkpt lat="58.060278" lon="38.809933"><ele>102.8</ele><time>2023-08-01T03:08:58Z</time></trkpt><trkpt lat="58.060268" lon="38.809775"><ele>102.6</ele><time>2023-08-01T03:09:02Z</time></trkpt><trkpt lat="58.060268" lon="38.809627"><ele>103.1</ele><time>2023-08-01T03:09:06Z</time></trkpt><trkpt lat="58.060288" lon="38.80947"><ele>103.2</ele><time>2023-08-01T03:09:10Z</time></trkpt><trkpt lat="58.060308" lon="38.809292"><ele>103.9</ele><time>2023-08-01T03:09:14Z</time></trkpt><trkpt lat="58.060325" lon="38.809153"><ele>103.6</ele><time>2023-08-01T03:09:17Z</time></trkpt><trkpt lat="58.060328" lon="38.809003"><ele>103.2</ele><time>2023-08-01T03:09:20Z</time></trkpt><trkpt lat="58.060337" lon="38.808843"><ele>103.7</ele><time>2023-08-01T03:09:24Z</time></trkpt><trkpt lat="58.060352" lon="38.808665"><ele>104.5</ele><time>2023-08-01T03:09:28Z</time></trkpt><trkpt lat="58.060377" lon="38.808535"><ele>104.3</ele><time>2023-08-01T03:09:31Z</time></trkpt><trkpt lat="58.060368" lon="38.808378"><ele>104.9</ele><time>2023-08-01T03:09:34Z</time></trkpt><trkpt lat="58.060362" lon="38.808238"><ele>104.5</ele><time>2023-08-01T03:09:37Z</time></trkpt><trkpt lat="58.060375" lon="38.808065"><ele>104.8</ele><time>2023-08-01T03:09:41Z</time></trkpt><trkpt lat="58.06038" lon="38.807918"><ele>104.2</ele><time>2023-08-01T03:09:44Z</time></trkpt><trkpt lat="58.060332" lon="38.807812"><ele>104.3</ele><time>2023-08-01T03:09:49Z</time></trkpt><trkpt lat="58.06023" lon="38.807795"><ele>104.4</ele><time>2023-08-01T03:09:52Z</time></trkpt><trkpt lat="58.060135" lon="38.80779"><ele>104.9</ele><time>2023-08-01T03:09:55Z</time></trkpt><trkpt lat="58.060052" lon="38.807772"><ele>105.2</ele><time>2023-08-01T03:09:58Z</time></trkpt><trkpt lat="58.059953" lon="38.807747"><ele>104.9</ele><time>2023-08-01T03:10:02Z</time></trkpt><trkpt lat="58.05988" lon="38.807725"><ele>104.9</ele><time>2023-08-01T03:10:05Z</time></trkpt><trkpt lat="58.059797" lon="38.807732"><ele>104.7</ele><time>2023-08-01T03:10:08Z</time></trkpt><trkpt lat="58.059703" lon="38.80772"><ele>105.7</ele><time>2023-08-01T03:10:11Z</time></trkpt><trkpt lat="58.059613" lon="38.807707"><ele>105.6</ele><time>2023-08-01T03:10:14Z</time></trkpt><trkpt lat="58.05954" lon="38.807667"><ele>105.5</ele><time>2023-08-01T03:10:17Z</time></trkpt><trkpt lat="58.059463" lon="38.807647"><ele>105.6</ele><time>2023-08-01T03:10:21Z</time></trkpt><trkpt lat="58.059375" lon="38.807655"><ele>106.5</ele><time>2023-08-01T03:10:26Z</time></trkpt><trkpt lat="58.059307" lon="38.807598"><ele>107.1</ele><time>2023-08-01T03:10:29Z</time></trkpt><trkpt lat="58.059218" lon="38.807548"><ele>107.4</ele><time>2023-08-01T03:10:33Z</time></trkpt><trkpt lat="58.059122" lon="38.807505"><ele>107.8</ele><time>2023-08-01T03:10:37Z</time></trkpt><trkpt lat="58.05903" lon="38.807482"><ele>108.0</ele><time>2023-08-01T03:10:40Z</time></trkpt><trkpt lat="58.05895" lon="38.807442"><ele>108.2</ele><time>2023-08-01T03:10:43Z</time></trkpt><trkpt lat="58.058875" lon="38.807442"><ele>108.2</ele><time>2023-08-01T03:10:47Z</time></trkpt><trkpt lat="58.058787" lon="38.80746"><ele>107.8</ele><time>2023-08-01T03:10:51Z</time></trkpt><trkpt lat="58.058705" lon="38.807473"><ele>107.8</ele><time>2023-08-01T03:10:55Z</time></trkpt><trkpt lat="58.058663" lon="38.80762"><ele>107.1</ele><time>2023-08-01T03:11:00Z</time></trkpt></trkseg></trk></gpx>