<?xml version="1.0" encoding="UTF-8" standalone="no"?><gpx xmlns="http://www.topografix.com/GPX/1/1" xmlns:gpxtpx="http://www.garmin.com/xmlschemas/TrackPointExtension/v1" xmlns:xsi="http://www.w3.org/2001/XMLSchema-instance" creator="Sports Tracker" version="1.1" xsi:schemaLocation="http://www.topografix.com/GPX/1/1 http://www.topografix.com/GPX/1/1/gpx.xsd http://www.garmin.com/xmlschemas/TrackPointExtension/v1 http://www.garmin.com/xmlschemas/TrackPointExtensionv1.xsd"><metadata><name>24.01.2024 07:54</name><desc/><author><name>Александр</name></author></metadata><trk><name>24.01.2024 07:54</name><trkseg><trkpt lat="58.05874" lon="38.811015"><ele>106.4</ele><time>2024-01-24T04:54:15Z</time></trkpt><trkpt lat="58.05874" lon="38.811015"><ele>106.4</ele><time>2024-01-24T04:56:29Z</time></trkpt><trkpt lat="58.058812" lon="38.81105"><ele>110.3</ele><time>2024-01-24T04:56:31Z</time></trkpt><trkpt lat="58.058825" lon="38.81121"><ele>115.0</ele><time>2024-01-24T04:56:35Z</time></trkpt><trkpt lat="58.058777" lon="38.811312"><ele>118.8</ele><time>2024-01-24T04:56:39Z</time></trkpt><trkpt lat="58.05875" lon="38.811447"><ele>115.5</ele><time>2024-01-24T04:56:46Z</time></trkpt><trkpt lat="58.05871" lon="38.811562"><ele>117.3</ele><time>2024-01-24T04:56:50Z</time></trkpt><trkpt lat="58.05874" lon="38.811757"><ele>119.2</ele><time>2024-01-24T04:56:56Z</time></trkpt><trkpt lat="58.058735" lon="38.811945"><ele>118.9</ele><time>2024-01-24T04:56:59Z</time></trkpt><trkpt lat="58.058773" lon="38.8121"><ele>116.0</ele><time>2024-01-24T04:57:03Z</time></trkpt><trkpt lat="58.058807" lon="38.812235"><ele>116.3</ele><time>2024-01-24T04:57:08Z</time></trkpt><trkpt lat="58.05878" lon="38.812377"><ele>120.0</ele><time>2024-01-24T04:57:14Z</time></trkpt><trkpt lat="58.05873" lon="38.812597"><ele>119.2</ele><time>2024-01-24T04:57:19Z</time></trkpt><trkpt lat="58.05868" lon="38.81277"><ele>119.1</ele><time>2024-01-24T04:57:21Z</time></trkpt><trkpt lat="58.058725" lon="38.81264"><ele>118.3</ele><time>2024-01-24T04:57:22Z</time></trkpt><trkpt lat="58.058715" lon="38.8128"><ele>117.0</ele><time>2024-01-24T04:57:28Z</time></trkpt><trkpt lat="58.05873" lon="38.812935"><ele>117.2</ele><time>2024-01-24T04:57:31Z</time></trkpt><trkpt lat="58.058735" lon="38.813115"><ele>118.7</ele><time>2024-01-24T04:57:36Z</time></trkpt><trkpt lat="58.058792" lon="38.81322"><ele>118.8</ele><time>2024-01-24T04:57:40Z</time></trkpt><trkpt lat="58.058905" lon="38.813155"><ele>118.7</ele><time>2024-01-24T04:57:47Z</time></trkpt><trkpt lat="58.058975" lon="38.813257"><ele>118.3</ele><time>2024-01-24T04:57:54Z</time></trkpt><trkpt lat="58.059045" lon="38.813352"><ele>120.5</ele><time>2024-01-24T04:57:59Z</time></trkpt><trkpt lat="58.059072" lon="38.813445"><ele>123.1</ele><time>2024-01-24T04:58:06Z</time></trkpt><trkpt lat="58.059135" lon="38.813537"><ele>121.0</ele><time>2024-01-24T04:58:12Z</time></trkpt><trkpt lat="58.05921" lon="38.813545"><ele>120.1</ele><time>2024-01-24T04:58:17Z</time></trkpt><trkpt lat="58.059285" lon="38.81355"><ele>118.1</ele><time>2024-01-24T04:58:22Z</time></trkpt><trkpt lat="58.059365" lon="38.813555"><ele>116.4</ele><time>2024-01-24T04:58:28Z</time></trkpt><trkpt lat="58.059435" lon="38.81356"><ele>116.6</ele><time>2024-01-24T04:58:33Z</time></trkpt><trkpt lat="58.05951" lon="38.8136"><ele>116.5</ele><time>2024-01-24T04:58:38Z</time></trkpt><trkpt lat="58.059575" lon="38.8137"><ele>116.8</ele><time>2024-01-24T04:58:43Z</time></trkpt><trkpt lat="58.05965" lon="38.81378"><ele>117.9</ele><time>2024-01-24T04:58:47Z</time></trkpt><trkpt lat="58.059725" lon="38.813817"><ele>117.6</ele><time>2024-01-24T04:58:51Z</time></trkpt><trkpt lat="58.05981" lon="38.813802"><ele>117.6</ele><time>2024-01-24T04:58:56Z</time></trkpt><trkpt lat="58.059877" lon="38.81374"><ele>111.8</ele><time>2024-01-24T04:59:02Z</time></trkpt><trkpt lat="58.059885" lon="38.81357"><ele>112.1</ele><time>2024-01-24T04:59:06Z</time></trkpt><trkpt lat="58.059895" lon="38.813415"><ele>109.4</ele><time>2024-01-24T04:59:11Z</time></trkpt><trkpt lat="58.05984" lon="38.813315"><ele>109.4</ele><time>2024-01-24T04:59:15Z</time></trkpt><trkpt lat="58.059765" lon="38.813325"><ele>110.2</ele><time>2024-01-24T04:59:20Z</time></trkpt></trkseg></trk></gpx>