<?xml version="1.0" encoding="UTF-8" standalone="no"?><gpx xmlns="http://www.topografix.com/GPX/1/1" xmlns:gpxtpx="http://www.garmin.com/xmlschemas/TrackPointExtension/v1" xmlns:xsi="http://www.w3.org/2001/XMLSchema-instance" creator="Sports Tracker" version="1.1" xsi:schemaLocation="http://www.topografix.com/GPX/1/1 http://www.topografix.com/GPX/1/1/gpx.xsd http://www.garmin.com/xmlschemas/TrackPointExtension/v1 http://www.garmin.com/xmlschemas/TrackPointExtensionv1.xsd"><metadata><name>09.01.2024 08:43</name><desc>Восстановлено автоматически</desc><author><name>Александр</name></author></metadata><trk><name>09.01.2024 08:43</name><trkseg><trkpt lat="58.058835" lon="38.807828"><ele>107.4</ele><time>2024-01-09T05:43:14Z</time></trkpt><trkpt lat="58.058835" lon="38.807828"><ele>107.4</ele><time>2024-01-09T05:43:29Z</time></trkpt><trkpt lat="58.05874" lon="38.80795"><ele>114.9</ele><time>2024-01-09T05:43:34Z</time></trkpt><trkpt lat="58.058682" lon="38.808117"><ele>116.0</ele><time>2024-01-09T05:43:36Z</time></trkpt><trkpt lat="58.058625" lon="38.80822"><ele>113.1</ele><time>2024-01-09T05:43:43Z</time></trkpt><trkpt lat="58.058537" lon="38.808185"><ele>112.9</ele><time>2024-01-09T05:43:45Z</time></trkpt><trkpt lat="58.058495" lon="38.808037"><ele>112.1</ele><time>2024-01-09T05:43:47Z</time></trkpt><trkpt lat="58.058455" lon="38.80792"><ele>114.6</ele><time>2024-01-09T05:43:50Z</time></trkpt><trkpt lat="58.05845" lon="38.80806"><ele>110.0</ele><time>2024-01-09T05:43:54Z</time></trkpt><trkpt lat="58.05846" lon="38.808215"><ele>109.9</ele><time>2024-01-09T05:44:01Z</time></trkpt><trkpt lat="58.058455" lon="38.808385"><ele>103.3</ele><time>2024-01-09T05:44:05Z</time></trkpt><trkpt lat="58.05842" lon="38.808512"><ele>105.1</ele><time>2024-01-09T05:44:10Z</time></trkpt><trkpt lat="58.058427" lon="38.80864"><ele>101.3</ele><time>2024-01-09T05:44:17Z</time></trkpt><trkpt lat="58.058425" lon="38.808792"><ele>99.3</ele><time>2024-01-09T05:44:21Z</time></trkpt><trkpt lat="58.058415" lon="38.80894"><ele>96.5</ele><time>2024-01-09T05:44:26Z</time></trkpt><trkpt lat="58.058435" lon="38.809095"><ele>97.9</ele><time>2024-01-09T05:44:31Z</time></trkpt><trkpt lat="58.058455" lon="38.809295"><ele>103.2</ele><time>2024-01-09T05:44:34Z</time></trkpt><trkpt lat="58.058467" lon="38.809457"><ele>104.0</ele><time>2024-01-09T05:44:36Z</time></trkpt><trkpt lat="58.058477" lon="38.809635"><ele>105.8</ele><time>2024-01-09T05:44:38Z</time></trkpt><trkpt lat="58.0585" lon="38.809765"><ele>106.4</ele><time>2024-01-09T05:44:40Z</time></trkpt><trkpt lat="58.05854" lon="38.8099"><ele>104.5</ele><time>2024-01-09T05:44:42Z</time></trkpt><trkpt lat="58.058597" lon="38.810035"><ele>106.5</ele><time>2024-01-09T05:44:45Z</time></trkpt><trkpt lat="58.058625" lon="38.810175"><ele>108.6</ele><time>2024-01-09T05:44:49Z</time></trkpt><trkpt lat="58.058625" lon="38.81031"><ele>110.6</ele><time>2024-01-09T05:44:53Z</time></trkpt><trkpt lat="58.058633" lon="38.81047"><ele>110.8</ele><time>2024-01-09T05:44:58Z</time></trkpt><trkpt lat="58.058632" lon="38.810625"><ele>112.0</ele><time>2024-01-09T05:45:03Z</time></trkpt><trkpt lat="58.058645" lon="38.810765"><ele>112.7</ele><time>2024-01-09T05:45:08Z</time></trkpt><trkpt lat="58.058667" lon="38.810905"><ele>112.9</ele><time>2024-01-09T05:45:12Z</time></trkpt><trkpt lat="58.058742" lon="38.810987"><ele>111.0</ele><time>2024-01-09T05:45:17Z</time></trkpt><trkpt lat="58.058825" lon="38.81103"><ele>111.5</ele><time>2024-01-09T05:45:22Z</time></trkpt><trkpt lat="58.05881" lon="38.81118"><ele>111.9</ele><time>2024-01-09T05:45:27Z</time></trkpt><trkpt lat="58.058805" lon="38.811335"><ele>113.1</ele><time>2024-01-09T05:45:32Z</time></trkpt><trkpt lat="58.058875" lon="38.811377"><ele>114.1</ele><time>2024-01-09T05:45:36Z</time></trkpt><trkpt lat="58.05895" lon="38.81142"><ele>113.6</ele><time>2024-01-09T05:45:41Z</time></trkpt><trkpt lat="58.05902" lon="38.811447"><ele>114.1</ele><time>2024-01-09T05:45:46Z</time></trkpt><trkpt lat="58.05911" lon="38.81145"><ele>113.0</ele><time>2024-01-09T05:45:51Z</time></trkpt><trkpt lat="58.059185" lon="38.811452"><ele>112.2</ele><time>2024-01-09T05:45:56Z</time></trkpt><trkpt lat="58.05921" lon="38.811565"><ele>112.5</ele><time>2024-01-09T05:46:03Z</time></trkpt><trkpt lat="58.05923" lon="38.811705"><ele>115.0</ele><time>2024-01-09T05:46:09Z</time></trkpt><trkpt lat="58.059277" lon="38.811842"><ele>115.5</ele><time>2024-01-09T05:46:14Z</time></trkpt><trkpt lat="58.059355" lon="38.811875"><ele>116.7</ele><time>2024-01-09T05:46:18Z</time></trkpt><trkpt lat="58.05944" lon="38.811885"><ele>117.8</ele><time>2024-01-09T05:46:23Z</time></trkpt><trkpt lat="58.059515" lon="38.811903"><ele>117.2</ele><time>2024-01-09T05:46:28Z</time></trkpt><trkpt lat="58.059595" lon="38.811915"><ele>118.9</ele><time>2024-01-09T05:46:32Z</time></trkpt><trkpt lat="58.059667" lon="38.81197"><ele>118.3</ele><time>2024-01-09T05:46:37Z</time></trkpt><trkpt lat="58.059725" lon="38.812055"><ele>118.2</ele><time>2024-01-09T05:46:42Z</time></trkpt><trkpt lat="58.05979" lon="38.812148"><ele>115.6</ele><time>2024-01-09T05:46:48Z</time></trkpt><trkpt lat="58.059852" lon="38.81223"><ele>108.0</ele><time>2024-01-09T05:46:53Z</time></trkpt><trkpt lat="58.05992" lon="38.812275"><ele>111.5</ele><time>2024-01-09T05:46:58Z</time></trkpt><trkpt lat="58.06" lon="38.81225"><ele>107.2</ele><time>2024-01-09T05:47:03Z</time></trkpt><trkpt lat="58.060075" lon="38.812322"><ele>107.2</ele><time>2024-01-09T05:47:08Z</time></trkpt><trkpt lat="58.06012" lon="38.812435"><ele>107.8</ele><time>2024-01-09T05:47:13Z</time></trkpt><trkpt lat="58.06012" lon="38.81259"><ele>108.0</ele><time>2024-01-09T05:47:18Z</time></trkpt><trkpt lat="58.060105" lon="38.812735"><ele>107.1</ele><time>2024-01-09T05:47:23Z</time></trkpt><trkpt lat="58.060092" lon="38.81287"><ele>107.4</ele><time>2024-01-09T05:47:28Z</time></trkpt><trkpt lat="58.06008" lon="38.813005"><ele>108.2</ele><time>2024-01-09T05:47:33Z</time></trkpt><trkpt lat="58.06006" lon="38.813155"><ele>110.3</ele><time>2024-01-09T05:47:38Z</time></trkpt><trkpt lat="58.06005" lon="38.813305"><ele>112.4</ele><time>2024-01-09T05:47:42Z</time></trkpt></trkseg></trk></gpx>