<?xml version="1.0" encoding="UTF-8" standalone="no"?><gpx xmlns="http://www.topografix.com/GPX/1/1" xmlns:gpxtpx="http://www.garmin.com/xmlschemas/TrackPointExtension/v1" xmlns:xsi="http://www.w3.org/2001/XMLSchema-instance" creator="Sports Tracker" version="1.1" xsi:schemaLocation="http://www.topografix.com/GPX/1/1 http://www.topografix.com/GPX/1/1/gpx.xsd http://www.garmin.com/xmlschemas/TrackPointExtension/v1 http://www.garmin.com/xmlschemas/TrackPointExtensionv1.xsd"><metadata><name/><desc>+1 </desc><author><name>Александр</name></author></metadata><trk><name/><trkseg><trkpt lat="58.058793" lon="38.778237"><ele>106.6</ele><time>2022-06-11T18:41:07Z</time></trkpt><trkpt lat="58.058928" lon="38.778317"><ele>106.6</ele><time>2022-06-11T18:41:09Z</time></trkpt><trkpt lat="58.058892" lon="38.777755"><ele>106.5</ele><time>2022-06-11T18:41:13Z</time></trkpt><trkpt lat="58.058998" lon="38.777675"><ele>106.9</ele><time>2022-06-11T20:10:46Z</time></trkpt><trkpt lat="58.058808" lon="38.777413"><ele>106.0</ele><time>2022-06-11T20:10:54Z</time></trkpt><trkpt lat="58.059055" lon="38.778043"><ele>106.6</ele><time>2022-06-11T20:10:56Z</time></trkpt><trkpt lat="58.058992" lon="38.777913"><ele>105.9</ele><time>2022-06-11T20:10:58Z</time></trkpt><trkpt lat="58.058865" lon="38.777927"><ele>108.4</ele><time>2022-06-11T20:10:59Z</time></trkpt><trkpt lat="58.058823" lon="38.77805"><ele>103.3</ele><time>2022-06-11T20:11:01Z</time></trkpt><trkpt lat="58.058742" lon="38.778195"><ele>111.3</ele><time>2022-06-11T20:11:04Z</time></trkpt><trkpt lat="58.058705" lon="38.77833"><ele>107.5</ele><time>2022-06-11T20:11:06Z</time></trkpt><trkpt lat="58.058675" lon="38.778475"><ele>101.6</ele><time>2022-06-11T20:11:09Z</time></trkpt><trkpt lat="58.058632" lon="38.778618"><ele>99.9</ele><time>2022-06-11T20:11:11Z</time></trkpt><trkpt lat="58.058602" lon="38.77877"><ele>101.1</ele><time>2022-06-11T20:11:13Z</time></trkpt><trkpt lat="58.058553" lon="38.77892"><ele>102.0</ele><time>2022-06-11T20:11:15Z</time></trkpt><trkpt lat="58.058502" lon="38.779043"><ele>103.0</ele><time>2022-06-11T20:11:17Z</time></trkpt><trkpt lat="58.058445" lon="38.779158"><ele>104.1</ele><time>2022-06-11T20:11:19Z</time></trkpt><trkpt lat="58.058405" lon="38.779272"><ele>104.3</ele><time>2022-06-11T20:11:21Z</time></trkpt><trkpt lat="58.058382" lon="38.779422"><ele>104.8</ele><time>2022-06-11T20:11:24Z</time></trkpt><trkpt lat="58.058332" lon="38.779542"><ele>104.0</ele><time>2022-06-11T20:11:27Z</time></trkpt><trkpt lat="58.058283" lon="38.779648"><ele>105.4</ele><time>2022-06-11T20:11:30Z</time></trkpt><trkpt lat="58.05825" lon="38.779775"><ele>105.5</ele><time>2022-06-11T20:11:33Z</time></trkpt><trkpt lat="58.058215" lon="38.779898"><ele>106.0</ele><time>2022-06-11T20:11:35Z</time></trkpt><trkpt lat="58.058185" lon="38.780027"><ele>105.6</ele><time>2022-06-11T20:11:37Z</time></trkpt><trkpt lat="58.05815" lon="38.780158"><ele>106.7</ele><time>2022-06-11T20:11:40Z</time></trkpt><trkpt lat="58.058095" lon="38.780312"><ele>106.3</ele><time>2022-06-11T20:11:43Z</time></trkpt><trkpt lat="58.05804" lon="38.780468"><ele>105.5</ele><time>2022-06-11T20:11:45Z</time></trkpt><trkpt lat="58.057978" lon="38.780613"><ele>105.8</ele><time>2022-06-11T20:11:47Z</time></trkpt><trkpt lat="58.057915" lon="38.78077"><ele>107.9</ele><time>2022-06-11T20:11:49Z</time></trkpt><trkpt lat="58.057867" lon="38.780933"><ele>107.6</ele><time>2022-06-11T20:11:51Z</time></trkpt><trkpt lat="58.05781" lon="38.781087"><ele>106.9</ele><time>2022-06-11T20:11:53Z</time></trkpt><trkpt lat="58.057775" lon="38.781237"><ele>107.2</ele><time>2022-06-11T20:11:55Z</time></trkpt><trkpt lat="58.057715" lon="38.781378"><ele>106.5</ele><time>2022-06-11T20:11:58Z</time></trkpt><trkpt lat="58.057703" lon="38.781537"><ele>105.6</ele><time>2022-06-11T20:12:01Z</time></trkpt><trkpt lat="58.0577" lon="38.781707"><ele>106.9</ele><time>2022-06-11T20:12:04Z</time></trkpt><trkpt lat="58.057693" lon="38.781877"><ele>105.7</ele><time>2022-06-11T20:12:07Z</time></trkpt><trkpt lat="58.05767" lon="38.782043"><ele>105.5</ele><time>2022-06-11T20:12:13Z</time></trkpt><trkpt lat="58.057647" lon="38.782217"><ele>106.3</ele><time>2022-06-11T20:12:16Z</time></trkpt><trkpt lat="58.057602" lon="38.782353"><ele>106.2</ele><time>2022-06-11T20:12:18Z</time></trkpt><trkpt lat="58.05755" lon="38.782498"><ele>104.9</ele><time>2022-06-11T20:12:20Z</time></trkpt><trkpt lat="58.057508" lon="38.782672"><ele>105.5</ele><time>2022-06-11T20:12:23Z</time></trkpt><trkpt lat="58.057498" lon="38.782812"><ele>106.5</ele><time>2022-06-11T20:12:25Z</time></trkpt><trkpt lat="58.057492" lon="38.78297"><ele>105.6</ele><time>2022-06-11T20:12:27Z</time></trkpt><trkpt lat="58.0575" lon="38.783183"><ele>105.8</ele><time>2022-06-11T20:12:29Z</time></trkpt><trkpt lat="58.057482" lon="38.783355"><ele>107.0</ele><time>2022-06-11T20:12:31Z</time></trkpt><trkpt lat="58.057468" lon="38.78354"><ele>106.2</ele><time>2022-06-11T20:12:33Z</time></trkpt><trkpt lat="58.057453" lon="38.783705"><ele>106.5</ele><time>2022-06-11T20:12:35Z</time></trkpt><trkpt lat="58.057405" lon="38.783838"><ele>106.3</ele><time>2022-06-11T20:12:37Z</time></trkpt><trkpt lat="58.057352" lon="38.783982"><ele>106.8</ele><time>2022-06-11T20:12:39Z</time></trkpt><trkpt lat="58.057302" lon="38.784135"><ele>106.5</ele><time>2022-06-11T20:12:41Z</time></trkpt><trkpt lat="58.05726" lon="38.784282"><ele>105.9</ele><time>2022-06-11T20:12:43Z</time></trkpt><trkpt lat="58.057202" lon="38.784415"><ele>106.3</ele><time>2022-06-11T20:12:45Z</time></trkpt><trkpt lat="58.057155" lon="38.784562"><ele>106.4</ele><time>2022-06-11T20:12:47Z</time></trkpt><trkpt lat="58.057082" lon="38.7847"><ele>105.8</ele><time>2022-06-11T20:12:49Z</time></trkpt><trkpt lat="58.057025" lon="38.784897"><ele>104.8</ele><time>2022-06-11T20:12:51Z</time></trkpt><trkpt lat="58.056973" lon="38.785113"><ele>105.8</ele><time>2022-06-11T20:12:53Z</time></trkpt><trkpt lat="58.057002" lon="38.785288"><ele>105.0</ele><time>2022-06-11T20:12:55Z</time></trkpt><trkpt lat="58.057" lon="38.785448"><ele>104.6</ele><time>2022-06-11T20:12:57Z</time></trkpt><trkpt lat="58.056982" lon="38.785648"><ele>104.9</ele><time>2022-06-11T20:12:59Z</time></trkpt><trkpt lat="58.056953" lon="38.785827"><ele>104.9</ele><time>2022-06-11T20:13:01Z</time></trkpt><trkpt lat="58.056943" lon="38.786005"><ele>106.4</ele><time>2022-06-11T20:13:03Z</time></trkpt><trkpt lat="58.056927" lon="38.786183"><ele>105.0</ele><time>2022-06-11T20:13:05Z</time></trkpt><trkpt lat="58.056893" lon="38.786375"><ele>104.6</ele><time>2022-06-11T20:13:07Z</time></trkpt><trkpt lat="58.056873" lon="38.786628"><ele>105.5</ele><time>2022-06-11T20:13:09Z</time></trkpt><trkpt lat="58.056858" lon="38.786912"><ele>105.6</ele><time>2022-06-11T20:13:11Z</time></trkpt><trkpt lat="58.056855" lon="38.787052"><ele>106.1</ele><time>2022-06-11T20:13:12Z</time></trkpt><trkpt lat="58.05685" lon="38.787188"><ele>106.2</ele><time>2022-06-11T20:13:13Z</time></trkpt><trkpt lat="58.056843" lon="38.787457"><ele>105.4</ele><time>2022-06-11T20:13:15Z</time></trkpt><trkpt lat="58.05684" lon="38.787672"><ele>106.6</ele><time>2022-06-11T20:13:17Z</time></trkpt><trkpt lat="58.056842" lon="38.78791"><ele>106.7</ele><time>2022-06-11T20:13:19Z</time></trkpt><trkpt lat="58.056825" lon="38.788117"><ele>106.7</ele><time>2022-06-11T20:13:21Z</time></trkpt><trkpt lat="58.056838" lon="38.788322"><ele>107.2</ele><time>2022-06-11T20:13:23Z</time></trkpt><trkpt lat="58.056813" lon="38.788498"><ele>107.8</ele><time>2022-06-11T20:13:25Z</time></trkpt><trkpt lat="58.056805" lon="38.78864"><ele>108.0</ele><time>2022-06-11T20:13:30Z</time></trkpt><trkpt lat="58.056803" lon="38.788788"><ele>108.9</ele><time>2022-06-11T20:13:33Z</time></trkpt><trkpt lat="58.05687" lon="38.788892"><ele>108.5</ele><time>2022-06-11T20:13:37Z</time></trkpt><trkpt lat="58.05697" lon="38.788805"><ele>108.7</ele><time>2022-06-11T20:13:40Z</time></trkpt><trkpt lat="58.05703" lon="38.788708"><ele>108.8</ele><time>2022-06-11T20:13:42Z</time></trkpt><trkpt lat="58.057113" lon="38.788637"><ele>108.0</ele><time>2022-06-11T20:13:45Z</time></trkpt><trkpt lat="58.057183" lon="38.788743"><ele>109.1</ele><time>2022-06-11T20:13:48Z</time></trkpt><trkpt lat="58.057175" lon="38.788893"><ele>109.7</ele><time>2022-06-11T20:13:50Z</time></trkpt><trkpt lat="58.057132" lon="38.78917"><ele>108.7</ele><time>2022-06-11T20:13:52Z</time></trkpt><trkpt lat="58.057103" lon="38.789363"><ele>108.4</ele><time>2022-06-11T20:13:54Z</time></trkpt><trkpt lat="58.05709" lon="38.78959"><ele>108.0</ele><time>2022-06-11T20:13:56Z</time></trkpt><trkpt lat="58.05706" lon="38.789783"><ele>108.7</ele><time>2022-06-11T20:13:58Z</time></trkpt><trkpt lat="58.057075" lon="38.789962"><ele>108.4</ele><time>2022-06-11T20:13:59Z</time></trkpt><trkpt lat="58.057053" lon="38.79011"><ele>108.3</ele><time>2022-06-11T20:14:00Z</time></trkpt><trkpt lat="58.057057" lon="38.790247"><ele>107.3</ele><time>2022-06-11T20:14:01Z</time></trkpt><trkpt lat="58.057052" lon="38.79048"><ele>107.8</ele><time>2022-06-11T20:14:03Z</time></trkpt><trkpt lat="58.057038" lon="38.790617"><ele>107.7</ele><time>2022-06-11T20:14:04Z</time></trkpt><trkpt lat="58.057005" lon="38.790857"><ele>107.1</ele><time>2022-06-11T20:14:06Z</time></trkpt><trkpt lat="58.057002" lon="38.791007"><ele>106.5</ele><time>2022-06-11T20:14:07Z</time></trkpt><trkpt lat="58.056985" lon="38.791257"><ele>106.3</ele><time>2022-06-11T20:14:09Z</time></trkpt><trkpt lat="58.05696" lon="38.791453"><ele>105.3</ele><time>2022-06-11T20:14:11Z</time></trkpt><trkpt lat="58.056925" lon="38.791717"><ele>105.4</ele><time>2022-06-11T20:14:13Z</time></trkpt><trkpt lat="58.056913" lon="38.791993"><ele>105.4</ele><time>2022-06-11T20:14:15Z</time></trkpt><trkpt lat="58.056902" lon="38.792128"><ele>106.3</ele><time>2022-06-11T20:14:16Z</time></trkpt><trkpt lat="58.05688" lon="38.792412"><ele>108.3</ele><time>2022-06-11T20:14:18Z</time></trkpt><trkpt lat="58.05686" lon="38.792667"><ele>109.5</ele><time>2022-06-11T20:14:20Z</time></trkpt><trkpt lat="58.056855" lon="38.792802"><ele>109.9</ele><time>2022-06-11T20:14:21Z</time></trkpt><trkpt lat="58.056852" lon="38.793057"><ele>109.3</ele><time>2022-06-11T20:14:23Z</time></trkpt><trkpt lat="58.056848" lon="38.793293"><ele>110.4</ele><time>2022-06-11T20:14:25Z</time></trkpt><trkpt lat="58.056842" lon="38.793533"><ele>111.0</ele><time>2022-06-11T20:14:27Z</time></trkpt><trkpt lat="58.056818" lon="38.793732"><ele>111.2</ele><time>2022-06-11T20:14:29Z</time></trkpt><trkpt lat="58.0568" lon="38.793953"><ele>109.2</ele><time>2022-06-11T20:14:31Z</time></trkpt><trkpt lat="58.056812" lon="38.794182"><ele>108.6</ele><time>2022-06-11T20:14:33Z</time></trkpt><trkpt lat="58.056808" lon="38.794425"><ele>109.5</ele><time>2022-06-11T20:14:35Z</time></trkpt><trkpt lat="58.056815" lon="38.794648"><ele>109.5</ele><time>2022-06-11T20:14:37Z</time></trkpt><trkpt lat="58.056782" lon="38.794907"><ele>108.0</ele><time>2022-06-11T20:14:39Z</time></trkpt><trkpt lat="58.056773" lon="38.795042"><ele>106.4</ele><time>2022-06-11T20:14:40Z</time></trkpt><trkpt lat="58.056772" lon="38.795193"><ele>107.5</ele><time>2022-06-11T20:14:41Z</time></trkpt><trkpt lat="58.056765" lon="38.795347"><ele>107.8</ele><time>2022-06-11T20:14:42Z</time></trkpt><trkpt lat="58.056762" lon="38.795493"><ele>108.1</ele><time>2022-06-11T20:14:43Z</time></trkpt><trkpt lat="58.056762" lon="38.795637"><ele>109.0</ele><time>2022-06-11T20:14:44Z</time></trkpt><trkpt lat="58.056742" lon="38.795882"><ele>109.5</ele><time>2022-06-11T20:14:46Z</time></trkpt><trkpt lat="58.056727" lon="38.796138"><ele>110.4</ele><time>2022-06-11T20:14:48Z</time></trkpt><trkpt lat="58.056705" lon="38.796377"><ele>109.9</ele><time>2022-06-11T20:14:50Z</time></trkpt><trkpt lat="58.056692" lon="38.796607"><ele>110.3</ele><time>2022-06-11T20:14:52Z</time></trkpt><trkpt lat="58.05669" lon="38.796855"><ele>109.9</ele><time>2022-06-11T20:14:54Z</time></trkpt><trkpt lat="58.056673" lon="38.797078"><ele>109.8</ele><time>2022-06-11T20:14:56Z</time></trkpt><trkpt lat="58.056653" lon="38.797257"><ele>110.8</ele><time>2022-06-11T20:14:58Z</time></trkpt><trkpt lat="58.05665" lon="38.797438"><ele>110.5</ele><time>2022-06-11T20:15:00Z</time></trkpt><trkpt lat="58.056662" lon="38.797575"><ele>110.3</ele><time>2022-06-11T20:15:02Z</time></trkpt><trkpt lat="58.056635" lon="38.797702"><ele>109.4</ele><time>2022-06-11T20:15:06Z</time></trkpt><trkpt lat="58.056635" lon="38.797905"><ele>109.7</ele><time>2022-06-11T20:15:09Z</time></trkpt><trkpt lat="58.056577" lon="38.79806"><ele>109.4</ele><time>2022-06-11T20:15:11Z</time></trkpt><trkpt lat="58.056578" lon="38.798258"><ele>109.4</ele><time>2022-06-11T20:15:13Z</time></trkpt><trkpt lat="58.056547" lon="38.79846"><ele>109.6</ele><time>2022-06-11T20:15:15Z</time></trkpt><trkpt lat="58.056527" lon="38.798655"><ele>109.7</ele><time>2022-06-11T20:15:17Z</time></trkpt><trkpt lat="58.056515" lon="38.798872"><ele>112.0</ele><time>2022-06-11T20:15:19Z</time></trkpt><trkpt lat="58.056502" lon="38.799072"><ele>111.9</ele><time>2022-06-11T20:15:21Z</time></trkpt><trkpt lat="58.056493" lon="38.799283"><ele>111.5</ele><time>2022-06-11T20:15:23Z</time></trkpt><trkpt lat="58.056478" lon="38.799475"><ele>111.3</ele><time>2022-06-11T20:15:25Z</time></trkpt><trkpt lat="58.056465" lon="38.799675"><ele>110.5</ele><time>2022-06-11T20:15:27Z</time></trkpt><trkpt lat="58.05644" lon="38.79986"><ele>110.8</ele><time>2022-06-11T20:15:29Z</time></trkpt><trkpt lat="58.056418" lon="38.80003"><ele>111.4</ele><time>2022-06-11T20:15:31Z</time></trkpt><trkpt lat="58.056405" lon="38.800203"><ele>110.8</ele><time>2022-06-11T20:15:33Z</time></trkpt><trkpt lat="58.056397" lon="38.80037"><ele>109.4</ele><time>2022-06-11T20:15:35Z</time></trkpt><trkpt lat="58.056397" lon="38.800508"><ele>108.8</ele><time>2022-06-11T20:15:37Z</time></trkpt><trkpt lat="58.056378" lon="38.800667"><ele>108.5</ele><time>2022-06-11T20:15:39Z</time></trkpt><trkpt lat="58.056368" lon="38.800818"><ele>108.6</ele><time>2022-06-11T20:15:41Z</time></trkpt><trkpt lat="58.056352" lon="38.800965"><ele>109.3</ele><time>2022-06-11T20:15:43Z</time></trkpt><trkpt lat="58.056342" lon="38.80113"><ele>108.1</ele><time>2022-06-11T20:15:45Z</time></trkpt><trkpt lat="58.056328" lon="38.801295"><ele>108.4</ele><time>2022-06-11T20:15:47Z</time></trkpt><trkpt lat="58.056322" lon="38.801462"><ele>108.4</ele><time>2022-06-11T20:15:49Z</time></trkpt><trkpt lat="58.056337" lon="38.801645"><ele>108.6</ele><time>2022-06-11T20:15:51Z</time></trkpt><trkpt lat="58.056323" lon="38.80182"><ele>107.8</ele><time>2022-06-11T20:15:53Z</time></trkpt><trkpt lat="58.056302" lon="38.802003"><ele>106.5</ele><time>2022-06-11T20:15:55Z</time></trkpt><trkpt lat="58.056283" lon="38.802173"><ele>106.3</ele><time>2022-06-11T20:15:57Z</time></trkpt><trkpt lat="58.056273" lon="38.80234"><ele>105.5</ele><time>2022-06-11T20:15:59Z</time></trkpt><trkpt lat="58.056252" lon="38.802497"><ele>105.1</ele><time>2022-06-11T20:16:01Z</time></trkpt><trkpt lat="58.056248" lon="38.80266"><ele>105.4</ele><time>2022-06-11T20:16:03Z</time></trkpt><trkpt lat="58.056232" lon="38.802842"><ele>106.1</ele><time>2022-06-11T20:16:05Z</time></trkpt><trkpt lat="58.056218" lon="38.802982"><ele>105.6</ele><time>2022-06-11T20:16:07Z</time></trkpt><trkpt lat="58.056253" lon="38.8031"><ele>105.4</ele><time>2022-06-11T20:16:09Z</time></trkpt><trkpt lat="58.05631" lon="38.803187"><ele>105.7</ele><time>2022-06-11T20:16:11Z</time></trkpt><trkpt lat="58.056328" lon="38.803342"><ele>106.2</ele><time>2022-06-11T20:16:13Z</time></trkpt><trkpt lat="58.056335" lon="38.803498"><ele>106.9</ele><time>2022-06-11T20:16:15Z</time></trkpt><trkpt lat="58.05633" lon="38.803657"><ele>106.4</ele><time>2022-06-11T20:16:17Z</time></trkpt><trkpt lat="58.056323" lon="38.803815"><ele>106.9</ele><time>2022-06-11T20:16:19Z</time></trkpt><trkpt lat="58.056317" lon="38.803977"><ele>107.3</ele><time>2022-06-11T20:16:21Z</time></trkpt><trkpt lat="58.056322" lon="38.804117"><ele>107.1</ele><time>2022-06-11T20:16:23Z</time></trkpt><trkpt lat="58.056343" lon="38.80428"><ele>106.6</ele><time>2022-06-11T20:16:26Z</time></trkpt><trkpt lat="58.056398" lon="38.804372"><ele>106.7</ele><time>2022-06-11T20:16:28Z</time></trkpt><trkpt lat="58.05648" lon="38.80441"><ele>106.3</ele><time>2022-06-11T20:16:30Z</time></trkpt><trkpt lat="58.056555" lon="38.804428"><ele>105.4</ele><time>2022-06-11T20:16:32Z</time></trkpt><trkpt lat="58.056628" lon="38.804432"><ele>105.1</ele><time>2022-06-11T20:16:34Z</time></trkpt><trkpt lat="58.056732" lon="38.804468"><ele>105.9</ele><time>2022-06-11T20:16:37Z</time></trkpt><trkpt lat="58.056813" lon="38.804473"><ele>104.2</ele><time>2022-06-11T20:16:39Z</time></trkpt><trkpt lat="58.056905" lon="38.804487"><ele>104.0</ele><time>2022-06-11T20:16:42Z</time></trkpt><trkpt lat="58.056927" lon="38.804647"><ele>104.0</ele><time>2022-06-11T20:16:46Z</time></trkpt><trkpt lat="58.056957" lon="38.804778"><ele>103.9</ele><time>2022-06-11T20:16:48Z</time></trkpt><trkpt lat="58.056987" lon="38.80491"><ele>104.7</ele><time>2022-06-11T20:16:50Z</time></trkpt><trkpt lat="58.05702" lon="38.805028"><ele>105.2</ele><time>2022-06-11T20:16:52Z</time></trkpt><trkpt lat="58.057063" lon="38.80514"><ele>105.2</ele><time>2022-06-11T20:16:54Z</time></trkpt><trkpt lat="58.05712" lon="38.805292"><ele>104.4</ele><time>2022-06-11T20:16:57Z</time></trkpt><trkpt lat="58.057207" lon="38.805388"><ele>103.7</ele><time>2022-06-11T20:17:00Z</time></trkpt><trkpt lat="58.0573" lon="38.805357"><ele>103.4</ele><time>2022-06-11T20:17:02Z</time></trkpt><trkpt lat="58.057397" lon="38.805348"><ele>103.5</ele><time>2022-06-11T20:17:04Z</time></trkpt><trkpt lat="58.057487" lon="38.805387"><ele>103.8</ele><time>2022-06-11T20:17:06Z</time></trkpt><trkpt lat="58.057568" lon="38.80541"><ele>103.0</ele><time>2022-06-11T20:17:08Z</time></trkpt><trkpt lat="58.057638" lon="38.805458"><ele>103.0</ele><time>2022-06-11T20:17:10Z</time></trkpt><trkpt lat="58.057673" lon="38.805643"><ele>102.4</ele><time>2022-06-11T20:17:13Z</time></trkpt><trkpt lat="58.05767" lon="38.805795"><ele>102.9</ele><time>2022-06-11T20:17:15Z</time></trkpt><trkpt lat="58.057653" lon="38.805958"><ele>103.0</ele><time>2022-06-11T20:17:17Z</time></trkpt><trkpt lat="58.057628" lon="38.806152"><ele>103.4</ele><time>2022-06-11T20:17:19Z</time></trkpt><trkpt lat="58.057617" lon="38.806313"><ele>103.2</ele><time>2022-06-11T20:17:21Z</time></trkpt><trkpt lat="58.05761" lon="38.806493"><ele>103.5</ele><time>2022-06-11T20:17:23Z</time></trkpt><trkpt lat="58.057608" lon="38.80663"><ele>104.1</ele><time>2022-06-11T20:17:25Z</time></trkpt><trkpt lat="58.05762" lon="38.806772"><ele>104.5</ele><time>2022-06-11T20:17:27Z</time></trkpt><trkpt lat="58.057655" lon="38.806905"><ele>104.5</ele><time>2022-06-11T20:17:29Z</time></trkpt><trkpt lat="58.05769" lon="38.807023"><ele>104.6</ele><time>2022-06-11T20:17:31Z</time></trkpt><trkpt lat="58.057773" lon="38.807118"><ele>104.4</ele><time>2022-06-11T20:17:33Z</time></trkpt><trkpt lat="58.057905" lon="38.807127"><ele>104.3</ele><time>2022-06-11T20:17:35Z</time></trkpt><trkpt lat="58.058033" lon="38.807138"><ele>104.2</ele><time>2022-06-11T20:17:37Z</time></trkpt><trkpt lat="58.05812" lon="38.807115"><ele>104.4</ele><time>2022-06-11T20:17:39Z</time></trkpt><trkpt lat="58.05821" lon="38.807112"><ele>104.3</ele><time>2022-06-11T20:17:43Z</time></trkpt><trkpt lat="58.058318" lon="38.807122"><ele>103.4</ele><time>2022-06-11T20:17:45Z</time></trkpt><trkpt lat="58.058425" lon="38.807103"><ele>103.8</ele><time>2022-06-11T20:17:48Z</time></trkpt><trkpt lat="58.058518" lon="38.807157"><ele>103.3</ele><time>2022-06-11T20:17:50Z</time></trkpt><trkpt lat="58.05861" lon="38.807147"><ele>103.6</ele><time>2022-06-11T20:17:52Z</time></trkpt><trkpt lat="58.05868" lon="38.807278"><ele>104.1</ele><time>2022-06-11T20:17:55Z</time></trkpt><trkpt lat="58.058673" lon="38.807448"><ele>104.1</ele><time>2022-06-11T20:17:58Z</time></trkpt><trkpt lat="58.05865" lon="38.807588"><ele>102.5</ele><time>2022-06-11T20:18:32Z</time></trkpt><trkpt lat="58.058657" lon="38.807733"><ele>101.9</ele><time>2022-06-11T20:18:37Z</time></trkpt><trkpt lat="58.058607" lon="38.807838"><ele>105.2</ele><time>2022-06-11T20:18:58Z</time></trkpt><trkpt lat="58.058748" lon="38.807767"><ele>105.9</ele><time>2022-06-11T20:19:41Z</time></trkpt><trkpt lat="58.05884" lon="38.807722"><ele>105.1</ele><time>2022-06-11T20:19:52Z</time></trkpt><trkpt lat="58.058743" lon="38.807713"><ele>104.9</ele><time>2022-06-11T20:19:58Z</time></trkpt><trkpt lat="58.058733" lon="38.807498"><ele>105.0</ele><time>2022-06-11T20:20:34Z</time></trkpt><trkpt lat="58.058783" lon="38.807693"><ele>104.8</ele><time>2022-06-11T20:20:41Z</time></trkpt></trkseg></trk></gpx>