<?xml version="1.0" encoding="UTF-8" standalone="no"?><gpx xmlns="http://www.topografix.com/GPX/1/1" xmlns:gpxtpx="http://www.garmin.com/xmlschemas/TrackPointExtension/v1" xmlns:xsi="http://www.w3.org/2001/XMLSchema-instance" creator="Sports Tracker" version="1.1" xsi:schemaLocation="http://www.topografix.com/GPX/1/1 http://www.topografix.com/GPX/1/1/gpx.xsd http://www.garmin.com/xmlschemas/TrackPointExtension/v1 http://www.garmin.com/xmlschemas/TrackPointExtensionv1.xsd"><metadata><name/><desc/><author><name>Александр</name></author></metadata><trk><name/><trkseg><trkpt lat="58.328317" lon="38.878232"><ele>113.4</ele><time>2023-06-17T14:20:26Z</time></trkpt><trkpt lat="58.328317" lon="38.878232"><ele>111.9</ele><time>2023-06-17T14:20:38Z</time></trkpt><trkpt lat="58.328278" lon="38.878098"><ele>111.7</ele><time>2023-06-17T14:20:49Z</time></trkpt><trkpt lat="58.32826" lon="38.877962"><ele>111.1</ele><time>2023-06-17T14:20:56Z</time></trkpt><trkpt lat="58.328217" lon="38.877843"><ele>110.4</ele><time>2023-06-17T14:21:03Z</time></trkpt><trkpt lat="58.328162" lon="38.877732"><ele>109.0</ele><time>2023-06-17T14:21:23Z</time></trkpt><trkpt lat="58.328165" lon="38.877582"><ele>108.8</ele><time>2023-06-17T14:21:30Z</time></trkpt><trkpt lat="58.328205" lon="38.877445"><ele>109.0</ele><time>2023-06-17T14:21:38Z</time></trkpt><trkpt lat="58.328262" lon="38.877358"><ele>108.8</ele><time>2023-06-17T14:21:46Z</time></trkpt><trkpt lat="58.328255" lon="38.87721"><ele>108.5</ele><time>2023-06-17T14:21:52Z</time></trkpt><trkpt lat="58.32824" lon="38.877063"><ele>108.5</ele><time>2023-06-17T14:21:59Z</time></trkpt><trkpt lat="58.328165" lon="38.877012"><ele>108.4</ele><time>2023-06-17T14:22:05Z</time></trkpt><trkpt lat="58.32812" lon="38.876883"><ele>109.3</ele><time>2023-06-17T14:22:12Z</time></trkpt><trkpt lat="58.328038" lon="38.87684"><ele>108.9</ele><time>2023-06-17T14:22:18Z</time></trkpt><trkpt lat="58.32797" lon="38.876793"><ele>109.3</ele><time>2023-06-17T14:22:26Z</time></trkpt><trkpt lat="58.327883" lon="38.876767"><ele>110.3</ele><time>2023-06-17T14:22:38Z</time></trkpt><trkpt lat="58.327802" lon="38.876745"><ele>110.9</ele><time>2023-06-17T14:22:44Z</time></trkpt><trkpt lat="58.32773" lon="38.876708"><ele>110.7</ele><time>2023-06-17T14:22:48Z</time></trkpt><trkpt lat="58.327653" lon="38.876715"><ele>110.8</ele><time>2023-06-17T14:22:54Z</time></trkpt><trkpt lat="58.327587" lon="38.876637"><ele>110.5</ele><time>2023-06-17T14:23:02Z</time></trkpt><trkpt lat="58.327585" lon="38.876492"><ele>109.7</ele><time>2023-06-17T14:23:12Z</time></trkpt><trkpt lat="58.327625" lon="38.876357"><ele>109.5</ele><time>2023-06-17T14:23:17Z</time></trkpt><trkpt lat="58.327678" lon="38.876243"><ele>109.6</ele><time>2023-06-17T14:23:25Z</time></trkpt><trkpt lat="58.327693" lon="38.876102"><ele>109.4</ele><time>2023-06-17T14:23:32Z</time></trkpt><trkpt lat="58.32774" lon="38.875982"><ele>109.7</ele><time>2023-06-17T14:23:40Z</time></trkpt><trkpt lat="58.327773" lon="38.87584"><ele>109.6</ele><time>2023-06-17T14:23:47Z</time></trkpt><trkpt lat="58.327802" lon="38.875702"><ele>109.2</ele><time>2023-06-17T14:23:52Z</time></trkpt><trkpt lat="58.327837" lon="38.875562"><ele>108.9</ele><time>2023-06-17T14:23:59Z</time></trkpt><trkpt lat="58.327868" lon="38.875435"><ele>108.7</ele><time>2023-06-17T14:24:05Z</time></trkpt><trkpt lat="58.327922" lon="38.875335"><ele>108.6</ele><time>2023-06-17T14:24:10Z</time></trkpt><trkpt lat="58.327945" lon="38.875192"><ele>108.0</ele><time>2023-06-17T14:24:16Z</time></trkpt><trkpt lat="58.327947" lon="38.875052"><ele>107.9</ele><time>2023-06-17T14:24:21Z</time></trkpt><trkpt lat="58.327947" lon="38.874912"><ele>106.9</ele><time>2023-06-17T14:24:27Z</time></trkpt><trkpt lat="58.327983" lon="38.87478"><ele>106.8</ele><time>2023-06-17T14:24:32Z</time></trkpt><trkpt lat="58.327995" lon="38.874623"><ele>106.1</ele><time>2023-06-17T14:24:39Z</time></trkpt><trkpt lat="58.328003" lon="38.874473"><ele>106.7</ele><time>2023-06-17T14:24:45Z</time></trkpt><trkpt lat="58.327997" lon="38.874332"><ele>108.0</ele><time>2023-06-17T14:24:51Z</time></trkpt><trkpt lat="58.328005" lon="38.874197"><ele>108.4</ele><time>2023-06-17T14:24:56Z</time></trkpt><trkpt lat="58.328032" lon="38.874045"><ele>108.7</ele><time>2023-06-17T14:25:03Z</time></trkpt><trkpt lat="58.328058" lon="38.87389"><ele>109.1</ele><time>2023-06-17T14:25:09Z</time></trkpt><trkpt lat="58.328077" lon="38.873738"><ele>109.0</ele><time>2023-06-17T14:25:16Z</time></trkpt><trkpt lat="58.328102" lon="38.873595"><ele>109.3</ele><time>2023-06-17T14:25:23Z</time></trkpt><trkpt lat="58.328153" lon="38.873458"><ele>109.6</ele><time>2023-06-17T14:25:29Z</time></trkpt><trkpt lat="58.328182" lon="38.873303"><ele>109.2</ele><time>2023-06-17T14:25:35Z</time></trkpt><trkpt lat="58.328197" lon="38.873162"><ele>108.5</ele><time>2023-06-17T14:25:40Z</time></trkpt><trkpt lat="58.328218" lon="38.872995"><ele>108.6</ele><time>2023-06-17T14:25:46Z</time></trkpt><trkpt lat="58.328227" lon="38.872855"><ele>108.5</ele><time>2023-06-17T14:25:52Z</time></trkpt><trkpt lat="58.328183" lon="38.872727"><ele>108.6</ele><time>2023-06-17T14:25:58Z</time></trkpt><trkpt lat="58.328145" lon="38.872593"><ele>108.4</ele><time>2023-06-17T14:26:04Z</time></trkpt><trkpt lat="58.328107" lon="38.872462"><ele>108.4</ele><time>2023-06-17T14:26:10Z</time></trkpt><trkpt lat="58.328077" lon="38.872322"><ele>108.3</ele><time>2023-06-17T14:26:15Z</time></trkpt><trkpt lat="58.328018" lon="38.872207"><ele>107.7</ele><time>2023-06-17T14:26:21Z</time></trkpt><trkpt lat="58.327978" lon="38.872088"><ele>107.3</ele><time>2023-06-17T14:26:27Z</time></trkpt><trkpt lat="58.327925" lon="38.871965"><ele>107.6</ele><time>2023-06-17T14:26:33Z</time></trkpt><trkpt lat="58.327872" lon="38.871853"><ele>106.6</ele><time>2023-06-17T14:26:39Z</time></trkpt><trkpt lat="58.327812" lon="38.871747"><ele>106.0</ele><time>2023-06-17T14:26:45Z</time></trkpt><trkpt lat="58.327745" lon="38.871667"><ele>106.0</ele><time>2023-06-17T14:26:51Z</time></trkpt><trkpt lat="58.327678" lon="38.871598"><ele>105.9</ele><time>2023-06-17T14:26:57Z</time></trkpt><trkpt lat="58.327603" lon="38.871548"><ele>106.3</ele><time>2023-06-17T14:27:04Z</time></trkpt><trkpt lat="58.327533" lon="38.871508"><ele>106.5</ele><time>2023-06-17T14:27:10Z</time></trkpt><trkpt lat="58.327463" lon="38.871412"><ele>106.6</ele><time>2023-06-17T14:27:16Z</time></trkpt><trkpt lat="58.327408" lon="38.871302"><ele>106.7</ele><time>2023-06-17T14:27:22Z</time></trkpt><trkpt lat="58.327353" lon="38.871205"><ele>106.8</ele><time>2023-06-17T14:27:27Z</time></trkpt><trkpt lat="58.327282" lon="38.87113"><ele>106.7</ele><time>2023-06-17T14:27:33Z</time></trkpt><trkpt lat="58.327213" lon="38.871055"><ele>106.9</ele><time>2023-06-17T14:27:40Z</time></trkpt><trkpt lat="58.32714" lon="38.871005"><ele>106.9</ele><time>2023-06-17T14:27:46Z</time></trkpt><trkpt lat="58.327068" lon="38.870973"><ele>107.2</ele><time>2023-06-17T14:27:52Z</time></trkpt><trkpt lat="58.326992" lon="38.870917"><ele>107.5</ele><time>2023-06-17T14:27:58Z</time></trkpt><trkpt lat="58.326945" lon="38.870807"><ele>107.5</ele><time>2023-06-17T14:28:07Z</time></trkpt><trkpt lat="58.326878" lon="38.870743"><ele>107.8</ele><time>2023-06-17T14:28:12Z</time></trkpt><trkpt lat="58.326807" lon="38.870692"><ele>108.9</ele><time>2023-06-17T14:28:17Z</time></trkpt><trkpt lat="58.326732" lon="38.870638"><ele>109.5</ele><time>2023-06-17T14:28:22Z</time></trkpt><trkpt lat="58.326653" lon="38.870575"><ele>109.4</ele><time>2023-06-17T14:28:28Z</time></trkpt><trkpt lat="58.326583" lon="38.870505"><ele>109.6</ele><time>2023-06-17T14:28:34Z</time></trkpt><trkpt lat="58.326515" lon="38.87046"><ele>110.0</ele><time>2023-06-17T14:28:40Z</time></trkpt><trkpt lat="58.326437" lon="38.870447"><ele>110.3</ele><time>2023-06-17T14:28:47Z</time></trkpt><trkpt lat="58.326377" lon="38.870372"><ele>110.2</ele><time>2023-06-17T14:28:53Z</time></trkpt><trkpt lat="58.326313" lon="38.87028"><ele>110.0</ele><time>2023-06-17T14:28:59Z</time></trkpt><trkpt lat="58.326248" lon="38.870203"><ele>110.0</ele><time>2023-06-17T14:29:05Z</time></trkpt><trkpt lat="58.32618" lon="38.87013"><ele>110.1</ele><time>2023-06-17T14:29:11Z</time></trkpt><trkpt lat="58.326118" lon="38.870058"><ele>109.9</ele><time>2023-06-17T14:29:17Z</time></trkpt><trkpt lat="58.326047" lon="38.870017"><ele>109.9</ele><time>2023-06-17T14:29:23Z</time></trkpt><trkpt lat="58.32598" lon="38.869952"><ele>109.7</ele><time>2023-06-17T14:29:29Z</time></trkpt><trkpt lat="58.325908" lon="38.869897"><ele>109.6</ele><time>2023-06-17T14:29:35Z</time></trkpt><trkpt lat="58.325842" lon="38.869827"><ele>109.7</ele><time>2023-06-17T14:29:54Z</time></trkpt><trkpt lat="58.32577" lon="38.86974"><ele>109.4</ele><time>2023-06-17T14:30:00Z</time></trkpt><trkpt lat="58.325717" lon="38.869642"><ele>109.7</ele><time>2023-06-17T14:30:06Z</time></trkpt><trkpt lat="58.325647" lon="38.869585"><ele>109.7</ele><time>2023-06-17T14:30:12Z</time></trkpt><trkpt lat="58.32557" lon="38.869552"><ele>109.4</ele><time>2023-06-17T14:30:17Z</time></trkpt><trkpt lat="58.325555" lon="38.869415"><ele>108.7</ele><time>2023-06-17T14:30:24Z</time></trkpt><trkpt lat="58.325567" lon="38.869265"><ele>108.0</ele><time>2023-06-17T14:30:29Z</time></trkpt><trkpt lat="58.325595" lon="38.86912"><ele>107.7</ele><time>2023-06-17T14:30:35Z</time></trkpt><trkpt lat="58.325613" lon="38.86898"><ele>108.0</ele><time>2023-06-17T14:30:41Z</time></trkpt><trkpt lat="58.325665" lon="38.868873"><ele>108.3</ele><time>2023-06-17T14:30:47Z</time></trkpt><trkpt lat="58.32569" lon="38.868727"><ele>108.4</ele><time>2023-06-17T14:30:56Z</time></trkpt><trkpt lat="58.325695" lon="38.868588"><ele>109.1</ele><time>2023-06-17T14:31:00Z</time></trkpt><trkpt lat="58.325703" lon="38.868445"><ele>109.6</ele><time>2023-06-17T14:31:06Z</time></trkpt><trkpt lat="58.325742" lon="38.868313"><ele>109.6</ele><time>2023-06-17T14:31:13Z</time></trkpt><trkpt lat="58.32578" lon="38.868183"><ele>109.8</ele><time>2023-06-17T14:31:18Z</time></trkpt><trkpt lat="58.325802" lon="38.868043"><ele>109.7</ele><time>2023-06-17T14:31:23Z</time></trkpt><trkpt lat="58.325798" lon="38.867897"><ele>110.0</ele><time>2023-06-17T14:31:29Z</time></trkpt><trkpt lat="58.325783" lon="38.86776"><ele>109.5</ele><time>2023-06-17T14:31:37Z</time></trkpt><trkpt lat="58.325803" lon="38.867612"><ele>109.8</ele><time>2023-06-17T14:31:43Z</time></trkpt><trkpt lat="58.325843" lon="38.867478"><ele>108.5</ele><time>2023-06-17T14:31:50Z</time></trkpt><trkpt lat="58.325897" lon="38.867378"><ele>107.8</ele><time>2023-06-17T14:31:56Z</time></trkpt><trkpt lat="58.325952" lon="38.86727"><ele>108.0</ele><time>2023-06-17T14:32:02Z</time></trkpt><trkpt lat="58.325992" lon="38.867152"><ele>107.6</ele><time>2023-06-17T14:32:07Z</time></trkpt><trkpt lat="58.326028" lon="38.867035"><ele>107.7</ele><time>2023-06-17T14:32:14Z</time></trkpt><trkpt lat="58.326047" lon="38.866902"><ele>106.5</ele><time>2023-06-17T14:32:27Z</time></trkpt><trkpt lat="58.326065" lon="38.86677"><ele>105.5</ele><time>2023-06-17T14:32:36Z</time></trkpt><trkpt lat="58.326043" lon="38.866633"><ele>105.0</ele><time>2023-06-17T14:32:44Z</time></trkpt><trkpt lat="58.326042" lon="38.866487"><ele>104.2</ele><time>2023-06-17T14:32:52Z</time></trkpt><trkpt lat="58.326097" lon="38.866378"><ele>103.0</ele><time>2023-06-17T14:33:01Z</time></trkpt><trkpt lat="58.326172" lon="38.866348"><ele>101.4</ele><time>2023-06-17T14:33:09Z</time></trkpt><trkpt lat="58.326218" lon="38.866243"><ele>100.6</ele><time>2023-06-17T14:33:16Z</time></trkpt><trkpt lat="58.326165" lon="38.866133"><ele>100.2</ele><time>2023-06-17T14:33:29Z</time></trkpt><trkpt lat="58.326087" lon="38.866065"><ele>100.2</ele><time>2023-06-17T14:33:36Z</time></trkpt><trkpt lat="58.326018" lon="38.866015"><ele>100.6</ele><time>2023-06-17T14:33:42Z</time></trkpt><trkpt lat="58.325953" lon="38.865948"><ele>100.4</ele><time>2023-06-17T14:33:49Z</time></trkpt><trkpt lat="58.325883" lon="38.865893"><ele>100.7</ele><time>2023-06-17T14:33:57Z</time></trkpt><trkpt lat="58.325835" lon="38.865787"><ele>100.9</ele><time>2023-06-17T14:34:04Z</time></trkpt><trkpt lat="58.32577" lon="38.865705"><ele>101.1</ele><time>2023-06-17T14:34:11Z</time></trkpt><trkpt lat="58.325698" lon="38.865672"><ele>100.8</ele><time>2023-06-17T14:34:17Z</time></trkpt><trkpt lat="58.325625" lon="38.86562"><ele>100.5</ele><time>2023-06-17T14:34:26Z</time></trkpt><trkpt lat="58.325553" lon="38.865553"><ele>100.0</ele><time>2023-06-17T14:34:34Z</time></trkpt><trkpt lat="58.325468" lon="38.86553"><ele>100.6</ele><time>2023-06-17T14:34:41Z</time></trkpt><trkpt lat="58.325397" lon="38.865465"><ele>101.1</ele><time>2023-06-17T14:34:51Z</time></trkpt><trkpt lat="58.325328" lon="38.865418"><ele>101.0</ele><time>2023-06-17T14:34:59Z</time></trkpt><trkpt lat="58.325268" lon="38.86534"><ele>101.0</ele><time>2023-06-17T14:35:09Z</time></trkpt><trkpt lat="58.325197" lon="38.865383"><ele>101.5</ele><time>2023-06-17T14:35:19Z</time></trkpt><trkpt lat="58.325117" lon="38.865332"><ele>102.0</ele><time>2023-06-17T14:35:43Z</time></trkpt><trkpt lat="58.325043" lon="38.865285"><ele>102.4</ele><time>2023-06-17T14:35:50Z</time></trkpt><trkpt lat="58.325028" lon="38.86542"><ele>103.8</ele><time>2023-06-17T14:36:44Z</time></trkpt><trkpt lat="58.325085" lon="38.865323"><ele>103.1</ele><time>2023-06-17T14:37:06Z</time></trkpt><trkpt lat="58.325015" lon="38.865348"><ele>102.5</ele><time>2023-06-17T14:37:30Z</time></trkpt><trkpt lat="58.325083" lon="38.865305"><ele>104.5</ele><time>2023-06-17T14:53:03Z</time></trkpt><trkpt lat="58.325152" lon="38.865238"><ele>105.2</ele><time>2023-06-17T14:53:11Z</time></trkpt><trkpt lat="58.325112" lon="38.865118"><ele>105.9</ele><time>2023-06-17T14:53:20Z</time></trkpt><trkpt lat="58.325188" lon="38.865138"><ele>106.8</ele><time>2023-06-17T14:53:44Z</time></trkpt><trkpt lat="58.325123" lon="38.8652"><ele>104.5</ele><time>2023-06-17T15:02:18Z</time></trkpt><trkpt lat="58.325053" lon="38.86523"><ele>104.3</ele><time>2023-06-17T15:04:15Z</time></trkpt><trkpt lat="58.324982" lon="38.86525"><ele>105.5</ele><time>2023-06-17T15:04:45Z</time></trkpt><trkpt lat="58.325005" lon="38.865383"><ele>104.6</ele><time>2023-06-17T15:06:12Z</time></trkpt><trkpt lat="58.324992" lon="38.865232"><ele>103.2</ele><time>2023-06-17T15:06:20Z</time></trkpt><trkpt lat="58.325025" lon="38.86509"><ele>101.1</ele><time>2023-06-17T15:06:28Z</time></trkpt><trkpt lat="58.325113" lon="38.865128"><ele>100.9</ele><time>2023-06-17T15:07:14Z</time></trkpt><trkpt lat="58.325172" lon="38.86522"><ele>101.8</ele><time>2023-06-17T15:07:29Z</time></trkpt><trkpt lat="58.32522" lon="38.865332"><ele>102.3</ele><time>2023-06-17T15:07:51Z</time></trkpt><trkpt lat="58.325297" lon="38.865357"><ele>102.2</ele><time>2023-06-17T15:08:30Z</time></trkpt><trkpt lat="58.325367" lon="38.865408"><ele>102.8</ele><time>2023-06-17T15:08:37Z</time></trkpt><trkpt lat="58.325438" lon="38.865465"><ele>102.9</ele><time>2023-06-17T15:08:43Z</time></trkpt><trkpt lat="58.325507" lon="38.865512"><ele>102.7</ele><time>2023-06-17T15:08:48Z</time></trkpt><trkpt lat="58.325585" lon="38.865578"><ele>102.7</ele><time>2023-06-17T15:08:54Z</time></trkpt><trkpt lat="58.325657" lon="38.865633"><ele>102.5</ele><time>2023-06-17T15:08:59Z</time></trkpt><trkpt lat="58.325727" lon="38.86571"><ele>102.6</ele><time>2023-06-17T15:09:05Z</time></trkpt><trkpt lat="58.3258" lon="38.865775"><ele>102.4</ele><time>2023-06-17T15:09:11Z</time></trkpt><trkpt lat="58.325868" lon="38.865835"><ele>102.4</ele><time>2023-06-17T15:09:16Z</time></trkpt><trkpt lat="58.325937" lon="38.865882"><ele>102.7</ele><time>2023-06-17T15:09:21Z</time></trkpt><trkpt lat="58.326008" lon="38.865937"><ele>103.0</ele><time>2023-06-17T15:09:27Z</time></trkpt><trkpt lat="58.326077" lon="38.865998"><ele>103.1</ele><time>2023-06-17T15:09:33Z</time></trkpt><trkpt lat="58.326145" lon="38.866078"><ele>102.8</ele><time>2023-06-17T15:09:39Z</time></trkpt><trkpt lat="58.326207" lon="38.866157"><ele>101.7</ele><time>2023-06-17T15:12:27Z</time></trkpt><trkpt lat="58.326183" lon="38.866293"><ele>103.5</ele><time>2023-06-17T15:12:44Z</time></trkpt><trkpt lat="58.326118" lon="38.866368"><ele>104.9</ele><time>2023-06-17T15:12:55Z</time></trkpt><trkpt lat="58.326057" lon="38.866452"><ele>105.4</ele><time>2023-06-17T15:13:03Z</time></trkpt><trkpt lat="58.325995" lon="38.866545"><ele>106.7</ele><time>2023-06-17T15:13:11Z</time></trkpt><trkpt lat="58.32601" lon="38.866683"><ele>108.4</ele><time>2023-06-17T15:14:00Z</time></trkpt><trkpt lat="58.326037" lon="38.866817"><ele>108.7</ele><time>2023-06-17T15:14:07Z</time></trkpt><trkpt lat="58.326047" lon="38.866963"><ele>109.7</ele><time>2023-06-17T15:14:15Z</time></trkpt><trkpt lat="58.326045" lon="38.867112"><ele>110.1</ele><time>2023-06-17T15:14:22Z</time></trkpt><trkpt lat="58.326007" lon="38.867247"><ele>110.1</ele><time>2023-06-17T15:14:28Z</time></trkpt><trkpt lat="58.32594" lon="38.86734"><ele>110.5</ele><time>2023-06-17T15:14:36Z</time></trkpt><trkpt lat="58.325885" lon="38.867427"><ele>110.7</ele><time>2023-06-17T15:14:42Z</time></trkpt><trkpt lat="58.32584" lon="38.867542"><ele>110.5</ele><time>2023-06-17T15:14:49Z</time></trkpt><trkpt lat="58.325825" lon="38.867692"><ele>111.1</ele><time>2023-06-17T15:14:57Z</time></trkpt><trkpt lat="58.3258" lon="38.86783"><ele>111.1</ele><time>2023-06-17T15:15:04Z</time></trkpt><trkpt lat="58.325777" lon="38.867978"><ele>110.8</ele><time>2023-06-17T15:15:10Z</time></trkpt><trkpt lat="58.325775" lon="38.868115"><ele>111.5</ele><time>2023-06-17T15:15:16Z</time></trkpt><trkpt lat="58.325743" lon="38.868248"><ele>111.6</ele><time>2023-06-17T15:15:23Z</time></trkpt><trkpt lat="58.325708" lon="38.86838"><ele>111.3</ele><time>2023-06-17T15:15:30Z</time></trkpt><trkpt lat="58.325683" lon="38.868528"><ele>112.0</ele><time>2023-06-17T15:15:38Z</time></trkpt><trkpt lat="58.325673" lon="38.868672"><ele>111.7</ele><time>2023-06-17T15:15:45Z</time></trkpt><trkpt lat="58.32565" lon="38.868812"><ele>110.9</ele><time>2023-06-17T15:15:51Z</time></trkpt><trkpt lat="58.325617" lon="38.868945"><ele>110.2</ele><time>2023-06-17T15:15:58Z</time></trkpt><trkpt lat="58.325572" lon="38.869077"><ele>110.1</ele><time>2023-06-17T15:16:05Z</time></trkpt><trkpt lat="58.325552" lon="38.869207"><ele>110.6</ele><time>2023-06-17T15:16:12Z</time></trkpt><trkpt lat="58.32556" lon="38.869352"><ele>110.8</ele><time>2023-06-17T15:16:19Z</time></trkpt><trkpt lat="58.325568" lon="38.86949"><ele>111.6</ele><time>2023-06-17T15:16:26Z</time></trkpt><trkpt lat="58.325645" lon="38.86955"><ele>112.6</ele><time>2023-06-17T15:16:35Z</time></trkpt><trkpt lat="58.325712" lon="38.869617"><ele>113.1</ele><time>2023-06-17T15:16:41Z</time></trkpt><trkpt lat="58.325783" lon="38.869682"><ele>113.1</ele><time>2023-06-17T15:16:48Z</time></trkpt><trkpt lat="58.325852" lon="38.869748"><ele>112.9</ele><time>2023-06-17T15:16:55Z</time></trkpt><trkpt lat="58.325923" lon="38.869823"><ele>112.9</ele><time>2023-06-17T15:17:02Z</time></trkpt><trkpt lat="58.325992" lon="38.869897"><ele>113.1</ele><time>2023-06-17T15:17:09Z</time></trkpt><trkpt lat="58.326057" lon="38.869958"><ele>113.3</ele><time>2023-06-17T15:17:15Z</time></trkpt><trkpt lat="58.326123" lon="38.870032"><ele>113.1</ele><time>2023-06-17T15:17:21Z</time></trkpt><trkpt lat="58.32619" lon="38.870108"><ele>113.0</ele><time>2023-06-17T15:17:28Z</time></trkpt><trkpt lat="58.326253" lon="38.870188"><ele>113.0</ele><time>2023-06-17T15:17:34Z</time></trkpt><trkpt lat="58.326318" lon="38.870272"><ele>113.5</ele><time>2023-06-17T15:17:40Z</time></trkpt><trkpt lat="58.326388" lon="38.870367"><ele>113.7</ele><time>2023-06-17T15:17:48Z</time></trkpt><trkpt lat="58.326473" lon="38.870412"><ele>114.3</ele><time>2023-06-17T15:17:53Z</time></trkpt><trkpt lat="58.326553" lon="38.8704"><ele>113.9</ele><time>2023-06-17T15:17:58Z</time></trkpt><trkpt lat="58.326622" lon="38.870462"><ele>114.2</ele><time>2023-06-17T15:18:05Z</time></trkpt><trkpt lat="58.32669" lon="38.870527"><ele>114.9</ele><time>2023-06-17T15:18:12Z</time></trkpt><trkpt lat="58.32676" lon="38.870615"><ele>114.9</ele><time>2023-06-17T15:18:19Z</time></trkpt><trkpt lat="58.326822" lon="38.870698"><ele>114.5</ele><time>2023-06-17T15:18:26Z</time></trkpt><trkpt lat="58.326893" lon="38.870767"><ele>114.6</ele><time>2023-06-17T15:18:33Z</time></trkpt><trkpt lat="58.326957" lon="38.870832"><ele>114.7</ele><time>2023-06-17T15:18:39Z</time></trkpt><trkpt lat="58.327032" lon="38.870903"><ele>114.0</ele><time>2023-06-17T15:18:46Z</time></trkpt><trkpt lat="58.327103" lon="38.870972"><ele>113.8</ele><time>2023-06-17T15:18:53Z</time></trkpt><trkpt lat="58.327173" lon="38.871042"><ele>113.3</ele><time>2023-06-17T15:19:00Z</time></trkpt><trkpt lat="58.32725" lon="38.8711"><ele>113.2</ele><time>2023-06-17T15:19:07Z</time></trkpt><trkpt lat="58.327328" lon="38.871147"><ele>113.1</ele><time>2023-06-17T15:19:14Z</time></trkpt><trkpt lat="58.327385" lon="38.871235"><ele>112.5</ele><time>2023-06-17T15:19:20Z</time></trkpt><trkpt lat="58.32744" lon="38.871333"><ele>112.9</ele><time>2023-06-17T15:19:27Z</time></trkpt><trkpt lat="58.32751" lon="38.871408"><ele>113.2</ele><time>2023-06-17T15:19:34Z</time></trkpt><trkpt lat="58.327583" lon="38.871467"><ele>112.6</ele><time>2023-06-17T15:19:41Z</time></trkpt><trkpt lat="58.327662" lon="38.871522"><ele>112.5</ele><time>2023-06-17T15:19:48Z</time></trkpt><trkpt lat="58.327737" lon="38.871603"><ele>112.6</ele><time>2023-06-17T15:19:56Z</time></trkpt><trkpt lat="58.327798" lon="38.871702"><ele>112.6</ele><time>2023-06-17T15:20:02Z</time></trkpt><trkpt lat="58.327852" lon="38.871798"><ele>112.8</ele><time>2023-06-17T15:20:08Z</time></trkpt><trkpt lat="58.327912" lon="38.871907"><ele>112.9</ele><time>2023-06-17T15:20:15Z</time></trkpt><trkpt lat="58.327958" lon="38.872018"><ele>112.8</ele><time>2023-06-17T15:20:22Z</time></trkpt><trkpt lat="58.328003" lon="38.87213"><ele>112.9</ele><time>2023-06-17T15:20:28Z</time></trkpt><trkpt lat="58.328047" lon="38.87225"><ele>113.0</ele><time>2023-06-17T15:20:35Z</time></trkpt><trkpt lat="58.32808" lon="38.87238"><ele>113.3</ele><time>2023-06-17T15:20:42Z</time></trkpt><trkpt lat="58.328052" lon="38.872247"><ele>112.4</ele><time>2023-06-17T15:21:29Z</time></trkpt><trkpt lat="58.328097" lon="38.872362"><ele>113.5</ele><time>2023-06-17T15:22:01Z</time></trkpt><trkpt lat="58.328148" lon="38.872463"><ele>114.0</ele><time>2023-06-17T15:22:25Z</time></trkpt><trkpt lat="58.328165" lon="38.872618"><ele>112.5</ele><time>2023-06-17T15:22:34Z</time></trkpt><trkpt lat="58.32822" lon="38.87274"><ele>112.8</ele><time>2023-06-17T15:22:41Z</time></trkpt><trkpt lat="58.328228" lon="38.872885"><ele>111.5</ele><time>2023-06-17T15:22:49Z</time></trkpt><trkpt lat="58.328205" lon="38.87304"><ele>112.7</ele><time>2023-06-17T15:22:56Z</time></trkpt><trkpt lat="58.328187" lon="38.87318"><ele>113.2</ele><time>2023-06-17T15:23:02Z</time></trkpt><trkpt lat="58.328168" lon="38.873328"><ele>113.8</ele><time>2023-06-17T15:23:09Z</time></trkpt><trkpt lat="58.328155" lon="38.87348"><ele>113.7</ele><time>2023-06-17T15:23:17Z</time></trkpt><trkpt lat="58.32813" lon="38.873617"><ele>114.1</ele><time>2023-06-17T15:23:25Z</time></trkpt><trkpt lat="58.3281" lon="38.873762"><ele>114.4</ele><time>2023-06-17T15:23:32Z</time></trkpt><trkpt lat="58.328067" lon="38.873893"><ele>114.7</ele><time>2023-06-17T15:23:39Z</time></trkpt><trkpt lat="58.328027" lon="38.874013"><ele>115.1</ele><time>2023-06-17T15:23:45Z</time></trkpt><trkpt lat="58.328007" lon="38.874162"><ele>115.6</ele><time>2023-06-17T15:23:52Z</time></trkpt><trkpt lat="58.327983" lon="38.874307"><ele>115.5</ele><time>2023-06-17T15:24:01Z</time></trkpt><trkpt lat="58.328" lon="38.874462"><ele>115.4</ele><time>2023-06-17T15:24:09Z</time></trkpt><trkpt lat="58.32799" lon="38.874603"><ele>114.2</ele><time>2023-06-17T15:24:17Z</time></trkpt><trkpt lat="58.327965" lon="38.874738"><ele>113.6</ele><time>2023-06-17T15:24:26Z</time></trkpt><trkpt lat="58.327935" lon="38.87487"><ele>112.9</ele><time>2023-06-17T15:24:33Z</time></trkpt><trkpt lat="58.327907" lon="38.875008"><ele>113.2</ele><time>2023-06-17T15:24:40Z</time></trkpt><trkpt lat="58.327905" lon="38.87517"><ele>113.9</ele><time>2023-06-17T15:24:49Z</time></trkpt><trkpt lat="58.327898" lon="38.875315"><ele>114.3</ele><time>2023-06-17T15:24:54Z</time></trkpt><trkpt lat="58.327865" lon="38.87544"><ele>115.4</ele><time>2023-06-17T15:25:07Z</time></trkpt><trkpt lat="58.327825" lon="38.87557"><ele>115.6</ele><time>2023-06-17T15:25:15Z</time></trkpt><trkpt lat="58.327785" lon="38.875683"><ele>115.0</ele><time>2023-06-17T15:25:22Z</time></trkpt><trkpt lat="58.327748" lon="38.875807"><ele>114.1</ele><time>2023-06-17T15:25:29Z</time></trkpt><trkpt lat="58.327713" lon="38.875938"><ele>113.4</ele><time>2023-06-17T15:25:36Z</time></trkpt><trkpt lat="58.327687" lon="38.876083"><ele>113.4</ele><time>2023-06-17T15:25:44Z</time></trkpt><trkpt lat="58.32764" lon="38.876193"><ele>113.9</ele><time>2023-06-17T15:25:50Z</time></trkpt><trkpt lat="58.327588" lon="38.876322"><ele>114.8</ele><time>2023-06-17T15:25:57Z</time></trkpt><trkpt lat="58.327542" lon="38.87645"><ele>115.3</ele><time>2023-06-17T15:26:04Z</time></trkpt><trkpt lat="58.327518" lon="38.87659"><ele>116.5</ele><time>2023-06-17T15:26:12Z</time></trkpt><trkpt lat="58.327578" lon="38.876677"><ele>116.8</ele><time>2023-06-17T15:26:19Z</time></trkpt><trkpt lat="58.327652" lon="38.87669"><ele>116.6</ele><time>2023-06-17T15:26:25Z</time></trkpt><trkpt lat="58.327723" lon="38.876713"><ele>116.3</ele><time>2023-06-17T15:26:31Z</time></trkpt><trkpt lat="58.327797" lon="38.876747"><ele>116.0</ele><time>2023-06-17T15:26:38Z</time></trkpt><trkpt lat="58.327877" lon="38.876805"><ele>115.8</ele><time>2023-06-17T15:26:52Z</time></trkpt><trkpt lat="58.327937" lon="38.876885"><ele>115.8</ele><time>2023-06-17T15:26:58Z</time></trkpt><trkpt lat="58.32802" lon="38.876907"><ele>115.5</ele><time>2023-06-17T15:27:03Z</time></trkpt><trkpt lat="58.3281" lon="38.876937"><ele>115.2</ele><time>2023-06-17T15:27:09Z</time></trkpt><trkpt lat="58.328178" lon="38.876975"><ele>115.0</ele><time>2023-06-17T15:27:15Z</time></trkpt><trkpt lat="58.32824" lon="38.877072"><ele>114.9</ele><time>2023-06-17T15:27:22Z</time></trkpt><trkpt lat="58.328225" lon="38.87722"><ele>114.3</ele><time>2023-06-17T15:27:28Z</time></trkpt><trkpt lat="58.328208" lon="38.877358"><ele>114.5</ele><time>2023-06-17T15:27:34Z</time></trkpt><trkpt lat="58.328183" lon="38.877508"><ele>114.8</ele><time>2023-06-17T15:27:41Z</time></trkpt><trkpt lat="58.328158" lon="38.877645"><ele>115.0</ele><time>2023-06-17T15:27:48Z</time></trkpt><trkpt lat="58.328205" lon="38.877763"><ele>115.7</ele><time>2023-06-17T15:27:58Z</time></trkpt><trkpt lat="58.32827" lon="38.877862"><ele>115.3</ele><time>2023-06-17T15:28:17Z</time></trkpt><trkpt lat="58.328307" lon="38.877985"><ele>115.6</ele><time>2023-06-17T15:28:23Z</time></trkpt><trkpt lat="58.328367" lon="38.878062"><ele>115.7</ele><time>2023-06-17T15:28:47Z</time></trkpt><trkpt lat="58.328435" lon="38.87811"><ele>114.8</ele><time>2023-06-17T15:29:00Z</time></trkpt><trkpt lat="58.328482" lon="38.878222"><ele>115.2</ele><time>2023-06-17T15:29:11Z</time></trkpt><trkpt lat="58.328555" lon="38.878243"><ele>115.1</ele><time>2023-06-17T15:30:11Z</time></trkpt><trkpt lat="58.328572" lon="38.878095"><ele>114.8</ele><time>2023-06-17T15:30:19Z</time></trkpt><trkpt lat="58.328585" lon="38.877947"><ele>114.6</ele><time>2023-06-17T15:30:23Z</time></trkpt><trkpt lat="58.328648" lon="38.878017"><ele>114.9</ele><time>2023-06-17T15:30:32Z</time></trkpt></trkseg></trk></gpx>