<?xml version="1.0" encoding="UTF-8" standalone="no"?><gpx xmlns="http://www.topografix.com/GPX/1/1" xmlns:gpxtpx="http://www.garmin.com/xmlschemas/TrackPointExtension/v1" xmlns:xsi="http://www.w3.org/2001/XMLSchema-instance" creator="Sports Tracker" version="1.1" xsi:schemaLocation="http://www.topografix.com/GPX/1/1 http://www.topografix.com/GPX/1/1/gpx.xsd http://www.garmin.com/xmlschemas/TrackPointExtension/v1 http://www.garmin.com/xmlschemas/TrackPointExtensionv1.xsd"><metadata><name>16.10.2022 12:53</name><desc/><author><name>Александр</name></author></metadata><trk><name>16.10.2022 12:53</name><trkseg><trkpt lat="57.99433" lon="38.8719"><ele>124.7</ele><time>2022-10-16T09:53:53Z</time></trkpt><trkpt lat="57.99433" lon="38.8719"><ele>124.7</ele><time>2022-10-16T09:54:11Z</time></trkpt><trkpt lat="57.99424" lon="38.871795"><ele>131.5</ele><time>2022-10-16T09:54:13Z</time></trkpt><trkpt lat="57.994163" lon="38.87168"><ele>136.7</ele><time>2022-10-16T09:54:17Z</time></trkpt><trkpt lat="57.994135" lon="38.87159"><ele>133.4</ele><time>2022-10-16T09:54:24Z</time></trkpt><trkpt lat="57.99412" lon="38.871532"><ele>133.2</ele><time>2022-10-16T09:54:31Z</time></trkpt><trkpt lat="57.994105" lon="38.871385"><ele>136.5</ele><time>2022-10-16T09:54:36Z</time></trkpt><trkpt lat="57.99411" lon="38.87124"><ele>133.2</ele><time>2022-10-16T09:54:40Z</time></trkpt><trkpt lat="57.994125" lon="38.87121"><ele>132.8</ele><time>2022-10-16T09:54:47Z</time></trkpt><trkpt lat="57.994157" lon="38.871185"><ele>135.7</ele><time>2022-10-16T09:54:54Z</time></trkpt><trkpt lat="57.99416" lon="38.871175"><ele>135.4</ele><time>2022-10-16T09:55:01Z</time></trkpt><trkpt lat="57.99417" lon="38.871175"><ele>134.9</ele><time>2022-10-16T09:55:08Z</time></trkpt><trkpt lat="57.994165" lon="38.871162"><ele>136.3</ele><time>2022-10-16T09:55:15Z</time></trkpt><trkpt lat="57.994165" lon="38.87116"><ele>136.6</ele><time>2022-10-16T09:55:16Z</time></trkpt><trkpt lat="57.994127" lon="38.871015"><ele>134.4</ele><time>2022-10-16T09:55:31Z</time></trkpt><trkpt lat="57.99411" lon="38.870885"><ele>132.3</ele><time>2022-10-16T09:55:36Z</time></trkpt><trkpt lat="57.99412" lon="38.870795"><ele>132.2</ele><time>2022-10-16T09:55:43Z</time></trkpt><trkpt lat="57.9941" lon="38.87062"><ele>127.9</ele><time>2022-10-16T09:55:49Z</time></trkpt><trkpt lat="57.994135" lon="38.870495"><ele>126.9</ele><time>2022-10-16T09:55:55Z</time></trkpt><trkpt lat="57.99418" lon="38.870442"><ele>131.2</ele><time>2022-10-16T09:56:02Z</time></trkpt><trkpt lat="57.994147" lon="38.87042"><ele>133.4</ele><time>2022-10-16T09:56:09Z</time></trkpt><trkpt lat="57.99416" lon="38.87041"><ele>134.9</ele><time>2022-10-16T09:56:16Z</time></trkpt><trkpt lat="57.99416" lon="38.87041"><ele>134.9</ele><time>2022-10-16T09:56:20Z</time></trkpt><trkpt lat="57.99417" lon="38.870382"><ele>134.3</ele><time>2022-10-16T09:56:32Z</time></trkpt><trkpt lat="57.994225" lon="38.870355"><ele>130.8</ele><time>2022-10-16T09:56:39Z</time></trkpt><trkpt lat="57.994295" lon="38.8704"><ele>131.4</ele><time>2022-10-16T09:56:44Z</time></trkpt><trkpt lat="57.994387" lon="38.870422"><ele>130.8</ele><time>2022-10-16T09:56:47Z</time></trkpt><trkpt lat="57.99447" lon="38.87044"><ele>130.2</ele><time>2022-10-16T09:56:51Z</time></trkpt><trkpt lat="57.994535" lon="38.87046"><ele>129.7</ele><time>2022-10-16T09:56:58Z</time></trkpt><trkpt lat="57.99456" lon="38.87047"><ele>128.5</ele><time>2022-10-16T09:57:05Z</time></trkpt><trkpt lat="57.99457" lon="38.8704"><ele>127.6</ele><time>2022-10-16T09:57:12Z</time></trkpt><trkpt lat="57.994612" lon="38.87028"><ele>128.5</ele><time>2022-10-16T09:57:17Z</time></trkpt><trkpt lat="57.994625" lon="38.87025"><ele>125.8</ele><time>2022-10-16T09:57:24Z</time></trkpt><trkpt lat="57.99465" lon="38.87028"><ele>127.0</ele><time>2022-10-16T09:57:31Z</time></trkpt><trkpt lat="57.994655" lon="38.870282"><ele>127.4</ele><time>2022-10-16T09:57:35Z</time></trkpt><trkpt lat="57.99466" lon="38.870285"><ele>128.2</ele><time>2022-10-16T09:57:46Z</time></trkpt><trkpt lat="57.99473" lon="38.87034"><ele>123.8</ele><time>2022-10-16T09:57:53Z</time></trkpt><trkpt lat="57.994772" lon="38.870465"><ele>120.1</ele><time>2022-10-16T09:57:58Z</time></trkpt><trkpt lat="57.99485" lon="38.870557"><ele>120.3</ele><time>2022-10-16T09:58:02Z</time></trkpt><trkpt lat="57.994915" lon="38.870675"><ele>119.8</ele><time>2022-10-16T09:58:05Z</time></trkpt><trkpt lat="57.994995" lon="38.870755"><ele>120.5</ele><time>2022-10-16T09:58:08Z</time></trkpt><trkpt lat="57.99506" lon="38.870875"><ele>121.9</ele><time>2022-10-16T09:58:11Z</time></trkpt><trkpt lat="57.99513" lon="38.870965"><ele>124.8</ele><time>2022-10-16T09:58:14Z</time></trkpt><trkpt lat="57.995197" lon="38.871065"><ele>127.4</ele><time>2022-10-16T09:58:17Z</time></trkpt><trkpt lat="57.995265" lon="38.871142"><ele>129.0</ele><time>2022-10-16T09:58:22Z</time></trkpt><trkpt lat="57.99533" lon="38.871232"><ele>129.8</ele><time>2022-10-16T09:58:26Z</time></trkpt><trkpt lat="57.995315" lon="38.871395"><ele>127.9</ele><time>2022-10-16T09:58:32Z</time></trkpt><trkpt lat="57.995335" lon="38.871532"><ele>127.9</ele><time>2022-10-16T09:58:37Z</time></trkpt><trkpt lat="57.99539" lon="38.87165"><ele>128.7</ele><time>2022-10-16T09:58:41Z</time></trkpt><trkpt lat="57.995467" lon="38.871695"><ele>130.4</ele><time>2022-10-16T09:58:44Z</time></trkpt><trkpt lat="57.99554" lon="38.871745"><ele>134.2</ele><time>2022-10-16T09:58:48Z</time></trkpt><trkpt lat="57.99555" lon="38.87178"><ele>134.1</ele><time>2022-10-16T09:58:55Z</time></trkpt><trkpt lat="57.99555" lon="38.871785"><ele>133.9</ele><time>2022-10-16T09:58:57Z</time></trkpt><trkpt lat="57.995565" lon="38.871795"><ele>133.9</ele><time>2022-10-16T09:59:08Z</time></trkpt><trkpt lat="57.995565" lon="38.8718"><ele>133.9</ele><time>2022-10-16T09:59:09Z</time></trkpt><trkpt lat="57.995567" lon="38.871942"><ele>132.9</ele><time>2022-10-16T09:59:16Z</time></trkpt><trkpt lat="57.99563" lon="38.87204"><ele>132.9</ele><time>2022-10-16T09:59:20Z</time></trkpt><trkpt lat="57.99564" lon="38.872205"><ele>131.7</ele><time>2022-10-16T09:59:24Z</time></trkpt><trkpt lat="57.995692" lon="38.872325"><ele>131.7</ele><time>2022-10-16T09:59:28Z</time></trkpt><trkpt lat="57.995765" lon="38.8724"><ele>134.5</ele><time>2022-10-16T09:59:32Z</time></trkpt><trkpt lat="57.995835" lon="38.87249"><ele>137.0</ele><time>2022-10-16T09:59:38Z</time></trkpt><trkpt lat="57.995902" lon="38.872575"><ele>136.6</ele><time>2022-10-16T09:59:42Z</time></trkpt><trkpt lat="57.995945" lon="38.872702"><ele>135.7</ele><time>2022-10-16T09:59:47Z</time></trkpt><trkpt lat="57.996017" lon="38.87281"><ele>136.1</ele><time>2022-10-16T09:59:52Z</time></trkpt><trkpt lat="57.99606" lon="38.872955"><ele>135.7</ele><time>2022-10-16T09:59:56Z</time></trkpt><trkpt lat="57.9961" lon="38.87309"><ele>134.6</ele><time>2022-10-16T09:59:59Z</time></trkpt><trkpt lat="57.99611" lon="38.873235"><ele>134.1</ele><time>2022-10-16T10:00:02Z</time></trkpt><trkpt lat="57.996135" lon="38.873242"><ele>136.4</ele><time>2022-10-16T10:00:09Z</time></trkpt><trkpt lat="57.996145" lon="38.87324"><ele>137.4</ele><time>2022-10-16T10:00:13Z</time></trkpt><trkpt lat="57.996215" lon="38.873225"><ele>139.9</ele><time>2022-10-16T10:00:18Z</time></trkpt><trkpt lat="57.9963" lon="38.8732"><ele>140.1</ele><time>2022-10-16T10:00:22Z</time></trkpt><trkpt lat="57.996385" lon="38.87317"><ele>139.9</ele><time>2022-10-16T10:00:27Z</time></trkpt><trkpt lat="57.996475" lon="38.873132"><ele>138.1</ele><time>2022-10-16T10:00:32Z</time></trkpt><trkpt lat="57.99655" lon="38.873105"><ele>137.6</ele><time>2022-10-16T10:00:36Z</time></trkpt><trkpt lat="57.996632" lon="38.873067"><ele>137.6</ele><time>2022-10-16T10:00:42Z</time></trkpt><trkpt lat="57.996705" lon="38.8731"><ele>132.5</ele><time>2022-10-16T10:00:49Z</time></trkpt><trkpt lat="57.99679" lon="38.873045"><ele>134.4</ele><time>2022-10-16T10:00:54Z</time></trkpt><trkpt lat="57.996865" lon="38.873082"><ele>133.3</ele><time>2022-10-16T10:00:58Z</time></trkpt><trkpt lat="57.996967" lon="38.87314"><ele>132.8</ele><time>2022-10-16T10:01:01Z</time></trkpt><trkpt lat="57.997075" lon="38.87321"><ele>132.7</ele><time>2022-10-16T10:01:04Z</time></trkpt><trkpt lat="57.99716" lon="38.873287"><ele>130.5</ele><time>2022-10-16T10:01:07Z</time></trkpt><trkpt lat="57.997225" lon="38.873365"><ele>129.4</ele><time>2022-10-16T10:01:10Z</time></trkpt><trkpt lat="57.997245" lon="38.873507"><ele>130.2</ele><time>2022-10-16T10:01:15Z</time></trkpt><trkpt lat="57.997185" lon="38.87361"><ele>132.1</ele><time>2022-10-16T10:01:19Z</time></trkpt><trkpt lat="57.99713" lon="38.87371"><ele>132.8</ele><time>2022-10-16T10:01:23Z</time></trkpt><trkpt lat="57.99712" lon="38.873752"><ele>130.6</ele><time>2022-10-16T10:01:30Z</time></trkpt><trkpt lat="57.997135" lon="38.873872"><ele>128.2</ele><time>2022-10-16T10:01:37Z</time></trkpt><trkpt lat="57.9972" lon="38.87394"><ele>127.0</ele><time>2022-10-16T10:01:41Z</time></trkpt><trkpt lat="57.997272" lon="38.873985"><ele>128.9</ele><time>2022-10-16T10:01:44Z</time></trkpt><trkpt lat="57.99732" lon="38.874"><ele>130.1</ele><time>2022-10-16T10:01:51Z</time></trkpt><trkpt lat="57.997322" lon="38.874005"><ele>130.3</ele><time>2022-10-16T10:01:55Z</time></trkpt><trkpt lat="57.997337" lon="38.87397"><ele>130.6</ele><time>2022-10-16T10:02:12Z</time></trkpt><trkpt lat="57.997372" lon="38.87388"><ele>130.5</ele><time>2022-10-16T10:02:19Z</time></trkpt><trkpt lat="57.997435" lon="38.873855"><ele>133.4</ele><time>2022-10-16T10:02:26Z</time></trkpt><trkpt lat="57.997455" lon="38.873707"><ele>134.8</ele><time>2022-10-16T10:02:32Z</time></trkpt><trkpt lat="57.9975" lon="38.873583"><ele>133.0</ele><time>2022-10-16T10:02:38Z</time></trkpt><trkpt lat="57.99755" lon="38.873485"><ele>132.6</ele><time>2022-10-16T10:02:45Z</time></trkpt><trkpt lat="57.99758" lon="38.873482"><ele>132.1</ele><time>2022-10-16T10:02:52Z</time></trkpt><trkpt lat="57.997665" lon="38.873505"><ele>130.5</ele><time>2022-10-16T10:02:56Z</time></trkpt><trkpt lat="57.997747" lon="38.873497"><ele>131.4</ele><time>2022-10-16T10:02:59Z</time></trkpt><trkpt lat="57.997805" lon="38.87337"><ele>128.6</ele><time>2022-10-16T10:03:02Z</time></trkpt><trkpt lat="57.997825" lon="38.873235"><ele>128.8</ele><time>2022-10-16T10:03:05Z</time></trkpt><trkpt lat="57.997895" lon="38.873215"><ele>130.1</ele><time>2022-10-16T10:03:11Z</time></trkpt><trkpt lat="57.997933" lon="38.873218"><ele>129.1</ele><time>2022-10-16T10:03:18Z</time></trkpt><trkpt lat="57.998018" lon="38.873257"><ele>128.6</ele><time>2022-10-16T10:03:22Z</time></trkpt><trkpt lat="57.998088" lon="38.87332"><ele>129.7</ele><time>2022-10-16T10:03:26Z</time></trkpt><trkpt lat="57.998165" lon="38.873305"><ele>130.3</ele><time>2022-10-16T10:03:32Z</time></trkpt><trkpt lat="57.99823" lon="38.873275"><ele>127.4</ele><time>2022-10-16T10:03:39Z</time></trkpt><trkpt lat="57.99822" lon="38.873265"><ele>121.0</ele><time>2022-10-16T10:03:46Z</time></trkpt><trkpt lat="57.99829" lon="38.87327"><ele>118.0</ele><time>2022-10-16T10:03:53Z</time></trkpt><trkpt lat="57.99835" lon="38.873312"><ele>113.7</ele><time>2022-10-16T10:04:00Z</time></trkpt><trkpt lat="57.99841" lon="38.87331"><ele>107.8</ele><time>2022-10-16T10:04:07Z</time></trkpt><trkpt lat="57.998462" lon="38.873225"><ele>109.3</ele><time>2022-10-16T10:04:14Z</time></trkpt><trkpt lat="57.99845" lon="38.87313"><ele>111.1</ele><time>2022-10-16T10:04:21Z</time></trkpt><trkpt lat="57.998445" lon="38.8731"><ele>112.0</ele><time>2022-10-16T10:04:28Z</time></trkpt><trkpt lat="57.998445" lon="38.8731"><ele>112.1</ele><time>2022-10-16T10:04:31Z</time></trkpt><trkpt lat="57.998467" lon="38.873075"><ele>112.0</ele><time>2022-10-16T10:04:45Z</time></trkpt><trkpt lat="57.99848" lon="38.872977"><ele>109.9</ele><time>2022-10-16T10:04:52Z</time></trkpt><trkpt lat="57.998517" lon="38.87295"><ele>109.7</ele><time>2022-10-16T10:04:59Z</time></trkpt><trkpt lat="57.998552" lon="38.87289"><ele>108.5</ele><time>2022-10-16T10:05:06Z</time></trkpt><trkpt lat="57.99861" lon="38.87278"><ele>112.6</ele><time>2022-10-16T10:05:13Z</time></trkpt><trkpt lat="57.998657" lon="38.87266"><ele>118.9</ele><time>2022-10-16T10:05:18Z</time></trkpt><trkpt lat="57.998692" lon="38.872535"><ele>121.9</ele><time>2022-10-16T10:05:23Z</time></trkpt><trkpt lat="57.99873" lon="38.872405"><ele>123.5</ele><time>2022-10-16T10:05:28Z</time></trkpt><trkpt lat="57.998725" lon="38.872245"><ele>123.5</ele><time>2022-10-16T10:05:34Z</time></trkpt><trkpt lat="57.998715" lon="38.872092"><ele>120.3</ele><time>2022-10-16T10:05:39Z</time></trkpt><trkpt lat="57.998735" lon="38.87196"><ele>123.6</ele><time>2022-10-16T10:05:44Z</time></trkpt><trkpt lat="57.99875" lon="38.871817"><ele>122.3</ele><time>2022-10-16T10:05:49Z</time></trkpt><trkpt lat="57.99875" lon="38.871667"><ele>121.2</ele><time>2022-10-16T10:05:56Z</time></trkpt><trkpt lat="57.998778" lon="38.871532"><ele>124.8</ele><time>2022-10-16T10:06:03Z</time></trkpt><trkpt lat="57.998815" lon="38.871415"><ele>126.3</ele><time>2022-10-16T10:06:08Z</time></trkpt><trkpt lat="57.99887" lon="38.871295"><ele>128.5</ele><time>2022-10-16T10:06:14Z</time></trkpt><trkpt lat="57.99888" lon="38.871175"><ele>128.8</ele><time>2022-10-16T10:06:21Z</time></trkpt><trkpt lat="57.998905" lon="38.871045"><ele>128.0</ele><time>2022-10-16T10:06:28Z</time></trkpt><trkpt lat="57.998945" lon="38.87099"><ele>125.2</ele><time>2022-10-16T10:06:35Z</time></trkpt><trkpt lat="57.998985" lon="38.87088"><ele>125.7</ele><time>2022-10-16T10:06:42Z</time></trkpt><trkpt lat="57.999017" lon="38.870765"><ele>126.7</ele><time>2022-10-16T10:06:49Z</time></trkpt><trkpt lat="57.999035" lon="38.87065"><ele>125.9</ele><time>2022-10-16T10:06:56Z</time></trkpt><trkpt lat="57.99906" lon="38.8706"><ele>126.3</ele><time>2022-10-16T10:07:03Z</time></trkpt><trkpt lat="57.999115" lon="38.870485"><ele>128.1</ele><time>2022-10-16T10:07:10Z</time></trkpt><trkpt lat="57.999175" lon="38.870407"><ele>128.4</ele><time>2022-10-16T10:07:14Z</time></trkpt><trkpt lat="57.999228" lon="38.870312"><ele>128.9</ele><time>2022-10-16T10:07:18Z</time></trkpt><trkpt lat="57.999298" lon="38.870235"><ele>132.8</ele><time>2022-10-16T10:07:23Z</time></trkpt><trkpt lat="57.999297" lon="38.87009"><ele>130.8</ele><time>2022-10-16T10:07:28Z</time></trkpt><trkpt lat="57.99927" lon="38.869945"><ele>126.1</ele><time>2022-10-16T10:07:32Z</time></trkpt><trkpt lat="57.999205" lon="38.86986"><ele>125.5</ele><time>2022-10-16T10:07:37Z</time></trkpt><trkpt lat="57.999175" lon="38.869852"><ele>124.1</ele><time>2022-10-16T10:07:44Z</time></trkpt><trkpt lat="57.999175" lon="38.869845"><ele>124.0</ele><time>2022-10-16T10:07:47Z</time></trkpt><trkpt lat="57.99913" lon="38.86974"><ele>122.9</ele><time>2022-10-16T10:07:52Z</time></trkpt><trkpt lat="57.999065" lon="38.869642"><ele>121.8</ele><time>2022-10-16T10:07:56Z</time></trkpt><trkpt lat="57.99901" lon="38.86955"><ele>123.8</ele><time>2022-10-16T10:08:02Z</time></trkpt><trkpt lat="57.998957" lon="38.869435"><ele>122.5</ele><time>2022-10-16T10:08:09Z</time></trkpt><trkpt lat="57.998918" lon="38.869355"><ele>123.9</ele><time>2022-10-16T10:08:16Z</time></trkpt><trkpt lat="57.998895" lon="38.869327"><ele>125.5</ele><time>2022-10-16T10:08:23Z</time></trkpt><trkpt lat="57.998857" lon="38.869185"><ele>122.1</ele><time>2022-10-16T10:08:29Z</time></trkpt><trkpt lat="57.99881" lon="38.869075"><ele>122.0</ele><time>2022-10-16T10:08:34Z</time></trkpt><trkpt lat="57.998835" lon="38.86891"><ele>122.5</ele><time>2022-10-16T10:08:38Z</time></trkpt><trkpt lat="57.99889" lon="38.86878"><ele>121.9</ele><time>2022-10-16T10:08:41Z</time></trkpt><trkpt lat="57.998928" lon="38.86862"><ele>121.6</ele><time>2022-10-16T10:08:44Z</time></trkpt><trkpt lat="57.998975" lon="38.86851"><ele>122.0</ele><time>2022-10-16T10:08:46Z</time></trkpt><trkpt lat="57.99904" lon="38.86843"><ele>124.7</ele><time>2022-10-16T10:08:48Z</time></trkpt><trkpt lat="57.999095" lon="38.868335"><ele>124.6</ele><time>2022-10-16T10:08:50Z</time></trkpt><trkpt lat="57.999162" lon="38.868245"><ele>128.4</ele><time>2022-10-16T10:08:53Z</time></trkpt><trkpt lat="57.999227" lon="38.868132"><ele>127.0</ele><time>2022-10-16T10:08:56Z</time></trkpt><trkpt lat="57.999242" lon="38.867992"><ele>125.6</ele><time>2022-10-16T10:09:00Z</time></trkpt><trkpt lat="57.99926" lon="38.867845"><ele>125.1</ele><time>2022-10-16T10:09:06Z</time></trkpt><trkpt lat="57.999313" lon="38.86775"><ele>123.7</ele><time>2022-10-16T10:09:12Z</time></trkpt><trkpt lat="57.999285" lon="38.86761"><ele>119.3</ele><time>2022-10-16T10:09:19Z</time></trkpt><trkpt lat="57.999232" lon="38.8675"><ele>118.5</ele><time>2022-10-16T10:09:23Z</time></trkpt><trkpt lat="57.99919" lon="38.867495"><ele>115.7</ele><time>2022-10-16T10:09:30Z</time></trkpt><trkpt lat="57.99912" lon="38.867445"><ele>112.0</ele><time>2022-10-16T10:09:36Z</time></trkpt><trkpt lat="57.999125" lon="38.867287"><ele>117.9</ele><time>2022-10-16T10:09:41Z</time></trkpt><trkpt lat="57.999082" lon="38.867162"><ele>113.6</ele><time>2022-10-16T10:09:48Z</time></trkpt><trkpt lat="57.99912" lon="38.867032"><ele>115.0</ele><time>2022-10-16T10:09:53Z</time></trkpt><trkpt lat="57.999155" lon="38.86691"><ele>115.9</ele><time>2022-10-16T10:09:59Z</time></trkpt><trkpt lat="57.99909" lon="38.866805"><ele>111.8</ele><time>2022-10-16T10:10:06Z</time></trkpt><trkpt lat="57.999018" lon="38.86674"><ele>109.7</ele><time>2022-10-16T10:10:12Z</time></trkpt><trkpt lat="57.998945" lon="38.866715"><ele>110.9</ele><time>2022-10-16T10:10:17Z</time></trkpt><trkpt lat="57.998887" lon="38.866617"><ele>109.4</ele><time>2022-10-16T10:10:22Z</time></trkpt><trkpt lat="57.998815" lon="38.866607"><ele>110.6</ele><time>2022-10-16T10:10:26Z</time></trkpt><trkpt lat="57.998755" lon="38.86653"><ele>113.1</ele><time>2022-10-16T10:10:33Z</time></trkpt><trkpt lat="57.998737" lon="38.866435"><ele>115.6</ele><time>2022-10-16T10:10:40Z</time></trkpt><trkpt lat="57.998735" lon="38.866435"><ele>115.7</ele><time>2022-10-16T10:10:45Z</time></trkpt><trkpt lat="57.99875" lon="38.866472"><ele>114.2</ele><time>2022-10-16T10:10:54Z</time></trkpt><trkpt lat="57.99875" lon="38.866475"><ele>114.2</ele><time>2022-10-16T10:11:00Z</time></trkpt><trkpt lat="57.99875" lon="38.86648"><ele>115.5</ele><time>2022-10-16T10:11:16Z</time></trkpt><trkpt lat="57.99875" lon="38.86648"><ele>115.4</ele><time>2022-10-16T10:11:17Z</time></trkpt><trkpt lat="57.998745" lon="38.866477"><ele>114.1</ele><time>2022-10-16T10:11:28Z</time></trkpt><trkpt lat="57.998757" lon="38.866323"><ele>113.1</ele><time>2022-10-16T10:11:33Z</time></trkpt><trkpt lat="57.9987" lon="38.866238"><ele>111.5</ele><time>2022-10-16T10:11:40Z</time></trkpt><trkpt lat="57.99863" lon="38.86616"><ele>113.7</ele><time>2022-10-16T10:11:47Z</time></trkpt><trkpt lat="57.998575" lon="38.86604"><ele>116.6</ele><time>2022-10-16T10:11:53Z</time></trkpt><trkpt lat="57.998515" lon="38.865952"><ele>119.3</ele><time>2022-10-16T10:12:00Z</time></trkpt><trkpt lat="57.99844" lon="38.865915"><ele>120.9</ele><time>2022-10-16T10:12:05Z</time></trkpt><trkpt lat="57.99838" lon="38.86583"><ele>120.4</ele><time>2022-10-16T10:12:12Z</time></trkpt><trkpt lat="57.998322" lon="38.865725"><ele>121.0</ele><time>2022-10-16T10:12:19Z</time></trkpt><trkpt lat="57.998285" lon="38.865605"><ele>120.3</ele><time>2022-10-16T10:12:25Z</time></trkpt><trkpt lat="57.998262" lon="38.865475"><ele>122.4</ele><time>2022-10-16T10:12:31Z</time></trkpt><trkpt lat="57.998205" lon="38.865365"><ele>122.3</ele><time>2022-10-16T10:12:37Z</time></trkpt></trkseg></trk></gpx>