<?xml version="1.0" encoding="UTF-8" standalone="no"?><gpx xmlns="http://www.topografix.com/GPX/1/1" xmlns:gpxtpx="http://www.garmin.com/xmlschemas/TrackPointExtension/v1" xmlns:xsi="http://www.w3.org/2001/XMLSchema-instance" creator="Sports Tracker" version="1.1" xsi:schemaLocation="http://www.topografix.com/GPX/1/1 http://www.topografix.com/GPX/1/1/gpx.xsd http://www.garmin.com/xmlschemas/TrackPointExtension/v1 http://www.garmin.com/xmlschemas/TrackPointExtensionv1.xsd"><metadata><name/><desc/><author><name>Александр</name></author></metadata><trk><name/><trkseg><trkpt lat="58.058592" lon="38.809507"><ele>105.3</ele><time>2023-10-24T13:49:07Z</time></trkpt><trkpt lat="58.058575" lon="38.809678"><ele>105.4</ele><time>2023-10-24T13:49:10Z</time></trkpt><trkpt lat="58.058598" lon="38.809815"><ele>106.7</ele><time>2023-10-24T13:49:13Z</time></trkpt><trkpt lat="58.05869" lon="38.809838"><ele>107.8</ele><time>2023-10-24T13:49:16Z</time></trkpt><trkpt lat="58.058782" lon="38.809862"><ele>106.6</ele><time>2023-10-24T13:49:20Z</time></trkpt><trkpt lat="58.05887" lon="38.80994"><ele>106.8</ele><time>2023-10-24T13:49:22Z</time></trkpt><trkpt lat="58.058923" lon="38.810087"><ele>106.9</ele><time>2023-10-24T13:49:24Z</time></trkpt><trkpt lat="58.05895" lon="38.81025"><ele>106.5</ele><time>2023-10-24T13:49:26Z</time></trkpt><trkpt lat="58.059003" lon="38.810407"><ele>106.8</ele><time>2023-10-24T13:49:28Z</time></trkpt><trkpt lat="58.05895" lon="38.810502"><ele>107.2</ele><time>2023-10-24T13:49:29Z</time></trkpt><trkpt lat="58.0589" lon="38.810693"><ele>106.6</ele><time>2023-10-24T13:49:32Z</time></trkpt><trkpt lat="58.058838" lon="38.810778"><ele>106.1</ele><time>2023-10-24T13:49:34Z</time></trkpt><trkpt lat="58.058838" lon="38.810932"><ele>106.0</ele><time>2023-10-24T13:49:38Z</time></trkpt><trkpt lat="58.058818" lon="38.811072"><ele>105.3</ele><time>2023-10-24T13:49:42Z</time></trkpt><trkpt lat="58.058817" lon="38.811225"><ele>105.0</ele><time>2023-10-24T13:49:46Z</time></trkpt><trkpt lat="58.058905" lon="38.811282"><ele>105.2</ele><time>2023-10-24T13:50:10Z</time></trkpt><trkpt lat="58.058993" lon="38.811263"><ele>105.7</ele><time>2023-10-24T13:50:37Z</time></trkpt><trkpt lat="58.059085" lon="38.81129"><ele>106.2</ele><time>2023-10-24T13:50:40Z</time></trkpt><trkpt lat="58.059183" lon="38.811308"><ele>106.1</ele><time>2023-10-24T13:50:43Z</time></trkpt><trkpt lat="58.05929" lon="38.811307"><ele>104.4</ele><time>2023-10-24T13:50:46Z</time></trkpt><trkpt lat="58.059362" lon="38.811293"><ele>104.6</ele><time>2023-10-24T13:50:48Z</time></trkpt><trkpt lat="58.059467" lon="38.811317"><ele>104.4</ele><time>2023-10-24T13:50:51Z</time></trkpt><trkpt lat="58.059542" lon="38.811353"><ele>104.4</ele><time>2023-10-24T13:50:53Z</time></trkpt><trkpt lat="58.059622" lon="38.811378"><ele>104.9</ele><time>2023-10-24T13:50:55Z</time></trkpt><trkpt lat="58.059748" lon="38.811397"><ele>105.6</ele><time>2023-10-24T13:50:57Z</time></trkpt><trkpt lat="58.059818" lon="38.811452"><ele>104.9</ele><time>2023-10-24T13:50:59Z</time></trkpt><trkpt lat="58.059913" lon="38.811477"><ele>104.6</ele><time>2023-10-24T13:51:01Z</time></trkpt><trkpt lat="58.059997" lon="38.811503"><ele>104.9</ele><time>2023-10-24T13:51:03Z</time></trkpt><trkpt lat="58.060107" lon="38.81153"><ele>103.7</ele><time>2023-10-24T13:51:06Z</time></trkpt><trkpt lat="58.060155" lon="38.811683"><ele>103.4</ele><time>2023-10-24T13:51:08Z</time></trkpt><trkpt lat="58.060125" lon="38.811837"><ele>103.5</ele><time>2023-10-24T13:51:10Z</time></trkpt><trkpt lat="58.060105" lon="38.81201"><ele>103.3</ele><time>2023-10-24T13:51:12Z</time></trkpt><trkpt lat="58.060077" lon="38.812188"><ele>103.5</ele><time>2023-10-24T13:51:14Z</time></trkpt><trkpt lat="58.060092" lon="38.81238"><ele>103.0</ele><time>2023-10-24T13:51:16Z</time></trkpt><trkpt lat="58.060113" lon="38.812585"><ele>103.1</ele><time>2023-10-24T13:51:18Z</time></trkpt><trkpt lat="58.060072" lon="38.81284"><ele>102.8</ele><time>2023-10-24T13:51:20Z</time></trkpt><trkpt lat="58.060032" lon="38.813075"><ele>103.1</ele><time>2023-10-24T13:51:22Z</time></trkpt><trkpt lat="58.060028" lon="38.813285"><ele>103.3</ele><time>2023-10-24T13:51:24Z</time></trkpt><trkpt lat="58.060053" lon="38.81342"><ele>103.1</ele><time>2023-10-24T13:51:25Z</time></trkpt><trkpt lat="58.06013" lon="38.813687"><ele>103.1</ele><time>2023-10-24T13:51:27Z</time></trkpt><trkpt lat="58.060115" lon="38.813837"><ele>102.8</ele><time>2023-10-24T13:51:29Z</time></trkpt><trkpt lat="58.060072" lon="38.813948"><ele>101.7</ele><time>2023-10-24T13:51:33Z</time></trkpt><trkpt lat="58.060067" lon="38.814095"><ele>101.3</ele><time>2023-10-24T13:51:36Z</time></trkpt><trkpt lat="58.060047" lon="38.814257"><ele>101.6</ele><time>2023-10-24T13:51:38Z</time></trkpt><trkpt lat="58.060035" lon="38.814393"><ele>101.8</ele><time>2023-10-24T13:51:40Z</time></trkpt><trkpt lat="58.060043" lon="38.814602"><ele>101.5</ele><time>2023-10-24T13:51:42Z</time></trkpt><trkpt lat="58.060002" lon="38.814848"><ele>101.9</ele><time>2023-10-24T13:51:44Z</time></trkpt><trkpt lat="58.059967" lon="38.815122"><ele>101.8</ele><time>2023-10-24T13:51:46Z</time></trkpt><trkpt lat="58.059938" lon="38.81538"><ele>101.7</ele><time>2023-10-24T13:51:48Z</time></trkpt><trkpt lat="58.05993" lon="38.815608"><ele>102.5</ele><time>2023-10-24T13:51:50Z</time></trkpt><trkpt lat="58.059932" lon="38.81583"><ele>102.5</ele><time>2023-10-24T13:51:52Z</time></trkpt><trkpt lat="58.059863" lon="38.81599"><ele>102.7</ele><time>2023-10-24T13:51:54Z</time></trkpt><trkpt lat="58.059872" lon="38.81622"><ele>102.2</ele><time>2023-10-24T13:51:56Z</time></trkpt><trkpt lat="58.059862" lon="38.816432"><ele>102.6</ele><time>2023-10-24T13:51:58Z</time></trkpt><trkpt lat="58.059838" lon="38.816583"><ele>102.8</ele><time>2023-10-24T13:51:59Z</time></trkpt><trkpt lat="58.059833" lon="38.816833"><ele>101.8</ele><time>2023-10-24T13:52:01Z</time></trkpt><trkpt lat="58.059792" lon="38.81696"><ele>101.0</ele><time>2023-10-24T13:52:03Z</time></trkpt><trkpt lat="58.059817" lon="38.817135"><ele>100.6</ele><time>2023-10-24T13:52:05Z</time></trkpt><trkpt lat="58.059825" lon="38.81731"><ele>102.1</ele><time>2023-10-24T13:52:42Z</time></trkpt><trkpt lat="58.059812" lon="38.817483"><ele>101.2</ele><time>2023-10-24T13:52:44Z</time></trkpt><trkpt lat="58.059787" lon="38.817693"><ele>101.4</ele><time>2023-10-24T13:52:46Z</time></trkpt><trkpt lat="58.059753" lon="38.817913"><ele>101.4</ele><time>2023-10-24T13:52:48Z</time></trkpt><trkpt lat="58.059728" lon="38.818135"><ele>101.8</ele><time>2023-10-24T13:52:50Z</time></trkpt><trkpt lat="58.0597" lon="38.818377"><ele>100.0</ele><time>2023-10-24T13:52:52Z</time></trkpt><trkpt lat="58.05967" lon="38.818503"><ele>99.9</ele><time>2023-10-24T13:52:53Z</time></trkpt><trkpt lat="58.059643" lon="38.818742"><ele>99.3</ele><time>2023-10-24T13:52:55Z</time></trkpt><trkpt lat="58.059662" lon="38.818952"><ele>99.3</ele><time>2023-10-24T13:52:57Z</time></trkpt><trkpt lat="58.059668" lon="38.819137"><ele>99.1</ele><time>2023-10-24T13:52:59Z</time></trkpt><trkpt lat="58.059645" lon="38.819343"><ele>98.3</ele><time>2023-10-24T13:53:01Z</time></trkpt><trkpt lat="58.05963" lon="38.819503"><ele>97.9</ele><time>2023-10-24T13:53:03Z</time></trkpt><trkpt lat="58.059618" lon="38.819698"><ele>97.9</ele><time>2023-10-24T13:53:05Z</time></trkpt><trkpt lat="58.059608" lon="38.819853"><ele>97.9</ele><time>2023-10-24T13:53:07Z</time></trkpt><trkpt lat="58.059593" lon="38.82005"><ele>98.4</ele><time>2023-10-24T13:53:09Z</time></trkpt><trkpt lat="58.059597" lon="38.820282"><ele>99.1</ele><time>2023-10-24T13:53:11Z</time></trkpt><trkpt lat="58.05958" lon="38.82047"><ele>99.3</ele><time>2023-10-24T13:53:13Z</time></trkpt><trkpt lat="58.059543" lon="38.820592"><ele>99.5</ele><time>2023-10-24T13:53:14Z</time></trkpt><trkpt lat="58.059522" lon="38.820778"><ele>98.7</ele><time>2023-10-24T13:53:16Z</time></trkpt><trkpt lat="58.059515" lon="38.820942"><ele>98.2</ele><time>2023-10-24T13:53:18Z</time></trkpt><trkpt lat="58.059528" lon="38.821085"><ele>97.8</ele><time>2023-10-24T13:53:20Z</time></trkpt><trkpt lat="58.059565" lon="38.821222"><ele>98.2</ele><time>2023-10-24T13:53:23Z</time></trkpt><trkpt lat="58.059667" lon="38.82132"><ele>98.7</ele><time>2023-10-24T13:53:27Z</time></trkpt><trkpt lat="58.059757" lon="38.821417"><ele>99.6</ele><time>2023-10-24T13:53:30Z</time></trkpt><trkpt lat="58.059787" lon="38.821625"><ele>99.9</ele><time>2023-10-24T13:53:33Z</time></trkpt><trkpt lat="58.059777" lon="38.821793"><ele>99.3</ele><time>2023-10-24T13:53:35Z</time></trkpt><trkpt lat="58.059762" lon="38.821983"><ele>99.5</ele><time>2023-10-24T13:53:37Z</time></trkpt><trkpt lat="58.059743" lon="38.822182"><ele>99.5</ele><time>2023-10-24T13:53:39Z</time></trkpt><trkpt lat="58.059737" lon="38.82236"><ele>99.2</ele><time>2023-10-24T13:53:41Z</time></trkpt><trkpt lat="58.059723" lon="38.822545"><ele>99.3</ele><time>2023-10-24T13:53:43Z</time></trkpt><trkpt lat="58.059713" lon="38.822712"><ele>99.3</ele><time>2023-10-24T13:53:45Z</time></trkpt><trkpt lat="58.05969" lon="38.822863"><ele>99.4</ele><time>2023-10-24T13:53:47Z</time></trkpt><trkpt lat="58.059672" lon="38.823047"><ele>99.8</ele><time>2023-10-24T13:53:49Z</time></trkpt><trkpt lat="58.059642" lon="38.823223"><ele>98.9</ele><time>2023-10-24T13:53:51Z</time></trkpt><trkpt lat="58.0596" lon="38.823378"><ele>99.0</ele><time>2023-10-24T13:53:53Z</time></trkpt><trkpt lat="58.059545" lon="38.823545"><ele>99.1</ele><time>2023-10-24T13:53:55Z</time></trkpt><trkpt lat="58.059483" lon="38.823675"><ele>99.2</ele><time>2023-10-24T13:53:57Z</time></trkpt><trkpt lat="58.059417" lon="38.823798"><ele>98.5</ele><time>2023-10-24T13:53:59Z</time></trkpt><trkpt lat="58.059332" lon="38.823893"><ele>98.8</ele><time>2023-10-24T13:54:01Z</time></trkpt><trkpt lat="58.059265" lon="38.824028"><ele>98.2</ele><time>2023-10-24T13:54:03Z</time></trkpt><trkpt lat="58.059177" lon="38.824165"><ele>98.1</ele><time>2023-10-24T13:54:05Z</time></trkpt><trkpt lat="58.059127" lon="38.824317"><ele>98.2</ele><time>2023-10-24T13:54:07Z</time></trkpt><trkpt lat="58.059028" lon="38.824438"><ele>98.7</ele><time>2023-10-24T13:54:09Z</time></trkpt><trkpt lat="58.05896" lon="38.824548"><ele>98.9</ele><time>2023-10-24T13:54:11Z</time></trkpt><trkpt lat="58.058895" lon="38.824725"><ele>98.6</ele><time>2023-10-24T13:54:13Z</time></trkpt><trkpt lat="58.058815" lon="38.824887"><ele>97.9</ele><time>2023-10-24T13:54:15Z</time></trkpt><trkpt lat="58.058758" lon="38.825043"><ele>97.3</ele><time>2023-10-24T13:54:17Z</time></trkpt><trkpt lat="58.058715" lon="38.8252"><ele>97.2</ele><time>2023-10-24T13:54:19Z</time></trkpt><trkpt lat="58.058752" lon="38.825343"><ele>97.3</ele><time>2023-10-24T13:54:21Z</time></trkpt><trkpt lat="58.058823" lon="38.825495"><ele>98.4</ele><time>2023-10-24T13:54:23Z</time></trkpt><trkpt lat="58.058925" lon="38.825618"><ele>98.7</ele><time>2023-10-24T13:54:25Z</time></trkpt><trkpt lat="58.059037" lon="38.825742"><ele>98.8</ele><time>2023-10-24T13:54:27Z</time></trkpt><trkpt lat="58.059127" lon="38.82584"><ele>99.1</ele><time>2023-10-24T13:54:29Z</time></trkpt><trkpt lat="58.05921" lon="38.82597"><ele>99.4</ele><time>2023-10-24T13:54:31Z</time></trkpt><trkpt lat="58.059283" lon="38.826082"><ele>99.6</ele><time>2023-10-24T13:54:33Z</time></trkpt><trkpt lat="58.059367" lon="38.826162"><ele>99.0</ele><time>2023-10-24T13:54:35Z</time></trkpt><trkpt lat="58.059427" lon="38.82629"><ele>98.5</ele><time>2023-10-24T13:54:37Z</time></trkpt><trkpt lat="58.059442" lon="38.826445"><ele>98.2</ele><time>2023-10-24T13:54:39Z</time></trkpt><trkpt lat="58.059395" lon="38.826568"><ele>98.3</ele><time>2023-10-24T13:54:41Z</time></trkpt><trkpt lat="58.059313" lon="38.826672"><ele>97.6</ele><time>2023-10-24T13:54:43Z</time></trkpt><trkpt lat="58.059245" lon="38.826835"><ele>97.5</ele><time>2023-10-24T13:54:45Z</time></trkpt><trkpt lat="58.059182" lon="38.827017"><ele>97.6</ele><time>2023-10-24T13:54:47Z</time></trkpt><trkpt lat="58.059107" lon="38.827182"><ele>97.9</ele><time>2023-10-24T13:54:49Z</time></trkpt><trkpt lat="58.059025" lon="38.82738"><ele>97.6</ele><time>2023-10-24T13:54:51Z</time></trkpt><trkpt lat="58.058973" lon="38.82753"><ele>98.2</ele><time>2023-10-24T13:54:52Z</time></trkpt><trkpt lat="58.058923" lon="38.827682"><ele>98.5</ele><time>2023-10-24T13:54:53Z</time></trkpt><trkpt lat="58.058895" lon="38.827837"><ele>98.8</ele><time>2023-10-24T13:54:54Z</time></trkpt><trkpt lat="58.058853" lon="38.827963"><ele>98.6</ele><time>2023-10-24T13:54:55Z</time></trkpt><trkpt lat="58.058782" lon="38.828187"><ele>98.3</ele><time>2023-10-24T13:54:57Z</time></trkpt><trkpt lat="58.058713" lon="38.828407"><ele>96.8</ele><time>2023-10-24T13:54:59Z</time></trkpt><trkpt lat="58.058635" lon="38.828617"><ele>95.2</ele><time>2023-10-24T13:55:01Z</time></trkpt><trkpt lat="58.058562" lon="38.828853"><ele>94.3</ele><time>2023-10-24T13:55:03Z</time></trkpt><trkpt lat="58.058518" lon="38.828985"><ele>94.0</ele><time>2023-10-24T13:55:04Z</time></trkpt><trkpt lat="58.058353" lon="38.829172"><ele>93.5</ele><time>2023-10-24T13:55:06Z</time></trkpt><trkpt lat="58.05829" lon="38.82929"><ele>92.0</ele><time>2023-10-24T13:55:07Z</time></trkpt><trkpt lat="58.058213" lon="38.829398"><ele>92.2</ele><time>2023-10-24T13:55:08Z</time></trkpt><trkpt lat="58.05814" lon="38.829515"><ele>91.9</ele><time>2023-10-24T13:55:09Z</time></trkpt><trkpt lat="58.058063" lon="38.829627"><ele>91.8</ele><time>2023-10-24T13:55:10Z</time></trkpt><trkpt lat="58.058013" lon="38.829752"><ele>91.5</ele><time>2023-10-24T13:55:11Z</time></trkpt><trkpt lat="58.057948" lon="38.829878"><ele>90.8</ele><time>2023-10-24T13:55:12Z</time></trkpt><trkpt lat="58.057888" lon="38.830003"><ele>90.1</ele><time>2023-10-24T13:55:13Z</time></trkpt><trkpt lat="58.057825" lon="38.830093"><ele>91.1</ele><time>2023-10-24T13:55:14Z</time></trkpt><trkpt lat="58.057748" lon="38.83018"><ele>91.7</ele><time>2023-10-24T13:55:15Z</time></trkpt><trkpt lat="58.057682" lon="38.83026"><ele>91.9</ele><time>2023-10-24T13:55:16Z</time></trkpt><trkpt lat="58.057605" lon="38.830417"><ele>92.8</ele><time>2023-10-24T13:55:18Z</time></trkpt><trkpt lat="58.057548" lon="38.830532"><ele>92.3</ele><time>2023-10-24T13:55:20Z</time></trkpt><trkpt lat="58.0575" lon="38.830652"><ele>92.3</ele><time>2023-10-24T13:55:22Z</time></trkpt><trkpt lat="58.057442" lon="38.83078"><ele>92.1</ele><time>2023-10-24T13:55:24Z</time></trkpt><trkpt lat="58.057368" lon="38.830922"><ele>91.7</ele><time>2023-10-24T13:55:26Z</time></trkpt><trkpt lat="58.057305" lon="38.831002"><ele>91.7</ele><time>2023-10-24T13:55:27Z</time></trkpt><trkpt lat="58.057245" lon="38.831082"><ele>91.8</ele><time>2023-10-24T13:55:28Z</time></trkpt><trkpt lat="58.05715" lon="38.831217"><ele>93.3</ele><time>2023-10-24T13:55:30Z</time></trkpt><trkpt lat="58.057042" lon="38.831325"><ele>93.0</ele><time>2023-10-24T13:55:32Z</time></trkpt><trkpt lat="58.056963" lon="38.831533"><ele>93.1</ele><time>2023-10-24T13:55:34Z</time></trkpt><trkpt lat="58.056912" lon="38.831627"><ele>92.4</ele><time>2023-10-24T13:55:35Z</time></trkpt><trkpt lat="58.05684" lon="38.831847"><ele>92.9</ele><time>2023-10-24T13:55:37Z</time></trkpt><trkpt lat="58.056778" lon="38.832062"><ele>94.5</ele><time>2023-10-24T13:55:39Z</time></trkpt><trkpt lat="58.056718" lon="38.832262"><ele>95.9</ele><time>2023-10-24T13:55:41Z</time></trkpt><trkpt lat="58.056647" lon="38.83244"><ele>97.2</ele><time>2023-10-24T13:55:43Z</time></trkpt><trkpt lat="58.056605" lon="38.832612"><ele>96.9</ele><time>2023-10-24T13:55:45Z</time></trkpt><trkpt lat="58.056565" lon="38.832788"><ele>96.6</ele><time>2023-10-24T13:55:47Z</time></trkpt><trkpt lat="58.056525" lon="38.832978"><ele>95.7</ele><time>2023-10-24T13:55:49Z</time></trkpt><trkpt lat="58.05647" lon="38.833143"><ele>94.8</ele><time>2023-10-24T13:55:51Z</time></trkpt><trkpt lat="58.05642" lon="38.833312"><ele>95.2</ele><time>2023-10-24T13:55:53Z</time></trkpt><trkpt lat="58.056378" lon="38.833483"><ele>94.3</ele><time>2023-10-24T13:55:55Z</time></trkpt><trkpt lat="58.05634" lon="38.833668"><ele>93.6</ele><time>2023-10-24T13:55:57Z</time></trkpt><trkpt lat="58.056295" lon="38.833858"><ele>94.8</ele><time>2023-10-24T13:55:59Z</time></trkpt><trkpt lat="58.056243" lon="38.834017"><ele>95.5</ele><time>2023-10-24T13:56:01Z</time></trkpt><trkpt lat="58.056188" lon="38.834223"><ele>95.8</ele><time>2023-10-24T13:56:03Z</time></trkpt><trkpt lat="58.056137" lon="38.834327"><ele>95.3</ele><time>2023-10-24T13:56:04Z</time></trkpt><trkpt lat="58.056067" lon="38.834458"><ele>94.0</ele><time>2023-10-24T13:56:06Z</time></trkpt><trkpt lat="58.056008" lon="38.834617"><ele>94.0</ele><time>2023-10-24T13:56:08Z</time></trkpt><trkpt lat="58.055957" lon="38.834772"><ele>93.9</ele><time>2023-10-24T13:56:10Z</time></trkpt><trkpt lat="58.0559" lon="38.834923"><ele>93.7</ele><time>2023-10-24T13:56:12Z</time></trkpt><trkpt lat="58.055853" lon="38.835075"><ele>93.8</ele><time>2023-10-24T13:56:14Z</time></trkpt><trkpt lat="58.055793" lon="38.835227"><ele>94.6</ele><time>2023-10-24T13:56:16Z</time></trkpt><trkpt lat="58.055732" lon="38.835407"><ele>94.0</ele><time>2023-10-24T13:56:18Z</time></trkpt><trkpt lat="58.055695" lon="38.835562"><ele>94.4</ele><time>2023-10-24T13:56:20Z</time></trkpt><trkpt lat="58.055638" lon="38.835698"><ele>94.8</ele><time>2023-10-24T13:56:22Z</time></trkpt><trkpt lat="58.055607" lon="38.835858"><ele>94.3</ele><time>2023-10-24T13:56:24Z</time></trkpt><trkpt lat="58.055547" lon="38.835988"><ele>94.1</ele><time>2023-10-24T13:56:26Z</time></trkpt><trkpt lat="58.055498" lon="38.83613"><ele>94.4</ele><time>2023-10-24T13:56:28Z</time></trkpt><trkpt lat="58.055432" lon="38.836285"><ele>93.4</ele><time>2023-10-24T13:56:30Z</time></trkpt><trkpt lat="58.055392" lon="38.836477"><ele>92.8</ele><time>2023-10-24T13:56:32Z</time></trkpt><trkpt lat="58.055342" lon="38.83668"><ele>91.9</ele><time>2023-10-24T13:56:34Z</time></trkpt><trkpt lat="58.0553" lon="38.836867"><ele>91.3</ele><time>2023-10-24T13:56:36Z</time></trkpt><trkpt lat="58.055258" lon="38.837025"><ele>91.2</ele><time>2023-10-24T13:56:38Z</time></trkpt><trkpt lat="58.055185" lon="38.837217"><ele>91.3</ele><time>2023-10-24T13:56:40Z</time></trkpt><trkpt lat="58.05511" lon="38.837367"><ele>91.4</ele><time>2023-10-24T13:56:42Z</time></trkpt><trkpt lat="58.055037" lon="38.837572"><ele>91.9</ele><time>2023-10-24T13:56:44Z</time></trkpt><trkpt lat="58.054987" lon="38.837762"><ele>92.0</ele><time>2023-10-24T13:56:46Z</time></trkpt><trkpt lat="58.054915" lon="38.837897"><ele>92.1</ele><time>2023-10-24T13:56:48Z</time></trkpt><trkpt lat="58.054847" lon="38.838107"><ele>91.9</ele><time>2023-10-24T13:56:50Z</time></trkpt><trkpt lat="58.05479" lon="38.838312"><ele>92.7</ele><time>2023-10-24T13:56:52Z</time></trkpt><trkpt lat="58.054727" lon="38.838482"><ele>92.5</ele><time>2023-10-24T13:56:54Z</time></trkpt><trkpt lat="58.054672" lon="38.838677"><ele>92.3</ele><time>2023-10-24T13:56:56Z</time></trkpt><trkpt lat="58.054617" lon="38.838768"><ele>92.7</ele><time>2023-10-24T13:56:57Z</time></trkpt><trkpt lat="58.054563" lon="38.838943"><ele>92.5</ele><time>2023-10-24T13:56:59Z</time></trkpt><trkpt lat="58.054503" lon="38.83915"><ele>92.1</ele><time>2023-10-24T13:57:01Z</time></trkpt><trkpt lat="58.05443" lon="38.839367"><ele>93.1</ele><time>2023-10-24T13:57:03Z</time></trkpt><trkpt lat="58.05435" lon="38.839555"><ele>93.9</ele><time>2023-10-24T13:57:05Z</time></trkpt><trkpt lat="58.054293" lon="38.839755"><ele>94.0</ele><time>2023-10-24T13:57:07Z</time></trkpt><trkpt lat="58.054237" lon="38.839958"><ele>94.0</ele><time>2023-10-24T13:57:09Z</time></trkpt><trkpt lat="58.054175" lon="38.840187"><ele>93.6</ele><time>2023-10-24T13:57:11Z</time></trkpt><trkpt lat="58.054125" lon="38.84031"><ele>93.5</ele><time>2023-10-24T13:57:12Z</time></trkpt><trkpt lat="58.054072" lon="38.840417"><ele>93.0</ele><time>2023-10-24T13:57:13Z</time></trkpt><trkpt lat="58.053995" lon="38.840632"><ele>93.5</ele><time>2023-10-24T13:57:15Z</time></trkpt><trkpt lat="58.053935" lon="38.840835"><ele>94.3</ele><time>2023-10-24T13:57:17Z</time></trkpt><trkpt lat="58.053868" lon="38.84106"><ele>94.7</ele><time>2023-10-24T13:57:19Z</time></trkpt><trkpt lat="58.053812" lon="38.841255"><ele>94.9</ele><time>2023-10-24T13:57:21Z</time></trkpt><trkpt lat="58.053743" lon="38.84145"><ele>95.7</ele><time>2023-10-24T13:57:23Z</time></trkpt><trkpt lat="58.053695" lon="38.841682"><ele>96.6</ele><time>2023-10-24T13:57:25Z</time></trkpt><trkpt lat="58.053633" lon="38.841877"><ele>95.9</ele><time>2023-10-24T13:57:27Z</time></trkpt><trkpt lat="58.053572" lon="38.842035"><ele>95.1</ele><time>2023-10-24T13:57:29Z</time></trkpt><trkpt lat="58.053487" lon="38.842227"><ele>93.3</ele><time>2023-10-24T13:57:31Z</time></trkpt><trkpt lat="58.053425" lon="38.842387"><ele>92.8</ele><time>2023-10-24T13:57:33Z</time></trkpt><trkpt lat="58.05337" lon="38.842528"><ele>92.9</ele><time>2023-10-24T13:57:35Z</time></trkpt><trkpt lat="58.053303" lon="38.842688"><ele>92.0</ele><time>2023-10-24T13:57:37Z</time></trkpt><trkpt lat="58.053252" lon="38.842885"><ele>91.8</ele><time>2023-10-24T13:57:39Z</time></trkpt><trkpt lat="58.053198" lon="38.843055"><ele>91.4</ele><time>2023-10-24T13:57:41Z</time></trkpt><trkpt lat="58.053137" lon="38.84322"><ele>92.0</ele><time>2023-10-24T13:57:43Z</time></trkpt><trkpt lat="58.053063" lon="38.843412"><ele>92.1</ele><time>2023-10-24T13:57:45Z</time></trkpt><trkpt lat="58.053017" lon="38.843542"><ele>90.8</ele><time>2023-10-24T13:57:47Z</time></trkpt><trkpt lat="58.052962" lon="38.84369"><ele>90.6</ele><time>2023-10-24T13:57:49Z</time></trkpt><trkpt lat="58.052908" lon="38.84391"><ele>90.0</ele><time>2023-10-24T13:57:51Z</time></trkpt><trkpt lat="58.052843" lon="38.844078"><ele>91.1</ele><time>2023-10-24T13:57:53Z</time></trkpt><trkpt lat="58.052765" lon="38.844248"><ele>91.6</ele><time>2023-10-24T13:57:55Z</time></trkpt><trkpt lat="58.05271" lon="38.844398"><ele>91.9</ele><time>2023-10-24T13:57:57Z</time></trkpt><trkpt lat="58.052623" lon="38.844352"><ele>92.4</ele><time>2023-10-24T13:57:58Z</time></trkpt><trkpt lat="58.052522" lon="38.84437"><ele>91.8</ele><time>2023-10-24T13:58:00Z</time></trkpt><trkpt lat="58.052443" lon="38.844435"><ele>92.7</ele><time>2023-10-24T13:58:02Z</time></trkpt><trkpt lat="58.05237" lon="38.84447"><ele>93.2</ele><time>2023-10-24T13:58:04Z</time></trkpt><trkpt lat="58.052295" lon="38.844532"><ele>93.9</ele><time>2023-10-24T13:58:06Z</time></trkpt><trkpt lat="58.052223" lon="38.844545"><ele>93.8</ele><time>2023-10-24T13:58:08Z</time></trkpt><trkpt lat="58.052153" lon="38.844595"><ele>94.7</ele><time>2023-10-24T13:58:10Z</time></trkpt><trkpt lat="58.052077" lon="38.84463"><ele>94.6</ele><time>2023-10-24T13:58:12Z</time></trkpt><trkpt lat="58.052002" lon="38.844675"><ele>94.5</ele><time>2023-10-24T13:58:14Z</time></trkpt><trkpt lat="58.051923" lon="38.84472"><ele>94.8</ele><time>2023-10-24T13:58:16Z</time></trkpt><trkpt lat="58.051843" lon="38.844727"><ele>95.3</ele><time>2023-10-24T13:58:18Z</time></trkpt><trkpt lat="58.051753" lon="38.844722"><ele>95.6</ele><time>2023-10-24T13:58:20Z</time></trkpt><trkpt lat="58.051685" lon="38.844773"><ele>95.0</ele><time>2023-10-24T13:58:22Z</time></trkpt><trkpt lat="58.05163" lon="38.844907"><ele>95.5</ele><time>2023-10-24T13:58:24Z</time></trkpt><trkpt lat="58.051555" lon="38.845108"><ele>95.2</ele><time>2023-10-24T13:58:26Z</time></trkpt><trkpt lat="58.051525" lon="38.845287"><ele>94.7</ele><time>2023-10-24T13:58:28Z</time></trkpt><trkpt lat="58.051493" lon="38.84543"><ele>94.8</ele><time>2023-10-24T13:58:30Z</time></trkpt><trkpt lat="58.051523" lon="38.845595"><ele>94.5</ele><time>2023-10-24T13:58:32Z</time></trkpt><trkpt lat="58.0515" lon="38.845745"><ele>95.4</ele><time>2023-10-24T13:58:34Z</time></trkpt><trkpt lat="58.051447" lon="38.845953"><ele>95.2</ele><time>2023-10-24T13:58:36Z</time></trkpt><trkpt lat="58.051417" lon="38.84615"><ele>95.9</ele><time>2023-10-24T13:58:38Z</time></trkpt><trkpt lat="58.051358" lon="38.84624"><ele>95.8</ele><time>2023-10-24T13:58:39Z</time></trkpt><trkpt lat="58.051347" lon="38.846438"><ele>96.5</ele><time>2023-10-24T13:58:42Z</time></trkpt><trkpt lat="58.051313" lon="38.846582"><ele>96.2</ele><time>2023-10-24T13:58:45Z</time></trkpt><trkpt lat="58.051277" lon="38.846718"><ele>96.6</ele><time>2023-10-24T13:58:49Z</time></trkpt><trkpt lat="58.05121" lon="38.846648"><ele>97.4</ele><time>2023-10-24T13:59:09Z</time></trkpt><trkpt lat="58.051148" lon="38.846568"><ele>97.9</ele><time>2023-10-24T13:59:13Z</time></trkpt><trkpt lat="58.051068" lon="38.84653"><ele>98.5</ele><time>2023-10-24T13:59:19Z</time></trkpt><trkpt lat="58.050995" lon="38.846538"><ele>99.6</ele><time>2023-10-24T13:59:24Z</time></trkpt><trkpt lat="58.050922" lon="38.846497"><ele>99.4</ele><time>2023-10-24T13:59:27Z</time></trkpt><trkpt lat="58.050845" lon="38.846425"><ele>99.8</ele><time>2023-10-24T13:59:29Z</time></trkpt><trkpt lat="58.05076" lon="38.846353"><ele>100.0</ele><time>2023-10-24T13:59:31Z</time></trkpt><trkpt lat="58.050678" lon="38.846303"><ele>99.9</ele><time>2023-10-24T13:59:33Z</time></trkpt><trkpt lat="58.050602" lon="38.846273"><ele>99.5</ele><time>2023-10-24T13:59:35Z</time></trkpt><trkpt lat="58.050527" lon="38.84624"><ele>99.9</ele><time>2023-10-24T13:59:37Z</time></trkpt><trkpt lat="58.050443" lon="38.846188"><ele>99.6</ele><time>2023-10-24T13:59:39Z</time></trkpt><trkpt lat="58.050372" lon="38.846158"><ele>99.2</ele><time>2023-10-24T13:59:41Z</time></trkpt><trkpt lat="58.0503" lon="38.846175"><ele>98.8</ele><time>2023-10-24T13:59:44Z</time></trkpt><trkpt lat="58.05022" lon="38.84617"><ele>101.2</ele><time>2023-10-24T14:00:09Z</time></trkpt><trkpt lat="58.050127" lon="38.846063"><ele>100.4</ele><time>2023-10-24T14:00:12Z</time></trkpt><trkpt lat="58.050035" lon="38.845973"><ele>100.2</ele><time>2023-10-24T14:00:14Z</time></trkpt><trkpt lat="58.049948" lon="38.845845"><ele>99.9</ele><time>2023-10-24T14:00:16Z</time></trkpt><trkpt lat="58.049845" lon="38.845682"><ele>100.4</ele><time>2023-10-24T14:00:18Z</time></trkpt><trkpt lat="58.049722" lon="38.845722"><ele>100.4</ele><time>2023-10-24T14:00:21Z</time></trkpt><trkpt lat="58.0496" lon="38.845692"><ele>100.7</ele><time>2023-10-24T14:00:23Z</time></trkpt><trkpt lat="58.049495" lon="38.84561"><ele>101.1</ele><time>2023-10-24T14:00:26Z</time></trkpt><trkpt lat="58.049427" lon="38.845562"><ele>101.7</ele><time>2023-10-24T14:00:28Z</time></trkpt><trkpt lat="58.049352" lon="38.845523"><ele>101.2</ele><time>2023-10-24T14:00:30Z</time></trkpt><trkpt lat="58.049253" lon="38.845473"><ele>101.4</ele><time>2023-10-24T14:00:33Z</time></trkpt><trkpt lat="58.049182" lon="38.84543"><ele>100.6</ele><time>2023-10-24T14:00:36Z</time></trkpt><trkpt lat="58.05872" lon="38.807615"><ele>99.0</ele><time>2023-10-24T16:32:14Z</time></trkpt></trkseg></trk></gpx>