<?xml version="1.0" encoding="UTF-8" standalone="no"?><gpx xmlns="http://www.topografix.com/GPX/1/1" xmlns:gpxtpx="http://www.garmin.com/xmlschemas/TrackPointExtension/v1" xmlns:xsi="http://www.w3.org/2001/XMLSchema-instance" creator="Sports Tracker" version="1.1" xsi:schemaLocation="http://www.topografix.com/GPX/1/1 http://www.topografix.com/GPX/1/1/gpx.xsd http://www.garmin.com/xmlschemas/TrackPointExtension/v1 http://www.garmin.com/xmlschemas/TrackPointExtensionv1.xsd"><metadata><name>04.07.2026 14:25</name><desc/><author><name>Александр</name></author></metadata><trk><name>04.07.2026 14:25</name><trkseg><trkpt lat="58.32789" lon="38.87472"><ele>127.8</ele><time>2026-07-04T11:25:08Z</time></trkpt><trkpt lat="58.32789" lon="38.87472"><ele>127.8</ele><time>2026-07-04T11:25:09Z</time></trkpt><trkpt lat="58.327915" lon="38.87458"><ele>122.3</ele><time>2026-07-04T11:25:15Z</time></trkpt><trkpt lat="58.32794" lon="38.874423"><ele>117.0</ele><time>2026-07-04T11:25:21Z</time></trkpt><trkpt lat="58.32794" lon="38.874285"><ele>118.2</ele><time>2026-07-04T11:25:27Z</time></trkpt><trkpt lat="58.32794" lon="38.874155"><ele>117.9</ele><time>2026-07-04T11:25:34Z</time></trkpt><trkpt lat="58.327975" lon="38.87404"><ele>116.9</ele><time>2026-07-04T11:25:41Z</time></trkpt><trkpt lat="58.32803" lon="38.873995"><ele>116.5</ele><time>2026-07-04T11:25:48Z</time></trkpt><trkpt lat="58.328065" lon="38.87385"><ele>116.4</ele><time>2026-07-04T11:25:55Z</time></trkpt><trkpt lat="58.328095" lon="38.873725"><ele>117.4</ele><time>2026-07-04T11:26:01Z</time></trkpt><trkpt lat="58.32813" lon="38.873615"><ele>117.0</ele><time>2026-07-04T11:26:08Z</time></trkpt><trkpt lat="58.328155" lon="38.87354"><ele>114.0</ele><time>2026-07-04T11:26:15Z</time></trkpt><trkpt lat="58.32819" lon="38.873425"><ele>112.4</ele><time>2026-07-04T11:26:22Z</time></trkpt><trkpt lat="58.328235" lon="38.873295"><ele>111.6</ele><time>2026-07-04T11:26:29Z</time></trkpt><trkpt lat="58.328285" lon="38.873165"><ele>110.8</ele><time>2026-07-04T11:26:35Z</time></trkpt><trkpt lat="58.328345" lon="38.87307"><ele>112.3</ele><time>2026-07-04T11:26:41Z</time></trkpt><trkpt lat="58.32842" lon="38.87303"><ele>116.5</ele><time>2026-07-04T11:26:47Z</time></trkpt><trkpt lat="58.328495" lon="38.872975"><ele>113.2</ele><time>2026-07-04T11:26:54Z</time></trkpt><trkpt lat="58.32857" lon="38.87293"><ele>113.1</ele><time>2026-07-04T11:27:00Z</time></trkpt><trkpt lat="58.328645" lon="38.872915"><ele>113.9</ele><time>2026-07-04T11:27:06Z</time></trkpt><trkpt lat="58.32872" lon="38.87287"><ele>113.9</ele><time>2026-07-04T11:27:12Z</time></trkpt><trkpt lat="58.328795" lon="38.87282"><ele>114.5</ele><time>2026-07-04T11:27:18Z</time></trkpt><trkpt lat="58.328865" lon="38.872765"><ele>114.6</ele><time>2026-07-04T11:27:24Z</time></trkpt><trkpt lat="58.32894" lon="38.872705"><ele>113.2</ele><time>2026-07-04T11:27:31Z</time></trkpt><trkpt lat="58.329015" lon="38.87266"><ele>110.8</ele><time>2026-07-04T11:27:38Z</time></trkpt><trkpt lat="58.32909" lon="38.872625"><ele>111.2</ele><time>2026-07-04T11:27:44Z</time></trkpt><trkpt lat="58.329135" lon="38.87262"><ele>112.7</ele><time>2026-07-04T11:27:51Z</time></trkpt><trkpt lat="58.32921" lon="38.872597"><ele>113.3</ele><time>2026-07-04T11:27:57Z</time></trkpt><trkpt lat="58.32929" lon="38.87258"><ele>115.4</ele><time>2026-07-04T11:28:03Z</time></trkpt><trkpt lat="58.329363" lon="38.872585"><ele>116.3</ele><time>2026-07-04T11:28:09Z</time></trkpt><trkpt lat="58.329435" lon="38.872605"><ele>114.7</ele><time>2026-07-04T11:28:16Z</time></trkpt><trkpt lat="58.32951" lon="38.872645"><ele>114.2</ele><time>2026-07-04T11:28:22Z</time></trkpt><trkpt lat="58.32958" lon="38.872665"><ele>114.5</ele><time>2026-07-04T11:28:29Z</time></trkpt><trkpt lat="58.329645" lon="38.87261"><ele>114.5</ele><time>2026-07-04T11:28:36Z</time></trkpt><trkpt lat="58.32969" lon="38.8725"><ele>113.8</ele><time>2026-07-04T11:28:42Z</time></trkpt><trkpt lat="58.32973" lon="38.872365"><ele>111.3</ele><time>2026-07-04T11:28:49Z</time></trkpt><trkpt lat="58.329775" lon="38.87225"><ele>113.5</ele><time>2026-07-04T11:28:55Z</time></trkpt><trkpt lat="58.329817" lon="38.87213"><ele>113.2</ele><time>2026-07-04T11:29:01Z</time></trkpt><trkpt lat="58.329885" lon="38.872035"><ele>113.8</ele><time>2026-07-04T11:29:08Z</time></trkpt><trkpt lat="58.32995" lon="38.871975"><ele>113.5</ele><time>2026-07-04T11:29:14Z</time></trkpt><trkpt lat="58.33003" lon="38.871935"><ele>113.4</ele><time>2026-07-04T11:29:21Z</time></trkpt><trkpt lat="58.330105" lon="38.871865"><ele>113.1</ele><time>2026-07-04T11:29:27Z</time></trkpt><trkpt lat="58.33018" lon="38.87182"><ele>113.7</ele><time>2026-07-04T11:29:33Z</time></trkpt><trkpt lat="58.330235" lon="38.871705"><ele>112.5</ele><time>2026-07-04T11:29:40Z</time></trkpt><trkpt lat="58.330295" lon="38.87161"><ele>112.1</ele><time>2026-07-04T11:29:47Z</time></trkpt><trkpt lat="58.330367" lon="38.871625"><ele>112.4</ele><time>2026-07-04T11:29:54Z</time></trkpt><trkpt lat="58.330432" lon="38.871538"><ele>114.8</ele><time>2026-07-04T11:30:01Z</time></trkpt><trkpt lat="58.3305" lon="38.87144"><ele>113.4</ele><time>2026-07-04T11:30:07Z</time></trkpt><trkpt lat="58.33055" lon="38.871333"><ele>112.9</ele><time>2026-07-04T11:30:12Z</time></trkpt><trkpt lat="58.3306" lon="38.871235"><ele>115.2</ele><time>2026-07-04T11:30:18Z</time></trkpt><trkpt lat="58.330655" lon="38.871145"><ele>111.0</ele><time>2026-07-04T11:30:24Z</time></trkpt><trkpt lat="58.330695" lon="38.87102"><ele>109.4</ele><time>2026-07-04T11:30:31Z</time></trkpt><trkpt lat="58.330725" lon="38.870895"><ele>108.5</ele><time>2026-07-04T11:30:37Z</time></trkpt><trkpt lat="58.330765" lon="38.870765"><ele>107.2</ele><time>2026-07-04T11:30:43Z</time></trkpt><trkpt lat="58.330795" lon="38.870627"><ele>106.4</ele><time>2026-07-04T11:30:50Z</time></trkpt><trkpt lat="58.33081" lon="38.870495"><ele>105.3</ele><time>2026-07-04T11:30:57Z</time></trkpt><trkpt lat="58.330845" lon="38.870365"><ele>104.6</ele><time>2026-07-04T11:31:04Z</time></trkpt><trkpt lat="58.33088" lon="38.870255"><ele>106.7</ele><time>2026-07-04T11:31:11Z</time></trkpt><trkpt lat="58.330915" lon="38.87017"><ele>106.4</ele><time>2026-07-04T11:31:18Z</time></trkpt><trkpt lat="58.33094" lon="38.87009"><ele>106.5</ele><time>2026-07-04T11:31:25Z</time></trkpt><trkpt lat="58.330945" lon="38.87009"><ele>108.3</ele><time>2026-07-04T11:31:32Z</time></trkpt><trkpt lat="58.330882" lon="38.870065"><ele>110.1</ele><time>2026-07-04T11:31:40Z</time></trkpt><trkpt lat="58.330812" lon="38.87"><ele>111.0</ele><time>2026-07-04T11:31:47Z</time></trkpt><trkpt lat="58.33076" lon="38.86995"><ele>110.9</ele><time>2026-07-04T11:31:54Z</time></trkpt><trkpt lat="58.330695" lon="38.869878"><ele>111.3</ele><time>2026-07-04T11:32:01Z</time></trkpt><trkpt lat="58.330625" lon="38.86982"><ele>110.9</ele><time>2026-07-04T11:32:08Z</time></trkpt><trkpt lat="58.330555" lon="38.86976"><ele>109.5</ele><time>2026-07-04T11:32:15Z</time></trkpt><trkpt lat="58.33048" lon="38.8697"><ele>109.2</ele><time>2026-07-04T11:32:22Z</time></trkpt><trkpt lat="58.330445" lon="38.869675"><ele>108.7</ele><time>2026-07-04T11:32:29Z</time></trkpt><trkpt lat="58.33038" lon="38.86961"><ele>107.2</ele><time>2026-07-04T11:32:36Z</time></trkpt><trkpt lat="58.33032" lon="38.869525"><ele>108.7</ele><time>2026-07-04T11:32:42Z</time></trkpt><trkpt lat="58.330255" lon="38.869465"><ele>109.6</ele><time>2026-07-04T11:32:49Z</time></trkpt><trkpt lat="58.33018" lon="38.8694"><ele>109.8</ele><time>2026-07-04T11:32:56Z</time></trkpt><trkpt lat="58.330105" lon="38.869355"><ele>110.1</ele><time>2026-07-04T11:33:03Z</time></trkpt><trkpt lat="58.330035" lon="38.86931"><ele>109.6</ele><time>2026-07-04T11:33:09Z</time></trkpt><trkpt lat="58.329965" lon="38.86927"><ele>109.8</ele><time>2026-07-04T11:33:15Z</time></trkpt><trkpt lat="58.329895" lon="38.86923"><ele>109.6</ele><time>2026-07-04T11:33:22Z</time></trkpt><trkpt lat="58.329815" lon="38.869235"><ele>110.4</ele><time>2026-07-04T11:33:29Z</time></trkpt><trkpt lat="58.329755" lon="38.869175"><ele>111.4</ele><time>2026-07-04T11:33:36Z</time></trkpt><trkpt lat="58.32969" lon="38.8691"><ele>112.6</ele><time>2026-07-04T11:33:43Z</time></trkpt><trkpt lat="58.329615" lon="38.86906"><ele>112.1</ele><time>2026-07-04T11:33:50Z</time></trkpt><trkpt lat="58.329537" lon="38.868995"><ele>112.1</ele><time>2026-07-04T11:33:57Z</time></trkpt><trkpt lat="58.329475" lon="38.86893"><ele>112.1</ele><time>2026-07-04T11:34:04Z</time></trkpt><trkpt lat="58.32942" lon="38.86888"><ele>111.6</ele><time>2026-07-04T11:34:11Z</time></trkpt><trkpt lat="58.329345" lon="38.86881"><ele>111.8</ele><time>2026-07-04T11:34:18Z</time></trkpt><trkpt lat="58.329285" lon="38.868735"><ele>111.3</ele><time>2026-07-04T11:34:25Z</time></trkpt><trkpt lat="58.32921" lon="38.86867"><ele>111.8</ele><time>2026-07-04T11:34:32Z</time></trkpt><trkpt lat="58.329138" lon="38.86861"><ele>112.4</ele><time>2026-07-04T11:34:39Z</time></trkpt><trkpt lat="58.329085" lon="38.86855"><ele>112.3</ele><time>2026-07-04T11:34:46Z</time></trkpt><trkpt lat="58.329015" lon="38.86847"><ele>113.2</ele><time>2026-07-04T11:34:53Z</time></trkpt><trkpt lat="58.328955" lon="38.868432"><ele>112.6</ele><time>2026-07-04T11:35:00Z</time></trkpt><trkpt lat="58.328885" lon="38.868415"><ele>111.8</ele><time>2026-07-04T11:35:07Z</time></trkpt><trkpt lat="58.32883" lon="38.86839"><ele>110.7</ele><time>2026-07-04T11:35:14Z</time></trkpt><trkpt lat="58.32879" lon="38.86834"><ele>110.7</ele><time>2026-07-04T11:35:21Z</time></trkpt><trkpt lat="58.328725" lon="38.86828"><ele>110.3</ele><time>2026-07-04T11:35:28Z</time></trkpt><trkpt lat="58.328655" lon="38.868215"><ele>110.7</ele><time>2026-07-04T11:35:35Z</time></trkpt><trkpt lat="58.3286" lon="38.868185"><ele>110.2</ele><time>2026-07-04T11:35:42Z</time></trkpt><trkpt lat="58.328565" lon="38.86813"><ele>110.0</ele><time>2026-07-04T11:35:49Z</time></trkpt><trkpt lat="58.328495" lon="38.86808"><ele>110.1</ele><time>2026-07-04T11:35:56Z</time></trkpt><trkpt lat="58.32843" lon="38.868025"><ele>110.0</ele><time>2026-07-04T11:36:03Z</time></trkpt><trkpt lat="58.32838" lon="38.867978"><ele>110.5</ele><time>2026-07-04T11:36:10Z</time></trkpt><trkpt lat="58.32832" lon="38.867925"><ele>110.0</ele><time>2026-07-04T11:36:17Z</time></trkpt><trkpt lat="58.32825" lon="38.86784"><ele>109.6</ele><time>2026-07-04T11:36:24Z</time></trkpt><trkpt lat="58.32819" lon="38.867765"><ele>109.9</ele><time>2026-07-04T11:36:31Z</time></trkpt><trkpt lat="58.328135" lon="38.8677"><ele>110.5</ele><time>2026-07-04T11:36:38Z</time></trkpt><trkpt lat="58.328065" lon="38.867655"><ele>110.7</ele><time>2026-07-04T11:36:45Z</time></trkpt><trkpt lat="58.32801" lon="38.86761"><ele>111.3</ele><time>2026-07-04T11:36:52Z</time></trkpt><trkpt lat="58.32794" lon="38.867585"><ele>112.1</ele><time>2026-07-04T11:36:59Z</time></trkpt><trkpt lat="58.327895" lon="38.867575"><ele>111.8</ele><time>2026-07-04T11:37:06Z</time></trkpt><trkpt lat="58.327885" lon="38.867625"><ele>112.6</ele><time>2026-07-04T11:37:13Z</time></trkpt><trkpt lat="58.32789" lon="38.86764"><ele>112.3</ele><time>2026-07-04T11:37:17Z</time></trkpt><trkpt lat="58.3279" lon="38.867665"><ele>112.1</ele><time>2026-07-04T11:37:25Z</time></trkpt><trkpt lat="58.3279" lon="38.86766"><ele>112.1</ele><time>2026-07-04T11:37:27Z</time></trkpt><trkpt lat="58.327895" lon="38.86759"><ele>111.8</ele><time>2026-07-04T11:37:35Z</time></trkpt><trkpt lat="58.327895" lon="38.867585"><ele>111.0</ele><time>2026-07-04T11:37:39Z</time></trkpt><trkpt lat="58.327885" lon="38.867528"><ele>110.0</ele><time>2026-07-04T11:37:46Z</time></trkpt><trkpt lat="58.3279" lon="38.86753"><ele>110.2</ele><time>2026-07-04T11:37:53Z</time></trkpt><trkpt lat="58.32793" lon="38.867515"><ele>107.7</ele><time>2026-07-04T11:38:00Z</time></trkpt><trkpt lat="58.32792" lon="38.867525"><ele>107.6</ele><time>2026-07-04T11:38:07Z</time></trkpt><trkpt lat="58.32792" lon="38.86754"><ele>108.1</ele><time>2026-07-04T11:38:13Z</time></trkpt><trkpt lat="58.32791" lon="38.867545"><ele>108.6</ele><time>2026-07-04T11:38:21Z</time></trkpt><trkpt lat="58.32791" lon="38.867545"><ele>108.6</ele><time>2026-07-04T11:38:22Z</time></trkpt><trkpt lat="58.3279" lon="38.867555"><ele>108.0</ele><time>2026-07-04T11:38:32Z</time></trkpt><trkpt lat="58.3279" lon="38.867555"><ele>108.0</ele><time>2026-07-04T11:38:33Z</time></trkpt><trkpt lat="58.327875" lon="38.867525"><ele>109.1</ele><time>2026-07-04T11:38:46Z</time></trkpt><trkpt lat="58.327835" lon="38.86747"><ele>110.3</ele><time>2026-07-04T11:38:53Z</time></trkpt><trkpt lat="58.327775" lon="38.867405"><ele>111.5</ele><time>2026-07-04T11:39:00Z</time></trkpt><trkpt lat="58.327722" lon="38.86737"><ele>110.6</ele><time>2026-07-04T11:39:07Z</time></trkpt><trkpt lat="58.327685" lon="38.86733"><ele>111.2</ele><time>2026-07-04T11:39:14Z</time></trkpt><trkpt lat="58.32767" lon="38.8673"><ele>109.7</ele><time>2026-07-04T11:39:21Z</time></trkpt><trkpt lat="58.327675" lon="38.867305"><ele>109.7</ele><time>2026-07-04T11:39:25Z</time></trkpt><trkpt lat="58.327665" lon="38.867305"><ele>110.0</ele><time>2026-07-04T11:39:40Z</time></trkpt><trkpt lat="58.327665" lon="38.867305"><ele>110.4</ele><time>2026-07-04T11:39:41Z</time></trkpt><trkpt lat="58.327655" lon="38.867307"><ele>110.5</ele><time>2026-07-04T11:40:09Z</time></trkpt><trkpt lat="58.327655" lon="38.867307"><ele>110.5</ele><time>2026-07-04T11:40:09Z</time></trkpt><trkpt lat="58.327615" lon="38.867295"><ele>109.9</ele><time>2026-07-04T11:40:22Z</time></trkpt><trkpt lat="58.32756" lon="38.86725"><ele>109.5</ele><time>2026-07-04T11:40:29Z</time></trkpt><trkpt lat="58.327525" lon="38.867205"><ele>109.6</ele><time>2026-07-04T11:40:36Z</time></trkpt><trkpt lat="58.327465" lon="38.867135"><ele>110.4</ele><time>2026-07-04T11:40:43Z</time></trkpt><trkpt lat="58.327392" lon="38.86709"><ele>110.6</ele><time>2026-07-04T11:40:50Z</time></trkpt><trkpt lat="58.327327" lon="38.867045"><ele>110.3</ele><time>2026-07-04T11:40:57Z</time></trkpt><trkpt lat="58.327265" lon="38.866995"><ele>110.5</ele><time>2026-07-04T11:41:04Z</time></trkpt><trkpt lat="58.327195" lon="38.866975"><ele>109.9</ele><time>2026-07-04T11:41:11Z</time></trkpt><trkpt lat="58.32715" lon="38.866935"><ele>111.8</ele><time>2026-07-04T11:41:18Z</time></trkpt><trkpt lat="58.327097" lon="38.86689"><ele>111.9</ele><time>2026-07-04T11:41:25Z</time></trkpt><trkpt lat="58.327085" lon="38.8669"><ele>109.9</ele><time>2026-07-04T11:41:32Z</time></trkpt><trkpt lat="58.327085" lon="38.866895"><ele>109.9</ele><time>2026-07-04T11:41:35Z</time></trkpt><trkpt lat="58.327045" lon="38.866885"><ele>110.3</ele><time>2026-07-04T11:41:56Z</time></trkpt><trkpt lat="58.326985" lon="38.86682"><ele>109.9</ele><time>2026-07-04T11:42:03Z</time></trkpt><trkpt lat="58.3269" lon="38.86685"><ele>107.8</ele><time>2026-07-04T11:42:08Z</time></trkpt><trkpt lat="58.32685" lon="38.86676"><ele>107.9</ele><time>2026-07-04T11:42:15Z</time></trkpt><trkpt lat="58.32683" lon="38.866665"><ele>109.5</ele><time>2026-07-04T11:42:22Z</time></trkpt><trkpt lat="58.326755" lon="38.866655"><ele>111.2</ele><time>2026-07-04T11:42:29Z</time></trkpt><trkpt lat="58.326695" lon="38.866675"><ele>110.0</ele><time>2026-07-04T11:42:36Z</time></trkpt><trkpt lat="58.326707" lon="38.866685"><ele>110.2</ele><time>2026-07-04T11:42:43Z</time></trkpt><trkpt lat="58.326715" lon="38.86668"><ele>110.5</ele><time>2026-07-04T11:42:46Z</time></trkpt><trkpt lat="58.32666" lon="38.866685"><ele>109.9</ele><time>2026-07-04T11:42:56Z</time></trkpt><trkpt lat="58.326595" lon="38.866625"><ele>109.9</ele><time>2026-07-04T11:43:03Z</time></trkpt><trkpt lat="58.326545" lon="38.866585"><ele>109.8</ele><time>2026-07-04T11:43:10Z</time></trkpt><trkpt lat="58.32648" lon="38.866542"><ele>110.0</ele><time>2026-07-04T11:43:17Z</time></trkpt><trkpt lat="58.326425" lon="38.866485"><ele>109.8</ele><time>2026-07-04T11:43:24Z</time></trkpt><trkpt lat="58.32639" lon="38.866415"><ele>110.3</ele><time>2026-07-04T11:43:31Z</time></trkpt><trkpt lat="58.326355" lon="38.866387"><ele>111.2</ele><time>2026-07-04T11:43:38Z</time></trkpt><trkpt lat="58.326365" lon="38.866405"><ele>111.6</ele><time>2026-07-04T11:43:44Z</time></trkpt><trkpt lat="58.326355" lon="38.86638"><ele>111.2</ele><time>2026-07-04T11:43:52Z</time></trkpt><trkpt lat="58.326335" lon="38.86636"><ele>111.6</ele><time>2026-07-04T11:43:59Z</time></trkpt><trkpt lat="58.326268" lon="38.86633"><ele>110.9</ele><time>2026-07-04T11:44:06Z</time></trkpt><trkpt lat="58.326215" lon="38.86626"><ele>111.1</ele><time>2026-07-04T11:44:13Z</time></trkpt><trkpt lat="58.326165" lon="38.866195"><ele>110.6</ele><time>2026-07-04T11:44:20Z</time></trkpt><trkpt lat="58.32611" lon="38.86614"><ele>111.9</ele><time>2026-07-04T11:44:27Z</time></trkpt><trkpt lat="58.326055" lon="38.86608"><ele>113.4</ele><time>2026-07-04T11:44:34Z</time></trkpt><trkpt lat="58.326" lon="38.86601"><ele>112.6</ele><time>2026-07-04T11:44:41Z</time></trkpt><trkpt lat="58.325935" lon="38.865955"><ele>113.0</ele><time>2026-07-04T11:44:48Z</time></trkpt><trkpt lat="58.325875" lon="38.865905"><ele>111.8</ele><time>2026-07-04T11:44:55Z</time></trkpt><trkpt lat="58.32582" lon="38.86585"><ele>111.7</ele><time>2026-07-04T11:45:02Z</time></trkpt><trkpt lat="58.325765" lon="38.8658"><ele>112.2</ele><time>2026-07-04T11:45:09Z</time></trkpt><trkpt lat="58.325715" lon="38.865725"><ele>113.1</ele><time>2026-07-04T11:45:16Z</time></trkpt><trkpt lat="58.325645" lon="38.865665"><ele>112.3</ele><time>2026-07-04T11:45:23Z</time></trkpt><trkpt lat="58.325575" lon="38.8656"><ele>111.0</ele><time>2026-07-04T11:45:30Z</time></trkpt><trkpt lat="58.325513" lon="38.865555"><ele>112.1</ele><time>2026-07-04T11:45:37Z</time></trkpt><trkpt lat="58.32547" lon="38.865475"><ele>112.1</ele><time>2026-07-04T11:45:44Z</time></trkpt><trkpt lat="58.325405" lon="38.86543"><ele>111.9</ele><time>2026-07-04T11:45:51Z</time></trkpt><trkpt lat="58.325345" lon="38.86537"><ele>112.8</ele><time>2026-07-04T11:45:58Z</time></trkpt><trkpt lat="58.32528" lon="38.86531"><ele>112.6</ele><time>2026-07-04T11:46:05Z</time></trkpt><trkpt lat="58.325215" lon="38.865247"><ele>112.5</ele><time>2026-07-04T11:46:12Z</time></trkpt><trkpt lat="58.325145" lon="38.8652"><ele>111.8</ele><time>2026-07-04T11:46:19Z</time></trkpt><trkpt lat="58.32509" lon="38.86513"><ele>112.3</ele><time>2026-07-04T11:46:26Z</time></trkpt><trkpt lat="58.32503" lon="38.86507"><ele>112.5</ele><time>2026-07-04T11:46:33Z</time></trkpt><trkpt lat="58.324973" lon="38.865027"><ele>112.6</ele><time>2026-07-04T11:46:40Z</time></trkpt><trkpt lat="58.32493" lon="38.864985"><ele>112.4</ele><time>2026-07-04T11:46:47Z</time></trkpt><trkpt lat="58.32487" lon="38.86492"><ele>112.6</ele><time>2026-07-04T11:46:54Z</time></trkpt><trkpt lat="58.324818" lon="38.864895"><ele>112.6</ele><time>2026-07-04T11:47:01Z</time></trkpt><trkpt lat="58.324775" lon="38.864825"><ele>112.2</ele><time>2026-07-04T11:47:08Z</time></trkpt><trkpt lat="58.324705" lon="38.86476"><ele>110.9</ele><time>2026-07-04T11:47:15Z</time></trkpt><trkpt lat="58.324635" lon="38.864685"><ele>111.2</ele><time>2026-07-04T11:47:22Z</time></trkpt><trkpt lat="58.32458" lon="38.86462"><ele>111.8</ele><time>2026-07-04T11:47:29Z</time></trkpt><trkpt lat="58.32451" lon="38.864545"><ele>112.2</ele><time>2026-07-04T11:47:36Z</time></trkpt><trkpt lat="58.324435" lon="38.86449"><ele>112.3</ele><time>2026-07-04T11:47:43Z</time></trkpt><trkpt lat="58.324405" lon="38.8645"><ele>112.3</ele><time>2026-07-04T11:47:50Z</time></trkpt><trkpt lat="58.324405" lon="38.8645"><ele>112.3</ele><time>2026-07-04T11:47:52Z</time></trkpt><trkpt lat="58.324385" lon="38.86448"><ele>112.2</ele><time>2026-07-04T11:48:01Z</time></trkpt><trkpt lat="58.324365" lon="38.864485"><ele>112.7</ele><time>2026-07-04T11:48:08Z</time></trkpt><trkpt lat="58.32436" lon="38.8645"><ele>112.6</ele><time>2026-07-04T11:48:11Z</time></trkpt><trkpt lat="58.324365" lon="38.864525"><ele>112.0</ele><time>2026-07-04T11:48:19Z</time></trkpt><trkpt lat="58.324365" lon="38.86452"><ele>112.1</ele><time>2026-07-04T11:48:20Z</time></trkpt><trkpt lat="58.324365" lon="38.864505"><ele>112.2</ele><time>2026-07-04T11:48:28Z</time></trkpt><trkpt lat="58.324365" lon="38.864505"><ele>112.2</ele><time>2026-07-04T11:48:29Z</time></trkpt><trkpt lat="58.32434" lon="38.8645"><ele>111.8</ele><time>2026-07-04T11:48:42Z</time></trkpt><trkpt lat="58.32434" lon="38.8645"><ele>111.8</ele><time>2026-07-04T11:48:45Z</time></trkpt><trkpt lat="58.32435" lon="38.864505"><ele>111.5</ele><time>2026-07-04T11:48:58Z</time></trkpt><trkpt lat="58.32434" lon="38.864515"><ele>112.6</ele><time>2026-07-04T11:49:05Z</time></trkpt><trkpt lat="58.32433" lon="38.86454"><ele>113.0</ele><time>2026-07-04T11:49:12Z</time></trkpt><trkpt lat="58.32433" lon="38.86454"><ele>113.0</ele><time>2026-07-04T11:49:14Z</time></trkpt><trkpt lat="58.32432" lon="38.86455"><ele>112.7</ele><time>2026-07-04T11:49:25Z</time></trkpt><trkpt lat="58.324315" lon="38.86456"><ele>112.7</ele><time>2026-07-04T11:49:32Z</time></trkpt><trkpt lat="58.324295" lon="38.86457"><ele>112.4</ele><time>2026-07-04T11:50:09Z</time></trkpt><trkpt lat="58.324295" lon="38.86457"><ele>112.4</ele><time>2026-07-04T11:50:10Z</time></trkpt><trkpt lat="58.32432" lon="38.86461"><ele>111.2</ele><time>2026-07-04T11:50:47Z</time></trkpt><trkpt lat="58.324325" lon="38.864625"><ele>111.6</ele><time>2026-07-04T11:50:54Z</time></trkpt><trkpt lat="58.324325" lon="38.864625"><ele>111.6</ele><time>2026-07-04T11:50:55Z</time></trkpt><trkpt lat="58.324345" lon="38.86461"><ele>111.7</ele><time>2026-07-04T11:51:08Z</time></trkpt><trkpt lat="58.324345" lon="38.86461"><ele>111.7</ele><time>2026-07-04T11:51:10Z</time></trkpt><trkpt lat="58.324302" lon="38.86456"><ele>112.3</ele><time>2026-07-04T11:51:48Z</time></trkpt><trkpt lat="58.324302" lon="38.86455"><ele>114.0</ele><time>2026-07-04T11:51:52Z</time></trkpt><trkpt lat="58.324325" lon="38.86449"><ele>114.7</ele><time>2026-07-04T11:52:00Z</time></trkpt><trkpt lat="58.324345" lon="38.86455"><ele>116.5</ele><time>2026-07-04T11:52:07Z</time></trkpt><trkpt lat="58.32432" lon="38.864555"><ele>114.5</ele><time>2026-07-04T11:52:14Z</time></trkpt><trkpt lat="58.32432" lon="38.864555"><ele>114.3</ele><time>2026-07-04T11:52:18Z</time></trkpt><trkpt lat="58.324325" lon="38.864595"><ele>114.1</ele><time>2026-07-04T11:52:26Z</time></trkpt><trkpt lat="58.324325" lon="38.864595"><ele>114.5</ele><time>2026-07-04T11:52:27Z</time></trkpt><trkpt lat="58.324335" lon="38.86462"><ele>115.6</ele><time>2026-07-04T11:52:34Z</time></trkpt><trkpt lat="58.324335" lon="38.86462"><ele>115.6</ele><time>2026-07-04T11:52:35Z</time></trkpt><trkpt lat="58.32433" lon="38.864615"><ele>115.2</ele><time>2026-07-04T11:52:44Z</time></trkpt><trkpt lat="58.32433" lon="38.86462"><ele>115.3</ele><time>2026-07-04T11:52:45Z</time></trkpt><trkpt lat="58.324345" lon="38.864585"><ele>115.9</ele><time>2026-07-04T11:52:53Z</time></trkpt><trkpt lat="58.324345" lon="38.86456"><ele>114.6</ele><time>2026-07-04T11:53:00Z</time></trkpt><trkpt lat="58.324345" lon="38.864545"><ele>111.9</ele><time>2026-07-04T11:53:07Z</time></trkpt><trkpt lat="58.324325" lon="38.86457"><ele>112.0</ele><time>2026-07-04T11:53:14Z</time></trkpt><trkpt lat="58.324325" lon="38.86455"><ele>113.4</ele><time>2026-07-04T11:53:20Z</time></trkpt><trkpt lat="58.32432" lon="38.864575"><ele>114.4</ele><time>2026-07-04T11:53:29Z</time></trkpt><trkpt lat="58.324325" lon="38.864585"><ele>114.1</ele><time>2026-07-04T11:53:33Z</time></trkpt><trkpt lat="58.32432" lon="38.86457"><ele>114.1</ele><time>2026-07-04T11:54:04Z</time></trkpt><trkpt lat="58.32432" lon="38.86457"><ele>114.1</ele><time>2026-07-04T11:54:05Z</time></trkpt><trkpt lat="58.324315" lon="38.864575"><ele>113.3</ele><time>2026-07-04T11:54:36Z</time></trkpt><trkpt lat="58.324315" lon="38.864575"><ele>113.3</ele><time>2026-07-04T11:54:37Z</time></trkpt><trkpt lat="58.324315" lon="38.86457"><ele>113.5</ele><time>2026-07-04T11:56:04Z</time></trkpt><trkpt lat="58.324315" lon="38.86457"><ele>113.5</ele><time>2026-07-04T11:56:05Z</time></trkpt><trkpt lat="58.32432" lon="38.86456"><ele>113.8</ele><time>2026-07-04T11:57:24Z</time></trkpt><trkpt lat="58.32432" lon="38.86456"><ele>113.8</ele><time>2026-07-04T11:57:25Z</time></trkpt><trkpt lat="58.324315" lon="38.86456"><ele>115.3</ele><time>2026-07-04T11:57:36Z</time></trkpt><trkpt lat="58.324315" lon="38.86456"><ele>115.1</ele><time>2026-07-04T11:57:41Z</time></trkpt><trkpt lat="58.324297" lon="38.86457"><ele>114.4</ele><time>2026-07-04T11:58:01Z</time></trkpt><trkpt lat="58.324302" lon="38.86455"><ele>114.8</ele><time>2026-07-04T11:58:08Z</time></trkpt><trkpt lat="58.3243" lon="38.864555"><ele>114.4</ele><time>2026-07-04T11:58:11Z</time></trkpt><trkpt lat="58.324335" lon="38.86457"><ele>117.2</ele><time>2026-07-04T11:58:33Z</time></trkpt><trkpt lat="58.324365" lon="38.8646"><ele>117.1</ele><time>2026-07-04T11:58:40Z</time></trkpt><trkpt lat="58.324365" lon="38.864595"><ele>117.1</ele><time>2026-07-04T11:58:43Z</time></trkpt><trkpt lat="58.32435" lon="38.864585"><ele>116.0</ele><time>2026-07-04T11:58:53Z</time></trkpt><trkpt lat="58.32435" lon="38.864573"><ele>116.1</ele><time>2026-07-04T11:58:54Z</time></trkpt><trkpt lat="58.32433" lon="38.86456"><ele>117.9</ele><time>2026-07-04T11:59:01Z</time></trkpt><trkpt lat="58.32432" lon="38.86455"><ele>116.6</ele><time>2026-07-04T11:59:06Z</time></trkpt><trkpt lat="58.324325" lon="38.864535"><ele>117.4</ele><time>2026-07-04T11:59:16Z</time></trkpt><trkpt lat="58.324325" lon="38.864545"><ele>117.2</ele><time>2026-07-04T11:59:17Z</time></trkpt><trkpt lat="58.324325" lon="38.86455"><ele>117.0</ele><time>2026-07-04T11:59:27Z</time></trkpt><trkpt lat="58.324325" lon="38.86455"><ele>117.0</ele><time>2026-07-04T11:59:28Z</time></trkpt><trkpt lat="58.32432" lon="38.86454"><ele>117.6</ele><time>2026-07-04T11:59:40Z</time></trkpt><trkpt lat="58.32432" lon="38.86454"><ele>117.6</ele><time>2026-07-04T11:59:41Z</time></trkpt><trkpt lat="58.324302" lon="38.864535"><ele>116.4</ele><time>2026-07-04T11:59:56Z</time></trkpt><trkpt lat="58.324302" lon="38.864535"><ele>116.4</ele><time>2026-07-04T11:59:57Z</time></trkpt><trkpt lat="58.32431" lon="38.864573"><ele>114.5</ele><time>2026-07-04T12:00:08Z</time></trkpt><trkpt lat="58.324298" lon="38.86457"><ele>113.8</ele><time>2026-07-04T12:00:10Z</time></trkpt><trkpt lat="58.324302" lon="38.86456"><ele>113.4</ele><time>2026-07-04T12:00:17Z</time></trkpt><trkpt lat="58.324302" lon="38.86456"><ele>113.4</ele><time>2026-07-04T12:00:18Z</time></trkpt><trkpt lat="58.32431" lon="38.864555"><ele>113.5</ele><time>2026-07-04T12:00:54Z</time></trkpt><trkpt lat="58.324315" lon="38.864555"><ele>113.4</ele><time>2026-07-04T12:00:55Z</time></trkpt><trkpt lat="58.32432" lon="38.86455"><ele>113.9</ele><time>2026-07-04T12:01:06Z</time></trkpt><trkpt lat="58.32432" lon="38.864555"><ele>114.1</ele><time>2026-07-04T12:01:07Z</time></trkpt><trkpt lat="58.324315" lon="38.864555"><ele>113.6</ele><time>2026-07-04T12:01:17Z</time></trkpt><trkpt lat="58.324315" lon="38.86456"><ele>113.6</ele><time>2026-07-04T12:01:18Z</time></trkpt><trkpt lat="58.324325" lon="38.86457"><ele>113.3</ele><time>2026-07-04T12:01:39Z</time></trkpt><trkpt lat="58.324325" lon="38.86457"><ele>113.5</ele><time>2026-07-04T12:01:40Z</time></trkpt><trkpt lat="58.32432" lon="38.86456"><ele>113.8</ele><time>2026-07-04T12:01:48Z</time></trkpt><trkpt lat="58.32432" lon="38.86456"><ele>113.8</ele><time>2026-07-04T12:01:49Z</time></trkpt><trkpt lat="58.324315" lon="38.864565"><ele>113.8</ele><time>2026-07-04T12:02:54Z</time></trkpt><trkpt lat="58.324315" lon="38.864565"><ele>113.8</ele><time>2026-07-04T12:02:55Z</time></trkpt><trkpt lat="58.32431" lon="38.86456"><ele>113.8</ele><time>2026-07-04T12:04:06Z</time></trkpt><trkpt lat="58.32431" lon="38.86456"><ele>113.8</ele><time>2026-07-04T12:04:07Z</time></trkpt><trkpt lat="58.324298" lon="38.86456"><ele>114.3</ele><time>2026-07-04T12:05:48Z</time></trkpt><trkpt lat="58.324298" lon="38.86456"><ele>114.3</ele><time>2026-07-04T12:05:49Z</time></trkpt><trkpt lat="58.324303" lon="38.864565"><ele>113.9</ele><time>2026-07-04T12:06:17Z</time></trkpt><trkpt lat="58.324303" lon="38.864565"><ele>113.9</ele><time>2026-07-04T12:06:18Z</time></trkpt><trkpt lat="58.324303" lon="38.86455"><ele>114.1</ele><time>2026-07-04T12:09:28Z</time></trkpt><trkpt lat="58.324303" lon="38.86455"><ele>114.1</ele><time>2026-07-04T12:09:29Z</time></trkpt><trkpt lat="58.324295" lon="38.86455"><ele>114.1</ele><time>2026-07-04T12:13:45Z</time></trkpt><trkpt lat="58.324295" lon="38.86455"><ele>114.2</ele><time>2026-07-04T12:13:46Z</time></trkpt><trkpt lat="58.324285" lon="38.864545"><ele>114.0</ele><time>2026-07-04T12:16:19Z</time></trkpt><trkpt lat="58.324285" lon="38.864545"><ele>114.0</ele><time>2026-07-04T12:16:20Z</time></trkpt><trkpt lat="58.324295" lon="38.86454"><ele>113.7</ele><time>2026-07-04T12:17:43Z</time></trkpt><trkpt lat="58.324295" lon="38.86454"><ele>113.7</ele><time>2026-07-04T12:17:44Z</time></trkpt><trkpt lat="58.324285" lon="38.864535"><ele>114.2</ele><time>2026-07-04T12:20:56Z</time></trkpt><trkpt lat="58.324285" lon="38.864535"><ele>114.2</ele><time>2026-07-04T12:20:57Z</time></trkpt><trkpt lat="58.324297" lon="38.864545"><ele>114.3</ele><time>2026-07-04T12:21:39Z</time></trkpt><trkpt lat="58.324297" lon="38.86454"><ele>114.3</ele><time>2026-07-04T12:21:40Z</time></trkpt><trkpt lat="58.32432" lon="38.86449"><ele>114.0</ele><time>2026-07-04T12:22:13Z</time></trkpt><trkpt lat="58.32432" lon="38.864485"><ele>113.7</ele><time>2026-07-04T12:22:17Z</time></trkpt><trkpt lat="58.324335" lon="38.86454"><ele>112.9</ele><time>2026-07-04T12:22:27Z</time></trkpt><trkpt lat="58.32435" lon="38.86459"><ele>113.5</ele><time>2026-07-04T12:22:34Z</time></trkpt><trkpt lat="58.32434" lon="38.864573"><ele>112.6</ele><time>2026-07-04T12:22:38Z</time></trkpt><trkpt lat="58.324325" lon="38.864525"><ele>113.3</ele><time>2026-07-04T12:22:47Z</time></trkpt><trkpt lat="58.32432" lon="38.864508"><ele>114.3</ele><time>2026-07-04T12:22:49Z</time></trkpt><trkpt lat="58.32433" lon="38.86449"><ele>112.9</ele><time>2026-07-04T12:22:57Z</time></trkpt><trkpt lat="58.324373" lon="38.864475"><ele>113.4</ele><time>2026-07-04T12:23:04Z</time></trkpt><trkpt lat="58.324395" lon="38.864505"><ele>114.8</ele><time>2026-07-04T12:23:11Z</time></trkpt><trkpt lat="58.324395" lon="38.864505"><ele>114.8</ele><time>2026-07-04T12:23:14Z</time></trkpt><trkpt lat="58.3244" lon="38.864505"><ele>114.4</ele><time>2026-07-04T12:23:26Z</time></trkpt><trkpt lat="58.3244" lon="38.864505"><ele>114.4</ele><time>2026-07-04T12:23:27Z</time></trkpt><trkpt lat="58.324365" lon="38.86449"><ele>111.9</ele><time>2026-07-04T12:23:46Z</time></trkpt><trkpt lat="58.324365" lon="38.864485"><ele>111.9</ele><time>2026-07-04T12:23:50Z</time></trkpt><trkpt lat="58.3244" lon="38.86448"><ele>112.1</ele><time>2026-07-04T12:24:04Z</time></trkpt><trkpt lat="58.324395" lon="38.86448"><ele>112.6</ele><time>2026-07-04T12:24:09Z</time></trkpt><trkpt lat="58.324387" lon="38.864485"><ele>114.1</ele><time>2026-07-04T12:24:19Z</time></trkpt><trkpt lat="58.324395" lon="38.864485"><ele>114.1</ele><time>2026-07-04T12:24:20Z</time></trkpt><trkpt lat="58.324385" lon="38.86449"><ele>113.3</ele><time>2026-07-04T12:24:41Z</time></trkpt><trkpt lat="58.324385" lon="38.86449"><ele>113.3</ele><time>2026-07-04T12:24:42Z</time></trkpt><trkpt lat="58.324385" lon="38.86445"><ele>112.7</ele><time>2026-07-04T12:25:00Z</time></trkpt><trkpt lat="58.324385" lon="38.86445"><ele>112.7</ele><time>2026-07-04T12:25:01Z</time></trkpt><trkpt lat="58.32438" lon="38.86445"><ele>112.8</ele><time>2026-07-04T12:25:12Z</time></trkpt><trkpt lat="58.32438" lon="38.86445"><ele>113.1</ele><time>2026-07-04T12:25:13Z</time></trkpt><trkpt lat="58.324385" lon="38.86443"><ele>114.3</ele><time>2026-07-04T12:25:22Z</time></trkpt><trkpt lat="58.324385" lon="38.86443"><ele>114.3</ele><time>2026-07-04T12:25:23Z</time></trkpt><trkpt lat="58.324385" lon="38.864475"><ele>113.3</ele><time>2026-07-04T12:25:34Z</time></trkpt><trkpt lat="58.324385" lon="38.86446"><ele>112.8</ele><time>2026-07-04T12:25:36Z</time></trkpt><trkpt lat="58.324405" lon="38.86445"><ele>111.8</ele><time>2026-07-04T12:25:44Z</time></trkpt><trkpt lat="58.324405" lon="38.864465"><ele>112.0</ele><time>2026-07-04T12:25:48Z</time></trkpt><trkpt lat="58.324395" lon="38.86447"><ele>112.9</ele><time>2026-07-04T12:26:12Z</time></trkpt><trkpt lat="58.324395" lon="38.864475"><ele>112.9</ele><time>2026-07-04T12:26:13Z</time></trkpt><trkpt lat="58.3244" lon="38.86448"><ele>112.1</ele><time>2026-07-04T12:26:27Z</time></trkpt><trkpt lat="58.3244" lon="38.86448"><ele>111.8</ele><time>2026-07-04T12:26:28Z</time></trkpt><trkpt lat="58.32441" lon="38.864485"><ele>113.1</ele><time>2026-07-04T12:26:54Z</time></trkpt><trkpt lat="58.324405" lon="38.864485"><ele>113.1</ele><time>2026-07-04T12:26:55Z</time></trkpt><trkpt lat="58.324405" lon="38.864475"><ele>113.4</ele><time>2026-07-04T12:27:09Z</time></trkpt><trkpt lat="58.324405" lon="38.864475"><ele>113.4</ele><time>2026-07-04T12:27:10Z</time></trkpt><trkpt lat="58.324425" lon="38.864405"><ele>112.5</ele><time>2026-07-04T12:28:28Z</time></trkpt><trkpt lat="58.32441" lon="38.864418"><ele>112.5</ele><time>2026-07-04T12:28:35Z</time></trkpt><trkpt lat="58.32441" lon="38.864418"><ele>112.5</ele><time>2026-07-04T12:28:36Z</time></trkpt><trkpt lat="58.32441" lon="38.864505"><ele>112.8</ele><time>2026-07-04T12:29:38Z</time></trkpt><trkpt lat="58.3244" lon="38.864485"><ele>112.3</ele><time>2026-07-04T12:29:45Z</time></trkpt><trkpt lat="58.324405" lon="38.86448"><ele>112.3</ele><time>2026-07-04T12:29:51Z</time></trkpt><trkpt lat="58.32441" lon="38.864475"><ele>113.0</ele><time>2026-07-04T12:31:37Z</time></trkpt><trkpt lat="58.32441" lon="38.864475"><ele>113.0</ele><time>2026-07-04T12:31:38Z</time></trkpt><trkpt lat="58.324385" lon="38.86443"><ele>113.7</ele><time>2026-07-04T12:32:30Z</time></trkpt><trkpt lat="58.324385" lon="38.864445"><ele>113.7</ele><time>2026-07-04T12:32:35Z</time></trkpt><trkpt lat="58.324385" lon="38.86443"><ele>113.9</ele><time>2026-07-04T12:32:56Z</time></trkpt><trkpt lat="58.324385" lon="38.864435"><ele>113.9</ele><time>2026-07-04T12:33:00Z</time></trkpt><trkpt lat="58.324345" lon="38.86435"><ele>113.9</ele><time>2026-07-04T12:33:21Z</time></trkpt><trkpt lat="58.32428" lon="38.864325"><ele>114.4</ele><time>2026-07-04T12:33:28Z</time></trkpt><trkpt lat="58.32426" lon="38.864305"><ele>114.0</ele><time>2026-07-04T12:33:35Z</time></trkpt><trkpt lat="58.324265" lon="38.864315"><ele>113.7</ele><time>2026-07-04T12:33:39Z</time></trkpt><trkpt lat="58.324295" lon="38.864335"><ele>114.2</ele><time>2026-07-04T12:33:47Z</time></trkpt><trkpt lat="58.3243" lon="38.86433"><ele>114.0</ele><time>2026-07-04T12:33:50Z</time></trkpt><trkpt lat="58.324345" lon="38.864365"><ele>114.4</ele><time>2026-07-04T12:33:57Z</time></trkpt><trkpt lat="58.324385" lon="38.864417"><ele>114.7</ele><time>2026-07-04T12:34:04Z</time></trkpt><trkpt lat="58.324415" lon="38.864435"><ele>115.1</ele><time>2026-07-04T12:34:11Z</time></trkpt><trkpt lat="58.32441" lon="38.864437"><ele>114.9</ele><time>2026-07-04T12:34:17Z</time></trkpt><trkpt lat="58.3244" lon="38.86445"><ele>114.4</ele><time>2026-07-04T12:34:35Z</time></trkpt><trkpt lat="58.324395" lon="38.864445"><ele>114.2</ele><time>2026-07-04T12:34:36Z</time></trkpt><trkpt lat="58.324368" lon="38.864417"><ele>113.9</ele><time>2026-07-04T12:34:44Z</time></trkpt><trkpt lat="58.324367" lon="38.86442"><ele>114.1</ele><time>2026-07-04T12:34:45Z</time></trkpt><trkpt lat="58.324368" lon="38.864435"><ele>114.2</ele><time>2026-07-04T12:34:54Z</time></trkpt><trkpt lat="58.324368" lon="38.864435"><ele>114.2</ele><time>2026-07-04T12:34:55Z</time></trkpt><trkpt lat="58.324368" lon="38.864445"><ele>113.9</ele><time>2026-07-04T12:35:21Z</time></trkpt><trkpt lat="58.324368" lon="38.864445"><ele>113.9</ele><time>2026-07-04T12:35:22Z</time></trkpt><trkpt lat="58.324372" lon="38.86445"><ele>114.5</ele><time>2026-07-04T12:35:58Z</time></trkpt><trkpt lat="58.324372" lon="38.86445"><ele>114.5</ele><time>2026-07-04T12:35:59Z</time></trkpt><trkpt lat="58.324372" lon="38.86443"><ele>115.2</ele><time>2026-07-04T12:36:20Z</time></trkpt><trkpt lat="58.324372" lon="38.86443"><ele>115.5</ele><time>2026-07-04T12:36:21Z</time></trkpt><trkpt lat="58.324385" lon="38.86442"><ele>115.3</ele><time>2026-07-04T12:36:53Z</time></trkpt><trkpt lat="58.324385" lon="38.86442"><ele>115.3</ele><time>2026-07-04T12:36:54Z</time></trkpt><trkpt lat="58.324387" lon="38.864415"><ele>115.0</ele><time>2026-07-04T12:37:04Z</time></trkpt><trkpt lat="58.324387" lon="38.864415"><ele>115.0</ele><time>2026-07-04T12:37:05Z</time></trkpt><trkpt lat="58.324385" lon="38.864422"><ele>114.6</ele><time>2026-07-04T12:37:26Z</time></trkpt><trkpt lat="58.324385" lon="38.86443"><ele>114.1</ele><time>2026-07-04T12:37:27Z</time></trkpt><trkpt lat="58.324367" lon="38.86446"><ele>114.3</ele><time>2026-07-04T12:37:35Z</time></trkpt><trkpt lat="58.324368" lon="38.86446"><ele>114.3</ele><time>2026-07-04T12:37:36Z</time></trkpt><trkpt lat="58.32438" lon="38.864455"><ele>114.1</ele><time>2026-07-04T12:37:45Z</time></trkpt><trkpt lat="58.32438" lon="38.864455"><ele>114.1</ele><time>2026-07-04T12:37:46Z</time></trkpt><trkpt lat="58.324387" lon="38.864435"><ele>115.6</ele><time>2026-07-04T12:38:07Z</time></trkpt><trkpt lat="58.324395" lon="38.864435"><ele>115.2</ele><time>2026-07-04T12:38:08Z</time></trkpt><trkpt lat="58.324415" lon="38.864437"><ele>114.6</ele><time>2026-07-04T12:38:15Z</time></trkpt><trkpt lat="58.324415" lon="38.864438"><ele>114.6</ele><time>2026-07-04T12:38:16Z</time></trkpt><trkpt lat="58.324395" lon="38.864435"><ele>113.9</ele><time>2026-07-04T12:38:25Z</time></trkpt><trkpt lat="58.324395" lon="38.864435"><ele>114.1</ele><time>2026-07-04T12:38:26Z</time></trkpt><trkpt lat="58.32438" lon="38.864437"><ele>114.3</ele><time>2026-07-04T12:38:34Z</time></trkpt><trkpt lat="58.32438" lon="38.864445"><ele>114.2</ele><time>2026-07-04T12:38:36Z</time></trkpt><trkpt lat="58.324415" lon="38.864422"><ele>117.3</ele><time>2026-07-04T12:38:56Z</time></trkpt><trkpt lat="58.324415" lon="38.86442"><ele>118.2</ele><time>2026-07-04T12:39:01Z</time></trkpt><trkpt lat="58.32442" lon="38.864485"><ele>115.1</ele><time>2026-07-04T12:39:14Z</time></trkpt><trkpt lat="58.32441" lon="38.86448"><ele>114.6</ele><time>2026-07-04T12:39:21Z</time></trkpt><trkpt lat="58.32441" lon="38.86448"><ele>114.6</ele><time>2026-07-04T12:39:22Z</time></trkpt><trkpt lat="58.32441" lon="38.864435"><ele>113.5</ele><time>2026-07-04T12:39:34Z</time></trkpt><trkpt lat="58.32438" lon="38.864418"><ele>114.1</ele><time>2026-07-04T12:39:41Z</time></trkpt><trkpt lat="58.324367" lon="38.864422"><ele>114.9</ele><time>2026-07-04T12:39:45Z</time></trkpt><trkpt lat="58.324368" lon="38.864445"><ele>115.3</ele><time>2026-07-04T12:39:55Z</time></trkpt><trkpt lat="58.324368" lon="38.864445"><ele>115.3</ele><time>2026-07-04T12:39:56Z</time></trkpt><trkpt lat="58.324385" lon="38.864418"><ele>116.4</ele><time>2026-07-04T12:40:20Z</time></trkpt><trkpt lat="58.324395" lon="38.864417"><ele>116.3</ele><time>2026-07-04T12:40:21Z</time></trkpt><trkpt lat="58.324415" lon="38.864415"><ele>115.8</ele><time>2026-07-04T12:40:29Z</time></trkpt><trkpt lat="58.32442" lon="38.864417"><ele>116.0</ele><time>2026-07-04T12:40:30Z</time></trkpt><trkpt lat="58.32443" lon="38.864415"><ele>115.8</ele><time>2026-07-04T12:40:38Z</time></trkpt><trkpt lat="58.324425" lon="38.86441"><ele>115.3</ele><time>2026-07-04T12:40:39Z</time></trkpt><trkpt lat="58.324395" lon="38.86439"><ele>114.6</ele><time>2026-07-04T12:40:47Z</time></trkpt><trkpt lat="58.324395" lon="38.86439"><ele>114.7</ele><time>2026-07-04T12:40:48Z</time></trkpt><trkpt lat="58.324365" lon="38.86438"><ele>115.4</ele><time>2026-07-04T12:40:56Z</time></trkpt><trkpt lat="58.324365" lon="38.864385"><ele>115.4</ele><time>2026-07-04T12:41:01Z</time></trkpt><trkpt lat="58.324395" lon="38.864417"><ele>115.0</ele><time>2026-07-04T12:41:09Z</time></trkpt><trkpt lat="58.3244" lon="38.86445"><ele>115.1</ele><time>2026-07-04T12:41:16Z</time></trkpt><trkpt lat="58.3244" lon="38.86445"><ele>115.1</ele><time>2026-07-04T12:41:18Z</time></trkpt><trkpt lat="58.3244" lon="38.86445"><ele>114.7</ele><time>2026-07-04T12:42:25Z</time></trkpt><trkpt lat="58.324395" lon="38.86445"><ele>114.7</ele><time>2026-07-04T12:42:26Z</time></trkpt><trkpt lat="58.324368" lon="38.864437"><ele>113.9</ele><time>2026-07-04T12:42:40Z</time></trkpt><trkpt lat="58.32438" lon="38.864455"><ele>113.9</ele><time>2026-07-04T12:42:43Z</time></trkpt><trkpt lat="58.324368" lon="38.86447"><ele>113.7</ele><time>2026-07-04T12:42:53Z</time></trkpt><trkpt lat="58.324368" lon="38.864465"><ele>113.8</ele><time>2026-07-04T12:42:54Z</time></trkpt><trkpt lat="58.324355" lon="38.864415"><ele>114.0</ele><time>2026-07-04T12:43:02Z</time></trkpt><trkpt lat="58.32435" lon="38.864418"><ele>113.8</ele><time>2026-07-04T12:43:05Z</time></trkpt><trkpt lat="58.324365" lon="38.86443"><ele>112.9</ele><time>2026-07-04T12:43:13Z</time></trkpt><trkpt lat="58.324365" lon="38.86443"><ele>112.7</ele><time>2026-07-04T12:43:14Z</time></trkpt><trkpt lat="58.32436" lon="38.864475"><ele>112.8</ele><time>2026-07-04T12:43:26Z</time></trkpt><trkpt lat="58.32436" lon="38.864475"><ele>112.8</ele><time>2026-07-04T12:43:28Z</time></trkpt><trkpt lat="58.324367" lon="38.86443"><ele>113.7</ele><time>2026-07-04T12:43:47Z</time></trkpt><trkpt lat="58.324385" lon="38.864415"><ele>113.9</ele><time>2026-07-04T12:43:52Z</time></trkpt><trkpt lat="58.3244" lon="38.864418"><ele>112.7</ele><time>2026-07-04T12:44:00Z</time></trkpt><trkpt lat="58.3244" lon="38.86442"><ele>112.9</ele><time>2026-07-04T12:44:01Z</time></trkpt><trkpt lat="58.324425" lon="38.864415"><ele>113.8</ele><time>2026-07-04T12:44:08Z</time></trkpt><trkpt lat="58.32443" lon="38.864445"><ele>113.8</ele><time>2026-07-04T12:44:15Z</time></trkpt><trkpt lat="58.32443" lon="38.86445"><ele>114.5</ele><time>2026-07-04T12:44:16Z</time></trkpt><trkpt lat="58.32441" lon="38.864455"><ele>113.0</ele><time>2026-07-04T12:44:26Z</time></trkpt><trkpt lat="58.3244" lon="38.864437"><ele>113.7</ele><time>2026-07-04T12:44:30Z</time></trkpt><trkpt lat="58.3244" lon="38.864445"><ele>113.8</ele><time>2026-07-04T12:44:38Z</time></trkpt><trkpt lat="58.3244" lon="38.864445"><ele>113.8</ele><time>2026-07-04T12:44:39Z</time></trkpt><trkpt lat="58.324405" lon="38.86445"><ele>113.5</ele><time>2026-07-04T12:44:48Z</time></trkpt><trkpt lat="58.324405" lon="38.86445"><ele>113.5</ele><time>2026-07-04T12:44:49Z</time></trkpt><trkpt lat="58.32436" lon="38.864445"><ele>114.1</ele><time>2026-07-04T12:44:57Z</time></trkpt><trkpt lat="58.324365" lon="38.864455"><ele>114.1</ele><time>2026-07-04T12:45:04Z</time></trkpt><trkpt lat="58.32438" lon="38.864435"><ele>114.2</ele><time>2026-07-04T12:45:12Z</time></trkpt><trkpt lat="58.32438" lon="38.864435"><ele>114.2</ele><time>2026-07-04T12:45:13Z</time></trkpt><trkpt lat="58.32438" lon="38.864435"><ele>113.9</ele><time>2026-07-04T12:45:26Z</time></trkpt><trkpt lat="58.32438" lon="38.864435"><ele>113.9</ele><time>2026-07-04T12:45:27Z</time></trkpt><trkpt lat="58.32443" lon="38.8644"><ele>113.5</ele><time>2026-07-04T12:45:37Z</time></trkpt><trkpt lat="58.324435" lon="38.86439"><ele>113.4</ele><time>2026-07-04T12:45:44Z</time></trkpt><trkpt lat="58.32443" lon="38.8644"><ele>112.5</ele><time>2026-07-04T12:45:54Z</time></trkpt><trkpt lat="58.324435" lon="38.864435"><ele>112.6</ele><time>2026-07-04T12:46:01Z</time></trkpt><trkpt lat="58.32445" lon="38.864435"><ele>112.4</ele><time>2026-07-04T12:46:07Z</time></trkpt><trkpt lat="58.324475" lon="38.864375"><ele>110.5</ele><time>2026-07-04T12:46:15Z</time></trkpt><trkpt lat="58.324475" lon="38.86443"><ele>111.5</ele><time>2026-07-04T12:46:22Z</time></trkpt><trkpt lat="58.324455" lon="38.864422"><ele>112.8</ele><time>2026-07-04T12:46:29Z</time></trkpt><trkpt lat="58.324425" lon="38.86442"><ele>112.7</ele><time>2026-07-04T12:46:36Z</time></trkpt><trkpt lat="58.324385" lon="38.86443"><ele>114.4</ele><time>2026-07-04T12:46:43Z</time></trkpt><trkpt lat="58.324385" lon="38.864437"><ele>114.5</ele><time>2026-07-04T12:46:49Z</time></trkpt><trkpt lat="58.32437" lon="38.864437"><ele>114.4</ele><time>2026-07-04T12:47:31Z</time></trkpt><trkpt lat="58.32437" lon="38.864437"><ele>114.4</ele><time>2026-07-04T12:47:32Z</time></trkpt><trkpt lat="58.324395" lon="38.86443"><ele>115.1</ele><time>2026-07-04T12:47:57Z</time></trkpt><trkpt lat="58.324395" lon="38.86442"><ele>115.1</ele><time>2026-07-04T12:47:58Z</time></trkpt><trkpt lat="58.324372" lon="38.864435"><ele>115.3</ele><time>2026-07-04T12:48:20Z</time></trkpt><trkpt lat="58.32437" lon="38.864435"><ele>115.3</ele><time>2026-07-04T12:48:22Z</time></trkpt><trkpt lat="58.324365" lon="38.864455"><ele>115.2</ele><time>2026-07-04T12:48:49Z</time></trkpt><trkpt lat="58.32433" lon="38.864575"><ele>116.3</ele><time>2026-07-04T12:48:56Z</time></trkpt><trkpt lat="58.32431" lon="38.86457"><ele>115.7</ele><time>2026-07-04T12:49:03Z</time></trkpt><trkpt lat="58.32431" lon="38.86457"><ele>116.3</ele><time>2026-07-04T12:49:07Z</time></trkpt><trkpt lat="58.32431" lon="38.86452"><ele>117.0</ele><time>2026-07-04T12:49:16Z</time></trkpt><trkpt lat="58.324315" lon="38.864525"><ele>116.6</ele><time>2026-07-04T12:49:23Z</time></trkpt><trkpt lat="58.324315" lon="38.864535"><ele>117.0</ele><time>2026-07-04T12:49:28Z</time></trkpt><trkpt lat="58.324325" lon="38.864535"><ele>117.1</ele><time>2026-07-04T12:49:52Z</time></trkpt><trkpt lat="58.324325" lon="38.864535"><ele>117.1</ele><time>2026-07-04T12:49:53Z</time></trkpt><trkpt lat="58.324325" lon="38.864525"><ele>116.4</ele><time>2026-07-04T12:55:52Z</time></trkpt><trkpt lat="58.324325" lon="38.864525"><ele>116.4</ele><time>2026-07-04T12:55:53Z</time></trkpt><trkpt lat="58.324325" lon="38.864515"><ele>116.1</ele><time>2026-07-04T13:01:12Z</time></trkpt><trkpt lat="58.324325" lon="38.864515"><ele>116.1</ele><time>2026-07-04T13:01:13Z</time></trkpt><trkpt lat="58.324315" lon="38.864525"><ele>115.8</ele><time>2026-07-04T13:03:43Z</time></trkpt><trkpt lat="58.324315" lon="38.864525"><ele>115.8</ele><time>2026-07-04T13:03:44Z</time></trkpt><trkpt lat="58.324315" lon="38.86453"><ele>115.1</ele><time>2026-07-04T13:04:33Z</time></trkpt><trkpt lat="58.324315" lon="38.86453"><ele>115.1</ele><time>2026-07-04T13:04:34Z</time></trkpt><trkpt lat="58.324345" lon="38.864505"><ele>116.2</ele><time>2026-07-04T13:08:31Z</time></trkpt><trkpt lat="58.324345" lon="38.864505"><ele>116.2</ele><time>2026-07-04T13:08:34Z</time></trkpt><trkpt lat="58.32434" lon="38.864505"><ele>117.8</ele><time>2026-07-04T13:10:18Z</time></trkpt><trkpt lat="58.32434" lon="38.864505"><ele>118.4</ele><time>2026-07-04T13:10:19Z</time></trkpt><trkpt lat="58.32433" lon="38.864525"><ele>116.8</ele><time>2026-07-04T13:10:36Z</time></trkpt><trkpt lat="58.32433" lon="38.864525"><ele>116.8</ele><time>2026-07-04T13:10:37Z</time></trkpt><trkpt lat="58.324335" lon="38.86452"><ele>116.4</ele><time>2026-07-04T13:11:11Z</time></trkpt><trkpt lat="58.324335" lon="38.86452"><ele>116.4</ele><time>2026-07-04T13:11:12Z</time></trkpt><trkpt lat="58.32433" lon="38.86452"><ele>116.1</ele><time>2026-07-04T13:12:27Z</time></trkpt><trkpt lat="58.32433" lon="38.86452"><ele>116.0</ele><time>2026-07-04T13:12:28Z</time></trkpt><trkpt lat="58.324325" lon="38.86453"><ele>116.6</ele><time>2026-07-04T13:14:56Z</time></trkpt><trkpt lat="58.324325" lon="38.86453"><ele>116.6</ele><time>2026-07-04T13:14:57Z</time></trkpt><trkpt lat="58.32432" lon="38.864525"><ele>116.6</ele><time>2026-07-04T13:19:34Z</time></trkpt><trkpt lat="58.32432" lon="38.864525"><ele>116.6</ele><time>2026-07-04T13:19:35Z</time></trkpt><trkpt lat="58.32432" lon="38.864515"><ele>117.5</ele><time>2026-07-04T13:23:04Z</time></trkpt><trkpt lat="58.32432" lon="38.864515"><ele>117.5</ele><time>2026-07-04T13:23:05Z</time></trkpt><trkpt lat="58.32431" lon="38.864525"><ele>117.4</ele><time>2026-07-04T13:25:53Z</time></trkpt><trkpt lat="58.32431" lon="38.864525"><ele>117.4</ele><time>2026-07-04T13:25:54Z</time></trkpt><trkpt lat="58.324315" lon="38.864525"><ele>116.7</ele><time>2026-07-04T13:27:50Z</time></trkpt><trkpt lat="58.324315" lon="38.864525"><ele>116.7</ele><time>2026-07-04T13:27:51Z</time></trkpt><trkpt lat="58.324325" lon="38.86452"><ele>117.0</ele><time>2026-07-04T13:28:14Z</time></trkpt><trkpt lat="58.324325" lon="38.86452"><ele>117.0</ele><time>2026-07-04T13:28:15Z</time></trkpt><trkpt lat="58.324365" lon="38.86445"><ele>114.9</ele><time>2026-07-04T13:28:38Z</time></trkpt><trkpt lat="58.324365" lon="38.86447"><ele>115.3</ele><time>2026-07-04T13:28:45Z</time></trkpt><trkpt lat="58.324365" lon="38.86447"><ele>115.3</ele><time>2026-07-04T13:28:47Z</time></trkpt><trkpt lat="58.32435" lon="38.864545"><ele>112.5</ele><time>2026-07-04T13:29:47Z</time></trkpt><trkpt lat="58.32431" lon="38.864545"><ele>114.9</ele><time>2026-07-04T13:29:54Z</time></trkpt><trkpt lat="58.324303" lon="38.864545"><ele>114.4</ele><time>2026-07-04T13:29:59Z</time></trkpt><trkpt lat="58.3243" lon="38.864525"><ele>114.1</ele><time>2026-07-04T13:30:07Z</time></trkpt><trkpt lat="58.324298" lon="38.86453"><ele>114.4</ele><time>2026-07-04T13:30:08Z</time></trkpt><trkpt lat="58.324285" lon="38.86453"><ele>114.2</ele><time>2026-07-04T13:30:16Z</time></trkpt><trkpt lat="58.324285" lon="38.86453"><ele>114.2</ele><time>2026-07-04T13:30:17Z</time></trkpt><trkpt lat="58.324295" lon="38.86452"><ele>114.7</ele><time>2026-07-04T13:30:40Z</time></trkpt><trkpt lat="58.324295" lon="38.86452"><ele>114.7</ele><time>2026-07-04T13:30:41Z</time></trkpt><trkpt lat="58.324285" lon="38.864545"><ele>114.7</ele><time>2026-07-04T13:30:50Z</time></trkpt><trkpt lat="58.324285" lon="38.864545"><ele>114.7</ele><time>2026-07-04T13:30:54Z</time></trkpt><trkpt lat="58.324285" lon="38.86456"><ele>114.2</ele><time>2026-07-04T13:31:06Z</time></trkpt><trkpt lat="58.324285" lon="38.86456"><ele>114.2</ele><time>2026-07-04T13:31:07Z</time></trkpt><trkpt lat="58.324275" lon="38.864555"><ele>114.2</ele><time>2026-07-04T13:31:22Z</time></trkpt><trkpt lat="58.324275" lon="38.864555"><ele>114.2</ele><time>2026-07-04T13:31:23Z</time></trkpt><trkpt lat="58.324295" lon="38.86454"><ele>115.2</ele><time>2026-07-04T13:31:41Z</time></trkpt><trkpt lat="58.324295" lon="38.86453"><ele>115.1</ele><time>2026-07-04T13:31:43Z</time></trkpt><trkpt lat="58.324335" lon="38.86455"><ele>114.4</ele><time>2026-07-04T13:32:06Z</time></trkpt><trkpt lat="58.324335" lon="38.864555"><ele>114.4</ele><time>2026-07-04T13:32:13Z</time></trkpt><trkpt lat="58.324325" lon="38.86453"><ele>113.9</ele><time>2026-07-04T13:32:35Z</time></trkpt><trkpt lat="58.324325" lon="38.86453"><ele>113.9</ele><time>2026-07-04T13:32:37Z</time></trkpt><trkpt lat="58.32433" lon="38.864507"><ele>114.0</ele><time>2026-07-04T13:34:23Z</time></trkpt><trkpt lat="58.32433" lon="38.864507"><ele>114.0</ele><time>2026-07-04T13:34:24Z</time></trkpt><trkpt lat="58.32433" lon="38.8645"><ele>114.0</ele><time>2026-07-04T13:34:39Z</time></trkpt><trkpt lat="58.32433" lon="38.8645"><ele>114.0</ele><time>2026-07-04T13:34:40Z</time></trkpt><trkpt lat="58.324325" lon="38.86449"><ele>114.6</ele><time>2026-07-04T13:34:55Z</time></trkpt><trkpt lat="58.32432" lon="38.8645"><ele>114.3</ele><time>2026-07-04T13:34:56Z</time></trkpt><trkpt lat="58.324315" lon="38.86455"><ele>115.0</ele><time>2026-07-04T13:35:17Z</time></trkpt><trkpt lat="58.32432" lon="38.864545"><ele>115.5</ele><time>2026-07-04T13:35:21Z</time></trkpt><trkpt lat="58.32433" lon="38.86453"><ele>116.1</ele><time>2026-07-04T13:35:37Z</time></trkpt><trkpt lat="58.32433" lon="38.86453"><ele>116.1</ele><time>2026-07-04T13:35:38Z</time></trkpt><trkpt lat="58.32433" lon="38.86445"><ele>118.3</ele><time>2026-07-04T13:35:50Z</time></trkpt><trkpt lat="58.324368" lon="38.86445"><ele>116.1</ele><time>2026-07-04T13:35:57Z</time></trkpt><trkpt lat="58.324372" lon="38.864435"><ele>116.0</ele><time>2026-07-04T13:36:04Z</time></trkpt><trkpt lat="58.324372" lon="38.864435"><ele>116.0</ele><time>2026-07-04T13:36:05Z</time></trkpt><trkpt lat="58.324373" lon="38.864435"><ele>114.3</ele><time>2026-07-04T13:36:27Z</time></trkpt><trkpt lat="58.32438" lon="38.86443"><ele>114.3</ele><time>2026-07-04T13:36:28Z</time></trkpt><trkpt lat="58.324385" lon="38.86445"><ele>114.2</ele><time>2026-07-04T13:36:38Z</time></trkpt><trkpt lat="58.324385" lon="38.86445"><ele>114.1</ele><time>2026-07-04T13:36:39Z</time></trkpt><trkpt lat="58.32441" lon="38.864435"><ele>114.4</ele><time>2026-07-04T13:36:57Z</time></trkpt><trkpt lat="58.324455" lon="38.864445"><ele>115.3</ele><time>2026-07-04T13:37:04Z</time></trkpt><trkpt lat="58.32443" lon="38.86446"><ele>115.1</ele><time>2026-07-04T13:37:11Z</time></trkpt><trkpt lat="58.32443" lon="38.86446"><ele>115.1</ele><time>2026-07-04T13:37:14Z</time></trkpt><trkpt lat="58.324425" lon="38.86445"><ele>114.6</ele><time>2026-07-04T13:37:40Z</time></trkpt><trkpt lat="58.324425" lon="38.86445"><ele>114.6</ele><time>2026-07-04T13:37:41Z</time></trkpt><trkpt lat="58.324385" lon="38.86447"><ele>114.2</ele><time>2026-07-04T13:38:08Z</time></trkpt><trkpt lat="58.324372" lon="38.864475"><ele>113.8</ele><time>2026-07-04T13:38:15Z</time></trkpt><trkpt lat="58.324372" lon="38.864475"><ele>113.8</ele><time>2026-07-04T13:38:16Z</time></trkpt><trkpt lat="58.324385" lon="38.86447"><ele>114.0</ele><time>2026-07-04T13:38:44Z</time></trkpt><trkpt lat="58.324385" lon="38.86447"><ele>113.5</ele><time>2026-07-04T13:38:45Z</time></trkpt><trkpt lat="58.324395" lon="38.86447"><ele>114.1</ele><time>2026-07-04T13:38:53Z</time></trkpt><trkpt lat="58.324395" lon="38.864465"><ele>113.9</ele><time>2026-07-04T13:38:54Z</time></trkpt><trkpt lat="58.3244" lon="38.864445"><ele>113.0</ele><time>2026-07-04T13:39:02Z</time></trkpt><trkpt lat="58.324405" lon="38.864438"><ele>113.0</ele><time>2026-07-04T13:39:03Z</time></trkpt><trkpt lat="58.32442" lon="38.864455"><ele>113.1</ele><time>2026-07-04T13:39:11Z</time></trkpt><trkpt lat="58.32442" lon="38.86446"><ele>113.2</ele><time>2026-07-04T13:39:12Z</time></trkpt><trkpt lat="58.324435" lon="38.86448"><ele>113.1</ele><time>2026-07-04T13:39:20Z</time></trkpt><trkpt lat="58.324435" lon="38.86447"><ele>115.0</ele><time>2026-07-04T13:39:21Z</time></trkpt><trkpt lat="58.324437" lon="38.86447"><ele>114.0</ele><time>2026-07-04T13:39:29Z</time></trkpt><trkpt lat="58.324435" lon="38.86447"><ele>114.1</ele><time>2026-07-04T13:39:30Z</time></trkpt><trkpt lat="58.324455" lon="38.8645"><ele>113.4</ele><time>2026-07-04T13:39:38Z</time></trkpt><trkpt lat="58.324485" lon="38.864525"><ele>111.6</ele><time>2026-07-04T13:39:45Z</time></trkpt><trkpt lat="58.324495" lon="38.864515"><ele>111.4</ele><time>2026-07-04T13:39:52Z</time></trkpt><trkpt lat="58.324495" lon="38.864515"><ele>111.4</ele><time>2026-07-04T13:39:53Z</time></trkpt><trkpt lat="58.324545" lon="38.864595"><ele>111.1</ele><time>2026-07-04T13:40:07Z</time></trkpt><trkpt lat="58.3245" lon="38.864572"><ele>109.7</ele><time>2026-07-04T13:40:14Z</time></trkpt><trkpt lat="58.324555" lon="38.86461"><ele>108.9</ele><time>2026-07-04T13:40:21Z</time></trkpt><trkpt lat="58.324605" lon="38.864675"><ele>108.7</ele><time>2026-07-04T13:40:28Z</time></trkpt><trkpt lat="58.324635" lon="38.864725"><ele>106.2</ele><time>2026-07-04T13:40:35Z</time></trkpt><trkpt lat="58.32468" lon="38.864715"><ele>110.2</ele><time>2026-07-04T13:40:42Z</time></trkpt><trkpt lat="58.324735" lon="38.86476"><ele>111.6</ele><time>2026-07-04T13:40:49Z</time></trkpt><trkpt lat="58.32481" lon="38.864825"><ele>113.1</ele><time>2026-07-04T13:40:54Z</time></trkpt><trkpt lat="58.324875" lon="38.86487"><ele>111.6</ele><time>2026-07-04T13:41:01Z</time></trkpt><trkpt lat="58.32492" lon="38.864925"><ele>111.6</ele><time>2026-07-04T13:41:08Z</time></trkpt><trkpt lat="58.32497" lon="38.864985"><ele>111.9</ele><time>2026-07-04T13:41:15Z</time></trkpt><trkpt lat="58.325005" lon="38.865025"><ele>111.4</ele><time>2026-07-04T13:41:22Z</time></trkpt><trkpt lat="58.32506" lon="38.865075"><ele>111.0</ele><time>2026-07-04T13:41:29Z</time></trkpt><trkpt lat="58.3251" lon="38.865125"><ele>111.2</ele><time>2026-07-04T13:41:36Z</time></trkpt><trkpt lat="58.325145" lon="38.865165"><ele>112.0</ele><time>2026-07-04T13:41:43Z</time></trkpt><trkpt lat="58.32521" lon="38.865215"><ele>114.3</ele><time>2026-07-04T13:41:50Z</time></trkpt><trkpt lat="58.325265" lon="38.865252"><ele>115.8</ele><time>2026-07-04T13:41:57Z</time></trkpt><trkpt lat="58.325325" lon="38.86529"><ele>116.4</ele><time>2026-07-04T13:42:04Z</time></trkpt><trkpt lat="58.32537" lon="38.865335"><ele>116.9</ele><time>2026-07-04T13:42:11Z</time></trkpt><trkpt lat="58.32542" lon="38.86538"><ele>115.2</ele><time>2026-07-04T13:42:18Z</time></trkpt><trkpt lat="58.325465" lon="38.86545"><ele>112.3</ele><time>2026-07-04T13:42:25Z</time></trkpt><trkpt lat="58.325505" lon="38.86549"><ele>112.9</ele><time>2026-07-04T13:42:32Z</time></trkpt><trkpt lat="58.32556" lon="38.86557"><ele>113.8</ele><time>2026-07-04T13:42:39Z</time></trkpt><trkpt lat="58.325625" lon="38.86562"><ele>114.1</ele><time>2026-07-04T13:42:46Z</time></trkpt><trkpt lat="58.32568" lon="38.86568"><ele>113.8</ele><time>2026-07-04T13:42:53Z</time></trkpt><trkpt lat="58.32572" lon="38.86573"><ele>111.4</ele><time>2026-07-04T13:43:00Z</time></trkpt><trkpt lat="58.325765" lon="38.86578"><ele>112.4</ele><time>2026-07-04T13:43:07Z</time></trkpt><trkpt lat="58.3258" lon="38.865835"><ele>111.2</ele><time>2026-07-04T13:43:14Z</time></trkpt><trkpt lat="58.325802" lon="38.86593"><ele>110.2</ele><time>2026-07-04T13:43:21Z</time></trkpt><trkpt lat="58.325815" lon="38.86592"><ele>111.0</ele><time>2026-07-04T13:43:27Z</time></trkpt><trkpt lat="58.325822" lon="38.865925"><ele>111.0</ele><time>2026-07-04T13:43:38Z</time></trkpt><trkpt lat="58.32582" lon="38.86593"><ele>111.4</ele><time>2026-07-04T13:43:39Z</time></trkpt><trkpt lat="58.32582" lon="38.86595"><ele>111.4</ele><time>2026-07-04T13:43:47Z</time></trkpt><trkpt lat="58.325855" lon="38.86593"><ele>113.1</ele><time>2026-07-04T13:43:54Z</time></trkpt><trkpt lat="58.325935" lon="38.865935"><ele>112.1</ele><time>2026-07-04T13:44:00Z</time></trkpt><trkpt lat="58.325985" lon="38.866"><ele>112.6</ele><time>2026-07-04T13:44:07Z</time></trkpt><trkpt lat="58.326032" lon="38.86609"><ele>112.5</ele><time>2026-07-04T13:44:14Z</time></trkpt><trkpt lat="58.326065" lon="38.866155"><ele>115.4</ele><time>2026-07-04T13:44:21Z</time></trkpt><trkpt lat="58.326045" lon="38.866275"><ele>116.4</ele><time>2026-07-04T13:44:28Z</time></trkpt><trkpt lat="58.32604" lon="38.866355"><ele>116.3</ele><time>2026-07-04T13:44:35Z</time></trkpt><trkpt lat="58.32604" lon="38.866415"><ele>116.6</ele><time>2026-07-04T13:44:42Z</time></trkpt><trkpt lat="58.325995" lon="38.86646"><ele>112.7</ele><time>2026-07-04T13:44:49Z</time></trkpt><trkpt lat="58.325985" lon="38.866547"><ele>111.9</ele><time>2026-07-04T13:44:56Z</time></trkpt><trkpt lat="58.326005" lon="38.86667"><ele>109.9</ele><time>2026-07-04T13:45:03Z</time></trkpt><trkpt lat="58.326" lon="38.86682"><ele>110.6</ele><time>2026-07-04T13:45:10Z</time></trkpt><trkpt lat="58.32602" lon="38.866965"><ele>113.2</ele><time>2026-07-04T13:45:16Z</time></trkpt><trkpt lat="58.325995" lon="38.8671"><ele>115.6</ele><time>2026-07-04T13:45:22Z</time></trkpt><trkpt lat="58.32596" lon="38.86719"><ele>116.4</ele><time>2026-07-04T13:45:29Z</time></trkpt><trkpt lat="58.325892" lon="38.867245"><ele>113.2</ele><time>2026-07-04T13:45:36Z</time></trkpt><trkpt lat="58.32585" lon="38.86734"><ele>113.9</ele><time>2026-07-04T13:45:43Z</time></trkpt><trkpt lat="58.325785" lon="38.867435"><ele>114.0</ele><time>2026-07-04T13:45:49Z</time></trkpt><trkpt lat="58.32575" lon="38.86754"><ele>112.0</ele><time>2026-07-04T13:45:56Z</time></trkpt><trkpt lat="58.32576" lon="38.867665"><ele>114.7</ele><time>2026-07-04T13:46:03Z</time></trkpt><trkpt lat="58.32579" lon="38.8678"><ele>115.4</ele><time>2026-07-04T13:46:08Z</time></trkpt><trkpt lat="58.325737" lon="38.86792"><ele>111.9</ele><time>2026-07-04T13:46:12Z</time></trkpt><trkpt lat="58.325675" lon="38.86801"><ele>109.7</ele><time>2026-07-04T13:46:15Z</time></trkpt><trkpt lat="58.32569" lon="38.86803"><ele>108.1</ele><time>2026-07-04T13:46:22Z</time></trkpt><trkpt lat="58.325685" lon="38.86811"><ele>113.9</ele><time>2026-07-04T13:46:29Z</time></trkpt><trkpt lat="58.325675" lon="38.868255"><ele>119.3</ele><time>2026-07-04T13:46:36Z</time></trkpt><trkpt lat="58.325645" lon="38.868395"><ele>118.1</ele><time>2026-07-04T13:46:43Z</time></trkpt><trkpt lat="58.32564" lon="38.86853"><ele>119.1</ele><time>2026-07-04T13:46:50Z</time></trkpt><trkpt lat="58.325625" lon="38.868655"><ele>118.6</ele><time>2026-07-04T13:46:57Z</time></trkpt><trkpt lat="58.325605" lon="38.86879"><ele>118.2</ele><time>2026-07-04T13:47:04Z</time></trkpt><trkpt lat="58.32557" lon="38.86889"><ele>119.2</ele><time>2026-07-04T13:47:11Z</time></trkpt><trkpt lat="58.32555" lon="38.869015"><ele>119.4</ele><time>2026-07-04T13:47:18Z</time></trkpt><trkpt lat="58.32555" lon="38.86914"><ele>120.5</ele><time>2026-07-04T13:47:25Z</time></trkpt><trkpt lat="58.32555" lon="38.869272"><ele>120.8</ele><time>2026-07-04T13:47:32Z</time></trkpt><trkpt lat="58.325535" lon="38.86941"><ele>120.6</ele><time>2026-07-04T13:47:39Z</time></trkpt><trkpt lat="58.32555" lon="38.86952"><ele>119.6</ele><time>2026-07-04T13:47:46Z</time></trkpt><trkpt lat="58.32559" lon="38.86955"><ele>119.0</ele><time>2026-07-04T13:47:53Z</time></trkpt><trkpt lat="58.32564" lon="38.86958"><ele>118.3</ele><time>2026-07-04T13:48:00Z</time></trkpt><trkpt lat="58.325685" lon="38.86963"><ele>118.2</ele><time>2026-07-04T13:48:07Z</time></trkpt><trkpt lat="58.32576" lon="38.869695"><ele>118.9</ele><time>2026-07-04T13:48:14Z</time></trkpt><trkpt lat="58.325823" lon="38.86975"><ele>119.5</ele><time>2026-07-04T13:48:21Z</time></trkpt><trkpt lat="58.325885" lon="38.869795"><ele>119.6</ele><time>2026-07-04T13:48:28Z</time></trkpt><trkpt lat="58.32595" lon="38.86985"><ele>120.3</ele><time>2026-07-04T13:48:35Z</time></trkpt><trkpt lat="58.32601" lon="38.8699"><ele>120.6</ele><time>2026-07-04T13:48:42Z</time></trkpt><trkpt lat="58.326065" lon="38.86996"><ele>121.1</ele><time>2026-07-04T13:48:49Z</time></trkpt><trkpt lat="58.326125" lon="38.87002"><ele>120.9</ele><time>2026-07-04T13:48:56Z</time></trkpt><trkpt lat="58.32618" lon="38.870085"><ele>120.2</ele><time>2026-07-04T13:49:03Z</time></trkpt><trkpt lat="58.32624" lon="38.87014"><ele>121.5</ele><time>2026-07-04T13:49:10Z</time></trkpt><trkpt lat="58.32629" lon="38.870225"><ele>122.5</ele><time>2026-07-04T13:49:17Z</time></trkpt><trkpt lat="58.326295" lon="38.87027"><ele>120.0</ele><time>2026-07-04T13:49:24Z</time></trkpt><trkpt lat="58.32629" lon="38.870275"><ele>119.8</ele><time>2026-07-04T13:49:27Z</time></trkpt><trkpt lat="58.32628" lon="38.87028"><ele>119.5</ele><time>2026-07-04T13:49:34Z</time></trkpt><trkpt lat="58.32628" lon="38.87028"><ele>119.5</ele><time>2026-07-04T13:49:35Z</time></trkpt><trkpt lat="58.326255" lon="38.87027"><ele>116.8</ele><time>2026-07-04T13:49:55Z</time></trkpt><trkpt lat="58.32625" lon="38.870275"><ele>116.5</ele><time>2026-07-04T13:50:00Z</time></trkpt><trkpt lat="58.326265" lon="38.870262"><ele>116.7</ele><time>2026-07-04T13:50:08Z</time></trkpt><trkpt lat="58.326255" lon="38.870255"><ele>118.4</ele><time>2026-07-04T13:50:15Z</time></trkpt><trkpt lat="58.326255" lon="38.870255"><ele>119.3</ele><time>2026-07-04T13:50:19Z</time></trkpt><trkpt lat="58.326268" lon="38.870225"><ele>118.9</ele><time>2026-07-04T13:50:27Z</time></trkpt><trkpt lat="58.32628" lon="38.87023"><ele>118.8</ele><time>2026-07-04T13:50:34Z</time></trkpt><trkpt lat="58.32629" lon="38.870258"><ele>119.2</ele><time>2026-07-04T13:50:43Z</time></trkpt><trkpt lat="58.32628" lon="38.870325"><ele>120.2</ele><time>2026-07-04T13:50:50Z</time></trkpt><trkpt lat="58.326255" lon="38.870347"><ele>119.5</ele><time>2026-07-04T13:50:57Z</time></trkpt><trkpt lat="58.326255" lon="38.870355"><ele>119.9</ele><time>2026-07-04T13:51:02Z</time></trkpt><trkpt lat="58.32633" lon="38.87038"><ele>117.7</ele><time>2026-07-04T13:51:20Z</time></trkpt><trkpt lat="58.326405" lon="38.8704"><ele>119.4</ele><time>2026-07-04T13:51:25Z</time></trkpt><trkpt lat="58.32648" lon="38.8704"><ele>119.5</ele><time>2026-07-04T13:51:30Z</time></trkpt><trkpt lat="58.32655" lon="38.87046"><ele>117.7</ele><time>2026-07-04T13:51:36Z</time></trkpt><trkpt lat="58.326625" lon="38.870525"><ele>118.4</ele><time>2026-07-04T13:51:42Z</time></trkpt><trkpt lat="58.326695" lon="38.8706"><ele>118.7</ele><time>2026-07-04T13:51:48Z</time></trkpt><trkpt lat="58.326765" lon="38.87068"><ele>118.0</ele><time>2026-07-04T13:51:54Z</time></trkpt><trkpt lat="58.326835" lon="38.87076"><ele>118.7</ele><time>2026-07-04T13:52:00Z</time></trkpt><trkpt lat="58.326905" lon="38.87083"><ele>118.9</ele><time>2026-07-04T13:52:07Z</time></trkpt><trkpt lat="58.32696" lon="38.870875"><ele>119.3</ele><time>2026-07-04T13:52:14Z</time></trkpt><trkpt lat="58.327015" lon="38.87093"><ele>120.2</ele><time>2026-07-04T13:52:21Z</time></trkpt><trkpt lat="58.327075" lon="38.870965"><ele>120.7</ele><time>2026-07-04T13:52:28Z</time></trkpt><trkpt lat="58.327125" lon="38.871005"><ele>120.6</ele><time>2026-07-04T13:52:35Z</time></trkpt><trkpt lat="58.32717" lon="38.87106"><ele>120.6</ele><time>2026-07-04T13:52:42Z</time></trkpt><trkpt lat="58.32723" lon="38.8711"><ele>119.9</ele><time>2026-07-04T13:52:49Z</time></trkpt><trkpt lat="58.32729" lon="38.87112"><ele>119.3</ele><time>2026-07-04T13:52:56Z</time></trkpt><trkpt lat="58.32736" lon="38.87116"><ele>120.9</ele><time>2026-07-04T13:53:03Z</time></trkpt><trkpt lat="58.327413" lon="38.871285"><ele>120.6</ele><time>2026-07-04T13:53:08Z</time></trkpt><trkpt lat="58.327445" lon="38.871375"><ele>120.5</ele><time>2026-07-04T13:53:15Z</time></trkpt><trkpt lat="58.327478" lon="38.87141"><ele>120.0</ele><time>2026-07-04T13:53:22Z</time></trkpt><trkpt lat="58.32753" lon="38.87144"><ele>118.0</ele><time>2026-07-04T13:53:29Z</time></trkpt><trkpt lat="58.3276" lon="38.871485"><ele>119.1</ele><time>2026-07-04T13:53:36Z</time></trkpt><trkpt lat="58.32767" lon="38.871535"><ele>124.4</ele><time>2026-07-04T13:53:43Z</time></trkpt><trkpt lat="58.327735" lon="38.8716"><ele>122.2</ele><time>2026-07-04T13:53:49Z</time></trkpt><trkpt lat="58.32777" lon="38.87172"><ele>122.9</ele><time>2026-07-04T13:53:56Z</time></trkpt><trkpt lat="58.327815" lon="38.87174"><ele>121.5</ele><time>2026-07-04T13:54:03Z</time></trkpt><trkpt lat="58.327855" lon="38.871805"><ele>120.0</ele><time>2026-07-04T13:54:10Z</time></trkpt><trkpt lat="58.327895" lon="38.87188"><ele>120.0</ele><time>2026-07-04T13:54:17Z</time></trkpt><trkpt lat="58.327928" lon="38.871955"><ele>119.8</ele><time>2026-07-04T13:54:24Z</time></trkpt><trkpt lat="58.327965" lon="38.87205"><ele>119.1</ele><time>2026-07-04T13:54:31Z</time></trkpt><trkpt lat="58.327997" lon="38.87214"><ele>119.4</ele><time>2026-07-04T13:54:38Z</time></trkpt><trkpt lat="58.32801" lon="38.87218"><ele>118.1</ele><time>2026-07-04T13:54:45Z</time></trkpt><trkpt lat="58.328045" lon="38.872298"><ele>118.7</ele><time>2026-07-04T13:54:52Z</time></trkpt><trkpt lat="58.328082" lon="38.87241"><ele>119.1</ele><time>2026-07-04T13:54:59Z</time></trkpt><trkpt lat="58.32812" lon="38.87252"><ele>119.3</ele><time>2026-07-04T13:55:06Z</time></trkpt><trkpt lat="58.328155" lon="38.872625"><ele>119.3</ele><time>2026-07-04T13:55:13Z</time></trkpt><trkpt lat="58.328195" lon="38.872735"><ele>120.0</ele><time>2026-07-04T13:55:20Z</time></trkpt><trkpt lat="58.328195" lon="38.87286"><ele>120.5</ele><time>2026-07-04T13:55:27Z</time></trkpt><trkpt lat="58.32817" lon="38.872985"><ele>117.6</ele><time>2026-07-04T13:55:34Z</time></trkpt><trkpt lat="58.328135" lon="38.873085"><ele>117.1</ele><time>2026-07-04T13:55:41Z</time></trkpt><trkpt lat="58.328082" lon="38.873175"><ele>117.1</ele><time>2026-07-04T13:55:48Z</time></trkpt><trkpt lat="58.328065" lon="38.873303"><ele>116.9</ele><time>2026-07-04T13:55:55Z</time></trkpt><trkpt lat="58.328065" lon="38.873435"><ele>115.2</ele><time>2026-07-04T13:56:02Z</time></trkpt><trkpt lat="58.32805" lon="38.87354"><ele>117.7</ele><time>2026-07-04T13:56:09Z</time></trkpt><trkpt lat="58.328015" lon="38.873645"><ele>117.5</ele><time>2026-07-04T13:56:16Z</time></trkpt><trkpt lat="58.32798" lon="38.873765"><ele>120.0</ele><time>2026-07-04T13:56:23Z</time></trkpt><trkpt lat="58.327985" lon="38.873885"><ele>119.5</ele><time>2026-07-04T13:56:30Z</time></trkpt><trkpt lat="58.327955" lon="38.87396"><ele>118.7</ele><time>2026-07-04T13:56:37Z</time></trkpt><trkpt lat="58.32796" lon="38.874045"><ele>119.2</ele><time>2026-07-04T13:56:44Z</time></trkpt><trkpt lat="58.327945" lon="38.87411"><ele>119.5</ele><time>2026-07-04T13:56:51Z</time></trkpt><trkpt lat="58.32794" lon="38.874175"><ele>120.2</ele><time>2026-07-04T13:56:58Z</time></trkpt><trkpt lat="58.327965" lon="38.87425"><ele>119.4</ele><time>2026-07-04T13:57:05Z</time></trkpt><trkpt lat="58.327955" lon="38.874315"><ele>118.8</ele><time>2026-07-04T13:57:12Z</time></trkpt><trkpt lat="58.32797" lon="38.874422"><ele>118.5</ele><time>2026-07-04T13:57:19Z</time></trkpt><trkpt lat="58.32796" lon="38.874535"><ele>119.0</ele><time>2026-07-04T13:57:26Z</time></trkpt><trkpt lat="58.327925" lon="38.87466"><ele>119.4</ele><time>2026-07-04T13:57:33Z</time></trkpt><trkpt lat="58.327915" lon="38.87466"><ele>119.4</ele><time>2026-07-04T13:57:40Z</time></trkpt><trkpt lat="58.32791" lon="38.874648"><ele>119.6</ele><time>2026-07-04T13:57:49Z</time></trkpt><trkpt lat="58.32791" lon="38.874648"><ele>119.6</ele><time>2026-07-04T13:57:50Z</time></trkpt><trkpt lat="58.327905" lon="38.874803"><ele>119.8</ele><time>2026-07-04T13:57:59Z</time></trkpt><trkpt lat="58.327905" lon="38.87491"><ele>120.4</ele><time>2026-07-04T13:58:06Z</time></trkpt><trkpt lat="58.3279" lon="38.8749"><ele>120.3</ele><time>2026-07-04T13:58:11Z</time></trkpt><trkpt lat="58.32788" lon="38.87501"><ele>121.5</ele><time>2026-07-04T13:58:42Z</time></trkpt><trkpt lat="58.327862" lon="38.875165"><ele>125.7</ele><time>2026-07-04T13:58:49Z</time></trkpt><trkpt lat="58.327875" lon="38.875245"><ele>126.0</ele><time>2026-07-04T13:58:56Z</time></trkpt><trkpt lat="58.327855" lon="38.875355"><ele>125.7</ele><time>2026-07-04T13:59:03Z</time></trkpt><trkpt lat="58.327825" lon="38.875497"><ele>124.9</ele><time>2026-07-04T13:59:10Z</time></trkpt><trkpt lat="58.327785" lon="38.875615"><ele>123.9</ele><time>2026-07-04T13:59:17Z</time></trkpt><trkpt lat="58.32775" lon="38.87572"><ele>123.6</ele><time>2026-07-04T13:59:24Z</time></trkpt><trkpt lat="58.32774" lon="38.87583"><ele>121.8</ele><time>2026-07-04T13:59:31Z</time></trkpt><trkpt lat="58.32769" lon="38.875915"><ele>122.3</ele><time>2026-07-04T13:59:38Z</time></trkpt><trkpt lat="58.327655" lon="38.876055"><ele>122.9</ele><time>2026-07-04T13:59:45Z</time></trkpt><trkpt lat="58.32761" lon="38.876168"><ele>124.6</ele><time>2026-07-04T13:59:52Z</time></trkpt><trkpt lat="58.327585" lon="38.87628"><ele>124.7</ele><time>2026-07-04T13:59:59Z</time></trkpt><trkpt lat="58.327565" lon="38.876385"><ele>125.0</ele><time>2026-07-04T14:00:06Z</time></trkpt><trkpt lat="58.327535" lon="38.8765"><ele>124.8</ele><time>2026-07-04T14:00:13Z</time></trkpt><trkpt lat="58.32752" lon="38.876615"><ele>124.9</ele><time>2026-07-04T14:00:20Z</time></trkpt><trkpt lat="58.32759" lon="38.87666"><ele>125.1</ele><time>2026-07-04T14:00:27Z</time></trkpt><trkpt lat="58.327655" lon="38.876685"><ele>125.7</ele><time>2026-07-04T14:00:34Z</time></trkpt><trkpt lat="58.32772" lon="38.87672"><ele>125.5</ele><time>2026-07-04T14:00:41Z</time></trkpt><trkpt lat="58.327785" lon="38.876745"><ele>124.6</ele><time>2026-07-04T14:00:48Z</time></trkpt><trkpt lat="58.327855" lon="38.876795"><ele>124.9</ele><time>2026-07-04T14:00:55Z</time></trkpt><trkpt lat="58.32792" lon="38.87683"><ele>124.5</ele><time>2026-07-04T14:01:02Z</time></trkpt><trkpt lat="58.327995" lon="38.876863"><ele>123.4</ele><time>2026-07-04T14:01:09Z</time></trkpt><trkpt lat="58.328045" lon="38.876915"><ele>124.0</ele><time>2026-07-04T14:01:16Z</time></trkpt><trkpt lat="58.32808" lon="38.87702"><ele>121.0</ele><time>2026-07-04T14:01:23Z</time></trkpt><trkpt lat="58.32812" lon="38.87703"><ele>119.3</ele><time>2026-07-04T14:01:30Z</time></trkpt><trkpt lat="58.328195" lon="38.87706"><ele>119.3</ele><time>2026-07-04T14:01:37Z</time></trkpt><trkpt lat="58.328185" lon="38.877175"><ele>122.7</ele><time>2026-07-04T14:01:44Z</time></trkpt><trkpt lat="58.328153" lon="38.877305"><ele>122.3</ele><time>2026-07-04T14:01:51Z</time></trkpt><trkpt lat="58.32815" lon="38.877445"><ele>125.3</ele><time>2026-07-04T14:01:56Z</time></trkpt><trkpt lat="58.32812" lon="38.877545"><ele>124.8</ele><time>2026-07-04T14:02:03Z</time></trkpt><trkpt lat="58.32813" lon="38.877655"><ele>123.9</ele><time>2026-07-04T14:02:10Z</time></trkpt><trkpt lat="58.32814" lon="38.877775"><ele>122.0</ele><time>2026-07-04T14:02:17Z</time></trkpt><trkpt lat="58.3282" lon="38.877815"><ele>121.6</ele><time>2026-07-04T14:02:24Z</time></trkpt><trkpt lat="58.328215" lon="38.8778"><ele>122.4</ele><time>2026-07-04T14:02:31Z</time></trkpt><trkpt lat="58.32821" lon="38.8778"><ele>122.5</ele><time>2026-07-04T14:02:34Z</time></trkpt><trkpt lat="58.32826" lon="38.877915"><ele>123.5</ele><time>2026-07-04T14:02:50Z</time></trkpt></trkseg></trk></gpx>