<?xml version="1.0" encoding="UTF-8" standalone="no"?><gpx xmlns="http://www.topografix.com/GPX/1/1" xmlns:gpxtpx="http://www.garmin.com/xmlschemas/TrackPointExtension/v1" xmlns:xsi="http://www.w3.org/2001/XMLSchema-instance" creator="Sports Tracker" version="1.1" xsi:schemaLocation="http://www.topografix.com/GPX/1/1 http://www.topografix.com/GPX/1/1/gpx.xsd http://www.garmin.com/xmlschemas/TrackPointExtension/v1 http://www.garmin.com/xmlschemas/TrackPointExtensionv1.xsd"><metadata><name/><desc/><author><name>Александр</name></author></metadata><trk><name/><trkseg><trkpt lat="58.006573" lon="38.867538"><ele>119.1</ele><time>2023-10-22T08:22:05Z</time></trkpt><trkpt lat="58.006727" lon="38.867685"><ele>118.1</ele><time>2023-10-22T08:22:08Z</time></trkpt><trkpt lat="58.006635" lon="38.867728"><ele>120.5</ele><time>2023-10-22T08:22:13Z</time></trkpt><trkpt lat="58.006553" lon="38.86774"><ele>119.5</ele><time>2023-10-22T08:22:18Z</time></trkpt><trkpt lat="58.006477" lon="38.867792"><ele>119.1</ele><time>2023-10-22T08:22:24Z</time></trkpt><trkpt lat="58.006397" lon="38.867812"><ele>117.0</ele><time>2023-10-22T08:22:39Z</time></trkpt><trkpt lat="58.00631" lon="38.867795"><ele>112.0</ele><time>2023-10-22T08:23:01Z</time></trkpt><trkpt lat="58.006393" lon="38.867783"><ele>111.1</ele><time>2023-10-22T08:23:06Z</time></trkpt><trkpt lat="58.006467" lon="38.867767"><ele>111.2</ele><time>2023-10-22T08:23:08Z</time></trkpt><trkpt lat="58.006543" lon="38.86778"><ele>110.5</ele><time>2023-10-22T08:23:10Z</time></trkpt><trkpt lat="58.006635" lon="38.86788"><ele>109.6</ele><time>2023-10-22T08:23:13Z</time></trkpt><trkpt lat="58.006687" lon="38.867987"><ele>110.0</ele><time>2023-10-22T08:23:15Z</time></trkpt><trkpt lat="58.00672" lon="38.86814"><ele>109.3</ele><time>2023-10-22T08:23:17Z</time></trkpt><trkpt lat="58.006738" lon="38.868283"><ele>109.8</ele><time>2023-10-22T08:23:19Z</time></trkpt><trkpt lat="58.006732" lon="38.868428"><ele>110.2</ele><time>2023-10-22T08:23:21Z</time></trkpt><trkpt lat="58.006725" lon="38.868592"><ele>109.8</ele><time>2023-10-22T08:23:23Z</time></trkpt><trkpt lat="58.00673" lon="38.868757"><ele>109.3</ele><time>2023-10-22T08:23:25Z</time></trkpt><trkpt lat="58.006723" lon="38.868903"><ele>108.9</ele><time>2023-10-22T08:23:27Z</time></trkpt><trkpt lat="58.006667" lon="38.869085"><ele>109.0</ele><time>2023-10-22T08:23:30Z</time></trkpt><trkpt lat="58.006625" lon="38.869237"><ele>109.3</ele><time>2023-10-22T08:23:32Z</time></trkpt><trkpt lat="58.006625" lon="38.86938"><ele>108.6</ele><time>2023-10-22T08:23:34Z</time></trkpt><trkpt lat="58.006633" lon="38.869523"><ele>107.7</ele><time>2023-10-22T08:23:36Z</time></trkpt><trkpt lat="58.006687" lon="38.869673"><ele>103.2</ele><time>2023-10-22T08:23:39Z</time></trkpt><trkpt lat="58.006767" lon="38.86976"><ele>102.6</ele><time>2023-10-22T08:23:42Z</time></trkpt><trkpt lat="58.00679" lon="38.869922"><ele>100.9</ele><time>2023-10-22T08:23:46Z</time></trkpt><trkpt lat="58.006878" lon="38.870017"><ele>100.3</ele><time>2023-10-22T08:23:49Z</time></trkpt><trkpt lat="58.00696" lon="38.870135"><ele>100.2</ele><time>2023-10-22T08:23:52Z</time></trkpt><trkpt lat="58.007018" lon="38.87022"><ele>101.1</ele><time>2023-10-22T08:23:55Z</time></trkpt><trkpt lat="58.007068" lon="38.870322"><ele>101.5</ele><time>2023-10-22T08:23:59Z</time></trkpt><trkpt lat="58.0071" lon="38.870443"><ele>101.1</ele><time>2023-10-22T08:24:02Z</time></trkpt><trkpt lat="58.007067" lon="38.870612"><ele>100.6</ele><time>2023-10-22T08:24:07Z</time></trkpt><trkpt lat="58.006988" lon="38.870682"><ele>100.7</ele><time>2023-10-22T08:24:11Z</time></trkpt><trkpt lat="58.007053" lon="38.870583"><ele>102.1</ele><time>2023-10-22T08:24:19Z</time></trkpt><trkpt lat="58.006987" lon="38.870682"><ele>102.0</ele><time>2023-10-22T08:24:38Z</time></trkpt><trkpt lat="58.006937" lon="38.870818"><ele>102.1</ele><time>2023-10-22T08:24:41Z</time></trkpt><trkpt lat="58.006885" lon="38.870948"><ele>101.6</ele><time>2023-10-22T08:24:44Z</time></trkpt><trkpt lat="58.006815" lon="38.871042"><ele>101.8</ele><time>2023-10-22T08:24:47Z</time></trkpt><trkpt lat="58.006733" lon="38.871135"><ele>101.4</ele><time>2023-10-22T08:24:50Z</time></trkpt><trkpt lat="58.006648" lon="38.87119"><ele>102.2</ele><time>2023-10-22T08:24:54Z</time></trkpt><trkpt lat="58.006583" lon="38.871275"><ele>102.3</ele><time>2023-10-22T08:24:57Z</time></trkpt><trkpt lat="58.006515" lon="38.871345"><ele>101.9</ele><time>2023-10-22T08:25:00Z</time></trkpt><trkpt lat="58.006502" lon="38.871513"><ele>102.1</ele><time>2023-10-22T08:25:04Z</time></trkpt><trkpt lat="58.006567" lon="38.871622"><ele>102.2</ele><time>2023-10-22T08:25:09Z</time></trkpt><trkpt lat="58.006587" lon="38.871817"><ele>101.8</ele><time>2023-10-22T08:25:12Z</time></trkpt><trkpt lat="58.006592" lon="38.871963"><ele>101.2</ele><time>2023-10-22T08:25:14Z</time></trkpt><trkpt lat="58.006553" lon="38.872127"><ele>100.2</ele><time>2023-10-22T08:25:17Z</time></trkpt><trkpt lat="58.006558" lon="38.872263"><ele>100.0</ele><time>2023-10-22T08:25:27Z</time></trkpt><trkpt lat="58.00656" lon="38.872425"><ele>100.3</ele><time>2023-10-22T08:25:30Z</time></trkpt><trkpt lat="58.006607" lon="38.872545"><ele>100.0</ele><time>2023-10-22T08:25:32Z</time></trkpt><trkpt lat="58.006657" lon="38.872648"><ele>99.5</ele><time>2023-10-22T08:25:34Z</time></trkpt><trkpt lat="58.006713" lon="38.87276"><ele>99.2</ele><time>2023-10-22T08:25:36Z</time></trkpt><trkpt lat="58.006752" lon="38.87288"><ele>99.2</ele><time>2023-10-22T08:25:38Z</time></trkpt><trkpt lat="58.006785" lon="38.87301"><ele>98.7</ele><time>2023-10-22T08:25:40Z</time></trkpt><trkpt lat="58.006818" lon="38.873133"><ele>98.9</ele><time>2023-10-22T08:25:42Z</time></trkpt><trkpt lat="58.006855" lon="38.873258"><ele>99.6</ele><time>2023-10-22T08:25:45Z</time></trkpt><trkpt lat="58.006912" lon="38.8734"><ele>99.9</ele><time>2023-10-22T08:25:49Z</time></trkpt><trkpt lat="58.006935" lon="38.873557"><ele>99.5</ele><time>2023-10-22T08:25:53Z</time></trkpt><trkpt lat="58.006883" lon="38.873448"><ele>99.3</ele><time>2023-10-22T08:26:02Z</time></trkpt><trkpt lat="58.006855" lon="38.873272"><ele>99.4</ele><time>2023-10-22T08:26:17Z</time></trkpt><trkpt lat="58.0068" lon="38.873115"><ele>98.8</ele><time>2023-10-22T08:26:20Z</time></trkpt><trkpt lat="58.00676" lon="38.87299"><ele>98.3</ele><time>2023-10-22T08:26:22Z</time></trkpt><trkpt lat="58.006725" lon="38.872863"><ele>97.9</ele><time>2023-10-22T08:26:24Z</time></trkpt><trkpt lat="58.006682" lon="38.872722"><ele>97.6</ele><time>2023-10-22T08:26:27Z</time></trkpt><trkpt lat="58.00664" lon="38.872583"><ele>97.5</ele><time>2023-10-22T08:26:30Z</time></trkpt><trkpt lat="58.006605" lon="38.872463"><ele>97.6</ele><time>2023-10-22T08:26:32Z</time></trkpt><trkpt lat="58.006552" lon="38.872287"><ele>97.7</ele><time>2023-10-22T08:26:35Z</time></trkpt><trkpt lat="58.00648" lon="38.872172"><ele>97.8</ele><time>2023-10-22T08:26:38Z</time></trkpt><trkpt lat="58.006432" lon="38.872045"><ele>98.2</ele><time>2023-10-22T08:26:41Z</time></trkpt><trkpt lat="58.006378" lon="38.871898"><ele>98.5</ele><time>2023-10-22T08:26:44Z</time></trkpt><trkpt lat="58.006325" lon="38.871785"><ele>99.5</ele><time>2023-10-22T08:26:47Z</time></trkpt><trkpt lat="58.006243" lon="38.871695"><ele>99.4</ele><time>2023-10-22T08:26:50Z</time></trkpt><trkpt lat="58.00619" lon="38.871582"><ele>99.6</ele><time>2023-10-22T08:26:53Z</time></trkpt><trkpt lat="58.006135" lon="38.871463"><ele>100.1</ele><time>2023-10-22T08:26:56Z</time></trkpt><trkpt lat="58.006063" lon="38.871352"><ele>101.1</ele><time>2023-10-22T08:27:01Z</time></trkpt><trkpt lat="58.005993" lon="38.87126"><ele>101.1</ele><time>2023-10-22T08:27:04Z</time></trkpt><trkpt lat="58.005903" lon="38.871248"><ele>101.7</ele><time>2023-10-22T08:27:11Z</time></trkpt><trkpt lat="58.005817" lon="38.871332"><ele>101.7</ele><time>2023-10-22T08:27:14Z</time></trkpt><trkpt lat="58.005732" lon="38.871368"><ele>101.6</ele><time>2023-10-22T08:27:17Z</time></trkpt><trkpt lat="58.005633" lon="38.871412"><ele>101.6</ele><time>2023-10-22T08:27:20Z</time></trkpt><trkpt lat="58.005545" lon="38.871452"><ele>101.5</ele><time>2023-10-22T08:27:25Z</time></trkpt><trkpt lat="58.005487" lon="38.871572"><ele>101.5</ele><time>2023-10-22T08:27:30Z</time></trkpt><trkpt lat="58.005438" lon="38.871695"><ele>100.8</ele><time>2023-10-22T08:27:39Z</time></trkpt><trkpt lat="58.00538" lon="38.871823"><ele>101.0</ele><time>2023-10-22T08:27:45Z</time></trkpt><trkpt lat="58.005348" lon="38.872"><ele>100.7</ele><time>2023-10-22T08:27:49Z</time></trkpt><trkpt lat="58.005312" lon="38.872183"><ele>100.3</ele><time>2023-10-22T08:27:52Z</time></trkpt><trkpt lat="58.005277" lon="38.872342"><ele>100.2</ele><time>2023-10-22T08:27:55Z</time></trkpt><trkpt lat="58.00528" lon="38.872503"><ele>100.8</ele><time>2023-10-22T08:27:59Z</time></trkpt><trkpt lat="58.005202" lon="38.872623"><ele>100.0</ele><time>2023-10-22T08:28:02Z</time></trkpt><trkpt lat="58.005127" lon="38.872652"><ele>100.5</ele><time>2023-10-22T08:28:05Z</time></trkpt><trkpt lat="58.005057" lon="38.872593"><ele>100.2</ele><time>2023-10-22T08:28:12Z</time></trkpt><trkpt lat="58.005015" lon="38.872437"><ele>100.3</ele><time>2023-10-22T08:28:20Z</time></trkpt><trkpt lat="58.004957" lon="38.872335"><ele>100.1</ele><time>2023-10-22T08:28:23Z</time></trkpt><trkpt lat="58.004887" lon="38.872263"><ele>101.3</ele><time>2023-10-22T08:28:27Z</time></trkpt><trkpt lat="58.004805" lon="38.87233"><ele>101.1</ele><time>2023-10-22T08:28:32Z</time></trkpt><trkpt lat="58.004728" lon="38.87241"><ele>101.0</ele><time>2023-10-22T08:28:36Z</time></trkpt><trkpt lat="58.004655" lon="38.87242"><ele>100.0</ele><time>2023-10-22T08:28:43Z</time></trkpt><trkpt lat="58.004575" lon="38.872522"><ele>99.7</ele><time>2023-10-22T08:28:48Z</time></trkpt><trkpt lat="58.004502" lon="38.872587"><ele>99.9</ele><time>2023-10-22T08:28:51Z</time></trkpt><trkpt lat="58.004457" lon="38.872715"><ele>100.2</ele><time>2023-10-22T08:28:55Z</time></trkpt><trkpt lat="58.004415" lon="38.872828"><ele>100.3</ele><time>2023-10-22T08:29:02Z</time></trkpt><trkpt lat="58.004365" lon="38.872948"><ele>101.1</ele><time>2023-10-22T08:29:11Z</time></trkpt><trkpt lat="58.004318" lon="38.873088"><ele>102.0</ele><time>2023-10-22T08:29:15Z</time></trkpt><trkpt lat="58.004242" lon="38.87303"><ele>101.0</ele><time>2023-10-22T08:29:21Z</time></trkpt><trkpt lat="58.004158" lon="38.873037"><ele>101.4</ele><time>2023-10-22T08:29:27Z</time></trkpt><trkpt lat="58.004107" lon="38.873158"><ele>101.7</ele><time>2023-10-22T08:29:32Z</time></trkpt><trkpt lat="58.004033" lon="38.873247"><ele>100.9</ele><time>2023-10-22T08:29:36Z</time></trkpt><trkpt lat="58.00397" lon="38.873312"><ele>101.0</ele><time>2023-10-22T08:29:39Z</time></trkpt><trkpt lat="58.003895" lon="38.873358"><ele>100.8</ele><time>2023-10-22T08:29:42Z</time></trkpt><trkpt lat="58.0038" lon="38.873438"><ele>100.6</ele><time>2023-10-22T08:29:45Z</time></trkpt><trkpt lat="58.003732" lon="38.873532"><ele>100.0</ele><time>2023-10-22T08:29:47Z</time></trkpt><trkpt lat="58.003648" lon="38.873648"><ele>99.6</ele><time>2023-10-22T08:29:50Z</time></trkpt><trkpt lat="58.003588" lon="38.873727"><ele>99.3</ele><time>2023-10-22T08:29:52Z</time></trkpt><trkpt lat="58.003498" lon="38.87383"><ele>98.3</ele><time>2023-10-22T08:29:55Z</time></trkpt><trkpt lat="58.003417" lon="38.87395"><ele>97.3</ele><time>2023-10-22T08:29:58Z</time></trkpt><trkpt lat="58.003355" lon="38.87404"><ele>97.3</ele><time>2023-10-22T08:30:01Z</time></trkpt><trkpt lat="58.003272" lon="38.874082"><ele>96.9</ele><time>2023-10-22T08:30:05Z</time></trkpt><trkpt lat="58.003205" lon="38.874193"><ele>97.4</ele><time>2023-10-22T08:30:09Z</time></trkpt><trkpt lat="58.003157" lon="38.874355"><ele>97.6</ele><time>2023-10-22T08:30:12Z</time></trkpt><trkpt lat="58.00312" lon="38.874482"><ele>98.4</ele><time>2023-10-22T08:30:15Z</time></trkpt><trkpt lat="58.00311" lon="38.874618"><ele>99.2</ele><time>2023-10-22T08:30:20Z</time></trkpt><trkpt lat="58.003142" lon="38.874443"><ele>98.9</ele><time>2023-10-22T08:30:35Z</time></trkpt><trkpt lat="58.003197" lon="38.874297"><ele>98.4</ele><time>2023-10-22T08:30:38Z</time></trkpt><trkpt lat="58.00323" lon="38.874165"><ele>97.9</ele><time>2023-10-22T08:30:41Z</time></trkpt><trkpt lat="58.003277" lon="38.874022"><ele>96.9</ele><time>2023-10-22T08:30:48Z</time></trkpt><trkpt lat="58.003315" lon="38.87385"><ele>96.6</ele><time>2023-10-22T08:30:52Z</time></trkpt><trkpt lat="58.003352" lon="38.873692"><ele>96.2</ele><time>2023-10-22T08:30:55Z</time></trkpt><trkpt lat="58.003383" lon="38.873568"><ele>96.1</ele><time>2023-10-22T08:30:58Z</time></trkpt><trkpt lat="58.003432" lon="38.873418"><ele>96.0</ele><time>2023-10-22T08:31:02Z</time></trkpt><trkpt lat="58.00347" lon="38.873293"><ele>96.2</ele><time>2023-10-22T08:31:05Z</time></trkpt><trkpt lat="58.003505" lon="38.873175"><ele>97.0</ele><time>2023-10-22T08:31:10Z</time></trkpt><trkpt lat="58.003533" lon="38.873042"><ele>97.5</ele><time>2023-10-22T08:31:14Z</time></trkpt><trkpt lat="58.003565" lon="38.87291"><ele>97.8</ele><time>2023-10-22T08:31:19Z</time></trkpt><trkpt lat="58.003605" lon="38.872783"><ele>97.7</ele><time>2023-10-22T08:31:24Z</time></trkpt><trkpt lat="58.003637" lon="38.872632"><ele>97.1</ele><time>2023-10-22T08:31:27Z</time></trkpt><trkpt lat="58.003663" lon="38.872492"><ele>96.5</ele><time>2023-10-22T08:31:29Z</time></trkpt><trkpt lat="58.003695" lon="38.872343"><ele>96.1</ele><time>2023-10-22T08:31:31Z</time></trkpt><trkpt lat="58.003718" lon="38.872208"><ele>96.2</ele><time>2023-10-22T08:31:33Z</time></trkpt><trkpt lat="58.003742" lon="38.872028"><ele>96.8</ele><time>2023-10-22T08:31:36Z</time></trkpt><trkpt lat="58.003773" lon="38.871882"><ele>97.1</ele><time>2023-10-22T08:31:40Z</time></trkpt><trkpt lat="58.003808" lon="38.871753"><ele>98.1</ele><time>2023-10-22T08:31:44Z</time></trkpt><trkpt lat="58.003792" lon="38.871618"><ele>98.3</ele><time>2023-10-22T08:31:51Z</time></trkpt><trkpt lat="58.003767" lon="38.871478"><ele>98.4</ele><time>2023-10-22T08:31:57Z</time></trkpt><trkpt lat="58.003762" lon="38.871318"><ele>99.1</ele><time>2023-10-22T08:32:01Z</time></trkpt><trkpt lat="58.00372" lon="38.871205"><ele>100.3</ele><time>2023-10-22T08:32:09Z</time></trkpt><trkpt lat="58.003663" lon="38.871113"><ele>100.3</ele><time>2023-10-22T08:32:13Z</time></trkpt><trkpt lat="58.003713" lon="38.871"><ele>100.7</ele><time>2023-10-22T08:32:18Z</time></trkpt><trkpt lat="58.003798" lon="38.870988"><ele>102.3</ele><time>2023-10-22T08:32:23Z</time></trkpt><trkpt lat="58.003882" lon="38.870968"><ele>103.9</ele><time>2023-10-22T08:32:27Z</time></trkpt><trkpt lat="58.003973" lon="38.870983"><ele>103.9</ele><time>2023-10-22T08:32:31Z</time></trkpt><trkpt lat="58.004053" lon="38.87103"><ele>102.9</ele><time>2023-10-22T08:32:34Z</time></trkpt><trkpt lat="58.004147" lon="38.87109"><ele>101.8</ele><time>2023-10-22T08:32:37Z</time></trkpt><trkpt lat="58.004168" lon="38.871227"><ele>102.6</ele><time>2023-10-22T08:32:52Z</time></trkpt><trkpt lat="58.004087" lon="38.871172"><ele>102.1</ele><time>2023-10-22T08:33:08Z</time></trkpt><trkpt lat="58.00399" lon="38.871138"><ele>102.5</ele><time>2023-10-22T08:33:12Z</time></trkpt><trkpt lat="58.003913" lon="38.871145"><ele>102.0</ele><time>2023-10-22T08:33:15Z</time></trkpt><trkpt lat="58.003873" lon="38.871258"><ele>100.4</ele><time>2023-10-22T08:33:27Z</time></trkpt><trkpt lat="58.003862" lon="38.871112"><ele>104.1</ele><time>2023-10-22T08:33:45Z</time></trkpt><trkpt lat="58.003935" lon="38.871063"><ele>104.3</ele><time>2023-10-22T08:33:50Z</time></trkpt><trkpt lat="58.003978" lon="38.870912"><ele>106.0</ele><time>2023-10-22T08:33:54Z</time></trkpt><trkpt lat="58.00406" lon="38.870965"><ele>106.9</ele><time>2023-10-22T08:33:57Z</time></trkpt><trkpt lat="58.004148" lon="38.871042"><ele>105.8</ele><time>2023-10-22T08:34:00Z</time></trkpt><trkpt lat="58.004222" lon="38.871092"><ele>105.0</ele><time>2023-10-22T08:34:03Z</time></trkpt><trkpt lat="58.004303" lon="38.871138"><ele>104.5</ele><time>2023-10-22T08:34:06Z</time></trkpt><trkpt lat="58.004375" lon="38.871138"><ele>104.8</ele><time>2023-10-22T08:34:09Z</time></trkpt><trkpt lat="58.00445" lon="38.871035"><ele>104.6</ele><time>2023-10-22T08:34:13Z</time></trkpt><trkpt lat="58.00451" lon="38.87095"><ele>103.7</ele><time>2023-10-22T08:34:18Z</time></trkpt><trkpt lat="58.00457" lon="38.870852"><ele>103.7</ele><time>2023-10-22T08:34:28Z</time></trkpt><trkpt lat="58.004608" lon="38.870717"><ele>104.0</ele><time>2023-10-22T08:34:35Z</time></trkpt><trkpt lat="58.004595" lon="38.870555"><ele>105.1</ele><time>2023-10-22T08:34:40Z</time></trkpt><trkpt lat="58.00463" lon="38.87043"><ele>105.1</ele><time>2023-10-22T08:34:44Z</time></trkpt><trkpt lat="58.0047" lon="38.870387"><ele>105.1</ele><time>2023-10-22T08:34:47Z</time></trkpt><trkpt lat="58.004635" lon="38.870327"><ele>103.7</ele><time>2023-10-22T08:35:04Z</time></trkpt><trkpt lat="58.004557" lon="38.870265"><ele>103.5</ele><time>2023-10-22T08:35:08Z</time></trkpt><trkpt lat="58.004487" lon="38.870205"><ele>103.5</ele><time>2023-10-22T08:35:11Z</time></trkpt><trkpt lat="58.004423" lon="38.870078"><ele>102.3</ele><time>2023-10-22T08:35:15Z</time></trkpt><trkpt lat="58.004357" lon="38.869985"><ele>102.3</ele><time>2023-10-22T08:35:18Z</time></trkpt><trkpt lat="58.00428" lon="38.869993"><ele>103.2</ele><time>2023-10-22T08:35:23Z</time></trkpt><trkpt lat="58.004182" lon="38.87001"><ele>103.6</ele><time>2023-10-22T08:35:27Z</time></trkpt><trkpt lat="58.004115" lon="38.870067"><ele>103.4</ele><time>2023-10-22T08:35:29Z</time></trkpt><trkpt lat="58.00403" lon="38.870112"><ele>104.7</ele><time>2023-10-22T08:35:32Z</time></trkpt><trkpt lat="58.003965" lon="38.870022"><ele>104.9</ele><time>2023-10-22T08:35:35Z</time></trkpt><trkpt lat="58.003897" lon="38.869942"><ele>104.9</ele><time>2023-10-22T08:35:39Z</time></trkpt><trkpt lat="58.003815" lon="38.869897"><ele>105.1</ele><time>2023-10-22T08:35:42Z</time></trkpt><trkpt lat="58.003747" lon="38.869842"><ele>105.1</ele><time>2023-10-22T08:35:45Z</time></trkpt><trkpt lat="58.003675" lon="38.869748"><ele>104.9</ele><time>2023-10-22T08:35:52Z</time></trkpt><trkpt lat="58.003617" lon="38.869583"><ele>104.7</ele><time>2023-10-22T08:35:55Z</time></trkpt><trkpt lat="58.003588" lon="38.869453"><ele>105.0</ele><time>2023-10-22T08:35:58Z</time></trkpt><trkpt lat="58.003553" lon="38.869327"><ele>104.5</ele><time>2023-10-22T08:36:03Z</time></trkpt><trkpt lat="58.00353" lon="38.86918"><ele>104.3</ele><time>2023-10-22T08:36:08Z</time></trkpt><trkpt lat="58.003468" lon="38.869047"><ele>103.8</ele><time>2023-10-22T08:36:12Z</time></trkpt><trkpt lat="58.003412" lon="38.868957"><ele>103.0</ele><time>2023-10-22T08:36:15Z</time></trkpt><trkpt lat="58.003338" lon="38.86894"><ele>102.3</ele><time>2023-10-22T08:36:18Z</time></trkpt><trkpt lat="58.003318" lon="38.868805"><ele>100.5</ele><time>2023-10-22T08:36:28Z</time></trkpt><trkpt lat="58.003408" lon="38.868812"><ele>101.1</ele><time>2023-10-22T08:36:33Z</time></trkpt><trkpt lat="58.003493" lon="38.868918"><ele>101.0</ele><time>2023-10-22T08:36:36Z</time></trkpt><trkpt lat="58.003557" lon="38.869015"><ele>101.1</ele><time>2023-10-22T08:36:38Z</time></trkpt><trkpt lat="58.00366" lon="38.869048"><ele>102.6</ele><time>2023-10-22T08:36:41Z</time></trkpt><trkpt lat="58.003735" lon="38.869003"><ele>103.1</ele><time>2023-10-22T08:36:43Z</time></trkpt><trkpt lat="58.003808" lon="38.868947"><ele>103.5</ele><time>2023-10-22T08:36:45Z</time></trkpt><trkpt lat="58.003898" lon="38.868862"><ele>104.6</ele><time>2023-10-22T08:36:48Z</time></trkpt><trkpt lat="58.003995" lon="38.868817"><ele>105.0</ele><time>2023-10-22T08:36:51Z</time></trkpt><trkpt lat="58.004067" lon="38.868785"><ele>104.5</ele><time>2023-10-22T08:36:53Z</time></trkpt><trkpt lat="58.004145" lon="38.86877"><ele>104.4</ele><time>2023-10-22T08:36:55Z</time></trkpt><trkpt lat="58.004222" lon="38.868725"><ele>104.0</ele><time>2023-10-22T08:36:57Z</time></trkpt><trkpt lat="58.004292" lon="38.86865"><ele>103.9</ele><time>2023-10-22T08:36:59Z</time></trkpt><trkpt lat="58.00435" lon="38.86855"><ele>104.4</ele><time>2023-10-22T08:37:01Z</time></trkpt><trkpt lat="58.00443" lon="38.86846"><ele>105.3</ele><time>2023-10-22T08:37:04Z</time></trkpt><trkpt lat="58.004525" lon="38.868397"><ele>105.7</ele><time>2023-10-22T08:37:07Z</time></trkpt><trkpt lat="58.00462" lon="38.868337"><ele>107.0</ele><time>2023-10-22T08:37:10Z</time></trkpt><trkpt lat="58.004682" lon="38.868258"><ele>108.5</ele><time>2023-10-22T08:37:13Z</time></trkpt><trkpt lat="58.004745" lon="38.868185"><ele>108.9</ele><time>2023-10-22T08:37:16Z</time></trkpt><trkpt lat="58.004805" lon="38.86804"><ele>109.1</ele><time>2023-10-22T08:37:19Z</time></trkpt><trkpt lat="58.00482" lon="38.867883"><ele>109.5</ele><time>2023-10-22T08:37:22Z</time></trkpt><trkpt lat="58.004853" lon="38.867748"><ele>110.3</ele><time>2023-10-22T08:37:25Z</time></trkpt><trkpt lat="58.004875" lon="38.86761"><ele>110.9</ele><time>2023-10-22T08:37:31Z</time></trkpt><trkpt lat="58.004915" lon="38.867475"><ele>110.5</ele><time>2023-10-22T08:37:35Z</time></trkpt><trkpt lat="58.00494" lon="38.86733"><ele>111.0</ele><time>2023-10-22T08:37:39Z</time></trkpt><trkpt lat="58.00495" lon="38.86749"><ele>109.7</ele><time>2023-10-22T08:37:51Z</time></trkpt><trkpt lat="58.004947" lon="38.86764"><ele>110.0</ele><time>2023-10-22T08:37:54Z</time></trkpt><trkpt lat="58.004973" lon="38.86781"><ele>110.6</ele><time>2023-10-22T08:37:57Z</time></trkpt><trkpt lat="58.005033" lon="38.86791"><ele>110.2</ele><time>2023-10-22T08:38:00Z</time></trkpt><trkpt lat="58.005147" lon="38.867923"><ele>110.1</ele><time>2023-10-22T08:38:03Z</time></trkpt><trkpt lat="58.005217" lon="38.86789"><ele>110.3</ele><time>2023-10-22T08:38:05Z</time></trkpt><trkpt lat="58.005307" lon="38.867823"><ele>110.7</ele><time>2023-10-22T08:38:08Z</time></trkpt><trkpt lat="58.005385" lon="38.867767"><ele>110.8</ele><time>2023-10-22T08:38:11Z</time></trkpt><trkpt lat="58.005478" lon="38.8678"><ele>111.0</ele><time>2023-10-22T08:38:14Z</time></trkpt><trkpt lat="58.005552" lon="38.86788"><ele>109.8</ele><time>2023-10-22T08:38:17Z</time></trkpt><trkpt lat="58.005593" lon="38.868047"><ele>109.0</ele><time>2023-10-22T08:38:20Z</time></trkpt><trkpt lat="58.005653" lon="38.868167"><ele>110.0</ele><time>2023-10-22T08:38:23Z</time></trkpt><trkpt lat="58.005728" lon="38.868208"><ele>109.6</ele><time>2023-10-22T08:38:26Z</time></trkpt><trkpt lat="58.005733" lon="38.868347"><ele>109.9</ele><time>2023-10-22T08:38:38Z</time></trkpt><trkpt lat="58.005683" lon="38.86846"><ele>110.1</ele><time>2023-10-22T08:38:41Z</time></trkpt><trkpt lat="58.00565" lon="38.868605"><ele>110.3</ele><time>2023-10-22T08:38:44Z</time></trkpt><trkpt lat="58.00565" lon="38.868797"><ele>110.4</ele><time>2023-10-22T08:38:47Z</time></trkpt><trkpt lat="58.005662" lon="38.868957"><ele>110.0</ele><time>2023-10-22T08:38:49Z</time></trkpt><trkpt lat="58.005658" lon="38.869107"><ele>109.2</ele><time>2023-10-22T08:38:51Z</time></trkpt><trkpt lat="58.005655" lon="38.869255"><ele>108.2</ele><time>2023-10-22T08:38:53Z</time></trkpt><trkpt lat="58.00563" lon="38.869445"><ele>107.5</ele><time>2023-10-22T08:38:55Z</time></trkpt><trkpt lat="58.005607" lon="38.869575"><ele>106.1</ele><time>2023-10-22T08:38:57Z</time></trkpt><trkpt lat="58.005607" lon="38.869758"><ele>105.8</ele><time>2023-10-22T08:39:00Z</time></trkpt><trkpt lat="58.005647" lon="38.869913"><ele>105.3</ele><time>2023-10-22T08:39:04Z</time></trkpt><trkpt lat="58.005715" lon="38.869963"><ele>105.0</ele><time>2023-10-22T08:39:07Z</time></trkpt><trkpt lat="58.005785" lon="38.870043"><ele>104.6</ele><time>2023-10-22T08:39:10Z</time></trkpt><trkpt lat="58.005765" lon="38.87018"><ele>105.4</ele><time>2023-10-22T08:39:19Z</time></trkpt><trkpt lat="58.005807" lon="38.87031"><ele>105.8</ele><time>2023-10-22T08:39:26Z</time></trkpt><trkpt lat="58.005842" lon="38.870462"><ele>105.9</ele><time>2023-10-22T08:39:31Z</time></trkpt><trkpt lat="58.0059" lon="38.870575"><ele>105.2</ele><time>2023-10-22T08:39:34Z</time></trkpt><trkpt lat="58.00599" lon="38.870595"><ele>105.3</ele><time>2023-10-22T08:39:39Z</time></trkpt><trkpt lat="58.006022" lon="38.870435"><ele>104.8</ele><time>2023-10-22T08:39:42Z</time></trkpt><trkpt lat="58.00599" lon="38.870265"><ele>105.3</ele><time>2023-10-22T08:39:45Z</time></trkpt><trkpt lat="58.005958" lon="38.870138"><ele>105.4</ele><time>2023-10-22T08:39:47Z</time></trkpt><trkpt lat="58.00593" lon="38.870002"><ele>105.7</ele><time>2023-10-22T08:39:49Z</time></trkpt><trkpt lat="58.005903" lon="38.869815"><ele>105.7</ele><time>2023-10-22T08:39:52Z</time></trkpt><trkpt lat="58.00585" lon="38.869657"><ele>106.4</ele><time>2023-10-22T08:39:55Z</time></trkpt><trkpt lat="58.00578" lon="38.869513"><ele>106.0</ele><time>2023-10-22T08:39:58Z</time></trkpt><trkpt lat="58.005757" lon="38.869383"><ele>106.2</ele><time>2023-10-22T08:40:00Z</time></trkpt><trkpt lat="58.005765" lon="38.869198"><ele>107.3</ele><time>2023-10-22T08:40:03Z</time></trkpt><trkpt lat="58.005808" lon="38.86908"><ele>107.6</ele><time>2023-10-22T08:40:07Z</time></trkpt><trkpt lat="58.005883" lon="38.869057"><ele>108.8</ele><time>2023-10-22T08:40:13Z</time></trkpt><trkpt lat="58.005952" lon="38.86912"><ele>108.6</ele><time>2023-10-22T08:40:16Z</time></trkpt><trkpt lat="58.006035" lon="38.869122"><ele>107.9</ele><time>2023-10-22T08:40:21Z</time></trkpt><trkpt lat="58.006107" lon="38.869065"><ele>108.3</ele><time>2023-10-22T08:40:25Z</time></trkpt><trkpt lat="58.006193" lon="38.869045"><ele>107.9</ele><time>2023-10-22T08:40:28Z</time></trkpt><trkpt lat="58.006272" lon="38.869082"><ele>107.8</ele><time>2023-10-22T08:40:31Z</time></trkpt><trkpt lat="58.00636" lon="38.869103"><ele>107.4</ele><time>2023-10-22T08:40:34Z</time></trkpt><trkpt lat="58.00644" lon="38.86906"><ele>107.7</ele><time>2023-10-22T08:40:38Z</time></trkpt><trkpt lat="58.006535" lon="38.86905"><ele>107.0</ele><time>2023-10-22T08:40:42Z</time></trkpt><trkpt lat="58.006627" lon="38.869033"><ele>108.3</ele><time>2023-10-22T08:40:45Z</time></trkpt><trkpt lat="58.006702" lon="38.869033"><ele>108.7</ele><time>2023-10-22T08:40:48Z</time></trkpt><trkpt lat="58.006628" lon="38.868973"><ele>107.9</ele><time>2023-10-22T08:40:56Z</time></trkpt><trkpt lat="58.006653" lon="38.868822"><ele>107.7</ele><time>2023-10-22T08:41:02Z</time></trkpt><trkpt lat="58.006683" lon="38.868687"><ele>108.2</ele><time>2023-10-22T08:41:08Z</time></trkpt><trkpt lat="58.006688" lon="38.86855"><ele>108.5</ele><time>2023-10-22T08:41:15Z</time></trkpt><trkpt lat="58.006702" lon="38.868387"><ele>108.1</ele><time>2023-10-22T08:41:21Z</time></trkpt><trkpt lat="58.006727" lon="38.868223"><ele>108.7</ele><time>2023-10-22T08:41:24Z</time></trkpt><trkpt lat="58.006737" lon="38.868065"><ele>109.0</ele><time>2023-10-22T08:41:26Z</time></trkpt><trkpt lat="58.006763" lon="38.867935"><ele>109.7</ele><time>2023-10-22T08:41:28Z</time></trkpt><trkpt lat="58.006813" lon="38.867818"><ele>110.1</ele><time>2023-10-22T08:41:30Z</time></trkpt><trkpt lat="58.006875" lon="38.867663"><ele>111.2</ele><time>2023-10-22T08:41:33Z</time></trkpt><trkpt lat="58.006905" lon="38.867498"><ele>110.3</ele><time>2023-10-22T08:41:36Z</time></trkpt><trkpt lat="58.006978" lon="38.867387"><ele>109.7</ele><time>2023-10-22T08:41:39Z</time></trkpt><trkpt lat="58.007057" lon="38.86739"><ele>109.2</ele><time>2023-10-22T08:41:41Z</time></trkpt><trkpt lat="58.007135" lon="38.86748"><ele>108.7</ele><time>2023-10-22T08:41:43Z</time></trkpt><trkpt lat="58.0072" lon="38.86756"><ele>109.4</ele><time>2023-10-22T08:41:45Z</time></trkpt><trkpt lat="58.007273" lon="38.867603"><ele>109.5</ele><time>2023-10-22T08:41:47Z</time></trkpt><trkpt lat="58.007352" lon="38.867628"><ele>110.6</ele><time>2023-10-22T08:41:49Z</time></trkpt><trkpt lat="58.007455" lon="38.867628"><ele>110.3</ele><time>2023-10-22T08:41:52Z</time></trkpt><trkpt lat="58.007538" lon="38.867617"><ele>110.5</ele><time>2023-10-22T08:41:55Z</time></trkpt><trkpt lat="58.007615" lon="38.86755"><ele>110.4</ele><time>2023-10-22T08:41:59Z</time></trkpt><trkpt lat="58.007555" lon="38.867445"><ele>107.9</ele><time>2023-10-22T08:42:11Z</time></trkpt><trkpt lat="58.007482" lon="38.86744"><ele>110.5</ele><time>2023-10-22T08:42:17Z</time></trkpt><trkpt lat="58.007412" lon="38.867385"><ele>111.5</ele><time>2023-10-22T08:42:22Z</time></trkpt><trkpt lat="58.007397" lon="38.867245"><ele>110.7</ele><time>2023-10-22T08:42:27Z</time></trkpt><trkpt lat="58.00741" lon="38.8671"><ele>110.0</ele><time>2023-10-22T08:42:30Z</time></trkpt><trkpt lat="58.007353" lon="38.866983"><ele>110.1</ele><time>2023-10-22T08:42:33Z</time></trkpt><trkpt lat="58.007283" lon="38.866898"><ele>109.8</ele><time>2023-10-22T08:42:35Z</time></trkpt><trkpt lat="58.007212" lon="38.866825"><ele>110.0</ele><time>2023-10-22T08:42:37Z</time></trkpt><trkpt lat="58.007113" lon="38.866795"><ele>110.3</ele><time>2023-10-22T08:42:40Z</time></trkpt><trkpt lat="58.00702" lon="38.866778"><ele>110.2</ele><time>2023-10-22T08:42:42Z</time></trkpt><trkpt lat="58.006927" lon="38.86677"><ele>109.7</ele><time>2023-10-22T08:42:44Z</time></trkpt><trkpt lat="58.006855" lon="38.866747"><ele>109.9</ele><time>2023-10-22T08:42:46Z</time></trkpt><trkpt lat="58.006812" lon="38.866578"><ele>109.1</ele><time>2023-10-22T08:42:49Z</time></trkpt><trkpt lat="58.006827" lon="38.866442"><ele>108.7</ele><time>2023-10-22T08:42:51Z</time></trkpt><trkpt lat="58.006823" lon="38.866258"><ele>109.7</ele><time>2023-10-22T08:42:54Z</time></trkpt><trkpt lat="58.00682" lon="38.86608"><ele>110.4</ele><time>2023-10-22T08:42:57Z</time></trkpt><trkpt lat="58.006842" lon="38.86594"><ele>110.3</ele><time>2023-10-22T08:42:59Z</time></trkpt><trkpt lat="58.006873" lon="38.865815"><ele>110.6</ele><time>2023-10-22T08:43:01Z</time></trkpt><trkpt lat="58.006908" lon="38.865685"><ele>111.0</ele><time>2023-10-22T08:43:03Z</time></trkpt><trkpt lat="58.006943" lon="38.865543"><ele>110.7</ele><time>2023-10-22T08:43:05Z</time></trkpt><trkpt lat="58.006975" lon="38.865393"><ele>110.0</ele><time>2023-10-22T08:43:07Z</time></trkpt><trkpt lat="58.007008" lon="38.865215"><ele>110.2</ele><time>2023-10-22T08:43:10Z</time></trkpt><trkpt lat="58.007033" lon="38.865075"><ele>109.9</ele><time>2023-10-22T08:43:13Z</time></trkpt><trkpt lat="58.007013" lon="38.864915"><ele>109.5</ele><time>2023-10-22T08:43:16Z</time></trkpt><trkpt lat="58.006967" lon="38.864755"><ele>108.7</ele><time>2023-10-22T08:43:19Z</time></trkpt><trkpt lat="58.006948" lon="38.864607"><ele>108.4</ele><time>2023-10-22T08:43:22Z</time></trkpt><trkpt lat="58.006957" lon="38.864437"><ele>108.1</ele><time>2023-10-22T08:43:25Z</time></trkpt><trkpt lat="58.007003" lon="38.864328"><ele>108.3</ele><time>2023-10-22T08:43:28Z</time></trkpt><trkpt lat="58.007067" lon="38.864222"><ele>108.7</ele><time>2023-10-22T08:43:31Z</time></trkpt><trkpt lat="58.007135" lon="38.864078"><ele>109.2</ele><time>2023-10-22T08:43:34Z</time></trkpt><trkpt lat="58.007173" lon="38.8639"><ele>109.6</ele><time>2023-10-22T08:43:37Z</time></trkpt><trkpt lat="58.00718" lon="38.86371"><ele>109.7</ele><time>2023-10-22T08:43:40Z</time></trkpt><trkpt lat="58.007133" lon="38.863527"><ele>109.7</ele><time>2023-10-22T08:43:43Z</time></trkpt><trkpt lat="58.00708" lon="38.863408"><ele>109.1</ele><time>2023-10-22T08:43:46Z</time></trkpt><trkpt lat="58.007155" lon="38.863385"><ele>110.1</ele><time>2023-10-22T08:43:55Z</time></trkpt><trkpt lat="58.007212" lon="38.863287"><ele>111.0</ele><time>2023-10-22T08:44:02Z</time></trkpt><trkpt lat="58.00728" lon="38.863235"><ele>110.7</ele><time>2023-10-22T08:44:06Z</time></trkpt><trkpt lat="58.007312" lon="38.86308"><ele>110.2</ele><time>2023-10-22T08:44:10Z</time></trkpt><trkpt lat="58.007332" lon="38.862925"><ele>110.1</ele><time>2023-10-22T08:44:13Z</time></trkpt><trkpt lat="58.007375" lon="38.862785"><ele>109.3</ele><time>2023-10-22T08:44:16Z</time></trkpt><trkpt lat="58.007478" lon="38.86278"><ele>109.0</ele><time>2023-10-22T08:44:19Z</time></trkpt><trkpt lat="58.007578" lon="38.862833"><ele>109.1</ele><time>2023-10-22T08:44:22Z</time></trkpt><trkpt lat="58.007678" lon="38.862863"><ele>109.7</ele><time>2023-10-22T08:44:25Z</time></trkpt><trkpt lat="58.007753" lon="38.862878"><ele>109.9</ele><time>2023-10-22T08:44:27Z</time></trkpt><trkpt lat="58.007825" lon="38.862892"><ele>109.9</ele><time>2023-10-22T08:44:29Z</time></trkpt><trkpt lat="58.007922" lon="38.862837"><ele>110.5</ele><time>2023-10-22T08:44:32Z</time></trkpt><trkpt lat="58.007992" lon="38.862725"><ele>110.5</ele><time>2023-10-22T08:44:35Z</time></trkpt><trkpt lat="58.008063" lon="38.862592"><ele>110.4</ele><time>2023-10-22T08:44:38Z</time></trkpt><trkpt lat="58.008097" lon="38.862408"><ele>110.5</ele><time>2023-10-22T08:44:41Z</time></trkpt><trkpt lat="58.008118" lon="38.862242"><ele>111.1</ele><time>2023-10-22T08:44:44Z</time></trkpt><trkpt lat="58.00811" lon="38.862092"><ele>111.0</ele><time>2023-10-22T08:44:47Z</time></trkpt><trkpt lat="58.008043" lon="38.861983"><ele>110.8</ele><time>2023-10-22T08:44:51Z</time></trkpt><trkpt lat="58.007972" lon="38.861903"><ele>110.3</ele><time>2023-10-22T08:44:54Z</time></trkpt><trkpt lat="58.007892" lon="38.86179"><ele>110.1</ele><time>2023-10-22T08:44:57Z</time></trkpt><trkpt lat="58.007855" lon="38.861605"><ele>110.1</ele><time>2023-10-22T08:45:00Z</time></trkpt><trkpt lat="58.007858" lon="38.861465"><ele>110.2</ele><time>2023-10-22T08:45:02Z</time></trkpt><trkpt lat="58.007857" lon="38.861267"><ele>110.2</ele><time>2023-10-22T08:45:06Z</time></trkpt><trkpt lat="58.00789" lon="38.8611"><ele>110.9</ele><time>2023-10-22T08:45:08Z</time></trkpt><trkpt lat="58.007932" lon="38.860925"><ele>111.1</ele><time>2023-10-22T08:45:11Z</time></trkpt><trkpt lat="58.00799" lon="38.860802"><ele>111.7</ele><time>2023-10-22T08:45:14Z</time></trkpt><trkpt lat="58.008013" lon="38.860655"><ele>112.0</ele><time>2023-10-22T08:45:18Z</time></trkpt><trkpt lat="58.007967" lon="38.860497"><ele>111.8</ele><time>2023-10-22T08:45:22Z</time></trkpt><trkpt lat="58.007912" lon="38.860395"><ele>111.4</ele><time>2023-10-22T08:45:25Z</time></trkpt><trkpt lat="58.007838" lon="38.860335"><ele>114.5</ele><time>2023-10-22T08:45:29Z</time></trkpt><trkpt lat="58.00776" lon="38.860263"><ele>117.0</ele><time>2023-10-22T08:45:33Z</time></trkpt><trkpt lat="58.007697" lon="38.860163"><ele>117.5</ele><time>2023-10-22T08:45:37Z</time></trkpt><trkpt lat="58.007647" lon="38.860038"><ele>118.1</ele><time>2023-10-22T08:45:42Z</time></trkpt><trkpt lat="58.007573" lon="38.859998"><ele>118.6</ele><time>2023-10-22T08:45:46Z</time></trkpt><trkpt lat="58.007513" lon="38.859915"><ele>119.7</ele><time>2023-10-22T08:45:50Z</time></trkpt><trkpt lat="58.007448" lon="38.859805"><ele>118.5</ele><time>2023-10-22T08:45:55Z</time></trkpt><trkpt lat="58.007433" lon="38.859655"><ele>118.1</ele><time>2023-10-22T08:46:02Z</time></trkpt><trkpt lat="58.007417" lon="38.859505"><ele>118.8</ele><time>2023-10-22T08:46:09Z</time></trkpt><trkpt lat="58.00733" lon="38.859467"><ele>119.3</ele><time>2023-10-22T08:46:17Z</time></trkpt><trkpt lat="58.0074" lon="38.859373"><ele>120.1</ele><time>2023-10-22T08:46:23Z</time></trkpt><trkpt lat="58.007475" lon="38.859325"><ele>120.2</ele><time>2023-10-22T08:46:28Z</time></trkpt><trkpt lat="58.007547" lon="38.859282"><ele>119.3</ele><time>2023-10-22T08:46:32Z</time></trkpt><trkpt lat="58.007622" lon="38.859252"><ele>118.8</ele><time>2023-10-22T08:46:44Z</time></trkpt><trkpt lat="58.007693" lon="38.859147"><ele>120.9</ele><time>2023-10-22T08:46:55Z</time></trkpt><trkpt lat="58.007765" lon="38.859063"><ele>120.8</ele><time>2023-10-22T08:46:59Z</time></trkpt><trkpt lat="58.007848" lon="38.859007"><ele>120.8</ele><time>2023-10-22T08:47:03Z</time></trkpt><trkpt lat="58.007905" lon="38.858902"><ele>122.5</ele><time>2023-10-22T08:47:07Z</time></trkpt><trkpt lat="58.00799" lon="38.858923"><ele>121.7</ele><time>2023-10-22T08:47:14Z</time></trkpt><trkpt lat="58.008088" lon="38.858938"><ele>121.9</ele><time>2023-10-22T08:47:18Z</time></trkpt><trkpt lat="58.008162" lon="38.858913"><ele>121.8</ele><time>2023-10-22T08:47:21Z</time></trkpt><trkpt lat="58.008225" lon="38.858812"><ele>120.7</ele><time>2023-10-22T08:47:27Z</time></trkpt><trkpt lat="58.0083" lon="38.85881"><ele>121.7</ele><time>2023-10-22T08:47:32Z</time></trkpt><trkpt lat="58.008377" lon="38.85873"><ele>121.4</ele><time>2023-10-22T08:47:36Z</time></trkpt><trkpt lat="58.00845" lon="38.858708"><ele>121.7</ele><time>2023-10-22T08:47:39Z</time></trkpt><trkpt lat="58.008527" lon="38.85866"><ele>121.6</ele><time>2023-10-22T08:47:43Z</time></trkpt><trkpt lat="58.008602" lon="38.858663"><ele>121.6</ele><time>2023-10-22T08:47:49Z</time></trkpt><trkpt lat="58.008665" lon="38.858575"><ele>121.1</ele><time>2023-10-22T08:47:53Z</time></trkpt><trkpt lat="58.008717" lon="38.858453"><ele>121.3</ele><time>2023-10-22T08:47:57Z</time></trkpt><trkpt lat="58.008798" lon="38.858448"><ele>121.7</ele><time>2023-10-22T08:48:02Z</time></trkpt><trkpt lat="58.008875" lon="38.858473"><ele>122.1</ele><time>2023-10-22T08:48:12Z</time></trkpt><trkpt lat="58.008953" lon="38.858548"><ele>120.7</ele><time>2023-10-22T08:48:16Z</time></trkpt><trkpt lat="58.009042" lon="38.858607"><ele>119.8</ele><time>2023-10-22T08:48:21Z</time></trkpt><trkpt lat="58.00912" lon="38.858663"><ele>118.8</ele><time>2023-10-22T08:48:26Z</time></trkpt><trkpt lat="58.009202" lon="38.858608"><ele>118.2</ele><time>2023-10-22T08:48:30Z</time></trkpt><trkpt lat="58.009287" lon="38.858555"><ele>117.0</ele><time>2023-10-22T08:48:33Z</time></trkpt><trkpt lat="58.009377" lon="38.858512"><ele>116.1</ele><time>2023-10-22T08:48:36Z</time></trkpt><trkpt lat="58.009467" lon="38.85841"><ele>115.7</ele><time>2023-10-22T08:48:39Z</time></trkpt><trkpt lat="58.00956" lon="38.858325"><ele>115.8</ele><time>2023-10-22T08:48:42Z</time></trkpt><trkpt lat="58.009617" lon="38.858227"><ele>115.5</ele><time>2023-10-22T08:48:44Z</time></trkpt><trkpt lat="58.009658" lon="38.85806"><ele>115.1</ele><time>2023-10-22T08:48:47Z</time></trkpt><trkpt lat="58.00966" lon="38.857903"><ele>114.1</ele><time>2023-10-22T08:48:50Z</time></trkpt><trkpt lat="58.00963" lon="38.857747"><ele>113.7</ele><time>2023-10-22T08:48:53Z</time></trkpt><trkpt lat="58.009585" lon="38.857573"><ele>113.6</ele><time>2023-10-22T08:48:56Z</time></trkpt><trkpt lat="58.009552" lon="38.857448"><ele>113.5</ele><time>2023-10-22T08:48:58Z</time></trkpt><trkpt lat="58.00953" lon="38.857282"><ele>112.8</ele><time>2023-10-22T08:49:01Z</time></trkpt><trkpt lat="58.009553" lon="38.857142"><ele>112.0</ele><time>2023-10-22T08:49:04Z</time></trkpt><trkpt lat="58.009613" lon="38.857213"><ele>110.2</ele><time>2023-10-22T08:49:14Z</time></trkpt><trkpt lat="58.009552" lon="38.857292"><ele>111.2</ele><time>2023-10-22T08:49:23Z</time></trkpt><trkpt lat="58.009528" lon="38.85748"><ele>112.0</ele><time>2023-10-22T08:49:28Z</time></trkpt><trkpt lat="58.009542" lon="38.857627"><ele>112.2</ele><time>2023-10-22T08:49:30Z</time></trkpt><trkpt lat="58.009563" lon="38.857773"><ele>112.1</ele><time>2023-10-22T08:49:32Z</time></trkpt><trkpt lat="58.009595" lon="38.857928"><ele>111.9</ele><time>2023-10-22T08:49:34Z</time></trkpt><trkpt lat="58.009618" lon="38.858072"><ele>111.8</ele><time>2023-10-22T08:49:36Z</time></trkpt><trkpt lat="58.009595" lon="38.858247"><ele>112.1</ele><time>2023-10-22T08:49:39Z</time></trkpt><trkpt lat="58.009557" lon="38.858373"><ele>112.2</ele><time>2023-10-22T08:49:42Z</time></trkpt><trkpt lat="58.009577" lon="38.858522"><ele>112.0</ele><time>2023-10-22T08:49:45Z</time></trkpt><trkpt lat="58.009557" lon="38.85866"><ele>111.3</ele><time>2023-10-22T08:49:48Z</time></trkpt><trkpt lat="58.009532" lon="38.85881"><ele>111.8</ele><time>2023-10-22T08:49:51Z</time></trkpt><trkpt lat="58.009607" lon="38.858877"><ele>112.1</ele><time>2023-10-22T08:49:57Z</time></trkpt><trkpt lat="58.009522" lon="38.858805"><ele>111.9</ele><time>2023-10-22T08:50:17Z</time></trkpt><trkpt lat="58.009457" lon="38.858735"><ele>111.9</ele><time>2023-10-22T08:50:22Z</time></trkpt><trkpt lat="58.009397" lon="38.858652"><ele>112.8</ele><time>2023-10-22T08:50:28Z</time></trkpt><trkpt lat="58.009322" lon="38.858617"><ele>113.6</ele><time>2023-10-22T08:50:31Z</time></trkpt><trkpt lat="58.009228" lon="38.858615"><ele>114.2</ele><time>2023-10-22T08:50:34Z</time></trkpt><trkpt lat="58.009152" lon="38.858582"><ele>115.0</ele><time>2023-10-22T08:50:37Z</time></trkpt><trkpt lat="58.009082" lon="38.858695"><ele>115.8</ele><time>2023-10-22T08:50:42Z</time></trkpt><trkpt lat="58.009048" lon="38.858832"><ele>116.0</ele><time>2023-10-22T08:50:45Z</time></trkpt><trkpt lat="58.008978" lon="38.858935"><ele>116.9</ele><time>2023-10-22T08:50:48Z</time></trkpt><trkpt lat="58.008907" lon="38.858968"><ele>117.8</ele><time>2023-10-22T08:50:51Z</time></trkpt><trkpt lat="58.008982" lon="38.859"><ele>117.6</ele><time>2023-10-22T08:51:06Z</time></trkpt><trkpt lat="58.00905" lon="38.8591"><ele>116.9</ele><time>2023-10-22T08:51:10Z</time></trkpt><trkpt lat="58.0091" lon="38.85925"><ele>116.7</ele><time>2023-10-22T08:51:14Z</time></trkpt><trkpt lat="58.00909" lon="38.859388"><ele>115.8</ele><time>2023-10-22T08:51:18Z</time></trkpt><trkpt lat="58.009042" lon="38.859543"><ele>116.4</ele><time>2023-10-22T08:51:22Z</time></trkpt><trkpt lat="58.008982" lon="38.859677"><ele>116.4</ele><time>2023-10-22T08:51:26Z</time></trkpt><trkpt lat="58.008923" lon="38.859802"><ele>116.5</ele><time>2023-10-22T08:51:29Z</time></trkpt><trkpt lat="58.008885" lon="38.859923"><ele>116.5</ele><time>2023-10-22T08:51:31Z</time></trkpt><trkpt lat="58.008838" lon="38.86007"><ele>116.4</ele><time>2023-10-22T08:51:33Z</time></trkpt><trkpt lat="58.008787" lon="38.86022"><ele>117.0</ele><time>2023-10-22T08:51:35Z</time></trkpt><trkpt lat="58.008732" lon="38.860362"><ele>117.0</ele><time>2023-10-22T08:51:37Z</time></trkpt><trkpt lat="58.008692" lon="38.86048"><ele>115.5</ele><time>2023-10-22T08:51:39Z</time></trkpt><trkpt lat="58.008627" lon="38.860638"><ele>113.6</ele><time>2023-10-22T08:51:43Z</time></trkpt><trkpt lat="58.008573" lon="38.860763"><ele>111.8</ele><time>2023-10-22T08:51:46Z</time></trkpt><trkpt lat="58.008523" lon="38.860882"><ele>110.7</ele><time>2023-10-22T08:51:49Z</time></trkpt><trkpt lat="58.008483" lon="38.861008"><ele>110.3</ele><time>2023-10-22T08:51:54Z</time></trkpt><trkpt lat="58.008452" lon="38.861133"><ele>110.3</ele><time>2023-10-22T08:51:59Z</time></trkpt><trkpt lat="58.008537" lon="38.861227"><ele>110.3</ele><time>2023-10-22T08:52:03Z</time></trkpt><trkpt lat="58.008615" lon="38.861243"><ele>110.0</ele><time>2023-10-22T08:52:06Z</time></trkpt><trkpt lat="58.00854" lon="38.861227"><ele>109.4</ele><time>2023-10-22T08:52:13Z</time></trkpt><trkpt lat="58.00846" lon="38.861235"><ele>109.9</ele><time>2023-10-22T08:52:15Z</time></trkpt><trkpt lat="58.008387" lon="38.861265"><ele>110.3</ele><time>2023-10-22T08:52:17Z</time></trkpt><trkpt lat="58.008333" lon="38.861405"><ele>110.7</ele><time>2023-10-22T08:52:20Z</time></trkpt><trkpt lat="58.008308" lon="38.861535"><ele>111.1</ele><time>2023-10-22T08:52:22Z</time></trkpt><trkpt lat="58.008273" lon="38.861657"><ele>111.2</ele><time>2023-10-22T08:52:24Z</time></trkpt><trkpt lat="58.008243" lon="38.861848"><ele>110.6</ele><time>2023-10-22T08:52:27Z</time></trkpt><trkpt lat="58.008235" lon="38.86199"><ele>110.5</ele><time>2023-10-22T08:52:29Z</time></trkpt><trkpt lat="58.008205" lon="38.862122"><ele>110.9</ele><time>2023-10-22T08:52:31Z</time></trkpt><trkpt lat="58.008153" lon="38.862242"><ele>111.4</ele><time>2023-10-22T08:52:33Z</time></trkpt><trkpt lat="58.008092" lon="38.862403"><ele>111.8</ele><time>2023-10-22T08:52:36Z</time></trkpt><trkpt lat="58.008053" lon="38.862548"><ele>112.0</ele><time>2023-10-22T08:52:39Z</time></trkpt><trkpt lat="58.008015" lon="38.86272"><ele>111.9</ele><time>2023-10-22T08:52:42Z</time></trkpt><trkpt lat="58.007992" lon="38.862868"><ele>112.2</ele><time>2023-10-22T08:52:45Z</time></trkpt><trkpt lat="58.00793" lon="38.862983"><ele>112.8</ele><time>2023-10-22T08:52:51Z</time></trkpt><trkpt lat="58.007853" lon="38.86304"><ele>112.6</ele><time>2023-10-22T08:52:54Z</time></trkpt><trkpt lat="58.007775" lon="38.863132"><ele>112.2</ele><time>2023-10-22T08:52:57Z</time></trkpt><trkpt lat="58.007718" lon="38.863258"><ele>113.1</ele><time>2023-10-22T08:53:00Z</time></trkpt><trkpt lat="58.00767" lon="38.863427"><ele>114.1</ele><time>2023-10-22T08:53:03Z</time></trkpt><trkpt lat="58.007622" lon="38.863557"><ele>114.6</ele><time>2023-10-22T08:53:05Z</time></trkpt><trkpt lat="58.007568" lon="38.863692"><ele>115.1</ele><time>2023-10-22T08:53:07Z</time></trkpt><trkpt lat="58.007528" lon="38.86383"><ele>114.4</ele><time>2023-10-22T08:53:10Z</time></trkpt><trkpt lat="58.007478" lon="38.864005"><ele>113.6</ele><time>2023-10-22T08:53:13Z</time></trkpt><trkpt lat="58.007498" lon="38.864163"><ele>113.2</ele><time>2023-10-22T08:53:15Z</time></trkpt><trkpt lat="58.007557" lon="38.864307"><ele>112.9</ele><time>2023-10-22T08:53:18Z</time></trkpt><trkpt lat="58.007603" lon="38.86444"><ele>112.9</ele><time>2023-10-22T08:53:21Z</time></trkpt><trkpt lat="58.00763" lon="38.86462"><ele>113.3</ele><time>2023-10-22T08:53:24Z</time></trkpt><trkpt lat="58.007673" lon="38.864758"><ele>113.1</ele><time>2023-10-22T08:53:27Z</time></trkpt><trkpt lat="58.00772" lon="38.864865"><ele>113.3</ele><time>2023-10-22T08:53:30Z</time></trkpt><trkpt lat="58.007707" lon="38.865008"><ele>113.2</ele><time>2023-10-22T08:53:35Z</time></trkpt><trkpt lat="58.007695" lon="38.865165"><ele>112.8</ele><time>2023-10-22T08:53:43Z</time></trkpt><trkpt lat="58.007688" lon="38.865328"><ele>113.5</ele><time>2023-10-22T08:53:48Z</time></trkpt><trkpt lat="58.007732" lon="38.865473"><ele>112.7</ele><time>2023-10-22T08:53:52Z</time></trkpt><trkpt lat="58.007727" lon="38.865645"><ele>112.6</ele><time>2023-10-22T08:53:58Z</time></trkpt><trkpt lat="58.007675" lon="38.865777"><ele>112.0</ele><time>2023-10-22T08:54:02Z</time></trkpt><trkpt lat="58.007583" lon="38.865775"><ele>112.2</ele><time>2023-10-22T08:54:05Z</time></trkpt><trkpt lat="58.007507" lon="38.865825"><ele>112.6</ele><time>2023-10-22T08:54:07Z</time></trkpt><trkpt lat="58.007403" lon="38.865822"><ele>112.6</ele><time>2023-10-22T08:54:10Z</time></trkpt><trkpt lat="58.007303" lon="38.86577"><ele>112.6</ele><time>2023-10-22T08:54:13Z</time></trkpt><trkpt lat="58.007213" lon="38.865723"><ele>112.7</ele><time>2023-10-22T08:54:16Z</time></trkpt><trkpt lat="58.00714" lon="38.865672"><ele>112.0</ele><time>2023-10-22T08:54:21Z</time></trkpt><trkpt lat="58.00706" lon="38.86561"><ele>112.5</ele><time>2023-10-22T08:54:25Z</time></trkpt><trkpt lat="58.006987" lon="38.865632"><ele>112.6</ele><time>2023-10-22T08:54:28Z</time></trkpt><trkpt lat="58.006928" lon="38.86578"><ele>112.2</ele><time>2023-10-22T08:54:31Z</time></trkpt><trkpt lat="58.00688" lon="38.865908"><ele>111.6</ele><time>2023-10-22T08:54:33Z</time></trkpt><trkpt lat="58.006818" lon="38.865997"><ele>111.7</ele><time>2023-10-22T08:54:35Z</time></trkpt><trkpt lat="58.006723" lon="38.866063"><ele>111.3</ele><time>2023-10-22T08:54:38Z</time></trkpt><trkpt lat="58.006632" lon="38.866113"><ele>110.7</ele><time>2023-10-22T08:54:41Z</time></trkpt><trkpt lat="58.006537" lon="38.866145"><ele>111.5</ele><time>2023-10-22T08:54:44Z</time></trkpt><trkpt lat="58.006455" lon="38.866173"><ele>111.4</ele><time>2023-10-22T08:54:47Z</time></trkpt><trkpt lat="58.006355" lon="38.8662"><ele>111.5</ele><time>2023-10-22T08:54:50Z</time></trkpt><trkpt lat="58.00626" lon="38.866163"><ele>111.9</ele><time>2023-10-22T08:54:53Z</time></trkpt><trkpt lat="58.006205" lon="38.866008"><ele>112.1</ele><time>2023-10-22T08:54:56Z</time></trkpt><trkpt lat="58.006175" lon="38.865875"><ele>111.5</ele><time>2023-10-22T08:55:00Z</time></trkpt><trkpt lat="58.006162" lon="38.86574"><ele>111.5</ele><time>2023-10-22T08:55:05Z</time></trkpt><trkpt lat="58.006225" lon="38.865633"><ele>111.9</ele><time>2023-10-22T08:55:09Z</time></trkpt><trkpt lat="58.006275" lon="38.865535"><ele>111.9</ele><time>2023-10-22T08:55:12Z</time></trkpt><trkpt lat="58.006337" lon="38.865447"><ele>112.2</ele><time>2023-10-22T08:55:16Z</time></trkpt><trkpt lat="58.006413" lon="38.86547"><ele>111.8</ele><time>2023-10-22T08:55:20Z</time></trkpt><trkpt lat="58.006367" lon="38.865615"><ele>112.1</ele><time>2023-10-22T08:55:24Z</time></trkpt><trkpt lat="58.006302" lon="38.865685"><ele>112.5</ele><time>2023-10-22T08:55:28Z</time></trkpt><trkpt lat="58.006245" lon="38.86577"><ele>112.8</ele><time>2023-10-22T08:55:31Z</time></trkpt><trkpt lat="58.00625" lon="38.865927"><ele>113.3</ele><time>2023-10-22T08:55:34Z</time></trkpt><trkpt lat="58.006323" lon="38.866052"><ele>113.3</ele><time>2023-10-22T08:55:36Z</time></trkpt><trkpt lat="58.006398" lon="38.866175"><ele>113.1</ele><time>2023-10-22T08:55:38Z</time></trkpt><trkpt lat="58.006492" lon="38.866297"><ele>112.7</ele><time>2023-10-22T08:55:40Z</time></trkpt><trkpt lat="58.006565" lon="38.866408"><ele>112.0</ele><time>2023-10-22T08:55:42Z</time></trkpt><trkpt lat="58.006618" lon="38.866535"><ele>111.3</ele><time>2023-10-22T08:55:45Z</time></trkpt><trkpt lat="58.00665" lon="38.86666"><ele>112.2</ele><time>2023-10-22T08:56:02Z</time></trkpt></trkseg></trk></gpx>