<?xml version="1.0" encoding="UTF-8" standalone="no"?><gpx xmlns="http://www.topografix.com/GPX/1/1" xmlns:gpxtpx="http://www.garmin.com/xmlschemas/TrackPointExtension/v1" xmlns:xsi="http://www.w3.org/2001/XMLSchema-instance" creator="Sports Tracker" version="1.1" xsi:schemaLocation="http://www.topografix.com/GPX/1/1 http://www.topografix.com/GPX/1/1/gpx.xsd http://www.garmin.com/xmlschemas/TrackPointExtension/v1 http://www.garmin.com/xmlschemas/TrackPointExtensionv1.xsd"><metadata><name/><desc/><author><name>Александр</name></author></metadata><trk><name/><trkseg><trkpt lat="58.058733" lon="38.81699"><ele>119.0</ele><time>2023-07-07T08:53:17Z</time></trkpt><trkpt lat="58.058693" lon="38.81714"><ele>115.6</ele><time>2023-07-07T08:53:29Z</time></trkpt><trkpt lat="58.058603" lon="38.817143"><ele>106.8</ele><time>2023-07-07T08:53:32Z</time></trkpt><trkpt lat="58.058532" lon="38.817103"><ele>106.6</ele><time>2023-07-07T08:53:34Z</time></trkpt><trkpt lat="58.058448" lon="38.817027"><ele>103.9</ele><time>2023-07-07T08:53:37Z</time></trkpt><trkpt lat="58.058355" lon="38.816973"><ele>101.8</ele><time>2023-07-07T08:53:40Z</time></trkpt><trkpt lat="58.058273" lon="38.816895"><ele>99.9</ele><time>2023-07-07T08:53:43Z</time></trkpt><trkpt lat="58.058177" lon="38.816868"><ele>101.5</ele><time>2023-07-07T08:53:48Z</time></trkpt><trkpt lat="58.058098" lon="38.81684"><ele>101.1</ele><time>2023-07-07T08:53:50Z</time></trkpt><trkpt lat="58.058015" lon="38.816813"><ele>102.0</ele><time>2023-07-07T08:53:52Z</time></trkpt><trkpt lat="58.057922" lon="38.8168"><ele>100.4</ele><time>2023-07-07T08:53:54Z</time></trkpt><trkpt lat="58.057827" lon="38.816805"><ele>100.6</ele><time>2023-07-07T08:53:56Z</time></trkpt><trkpt lat="58.057745" lon="38.816792"><ele>101.0</ele><time>2023-07-07T08:53:58Z</time></trkpt><trkpt lat="58.05767" lon="38.816778"><ele>101.6</ele><time>2023-07-07T08:54:01Z</time></trkpt><trkpt lat="58.057587" lon="38.816777"><ele>100.7</ele><time>2023-07-07T08:54:05Z</time></trkpt><trkpt lat="58.057505" lon="38.816762"><ele>102.9</ele><time>2023-07-07T08:54:08Z</time></trkpt><trkpt lat="58.057432" lon="38.81677"><ele>104.7</ele><time>2023-07-07T08:54:11Z</time></trkpt><trkpt lat="58.05735" lon="38.816713"><ele>106.2</ele><time>2023-07-07T08:54:16Z</time></trkpt><trkpt lat="58.057248" lon="38.816705"><ele>103.3</ele><time>2023-07-07T08:54:19Z</time></trkpt><trkpt lat="58.057143" lon="38.816662"><ele>101.8</ele><time>2023-07-07T08:54:22Z</time></trkpt><trkpt lat="58.057045" lon="38.816605"><ele>99.6</ele><time>2023-07-07T08:54:25Z</time></trkpt><trkpt lat="58.056942" lon="38.816577"><ele>102.8</ele><time>2023-07-07T08:54:28Z</time></trkpt><trkpt lat="58.056843" lon="38.81655"><ele>100.8</ele><time>2023-07-07T08:54:31Z</time></trkpt><trkpt lat="58.056772" lon="38.816525"><ele>100.7</ele><time>2023-07-07T08:54:34Z</time></trkpt><trkpt lat="58.056682" lon="38.816493"><ele>97.1</ele><time>2023-07-07T08:54:38Z</time></trkpt><trkpt lat="58.056608" lon="38.81652"><ele>99.6</ele><time>2023-07-07T08:54:41Z</time></trkpt><trkpt lat="58.05653" lon="38.816605"><ele>100.7</ele><time>2023-07-07T08:54:44Z</time></trkpt><trkpt lat="58.056448" lon="38.816573"><ele>100.6</ele><time>2023-07-07T08:54:47Z</time></trkpt><trkpt lat="58.056373" lon="38.816507"><ele>101.8</ele><time>2023-07-07T08:54:53Z</time></trkpt><trkpt lat="58.056295" lon="38.816452"><ele>102.5</ele><time>2023-07-07T08:54:56Z</time></trkpt><trkpt lat="58.056213" lon="38.816418"><ele>102.0</ele><time>2023-07-07T08:54:59Z</time></trkpt><trkpt lat="58.056105" lon="38.816408"><ele>101.8</ele><time>2023-07-07T08:55:02Z</time></trkpt><trkpt lat="58.056002" lon="38.81638"><ele>103.1</ele><time>2023-07-07T08:55:05Z</time></trkpt><trkpt lat="58.055923" lon="38.816363"><ele>103.0</ele><time>2023-07-07T08:55:07Z</time></trkpt><trkpt lat="58.05585" lon="38.816355"><ele>102.2</ele><time>2023-07-07T08:55:09Z</time></trkpt><trkpt lat="58.055775" lon="38.816343"><ele>101.4</ele><time>2023-07-07T08:55:11Z</time></trkpt><trkpt lat="58.055698" lon="38.816327"><ele>100.9</ele><time>2023-07-07T08:55:13Z</time></trkpt><trkpt lat="58.05562" lon="38.816305"><ele>101.1</ele><time>2023-07-07T08:55:15Z</time></trkpt><trkpt lat="58.055545" lon="38.816288"><ele>100.7</ele><time>2023-07-07T08:55:17Z</time></trkpt><trkpt lat="58.055458" lon="38.816275"><ele>101.6</ele><time>2023-07-07T08:55:20Z</time></trkpt><trkpt lat="58.05538" lon="38.816268"><ele>103.3</ele><time>2023-07-07T08:55:23Z</time></trkpt><trkpt lat="58.055308" lon="38.816283"><ele>104.4</ele><time>2023-07-07T08:55:26Z</time></trkpt><trkpt lat="58.055237" lon="38.816252"><ele>104.8</ele><time>2023-07-07T08:55:34Z</time></trkpt><trkpt lat="58.055142" lon="38.81623"><ele>101.6</ele><time>2023-07-07T08:55:49Z</time></trkpt><trkpt lat="58.055065" lon="38.816212"><ele>102.6</ele><time>2023-07-07T08:55:51Z</time></trkpt><trkpt lat="58.054988" lon="38.816242"><ele>102.8</ele><time>2023-07-07T08:55:53Z</time></trkpt><trkpt lat="58.054942" lon="38.816348"><ele>104.0</ele><time>2023-07-07T08:55:55Z</time></trkpt><trkpt lat="58.054925" lon="38.816502"><ele>103.3</ele><time>2023-07-07T08:55:57Z</time></trkpt><trkpt lat="58.054915" lon="38.816657"><ele>103.9</ele><time>2023-07-07T08:55:59Z</time></trkpt><trkpt lat="58.054907" lon="38.816835"><ele>104.0</ele><time>2023-07-07T08:56:02Z</time></trkpt><trkpt lat="58.05488" lon="38.817042"><ele>103.4</ele><time>2023-07-07T08:56:05Z</time></trkpt><trkpt lat="58.05487" lon="38.817212"><ele>103.3</ele><time>2023-07-07T08:56:07Z</time></trkpt><trkpt lat="58.054867" lon="38.817377"><ele>102.0</ele><time>2023-07-07T08:56:09Z</time></trkpt><trkpt lat="58.054842" lon="38.81756"><ele>101.8</ele><time>2023-07-07T08:56:12Z</time></trkpt><trkpt lat="58.05482" lon="38.81776"><ele>101.5</ele><time>2023-07-07T08:56:15Z</time></trkpt><trkpt lat="58.054797" lon="38.817958"><ele>102.1</ele><time>2023-07-07T08:56:18Z</time></trkpt><trkpt lat="58.054792" lon="38.818102"><ele>103.1</ele><time>2023-07-07T08:56:20Z</time></trkpt><trkpt lat="58.054785" lon="38.818277"><ele>104.0</ele><time>2023-07-07T08:56:22Z</time></trkpt><trkpt lat="58.054782" lon="38.818448"><ele>105.0</ele><time>2023-07-07T08:56:24Z</time></trkpt><trkpt lat="58.054778" lon="38.818587"><ele>105.9</ele><time>2023-07-07T08:56:26Z</time></trkpt><trkpt lat="58.054777" lon="38.818767"><ele>106.9</ele><time>2023-07-07T08:56:29Z</time></trkpt><trkpt lat="58.05476" lon="38.818925"><ele>107.8</ele><time>2023-07-07T08:56:32Z</time></trkpt><trkpt lat="58.054748" lon="38.819105"><ele>108.1</ele><time>2023-07-07T08:56:36Z</time></trkpt><trkpt lat="58.054743" lon="38.819263"><ele>109.2</ele><time>2023-07-07T08:56:38Z</time></trkpt><trkpt lat="58.054725" lon="38.819483"><ele>110.1</ele><time>2023-07-07T08:56:40Z</time></trkpt><trkpt lat="58.054718" lon="38.819713"><ele>109.7</ele><time>2023-07-07T08:56:42Z</time></trkpt><trkpt lat="58.054693" lon="38.819887"><ele>109.1</ele><time>2023-07-07T08:56:44Z</time></trkpt><trkpt lat="58.054692" lon="38.820085"><ele>108.7</ele><time>2023-07-07T08:56:46Z</time></trkpt><trkpt lat="58.054678" lon="38.820257"><ele>108.4</ele><time>2023-07-07T08:56:48Z</time></trkpt><trkpt lat="58.054673" lon="38.820433"><ele>109.3</ele><time>2023-07-07T08:56:50Z</time></trkpt><trkpt lat="58.054665" lon="38.820612"><ele>108.7</ele><time>2023-07-07T08:56:52Z</time></trkpt><trkpt lat="58.05464" lon="38.820777"><ele>108.5</ele><time>2023-07-07T08:56:54Z</time></trkpt><trkpt lat="58.054647" lon="38.820922"><ele>109.6</ele><time>2023-07-07T08:56:55Z</time></trkpt><trkpt lat="58.054637" lon="38.821068"><ele>107.5</ele><time>2023-07-07T08:56:57Z</time></trkpt><trkpt lat="58.054625" lon="38.821227"><ele>107.5</ele><time>2023-07-07T08:57:00Z</time></trkpt><trkpt lat="58.054635" lon="38.821377"><ele>108.7</ele><time>2023-07-07T08:57:03Z</time></trkpt><trkpt lat="58.054635" lon="38.821545"><ele>109.8</ele><time>2023-07-07T08:57:06Z</time></trkpt><trkpt lat="58.054598" lon="38.821682"><ele>108.4</ele><time>2023-07-07T08:57:09Z</time></trkpt><trkpt lat="58.05456" lon="38.821863"><ele>107.8</ele><time>2023-07-07T08:57:11Z</time></trkpt><trkpt lat="58.054528" lon="38.822023"><ele>108.8</ele><time>2023-07-07T08:57:13Z</time></trkpt><trkpt lat="58.054497" lon="38.822162"><ele>109.4</ele><time>2023-07-07T08:57:15Z</time></trkpt><trkpt lat="58.054465" lon="38.822335"><ele>108.2</ele><time>2023-07-07T08:57:17Z</time></trkpt><trkpt lat="58.05443" lon="38.822517"><ele>107.9</ele><time>2023-07-07T08:57:19Z</time></trkpt><trkpt lat="58.054402" lon="38.822685"><ele>110.8</ele><time>2023-07-07T08:57:21Z</time></trkpt><trkpt lat="58.054365" lon="38.822802"><ele>110.1</ele><time>2023-07-07T08:57:23Z</time></trkpt><trkpt lat="58.05433" lon="38.822933"><ele>111.7</ele><time>2023-07-07T08:57:25Z</time></trkpt><trkpt lat="58.054312" lon="38.823095"><ele>110.9</ele><time>2023-07-07T08:57:28Z</time></trkpt><trkpt lat="58.054278" lon="38.823245"><ele>109.9</ele><time>2023-07-07T08:57:31Z</time></trkpt><trkpt lat="58.05422" lon="38.823387"><ele>108.5</ele><time>2023-07-07T08:57:34Z</time></trkpt><trkpt lat="58.054165" lon="38.82352"><ele>108.3</ele><time>2023-07-07T08:57:38Z</time></trkpt><trkpt lat="58.054108" lon="38.823647"><ele>109.2</ele><time>2023-07-07T08:57:41Z</time></trkpt><trkpt lat="58.054068" lon="38.82378"><ele>109.3</ele><time>2023-07-07T08:57:43Z</time></trkpt><trkpt lat="58.054043" lon="38.823943"><ele>109.1</ele><time>2023-07-07T08:57:45Z</time></trkpt><trkpt lat="58.054057" lon="38.824103"><ele>108.8</ele><time>2023-07-07T08:57:47Z</time></trkpt><trkpt lat="58.05408" lon="38.824272"><ele>109.9</ele><time>2023-07-07T08:57:49Z</time></trkpt><trkpt lat="58.054075" lon="38.824457"><ele>107.9</ele><time>2023-07-07T08:57:51Z</time></trkpt><trkpt lat="58.054052" lon="38.824635"><ele>108.2</ele><time>2023-07-07T08:57:53Z</time></trkpt><trkpt lat="58.054033" lon="38.824787"><ele>107.6</ele><time>2023-07-07T08:57:54Z</time></trkpt><trkpt lat="58.05401" lon="38.824922"><ele>107.8</ele><time>2023-07-07T08:57:56Z</time></trkpt><trkpt lat="58.053973" lon="38.825122"><ele>108.1</ele><time>2023-07-07T08:57:58Z</time></trkpt><trkpt lat="58.053935" lon="38.82531"><ele>107.8</ele><time>2023-07-07T08:58:00Z</time></trkpt><trkpt lat="58.05389" lon="38.825487"><ele>107.5</ele><time>2023-07-07T08:58:02Z</time></trkpt><trkpt lat="58.053868" lon="38.825653"><ele>106.5</ele><time>2023-07-07T08:58:04Z</time></trkpt><trkpt lat="58.053837" lon="38.825792"><ele>107.3</ele><time>2023-07-07T08:58:06Z</time></trkpt><trkpt lat="58.053813" lon="38.825938"><ele>106.9</ele><time>2023-07-07T08:58:08Z</time></trkpt><trkpt lat="58.053808" lon="38.826093"><ele>107.4</ele><time>2023-07-07T08:58:11Z</time></trkpt><trkpt lat="58.05375" lon="38.826205"><ele>108.2</ele><time>2023-07-07T08:58:15Z</time></trkpt><trkpt lat="58.053695" lon="38.82637"><ele>106.2</ele><time>2023-07-07T08:59:28Z</time></trkpt><trkpt lat="58.053657" lon="38.826517"><ele>107.0</ele><time>2023-07-07T08:59:30Z</time></trkpt><trkpt lat="58.053615" lon="38.82665"><ele>107.4</ele><time>2023-07-07T08:59:32Z</time></trkpt><trkpt lat="58.053575" lon="38.826787"><ele>107.4</ele><time>2023-07-07T08:59:34Z</time></trkpt><trkpt lat="58.053533" lon="38.82694"><ele>107.3</ele><time>2023-07-07T08:59:36Z</time></trkpt><trkpt lat="58.053498" lon="38.827115"><ele>107.4</ele><time>2023-07-07T08:59:38Z</time></trkpt><trkpt lat="58.053468" lon="38.827282"><ele>107.5</ele><time>2023-07-07T08:59:40Z</time></trkpt><trkpt lat="58.053437" lon="38.827442"><ele>107.0</ele><time>2023-07-07T08:59:42Z</time></trkpt><trkpt lat="58.053412" lon="38.827608"><ele>107.5</ele><time>2023-07-07T08:59:44Z</time></trkpt><trkpt lat="58.053377" lon="38.827767"><ele>106.9</ele><time>2023-07-07T08:59:46Z</time></trkpt><trkpt lat="58.053347" lon="38.827935"><ele>107.1</ele><time>2023-07-07T08:59:48Z</time></trkpt><trkpt lat="58.053312" lon="38.828085"><ele>106.6</ele><time>2023-07-07T08:59:50Z</time></trkpt><trkpt lat="58.053283" lon="38.828238"><ele>107.7</ele><time>2023-07-07T08:59:52Z</time></trkpt><trkpt lat="58.053273" lon="38.828392"><ele>108.4</ele><time>2023-07-07T08:59:54Z</time></trkpt><trkpt lat="58.053247" lon="38.82856"><ele>108.9</ele><time>2023-07-07T08:59:58Z</time></trkpt><trkpt lat="58.053212" lon="38.828728"><ele>108.9</ele><time>2023-07-07T09:00:01Z</time></trkpt><trkpt lat="58.053178" lon="38.828877"><ele>109.4</ele><time>2023-07-07T09:00:03Z</time></trkpt><trkpt lat="58.053145" lon="38.829057"><ele>112.0</ele><time>2023-07-07T09:00:05Z</time></trkpt><trkpt lat="58.053112" lon="38.829223"><ele>112.0</ele><time>2023-07-07T09:00:07Z</time></trkpt><trkpt lat="58.053078" lon="38.829382"><ele>111.8</ele><time>2023-07-07T09:00:09Z</time></trkpt><trkpt lat="58.053045" lon="38.829552"><ele>112.9</ele><time>2023-07-07T09:00:11Z</time></trkpt><trkpt lat="58.053018" lon="38.829693"><ele>112.4</ele><time>2023-07-07T09:00:13Z</time></trkpt><trkpt lat="58.052988" lon="38.829852"><ele>112.2</ele><time>2023-07-07T09:00:15Z</time></trkpt><trkpt lat="58.052963" lon="38.830008"><ele>111.6</ele><time>2023-07-07T09:00:17Z</time></trkpt><trkpt lat="58.052942" lon="38.830197"><ele>111.1</ele><time>2023-07-07T09:00:19Z</time></trkpt><trkpt lat="58.052912" lon="38.83042"><ele>111.2</ele><time>2023-07-07T09:00:21Z</time></trkpt><trkpt lat="58.052895" lon="38.830568"><ele>110.7</ele><time>2023-07-07T09:00:22Z</time></trkpt><trkpt lat="58.052865" lon="38.830802"><ele>109.9</ele><time>2023-07-07T09:00:23Z</time></trkpt><trkpt lat="58.052827" lon="38.830998"><ele>108.3</ele><time>2023-07-07T09:00:25Z</time></trkpt><trkpt lat="58.052815" lon="38.831163"><ele>106.7</ele><time>2023-07-07T09:00:27Z</time></trkpt><trkpt lat="58.052777" lon="38.831337"><ele>106.5</ele><time>2023-07-07T09:00:29Z</time></trkpt><trkpt lat="58.05275" lon="38.83148"><ele>103.7</ele><time>2023-07-07T09:00:31Z</time></trkpt><trkpt lat="58.05273" lon="38.831618"><ele>100.4</ele><time>2023-07-07T09:00:33Z</time></trkpt><trkpt lat="58.052685" lon="38.831742"><ele>101.7</ele><time>2023-07-07T09:00:35Z</time></trkpt><trkpt lat="58.052647" lon="38.831862"><ele>102.7</ele><time>2023-07-07T09:00:38Z</time></trkpt><trkpt lat="58.052582" lon="38.832033"><ele>102.4</ele><time>2023-07-07T09:00:41Z</time></trkpt><trkpt lat="58.05255" lon="38.832215"><ele>103.1</ele><time>2023-07-07T09:00:43Z</time></trkpt><trkpt lat="58.052535" lon="38.832395"><ele>102.4</ele><time>2023-07-07T09:00:45Z</time></trkpt><trkpt lat="58.052493" lon="38.832583"><ele>101.0</ele><time>2023-07-07T09:00:47Z</time></trkpt><trkpt lat="58.052462" lon="38.832745"><ele>103.9</ele><time>2023-07-07T09:00:50Z</time></trkpt><trkpt lat="58.052477" lon="38.832913"><ele>102.2</ele><time>2023-07-07T09:00:52Z</time></trkpt><trkpt lat="58.052463" lon="38.833072"><ele>102.8</ele><time>2023-07-07T09:00:54Z</time></trkpt><trkpt lat="58.052398" lon="38.833235"><ele>100.9</ele><time>2023-07-07T09:00:57Z</time></trkpt><trkpt lat="58.052348" lon="38.833412"><ele>103.2</ele><time>2023-07-07T09:00:59Z</time></trkpt><trkpt lat="58.052308" lon="38.833578"><ele>104.9</ele><time>2023-07-07T09:01:01Z</time></trkpt><trkpt lat="58.052275" lon="38.833705"><ele>107.0</ele><time>2023-07-07T09:01:03Z</time></trkpt><trkpt lat="58.052248" lon="38.833877"><ele>109.4</ele><time>2023-07-07T09:01:06Z</time></trkpt><trkpt lat="58.052177" lon="38.834035"><ele>108.5</ele><time>2023-07-07T09:01:09Z</time></trkpt><trkpt lat="58.052123" lon="38.834157"><ele>109.8</ele><time>2023-07-07T09:01:11Z</time></trkpt><trkpt lat="58.052073" lon="38.834325"><ele>111.3</ele><time>2023-07-07T09:01:13Z</time></trkpt><trkpt lat="58.052027" lon="38.834505"><ele>111.3</ele><time>2023-07-07T09:01:15Z</time></trkpt><trkpt lat="58.05199" lon="38.83466"><ele>112.0</ele><time>2023-07-07T09:01:17Z</time></trkpt><trkpt lat="58.051957" lon="38.8348"><ele>113.1</ele><time>2023-07-07T09:01:19Z</time></trkpt><trkpt lat="58.051937" lon="38.834967"><ele>116.6</ele><time>2023-07-07T09:01:22Z</time></trkpt><trkpt lat="58.05197" lon="38.83512"><ele>118.7</ele><time>2023-07-07T09:01:24Z</time></trkpt><trkpt lat="58.051943" lon="38.835295"><ele>123.4</ele><time>2023-07-07T09:01:27Z</time></trkpt><trkpt lat="58.051917" lon="38.835468"><ele>124.2</ele><time>2023-07-07T09:01:30Z</time></trkpt><trkpt lat="58.051918" lon="38.835612"><ele>124.3</ele><time>2023-07-07T09:01:32Z</time></trkpt><trkpt lat="58.051917" lon="38.835762"><ele>123.6</ele><time>2023-07-07T09:01:35Z</time></trkpt><trkpt lat="58.051908" lon="38.836033"><ele>122.6</ele><time>2023-07-07T09:01:38Z</time></trkpt><trkpt lat="58.05187" lon="38.836212"><ele>119.1</ele><time>2023-07-07T09:01:40Z</time></trkpt><trkpt lat="58.051858" lon="38.836415"><ele>115.2</ele><time>2023-07-07T09:01:42Z</time></trkpt><trkpt lat="58.051847" lon="38.836603"><ele>112.9</ele><time>2023-07-07T09:01:44Z</time></trkpt><trkpt lat="58.051835" lon="38.836835"><ele>113.1</ele><time>2023-07-07T09:01:46Z</time></trkpt><trkpt lat="58.051798" lon="38.83702"><ele>111.0</ele><time>2023-07-07T09:01:49Z</time></trkpt><trkpt lat="58.051738" lon="38.837148"><ele>107.9</ele><time>2023-07-07T09:01:52Z</time></trkpt><trkpt lat="58.051707" lon="38.837295"><ele>109.1</ele><time>2023-07-07T09:01:54Z</time></trkpt><trkpt lat="58.051727" lon="38.837457"><ele>106.3</ele><time>2023-07-07T09:01:56Z</time></trkpt><trkpt lat="58.051695" lon="38.837595"><ele>109.6</ele><time>2023-07-07T09:01:59Z</time></trkpt><trkpt lat="58.051637" lon="38.837678"><ele>107.0</ele><time>2023-07-07T09:02:44Z</time></trkpt><trkpt lat="58.051607" lon="38.837808"><ele>106.2</ele><time>2023-07-07T09:02:46Z</time></trkpt><trkpt lat="58.05159" lon="38.837958"><ele>104.5</ele><time>2023-07-07T09:02:48Z</time></trkpt><trkpt lat="58.051582" lon="38.838118"><ele>102.8</ele><time>2023-07-07T09:02:50Z</time></trkpt><trkpt lat="58.051562" lon="38.838278"><ele>102.3</ele><time>2023-07-07T09:02:52Z</time></trkpt><trkpt lat="58.051538" lon="38.83846"><ele>102.1</ele><time>2023-07-07T09:02:54Z</time></trkpt><trkpt lat="58.051518" lon="38.838632"><ele>102.3</ele><time>2023-07-07T09:02:56Z</time></trkpt><trkpt lat="58.051498" lon="38.838775"><ele>102.8</ele><time>2023-07-07T09:02:58Z</time></trkpt><trkpt lat="58.051482" lon="38.838922"><ele>102.2</ele><time>2023-07-07T09:03:00Z</time></trkpt><trkpt lat="58.051482" lon="38.839077"><ele>100.5</ele><time>2023-07-07T09:03:02Z</time></trkpt><trkpt lat="58.051493" lon="38.83921"><ele>99.8</ele><time>2023-07-07T09:03:04Z</time></trkpt><trkpt lat="58.051488" lon="38.839412"><ele>98.4</ele><time>2023-07-07T09:03:07Z</time></trkpt><trkpt lat="58.051447" lon="38.83956"><ele>96.3</ele><time>2023-07-07T09:03:09Z</time></trkpt><trkpt lat="58.051405" lon="38.839715"><ele>98.6</ele><time>2023-07-07T09:03:11Z</time></trkpt><trkpt lat="58.051358" lon="38.839867"><ele>98.5</ele><time>2023-07-07T09:03:13Z</time></trkpt><trkpt lat="58.051317" lon="38.839998"><ele>97.9</ele><time>2023-07-07T09:03:15Z</time></trkpt><trkpt lat="58.051275" lon="38.840152"><ele>101.9</ele><time>2023-07-07T09:03:17Z</time></trkpt><trkpt lat="58.051248" lon="38.840298"><ele>102.0</ele><time>2023-07-07T09:03:19Z</time></trkpt><trkpt lat="58.05122" lon="38.840432"><ele>99.6</ele><time>2023-07-07T09:03:22Z</time></trkpt><trkpt lat="58.051162" lon="38.840665"><ele>99.0</ele><time>2023-07-07T09:03:25Z</time></trkpt><trkpt lat="58.051103" lon="38.840798"><ele>96.1</ele><time>2023-07-07T09:03:28Z</time></trkpt><trkpt lat="58.051093" lon="38.840945"><ele>96.4</ele><time>2023-07-07T09:03:29Z</time></trkpt><trkpt lat="58.051085" lon="38.841083"><ele>93.4</ele><time>2023-07-07T09:03:31Z</time></trkpt><trkpt lat="58.051043" lon="38.841233"><ele>92.8</ele><time>2023-07-07T09:03:34Z</time></trkpt><trkpt lat="58.051" lon="38.841358"><ele>93.8</ele><time>2023-07-07T09:03:36Z</time></trkpt><trkpt lat="58.050968" lon="38.841528"><ele>95.4</ele><time>2023-07-07T09:04:07Z</time></trkpt><trkpt lat="58.05095" lon="38.841673"><ele>94.9</ele><time>2023-07-07T09:04:10Z</time></trkpt><trkpt lat="58.050903" lon="38.841842"><ele>94.5</ele><time>2023-07-07T09:04:13Z</time></trkpt><trkpt lat="58.050892" lon="38.842"><ele>97.0</ele><time>2023-07-07T09:04:16Z</time></trkpt><trkpt lat="58.050887" lon="38.842207"><ele>96.6</ele><time>2023-07-07T09:04:19Z</time></trkpt><trkpt lat="58.050857" lon="38.842383"><ele>96.6</ele><time>2023-07-07T09:04:21Z</time></trkpt><trkpt lat="58.050822" lon="38.842555"><ele>96.2</ele><time>2023-07-07T09:04:23Z</time></trkpt><trkpt lat="58.050782" lon="38.84271"><ele>96.0</ele><time>2023-07-07T09:04:25Z</time></trkpt><trkpt lat="58.05075" lon="38.842882"><ele>94.7</ele><time>2023-07-07T09:04:27Z</time></trkpt><trkpt lat="58.050742" lon="38.84306"><ele>94.5</ele><time>2023-07-07T09:04:29Z</time></trkpt><trkpt lat="58.050735" lon="38.843232"><ele>94.9</ele><time>2023-07-07T09:04:31Z</time></trkpt><trkpt lat="58.050707" lon="38.843397"><ele>95.2</ele><time>2023-07-07T09:04:33Z</time></trkpt><trkpt lat="58.05068" lon="38.843563"><ele>94.8</ele><time>2023-07-07T09:04:35Z</time></trkpt><trkpt lat="58.05064" lon="38.843698"><ele>90.0</ele><time>2023-07-07T09:04:37Z</time></trkpt><trkpt lat="58.050575" lon="38.84379"><ele>91.4</ele><time>2023-07-07T09:04:39Z</time></trkpt><trkpt lat="58.050522" lon="38.843927"><ele>91.7</ele><time>2023-07-07T09:04:41Z</time></trkpt><trkpt lat="58.050503" lon="38.844088"><ele>91.9</ele><time>2023-07-07T09:04:43Z</time></trkpt><trkpt lat="58.050493" lon="38.844223"><ele>92.4</ele><time>2023-07-07T09:04:45Z</time></trkpt><trkpt lat="58.050453" lon="38.844388"><ele>93.9</ele><time>2023-07-07T09:04:48Z</time></trkpt><trkpt lat="58.050427" lon="38.844532"><ele>94.2</ele><time>2023-07-07T09:04:50Z</time></trkpt><trkpt lat="58.050413" lon="38.84467"><ele>93.0</ele><time>2023-07-07T09:04:52Z</time></trkpt><trkpt lat="58.050398" lon="38.844817"><ele>93.2</ele><time>2023-07-07T09:04:54Z</time></trkpt><trkpt lat="58.05037" lon="38.844975"><ele>94.1</ele><time>2023-07-07T09:04:56Z</time></trkpt><trkpt lat="58.050338" lon="38.845145"><ele>97.1</ele><time>2023-07-07T09:04:58Z</time></trkpt><trkpt lat="58.050295" lon="38.845327"><ele>101.1</ele><time>2023-07-07T09:05:01Z</time></trkpt><trkpt lat="58.050245" lon="38.84551"><ele>104.7</ele><time>2023-07-07T09:05:04Z</time></trkpt><trkpt lat="58.050217" lon="38.845678"><ele>105.9</ele><time>2023-07-07T09:05:07Z</time></trkpt><trkpt lat="58.050178" lon="38.845828"><ele>105.9</ele><time>2023-07-07T09:05:10Z</time></trkpt><trkpt lat="58.050105" lon="38.845873"><ele>103.6</ele><time>2023-07-07T09:05:13Z</time></trkpt><trkpt lat="58.050028" lon="38.845792"><ele>97.7</ele><time>2023-07-07T09:05:17Z</time></trkpt><trkpt lat="58.04998" lon="38.845655"><ele>95.9</ele><time>2023-07-07T09:05:21Z</time></trkpt><trkpt lat="58.049888" lon="38.845607"><ele>94.5</ele><time>2023-07-07T09:05:25Z</time></trkpt><trkpt lat="58.049805" lon="38.845592"><ele>94.8</ele><time>2023-07-07T09:05:28Z</time></trkpt><trkpt lat="58.049718" lon="38.84555"><ele>95.2</ele><time>2023-07-07T09:05:31Z</time></trkpt><trkpt lat="58.049638" lon="38.845612"><ele>95.8</ele><time>2023-07-07T09:05:34Z</time></trkpt><trkpt lat="58.049563" lon="38.845577"><ele>95.8</ele><time>2023-07-07T09:05:36Z</time></trkpt><trkpt lat="58.049478" lon="38.845535"><ele>92.8</ele><time>2023-07-07T09:05:38Z</time></trkpt><trkpt lat="58.049407" lon="38.845487"><ele>91.3</ele><time>2023-07-07T09:05:40Z</time></trkpt><trkpt lat="58.049318" lon="38.84543"><ele>91.6</ele><time>2023-07-07T09:05:43Z</time></trkpt><trkpt lat="58.049233" lon="38.845362"><ele>90.7</ele><time>2023-07-07T09:05:47Z</time></trkpt><trkpt lat="58.049145" lon="38.84537"><ele>96.0</ele><time>2023-07-07T09:06:29Z</time></trkpt><trkpt lat="58.049092" lon="38.845248"><ele>97.1</ele><time>2023-07-07T09:06:41Z</time></trkpt><trkpt lat="58.049028" lon="38.845137"><ele>95.7</ele><time>2023-07-07T09:06:43Z</time></trkpt><trkpt lat="58.048912" lon="38.845015"><ele>94.7</ele><time>2023-07-07T09:06:45Z</time></trkpt><trkpt lat="58.04885" lon="38.844915"><ele>90.9</ele><time>2023-07-07T09:06:47Z</time></trkpt><trkpt lat="58.048748" lon="38.844832"><ele>92.7</ele><time>2023-07-07T09:06:50Z</time></trkpt><trkpt lat="58.048673" lon="38.844792"><ele>93.3</ele><time>2023-07-07T09:06:52Z</time></trkpt><trkpt lat="58.048603" lon="38.844683"><ele>94.9</ele><time>2023-07-07T09:06:55Z</time></trkpt><trkpt lat="58.04851" lon="38.844587"><ele>96.3</ele><time>2023-07-07T09:06:58Z</time></trkpt><trkpt lat="58.04844" lon="38.844555"><ele>98.7</ele><time>2023-07-07T09:07:00Z</time></trkpt><trkpt lat="58.04836" lon="38.844515"><ele>98.6</ele><time>2023-07-07T09:07:02Z</time></trkpt><trkpt lat="58.048277" lon="38.844447"><ele>93.9</ele><time>2023-07-07T09:07:04Z</time></trkpt><trkpt lat="58.048198" lon="38.844407"><ele>93.9</ele><time>2023-07-07T09:07:06Z</time></trkpt><trkpt lat="58.04812" lon="38.844387"><ele>99.2</ele><time>2023-07-07T09:07:09Z</time></trkpt><trkpt lat="58.048023" lon="38.84437"><ele>100.0</ele><time>2023-07-07T09:07:12Z</time></trkpt><trkpt lat="58.04795" lon="38.844333"><ele>103.4</ele><time>2023-07-07T09:07:14Z</time></trkpt><trkpt lat="58.047877" lon="38.84429"><ele>103.1</ele><time>2023-07-07T09:07:16Z</time></trkpt><trkpt lat="58.047777" lon="38.844243"><ele>103.0</ele><time>2023-07-07T09:07:19Z</time></trkpt><trkpt lat="58.047703" lon="38.844192"><ele>101.6</ele><time>2023-07-07T09:07:22Z</time></trkpt><trkpt lat="58.04763" lon="38.844115"><ele>104.0</ele><time>2023-07-07T09:07:31Z</time></trkpt><trkpt lat="58.047573" lon="38.843997"><ele>103.0</ele><time>2023-07-07T09:07:35Z</time></trkpt><trkpt lat="58.047605" lon="38.84384"><ele>102.1</ele><time>2023-07-07T09:07:38Z</time></trkpt><trkpt lat="58.047635" lon="38.843678"><ele>103.2</ele><time>2023-07-07T09:07:42Z</time></trkpt><trkpt lat="58.047648" lon="38.843515"><ele>100.8</ele><time>2023-07-07T09:07:47Z</time></trkpt><trkpt lat="58.047642" lon="38.843373"><ele>100.3</ele><time>2023-07-07T09:08:14Z</time></trkpt><trkpt lat="58.047705" lon="38.843447"><ele>97.9</ele><time>2023-07-07T09:08:35Z</time></trkpt><trkpt lat="58.047777" lon="38.843488"><ele>98.3</ele><time>2023-07-07T09:08:37Z</time></trkpt><trkpt lat="58.0477" lon="38.843295"><ele>99.4</ele><time>2023-07-07T09:09:28Z</time></trkpt><trkpt lat="58.047622" lon="38.84319"><ele>99.8</ele><time>2023-07-07T09:13:14Z</time></trkpt><trkpt lat="58.047692" lon="38.843287"><ele>99.8</ele><time>2023-07-07T09:13:20Z</time></trkpt><trkpt lat="58.047703" lon="38.843523"><ele>99.7</ele><time>2023-07-07T09:13:28Z</time></trkpt><trkpt lat="58.047677" lon="38.843288"><ele>99.8</ele><time>2023-07-07T09:13:37Z</time></trkpt><trkpt lat="58.047703" lon="38.843513"><ele>99.7</ele><time>2023-07-07T09:14:06Z</time></trkpt><trkpt lat="58.047353" lon="38.842895"><ele>101.2</ele><time>2023-07-07T09:15:32Z</time></trkpt><trkpt lat="58.047398" lon="38.84302"><ele>88.1</ele><time>2023-07-07T09:15:33Z</time></trkpt><trkpt lat="58.0473" lon="38.843113"><ele>36.5</ele><time>2023-07-07T09:15:35Z</time></trkpt><trkpt lat="58.047338" lon="38.843245"><ele>44.8</ele><time>2023-07-07T09:15:39Z</time></trkpt><trkpt lat="58.04737" lon="38.843372"><ele>50.3</ele><time>2023-07-07T09:15:55Z</time></trkpt><trkpt lat="58.047443" lon="38.843382"><ele>61.4</ele><time>2023-07-07T09:16:12Z</time></trkpt><trkpt lat="58.047468" lon="38.843522"><ele>64.4</ele><time>2023-07-07T09:16:41Z</time></trkpt><trkpt lat="58.047442" lon="38.843665"><ele>66.6</ele><time>2023-07-07T09:16:45Z</time></trkpt><trkpt lat="58.047408" lon="38.843813"><ele>69.1</ele><time>2023-07-07T09:16:49Z</time></trkpt><trkpt lat="58.047443" lon="38.843943"><ele>79.8</ele><time>2023-07-07T09:17:08Z</time></trkpt><trkpt lat="58.047547" lon="38.844015"><ele>86.4</ele><time>2023-07-07T09:17:41Z</time></trkpt><trkpt lat="58.047615" lon="38.844115"><ele>85.8</ele><time>2023-07-07T09:17:44Z</time></trkpt><trkpt lat="58.047705" lon="38.844163"><ele>85.4</ele><time>2023-07-07T09:17:47Z</time></trkpt><trkpt lat="58.047777" lon="38.84421"><ele>85.4</ele><time>2023-07-07T09:17:49Z</time></trkpt><trkpt lat="58.04786" lon="38.844283"><ele>85.3</ele><time>2023-07-07T09:17:51Z</time></trkpt><trkpt lat="58.047942" lon="38.844347"><ele>85.8</ele><time>2023-07-07T09:17:53Z</time></trkpt><trkpt lat="58.048013" lon="38.844398"><ele>85.7</ele><time>2023-07-07T09:17:55Z</time></trkpt><trkpt lat="58.048105" lon="38.844468"><ele>88.3</ele><time>2023-07-07T09:17:58Z</time></trkpt><trkpt lat="58.048172" lon="38.844528"><ele>89.9</ele><time>2023-07-07T09:18:00Z</time></trkpt><trkpt lat="58.048242" lon="38.844578"><ele>89.7</ele><time>2023-07-07T09:18:02Z</time></trkpt><trkpt lat="58.048325" lon="38.844627"><ele>90.8</ele><time>2023-07-07T09:18:05Z</time></trkpt><trkpt lat="58.048403" lon="38.844672"><ele>95.4</ele><time>2023-07-07T09:18:09Z</time></trkpt><trkpt lat="58.048495" lon="38.844717"><ele>95.3</ele><time>2023-07-07T09:18:12Z</time></trkpt><trkpt lat="58.048572" lon="38.844773"><ele>97.0</ele><time>2023-07-07T09:18:15Z</time></trkpt><trkpt lat="58.04867" lon="38.844848"><ele>98.5</ele><time>2023-07-07T09:18:18Z</time></trkpt><trkpt lat="58.04876" lon="38.844875"><ele>98.9</ele><time>2023-07-07T09:18:20Z</time></trkpt><trkpt lat="58.048845" lon="38.844932"><ele>98.1</ele><time>2023-07-07T09:18:23Z</time></trkpt><trkpt lat="58.04891" lon="38.845037"><ele>97.6</ele><time>2023-07-07T09:18:27Z</time></trkpt><trkpt lat="58.048982" lon="38.845192"><ele>96.2</ele><time>2023-07-07T09:18:30Z</time></trkpt><trkpt lat="58.049002" lon="38.845377"><ele>95.1</ele><time>2023-07-07T09:18:33Z</time></trkpt><trkpt lat="58.048973" lon="38.845522"><ele>99.4</ele><time>2023-07-07T09:18:36Z</time></trkpt><trkpt lat="58.048942" lon="38.84565"><ele>98.6</ele><time>2023-07-07T09:18:39Z</time></trkpt><trkpt lat="58.048912" lon="38.845522"><ele>90.0</ele><time>2023-07-07T09:19:06Z</time></trkpt><trkpt lat="58.048918" lon="38.845653"><ele>88.6</ele><time>2023-07-07T10:51:09Z</time></trkpt><trkpt lat="58.048973" lon="38.845552"><ele>102.3</ele><time>2023-07-07T10:51:22Z</time></trkpt><trkpt lat="58.049012" lon="38.845383"><ele>102.3</ele><time>2023-07-07T10:51:25Z</time></trkpt><trkpt lat="58.049082" lon="38.845323"><ele>102.7</ele><time>2023-07-07T10:51:28Z</time></trkpt><trkpt lat="58.049152" lon="38.84537"><ele>102.8</ele><time>2023-07-07T10:51:30Z</time></trkpt><trkpt lat="58.04923" lon="38.84544"><ele>102.7</ele><time>2023-07-07T10:51:33Z</time></trkpt><trkpt lat="58.049308" lon="38.845472"><ele>103.1</ele><time>2023-07-07T10:51:36Z</time></trkpt><trkpt lat="58.049387" lon="38.845517"><ele>103.7</ele><time>2023-07-07T10:51:39Z</time></trkpt><trkpt lat="58.049462" lon="38.845572"><ele>103.9</ele><time>2023-07-07T10:51:42Z</time></trkpt><trkpt lat="58.04955" lon="38.84563"><ele>104.0</ele><time>2023-07-07T10:51:46Z</time></trkpt><trkpt lat="58.049623" lon="38.845688"><ele>104.2</ele><time>2023-07-07T10:51:51Z</time></trkpt><trkpt lat="58.0497" lon="38.845745"><ele>103.5</ele><time>2023-07-07T10:51:55Z</time></trkpt><trkpt lat="58.049772" lon="38.845793"><ele>102.9</ele><time>2023-07-07T10:52:00Z</time></trkpt><trkpt lat="58.049837" lon="38.845857"><ele>103.3</ele><time>2023-07-07T10:52:02Z</time></trkpt><trkpt lat="58.049923" lon="38.845917"><ele>103.3</ele><time>2023-07-07T10:52:04Z</time></trkpt><trkpt lat="58.050012" lon="38.845968"><ele>103.5</ele><time>2023-07-07T10:52:06Z</time></trkpt><trkpt lat="58.050098" lon="38.846007"><ele>103.7</ele><time>2023-07-07T10:52:08Z</time></trkpt><trkpt lat="58.050172" lon="38.846007"><ele>103.7</ele><time>2023-07-07T10:52:10Z</time></trkpt><trkpt lat="58.050258" lon="38.846058"><ele>103.6</ele><time>2023-07-07T10:52:12Z</time></trkpt><trkpt lat="58.050325" lon="38.846127"><ele>103.3</ele><time>2023-07-07T10:52:13Z</time></trkpt><trkpt lat="58.050413" lon="38.846138"><ele>103.0</ele><time>2023-07-07T10:52:16Z</time></trkpt><trkpt lat="58.050497" lon="38.846195"><ele>102.5</ele><time>2023-07-07T10:52:19Z</time></trkpt><trkpt lat="58.050563" lon="38.846252"><ele>102.3</ele><time>2023-07-07T10:52:23Z</time></trkpt><trkpt lat="58.050633" lon="38.846308"><ele>102.9</ele><time>2023-07-07T10:52:31Z</time></trkpt><trkpt lat="58.050723" lon="38.846387"><ele>104.3</ele><time>2023-07-07T10:52:36Z</time></trkpt><trkpt lat="58.050823" lon="38.846398"><ele>102.2</ele><time>2023-07-07T10:52:39Z</time></trkpt><trkpt lat="58.050898" lon="38.846428"><ele>101.4</ele><time>2023-07-07T10:52:41Z</time></trkpt><trkpt lat="58.050983" lon="38.846482"><ele>100.9</ele><time>2023-07-07T10:52:43Z</time></trkpt><trkpt lat="58.051053" lon="38.846543"><ele>100.5</ele><time>2023-07-07T10:52:45Z</time></trkpt><trkpt lat="58.051132" lon="38.846588"><ele>98.9</ele><time>2023-07-07T10:52:47Z</time></trkpt><trkpt lat="58.051207" lon="38.846615"><ele>98.1</ele><time>2023-07-07T10:52:49Z</time></trkpt><trkpt lat="58.0513" lon="38.846598"><ele>98.8</ele><time>2023-07-07T10:52:52Z</time></trkpt><trkpt lat="58.051338" lon="38.846473"><ele>99.8</ele><time>2023-07-07T10:52:55Z</time></trkpt><trkpt lat="58.051363" lon="38.846307"><ele>100.0</ele><time>2023-07-07T10:52:59Z</time></trkpt><trkpt lat="58.051388" lon="38.846152"><ele>98.7</ele><time>2023-07-07T10:53:03Z</time></trkpt><trkpt lat="58.051413" lon="38.846023"><ele>98.9</ele><time>2023-07-07T10:53:06Z</time></trkpt><trkpt lat="58.05144" lon="38.845878"><ele>99.4</ele><time>2023-07-07T10:53:09Z</time></trkpt><trkpt lat="58.051468" lon="38.845732"><ele>98.6</ele><time>2023-07-07T10:53:12Z</time></trkpt><trkpt lat="58.051495" lon="38.845565"><ele>99.4</ele><time>2023-07-07T10:53:15Z</time></trkpt><trkpt lat="58.051532" lon="38.845418"><ele>99.3</ele><time>2023-07-07T10:53:18Z</time></trkpt><trkpt lat="58.05156" lon="38.845275"><ele>99.3</ele><time>2023-07-07T10:53:21Z</time></trkpt><trkpt lat="58.051585" lon="38.845117"><ele>100.0</ele><time>2023-07-07T10:53:25Z</time></trkpt><trkpt lat="58.051607" lon="38.844985"><ele>100.4</ele><time>2023-07-07T10:53:28Z</time></trkpt><trkpt lat="58.051637" lon="38.84484"><ele>100.7</ele><time>2023-07-07T10:53:31Z</time></trkpt><trkpt lat="58.051688" lon="38.844708"><ele>99.7</ele><time>2023-07-07T10:53:35Z</time></trkpt><trkpt lat="58.051798" lon="38.844702"><ele>98.2</ele><time>2023-07-07T10:53:38Z</time></trkpt><trkpt lat="58.05187" lon="38.844725"><ele>98.1</ele><time>2023-07-07T10:53:40Z</time></trkpt><trkpt lat="58.051945" lon="38.844703"><ele>98.0</ele><time>2023-07-07T10:53:42Z</time></trkpt><trkpt lat="58.052022" lon="38.844665"><ele>97.7</ele><time>2023-07-07T10:53:44Z</time></trkpt><trkpt lat="58.052097" lon="38.84463"><ele>97.7</ele><time>2023-07-07T10:53:46Z</time></trkpt><trkpt lat="58.052193" lon="38.84459"><ele>98.3</ele><time>2023-07-07T10:53:49Z</time></trkpt><trkpt lat="58.052277" lon="38.844573"><ele>99.7</ele><time>2023-07-07T10:53:52Z</time></trkpt><trkpt lat="58.052348" lon="38.844557"><ele>99.8</ele><time>2023-07-07T10:53:55Z</time></trkpt><trkpt lat="58.052422" lon="38.84454"><ele>100.2</ele><time>2023-07-07T10:53:58Z</time></trkpt><trkpt lat="58.052513" lon="38.844505"><ele>100.3</ele><time>2023-07-07T10:54:02Z</time></trkpt><trkpt lat="58.05259" lon="38.844468"><ele>100.4</ele><time>2023-07-07T10:54:05Z</time></trkpt><trkpt lat="58.052672" lon="38.844407"><ele>99.4</ele><time>2023-07-07T10:54:08Z</time></trkpt><trkpt lat="58.052748" lon="38.844372"><ele>99.2</ele><time>2023-07-07T10:54:10Z</time></trkpt><trkpt lat="58.052817" lon="38.844273"><ele>98.5</ele><time>2023-07-07T10:54:12Z</time></trkpt><trkpt lat="58.052863" lon="38.844145"><ele>99.1</ele><time>2023-07-07T10:54:14Z</time></trkpt><trkpt lat="58.052903" lon="38.84402"><ele>99.5</ele><time>2023-07-07T10:54:16Z</time></trkpt><trkpt lat="58.052948" lon="38.843895"><ele>98.6</ele><time>2023-07-07T10:54:18Z</time></trkpt><trkpt lat="58.052998" lon="38.843767"><ele>98.8</ele><time>2023-07-07T10:54:20Z</time></trkpt><trkpt lat="58.053048" lon="38.843638"><ele>98.8</ele><time>2023-07-07T10:54:22Z</time></trkpt><trkpt lat="58.0531" lon="38.843508"><ele>99.3</ele><time>2023-07-07T10:54:24Z</time></trkpt><trkpt lat="58.053153" lon="38.843385"><ele>98.3</ele><time>2023-07-07T10:54:26Z</time></trkpt><trkpt lat="58.053197" lon="38.843263"><ele>97.7</ele><time>2023-07-07T10:54:28Z</time></trkpt><trkpt lat="58.053228" lon="38.843133"><ele>97.4</ele><time>2023-07-07T10:54:30Z</time></trkpt><trkpt lat="58.053262" lon="38.842952"><ele>93.3</ele><time>2023-07-07T10:54:33Z</time></trkpt><trkpt lat="58.053315" lon="38.842795"><ele>93.1</ele><time>2023-07-07T10:54:36Z</time></trkpt><trkpt lat="58.05335" lon="38.842673"><ele>92.5</ele><time>2023-07-07T10:54:38Z</time></trkpt><trkpt lat="58.053388" lon="38.842553"><ele>92.1</ele><time>2023-07-07T10:54:40Z</time></trkpt><trkpt lat="58.053432" lon="38.842435"><ele>93.4</ele><time>2023-07-07T10:54:42Z</time></trkpt><trkpt lat="58.053477" lon="38.842327"><ele>93.5</ele><time>2023-07-07T10:54:44Z</time></trkpt><trkpt lat="58.053523" lon="38.842182"><ele>92.5</ele><time>2023-07-07T10:54:47Z</time></trkpt><trkpt lat="58.053565" lon="38.842048"><ele>92.9</ele><time>2023-07-07T10:54:50Z</time></trkpt><trkpt lat="58.053613" lon="38.841915"><ele>93.3</ele><time>2023-07-07T10:54:53Z</time></trkpt><trkpt lat="58.053658" lon="38.841808"><ele>93.5</ele><time>2023-07-07T10:54:56Z</time></trkpt><trkpt lat="58.053702" lon="38.841677"><ele>91.2</ele><time>2023-07-07T10:54:59Z</time></trkpt><trkpt lat="58.05374" lon="38.841543"><ele>92.0</ele><time>2023-07-07T10:55:02Z</time></trkpt><trkpt lat="58.053778" lon="38.841417"><ele>94.3</ele><time>2023-07-07T10:55:21Z</time></trkpt><trkpt lat="58.053825" lon="38.84131"><ele>95.0</ele><time>2023-07-07T10:55:23Z</time></trkpt><trkpt lat="58.053872" lon="38.841175"><ele>95.1</ele><time>2023-07-07T10:55:25Z</time></trkpt><trkpt lat="58.053917" lon="38.841057"><ele>95.2</ele><time>2023-07-07T10:55:27Z</time></trkpt><trkpt lat="58.05398" lon="38.840897"><ele>94.7</ele><time>2023-07-07T10:55:30Z</time></trkpt><trkpt lat="58.05403" lon="38.840743"><ele>95.3</ele><time>2023-07-07T10:55:33Z</time></trkpt><trkpt lat="58.054078" lon="38.840582"><ele>96.1</ele><time>2023-07-07T10:55:36Z</time></trkpt><trkpt lat="58.054128" lon="38.840427"><ele>96.4</ele><time>2023-07-07T10:55:38Z</time></trkpt><trkpt lat="58.054188" lon="38.840257"><ele>96.1</ele><time>2023-07-07T10:55:40Z</time></trkpt><trkpt lat="58.054247" lon="38.8401"><ele>95.3</ele><time>2023-07-07T10:55:42Z</time></trkpt><trkpt lat="58.054297" lon="38.83995"><ele>95.5</ele><time>2023-07-07T10:55:44Z</time></trkpt><trkpt lat="58.054338" lon="38.8398"><ele>95.7</ele><time>2023-07-07T10:55:46Z</time></trkpt><trkpt lat="58.054387" lon="38.839677"><ele>95.7</ele><time>2023-07-07T10:55:48Z</time></trkpt><trkpt lat="58.054428" lon="38.83955"><ele>95.2</ele><time>2023-07-07T10:55:50Z</time></trkpt><trkpt lat="58.054477" lon="38.83944"><ele>95.2</ele><time>2023-07-07T10:55:52Z</time></trkpt><trkpt lat="58.05453" lon="38.839285"><ele>92.9</ele><time>2023-07-07T10:55:55Z</time></trkpt><trkpt lat="58.054587" lon="38.839128"><ele>92.9</ele><time>2023-07-07T10:55:58Z</time></trkpt><trkpt lat="58.054627" lon="38.839012"><ele>92.3</ele><time>2023-07-07T10:56:00Z</time></trkpt><trkpt lat="58.054668" lon="38.838895"><ele>92.6</ele><time>2023-07-07T10:56:02Z</time></trkpt><trkpt lat="58.05471" lon="38.838778"><ele>93.2</ele><time>2023-07-07T10:56:04Z</time></trkpt><trkpt lat="58.054745" lon="38.83866"><ele>93.4</ele><time>2023-07-07T10:56:06Z</time></trkpt><trkpt lat="58.054805" lon="38.838492"><ele>94.1</ele><time>2023-07-07T10:56:09Z</time></trkpt><trkpt lat="58.05485" lon="38.838377"><ele>94.6</ele><time>2023-07-07T10:56:11Z</time></trkpt><trkpt lat="58.054903" lon="38.838207"><ele>94.8</ele><time>2023-07-07T10:56:14Z</time></trkpt><trkpt lat="58.054943" lon="38.838088"><ele>94.2</ele><time>2023-07-07T10:56:16Z</time></trkpt><trkpt lat="58.054982" lon="38.837967"><ele>93.9</ele><time>2023-07-07T10:56:18Z</time></trkpt><trkpt lat="58.055017" lon="38.837837"><ele>94.0</ele><time>2023-07-07T10:56:20Z</time></trkpt><trkpt lat="58.055052" lon="38.837697"><ele>92.6</ele><time>2023-07-07T10:56:22Z</time></trkpt><trkpt lat="58.055087" lon="38.837568"><ele>92.5</ele><time>2023-07-07T10:56:24Z</time></trkpt><trkpt lat="58.055127" lon="38.837452"><ele>93.0</ele><time>2023-07-07T10:56:26Z</time></trkpt><trkpt lat="58.055165" lon="38.837335"><ele>92.7</ele><time>2023-07-07T10:56:28Z</time></trkpt><trkpt lat="58.055218" lon="38.837165"><ele>93.1</ele><time>2023-07-07T10:56:31Z</time></trkpt><trkpt lat="58.055255" lon="38.837043"><ele>93.6</ele><time>2023-07-07T10:56:33Z</time></trkpt><trkpt lat="58.055297" lon="38.836925"><ele>93.9</ele><time>2023-07-07T10:56:35Z</time></trkpt><trkpt lat="58.055353" lon="38.836767"><ele>93.8</ele><time>2023-07-07T10:56:38Z</time></trkpt><trkpt lat="58.055405" lon="38.8366"><ele>94.4</ele><time>2023-07-07T10:56:41Z</time></trkpt><trkpt lat="58.055442" lon="38.836478"><ele>94.6</ele><time>2023-07-07T10:56:43Z</time></trkpt><trkpt lat="58.055477" lon="38.836353"><ele>94.2</ele><time>2023-07-07T10:56:45Z</time></trkpt><trkpt lat="58.055515" lon="38.836223"><ele>93.6</ele><time>2023-07-07T10:56:47Z</time></trkpt><trkpt lat="58.055562" lon="38.836095"><ele>93.9</ele><time>2023-07-07T10:56:49Z</time></trkpt><trkpt lat="58.055605" lon="38.835958"><ele>93.8</ele><time>2023-07-07T10:56:51Z</time></trkpt><trkpt lat="58.055652" lon="38.835817"><ele>94.4</ele><time>2023-07-07T10:56:53Z</time></trkpt><trkpt lat="58.055703" lon="38.83567"><ele>94.5</ele><time>2023-07-07T10:56:55Z</time></trkpt><trkpt lat="58.05574" lon="38.83553"><ele>94.3</ele><time>2023-07-07T10:56:57Z</time></trkpt><trkpt lat="58.055785" lon="38.835417"><ele>93.8</ele><time>2023-07-07T10:56:59Z</time></trkpt><trkpt lat="58.055813" lon="38.835278"><ele>93.2</ele><time>2023-07-07T10:57:01Z</time></trkpt><trkpt lat="58.055865" lon="38.835157"><ele>93.1</ele><time>2023-07-07T10:57:03Z</time></trkpt><trkpt lat="58.055908" lon="38.835017"><ele>92.9</ele><time>2023-07-07T10:57:05Z</time></trkpt><trkpt lat="58.055948" lon="38.83488"><ele>93.5</ele><time>2023-07-07T10:57:07Z</time></trkpt><trkpt lat="58.055988" lon="38.83475"><ele>94.0</ele><time>2023-07-07T10:57:09Z</time></trkpt><trkpt lat="58.056032" lon="38.834625"><ele>93.5</ele><time>2023-07-07T10:57:11Z</time></trkpt><trkpt lat="58.056078" lon="38.834495"><ele>94.2</ele><time>2023-07-07T10:57:13Z</time></trkpt><trkpt lat="58.056123" lon="38.834355"><ele>94.5</ele><time>2023-07-07T10:57:15Z</time></trkpt><trkpt lat="58.05617" lon="38.83421"><ele>93.6</ele><time>2023-07-07T10:57:17Z</time></trkpt><trkpt lat="58.056217" lon="38.834052"><ele>93.6</ele><time>2023-07-07T10:57:19Z</time></trkpt><trkpt lat="58.056265" lon="38.833905"><ele>93.5</ele><time>2023-07-07T10:57:21Z</time></trkpt><trkpt lat="58.056318" lon="38.83376"><ele>93.1</ele><time>2023-07-07T10:57:23Z</time></trkpt><trkpt lat="58.056367" lon="38.833622"><ele>92.8</ele><time>2023-07-07T10:57:25Z</time></trkpt><trkpt lat="58.056412" lon="38.833477"><ele>93.2</ele><time>2023-07-07T10:57:27Z</time></trkpt><trkpt lat="58.05646" lon="38.833338"><ele>92.7</ele><time>2023-07-07T10:57:29Z</time></trkpt><trkpt lat="58.056515" lon="38.833182"><ele>94.2</ele><time>2023-07-07T10:57:31Z</time></trkpt><trkpt lat="58.056567" lon="38.833"><ele>94.9</ele><time>2023-07-07T10:57:33Z</time></trkpt><trkpt lat="58.056595" lon="38.832865"><ele>95.0</ele><time>2023-07-07T10:57:35Z</time></trkpt><trkpt lat="58.056632" lon="38.832732"><ele>94.9</ele><time>2023-07-07T10:57:37Z</time></trkpt><trkpt lat="58.05666" lon="38.832592"><ele>94.4</ele><time>2023-07-07T10:57:39Z</time></trkpt><trkpt lat="58.056712" lon="38.832465"><ele>94.2</ele><time>2023-07-07T10:57:41Z</time></trkpt><trkpt lat="58.056738" lon="38.832308"><ele>93.9</ele><time>2023-07-07T10:57:43Z</time></trkpt><trkpt lat="58.056797" lon="38.832193"><ele>94.8</ele><time>2023-07-07T10:57:45Z</time></trkpt><trkpt lat="58.056842" lon="38.832073"><ele>93.9</ele><time>2023-07-07T10:57:47Z</time></trkpt><trkpt lat="58.056882" lon="38.831953"><ele>94.8</ele><time>2023-07-07T10:57:49Z</time></trkpt><trkpt lat="58.05691" lon="38.831803"><ele>94.0</ele><time>2023-07-07T10:57:51Z</time></trkpt><trkpt lat="58.056965" lon="38.831642"><ele>93.6</ele><time>2023-07-07T10:57:54Z</time></trkpt><trkpt lat="58.057013" lon="38.831482"><ele>94.6</ele><time>2023-07-07T10:57:57Z</time></trkpt><trkpt lat="58.057075" lon="38.831323"><ele>93.5</ele><time>2023-07-07T10:58:00Z</time></trkpt><trkpt lat="58.057167" lon="38.831215"><ele>94.1</ele><time>2023-07-07T10:58:03Z</time></trkpt><trkpt lat="58.057265" lon="38.831098"><ele>92.6</ele><time>2023-07-07T10:58:05Z</time></trkpt><trkpt lat="58.057368" lon="38.83099"><ele>91.8</ele><time>2023-07-07T10:58:07Z</time></trkpt><trkpt lat="58.057463" lon="38.830827"><ele>91.0</ele><time>2023-07-07T10:58:09Z</time></trkpt><trkpt lat="58.057547" lon="38.830688"><ele>91.1</ele><time>2023-07-07T10:58:11Z</time></trkpt><trkpt lat="58.057608" lon="38.830528"><ele>91.4</ele><time>2023-07-07T10:58:13Z</time></trkpt><trkpt lat="58.057665" lon="38.830415"><ele>92.2</ele><time>2023-07-07T10:58:15Z</time></trkpt><trkpt lat="58.057715" lon="38.830287"><ele>91.5</ele><time>2023-07-07T10:58:17Z</time></trkpt><trkpt lat="58.057747" lon="38.830138"><ele>91.1</ele><time>2023-07-07T10:58:19Z</time></trkpt><trkpt lat="58.057765" lon="38.82997"><ele>93.4</ele><time>2023-07-07T10:58:22Z</time></trkpt><trkpt lat="58.057767" lon="38.829827"><ele>93.2</ele><time>2023-07-07T10:58:24Z</time></trkpt><trkpt lat="58.05781" lon="38.82965"><ele>92.6</ele><time>2023-07-07T10:58:27Z</time></trkpt><trkpt lat="58.057838" lon="38.829525"><ele>92.6</ele><time>2023-07-07T10:58:29Z</time></trkpt><trkpt lat="58.057868" lon="38.8294"><ele>93.8</ele><time>2023-07-07T10:58:31Z</time></trkpt><trkpt lat="58.0579" lon="38.829275"><ele>95.3</ele><time>2023-07-07T10:58:33Z</time></trkpt><trkpt lat="58.057938" lon="38.829145"><ele>95.4</ele><time>2023-07-07T10:58:35Z</time></trkpt><trkpt lat="58.05798" lon="38.829025"><ele>95.4</ele><time>2023-07-07T10:58:37Z</time></trkpt><trkpt lat="58.05802" lon="38.828898"><ele>95.7</ele><time>2023-07-07T10:58:39Z</time></trkpt><trkpt lat="58.058063" lon="38.828773"><ele>96.3</ele><time>2023-07-07T10:58:41Z</time></trkpt><trkpt lat="58.058108" lon="38.828637"><ele>96.0</ele><time>2023-07-07T10:58:43Z</time></trkpt><trkpt lat="58.058122" lon="38.8285"><ele>96.5</ele><time>2023-07-07T10:58:45Z</time></trkpt><trkpt lat="58.058092" lon="38.82837"><ele>96.4</ele><time>2023-07-07T10:58:47Z</time></trkpt><trkpt lat="58.058067" lon="38.82823"><ele>97.1</ele><time>2023-07-07T10:58:49Z</time></trkpt><trkpt lat="58.058045" lon="38.828062"><ele>96.8</ele><time>2023-07-07T10:58:52Z</time></trkpt><trkpt lat="58.05801" lon="38.82788"><ele>97.1</ele><time>2023-07-07T10:58:55Z</time></trkpt><trkpt lat="58.057985" lon="38.827692"><ele>97.0</ele><time>2023-07-07T10:58:58Z</time></trkpt><trkpt lat="58.057977" lon="38.827552"><ele>97.4</ele><time>2023-07-07T10:59:00Z</time></trkpt><trkpt lat="58.057983" lon="38.827358"><ele>97.8</ele><time>2023-07-07T10:59:03Z</time></trkpt><trkpt lat="58.058012" lon="38.827203"><ele>98.5</ele><time>2023-07-07T10:59:06Z</time></trkpt><trkpt lat="58.05806" lon="38.827055"><ele>97.4</ele><time>2023-07-07T10:59:09Z</time></trkpt><trkpt lat="58.05811" lon="38.826945"><ele>96.4</ele><time>2023-07-07T10:59:11Z</time></trkpt><trkpt lat="58.05817" lon="38.8268"><ele>94.5</ele><time>2023-07-07T10:59:14Z</time></trkpt><trkpt lat="58.05822" lon="38.826655"><ele>94.0</ele><time>2023-07-07T10:59:17Z</time></trkpt><trkpt lat="58.058263" lon="38.826528"><ele>93.7</ele><time>2023-07-07T10:59:19Z</time></trkpt><trkpt lat="58.0583" lon="38.826398"><ele>92.9</ele><time>2023-07-07T10:59:21Z</time></trkpt><trkpt lat="58.058337" lon="38.826253"><ele>93.1</ele><time>2023-07-07T10:59:23Z</time></trkpt><trkpt lat="58.058377" lon="38.826112"><ele>94.4</ele><time>2023-07-07T10:59:25Z</time></trkpt><trkpt lat="58.05842" lon="38.825977"><ele>95.9</ele><time>2023-07-07T10:59:27Z</time></trkpt><trkpt lat="58.058468" lon="38.825842"><ele>97.4</ele><time>2023-07-07T10:59:29Z</time></trkpt><trkpt lat="58.058512" lon="38.825697"><ele>97.6</ele><time>2023-07-07T10:59:31Z</time></trkpt><trkpt lat="58.058567" lon="38.825568"><ele>99.0</ele><time>2023-07-07T10:59:33Z</time></trkpt><trkpt lat="58.058618" lon="38.825443"><ele>99.7</ele><time>2023-07-07T10:59:35Z</time></trkpt><trkpt lat="58.058678" lon="38.825332"><ele>98.8</ele><time>2023-07-07T10:59:37Z</time></trkpt><trkpt lat="58.058738" lon="38.825202"><ele>98.9</ele><time>2023-07-07T10:59:39Z</time></trkpt><trkpt lat="58.058798" lon="38.825085"><ele>98.9</ele><time>2023-07-07T10:59:41Z</time></trkpt><trkpt lat="58.058857" lon="38.824967"><ele>98.6</ele><time>2023-07-07T10:59:43Z</time></trkpt><trkpt lat="58.058913" lon="38.824838"><ele>99.0</ele><time>2023-07-07T10:59:45Z</time></trkpt><trkpt lat="58.058967" lon="38.824732"><ele>99.9</ele><time>2023-07-07T10:59:47Z</time></trkpt><trkpt lat="58.059023" lon="38.824618"><ele>99.1</ele><time>2023-07-07T10:59:49Z</time></trkpt><trkpt lat="58.059078" lon="38.824503"><ele>98.2</ele><time>2023-07-07T10:59:51Z</time></trkpt><trkpt lat="58.059128" lon="38.82439"><ele>98.1</ele><time>2023-07-07T10:59:53Z</time></trkpt><trkpt lat="58.059187" lon="38.824275"><ele>97.5</ele><time>2023-07-07T10:59:55Z</time></trkpt><trkpt lat="58.059245" lon="38.824145"><ele>96.8</ele><time>2023-07-07T10:59:57Z</time></trkpt><trkpt lat="58.059312" lon="38.824022"><ele>96.1</ele><time>2023-07-07T10:59:59Z</time></trkpt><trkpt lat="58.059373" lon="38.823892"><ele>96.0</ele><time>2023-07-07T11:00:01Z</time></trkpt><trkpt lat="58.059432" lon="38.823763"><ele>96.2</ele><time>2023-07-07T11:00:03Z</time></trkpt><trkpt lat="58.059498" lon="38.823647"><ele>95.7</ele><time>2023-07-07T11:00:05Z</time></trkpt><trkpt lat="58.059552" lon="38.823505"><ele>96.5</ele><time>2023-07-07T11:00:07Z</time></trkpt><trkpt lat="58.059603" lon="38.823328"><ele>96.1</ele><time>2023-07-07T11:00:09Z</time></trkpt><trkpt lat="58.059628" lon="38.823167"><ele>97.1</ele><time>2023-07-07T11:00:11Z</time></trkpt><trkpt lat="58.059657" lon="38.82302"><ele>97.8</ele><time>2023-07-07T11:00:13Z</time></trkpt><trkpt lat="58.059682" lon="38.822885"><ele>97.7</ele><time>2023-07-07T11:00:15Z</time></trkpt><trkpt lat="58.059693" lon="38.82273"><ele>97.3</ele><time>2023-07-07T11:00:17Z</time></trkpt><trkpt lat="58.05971" lon="38.82255"><ele>97.0</ele><time>2023-07-07T11:00:20Z</time></trkpt><trkpt lat="58.059723" lon="38.822378"><ele>96.6</ele><time>2023-07-07T11:00:23Z</time></trkpt><trkpt lat="58.059735" lon="38.822213"><ele>96.4</ele><time>2023-07-07T11:00:26Z</time></trkpt><trkpt lat="58.059753" lon="38.822067"><ele>97.1</ele><time>2023-07-07T11:00:29Z</time></trkpt><trkpt lat="58.05977" lon="38.821913"><ele>98.0</ele><time>2023-07-07T11:00:32Z</time></trkpt><trkpt lat="58.059787" lon="38.82175"><ele>98.9</ele><time>2023-07-07T11:00:35Z</time></trkpt><trkpt lat="58.059805" lon="38.82159"><ele>99.3</ele><time>2023-07-07T11:00:38Z</time></trkpt><trkpt lat="58.05982" lon="38.821428"><ele>100.5</ele><time>2023-07-07T11:00:41Z</time></trkpt><trkpt lat="58.059833" lon="38.821283"><ele>101.0</ele><time>2023-07-07T11:00:43Z</time></trkpt><trkpt lat="58.059832" lon="38.821123"><ele>102.7</ele><time>2023-07-07T11:00:45Z</time></trkpt><trkpt lat="58.05983" lon="38.820978"><ele>104.1</ele><time>2023-07-07T11:00:47Z</time></trkpt><trkpt lat="58.05984" lon="38.820793"><ele>104.2</ele><time>2023-07-07T11:00:50Z</time></trkpt><trkpt lat="58.059855" lon="38.820627"><ele>103.6</ele><time>2023-07-07T11:00:53Z</time></trkpt><trkpt lat="58.059873" lon="38.820427"><ele>102.9</ele><time>2023-07-07T11:00:56Z</time></trkpt><trkpt lat="58.059887" lon="38.82027"><ele>102.4</ele><time>2023-07-07T11:00:58Z</time></trkpt><trkpt lat="58.059898" lon="38.820117"><ele>102.8</ele><time>2023-07-07T11:01:00Z</time></trkpt><trkpt lat="58.059915" lon="38.819917"><ele>102.7</ele><time>2023-07-07T11:01:03Z</time></trkpt><trkpt lat="58.059932" lon="38.81975"><ele>102.6</ele><time>2023-07-07T11:01:05Z</time></trkpt><trkpt lat="58.05994" lon="38.819565"><ele>102.4</ele><time>2023-07-07T11:01:07Z</time></trkpt><trkpt lat="58.059942" lon="38.819368"><ele>102.0</ele><time>2023-07-07T11:01:09Z</time></trkpt><trkpt lat="58.059942" lon="38.819165"><ele>101.5</ele><time>2023-07-07T11:01:11Z</time></trkpt><trkpt lat="58.059948" lon="38.81899"><ele>100.8</ele><time>2023-07-07T11:01:13Z</time></trkpt><trkpt lat="58.059955" lon="38.818837"><ele>100.6</ele><time>2023-07-07T11:01:15Z</time></trkpt><trkpt lat="58.059967" lon="38.818698"><ele>99.7</ele><time>2023-07-07T11:01:17Z</time></trkpt><trkpt lat="58.059977" lon="38.818517"><ele>100.2</ele><time>2023-07-07T11:01:20Z</time></trkpt><trkpt lat="58.059977" lon="38.818312"><ele>99.7</ele><time>2023-07-07T11:01:23Z</time></trkpt><trkpt lat="58.059987" lon="38.81816"><ele>98.3</ele><time>2023-07-07T11:01:25Z</time></trkpt><trkpt lat="58.059997" lon="38.817968"><ele>97.7</ele><time>2023-07-07T11:01:28Z</time></trkpt><trkpt lat="58.059998" lon="38.81783"><ele>97.5</ele><time>2023-07-07T11:01:31Z</time></trkpt><trkpt lat="58.05994" lon="38.817717"><ele>96.8</ele><time>2023-07-07T11:01:35Z</time></trkpt><trkpt lat="58.059862" lon="38.817725"><ele>95.1</ele><time>2023-07-07T11:01:37Z</time></trkpt><trkpt lat="58.05979" lon="38.817713"><ele>96.4</ele><time>2023-07-07T11:01:40Z</time></trkpt><trkpt lat="58.059715" lon="38.817643"><ele>94.9</ele><time>2023-07-07T11:01:43Z</time></trkpt><trkpt lat="58.059652" lon="38.81752"><ele>96.0</ele><time>2023-07-07T11:01:46Z</time></trkpt><trkpt lat="58.05957" lon="38.817502"><ele>97.4</ele><time>2023-07-07T11:01:49Z</time></trkpt><trkpt lat="58.059493" lon="38.817483"><ele>97.8</ele><time>2023-07-07T11:01:52Z</time></trkpt><trkpt lat="58.05941" lon="38.817453"><ele>98.3</ele><time>2023-07-07T11:01:56Z</time></trkpt><trkpt lat="58.059335" lon="38.817438"><ele>99.0</ele><time>2023-07-07T11:01:59Z</time></trkpt><trkpt lat="58.059252" lon="38.817395"><ele>99.0</ele><time>2023-07-07T11:02:02Z</time></trkpt><trkpt lat="58.059155" lon="38.81735"><ele>100.6</ele><time>2023-07-07T11:02:05Z</time></trkpt><trkpt lat="58.059072" lon="38.817338"><ele>101.0</ele><time>2023-07-07T11:02:08Z</time></trkpt><trkpt lat="58.058973" lon="38.817335"><ele>101.5</ele><time>2023-07-07T11:02:12Z</time></trkpt><trkpt lat="58.058905" lon="38.81727"><ele>99.5</ele><time>2023-07-07T11:02:15Z</time></trkpt><trkpt lat="58.05884" lon="38.817132"><ele>103.5</ele><time>2023-07-07T11:02:23Z</time></trkpt><trkpt lat="58.05878" lon="38.817028"><ele>104.7</ele><time>2023-07-07T11:02:26Z</time></trkpt><trkpt lat="58.05877" lon="38.816882"><ele>104.6</ele><time>2023-07-07T11:02:30Z</time></trkpt></trkseg></trk></gpx>