<?xml version="1.0" encoding="UTF-8" standalone="no"?><gpx xmlns="http://www.topografix.com/GPX/1/1" xmlns:gpxtpx="http://www.garmin.com/xmlschemas/TrackPointExtension/v1" xmlns:xsi="http://www.w3.org/2001/XMLSchema-instance" creator="Sports Tracker" version="1.1" xsi:schemaLocation="http://www.topografix.com/GPX/1/1 http://www.topografix.com/GPX/1/1/gpx.xsd http://www.garmin.com/xmlschemas/TrackPointExtension/v1 http://www.garmin.com/xmlschemas/TrackPointExtensionv1.xsd"><metadata><name>19.01.2024 15:34</name><desc/><author><name>Александр</name></author></metadata><trk><name>19.01.2024 15:34</name><trkseg><trkpt lat="58.05848" lon="38.807165"><ele>115.0</ele><time>2024-01-19T12:34:47Z</time></trkpt><trkpt lat="58.05848" lon="38.807165"><ele>115.0</ele><time>2024-01-19T12:35:41Z</time></trkpt><trkpt lat="58.0584" lon="38.80718"><ele>114.9</ele><time>2024-01-19T12:35:47Z</time></trkpt><trkpt lat="58.058362" lon="38.807045"><ele>114.6</ele><time>2024-01-19T12:35:52Z</time></trkpt><trkpt lat="58.05829" lon="38.80704"><ele>116.5</ele><time>2024-01-19T12:35:55Z</time></trkpt><trkpt lat="58.058272" lon="38.806885"><ele>118.4</ele><time>2024-01-19T12:36:02Z</time></trkpt><trkpt lat="58.058217" lon="38.80678"><ele>115.3</ele><time>2024-01-19T12:36:09Z</time></trkpt><trkpt lat="58.058187" lon="38.806645"><ele>113.5</ele><time>2024-01-19T12:36:14Z</time></trkpt><trkpt lat="58.05815" lon="38.806495"><ele>116.5</ele><time>2024-01-19T12:36:20Z</time></trkpt><trkpt lat="58.058105" lon="38.806372"><ele>118.7</ele><time>2024-01-19T12:36:25Z</time></trkpt><trkpt lat="58.05806" lon="38.80626"><ele>117.7</ele><time>2024-01-19T12:36:30Z</time></trkpt><trkpt lat="58.058047" lon="38.806105"><ele>115.0</ele><time>2024-01-19T12:36:35Z</time></trkpt><trkpt lat="58.05803" lon="38.80602"><ele>115.8</ele><time>2024-01-19T12:36:42Z</time></trkpt><trkpt lat="58.058" lon="38.80588"><ele>115.5</ele><time>2024-01-19T12:36:46Z</time></trkpt><trkpt lat="58.057955" lon="38.805772"><ele>115.5</ele><time>2024-01-19T12:36:50Z</time></trkpt><trkpt lat="58.057873" lon="38.80577"><ele>116.9</ele><time>2024-01-19T12:36:53Z</time></trkpt><trkpt lat="58.057787" lon="38.80575"><ele>119.5</ele><time>2024-01-19T12:36:56Z</time></trkpt><trkpt lat="58.057725" lon="38.805655"><ele>118.3</ele><time>2024-01-19T12:37:02Z</time></trkpt><trkpt lat="58.057642" lon="38.805615"><ele>118.6</ele><time>2024-01-19T12:37:07Z</time></trkpt><trkpt lat="58.05759" lon="38.805452"><ele>117.6</ele><time>2024-01-19T12:37:11Z</time></trkpt><trkpt lat="58.05758" lon="38.805335"><ele>114.3</ele><time>2024-01-19T12:37:18Z</time></trkpt><trkpt lat="58.05751" lon="38.805408"><ele>115.5</ele><time>2024-01-19T12:37:22Z</time></trkpt><trkpt lat="58.057445" lon="38.805505"><ele>117.6</ele><time>2024-01-19T12:37:26Z</time></trkpt><trkpt lat="58.057365" lon="38.805555"><ele>119.4</ele><time>2024-01-19T12:37:30Z</time></trkpt><trkpt lat="58.05729" lon="38.805655"><ele>121.5</ele><time>2024-01-19T12:37:35Z</time></trkpt><trkpt lat="58.057217" lon="38.805657"><ele>123.1</ele><time>2024-01-19T12:37:39Z</time></trkpt><trkpt lat="58.057152" lon="38.805597"><ele>124.1</ele><time>2024-01-19T12:37:43Z</time></trkpt><trkpt lat="58.057085" lon="38.805515"><ele>126.0</ele><time>2024-01-19T12:37:46Z</time></trkpt><trkpt lat="58.05702" lon="38.805385"><ele>128.6</ele><time>2024-01-19T12:37:50Z</time></trkpt><trkpt lat="58.056975" lon="38.805265"><ele>123.8</ele><time>2024-01-19T12:37:54Z</time></trkpt><trkpt lat="58.05692" lon="38.805147"><ele>123.4</ele><time>2024-01-19T12:37:59Z</time></trkpt><trkpt lat="58.05687" lon="38.804995"><ele>124.3</ele><time>2024-01-19T12:38:06Z</time></trkpt><trkpt lat="58.056835" lon="38.804865"><ele>125.9</ele><time>2024-01-19T12:38:12Z</time></trkpt><trkpt lat="58.056855" lon="38.80473"><ele>124.1</ele><time>2024-01-19T12:38:16Z</time></trkpt><trkpt lat="58.056835" lon="38.804615"><ele>124.1</ele><time>2024-01-19T12:38:23Z</time></trkpt><trkpt lat="58.056745" lon="38.80458"><ele>124.5</ele><time>2024-01-19T12:38:26Z</time></trkpt><trkpt lat="58.056662" lon="38.80453"><ele>126.0</ele><time>2024-01-19T12:38:29Z</time></trkpt><trkpt lat="58.056585" lon="38.80453"><ele>123.4</ele><time>2024-01-19T12:38:33Z</time></trkpt><trkpt lat="58.056515" lon="38.80446"><ele>123.7</ele><time>2024-01-19T12:38:37Z</time></trkpt><trkpt lat="58.05643" lon="38.804415"><ele>122.4</ele><time>2024-01-19T12:38:42Z</time></trkpt><trkpt lat="58.056365" lon="38.804338"><ele>122.2</ele><time>2024-01-19T12:38:46Z</time></trkpt><trkpt lat="58.056277" lon="38.80436"><ele>124.1</ele><time>2024-01-19T12:38:51Z</time></trkpt><trkpt lat="58.056255" lon="38.804277"><ele>124.4</ele><time>2024-01-19T12:38:58Z</time></trkpt><trkpt lat="58.056185" lon="38.804205"><ele>123.9</ele><time>2024-01-19T12:39:03Z</time></trkpt><trkpt lat="58.0561" lon="38.804197"><ele>123.3</ele><time>2024-01-19T12:39:08Z</time></trkpt><trkpt lat="58.056043" lon="38.804207"><ele>121.8</ele><time>2024-01-19T12:39:15Z</time></trkpt><trkpt lat="58.05606" lon="38.804197"><ele>122.0</ele><time>2024-01-19T12:39:22Z</time></trkpt><trkpt lat="58.05606" lon="38.804197"><ele>122.2</ele><time>2024-01-19T12:39:23Z</time></trkpt><trkpt lat="58.055977" lon="38.804175"><ele>121.6</ele><time>2024-01-19T12:39:38Z</time></trkpt><trkpt lat="58.055898" lon="38.804165"><ele>122.9</ele><time>2024-01-19T12:39:43Z</time></trkpt><trkpt lat="58.055842" lon="38.80427"><ele>123.8</ele><time>2024-01-19T12:39:50Z</time></trkpt><trkpt lat="58.05584" lon="38.804285"><ele>124.5</ele><time>2024-01-19T12:39:57Z</time></trkpt><trkpt lat="58.05584" lon="38.80429"><ele>124.4</ele><time>2024-01-19T12:39:58Z</time></trkpt><trkpt lat="58.05583" lon="38.804415"><ele>125.9</ele><time>2024-01-19T12:40:05Z</time></trkpt><trkpt lat="58.05583" lon="38.804417"><ele>125.8</ele><time>2024-01-19T12:40:11Z</time></trkpt><trkpt lat="58.055835" lon="38.804425"><ele>125.9</ele><time>2024-01-19T12:40:23Z</time></trkpt><trkpt lat="58.055835" lon="38.804425"><ele>125.9</ele><time>2024-01-19T12:40:24Z</time></trkpt><trkpt lat="58.05584" lon="38.804415"><ele>124.6</ele><time>2024-01-19T12:40:46Z</time></trkpt><trkpt lat="58.055835" lon="38.804415"><ele>123.6</ele><time>2024-01-19T12:40:49Z</time></trkpt><trkpt lat="58.055817" lon="38.804427"><ele>121.3</ele><time>2024-01-19T12:41:01Z</time></trkpt><trkpt lat="58.055817" lon="38.804427"><ele>121.3</ele><time>2024-01-19T12:41:03Z</time></trkpt><trkpt lat="58.055818" lon="38.804422"><ele>121.6</ele><time>2024-01-19T12:41:24Z</time></trkpt><trkpt lat="58.055818" lon="38.804422"><ele>121.7</ele><time>2024-01-19T12:41:25Z</time></trkpt><trkpt lat="58.055825" lon="38.80442"><ele>121.9</ele><time>2024-01-19T12:42:24Z</time></trkpt><trkpt lat="58.055825" lon="38.80442"><ele>121.9</ele><time>2024-01-19T12:42:25Z</time></trkpt><trkpt lat="58.055833" lon="38.804407"><ele>122.7</ele><time>2024-01-19T12:43:10Z</time></trkpt><trkpt lat="58.055835" lon="38.804405"><ele>122.7</ele><time>2024-01-19T12:43:11Z</time></trkpt><trkpt lat="58.055827" lon="38.804592"><ele>120.6</ele><time>2024-01-19T12:43:57Z</time></trkpt><trkpt lat="58.055827" lon="38.804805"><ele>119.1</ele><time>2024-01-19T12:43:59Z</time></trkpt><trkpt lat="58.05583" lon="38.805045"><ele>119.2</ele><time>2024-01-19T12:44:01Z</time></trkpt><trkpt lat="58.055817" lon="38.805295"><ele>119.3</ele><time>2024-01-19T12:44:03Z</time></trkpt><trkpt lat="58.055805" lon="38.80543"><ele>120.0</ele><time>2024-01-19T12:44:04Z</time></trkpt><trkpt lat="58.055797" lon="38.805697"><ele>118.7</ele><time>2024-01-19T12:44:06Z</time></trkpt><trkpt lat="58.055782" lon="38.805947"><ele>120.9</ele><time>2024-01-19T12:44:08Z</time></trkpt><trkpt lat="58.055765" lon="38.80608"><ele>120.8</ele><time>2024-01-19T12:44:09Z</time></trkpt><trkpt lat="58.055765" lon="38.80623"><ele>120.8</ele><time>2024-01-19T12:44:10Z</time></trkpt><trkpt lat="58.055755" lon="38.806385"><ele>120.9</ele><time>2024-01-19T12:44:11Z</time></trkpt><trkpt lat="58.055755" lon="38.80656"><ele>120.0</ele><time>2024-01-19T12:44:12Z</time></trkpt><trkpt lat="58.05573" lon="38.80673"><ele>119.7</ele><time>2024-01-19T12:44:13Z</time></trkpt><trkpt lat="58.05572" lon="38.806912"><ele>119.4</ele><time>2024-01-19T12:44:14Z</time></trkpt><trkpt lat="58.05571" lon="38.80711"><ele>119.9</ele><time>2024-01-19T12:44:15Z</time></trkpt><trkpt lat="58.05569" lon="38.807265"><ele>119.4</ele><time>2024-01-19T12:44:16Z</time></trkpt><trkpt lat="58.05567" lon="38.807452"><ele>119.0</ele><time>2024-01-19T12:44:17Z</time></trkpt><trkpt lat="58.05567" lon="38.807655"><ele>118.6</ele><time>2024-01-19T12:44:18Z</time></trkpt><trkpt lat="58.05566" lon="38.807845"><ele>117.4</ele><time>2024-01-19T12:44:19Z</time></trkpt><trkpt lat="58.055645" lon="38.808042"><ele>118.1</ele><time>2024-01-19T12:44:20Z</time></trkpt><trkpt lat="58.05563" lon="38.80823"><ele>118.7</ele><time>2024-01-19T12:44:21Z</time></trkpt><trkpt lat="58.05561" lon="38.808432"><ele>118.1</ele><time>2024-01-19T12:44:22Z</time></trkpt><trkpt lat="58.0556" lon="38.808622"><ele>118.6</ele><time>2024-01-19T12:44:23Z</time></trkpt><trkpt lat="58.05559" lon="38.808815"><ele>118.3</ele><time>2024-01-19T12:44:24Z</time></trkpt><trkpt lat="58.05558" lon="38.809"><ele>118.5</ele><time>2024-01-19T12:44:25Z</time></trkpt><trkpt lat="58.055575" lon="38.809187"><ele>119.0</ele><time>2024-01-19T12:44:26Z</time></trkpt><trkpt lat="58.05556" lon="38.80935"><ele>119.2</ele><time>2024-01-19T12:44:27Z</time></trkpt><trkpt lat="58.05555" lon="38.80952"><ele>119.0</ele><time>2024-01-19T12:44:28Z</time></trkpt><trkpt lat="58.05553" lon="38.809675"><ele>118.8</ele><time>2024-01-19T12:44:29Z</time></trkpt><trkpt lat="58.055507" lon="38.809945"><ele>118.8</ele><time>2024-01-19T12:44:31Z</time></trkpt><trkpt lat="58.05548" lon="38.810085"><ele>117.9</ele><time>2024-01-19T12:44:33Z</time></trkpt><trkpt lat="58.055492" lon="38.81011"><ele>118.5</ele><time>2024-01-19T12:44:40Z</time></trkpt><trkpt lat="58.055497" lon="38.810117"><ele>118.1</ele><time>2024-01-19T12:44:46Z</time></trkpt><trkpt lat="58.055495" lon="38.810265"><ele>118.5</ele><time>2024-01-19T12:45:15Z</time></trkpt><trkpt lat="58.055482" lon="38.810437"><ele>118.2</ele><time>2024-01-19T12:45:17Z</time></trkpt><trkpt lat="58.055462" lon="38.81062"><ele>117.4</ele><time>2024-01-19T12:45:19Z</time></trkpt><trkpt lat="58.055452" lon="38.810845"><ele>115.9</ele><time>2024-01-19T12:45:21Z</time></trkpt><trkpt lat="58.055453" lon="38.811105"><ele>118.7</ele><time>2024-01-19T12:45:23Z</time></trkpt><trkpt lat="58.055438" lon="38.81127"><ele>118.5</ele><time>2024-01-19T12:45:24Z</time></trkpt><trkpt lat="58.05543" lon="38.811435"><ele>118.6</ele><time>2024-01-19T12:45:25Z</time></trkpt><trkpt lat="58.05541" lon="38.81167"><ele>118.0</ele><time>2024-01-19T12:45:26Z</time></trkpt><trkpt lat="58.055432" lon="38.811902"><ele>118.1</ele><time>2024-01-19T12:45:27Z</time></trkpt><trkpt lat="58.055405" lon="38.812115"><ele>118.0</ele><time>2024-01-19T12:45:28Z</time></trkpt><trkpt lat="58.05531" lon="38.812212"><ele>119.6</ele><time>2024-01-19T12:45:29Z</time></trkpt><trkpt lat="58.05528" lon="38.81247"><ele>121.6</ele><time>2024-01-19T12:45:31Z</time></trkpt><trkpt lat="58.055292" lon="38.812782"><ele>121.4</ele><time>2024-01-19T12:45:33Z</time></trkpt><trkpt lat="58.055283" lon="38.812982"><ele>121.4</ele><time>2024-01-19T12:45:34Z</time></trkpt><trkpt lat="58.055275" lon="38.813127"><ele>121.8</ele><time>2024-01-19T12:45:35Z</time></trkpt><trkpt lat="58.05526" lon="38.81334"><ele>120.9</ele><time>2024-01-19T12:45:36Z</time></trkpt><trkpt lat="58.055255" lon="38.813555"><ele>119.8</ele><time>2024-01-19T12:45:37Z</time></trkpt><trkpt lat="58.05523" lon="38.813723"><ele>119.3</ele><time>2024-01-19T12:45:38Z</time></trkpt><trkpt lat="58.055235" lon="38.813935"><ele>120.0</ele><time>2024-01-19T12:45:39Z</time></trkpt><trkpt lat="58.055235" lon="38.81413"><ele>120.2</ele><time>2024-01-19T12:45:40Z</time></trkpt><trkpt lat="58.055235" lon="38.814295"><ele>119.5</ele><time>2024-01-19T12:45:41Z</time></trkpt><trkpt lat="58.05521" lon="38.814455"><ele>118.7</ele><time>2024-01-19T12:45:42Z</time></trkpt><trkpt lat="58.055195" lon="38.814615"><ele>119.0</ele><time>2024-01-19T12:45:43Z</time></trkpt><trkpt lat="58.055185" lon="38.814792"><ele>118.4</ele><time>2024-01-19T12:45:44Z</time></trkpt><trkpt lat="58.05518" lon="38.81497"><ele>118.1</ele><time>2024-01-19T12:45:45Z</time></trkpt><trkpt lat="58.055175" lon="38.815135"><ele>117.8</ele><time>2024-01-19T12:45:46Z</time></trkpt><trkpt lat="58.05516" lon="38.815282"><ele>115.9</ele><time>2024-01-19T12:45:47Z</time></trkpt><trkpt lat="58.05515" lon="38.81544"><ele>115.2</ele><time>2024-01-19T12:45:48Z</time></trkpt><trkpt lat="58.05514" lon="38.815617"><ele>114.9</ele><time>2024-01-19T12:45:49Z</time></trkpt><trkpt lat="58.055143" lon="38.815765"><ele>114.2</ele><time>2024-01-19T12:45:50Z</time></trkpt><trkpt lat="58.055132" lon="38.815945"><ele>112.9</ele><time>2024-01-19T12:45:51Z</time></trkpt><trkpt lat="58.055135" lon="38.816085"><ele>113.5</ele><time>2024-01-19T12:45:52Z</time></trkpt><trkpt lat="58.05511" lon="38.81624"><ele>112.7</ele><time>2024-01-19T12:45:53Z</time></trkpt><trkpt lat="58.05508" lon="38.81643"><ele>112.1</ele><time>2024-01-19T12:45:54Z</time></trkpt><trkpt lat="58.055055" lon="38.81658"><ele>111.4</ele><time>2024-01-19T12:45:55Z</time></trkpt><trkpt lat="58.05504" lon="38.816727"><ele>112.4</ele><time>2024-01-19T12:45:56Z</time></trkpt><trkpt lat="58.05502" lon="38.81686"><ele>112.5</ele><time>2024-01-19T12:45:57Z</time></trkpt><trkpt lat="58.055" lon="38.817058"><ele>113.1</ele><time>2024-01-19T12:45:59Z</time></trkpt><trkpt lat="58.054987" lon="38.817205"><ele>114.3</ele><time>2024-01-19T12:46:01Z</time></trkpt><trkpt lat="58.054965" lon="38.817375"><ele>115.1</ele><time>2024-01-19T12:46:04Z</time></trkpt><trkpt lat="58.054957" lon="38.817422"><ele>113.2</ele><time>2024-01-19T12:46:11Z</time></trkpt><trkpt lat="58.054955" lon="38.81746"><ele>115.6</ele><time>2024-01-19T12:46:18Z</time></trkpt><trkpt lat="58.05497" lon="38.817438"><ele>116.4</ele><time>2024-01-19T12:46:25Z</time></trkpt><trkpt lat="58.05497" lon="38.817435"><ele>116.2</ele><time>2024-01-19T12:46:28Z</time></trkpt><trkpt lat="58.055135" lon="38.817295"><ele>118.7</ele><time>2024-01-19T12:46:35Z</time></trkpt></trkseg></trk></gpx>