<?xml version="1.0" encoding="UTF-8" standalone="no"?><gpx xmlns="http://www.topografix.com/GPX/1/1" xmlns:gpxtpx="http://www.garmin.com/xmlschemas/TrackPointExtension/v1" xmlns:xsi="http://www.w3.org/2001/XMLSchema-instance" creator="Sports Tracker" version="1.1" xsi:schemaLocation="http://www.topografix.com/GPX/1/1 http://www.topografix.com/GPX/1/1/gpx.xsd http://www.garmin.com/xmlschemas/TrackPointExtension/v1 http://www.garmin.com/xmlschemas/TrackPointExtensionv1.xsd"><metadata><name>02.05.2026 14:37</name><desc/><author><name>Александр</name></author></metadata><trk><name>02.05.2026 14:37</name><trkseg><trkpt lat="58.327703" lon="38.875895"><ele>128.9</ele><time>2026-05-02T11:37:39Z</time></trkpt><trkpt lat="58.327703" lon="38.875895"><ele>128.9</ele><time>2026-05-02T11:37:39Z</time></trkpt><trkpt lat="58.327715" lon="38.87575"><ele>125.1</ele><time>2026-05-02T11:37:45Z</time></trkpt><trkpt lat="58.327755" lon="38.87563"><ele>123.5</ele><time>2026-05-02T11:37:51Z</time></trkpt><trkpt lat="58.3278" lon="38.875515"><ele>122.9</ele><time>2026-05-02T11:37:58Z</time></trkpt><trkpt lat="58.327835" lon="38.875405"><ele>123.6</ele><time>2026-05-02T11:38:05Z</time></trkpt><trkpt lat="58.327855" lon="38.87532"><ele>123.9</ele><time>2026-05-02T11:38:12Z</time></trkpt><trkpt lat="58.327855" lon="38.875325"><ele>123.9</ele><time>2026-05-02T11:38:17Z</time></trkpt><trkpt lat="58.327845" lon="38.87535"><ele>124.1</ele><time>2026-05-02T11:38:31Z</time></trkpt><trkpt lat="58.327845" lon="38.87535"><ele>124.1</ele><time>2026-05-02T11:38:32Z</time></trkpt><trkpt lat="58.327855" lon="38.87532"><ele>123.8</ele><time>2026-05-02T11:38:41Z</time></trkpt><trkpt lat="58.327855" lon="38.87532"><ele>123.6</ele><time>2026-05-02T11:38:42Z</time></trkpt><trkpt lat="58.32788" lon="38.875185"><ele>122.3</ele><time>2026-05-02T11:38:50Z</time></trkpt><trkpt lat="58.327875" lon="38.87508"><ele>122.0</ele><time>2026-05-02T11:38:57Z</time></trkpt><trkpt lat="58.3279" lon="38.87499"><ele>124.4</ele><time>2026-05-02T11:39:04Z</time></trkpt><trkpt lat="58.327927" lon="38.87489"><ele>123.8</ele><time>2026-05-02T11:39:11Z</time></trkpt><trkpt lat="58.327955" lon="38.874765"><ele>124.4</ele><time>2026-05-02T11:39:18Z</time></trkpt><trkpt lat="58.327965" lon="38.874665"><ele>124.2</ele><time>2026-05-02T11:39:25Z</time></trkpt><trkpt lat="58.32797" lon="38.874525"><ele>122.4</ele><time>2026-05-02T11:39:32Z</time></trkpt><trkpt lat="58.327975" lon="38.874375"><ele>125.1</ele><time>2026-05-02T11:39:38Z</time></trkpt><trkpt lat="58.32798" lon="38.874225"><ele>124.4</ele><time>2026-05-02T11:39:43Z</time></trkpt><trkpt lat="58.327995" lon="38.87409"><ele>124.3</ele><time>2026-05-02T11:39:49Z</time></trkpt><trkpt lat="58.328055" lon="38.87397"><ele>123.1</ele><time>2026-05-02T11:39:56Z</time></trkpt><trkpt lat="58.32808" lon="38.873835"><ele>122.5</ele><time>2026-05-02T11:40:02Z</time></trkpt><trkpt lat="58.32811" lon="38.87375"><ele>125.3</ele><time>2026-05-02T11:40:09Z</time></trkpt><trkpt lat="58.32815" lon="38.87365"><ele>127.0</ele><time>2026-05-02T11:40:16Z</time></trkpt><trkpt lat="58.328195" lon="38.873595"><ele>127.8</ele><time>2026-05-02T11:40:23Z</time></trkpt><trkpt lat="58.328215" lon="38.873535"><ele>127.7</ele><time>2026-05-02T11:40:30Z</time></trkpt><trkpt lat="58.32826" lon="38.87345"><ele>127.5</ele><time>2026-05-02T11:40:37Z</time></trkpt><trkpt lat="58.328305" lon="38.873455"><ele>127.4</ele><time>2026-05-02T11:40:44Z</time></trkpt><trkpt lat="58.32834" lon="38.8734"><ele>128.0</ele><time>2026-05-02T11:40:51Z</time></trkpt><trkpt lat="58.328395" lon="38.873282"><ele>125.4</ele><time>2026-05-02T11:40:58Z</time></trkpt><trkpt lat="58.32842" lon="38.873145"><ele>126.7</ele><time>2026-05-02T11:41:05Z</time></trkpt><trkpt lat="58.32846" lon="38.87305"><ele>125.2</ele><time>2026-05-02T11:41:12Z</time></trkpt><trkpt lat="58.328525" lon="38.87299"><ele>125.2</ele><time>2026-05-02T11:41:19Z</time></trkpt><trkpt lat="58.328595" lon="38.87294"><ele>125.6</ele><time>2026-05-02T11:41:26Z</time></trkpt><trkpt lat="58.328665" lon="38.872895"><ele>124.6</ele><time>2026-05-02T11:41:33Z</time></trkpt><trkpt lat="58.328735" lon="38.872845"><ele>124.1</ele><time>2026-05-02T11:41:39Z</time></trkpt><trkpt lat="58.328815" lon="38.87281"><ele>124.5</ele><time>2026-05-02T11:41:46Z</time></trkpt><trkpt lat="58.328875" lon="38.87278"><ele>120.3</ele><time>2026-05-02T11:41:53Z</time></trkpt><trkpt lat="58.32893" lon="38.87272"><ele>118.2</ele><time>2026-05-02T11:42:00Z</time></trkpt><trkpt lat="58.329" lon="38.87266"><ele>117.6</ele><time>2026-05-02T11:42:07Z</time></trkpt><trkpt lat="58.329085" lon="38.872635"><ele>117.7</ele><time>2026-05-02T11:42:14Z</time></trkpt><trkpt lat="58.32917" lon="38.87261"><ele>118.8</ele><time>2026-05-02T11:42:21Z</time></trkpt><trkpt lat="58.329245" lon="38.87259"><ele>120.2</ele><time>2026-05-02T11:42:27Z</time></trkpt><trkpt lat="58.32931" lon="38.872585"><ele>118.9</ele><time>2026-05-02T11:42:33Z</time></trkpt><trkpt lat="58.32938" lon="38.87261"><ele>118.2</ele><time>2026-05-02T11:42:40Z</time></trkpt><trkpt lat="58.329435" lon="38.87264"><ele>118.5</ele><time>2026-05-02T11:42:47Z</time></trkpt><trkpt lat="58.329435" lon="38.87264"><ele>118.6</ele><time>2026-05-02T11:42:52Z</time></trkpt><trkpt lat="58.329447" lon="38.87263"><ele>119.0</ele><time>2026-05-02T11:42:59Z</time></trkpt><trkpt lat="58.329447" lon="38.87263"><ele>119.3</ele><time>2026-05-02T11:43:01Z</time></trkpt><trkpt lat="58.329515" lon="38.872675"><ele>120.5</ele><time>2026-05-02T11:43:13Z</time></trkpt><trkpt lat="58.329585" lon="38.872695"><ele>120.1</ele><time>2026-05-02T11:43:20Z</time></trkpt><trkpt lat="58.329665" lon="38.87264"><ele>119.1</ele><time>2026-05-02T11:43:27Z</time></trkpt><trkpt lat="58.329715" lon="38.87252"><ele>116.7</ele><time>2026-05-02T11:43:34Z</time></trkpt><trkpt lat="58.32974" lon="38.872405"><ele>116.0</ele><time>2026-05-02T11:43:41Z</time></trkpt><trkpt lat="58.3298" lon="38.87228"><ele>116.7</ele><time>2026-05-02T11:43:48Z</time></trkpt><trkpt lat="58.329855" lon="38.87219"><ele>118.0</ele><time>2026-05-02T11:43:55Z</time></trkpt><trkpt lat="58.329895" lon="38.8721"><ele>121.0</ele><time>2026-05-02T11:44:02Z</time></trkpt><trkpt lat="58.32996" lon="38.87202"><ele>120.1</ele><time>2026-05-02T11:44:09Z</time></trkpt><trkpt lat="58.330035" lon="38.871945"><ele>119.8</ele><time>2026-05-02T11:44:16Z</time></trkpt><trkpt lat="58.33011" lon="38.871915"><ele>117.6</ele><time>2026-05-02T11:44:23Z</time></trkpt><trkpt lat="58.33019" lon="38.871905"><ele>119.8</ele><time>2026-05-02T11:44:30Z</time></trkpt><trkpt lat="58.33025" lon="38.871845"><ele>121.3</ele><time>2026-05-02T11:44:37Z</time></trkpt><trkpt lat="58.330275" lon="38.87171"><ele>124.3</ele><time>2026-05-02T11:44:44Z</time></trkpt><trkpt lat="58.330275" lon="38.871665"><ele>123.4</ele><time>2026-05-02T11:44:51Z</time></trkpt><trkpt lat="58.33033" lon="38.87165"><ele>123.8</ele><time>2026-05-02T11:44:58Z</time></trkpt><trkpt lat="58.33038" lon="38.871595"><ele>124.1</ele><time>2026-05-02T11:45:05Z</time></trkpt><trkpt lat="58.33042" lon="38.87165"><ele>122.5</ele><time>2026-05-02T11:45:12Z</time></trkpt><trkpt lat="58.330465" lon="38.871655"><ele>122.0</ele><time>2026-05-02T11:45:19Z</time></trkpt><trkpt lat="58.330515" lon="38.87169"><ele>120.9</ele><time>2026-05-02T11:45:26Z</time></trkpt><trkpt lat="58.330565" lon="38.871625"><ele>117.7</ele><time>2026-05-02T11:45:33Z</time></trkpt><trkpt lat="58.330625" lon="38.87162"><ele>116.5</ele><time>2026-05-02T11:45:40Z</time></trkpt><trkpt lat="58.330695" lon="38.871565"><ele>117.9</ele><time>2026-05-02T11:45:46Z</time></trkpt><trkpt lat="58.33076" lon="38.87151"><ele>119.6</ele><time>2026-05-02T11:45:50Z</time></trkpt><trkpt lat="58.330835" lon="38.871435"><ele>119.3</ele><time>2026-05-02T11:45:54Z</time></trkpt><trkpt lat="58.33081" lon="38.871305"><ele>115.7</ele><time>2026-05-02T11:46:01Z</time></trkpt><trkpt lat="58.33083" lon="38.87116"><ele>115.7</ele><time>2026-05-02T11:46:08Z</time></trkpt><trkpt lat="58.330825" lon="38.871"><ele>113.8</ele><time>2026-05-02T11:46:14Z</time></trkpt><trkpt lat="58.330855" lon="38.870875"><ele>113.4</ele><time>2026-05-02T11:46:20Z</time></trkpt><trkpt lat="58.330875" lon="38.870745"><ele>114.7</ele><time>2026-05-02T11:46:27Z</time></trkpt><trkpt lat="58.33088" lon="38.870605"><ele>118.1</ele><time>2026-05-02T11:46:34Z</time></trkpt><trkpt lat="58.33088" lon="38.87047"><ele>117.9</ele><time>2026-05-02T11:46:41Z</time></trkpt><trkpt lat="58.330895" lon="38.870328"><ele>115.8</ele><time>2026-05-02T11:46:48Z</time></trkpt><trkpt lat="58.330935" lon="38.87025"><ele>115.2</ele><time>2026-05-02T11:46:55Z</time></trkpt><trkpt lat="58.33095" lon="38.8702"><ele>115.6</ele><time>2026-05-02T11:47:02Z</time></trkpt><trkpt lat="58.33095" lon="38.87014"><ele>115.5</ele><time>2026-05-02T11:47:09Z</time></trkpt><trkpt lat="58.33095" lon="38.870145"><ele>115.6</ele><time>2026-05-02T11:47:15Z</time></trkpt><trkpt lat="58.33095" lon="38.87016"><ele>115.3</ele><time>2026-05-02T11:47:24Z</time></trkpt><trkpt lat="58.33095" lon="38.87016"><ele>115.3</ele><time>2026-05-02T11:47:25Z</time></trkpt><trkpt lat="58.330945" lon="38.87017"><ele>115.9</ele><time>2026-05-02T11:47:41Z</time></trkpt><trkpt lat="58.33093" lon="38.870172"><ele>114.5</ele><time>2026-05-02T11:47:48Z</time></trkpt><trkpt lat="58.33088" lon="38.870125"><ele>114.7</ele><time>2026-05-02T11:47:56Z</time></trkpt><trkpt lat="58.330835" lon="38.870035"><ele>115.6</ele><time>2026-05-02T11:48:03Z</time></trkpt><trkpt lat="58.330795" lon="38.87005"><ele>115.1</ele><time>2026-05-02T11:48:10Z</time></trkpt><trkpt lat="58.330775" lon="38.87002"><ele>114.9</ele><time>2026-05-02T11:48:17Z</time></trkpt><trkpt lat="58.330725" lon="38.86999"><ele>115.9</ele><time>2026-05-02T11:48:24Z</time></trkpt><trkpt lat="58.33072" lon="38.87001"><ele>116.4</ele><time>2026-05-02T11:48:31Z</time></trkpt><trkpt lat="58.330675" lon="38.869925"><ele>116.5</ele><time>2026-05-02T11:48:38Z</time></trkpt><trkpt lat="58.33066" lon="38.86993"><ele>116.7</ele><time>2026-05-02T11:48:45Z</time></trkpt><trkpt lat="58.33062" lon="38.86989"><ele>115.7</ele><time>2026-05-02T11:48:52Z</time></trkpt><trkpt lat="58.33057" lon="38.869825"><ele>115.6</ele><time>2026-05-02T11:48:59Z</time></trkpt><trkpt lat="58.33053" lon="38.869775"><ele>116.2</ele><time>2026-05-02T11:49:06Z</time></trkpt><trkpt lat="58.33047" lon="38.869715"><ele>117.0</ele><time>2026-05-02T11:49:13Z</time></trkpt><trkpt lat="58.330435" lon="38.869695"><ele>117.0</ele><time>2026-05-02T11:49:20Z</time></trkpt><trkpt lat="58.330433" lon="38.869695"><ele>117.0</ele><time>2026-05-02T11:49:24Z</time></trkpt><trkpt lat="58.33043" lon="38.86972"><ele>117.7</ele><time>2026-05-02T11:49:40Z</time></trkpt><trkpt lat="58.33039" lon="38.869655"><ele>117.1</ele><time>2026-05-02T11:49:47Z</time></trkpt><trkpt lat="58.33034" lon="38.86961"><ele>117.2</ele><time>2026-05-02T11:49:54Z</time></trkpt><trkpt lat="58.330278" lon="38.86955"><ele>117.7</ele><time>2026-05-02T11:50:01Z</time></trkpt><trkpt lat="58.33022" lon="38.86948"><ele>116.8</ele><time>2026-05-02T11:50:08Z</time></trkpt><trkpt lat="58.33015" lon="38.86944"><ele>114.4</ele><time>2026-05-02T11:50:15Z</time></trkpt><trkpt lat="58.330095" lon="38.869415"><ele>114.5</ele><time>2026-05-02T11:50:22Z</time></trkpt><trkpt lat="58.33005" lon="38.86945"><ele>117.1</ele><time>2026-05-02T11:50:29Z</time></trkpt><trkpt lat="58.33004" lon="38.869415"><ele>117.4</ele><time>2026-05-02T11:50:36Z</time></trkpt><trkpt lat="58.33004" lon="38.869415"><ele>118.3</ele><time>2026-05-02T11:50:37Z</time></trkpt><trkpt lat="58.329985" lon="38.869355"><ele>116.8</ele><time>2026-05-02T11:50:45Z</time></trkpt><trkpt lat="58.329935" lon="38.869325"><ele>115.5</ele><time>2026-05-02T11:50:52Z</time></trkpt><trkpt lat="58.329915" lon="38.869285"><ele>114.9</ele><time>2026-05-02T11:50:59Z</time></trkpt><trkpt lat="58.329915" lon="38.869285"><ele>114.8</ele><time>2026-05-02T11:51:02Z</time></trkpt><trkpt lat="58.329845" lon="38.869245"><ele>113.7</ele><time>2026-05-02T11:51:41Z</time></trkpt><trkpt lat="58.32976" lon="38.869185"><ele>113.3</ele><time>2026-05-02T11:51:47Z</time></trkpt><trkpt lat="58.32969" lon="38.869135"><ele>112.8</ele><time>2026-05-02T11:51:54Z</time></trkpt><trkpt lat="58.329635" lon="38.86909"><ele>114.1</ele><time>2026-05-02T11:52:01Z</time></trkpt><trkpt lat="58.329587" lon="38.86903"><ele>113.9</ele><time>2026-05-02T11:52:08Z</time></trkpt><trkpt lat="58.329535" lon="38.86896"><ele>114.5</ele><time>2026-05-02T11:52:15Z</time></trkpt><trkpt lat="58.32948" lon="38.868935"><ele>112.5</ele><time>2026-05-02T11:52:22Z</time></trkpt><trkpt lat="58.329405" lon="38.86885"><ele>114.8</ele><time>2026-05-02T11:52:29Z</time></trkpt><trkpt lat="58.329345" lon="38.868785"><ele>115.1</ele><time>2026-05-02T11:52:36Z</time></trkpt><trkpt lat="58.32931" lon="38.868795"><ele>114.3</ele><time>2026-05-02T11:52:43Z</time></trkpt><trkpt lat="58.32929" lon="38.868785"><ele>114.1</ele><time>2026-05-02T11:52:50Z</time></trkpt><trkpt lat="58.32925" lon="38.86873"><ele>112.9</ele><time>2026-05-02T11:52:57Z</time></trkpt><trkpt lat="58.329195" lon="38.86867"><ele>113.3</ele><time>2026-05-02T11:53:04Z</time></trkpt><trkpt lat="58.329135" lon="38.86864"><ele>113.4</ele><time>2026-05-02T11:53:11Z</time></trkpt><trkpt lat="58.32908" lon="38.8686"><ele>112.3</ele><time>2026-05-02T11:53:18Z</time></trkpt><trkpt lat="58.329025" lon="38.868565"><ele>111.9</ele><time>2026-05-02T11:53:25Z</time></trkpt><trkpt lat="58.32897" lon="38.868513"><ele>113.0</ele><time>2026-05-02T11:53:32Z</time></trkpt><trkpt lat="58.328913" lon="38.86846"><ele>111.9</ele><time>2026-05-02T11:53:39Z</time></trkpt><trkpt lat="58.328875" lon="38.868405"><ele>113.3</ele><time>2026-05-02T11:53:46Z</time></trkpt><trkpt lat="58.32883" lon="38.86835"><ele>113.1</ele><time>2026-05-02T11:53:53Z</time></trkpt><trkpt lat="58.328775" lon="38.86829"><ele>111.7</ele><time>2026-05-02T11:54:00Z</time></trkpt><trkpt lat="58.328725" lon="38.86829"><ele>110.4</ele><time>2026-05-02T11:54:07Z</time></trkpt><trkpt lat="58.328675" lon="38.86823"><ele>112.2</ele><time>2026-05-02T11:54:14Z</time></trkpt><trkpt lat="58.32862" lon="38.868185"><ele>111.3</ele><time>2026-05-02T11:54:21Z</time></trkpt><trkpt lat="58.32856" lon="38.86815"><ele>111.4</ele><time>2026-05-02T11:54:28Z</time></trkpt><trkpt lat="58.32855" lon="38.86813"><ele>112.0</ele><time>2026-05-02T11:54:35Z</time></trkpt><trkpt lat="58.32855" lon="38.868125"><ele>112.3</ele><time>2026-05-02T11:54:36Z</time></trkpt><trkpt lat="58.3285" lon="38.868075"><ele>112.1</ele><time>2026-05-02T11:54:44Z</time></trkpt><trkpt lat="58.328435" lon="38.86803"><ele>112.5</ele><time>2026-05-02T11:54:51Z</time></trkpt><trkpt lat="58.32841" lon="38.86801"><ele>111.8</ele><time>2026-05-02T11:54:58Z</time></trkpt><trkpt lat="58.328375" lon="38.867955"><ele>111.6</ele><time>2026-05-02T11:55:05Z</time></trkpt><trkpt lat="58.32832" lon="38.867905"><ele>112.1</ele><time>2026-05-02T11:55:12Z</time></trkpt><trkpt lat="58.328265" lon="38.867825"><ele>114.9</ele><time>2026-05-02T11:55:19Z</time></trkpt><trkpt lat="58.328205" lon="38.867785"><ele>113.9</ele><time>2026-05-02T11:55:26Z</time></trkpt><trkpt lat="58.32814" lon="38.86774"><ele>114.6</ele><time>2026-05-02T11:55:33Z</time></trkpt><trkpt lat="58.328082" lon="38.8677"><ele>113.3</ele><time>2026-05-02T11:55:40Z</time></trkpt><trkpt lat="58.328035" lon="38.86767"><ele>113.3</ele><time>2026-05-02T11:55:47Z</time></trkpt><trkpt lat="58.32799" lon="38.867625"><ele>113.1</ele><time>2026-05-02T11:55:54Z</time></trkpt><trkpt lat="58.327985" lon="38.86761"><ele>113.3</ele><time>2026-05-02T11:56:01Z</time></trkpt><trkpt lat="58.327925" lon="38.867575"><ele>112.8</ele><time>2026-05-02T11:56:08Z</time></trkpt><trkpt lat="58.327875" lon="38.86752"><ele>113.8</ele><time>2026-05-02T11:56:15Z</time></trkpt><trkpt lat="58.327825" lon="38.86747"><ele>113.3</ele><time>2026-05-02T11:56:22Z</time></trkpt><trkpt lat="58.327772" lon="38.86744"><ele>113.1</ele><time>2026-05-02T11:56:29Z</time></trkpt><trkpt lat="58.327735" lon="38.86741"><ele>112.3</ele><time>2026-05-02T11:56:36Z</time></trkpt><trkpt lat="58.32768" lon="38.867355"><ele>113.3</ele><time>2026-05-02T11:56:43Z</time></trkpt><trkpt lat="58.327665" lon="38.867355"><ele>113.2</ele><time>2026-05-02T11:56:50Z</time></trkpt><trkpt lat="58.327665" lon="38.86735"><ele>113.9</ele><time>2026-05-02T11:56:52Z</time></trkpt><trkpt lat="58.32761" lon="38.86732"><ele>112.8</ele><time>2026-05-02T11:57:05Z</time></trkpt><trkpt lat="58.327545" lon="38.867235"><ele>113.9</ele><time>2026-05-02T11:57:12Z</time></trkpt><trkpt lat="58.327478" lon="38.867145"><ele>114.1</ele><time>2026-05-02T11:57:19Z</time></trkpt><trkpt lat="58.327435" lon="38.86711"><ele>114.4</ele><time>2026-05-02T11:57:26Z</time></trkpt><trkpt lat="58.327385" lon="38.867065"><ele>112.4</ele><time>2026-05-02T11:57:33Z</time></trkpt><trkpt lat="58.32734" lon="38.86706"><ele>113.1</ele><time>2026-05-02T11:57:40Z</time></trkpt><trkpt lat="58.327315" lon="38.86708"><ele>116.4</ele><time>2026-05-02T11:57:47Z</time></trkpt><trkpt lat="58.327355" lon="38.867135"><ele>117.8</ele><time>2026-05-02T11:57:54Z</time></trkpt><trkpt lat="58.327315" lon="38.86712"><ele>115.3</ele><time>2026-05-02T11:58:01Z</time></trkpt><trkpt lat="58.327285" lon="38.867065"><ele>113.8</ele><time>2026-05-02T11:58:08Z</time></trkpt><trkpt lat="58.32722" lon="38.867005"><ele>113.8</ele><time>2026-05-02T11:58:15Z</time></trkpt><trkpt lat="58.32716" lon="38.86698"><ele>112.6</ele><time>2026-05-02T11:58:22Z</time></trkpt><trkpt lat="58.32712" lon="38.8669"><ele>114.7</ele><time>2026-05-02T11:58:29Z</time></trkpt><trkpt lat="58.32705" lon="38.866875"><ele>113.7</ele><time>2026-05-02T11:58:36Z</time></trkpt><trkpt lat="58.32701" lon="38.866835"><ele>115.5</ele><time>2026-05-02T11:58:43Z</time></trkpt><trkpt lat="58.32696" lon="38.86683"><ele>114.9</ele><time>2026-05-02T11:58:50Z</time></trkpt><trkpt lat="58.32691" lon="38.8668"><ele>115.8</ele><time>2026-05-02T11:58:57Z</time></trkpt><trkpt lat="58.326855" lon="38.86675"><ele>115.9</ele><time>2026-05-02T11:59:04Z</time></trkpt><trkpt lat="58.326787" lon="38.86672"><ele>115.1</ele><time>2026-05-02T11:59:11Z</time></trkpt><trkpt lat="58.32676" lon="38.866695"><ele>114.9</ele><time>2026-05-02T11:59:18Z</time></trkpt><trkpt lat="58.326695" lon="38.86664"><ele>115.1</ele><time>2026-05-02T11:59:25Z</time></trkpt><trkpt lat="58.326645" lon="38.866605"><ele>114.1</ele><time>2026-05-02T11:59:32Z</time></trkpt><trkpt lat="58.32659" lon="38.86656"><ele>114.9</ele><time>2026-05-02T11:59:39Z</time></trkpt><trkpt lat="58.326535" lon="38.866495"><ele>113.8</ele><time>2026-05-02T11:59:46Z</time></trkpt><trkpt lat="58.326475" lon="38.866445"><ele>114.4</ele><time>2026-05-02T11:59:53Z</time></trkpt><trkpt lat="58.326425" lon="38.866405"><ele>113.7</ele><time>2026-05-02T12:00:00Z</time></trkpt><trkpt lat="58.326375" lon="38.86637"><ele>113.0</ele><time>2026-05-02T12:00:07Z</time></trkpt><trkpt lat="58.326338" lon="38.86634"><ele>113.5</ele><time>2026-05-02T12:00:14Z</time></trkpt><trkpt lat="58.32628" lon="38.866265"><ele>113.8</ele><time>2026-05-02T12:00:21Z</time></trkpt><trkpt lat="58.326225" lon="38.86623"><ele>113.9</ele><time>2026-05-02T12:00:28Z</time></trkpt><trkpt lat="58.32618" lon="38.866185"><ele>113.4</ele><time>2026-05-02T12:00:35Z</time></trkpt><trkpt lat="58.326165" lon="38.86616"><ele>113.7</ele><time>2026-05-02T12:00:42Z</time></trkpt><trkpt lat="58.32613" lon="38.86614"><ele>114.3</ele><time>2026-05-02T12:00:49Z</time></trkpt><trkpt lat="58.326125" lon="38.866125"><ele>114.7</ele><time>2026-05-02T12:00:54Z</time></trkpt><trkpt lat="58.32609" lon="38.866095"><ele>114.2</ele><time>2026-05-02T12:01:02Z</time></trkpt><trkpt lat="58.326045" lon="38.866005"><ele>114.8</ele><time>2026-05-02T12:01:09Z</time></trkpt><trkpt lat="58.325995" lon="38.86597"><ele>114.7</ele><time>2026-05-02T12:01:16Z</time></trkpt><trkpt lat="58.32595" lon="38.865925"><ele>114.9</ele><time>2026-05-02T12:01:23Z</time></trkpt><trkpt lat="58.325888" lon="38.865855"><ele>114.9</ele><time>2026-05-02T12:01:30Z</time></trkpt><trkpt lat="58.325835" lon="38.86582"><ele>114.7</ele><time>2026-05-02T12:01:37Z</time></trkpt><trkpt lat="58.32579" lon="38.86577"><ele>114.0</ele><time>2026-05-02T12:01:44Z</time></trkpt><trkpt lat="58.32573" lon="38.865715"><ele>113.6</ele><time>2026-05-02T12:01:51Z</time></trkpt><trkpt lat="58.325665" lon="38.86566"><ele>113.2</ele><time>2026-05-02T12:01:58Z</time></trkpt><trkpt lat="58.325615" lon="38.86559"><ele>114.2</ele><time>2026-05-02T12:02:05Z</time></trkpt><trkpt lat="58.325575" lon="38.865557"><ele>114.3</ele><time>2026-05-02T12:02:12Z</time></trkpt><trkpt lat="58.325577" lon="38.865615"><ele>113.8</ele><time>2026-05-02T12:02:19Z</time></trkpt><trkpt lat="58.325545" lon="38.865555"><ele>112.9</ele><time>2026-05-02T12:02:26Z</time></trkpt><trkpt lat="58.325505" lon="38.86553"><ele>112.5</ele><time>2026-05-02T12:02:33Z</time></trkpt><trkpt lat="58.32547" lon="38.86549"><ele>112.6</ele><time>2026-05-02T12:02:40Z</time></trkpt><trkpt lat="58.32545" lon="38.865535"><ele>113.5</ele><time>2026-05-02T12:02:47Z</time></trkpt><trkpt lat="58.325405" lon="38.86546"><ele>113.3</ele><time>2026-05-02T12:02:54Z</time></trkpt><trkpt lat="58.325352" lon="38.865445"><ele>115.0</ele><time>2026-05-02T12:03:01Z</time></trkpt><trkpt lat="58.32531" lon="38.86539"><ele>113.8</ele><time>2026-05-02T12:03:08Z</time></trkpt><trkpt lat="58.32526" lon="38.865345"><ele>113.0</ele><time>2026-05-02T12:03:15Z</time></trkpt><trkpt lat="58.325215" lon="38.865275"><ele>112.8</ele><time>2026-05-02T12:03:22Z</time></trkpt><trkpt lat="58.325165" lon="38.865245"><ele>112.4</ele><time>2026-05-02T12:03:30Z</time></trkpt><trkpt lat="58.325115" lon="38.865195"><ele>111.0</ele><time>2026-05-02T12:03:36Z</time></trkpt><trkpt lat="58.32507" lon="38.86516"><ele>111.1</ele><time>2026-05-02T12:03:43Z</time></trkpt><trkpt lat="58.325055" lon="38.86513"><ele>110.3</ele><time>2026-05-02T12:03:50Z</time></trkpt><trkpt lat="58.32501" lon="38.865075"><ele>111.4</ele><time>2026-05-02T12:03:57Z</time></trkpt><trkpt lat="58.32496" lon="38.86502"><ele>111.2</ele><time>2026-05-02T12:04:04Z</time></trkpt><trkpt lat="58.3249" lon="38.86495"><ele>111.9</ele><time>2026-05-02T12:04:11Z</time></trkpt><trkpt lat="58.324845" lon="38.86491"><ele>112.8</ele><time>2026-05-02T12:04:18Z</time></trkpt><trkpt lat="58.32479" lon="38.864865"><ele>114.2</ele><time>2026-05-02T12:04:25Z</time></trkpt><trkpt lat="58.324735" lon="38.864825"><ele>115.1</ele><time>2026-05-02T12:04:32Z</time></trkpt><trkpt lat="58.32468" lon="38.864765"><ele>115.5</ele><time>2026-05-02T12:04:39Z</time></trkpt><trkpt lat="58.324635" lon="38.864715"><ele>115.2</ele><time>2026-05-02T12:04:46Z</time></trkpt><trkpt lat="58.324575" lon="38.864675"><ele>115.5</ele><time>2026-05-02T12:04:53Z</time></trkpt><trkpt lat="58.324575" lon="38.86468"><ele>115.9</ele><time>2026-05-02T12:05:00Z</time></trkpt><trkpt lat="58.32459" lon="38.864705"><ele>114.8</ele><time>2026-05-02T12:05:11Z</time></trkpt><trkpt lat="58.324575" lon="38.864705"><ele>116.2</ele><time>2026-05-02T12:05:18Z</time></trkpt><trkpt lat="58.32451" lon="38.86463"><ele>115.0</ele><time>2026-05-02T12:05:25Z</time></trkpt><trkpt lat="58.324465" lon="38.86452"><ele>116.1</ele><time>2026-05-02T12:05:32Z</time></trkpt><trkpt lat="58.32441" lon="38.864445"><ele>116.5</ele><time>2026-05-02T12:05:39Z</time></trkpt><trkpt lat="58.324365" lon="38.86449"><ele>116.9</ele><time>2026-05-02T12:05:46Z</time></trkpt><trkpt lat="58.324325" lon="38.864605"><ele>116.5</ele><time>2026-05-02T12:05:53Z</time></trkpt><trkpt lat="58.324285" lon="38.864605"><ele>114.2</ele><time>2026-05-02T12:06:00Z</time></trkpt><trkpt lat="58.32427" lon="38.864565"><ele>116.0</ele><time>2026-05-02T12:06:07Z</time></trkpt><trkpt lat="58.32428" lon="38.86457"><ele>115.2</ele><time>2026-05-02T12:06:14Z</time></trkpt><trkpt lat="58.324275" lon="38.86457"><ele>115.2</ele><time>2026-05-02T12:06:20Z</time></trkpt><trkpt lat="58.324285" lon="38.86453"><ele>119.7</ele><time>2026-05-02T12:06:33Z</time></trkpt><trkpt lat="58.324285" lon="38.86455"><ele>119.8</ele><time>2026-05-02T12:06:39Z</time></trkpt><trkpt lat="58.324295" lon="38.864555"><ele>120.8</ele><time>2026-05-02T12:06:49Z</time></trkpt><trkpt lat="58.32431" lon="38.864545"><ele>121.0</ele><time>2026-05-02T12:06:55Z</time></trkpt><trkpt lat="58.324315" lon="38.86456"><ele>120.7</ele><time>2026-05-02T12:07:04Z</time></trkpt><trkpt lat="58.324315" lon="38.86456"><ele>120.7</ele><time>2026-05-02T12:07:05Z</time></trkpt><trkpt lat="58.324295" lon="38.864555"><ele>120.4</ele><time>2026-05-02T12:07:22Z</time></trkpt><trkpt lat="58.324295" lon="38.86456"><ele>120.2</ele><time>2026-05-02T12:07:28Z</time></trkpt><trkpt lat="58.324295" lon="38.864545"><ele>121.3</ele><time>2026-05-02T12:07:58Z</time></trkpt><trkpt lat="58.324295" lon="38.864545"><ele>121.3</ele><time>2026-05-02T12:07:59Z</time></trkpt><trkpt lat="58.324325" lon="38.86454"><ele>123.3</ele><time>2026-05-02T12:08:18Z</time></trkpt><trkpt lat="58.32433" lon="38.86454"><ele>123.1</ele><time>2026-05-02T12:08:19Z</time></trkpt><trkpt lat="58.324325" lon="38.86454"><ele>122.3</ele><time>2026-05-02T12:08:28Z</time></trkpt><trkpt lat="58.324325" lon="38.86454"><ele>122.3</ele><time>2026-05-02T12:08:29Z</time></trkpt><trkpt lat="58.324325" lon="38.86455"><ele>122.3</ele><time>2026-05-02T12:09:07Z</time></trkpt><trkpt lat="58.324325" lon="38.86455"><ele>122.3</ele><time>2026-05-02T12:09:08Z</time></trkpt><trkpt lat="58.324345" lon="38.864595"><ele>122.2</ele><time>2026-05-02T12:09:25Z</time></trkpt><trkpt lat="58.32435" lon="38.8646"><ele>122.2</ele><time>2026-05-02T12:09:32Z</time></trkpt><trkpt lat="58.324335" lon="38.86464"><ele>120.9</ele><time>2026-05-02T12:09:58Z</time></trkpt><trkpt lat="58.324285" lon="38.86464"><ele>120.4</ele><time>2026-05-02T12:10:05Z</time></trkpt><trkpt lat="58.324285" lon="38.86464"><ele>120.7</ele><time>2026-05-02T12:10:12Z</time></trkpt><trkpt lat="58.324265" lon="38.86463"><ele>120.0</ele><time>2026-05-02T12:10:25Z</time></trkpt><trkpt lat="58.324212" lon="38.86469"><ele>119.1</ele><time>2026-05-02T12:10:32Z</time></trkpt><trkpt lat="58.324195" lon="38.864695"><ele>118.6</ele><time>2026-05-02T12:10:40Z</time></trkpt><trkpt lat="58.324195" lon="38.8647"><ele>118.6</ele><time>2026-05-02T12:10:42Z</time></trkpt><trkpt lat="58.32417" lon="38.864745"><ele>118.8</ele><time>2026-05-02T12:10:50Z</time></trkpt><trkpt lat="58.32419" lon="38.86474"><ele>118.6</ele><time>2026-05-02T12:10:58Z</time></trkpt><trkpt lat="58.32419" lon="38.86474"><ele>118.6</ele><time>2026-05-02T12:11:00Z</time></trkpt><trkpt lat="58.324255" lon="38.864745"><ele>118.0</ele><time>2026-05-02T12:11:13Z</time></trkpt><trkpt lat="58.32431" lon="38.86466"><ele>122.7</ele><time>2026-05-02T12:11:20Z</time></trkpt><trkpt lat="58.32433" lon="38.864625"><ele>122.4</ele><time>2026-05-02T12:11:27Z</time></trkpt><trkpt lat="58.32433" lon="38.86462"><ele>123.4</ele><time>2026-05-02T12:11:30Z</time></trkpt><trkpt lat="58.324335" lon="38.864605"><ele>121.6</ele><time>2026-05-02T12:11:49Z</time></trkpt><trkpt lat="58.32433" lon="38.864605"><ele>121.6</ele><time>2026-05-02T12:11:50Z</time></trkpt><trkpt lat="58.324295" lon="38.86456"><ele>120.2</ele><time>2026-05-02T12:11:58Z</time></trkpt><trkpt lat="58.324295" lon="38.86456"><ele>120.2</ele><time>2026-05-02T12:12:04Z</time></trkpt><trkpt lat="58.32431" lon="38.86457"><ele>120.9</ele><time>2026-05-02T12:13:13Z</time></trkpt><trkpt lat="58.32431" lon="38.86457"><ele>120.9</ele><time>2026-05-02T12:13:15Z</time></trkpt><trkpt lat="58.324315" lon="38.86457"><ele>121.4</ele><time>2026-05-02T12:13:24Z</time></trkpt><trkpt lat="58.324315" lon="38.86457"><ele>121.0</ele><time>2026-05-02T12:13:25Z</time></trkpt><trkpt lat="58.324315" lon="38.864585"><ele>121.4</ele><time>2026-05-02T12:13:37Z</time></trkpt><trkpt lat="58.324315" lon="38.864572"><ele>120.9</ele><time>2026-05-02T12:13:38Z</time></trkpt><trkpt lat="58.324295" lon="38.864565"><ele>120.2</ele><time>2026-05-02T12:13:46Z</time></trkpt><trkpt lat="58.324295" lon="38.864565"><ele>120.2</ele><time>2026-05-02T12:13:47Z</time></trkpt><trkpt lat="58.324295" lon="38.8646"><ele>122.0</ele><time>2026-05-02T12:14:40Z</time></trkpt><trkpt lat="58.324295" lon="38.8646"><ele>122.0</ele><time>2026-05-02T12:14:41Z</time></trkpt><trkpt lat="58.324285" lon="38.86466"><ele>121.5</ele><time>2026-05-02T12:16:09Z</time></trkpt><trkpt lat="58.32428" lon="38.864695"><ele>121.1</ele><time>2026-05-02T12:16:16Z</time></trkpt><trkpt lat="58.32424" lon="38.864675"><ele>119.7</ele><time>2026-05-02T12:16:23Z</time></trkpt><trkpt lat="58.32423" lon="38.86466"><ele>119.9</ele><time>2026-05-02T12:16:30Z</time></trkpt><trkpt lat="58.324213" lon="38.86468"><ele>118.7</ele><time>2026-05-02T12:17:15Z</time></trkpt><trkpt lat="58.324185" lon="38.864705"><ele>118.9</ele><time>2026-05-02T12:17:22Z</time></trkpt><trkpt lat="58.32414" lon="38.864715"><ele>120.1</ele><time>2026-05-02T12:17:29Z</time></trkpt><trkpt lat="58.324142" lon="38.864715"><ele>119.8</ele><time>2026-05-02T12:17:33Z</time></trkpt><trkpt lat="58.32416" lon="38.864725"><ele>119.5</ele><time>2026-05-02T12:17:41Z</time></trkpt><trkpt lat="58.32416" lon="38.864725"><ele>119.5</ele><time>2026-05-02T12:17:42Z</time></trkpt><trkpt lat="58.32418" lon="38.86475"><ele>118.8</ele><time>2026-05-02T12:17:57Z</time></trkpt><trkpt lat="58.3242" lon="38.86477"><ele>118.8</ele><time>2026-05-02T12:18:04Z</time></trkpt><trkpt lat="58.3242" lon="38.864765"><ele>118.7</ele><time>2026-05-02T12:18:11Z</time></trkpt><trkpt lat="58.32419" lon="38.86475"><ele>118.4</ele><time>2026-05-02T12:18:56Z</time></trkpt><trkpt lat="58.32419" lon="38.86475"><ele>118.4</ele><time>2026-05-02T12:18:57Z</time></trkpt><trkpt lat="58.32418" lon="38.86474"><ele>118.7</ele><time>2026-05-02T12:19:19Z</time></trkpt><trkpt lat="58.32418" lon="38.86473"><ele>119.4</ele><time>2026-05-02T12:19:20Z</time></trkpt><trkpt lat="58.32416" lon="38.864725"><ele>120.4</ele><time>2026-05-02T12:19:29Z</time></trkpt><trkpt lat="58.32416" lon="38.864725"><ele>120.4</ele><time>2026-05-02T12:19:30Z</time></trkpt><trkpt lat="58.32421" lon="38.864715"><ele>118.3</ele><time>2026-05-02T12:20:04Z</time></trkpt><trkpt lat="58.324212" lon="38.86473"><ele>118.3</ele><time>2026-05-02T12:20:11Z</time></trkpt><trkpt lat="58.324212" lon="38.86473"><ele>118.3</ele><time>2026-05-02T12:20:12Z</time></trkpt><trkpt lat="58.32426" lon="38.86468"><ele>117.4</ele><time>2026-05-02T12:20:38Z</time></trkpt><trkpt lat="58.324265" lon="38.86469"><ele>118.5</ele><time>2026-05-02T12:20:45Z</time></trkpt><trkpt lat="58.324265" lon="38.86469"><ele>118.5</ele><time>2026-05-02T12:20:47Z</time></trkpt><trkpt lat="58.324295" lon="38.864655"><ele>117.6</ele><time>2026-05-02T12:22:20Z</time></trkpt><trkpt lat="58.324295" lon="38.864655"><ele>117.5</ele><time>2026-05-02T12:22:25Z</time></trkpt><trkpt lat="58.32436" lon="38.86455"><ele>117.0</ele><time>2026-05-02T12:22:47Z</time></trkpt><trkpt lat="58.324365" lon="38.864515"><ele>116.2</ele><time>2026-05-02T12:22:54Z</time></trkpt><trkpt lat="58.324365" lon="38.864515"><ele>116.2</ele><time>2026-05-02T12:22:56Z</time></trkpt><trkpt lat="58.32436" lon="38.86443"><ele>114.3</ele><time>2026-05-02T12:23:44Z</time></trkpt><trkpt lat="58.324355" lon="38.864435"><ele>114.2</ele><time>2026-05-02T12:23:49Z</time></trkpt><trkpt lat="58.324335" lon="38.864415"><ele>113.2</ele><time>2026-05-02T12:30:57Z</time></trkpt><trkpt lat="58.324335" lon="38.864415"><ele>113.2</ele><time>2026-05-02T12:30:59Z</time></trkpt><trkpt lat="58.324335" lon="38.864435"><ele>112.5</ele><time>2026-05-02T12:31:09Z</time></trkpt><trkpt lat="58.324335" lon="38.864435"><ele>112.5</ele><time>2026-05-02T12:31:10Z</time></trkpt><trkpt lat="58.324345" lon="38.864435"><ele>113.1</ele><time>2026-05-02T12:32:03Z</time></trkpt><trkpt lat="58.324345" lon="38.86443"><ele>113.1</ele><time>2026-05-02T12:32:05Z</time></trkpt><trkpt lat="58.32434" lon="38.864435"><ele>113.8</ele><time>2026-05-02T12:32:45Z</time></trkpt><trkpt lat="58.32434" lon="38.864435"><ele>113.8</ele><time>2026-05-02T12:32:46Z</time></trkpt><trkpt lat="58.32435" lon="38.864445"><ele>114.4</ele><time>2026-05-02T12:33:11Z</time></trkpt><trkpt lat="58.32435" lon="38.864445"><ele>114.4</ele><time>2026-05-02T12:33:12Z</time></trkpt><trkpt lat="58.324345" lon="38.864417"><ele>115.3</ele><time>2026-05-02T12:33:24Z</time></trkpt><trkpt lat="58.32435" lon="38.864415"><ele>115.3</ele><time>2026-05-02T12:33:29Z</time></trkpt><trkpt lat="58.324335" lon="38.864395"><ele>116.0</ele><time>2026-05-02T12:33:52Z</time></trkpt><trkpt lat="58.324335" lon="38.864395"><ele>116.0</ele><time>2026-05-02T12:33:53Z</time></trkpt><trkpt lat="58.32431" lon="38.86439"><ele>115.9</ele><time>2026-05-02T12:34:05Z</time></trkpt><trkpt lat="58.32431" lon="38.864395"><ele>115.9</ele><time>2026-05-02T12:34:09Z</time></trkpt><trkpt lat="58.32431" lon="38.864385"><ele>115.7</ele><time>2026-05-02T12:34:28Z</time></trkpt><trkpt lat="58.32431" lon="38.864385"><ele>115.7</ele><time>2026-05-02T12:34:29Z</time></trkpt><trkpt lat="58.324335" lon="38.864415"><ele>114.8</ele><time>2026-05-02T12:34:50Z</time></trkpt><trkpt lat="58.324335" lon="38.864415"><ele>114.8</ele><time>2026-05-02T12:34:55Z</time></trkpt><trkpt lat="58.324325" lon="38.864515"><ele>117.0</ele><time>2026-05-02T12:36:15Z</time></trkpt><trkpt lat="58.324325" lon="38.86455"><ele>117.4</ele><time>2026-05-02T12:36:22Z</time></trkpt><trkpt lat="58.324325" lon="38.86455"><ele>117.4</ele><time>2026-05-02T12:36:24Z</time></trkpt><trkpt lat="58.32438" lon="38.86449"><ele>116.7</ele><time>2026-05-02T12:36:49Z</time></trkpt><trkpt lat="58.32438" lon="38.864485"><ele>116.7</ele><time>2026-05-02T12:36:55Z</time></trkpt><trkpt lat="58.324385" lon="38.86449"><ele>116.9</ele><time>2026-05-02T12:38:35Z</time></trkpt><trkpt lat="58.324385" lon="38.86449"><ele>116.9</ele><time>2026-05-02T12:38:36Z</time></trkpt><trkpt lat="58.324385" lon="38.86452"><ele>117.1</ele><time>2026-05-02T12:38:54Z</time></trkpt><trkpt lat="58.32438" lon="38.864525"><ele>117.4</ele><time>2026-05-02T12:38:55Z</time></trkpt><trkpt lat="58.324355" lon="38.864565"><ele>117.2</ele><time>2026-05-02T12:39:02Z</time></trkpt><trkpt lat="58.32432" lon="38.86456"><ele>116.6</ele><time>2026-05-02T12:39:09Z</time></trkpt><trkpt lat="58.32432" lon="38.864535"><ele>116.8</ele><time>2026-05-02T12:39:16Z</time></trkpt><trkpt lat="58.32432" lon="38.864535"><ele>116.8</ele><time>2026-05-02T12:39:21Z</time></trkpt><trkpt lat="58.32433" lon="38.864555"><ele>116.6</ele><time>2026-05-02T12:40:09Z</time></trkpt><trkpt lat="58.324325" lon="38.86455"><ele>116.4</ele><time>2026-05-02T12:40:10Z</time></trkpt><trkpt lat="58.324355" lon="38.864555"><ele>117.4</ele><time>2026-05-02T12:40:17Z</time></trkpt><trkpt lat="58.324368" lon="38.864475"><ele>117.0</ele><time>2026-05-02T12:40:24Z</time></trkpt><trkpt lat="58.324365" lon="38.864475"><ele>117.0</ele><time>2026-05-02T12:40:30Z</time></trkpt><trkpt lat="58.324365" lon="38.86445"><ele>118.3</ele><time>2026-05-02T12:41:12Z</time></trkpt><trkpt lat="58.324365" lon="38.86445"><ele>118.3</ele><time>2026-05-02T12:41:13Z</time></trkpt><trkpt lat="58.324365" lon="38.86443"><ele>119.0</ele><time>2026-05-02T12:42:13Z</time></trkpt><trkpt lat="58.324365" lon="38.86443"><ele>119.0</ele><time>2026-05-02T12:42:14Z</time></trkpt><trkpt lat="58.324365" lon="38.86445"><ele>118.8</ele><time>2026-05-02T12:42:53Z</time></trkpt><trkpt lat="58.324365" lon="38.864455"><ele>118.8</ele><time>2026-05-02T12:42:54Z</time></trkpt><trkpt lat="58.32434" lon="38.864505"><ele>119.2</ele><time>2026-05-02T12:43:12Z</time></trkpt><trkpt lat="58.324325" lon="38.86454"><ele>118.3</ele><time>2026-05-02T12:43:19Z</time></trkpt><trkpt lat="58.324325" lon="38.864535"><ele>118.3</ele><time>2026-05-02T12:43:23Z</time></trkpt><trkpt lat="58.32432" lon="38.864505"><ele>118.0</ele><time>2026-05-02T12:43:33Z</time></trkpt><trkpt lat="58.32432" lon="38.864505"><ele>118.0</ele><time>2026-05-02T12:43:34Z</time></trkpt><trkpt lat="58.324295" lon="38.864545"><ele>118.5</ele><time>2026-05-02T12:43:47Z</time></trkpt><trkpt lat="58.324297" lon="38.864555"><ele>117.4</ele><time>2026-05-02T12:43:49Z</time></trkpt><trkpt lat="58.32432" lon="38.864525"><ele>118.1</ele><time>2026-05-02T12:44:08Z</time></trkpt><trkpt lat="58.32432" lon="38.864535"><ele>120.4</ele><time>2026-05-02T12:44:15Z</time></trkpt><trkpt lat="58.32432" lon="38.86456"><ele>118.4</ele><time>2026-05-02T12:44:35Z</time></trkpt><trkpt lat="58.32432" lon="38.86456"><ele>117.7</ele><time>2026-05-02T12:44:36Z</time></trkpt><trkpt lat="58.32432" lon="38.86455"><ele>117.7</ele><time>2026-05-02T12:44:49Z</time></trkpt><trkpt lat="58.32432" lon="38.864555"><ele>117.7</ele><time>2026-05-02T12:44:50Z</time></trkpt><trkpt lat="58.32433" lon="38.86456"><ele>117.7</ele><time>2026-05-02T12:45:01Z</time></trkpt><trkpt lat="58.32433" lon="38.86456"><ele>117.8</ele><time>2026-05-02T12:45:02Z</time></trkpt><trkpt lat="58.32431" lon="38.86456"><ele>118.3</ele><time>2026-05-02T12:45:21Z</time></trkpt><trkpt lat="58.324315" lon="38.86456"><ele>118.5</ele><time>2026-05-02T12:45:22Z</time></trkpt><trkpt lat="58.324325" lon="38.86457"><ele>118.0</ele><time>2026-05-02T12:46:28Z</time></trkpt><trkpt lat="58.324325" lon="38.86457"><ele>118.0</ele><time>2026-05-02T12:46:29Z</time></trkpt><trkpt lat="58.324335" lon="38.86457"><ele>118.5</ele><time>2026-05-02T12:46:54Z</time></trkpt><trkpt lat="58.324335" lon="38.86457"><ele>118.6</ele><time>2026-05-02T12:46:55Z</time></trkpt><trkpt lat="58.324335" lon="38.864545"><ele>120.3</ele><time>2026-05-02T12:47:04Z</time></trkpt><trkpt lat="58.324335" lon="38.86454"><ele>120.6</ele><time>2026-05-02T12:47:06Z</time></trkpt><trkpt lat="58.32433" lon="38.864535"><ele>118.7</ele><time>2026-05-02T12:47:16Z</time></trkpt><trkpt lat="58.32432" lon="38.86457"><ele>116.4</ele><time>2026-05-02T12:47:23Z</time></trkpt><trkpt lat="58.32433" lon="38.86457"><ele>115.7</ele><time>2026-05-02T12:47:28Z</time></trkpt><trkpt lat="58.32432" lon="38.864545"><ele>115.5</ele><time>2026-05-02T12:47:36Z</time></trkpt><trkpt lat="58.32432" lon="38.86455"><ele>115.8</ele><time>2026-05-02T12:47:37Z</time></trkpt><trkpt lat="58.324285" lon="38.86456"><ele>118.3</ele><time>2026-05-02T12:47:50Z</time></trkpt><trkpt lat="58.324295" lon="38.8646"><ele>121.6</ele><time>2026-05-02T12:47:57Z</time></trkpt><trkpt lat="58.32432" lon="38.864605"><ele>122.1</ele><time>2026-05-02T12:48:04Z</time></trkpt><trkpt lat="58.32432" lon="38.864605"><ele>122.1</ele><time>2026-05-02T12:48:08Z</time></trkpt><trkpt lat="58.32432" lon="38.864605"><ele>121.9</ele><time>2026-05-02T12:48:44Z</time></trkpt><trkpt lat="58.32432" lon="38.864605"><ele>121.9</ele><time>2026-05-02T12:48:46Z</time></trkpt><trkpt lat="58.324315" lon="38.864595"><ele>120.5</ele><time>2026-05-02T12:49:34Z</time></trkpt><trkpt lat="58.324315" lon="38.864595"><ele>120.5</ele><time>2026-05-02T12:49:35Z</time></trkpt><trkpt lat="58.324295" lon="38.864535"><ele>120.8</ele><time>2026-05-02T12:50:24Z</time></trkpt><trkpt lat="58.324295" lon="38.864535"><ele>120.8</ele><time>2026-05-02T12:50:28Z</time></trkpt><trkpt lat="58.324298" lon="38.864545"><ele>121.5</ele><time>2026-05-02T12:50:57Z</time></trkpt><trkpt lat="58.324298" lon="38.864545"><ele>121.5</ele><time>2026-05-02T12:50:58Z</time></trkpt><trkpt lat="58.32431" lon="38.86456"><ele>121.1</ele><time>2026-05-02T12:51:06Z</time></trkpt><trkpt lat="58.32431" lon="38.86456"><ele>121.1</ele><time>2026-05-02T12:51:07Z</time></trkpt><trkpt lat="58.324315" lon="38.864572"><ele>120.1</ele><time>2026-05-02T12:51:18Z</time></trkpt><trkpt lat="58.324315" lon="38.864572"><ele>120.1</ele><time>2026-05-02T12:51:19Z</time></trkpt><trkpt lat="58.324295" lon="38.864595"><ele>121.3</ele><time>2026-05-02T12:51:51Z</time></trkpt><trkpt lat="58.324295" lon="38.864595"><ele>121.3</ele><time>2026-05-02T12:51:53Z</time></trkpt><trkpt lat="58.324295" lon="38.86459"><ele>120.9</ele><time>2026-05-02T12:52:11Z</time></trkpt><trkpt lat="58.324315" lon="38.864595"><ele>120.8</ele><time>2026-05-02T12:52:18Z</time></trkpt><trkpt lat="58.324345" lon="38.864595"><ele>121.0</ele><time>2026-05-02T12:52:25Z</time></trkpt><trkpt lat="58.324335" lon="38.864605"><ele>120.5</ele><time>2026-05-02T12:52:30Z</time></trkpt><trkpt lat="58.324345" lon="38.86461"><ele>120.5</ele><time>2026-05-02T12:52:38Z</time></trkpt><trkpt lat="58.324345" lon="38.86461"><ele>120.5</ele><time>2026-05-02T12:52:39Z</time></trkpt><trkpt lat="58.32434" lon="38.8646"><ele>120.3</ele><time>2026-05-02T12:56:27Z</time></trkpt><trkpt lat="58.32434" lon="38.8646"><ele>120.3</ele><time>2026-05-02T12:56:28Z</time></trkpt><trkpt lat="58.324335" lon="38.864605"><ele>120.7</ele><time>2026-05-02T12:59:56Z</time></trkpt><trkpt lat="58.324335" lon="38.864605"><ele>120.7</ele><time>2026-05-02T12:59:57Z</time></trkpt><trkpt lat="58.32434" lon="38.86463"><ele>121.8</ele><time>2026-05-02T13:02:04Z</time></trkpt><trkpt lat="58.32434" lon="38.86463"><ele>121.8</ele><time>2026-05-02T13:02:05Z</time></trkpt><trkpt lat="58.32435" lon="38.86462"><ele>120.4</ele><time>2026-05-02T13:03:07Z</time></trkpt><trkpt lat="58.32435" lon="38.86462"><ele>120.4</ele><time>2026-05-02T13:03:09Z</time></trkpt><trkpt lat="58.324345" lon="38.864585"><ele>120.8</ele><time>2026-05-02T13:08:18Z</time></trkpt><trkpt lat="58.324345" lon="38.864585"><ele>120.7</ele><time>2026-05-02T13:08:20Z</time></trkpt><trkpt lat="58.32434" lon="38.864555"><ele>121.0</ele><time>2026-05-02T13:08:27Z</time></trkpt><trkpt lat="58.32434" lon="38.86455"><ele>121.0</ele><time>2026-05-02T13:08:29Z</time></trkpt><trkpt lat="58.32434" lon="38.864565"><ele>120.5</ele><time>2026-05-02T13:09:13Z</time></trkpt><trkpt lat="58.32434" lon="38.864565"><ele>120.5</ele><time>2026-05-02T13:09:14Z</time></trkpt><trkpt lat="58.324335" lon="38.86456"><ele>120.3</ele><time>2026-05-02T13:10:01Z</time></trkpt><trkpt lat="58.324335" lon="38.86456"><ele>120.3</ele><time>2026-05-02T13:10:02Z</time></trkpt><trkpt lat="58.32432" lon="38.86455"><ele>120.6</ele><time>2026-05-02T13:10:38Z</time></trkpt><trkpt lat="58.32432" lon="38.86455"><ele>120.6</ele><time>2026-05-02T13:10:39Z</time></trkpt><trkpt lat="58.324315" lon="38.864545"><ele>120.3</ele><time>2026-05-02T13:12:53Z</time></trkpt><trkpt lat="58.324315" lon="38.864545"><ele>120.3</ele><time>2026-05-02T13:12:54Z</time></trkpt><trkpt lat="58.324325" lon="38.86455"><ele>116.9</ele><time>2026-05-02T13:14:03Z</time></trkpt><trkpt lat="58.324325" lon="38.86455"><ele>116.9</ele><time>2026-05-02T13:14:04Z</time></trkpt><trkpt lat="58.32432" lon="38.86457"><ele>116.1</ele><time>2026-05-02T13:14:49Z</time></trkpt><trkpt lat="58.32432" lon="38.86457"><ele>116.1</ele><time>2026-05-02T13:14:52Z</time></trkpt><trkpt lat="58.324325" lon="38.864605"><ele>114.4</ele><time>2026-05-02T13:15:14Z</time></trkpt><trkpt lat="58.32432" lon="38.864605"><ele>114.5</ele><time>2026-05-02T13:15:19Z</time></trkpt><trkpt lat="58.32432" lon="38.864585"><ele>115.8</ele><time>2026-05-02T13:15:40Z</time></trkpt><trkpt lat="58.32432" lon="38.864585"><ele>115.8</ele><time>2026-05-02T13:15:42Z</time></trkpt><trkpt lat="58.324325" lon="38.864545"><ele>117.4</ele><time>2026-05-02T13:15:57Z</time></trkpt><trkpt lat="58.324325" lon="38.864545"><ele>117.4</ele><time>2026-05-02T13:15:59Z</time></trkpt><trkpt lat="58.32432" lon="38.864535"><ele>116.8</ele><time>2026-05-02T13:16:18Z</time></trkpt><trkpt lat="58.32432" lon="38.86453"><ele>116.8</ele><time>2026-05-02T13:16:20Z</time></trkpt><trkpt lat="58.32431" lon="38.86452"><ele>116.7</ele><time>2026-05-02T13:18:53Z</time></trkpt><trkpt lat="58.32431" lon="38.86452"><ele>116.6</ele><time>2026-05-02T13:18:54Z</time></trkpt><trkpt lat="58.324298" lon="38.86452"><ele>115.9</ele><time>2026-05-02T13:22:36Z</time></trkpt><trkpt lat="58.324298" lon="38.86452"><ele>115.9</ele><time>2026-05-02T13:22:37Z</time></trkpt><trkpt lat="58.324295" lon="38.864505"><ele>115.9</ele><time>2026-05-02T13:25:34Z</time></trkpt><trkpt lat="58.324295" lon="38.864505"><ele>115.9</ele><time>2026-05-02T13:25:35Z</time></trkpt><trkpt lat="58.324298" lon="38.8645"><ele>115.3</ele><time>2026-05-02T13:29:28Z</time></trkpt><trkpt lat="58.324298" lon="38.8645"><ele>115.3</ele><time>2026-05-02T13:29:29Z</time></trkpt><trkpt lat="58.324295" lon="38.86449"><ele>115.6</ele><time>2026-05-02T13:33:50Z</time></trkpt><trkpt lat="58.324295" lon="38.86449"><ele>115.6</ele><time>2026-05-02T13:33:51Z</time></trkpt><trkpt lat="58.324295" lon="38.864475"><ele>115.7</ele><time>2026-05-02T13:34:30Z</time></trkpt><trkpt lat="58.324295" lon="38.864475"><ele>115.7</ele><time>2026-05-02T13:34:31Z</time></trkpt><trkpt lat="58.324295" lon="38.864485"><ele>115.7</ele><time>2026-05-02T13:37:08Z</time></trkpt><trkpt lat="58.324295" lon="38.864485"><ele>115.7</ele><time>2026-05-02T13:37:09Z</time></trkpt><trkpt lat="58.324297" lon="38.86449"><ele>115.4</ele><time>2026-05-02T13:38:11Z</time></trkpt><trkpt lat="58.324297" lon="38.86449"><ele>115.4</ele><time>2026-05-02T13:38:12Z</time></trkpt><trkpt lat="58.32432" lon="38.86452"><ele>116.9</ele><time>2026-05-02T13:38:31Z</time></trkpt><trkpt lat="58.32432" lon="38.86452"><ele>117.0</ele><time>2026-05-02T13:38:32Z</time></trkpt><trkpt lat="58.32431" lon="38.8645"><ele>117.4</ele><time>2026-05-02T13:39:28Z</time></trkpt><trkpt lat="58.324298" lon="38.8645"><ele>117.0</ele><time>2026-05-02T13:39:29Z</time></trkpt><trkpt lat="58.324295" lon="38.8645"><ele>116.8</ele><time>2026-05-02T13:39:37Z</time></trkpt><trkpt lat="58.324295" lon="38.8645"><ele>116.8</ele><time>2026-05-02T13:39:38Z</time></trkpt><trkpt lat="58.324295" lon="38.864515"><ele>116.3</ele><time>2026-05-02T13:39:51Z</time></trkpt><trkpt lat="58.324295" lon="38.86453"><ele>116.2</ele><time>2026-05-02T13:39:58Z</time></trkpt><trkpt lat="58.324295" lon="38.86453"><ele>116.2</ele><time>2026-05-02T13:39:59Z</time></trkpt><trkpt lat="58.32428" lon="38.86455"><ele>115.4</ele><time>2026-05-02T13:40:16Z</time></trkpt><trkpt lat="58.324275" lon="38.864555"><ele>116.3</ele><time>2026-05-02T13:40:17Z</time></trkpt><trkpt lat="58.32427" lon="38.864555"><ele>116.6</ele><time>2026-05-02T13:40:25Z</time></trkpt><trkpt lat="58.32427" lon="38.864555"><ele>116.6</ele><time>2026-05-02T13:40:26Z</time></trkpt><trkpt lat="58.32428" lon="38.86453"><ele>117.6</ele><time>2026-05-02T13:40:39Z</time></trkpt><trkpt lat="58.32428" lon="38.86453"><ele>117.6</ele><time>2026-05-02T13:40:40Z</time></trkpt><trkpt lat="58.32428" lon="38.864545"><ele>118.3</ele><time>2026-05-02T13:40:51Z</time></trkpt><trkpt lat="58.324285" lon="38.86454"><ele>118.2</ele><time>2026-05-02T13:40:52Z</time></trkpt><trkpt lat="58.324285" lon="38.864525"><ele>118.3</ele><time>2026-05-02T13:41:07Z</time></trkpt><trkpt lat="58.324285" lon="38.864525"><ele>118.3</ele><time>2026-05-02T13:41:08Z</time></trkpt><trkpt lat="58.324275" lon="38.86449"><ele>119.1</ele><time>2026-05-02T13:41:18Z</time></trkpt><trkpt lat="58.32427" lon="38.86449"><ele>118.4</ele><time>2026-05-02T13:41:25Z</time></trkpt><trkpt lat="58.32427" lon="38.86449"><ele>118.4</ele><time>2026-05-02T13:41:26Z</time></trkpt><trkpt lat="58.324275" lon="38.8645"><ele>119.6</ele><time>2026-05-02T13:41:50Z</time></trkpt><trkpt lat="58.324285" lon="38.864505"><ele>119.3</ele><time>2026-05-02T13:41:54Z</time></trkpt><trkpt lat="58.324295" lon="38.86453"><ele>118.8</ele><time>2026-05-02T13:42:04Z</time></trkpt><trkpt lat="58.32432" lon="38.864535"><ele>118.1</ele><time>2026-05-02T13:42:11Z</time></trkpt><trkpt lat="58.32432" lon="38.864535"><ele>118.0</ele><time>2026-05-02T13:42:14Z</time></trkpt><trkpt lat="58.324335" lon="38.864455"><ele>117.3</ele><time>2026-05-02T13:42:37Z</time></trkpt><trkpt lat="58.324345" lon="38.86435"><ele>117.0</ele><time>2026-05-02T13:42:44Z</time></trkpt><trkpt lat="58.324345" lon="38.86435"><ele>116.5</ele><time>2026-05-02T13:42:50Z</time></trkpt><trkpt lat="58.32435" lon="38.86434"><ele>116.2</ele><time>2026-05-02T13:43:17Z</time></trkpt><trkpt lat="58.32435" lon="38.86434"><ele>116.2</ele><time>2026-05-02T13:43:18Z</time></trkpt><trkpt lat="58.324355" lon="38.86435"><ele>115.5</ele><time>2026-05-02T13:44:03Z</time></trkpt><trkpt lat="58.324355" lon="38.86435"><ele>115.5</ele><time>2026-05-02T13:44:04Z</time></trkpt><trkpt lat="58.32436" lon="38.86436"><ele>115.7</ele><time>2026-05-02T13:44:14Z</time></trkpt><trkpt lat="58.32436" lon="38.86436"><ele>115.7</ele><time>2026-05-02T13:44:15Z</time></trkpt><trkpt lat="58.32436" lon="38.86438"><ele>116.4</ele><time>2026-05-02T13:44:27Z</time></trkpt><trkpt lat="58.32436" lon="38.86438"><ele>116.4</ele><time>2026-05-02T13:44:28Z</time></trkpt><trkpt lat="58.324365" lon="38.86438"><ele>116.5</ele><time>2026-05-02T13:44:51Z</time></trkpt><trkpt lat="58.32436" lon="38.864375"><ele>115.6</ele><time>2026-05-02T13:44:52Z</time></trkpt><trkpt lat="58.32434" lon="38.864475"><ele>115.0</ele><time>2026-05-02T13:45:00Z</time></trkpt><trkpt lat="58.324315" lon="38.864525"><ele>115.0</ele><time>2026-05-02T13:45:07Z</time></trkpt><trkpt lat="58.324315" lon="38.86452"><ele>115.0</ele><time>2026-05-02T13:45:12Z</time></trkpt><trkpt lat="58.324335" lon="38.86449"><ele>110.9</ele><time>2026-05-02T13:46:03Z</time></trkpt><trkpt lat="58.32436" lon="38.86441"><ele>112.5</ele><time>2026-05-02T13:46:10Z</time></trkpt><trkpt lat="58.324365" lon="38.864405"><ele>112.4</ele><time>2026-05-02T13:46:17Z</time></trkpt><trkpt lat="58.324345" lon="38.864375"><ele>112.9</ele><time>2026-05-02T13:46:31Z</time></trkpt><trkpt lat="58.32434" lon="38.86435"><ele>112.4</ele><time>2026-05-02T13:46:35Z</time></trkpt><trkpt lat="58.32436" lon="38.864385"><ele>112.1</ele><time>2026-05-02T13:46:56Z</time></trkpt><trkpt lat="58.32436" lon="38.864385"><ele>112.1</ele><time>2026-05-02T13:46:59Z</time></trkpt><trkpt lat="58.324365" lon="38.86439"><ele>112.5</ele><time>2026-05-02T13:47:08Z</time></trkpt><trkpt lat="58.324365" lon="38.864385"><ele>112.4</ele><time>2026-05-02T13:47:09Z</time></trkpt><trkpt lat="58.324365" lon="38.86437"><ele>112.3</ele><time>2026-05-02T13:47:17Z</time></trkpt><trkpt lat="58.324365" lon="38.86438"><ele>112.7</ele><time>2026-05-02T13:47:18Z</time></trkpt><trkpt lat="58.324355" lon="38.864335"><ele>111.6</ele><time>2026-05-02T13:47:32Z</time></trkpt><trkpt lat="58.324355" lon="38.864335"><ele>110.7</ele><time>2026-05-02T13:47:34Z</time></trkpt><trkpt lat="58.324355" lon="38.864305"><ele>111.5</ele><time>2026-05-02T13:48:09Z</time></trkpt><trkpt lat="58.324355" lon="38.8643"><ele>111.5</ele><time>2026-05-02T13:48:10Z</time></trkpt><trkpt lat="58.32436" lon="38.86435"><ele>112.0</ele><time>2026-05-02T13:48:48Z</time></trkpt><trkpt lat="58.32436" lon="38.86436"><ele>112.6</ele><time>2026-05-02T13:48:54Z</time></trkpt><trkpt lat="58.324367" lon="38.8644"><ele>112.7</ele><time>2026-05-02T13:49:02Z</time></trkpt><trkpt lat="58.324365" lon="38.8644"><ele>112.7</ele><time>2026-05-02T13:49:03Z</time></trkpt><trkpt lat="58.324435" lon="38.864445"><ele>114.7</ele><time>2026-05-02T13:50:46Z</time></trkpt><trkpt lat="58.32449" lon="38.86452"><ele>113.9</ele><time>2026-05-02T13:50:53Z</time></trkpt><trkpt lat="58.324555" lon="38.8646"><ele>114.4</ele><time>2026-05-02T13:50:59Z</time></trkpt><trkpt lat="58.32461" lon="38.864675"><ele>114.4</ele><time>2026-05-02T13:51:04Z</time></trkpt><trkpt lat="58.32461" lon="38.86469"><ele>112.5</ele><time>2026-05-02T13:51:11Z</time></trkpt><trkpt lat="58.324655" lon="38.864705"><ele>113.1</ele><time>2026-05-02T13:51:18Z</time></trkpt><trkpt lat="58.324695" lon="38.86476"><ele>112.9</ele><time>2026-05-02T13:51:25Z</time></trkpt><trkpt lat="58.324745" lon="38.864815"><ele>113.6</ele><time>2026-05-02T13:51:32Z</time></trkpt><trkpt lat="58.324785" lon="38.864865"><ele>112.6</ele><time>2026-05-02T13:51:39Z</time></trkpt><trkpt lat="58.32483" lon="38.86493"><ele>111.3</ele><time>2026-05-02T13:51:46Z</time></trkpt><trkpt lat="58.324875" lon="38.86498"><ele>110.3</ele><time>2026-05-02T13:51:53Z</time></trkpt><trkpt lat="58.32488" lon="38.86498"><ele>110.3</ele><time>2026-05-02T13:52:00Z</time></trkpt><trkpt lat="58.32488" lon="38.864985"><ele>110.5</ele><time>2026-05-02T13:52:01Z</time></trkpt><trkpt lat="58.32494" lon="38.86502"><ele>110.6</ele><time>2026-05-02T13:52:09Z</time></trkpt><trkpt lat="58.32499" lon="38.86506"><ele>111.3</ele><time>2026-05-02T13:52:16Z</time></trkpt><trkpt lat="58.325035" lon="38.865095"><ele>111.6</ele><time>2026-05-02T13:52:23Z</time></trkpt><trkpt lat="58.32507" lon="38.86513"><ele>110.5</ele><time>2026-05-02T13:52:30Z</time></trkpt><trkpt lat="58.32511" lon="38.86519"><ele>109.9</ele><time>2026-05-02T13:52:37Z</time></trkpt><trkpt lat="58.32515" lon="38.865225"><ele>110.1</ele><time>2026-05-02T13:52:44Z</time></trkpt><trkpt lat="58.32521" lon="38.865265"><ele>110.3</ele><time>2026-05-02T13:52:51Z</time></trkpt><trkpt lat="58.32526" lon="38.865325"><ele>110.5</ele><time>2026-05-02T13:52:58Z</time></trkpt><trkpt lat="58.32531" lon="38.86539"><ele>111.0</ele><time>2026-05-02T13:53:05Z</time></trkpt><trkpt lat="58.325365" lon="38.865435"><ele>111.3</ele><time>2026-05-02T13:53:12Z</time></trkpt><trkpt lat="58.32542" lon="38.86546"><ele>111.3</ele><time>2026-05-02T13:53:19Z</time></trkpt><trkpt lat="58.325495" lon="38.865505"><ele>112.1</ele><time>2026-05-02T13:53:26Z</time></trkpt><trkpt lat="58.32555" lon="38.865545"><ele>112.8</ele><time>2026-05-02T13:53:33Z</time></trkpt><trkpt lat="58.325595" lon="38.865585"><ele>111.8</ele><time>2026-05-02T13:53:40Z</time></trkpt><trkpt lat="58.325645" lon="38.865645"><ele>111.6</ele><time>2026-05-02T13:53:47Z</time></trkpt><trkpt lat="58.325695" lon="38.8657"><ele>112.4</ele><time>2026-05-02T13:53:54Z</time></trkpt><trkpt lat="58.32573" lon="38.86568"><ele>112.2</ele><time>2026-05-02T13:54:01Z</time></trkpt><trkpt lat="58.325775" lon="38.865725"><ele>109.6</ele><time>2026-05-02T13:54:08Z</time></trkpt><trkpt lat="58.32582" lon="38.86585"><ele>113.6</ele><time>2026-05-02T13:54:15Z</time></trkpt><trkpt lat="58.325785" lon="38.86595"><ele>112.8</ele><time>2026-05-02T13:54:22Z</time></trkpt><trkpt lat="58.325755" lon="38.866025"><ele>116.5</ele><time>2026-05-02T13:54:29Z</time></trkpt><trkpt lat="58.325755" lon="38.86604"><ele>115.6</ele><time>2026-05-02T13:54:35Z</time></trkpt><trkpt lat="58.32576" lon="38.866008"><ele>115.6</ele><time>2026-05-02T13:54:43Z</time></trkpt><trkpt lat="58.32576" lon="38.866008"><ele>115.8</ele><time>2026-05-02T13:54:44Z</time></trkpt><trkpt lat="58.325765" lon="38.865995"><ele>115.5</ele><time>2026-05-02T13:54:53Z</time></trkpt><trkpt lat="58.32584" lon="38.86598"><ele>116.3</ele><time>2026-05-02T13:55:00Z</time></trkpt><trkpt lat="58.325875" lon="38.865855"><ele>113.8</ele><time>2026-05-02T13:55:06Z</time></trkpt><trkpt lat="58.32592" lon="38.86591"><ele>112.2</ele><time>2026-05-02T13:55:13Z</time></trkpt><trkpt lat="58.325957" lon="38.865937"><ele>112.1</ele><time>2026-05-02T13:55:20Z</time></trkpt><trkpt lat="58.326" lon="38.866"><ele>111.2</ele><time>2026-05-02T13:55:27Z</time></trkpt><trkpt lat="58.32604" lon="38.86604"><ele>110.1</ele><time>2026-05-02T13:55:34Z</time></trkpt><trkpt lat="58.32604" lon="38.86609"><ele>109.9</ele><time>2026-05-02T13:55:41Z</time></trkpt><trkpt lat="58.326028" lon="38.866095"><ele>109.9</ele><time>2026-05-02T13:55:45Z</time></trkpt><trkpt lat="58.326045" lon="38.86616"><ele>112.4</ele><time>2026-05-02T13:55:58Z</time></trkpt><trkpt lat="58.326065" lon="38.86623"><ele>112.7</ele><time>2026-05-02T13:56:05Z</time></trkpt><trkpt lat="58.326065" lon="38.866345"><ele>113.1</ele><time>2026-05-02T13:56:12Z</time></trkpt><trkpt lat="58.326045" lon="38.866415"><ele>114.2</ele><time>2026-05-02T13:56:19Z</time></trkpt><trkpt lat="58.326005" lon="38.866475"><ele>113.3</ele><time>2026-05-02T13:56:26Z</time></trkpt><trkpt lat="58.32597" lon="38.866515"><ele>113.9</ele><time>2026-05-02T13:56:33Z</time></trkpt><trkpt lat="58.325957" lon="38.866515"><ele>113.9</ele><time>2026-05-02T13:56:37Z</time></trkpt><trkpt lat="58.326025" lon="38.866435"><ele>115.2</ele><time>2026-05-02T13:56:47Z</time></trkpt><trkpt lat="58.3261" lon="38.8664"><ele>115.9</ele><time>2026-05-02T13:56:54Z</time></trkpt><trkpt lat="58.326155" lon="38.866365"><ele>116.1</ele><time>2026-05-02T13:57:01Z</time></trkpt><trkpt lat="58.326195" lon="38.8663"><ele>116.5</ele><time>2026-05-02T13:57:08Z</time></trkpt><trkpt lat="58.32622" lon="38.86625"><ele>116.6</ele><time>2026-05-02T13:57:15Z</time></trkpt><trkpt lat="58.326295" lon="38.86627"><ele>115.0</ele><time>2026-05-02T13:57:22Z</time></trkpt><trkpt lat="58.32635" lon="38.866355"><ele>114.7</ele><time>2026-05-02T13:57:29Z</time></trkpt><trkpt lat="58.326405" lon="38.86644"><ele>114.8</ele><time>2026-05-02T13:57:36Z</time></trkpt><trkpt lat="58.326465" lon="38.866475"><ele>113.6</ele><time>2026-05-02T13:57:43Z</time></trkpt><trkpt lat="58.32653" lon="38.86649"><ele>115.4</ele><time>2026-05-02T13:57:50Z</time></trkpt><trkpt lat="58.3266" lon="38.86654"><ele>115.1</ele><time>2026-05-02T13:57:57Z</time></trkpt><trkpt lat="58.326665" lon="38.86661"><ele>115.6</ele><time>2026-05-02T13:58:04Z</time></trkpt><trkpt lat="58.326715" lon="38.866695"><ele>116.0</ele><time>2026-05-02T13:58:11Z</time></trkpt><trkpt lat="58.326785" lon="38.86673"><ele>116.0</ele><time>2026-05-02T13:58:18Z</time></trkpt><trkpt lat="58.32686" lon="38.866755"><ele>114.3</ele><time>2026-05-02T13:58:24Z</time></trkpt><trkpt lat="58.326925" lon="38.86678"><ele>114.1</ele><time>2026-05-02T13:58:31Z</time></trkpt><trkpt lat="58.326985" lon="38.86681"><ele>115.0</ele><time>2026-05-02T13:58:38Z</time></trkpt><trkpt lat="58.32703" lon="38.86684"><ele>114.6</ele><time>2026-05-02T13:58:45Z</time></trkpt><trkpt lat="58.32708" lon="38.86687"><ele>115.7</ele><time>2026-05-02T13:58:52Z</time></trkpt><trkpt lat="58.327095" lon="38.866895"><ele>115.3</ele><time>2026-05-02T13:58:59Z</time></trkpt><trkpt lat="58.327095" lon="38.866895"><ele>114.8</ele><time>2026-05-02T13:59:02Z</time></trkpt><trkpt lat="58.32712" lon="38.86692"><ele>114.3</ele><time>2026-05-02T13:59:09Z</time></trkpt><trkpt lat="58.327185" lon="38.866935"><ele>113.1</ele><time>2026-05-02T13:59:16Z</time></trkpt><trkpt lat="58.327195" lon="38.866923"><ele>114.4</ele><time>2026-05-02T13:59:23Z</time></trkpt><trkpt lat="58.327195" lon="38.866923"><ele>114.4</ele><time>2026-05-02T13:59:25Z</time></trkpt><trkpt lat="58.32725" lon="38.867005"><ele>112.7</ele><time>2026-05-02T13:59:37Z</time></trkpt><trkpt lat="58.32732" lon="38.86705"><ele>114.1</ele><time>2026-05-02T13:59:44Z</time></trkpt><trkpt lat="58.32737" lon="38.867095"><ele>114.8</ele><time>2026-05-02T13:59:51Z</time></trkpt><trkpt lat="58.327425" lon="38.867135"><ele>114.7</ele><time>2026-05-02T13:59:58Z</time></trkpt><trkpt lat="58.32749" lon="38.86718"><ele>115.2</ele><time>2026-05-02T14:00:05Z</time></trkpt><trkpt lat="58.327565" lon="38.867235"><ele>115.9</ele><time>2026-05-02T14:00:12Z</time></trkpt><trkpt lat="58.32763" lon="38.867265"><ele>116.2</ele><time>2026-05-02T14:00:19Z</time></trkpt><trkpt lat="58.327665" lon="38.867305"><ele>116.2</ele><time>2026-05-02T14:00:26Z</time></trkpt><trkpt lat="58.327715" lon="38.867365"><ele>115.2</ele><time>2026-05-02T14:00:33Z</time></trkpt><trkpt lat="58.32777" lon="38.86741"><ele>115.3</ele><time>2026-05-02T14:00:40Z</time></trkpt><trkpt lat="58.327835" lon="38.867485"><ele>115.0</ele><time>2026-05-02T14:00:47Z</time></trkpt><trkpt lat="58.327855" lon="38.867515"><ele>114.4</ele><time>2026-05-02T14:00:54Z</time></trkpt><trkpt lat="58.3279" lon="38.867565"><ele>113.2</ele><time>2026-05-02T14:01:01Z</time></trkpt><trkpt lat="58.327945" lon="38.867595"><ele>112.8</ele><time>2026-05-02T14:01:08Z</time></trkpt><trkpt lat="58.327985" lon="38.867595"><ele>112.8</ele><time>2026-05-02T14:01:15Z</time></trkpt><trkpt lat="58.328015" lon="38.867625"><ele>112.8</ele><time>2026-05-02T14:01:22Z</time></trkpt><trkpt lat="58.32807" lon="38.86767"><ele>112.7</ele><time>2026-05-02T14:01:29Z</time></trkpt><trkpt lat="58.328115" lon="38.867725"><ele>112.6</ele><time>2026-05-02T14:01:36Z</time></trkpt><trkpt lat="58.32817" lon="38.867752"><ele>112.7</ele><time>2026-05-02T14:01:43Z</time></trkpt><trkpt lat="58.32821" lon="38.867855"><ele>112.9</ele><time>2026-05-02T14:01:50Z</time></trkpt><trkpt lat="58.32819" lon="38.8679"><ele>112.5</ele><time>2026-05-02T14:01:57Z</time></trkpt><trkpt lat="58.328185" lon="38.8679"><ele>112.5</ele><time>2026-05-02T14:02:03Z</time></trkpt><trkpt lat="58.328185" lon="38.867908"><ele>112.8</ele><time>2026-05-02T14:02:27Z</time></trkpt><trkpt lat="58.328185" lon="38.86792"><ele>112.8</ele><time>2026-05-02T14:02:28Z</time></trkpt><trkpt lat="58.328195" lon="38.8679"><ele>113.4</ele><time>2026-05-02T14:03:04Z</time></trkpt><trkpt lat="58.328195" lon="38.8679"><ele>113.4</ele><time>2026-05-02T14:03:05Z</time></trkpt><trkpt lat="58.328265" lon="38.867855"><ele>111.9</ele><time>2026-05-02T14:03:31Z</time></trkpt><trkpt lat="58.328325" lon="38.86792"><ele>112.5</ele><time>2026-05-02T14:03:38Z</time></trkpt><trkpt lat="58.32834" lon="38.867955"><ele>112.7</ele><time>2026-05-02T14:03:45Z</time></trkpt><trkpt lat="58.328405" lon="38.867965"><ele>113.3</ele><time>2026-05-02T14:03:52Z</time></trkpt><trkpt lat="58.32846" lon="38.868035"><ele>112.8</ele><time>2026-05-02T14:03:59Z</time></trkpt><trkpt lat="58.328515" lon="38.868095"><ele>113.1</ele><time>2026-05-02T14:04:06Z</time></trkpt><trkpt lat="58.32857" lon="38.86813"><ele>114.3</ele><time>2026-05-02T14:04:13Z</time></trkpt><trkpt lat="58.32862" lon="38.868195"><ele>114.6</ele><time>2026-05-02T14:04:20Z</time></trkpt><trkpt lat="58.328635" lon="38.86825"><ele>114.6</ele><time>2026-05-02T14:04:27Z</time></trkpt><trkpt lat="58.328602" lon="38.868325"><ele>115.2</ele><time>2026-05-02T14:04:34Z</time></trkpt><trkpt lat="58.32862" lon="38.86843"><ele>115.7</ele><time>2026-05-02T14:04:41Z</time></trkpt><trkpt lat="58.328655" lon="38.868545"><ele>117.7</ele><time>2026-05-02T14:04:48Z</time></trkpt><trkpt lat="58.32864" lon="38.86868"><ele>114.5</ele><time>2026-05-02T14:04:55Z</time></trkpt><trkpt lat="58.32867" lon="38.86881"><ele>114.4</ele><time>2026-05-02T14:05:02Z</time></trkpt><trkpt lat="58.328675" lon="38.868925"><ele>116.2</ele><time>2026-05-02T14:05:09Z</time></trkpt><trkpt lat="58.328675" lon="38.86902"><ele>117.9</ele><time>2026-05-02T14:05:16Z</time></trkpt><trkpt lat="58.32866" lon="38.869115"><ele>117.3</ele><time>2026-05-02T14:05:23Z</time></trkpt><trkpt lat="58.3286" lon="38.86917"><ele>118.3</ele><time>2026-05-02T14:05:30Z</time></trkpt><trkpt lat="58.32856" lon="38.86922"><ele>118.8</ele><time>2026-05-02T14:05:37Z</time></trkpt><trkpt lat="58.32852" lon="38.86931"><ele>118.1</ele><time>2026-05-02T14:05:44Z</time></trkpt><trkpt lat="58.328495" lon="38.8694"><ele>119.0</ele><time>2026-05-02T14:05:51Z</time></trkpt><trkpt lat="58.32846" lon="38.86943"><ele>120.5</ele><time>2026-05-02T14:05:58Z</time></trkpt><trkpt lat="58.328445" lon="38.869465"><ele>122.5</ele><time>2026-05-02T14:06:05Z</time></trkpt><trkpt lat="58.32843" lon="38.86952"><ele>122.2</ele><time>2026-05-02T14:06:12Z</time></trkpt><trkpt lat="58.328377" lon="38.869568"><ele>120.5</ele><time>2026-05-02T14:06:19Z</time></trkpt><trkpt lat="58.32836" lon="38.869595"><ele>120.1</ele><time>2026-05-02T14:06:26Z</time></trkpt><trkpt lat="58.328355" lon="38.86965"><ele>118.8</ele><time>2026-05-02T14:06:33Z</time></trkpt><trkpt lat="58.32836" lon="38.86969"><ele>120.5</ele><time>2026-05-02T14:06:40Z</time></trkpt><trkpt lat="58.328365" lon="38.86968"><ele>120.7</ele><time>2026-05-02T14:06:43Z</time></trkpt><trkpt lat="58.32832" lon="38.869705"><ele>120.3</ele><time>2026-05-02T14:06:53Z</time></trkpt><trkpt lat="58.328345" lon="38.86977"><ele>116.9</ele><time>2026-05-02T14:07:00Z</time></trkpt><trkpt lat="58.32837" lon="38.869835"><ele>114.8</ele><time>2026-05-02T14:07:07Z</time></trkpt><trkpt lat="58.328325" lon="38.869947"><ele>117.5</ele><time>2026-05-02T14:07:14Z</time></trkpt><trkpt lat="58.3283" lon="38.870045"><ele>120.4</ele><time>2026-05-02T14:07:21Z</time></trkpt><trkpt lat="58.328295" lon="38.870115"><ele>117.9</ele><time>2026-05-02T14:07:28Z</time></trkpt><trkpt lat="58.328285" lon="38.87025"><ele>119.4</ele><time>2026-05-02T14:07:35Z</time></trkpt><trkpt lat="58.328285" lon="38.8704"><ele>119.1</ele><time>2026-05-02T14:07:42Z</time></trkpt><trkpt lat="58.32826" lon="38.87051"><ele>118.4</ele><time>2026-05-02T14:07:49Z</time></trkpt><trkpt lat="58.328215" lon="38.87059"><ele>117.9</ele><time>2026-05-02T14:07:56Z</time></trkpt><trkpt lat="58.32817" lon="38.87065"><ele>116.2</ele><time>2026-05-02T14:08:03Z</time></trkpt><trkpt lat="58.32815" lon="38.87066"><ele>115.9</ele><time>2026-05-02T14:08:10Z</time></trkpt><trkpt lat="58.328145" lon="38.870735"><ele>117.6</ele><time>2026-05-02T14:08:17Z</time></trkpt><trkpt lat="58.32807" lon="38.870765"><ele>119.4</ele><time>2026-05-02T14:08:24Z</time></trkpt><trkpt lat="58.32801" lon="38.870825"><ele>119.6</ele><time>2026-05-02T14:08:31Z</time></trkpt><trkpt lat="58.327995" lon="38.870885"><ele>119.3</ele><time>2026-05-02T14:08:38Z</time></trkpt><trkpt lat="58.327995" lon="38.87089"><ele>119.2</ele><time>2026-05-02T14:08:41Z</time></trkpt><trkpt lat="58.327995" lon="38.87099"><ele>118.7</ele><time>2026-05-02T14:08:50Z</time></trkpt><trkpt lat="58.328015" lon="38.871085"><ele>116.8</ele><time>2026-05-02T14:08:57Z</time></trkpt><trkpt lat="58.328015" lon="38.871175"><ele>117.4</ele><time>2026-05-02T14:09:04Z</time></trkpt><trkpt lat="58.327995" lon="38.87124"><ele>117.4</ele><time>2026-05-02T14:09:11Z</time></trkpt><trkpt lat="58.32796" lon="38.87131"><ele>118.3</ele><time>2026-05-02T14:09:18Z</time></trkpt><trkpt lat="58.32792" lon="38.871385"><ele>118.7</ele><time>2026-05-02T14:09:25Z</time></trkpt><trkpt lat="58.32788" lon="38.871495"><ele>119.6</ele><time>2026-05-02T14:09:32Z</time></trkpt><trkpt lat="58.32788" lon="38.87151"><ele>118.7</ele><time>2026-05-02T14:09:39Z</time></trkpt><trkpt lat="58.32786" lon="38.871595"><ele>118.9</ele><time>2026-05-02T14:09:47Z</time></trkpt><trkpt lat="58.327845" lon="38.871685"><ele>118.9</ele><time>2026-05-02T14:09:54Z</time></trkpt><trkpt lat="58.327825" lon="38.87175"><ele>118.1</ele><time>2026-05-02T14:10:01Z</time></trkpt><trkpt lat="58.327785" lon="38.87181"><ele>119.8</ele><time>2026-05-02T14:10:08Z</time></trkpt><trkpt lat="58.32777" lon="38.87189"><ele>119.4</ele><time>2026-05-02T14:10:15Z</time></trkpt><trkpt lat="58.32777" lon="38.87184"><ele>119.7</ele><time>2026-05-02T14:10:22Z</time></trkpt><trkpt lat="58.327785" lon="38.87184"><ele>119.7</ele><time>2026-05-02T14:10:25Z</time></trkpt><trkpt lat="58.32782" lon="38.871755"><ele>120.6</ele><time>2026-05-02T14:10:37Z</time></trkpt><trkpt lat="58.32788" lon="38.871848"><ele>120.5</ele><time>2026-05-02T14:10:44Z</time></trkpt><trkpt lat="58.327915" lon="38.87198"><ele>119.8</ele><time>2026-05-02T14:10:51Z</time></trkpt><trkpt lat="58.32796" lon="38.87207"><ele>120.5</ele><time>2026-05-02T14:10:58Z</time></trkpt><trkpt lat="58.32799" lon="38.87216"><ele>121.7</ele><time>2026-05-02T14:11:05Z</time></trkpt><trkpt lat="58.328035" lon="38.87225"><ele>121.4</ele><time>2026-05-02T14:11:12Z</time></trkpt><trkpt lat="58.32806" lon="38.87235"><ele>123.3</ele><time>2026-05-02T14:11:19Z</time></trkpt><trkpt lat="58.328083" lon="38.872435"><ele>124.2</ele><time>2026-05-02T14:11:26Z</time></trkpt><trkpt lat="58.32811" lon="38.87252"><ele>124.4</ele><time>2026-05-02T14:11:33Z</time></trkpt><trkpt lat="58.328135" lon="38.872605"><ele>125.1</ele><time>2026-05-02T14:11:40Z</time></trkpt><trkpt lat="58.328165" lon="38.872705"><ele>124.4</ele><time>2026-05-02T14:11:47Z</time></trkpt><trkpt lat="58.32817" lon="38.872775"><ele>123.4</ele><time>2026-05-02T14:11:54Z</time></trkpt><trkpt lat="58.328205" lon="38.872825"><ele>125.5</ele><time>2026-05-02T14:12:01Z</time></trkpt><trkpt lat="58.328265" lon="38.872915"><ele>124.7</ele><time>2026-05-02T14:12:08Z</time></trkpt><trkpt lat="58.328305" lon="38.873025"><ele>123.8</ele><time>2026-05-02T14:12:15Z</time></trkpt><trkpt lat="58.328335" lon="38.873125"><ele>120.6</ele><time>2026-05-02T14:12:22Z</time></trkpt><trkpt lat="58.328345" lon="38.873205"><ele>121.0</ele><time>2026-05-02T14:12:29Z</time></trkpt><trkpt lat="58.328305" lon="38.87326"><ele>120.4</ele><time>2026-05-02T14:12:36Z</time></trkpt><trkpt lat="58.32832" lon="38.87332"><ele>120.8</ele><time>2026-05-02T14:12:43Z</time></trkpt><trkpt lat="58.32832" lon="38.87337"><ele>122.5</ele><time>2026-05-02T14:12:50Z</time></trkpt><trkpt lat="58.328265" lon="38.87341"><ele>121.6</ele><time>2026-05-02T14:12:57Z</time></trkpt><trkpt lat="58.32822" lon="38.87343"><ele>122.3</ele><time>2026-05-02T14:13:04Z</time></trkpt><trkpt lat="58.328195" lon="38.873475"><ele>120.9</ele><time>2026-05-02T14:13:11Z</time></trkpt><trkpt lat="58.328185" lon="38.8735"><ele>121.3</ele><time>2026-05-02T14:13:18Z</time></trkpt><trkpt lat="58.328145" lon="38.873505"><ele>125.1</ele><time>2026-05-02T14:13:25Z</time></trkpt><trkpt lat="58.32812" lon="38.87358"><ele>124.6</ele><time>2026-05-02T14:13:32Z</time></trkpt><trkpt lat="58.328105" lon="38.873635"><ele>123.3</ele><time>2026-05-02T14:13:39Z</time></trkpt><trkpt lat="58.328105" lon="38.87368"><ele>123.4</ele><time>2026-05-02T14:13:46Z</time></trkpt><trkpt lat="58.328105" lon="38.87368"><ele>123.5</ele><time>2026-05-02T14:13:49Z</time></trkpt><trkpt lat="58.328065" lon="38.8738"><ele>123.4</ele><time>2026-05-02T14:13:58Z</time></trkpt><trkpt lat="58.328045" lon="38.873945"><ele>122.4</ele><time>2026-05-02T14:14:05Z</time></trkpt><trkpt lat="58.328015" lon="38.87404"><ele>121.3</ele><time>2026-05-02T14:14:12Z</time></trkpt><trkpt lat="58.32797" lon="38.874175"><ele>124.2</ele><time>2026-05-02T14:14:19Z</time></trkpt><trkpt lat="58.327965" lon="38.874325"><ele>124.4</ele><time>2026-05-02T14:14:26Z</time></trkpt><trkpt lat="58.327965" lon="38.87445"><ele>123.0</ele><time>2026-05-02T14:14:33Z</time></trkpt><trkpt lat="58.327925" lon="38.87456"><ele>121.3</ele><time>2026-05-02T14:14:40Z</time></trkpt><trkpt lat="58.327915" lon="38.87463"><ele>122.0</ele><time>2026-05-02T14:14:47Z</time></trkpt><trkpt lat="58.327915" lon="38.874755"><ele>125.3</ele><time>2026-05-02T14:14:54Z</time></trkpt><trkpt lat="58.32791" lon="38.874785"><ele>125.2</ele><time>2026-05-02T14:15:01Z</time></trkpt><trkpt lat="58.32791" lon="38.874785"><ele>125.2</ele><time>2026-05-02T14:15:02Z</time></trkpt><trkpt lat="58.327905" lon="38.87487"><ele>123.5</ele><time>2026-05-02T14:15:37Z</time></trkpt><trkpt lat="58.327875" lon="38.874985"><ele>123.6</ele><time>2026-05-02T14:15:44Z</time></trkpt><trkpt lat="58.327875" lon="38.87499"><ele>123.5</ele><time>2026-05-02T14:15:49Z</time></trkpt><trkpt lat="58.327845" lon="38.8751"><ele>121.5</ele><time>2026-05-02T14:16:29Z</time></trkpt><trkpt lat="58.327845" lon="38.87525"><ele>120.2</ele><time>2026-05-02T14:16:36Z</time></trkpt><trkpt lat="58.327845" lon="38.87532"><ele>121.3</ele><time>2026-05-02T14:16:43Z</time></trkpt><trkpt lat="58.32782" lon="38.87546"><ele>121.7</ele><time>2026-05-02T14:16:50Z</time></trkpt><trkpt lat="58.3278" lon="38.875495"><ele>121.8</ele><time>2026-05-02T14:16:57Z</time></trkpt><trkpt lat="58.3278" lon="38.875495"><ele>121.8</ele><time>2026-05-02T14:17:01Z</time></trkpt><trkpt lat="58.32777" lon="38.875555"><ele>121.7</ele><time>2026-05-02T14:17:16Z</time></trkpt><trkpt lat="58.32775" lon="38.875605"><ele>121.8</ele><time>2026-05-02T14:17:23Z</time></trkpt><trkpt lat="58.32775" lon="38.875605"><ele>121.8</ele><time>2026-05-02T14:17:27Z</time></trkpt><trkpt lat="58.327745" lon="38.87565"><ele>122.1</ele><time>2026-05-02T14:17:47Z</time></trkpt><trkpt lat="58.327745" lon="38.8757"><ele>122.2</ele><time>2026-05-02T14:17:54Z</time></trkpt><trkpt lat="58.327745" lon="38.8757"><ele>122.2</ele><time>2026-05-02T14:17:57Z</time></trkpt><trkpt lat="58.32773" lon="38.875735"><ele>122.3</ele><time>2026-05-02T14:18:12Z</time></trkpt><trkpt lat="58.32773" lon="38.87573"><ele>121.8</ele><time>2026-05-02T14:18:14Z</time></trkpt><trkpt lat="58.32769" lon="38.87582"><ele>122.6</ele><time>2026-05-02T14:18:44Z</time></trkpt><trkpt lat="58.32768" lon="38.875835"><ele>122.6</ele><time>2026-05-02T14:18:51Z</time></trkpt><trkpt lat="58.327655" lon="38.87596"><ele>124.0</ele><time>2026-05-02T14:19:01Z</time></trkpt><trkpt lat="58.327617" lon="38.8761"><ele>126.1</ele><time>2026-05-02T14:19:08Z</time></trkpt><trkpt lat="58.327585" lon="38.876215"><ele>125.9</ele><time>2026-05-02T14:19:15Z</time></trkpt><trkpt lat="58.327547" lon="38.87631"><ele>126.2</ele><time>2026-05-02T14:19:22Z</time></trkpt><trkpt lat="58.327525" lon="38.87642"><ele>126.2</ele><time>2026-05-02T14:19:29Z</time></trkpt><trkpt lat="58.32749" lon="38.876535"><ele>126.9</ele><time>2026-05-02T14:19:36Z</time></trkpt><trkpt lat="58.327475" lon="38.876655"><ele>126.4</ele><time>2026-05-02T14:19:43Z</time></trkpt><trkpt lat="58.32753" lon="38.876715"><ele>124.9</ele><time>2026-05-02T14:19:50Z</time></trkpt><trkpt lat="58.327545" lon="38.876705"><ele>125.0</ele><time>2026-05-02T14:19:57Z</time></trkpt><trkpt lat="58.327545" lon="38.876705"><ele>125.0</ele><time>2026-05-02T14:19:58Z</time></trkpt><trkpt lat="58.32754" lon="38.876725"><ele>125.3</ele><time>2026-05-02T14:20:12Z</time></trkpt><trkpt lat="58.32754" lon="38.876725"><ele>125.7</ele><time>2026-05-02T14:20:13Z</time></trkpt><trkpt lat="58.32754" lon="38.876735"><ele>125.6</ele><time>2026-05-02T14:22:48Z</time></trkpt><trkpt lat="58.32754" lon="38.876735"><ele>125.6</ele><time>2026-05-02T14:22:49Z</time></trkpt><trkpt lat="58.327535" lon="38.87672"><ele>125.1</ele><time>2026-05-02T14:23:45Z</time></trkpt><trkpt lat="58.327535" lon="38.87672"><ele>125.1</ele><time>2026-05-02T14:23:46Z</time></trkpt><trkpt lat="58.32758" lon="38.87669"><ele>125.2</ele><time>2026-05-02T14:24:10Z</time></trkpt><trkpt lat="58.32766" lon="38.8767"><ele>125.8</ele><time>2026-05-02T14:24:16Z</time></trkpt><trkpt lat="58.32772" lon="38.876715"><ele>125.1</ele><time>2026-05-02T14:24:23Z</time></trkpt><trkpt lat="58.327785" lon="38.87675"><ele>125.5</ele><time>2026-05-02T14:24:30Z</time></trkpt><trkpt lat="58.327855" lon="38.87681"><ele>126.5</ele><time>2026-05-02T14:24:36Z</time></trkpt><trkpt lat="58.327925" lon="38.87689"><ele>128.5</ele><time>2026-05-02T14:24:41Z</time></trkpt><trkpt lat="58.327965" lon="38.87688"><ele>128.0</ele><time>2026-05-02T14:24:48Z</time></trkpt><trkpt lat="58.328045" lon="38.876915"><ele>130.2</ele><time>2026-05-02T14:24:55Z</time></trkpt><trkpt lat="58.32812" lon="38.87694"><ele>129.7</ele><time>2026-05-02T14:25:02Z</time></trkpt><trkpt lat="58.32812" lon="38.876945"><ele>128.4</ele><time>2026-05-02T14:25:09Z</time></trkpt><trkpt lat="58.32812" lon="38.876945"><ele>128.4</ele><time>2026-05-02T14:25:13Z</time></trkpt><trkpt lat="58.328135" lon="38.87695"><ele>128.7</ele><time>2026-05-02T14:25:49Z</time></trkpt><trkpt lat="58.328135" lon="38.87695"><ele>128.7</ele><time>2026-05-02T14:25:51Z</time></trkpt><trkpt lat="58.32821" lon="38.87699"><ele>128.8</ele><time>2026-05-02T14:26:03Z</time></trkpt><trkpt lat="58.328238" lon="38.877085"><ele>127.2</ele><time>2026-05-02T14:26:10Z</time></trkpt><trkpt lat="58.328215" lon="38.877215"><ele>128.2</ele><time>2026-05-02T14:26:16Z</time></trkpt><trkpt lat="58.328195" lon="38.87725"><ele>126.6</ele><time>2026-05-02T14:26:23Z</time></trkpt><trkpt lat="58.32817" lon="38.877375"><ele>125.3</ele><time>2026-05-02T14:26:30Z</time></trkpt><trkpt lat="58.32815" lon="38.87751"><ele>126.5</ele><time>2026-05-02T14:26:37Z</time></trkpt><trkpt lat="58.328125" lon="38.877635"><ele>125.6</ele><time>2026-05-02T14:26:44Z</time></trkpt><trkpt lat="58.328115" lon="38.87775"><ele>124.7</ele><time>2026-05-02T14:26:51Z</time></trkpt><trkpt lat="58.328145" lon="38.877757"><ele>124.8</ele><time>2026-05-02T14:26:58Z</time></trkpt><trkpt lat="58.32821" lon="38.877805"><ele>124.7</ele><time>2026-05-02T14:27:05Z</time></trkpt><trkpt lat="58.3282" lon="38.877785"><ele>123.1</ele><time>2026-05-02T14:27:12Z</time></trkpt><trkpt lat="58.328205" lon="38.87779"><ele>123.1</ele><time>2026-05-02T14:27:15Z</time></trkpt><trkpt lat="58.328235" lon="38.8779"><ele>125.0</ele><time>2026-05-02T14:27:25Z</time></trkpt><trkpt lat="58.328265" lon="38.877995"><ele>125.9</ele><time>2026-05-02T14:27:32Z</time></trkpt><trkpt lat="58.32828" lon="38.878035"><ele>125.3</ele><time>2026-05-02T14:27:39Z</time></trkpt><trkpt lat="58.328355" lon="38.877995"><ele>124.6</ele><time>2026-05-02T14:27:45Z</time></trkpt><trkpt lat="58.32843" lon="38.87798"><ele>123.2</ele><time>2026-05-02T14:27:51Z</time></trkpt><trkpt lat="58.32844" lon="38.87801"><ele>121.3</ele><time>2026-05-02T14:27:58Z</time></trkpt><trkpt lat="58.328435" lon="38.878015"><ele>121.3</ele><time>2026-05-02T14:28:02Z</time></trkpt><trkpt lat="58.328435" lon="38.878155"><ele>123.9</ele><time>2026-05-02T14:28:11Z</time></trkpt><trkpt lat="58.328395" lon="38.87819"><ele>124.2</ele><time>2026-05-02T14:28:18Z</time></trkpt><trkpt lat="58.328375" lon="38.878205"><ele>124.5</ele><time>2026-05-02T14:28:25Z</time></trkpt><trkpt lat="58.328395" lon="38.878125"><ele>124.0</ele><time>2026-05-02T14:28:32Z</time></trkpt><trkpt lat="58.328335" lon="38.878065"><ele>125.1</ele><time>2026-05-02T14:28:39Z</time></trkpt><trkpt lat="58.328308" lon="38.87809"><ele>125.2</ele><time>2026-05-02T14:28:46Z</time></trkpt><trkpt lat="58.328265" lon="38.87812"><ele>125.3</ele><time>2026-05-02T14:28:53Z</time></trkpt><trkpt lat="58.328225" lon="38.878205"><ele>124.0</ele><time>2026-05-02T14:29:00Z</time></trkpt><trkpt lat="58.32821" lon="38.87825"><ele>123.4</ele><time>2026-05-02T14:29:07Z</time></trkpt><trkpt lat="58.328205" lon="38.878255"><ele>123.5</ele><time>2026-05-02T14:29:13Z</time></trkpt><trkpt lat="58.328265" lon="38.87817"><ele>123.5</ele><time>2026-05-02T14:29:38Z</time></trkpt><trkpt lat="58.328325" lon="38.878135"><ele>124.7</ele><time>2026-05-02T14:29:45Z</time></trkpt><trkpt lat="58.328378" lon="38.87812"><ele>124.9</ele><time>2026-05-02T14:29:52Z</time></trkpt><trkpt lat="58.32843" lon="38.878185"><ele>123.6</ele><time>2026-05-02T14:29:59Z</time></trkpt><trkpt lat="58.328375" lon="38.878305"><ele>121.8</ele><time>2026-05-02T14:30:06Z</time></trkpt><trkpt lat="58.32836" lon="38.87843"><ele>123.9</ele><time>2026-05-02T14:30:13Z</time></trkpt><trkpt lat="58.32836" lon="38.87843"><ele>123.9</ele><time>2026-05-02T14:30:18Z</time></trkpt><trkpt lat="58.32835" lon="38.878445"><ele>124.0</ele><time>2026-05-02T14:31:12Z</time></trkpt><trkpt lat="58.32835" lon="38.878445"><ele>124.0</ele><time>2026-05-02T14:31:13Z</time></trkpt><trkpt lat="58.328345" lon="38.878432"><ele>123.6</ele><time>2026-05-02T14:31:22Z</time></trkpt><trkpt lat="58.328345" lon="38.878432"><ele>123.6</ele><time>2026-05-02T14:31:23Z</time></trkpt><trkpt lat="58.32834" lon="38.87843"><ele>122.8</ele><time>2026-05-02T14:32:04Z</time></trkpt><trkpt lat="58.32834" lon="38.87843"><ele>122.8</ele><time>2026-05-02T14:32:05Z</time></trkpt><trkpt lat="58.328335" lon="38.87848"><ele>123.0</ele><time>2026-05-02T14:32:16Z</time></trkpt><trkpt lat="58.328335" lon="38.87849"><ele>122.9</ele><time>2026-05-02T14:32:19Z</time></trkpt><trkpt lat="58.32835" lon="38.87854"><ele>122.4</ele><time>2026-05-02T14:32:56Z</time></trkpt><trkpt lat="58.32835" lon="38.878535"><ele>122.8</ele><time>2026-05-02T14:33:00Z</time></trkpt><trkpt lat="58.328345" lon="38.87856"><ele>122.2</ele><time>2026-05-02T14:33:11Z</time></trkpt><trkpt lat="58.32835" lon="38.87856"><ele>122.2</ele><time>2026-05-02T14:33:12Z</time></trkpt><trkpt lat="58.32832" lon="38.878605"><ele>122.8</ele><time>2026-05-02T14:33:22Z</time></trkpt><trkpt lat="58.32829" lon="38.878605"><ele>123.4</ele><time>2026-05-02T14:33:29Z</time></trkpt><trkpt lat="58.328255" lon="38.878635"><ele>122.5</ele><time>2026-05-02T14:33:36Z</time></trkpt><trkpt lat="58.32825" lon="38.878695"><ele>122.3</ele><time>2026-05-02T14:33:43Z</time></trkpt><trkpt lat="58.32825" lon="38.878695"><ele>122.3</ele><time>2026-05-02T14:33:47Z</time></trkpt><trkpt lat="58.32829" lon="38.878585"><ele>122.0</ele><time>2026-05-02T14:34:07Z</time></trkpt><trkpt lat="58.32835" lon="38.87856"><ele>123.1</ele><time>2026-05-02T14:34:14Z</time></trkpt><trkpt lat="58.328365" lon="38.878485"><ele>122.5</ele><time>2026-05-02T14:34:21Z</time></trkpt><trkpt lat="58.328305" lon="38.87839"><ele>123.9</ele><time>2026-05-02T14:34:28Z</time></trkpt><trkpt lat="58.3283" lon="38.87836"><ele>125.7</ele><time>2026-05-02T14:34:35Z</time></trkpt><trkpt lat="58.3283" lon="38.87836"><ele>125.7</ele><time>2026-05-02T14:34:36Z</time></trkpt><trkpt lat="58.328305" lon="38.87835"><ele>125.1</ele><time>2026-05-02T14:35:07Z</time></trkpt><trkpt lat="58.328305" lon="38.87835"><ele>125.1</ele><time>2026-05-02T14:35:08Z</time></trkpt><trkpt lat="58.328305" lon="38.87836"><ele>123.7</ele><time>2026-05-02T14:36:10Z</time></trkpt><trkpt lat="58.328305" lon="38.87836"><ele>123.7</ele><time>2026-05-02T14:36:11Z</time></trkpt><trkpt lat="58.328335" lon="38.878445"><ele>124.2</ele><time>2026-05-02T14:37:08Z</time></trkpt><trkpt lat="58.328355" lon="38.878465"><ele>124.3</ele><time>2026-05-02T14:37:14Z</time></trkpt><trkpt lat="58.328375" lon="38.87852"><ele>124.3</ele><time>2026-05-02T14:37:22Z</time></trkpt><trkpt lat="58.32839" lon="38.87855"><ele>123.2</ele><time>2026-05-02T14:37:29Z</time></trkpt><trkpt lat="58.32839" lon="38.87855"><ele>123.2</ele><time>2026-05-02T14:37:31Z</time></trkpt><trkpt lat="58.32841" lon="38.87866"><ele>122.3</ele><time>2026-05-02T14:37:40Z</time></trkpt><trkpt lat="58.328435" lon="38.878755"><ele>122.5</ele><time>2026-05-02T14:37:47Z</time></trkpt><trkpt lat="58.32845" lon="38.87883"><ele>123.4</ele><time>2026-05-02T14:37:54Z</time></trkpt><trkpt lat="58.32849" lon="38.87885"><ele>122.1</ele><time>2026-05-02T14:38:01Z</time></trkpt><trkpt lat="58.32855" lon="38.878845"><ele>118.4</ele><time>2026-05-02T14:38:08Z</time></trkpt><trkpt lat="58.32855" lon="38.878935"><ele>119.9</ele><time>2026-05-02T14:38:15Z</time></trkpt><trkpt lat="58.328545" lon="38.878945"><ele>120.9</ele><time>2026-05-02T14:38:22Z</time></trkpt><trkpt lat="58.328525" lon="38.8789"><ele>119.7</ele><time>2026-05-02T14:38:37Z</time></trkpt><trkpt lat="58.32853" lon="38.878895"><ele>119.3</ele><time>2026-05-02T14:38:41Z</time></trkpt><trkpt lat="58.328545" lon="38.8788"><ele>119.9</ele><time>2026-05-02T14:39:01Z</time></trkpt><trkpt lat="58.32857" lon="38.878755"><ele>120.4</ele><time>2026-05-02T14:39:08Z</time></trkpt><trkpt lat="58.328565" lon="38.878755"><ele>120.4</ele><time>2026-05-02T14:39:11Z</time></trkpt><trkpt lat="58.3286" lon="38.878715"><ele>121.9</ele><time>2026-05-02T14:39:36Z</time></trkpt><trkpt lat="58.32863" lon="38.8787"><ele>124.5</ele><time>2026-05-02T14:39:43Z</time></trkpt><trkpt lat="58.32863" lon="38.8787"><ele>124.5</ele><time>2026-05-02T14:39:45Z</time></trkpt><trkpt lat="58.328635" lon="38.878675"><ele>124.5</ele><time>2026-05-02T14:40:02Z</time></trkpt><trkpt lat="58.328635" lon="38.878675"><ele>124.5</ele><time>2026-05-02T14:40:03Z</time></trkpt><trkpt lat="58.328655" lon="38.878575"><ele>123.2</ele><time>2026-05-02T14:40:11Z</time></trkpt><trkpt lat="58.328685" lon="38.878475"><ele>122.0</ele><time>2026-05-02T14:40:18Z</time></trkpt><trkpt lat="58.328655" lon="38.87843"><ele>123.0</ele><time>2026-05-02T14:40:25Z</time></trkpt><trkpt lat="58.3286" lon="38.87835"><ele>123.7</ele><time>2026-05-02T14:40:32Z</time></trkpt><trkpt lat="58.328595" lon="38.87834"><ele>122.0</ele><time>2026-05-02T14:40:39Z</time></trkpt></trkseg></trk></gpx>