<?xml version="1.0" encoding="UTF-8" standalone="no"?><gpx xmlns="http://www.topografix.com/GPX/1/1" xmlns:gpxtpx="http://www.garmin.com/xmlschemas/TrackPointExtension/v1" xmlns:xsi="http://www.w3.org/2001/XMLSchema-instance" creator="Sports Tracker" version="1.1" xsi:schemaLocation="http://www.topografix.com/GPX/1/1 http://www.topografix.com/GPX/1/1/gpx.xsd http://www.garmin.com/xmlschemas/TrackPointExtension/v1 http://www.garmin.com/xmlschemas/TrackPointExtensionv1.xsd"><metadata><name/><desc/><author><name>Александр</name></author></metadata><trk><name/><trkseg><trkpt lat="58.05881" lon="38.812255"><ele>102.0</ele><time>2022-02-02T08:36:05Z</time></trkpt><trkpt lat="58.059372" lon="38.812473"><ele>102.5</ele><time>2022-02-02T08:36:06Z</time></trkpt><trkpt lat="58.059387" lon="38.812458"><ele>102.8</ele><time>2022-02-02T08:36:07Z</time></trkpt><trkpt lat="58.059402" lon="38.812438"><ele>103.0</ele><time>2022-02-02T08:36:09Z</time></trkpt><trkpt lat="58.059415" lon="38.812422"><ele>103.2</ele><time>2022-02-02T08:36:10Z</time></trkpt><trkpt lat="58.059428" lon="38.812422"><ele>103.0</ele><time>2022-02-02T08:36:11Z</time></trkpt><trkpt lat="58.059447" lon="38.81243"><ele>103.1</ele><time>2022-02-02T08:36:12Z</time></trkpt><trkpt lat="58.059467" lon="38.812432"><ele>103.1</ele><time>2022-02-02T08:36:13Z</time></trkpt><trkpt lat="58.059477" lon="38.81243"><ele>103.1</ele><time>2022-02-02T08:36:14Z</time></trkpt><trkpt lat="58.059485" lon="38.81243"><ele>103.1</ele><time>2022-02-02T08:36:15Z</time></trkpt><trkpt lat="58.059493" lon="38.812428"><ele>103.1</ele><time>2022-02-02T08:36:16Z</time></trkpt><trkpt lat="58.059502" lon="38.812427"><ele>103.2</ele><time>2022-02-02T08:36:17Z</time></trkpt><trkpt lat="58.05952" lon="38.81243"><ele>103.2</ele><time>2022-02-02T08:36:19Z</time></trkpt><trkpt lat="58.059537" lon="38.81243"><ele>103.2</ele><time>2022-02-02T08:36:20Z</time></trkpt><trkpt lat="58.059585" lon="38.81242"><ele>103.3</ele><time>2022-02-02T08:36:21Z</time></trkpt><trkpt lat="58.059607" lon="38.812412"><ele>103.3</ele><time>2022-02-02T08:36:22Z</time></trkpt><trkpt lat="58.059645" lon="38.812392"><ele>103.3</ele><time>2022-02-02T08:36:24Z</time></trkpt><trkpt lat="58.059683" lon="38.812378"><ele>103.4</ele><time>2022-02-02T08:36:25Z</time></trkpt><trkpt lat="58.059705" lon="38.81237"><ele>103.4</ele><time>2022-02-02T08:36:26Z</time></trkpt><trkpt lat="58.059745" lon="38.812362"><ele>103.5</ele><time>2022-02-02T08:36:28Z</time></trkpt><trkpt lat="58.059787" lon="38.812367"><ele>103.5</ele><time>2022-02-02T08:36:29Z</time></trkpt><trkpt lat="58.059825" lon="38.812372"><ele>103.6</ele><time>2022-02-02T08:36:30Z</time></trkpt><trkpt lat="58.059862" lon="38.812382"><ele>103.6</ele><time>2022-02-02T08:36:32Z</time></trkpt><trkpt lat="58.059897" lon="38.812408"><ele>103.7</ele><time>2022-02-02T08:36:34Z</time></trkpt><trkpt lat="58.05993" lon="38.812448"><ele>103.7</ele><time>2022-02-02T08:36:35Z</time></trkpt><trkpt lat="58.059953" lon="38.812492"><ele>103.7</ele><time>2022-02-02T08:36:36Z</time></trkpt><trkpt lat="58.059967" lon="38.812532"><ele>103.6</ele><time>2022-02-02T08:36:37Z</time></trkpt><trkpt lat="58.05997" lon="38.812583"><ele>103.6</ele><time>2022-02-02T08:36:39Z</time></trkpt><trkpt lat="58.05997" lon="38.812658"><ele>103.5</ele><time>2022-02-02T08:36:40Z</time></trkpt><trkpt lat="58.059967" lon="38.812685"><ele>103.5</ele><time>2022-02-02T08:36:41Z</time></trkpt><trkpt lat="58.059957" lon="38.812758"><ele>103.5</ele><time>2022-02-02T08:36:42Z</time></trkpt><trkpt lat="58.059952" lon="38.812837"><ele>103.4</ele><time>2022-02-02T08:36:44Z</time></trkpt><trkpt lat="58.05995" lon="38.812863"><ele>103.4</ele><time>2022-02-02T08:36:45Z</time></trkpt><trkpt lat="58.059948" lon="38.81289"><ele>103.4</ele><time>2022-02-02T08:36:46Z</time></trkpt><trkpt lat="58.059943" lon="38.812967"><ele>103.3</ele><time>2022-02-02T08:36:47Z</time></trkpt><trkpt lat="58.059942" lon="38.813032"><ele>103.3</ele><time>2022-02-02T08:36:48Z</time></trkpt><trkpt lat="58.059948" lon="38.813112"><ele>103.2</ele><time>2022-02-02T08:36:49Z</time></trkpt><trkpt lat="58.059948" lon="38.81318"><ele>103.2</ele><time>2022-02-02T08:36:51Z</time></trkpt><trkpt lat="58.05995" lon="38.813235"><ele>103.1</ele><time>2022-02-02T08:36:52Z</time></trkpt><trkpt lat="58.059943" lon="38.813337"><ele>103.1</ele><time>2022-02-02T08:36:53Z</time></trkpt><trkpt lat="58.059935" lon="38.813402"><ele>103.0</ele><time>2022-02-02T08:36:54Z</time></trkpt><trkpt lat="58.059922" lon="38.813472"><ele>103.0</ele><time>2022-02-02T08:36:55Z</time></trkpt><trkpt lat="58.059907" lon="38.813528"><ele>102.9</ele><time>2022-02-02T08:36:57Z</time></trkpt><trkpt lat="58.059897" lon="38.813587"><ele>102.9</ele><time>2022-02-02T08:36:58Z</time></trkpt><trkpt lat="58.059867" lon="38.813687"><ele>102.8</ele><time>2022-02-02T08:36:59Z</time></trkpt><trkpt lat="58.059842" lon="38.813732"><ele>102.8</ele><time>2022-02-02T08:37:00Z</time></trkpt><trkpt lat="58.059815" lon="38.81377"><ele>102.7</ele><time>2022-02-02T08:37:01Z</time></trkpt><trkpt lat="58.059785" lon="38.813802"><ele>102.7</ele><time>2022-02-02T08:37:03Z</time></trkpt><trkpt lat="58.059737" lon="38.813835"><ele>102.6</ele><time>2022-02-02T08:37:04Z</time></trkpt><trkpt lat="58.059703" lon="38.813822"><ele>102.6</ele><time>2022-02-02T08:37:06Z</time></trkpt><trkpt lat="58.059675" lon="38.81382"><ele>102.5</ele><time>2022-02-02T08:37:07Z</time></trkpt><trkpt lat="58.059642" lon="38.8138"><ele>102.5</ele><time>2022-02-02T08:37:08Z</time></trkpt><trkpt lat="58.05959" lon="38.813782"><ele>102.5</ele><time>2022-02-02T08:37:09Z</time></trkpt><trkpt lat="58.059565" lon="38.813765"><ele>102.4</ele><time>2022-02-02T08:37:10Z</time></trkpt><trkpt lat="58.059538" lon="38.813737"><ele>102.4</ele><time>2022-02-02T08:37:12Z</time></trkpt><trkpt lat="58.059507" lon="38.813718"><ele>102.4</ele><time>2022-02-02T08:37:13Z</time></trkpt><trkpt lat="58.059497" lon="38.813717"><ele>102.3</ele><time>2022-02-02T08:37:14Z</time></trkpt><trkpt lat="58.059465" lon="38.813722"><ele>102.3</ele><time>2022-02-02T08:37:15Z</time></trkpt><trkpt lat="58.059457" lon="38.813723"><ele>102.3</ele><time>2022-02-02T08:37:16Z</time></trkpt><trkpt lat="58.059448" lon="38.813722"><ele>102.3</ele><time>2022-02-02T08:37:17Z</time></trkpt><trkpt lat="58.059445" lon="38.81372"><ele>102.3</ele><time>2022-02-02T08:37:18Z</time></trkpt><trkpt lat="58.059442" lon="38.81372"><ele>102.3</ele><time>2022-02-02T08:37:19Z</time></trkpt><trkpt lat="58.05944" lon="38.813717"><ele>102.3</ele><time>2022-02-02T08:37:20Z</time></trkpt><trkpt lat="58.059437" lon="38.813715"><ele>102.3</ele><time>2022-02-02T08:37:21Z</time></trkpt><trkpt lat="58.059433" lon="38.813715"><ele>102.3</ele><time>2022-02-02T08:37:22Z</time></trkpt><trkpt lat="58.059432" lon="38.813712"><ele>102.3</ele><time>2022-02-02T08:37:23Z</time></trkpt><trkpt lat="58.059428" lon="38.813712"><ele>102.3</ele><time>2022-02-02T08:37:24Z</time></trkpt><trkpt lat="58.059425" lon="38.81371"><ele>102.3</ele><time>2022-02-02T08:37:26Z</time></trkpt><trkpt lat="58.059422" lon="38.813707"><ele>102.3</ele><time>2022-02-02T08:37:27Z</time></trkpt><trkpt lat="58.05942" lon="38.813707"><ele>102.3</ele><time>2022-02-02T08:37:28Z</time></trkpt><trkpt lat="58.059417" lon="38.813705"><ele>102.3</ele><time>2022-02-02T08:37:29Z</time></trkpt><trkpt lat="58.059415" lon="38.813703"><ele>102.2</ele><time>2022-02-02T08:37:30Z</time></trkpt><trkpt lat="58.059412" lon="38.813702"><ele>102.2</ele><time>2022-02-02T08:37:31Z</time></trkpt><trkpt lat="58.059408" lon="38.8137"><ele>102.2</ele><time>2022-02-02T08:37:32Z</time></trkpt><trkpt lat="58.059405" lon="38.813698"><ele>102.2</ele><time>2022-02-02T08:37:33Z</time></trkpt><trkpt lat="58.059402" lon="38.813697"><ele>102.2</ele><time>2022-02-02T08:37:34Z</time></trkpt><trkpt lat="58.05936" lon="38.813687"><ele>102.2</ele><time>2022-02-02T08:37:35Z</time></trkpt><trkpt lat="58.05932" lon="38.81366"><ele>102.1</ele><time>2022-02-02T08:37:37Z</time></trkpt><trkpt lat="58.05931" lon="38.813592"><ele>102.1</ele><time>2022-02-02T08:37:38Z</time></trkpt><trkpt lat="58.059312" lon="38.813465"><ele>102.2</ele><time>2022-02-02T08:37:40Z</time></trkpt><trkpt lat="58.05932" lon="38.813368"><ele>102.3</ele><time>2022-02-02T08:37:42Z</time></trkpt><trkpt lat="58.059333" lon="38.813243"><ele>102.4</ele><time>2022-02-02T08:37:43Z</time></trkpt><trkpt lat="58.059342" lon="38.813155"><ele>102.4</ele><time>2022-02-02T08:37:44Z</time></trkpt><trkpt lat="58.059332" lon="38.813088"><ele>102.5</ele><time>2022-02-02T08:37:46Z</time></trkpt><trkpt lat="58.059315" lon="38.813012"><ele>102.5</ele><time>2022-02-02T08:37:47Z</time></trkpt><trkpt lat="58.059287" lon="38.812925"><ele>102.6</ele><time>2022-02-02T08:37:48Z</time></trkpt><trkpt lat="58.059267" lon="38.812883"><ele>102.6</ele><time>2022-02-02T08:37:49Z</time></trkpt><trkpt lat="58.05926" lon="38.81281"><ele>102.7</ele><time>2022-02-02T08:37:51Z</time></trkpt><trkpt lat="58.059275" lon="38.812742"><ele>102.7</ele><time>2022-02-02T08:37:52Z</time></trkpt><trkpt lat="58.05927" lon="38.81264"><ele>102.8</ele><time>2022-02-02T08:37:53Z</time></trkpt><trkpt lat="58.059292" lon="38.81255"><ele>102.8</ele><time>2022-02-02T08:37:54Z</time></trkpt><trkpt lat="58.059317" lon="38.81245"><ele>102.9</ele><time>2022-02-02T08:37:56Z</time></trkpt><trkpt lat="58.059342" lon="38.812412"><ele>103.0</ele><time>2022-02-02T08:37:58Z</time></trkpt><trkpt lat="58.059362" lon="38.81238"><ele>103.0</ele><time>2022-02-02T08:37:59Z</time></trkpt><trkpt lat="58.059415" lon="38.812357"><ele>103.1</ele><time>2022-02-02T08:38:00Z</time></trkpt><trkpt lat="58.05944" lon="38.812352"><ele>103.1</ele><time>2022-02-02T08:38:01Z</time></trkpt><trkpt lat="58.059468" lon="38.812353"><ele>103.1</ele><time>2022-02-02T08:38:03Z</time></trkpt><trkpt lat="58.059505" lon="38.812353"><ele>103.2</ele><time>2022-02-02T08:38:04Z</time></trkpt><trkpt lat="58.059517" lon="38.812353"><ele>103.2</ele><time>2022-02-02T08:38:05Z</time></trkpt><trkpt lat="58.059563" lon="38.812347"><ele>103.2</ele><time>2022-02-02T08:38:06Z</time></trkpt><trkpt lat="58.059607" lon="38.812337"><ele>103.3</ele><time>2022-02-02T08:38:07Z</time></trkpt><trkpt lat="58.05968" lon="38.812325"><ele>103.4</ele><time>2022-02-02T08:38:09Z</time></trkpt><trkpt lat="58.059725" lon="38.812335"><ele>103.4</ele><time>2022-02-02T08:38:11Z</time></trkpt><trkpt lat="58.059758" lon="38.81235"><ele>103.5</ele><time>2022-02-02T08:38:12Z</time></trkpt><trkpt lat="58.059793" lon="38.812367"><ele>103.5</ele><time>2022-02-02T08:38:13Z</time></trkpt><trkpt lat="58.059825" lon="38.812385"><ele>103.6</ele><time>2022-02-02T08:38:14Z</time></trkpt><trkpt lat="58.05985" lon="38.812412"><ele>103.6</ele><time>2022-02-02T08:38:15Z</time></trkpt><trkpt lat="58.059888" lon="38.812495"><ele>103.7</ele><time>2022-02-02T08:38:16Z</time></trkpt><trkpt lat="58.059905" lon="38.812547"><ele>103.7</ele><time>2022-02-02T08:38:17Z</time></trkpt><trkpt lat="58.059917" lon="38.81264"><ele>103.6</ele><time>2022-02-02T08:38:19Z</time></trkpt><trkpt lat="58.059927" lon="38.812737"><ele>103.5</ele><time>2022-02-02T08:38:20Z</time></trkpt><trkpt lat="58.059927" lon="38.812832"><ele>103.5</ele><time>2022-02-02T08:38:22Z</time></trkpt><trkpt lat="58.059925" lon="38.812958"><ele>103.4</ele><time>2022-02-02T08:38:23Z</time></trkpt><trkpt lat="58.059922" lon="38.813083"><ele>103.3</ele><time>2022-02-02T08:38:25Z</time></trkpt><trkpt lat="58.059922" lon="38.813155"><ele>103.2</ele><time>2022-02-02T08:38:26Z</time></trkpt><trkpt lat="58.059922" lon="38.813217"><ele>103.2</ele><time>2022-02-02T08:38:27Z</time></trkpt><trkpt lat="58.059922" lon="38.813273"><ele>103.1</ele><time>2022-02-02T08:38:28Z</time></trkpt><trkpt lat="58.059908" lon="38.813327"><ele>103.1</ele><time>2022-02-02T08:38:29Z</time></trkpt><trkpt lat="58.0599" lon="38.813378"><ele>103.0</ele><time>2022-02-02T08:38:30Z</time></trkpt><trkpt lat="58.059888" lon="38.813462"><ele>103.0</ele><time>2022-02-02T08:38:31Z</time></trkpt><trkpt lat="58.059872" lon="38.813527"><ele>102.9</ele><time>2022-02-02T08:38:33Z</time></trkpt><trkpt lat="58.059868" lon="38.813555"><ele>102.9</ele><time>2022-02-02T08:38:34Z</time></trkpt><trkpt lat="58.059865" lon="38.813585"><ele>102.9</ele><time>2022-02-02T08:38:35Z</time></trkpt><trkpt lat="58.05986" lon="38.813623"><ele>102.9</ele><time>2022-02-02T08:38:37Z</time></trkpt><trkpt lat="58.059853" lon="38.813647"><ele>102.8</ele><time>2022-02-02T08:38:38Z</time></trkpt><trkpt lat="58.05985" lon="38.813702"><ele>102.8</ele><time>2022-02-02T08:38:40Z</time></trkpt><trkpt lat="58.059838" lon="38.813735"><ele>102.7</ele><time>2022-02-02T08:38:41Z</time></trkpt><trkpt lat="58.059832" lon="38.813745"><ele>102.7</ele><time>2022-02-02T08:38:42Z</time></trkpt><trkpt lat="58.059825" lon="38.813755"><ele>102.7</ele><time>2022-02-02T08:38:43Z</time></trkpt><trkpt lat="58.059805" lon="38.813775"><ele>102.7</ele><time>2022-02-02T08:38:44Z</time></trkpt><trkpt lat="58.059798" lon="38.813782"><ele>102.7</ele><time>2022-02-02T08:38:45Z</time></trkpt><trkpt lat="58.059792" lon="38.813787"><ele>102.7</ele><time>2022-02-02T08:38:46Z</time></trkpt><trkpt lat="58.059767" lon="38.813798"><ele>102.6</ele><time>2022-02-02T08:38:47Z</time></trkpt><trkpt lat="58.059753" lon="38.813807"><ele>102.6</ele><time>2022-02-02T08:38:48Z</time></trkpt><trkpt lat="58.05974" lon="38.813815"><ele>102.6</ele><time>2022-02-02T08:38:49Z</time></trkpt><trkpt lat="58.059732" lon="38.81382"><ele>102.6</ele><time>2022-02-02T08:38:50Z</time></trkpt><trkpt lat="58.05971" lon="38.813807"><ele>102.6</ele><time>2022-02-02T08:38:51Z</time></trkpt><trkpt lat="58.059687" lon="38.813808"><ele>102.6</ele><time>2022-02-02T08:38:52Z</time></trkpt><trkpt lat="58.059665" lon="38.813807"><ele>102.5</ele><time>2022-02-02T08:38:54Z</time></trkpt><trkpt lat="58.059635" lon="38.813805"><ele>102.5</ele><time>2022-02-02T08:38:55Z</time></trkpt><trkpt lat="58.059625" lon="38.813802"><ele>102.5</ele><time>2022-02-02T08:38:56Z</time></trkpt><trkpt lat="58.05959" lon="38.8138"><ele>102.5</ele><time>2022-02-02T08:38:57Z</time></trkpt><trkpt lat="58.059577" lon="38.813797"><ele>102.4</ele><time>2022-02-02T08:38:58Z</time></trkpt><trkpt lat="58.059522" lon="38.81377"><ele>102.4</ele><time>2022-02-02T08:38:59Z</time></trkpt><trkpt lat="58.059493" lon="38.813753"><ele>102.3</ele><time>2022-02-02T08:39:00Z</time></trkpt><trkpt lat="58.059472" lon="38.813723"><ele>102.3</ele><time>2022-02-02T08:39:01Z</time></trkpt><trkpt lat="58.059442" lon="38.813632"><ele>102.1</ele><time>2022-02-02T08:39:03Z</time></trkpt><trkpt lat="58.05943" lon="38.813582"><ele>102.2</ele><time>2022-02-02T08:39:04Z</time></trkpt><trkpt lat="58.059418" lon="38.81346"><ele>102.3</ele><time>2022-02-02T08:39:06Z</time></trkpt><trkpt lat="58.059415" lon="38.813335"><ele>102.4</ele><time>2022-02-02T08:39:08Z</time></trkpt><trkpt lat="58.059415" lon="38.813242"><ele>102.4</ele><time>2022-02-02T08:39:10Z</time></trkpt><trkpt lat="58.05941" lon="38.81315"><ele>102.5</ele><time>2022-02-02T08:39:11Z</time></trkpt><trkpt lat="58.059405" lon="38.813022"><ele>102.6</ele><time>2022-02-02T08:39:13Z</time></trkpt><trkpt lat="58.059402" lon="38.81296"><ele>102.6</ele><time>2022-02-02T08:39:15Z</time></trkpt><trkpt lat="58.059405" lon="38.812903"><ele>102.7</ele><time>2022-02-02T08:39:16Z</time></trkpt><trkpt lat="58.05941" lon="38.812847"><ele>102.7</ele><time>2022-02-02T08:39:17Z</time></trkpt><trkpt lat="58.059412" lon="38.812762"><ele>102.8</ele><time>2022-02-02T08:39:18Z</time></trkpt><trkpt lat="58.05942" lon="38.812692"><ele>102.8</ele><time>2022-02-02T08:39:19Z</time></trkpt><trkpt lat="58.059422" lon="38.81265"><ele>102.9</ele><time>2022-02-02T08:39:20Z</time></trkpt><trkpt lat="58.059427" lon="38.812602"><ele>102.9</ele><time>2022-02-02T08:39:22Z</time></trkpt><trkpt lat="58.059432" lon="38.812533"><ele>103.0</ele><time>2022-02-02T08:39:24Z</time></trkpt><trkpt lat="58.059448" lon="38.812477"><ele>103.0</ele><time>2022-02-02T08:39:25Z</time></trkpt><trkpt lat="58.059455" lon="38.81246"><ele>103.0</ele><time>2022-02-02T08:39:26Z</time></trkpt><trkpt lat="58.059485" lon="38.812438"><ele>103.1</ele><time>2022-02-02T08:39:27Z</time></trkpt><trkpt lat="58.059513" lon="38.81242"><ele>103.1</ele><time>2022-02-02T08:39:28Z</time></trkpt><trkpt lat="58.059563" lon="38.812393"><ele>103.2</ele><time>2022-02-02T08:39:30Z</time></trkpt><trkpt lat="58.059587" lon="38.812383"><ele>103.2</ele><time>2022-02-02T08:39:31Z</time></trkpt><trkpt lat="58.059608" lon="38.812373"><ele>103.2</ele><time>2022-02-02T08:39:32Z</time></trkpt><trkpt lat="58.059635" lon="38.81237"><ele>103.3</ele><time>2022-02-02T08:39:33Z</time></trkpt><trkpt lat="58.059682" lon="38.812358"><ele>103.4</ele><time>2022-02-02T08:39:34Z</time></trkpt><trkpt lat="58.05972" lon="38.81236"><ele>103.4</ele><time>2022-02-02T08:39:36Z</time></trkpt><trkpt lat="58.059785" lon="38.812375"><ele>103.5</ele><time>2022-02-02T08:39:37Z</time></trkpt><trkpt lat="58.05986" lon="38.812423"><ele>103.6</ele><time>2022-02-02T08:39:39Z</time></trkpt><trkpt lat="58.059902" lon="38.812527"><ele>103.7</ele><time>2022-02-02T08:39:41Z</time></trkpt><trkpt lat="58.05992" lon="38.812582"><ele>103.7</ele><time>2022-02-02T08:39:42Z</time></trkpt><trkpt lat="58.059925" lon="38.812667"><ele>103.6</ele><time>2022-02-02T08:39:44Z</time></trkpt><trkpt lat="58.05993" lon="38.8128"><ele>103.5</ele><time>2022-02-02T08:39:46Z</time></trkpt><trkpt lat="58.059927" lon="38.812887"><ele>103.4</ele><time>2022-02-02T08:39:47Z</time></trkpt><trkpt lat="58.059922" lon="38.813027"><ele>103.3</ele><time>2022-02-02T08:39:48Z</time></trkpt><trkpt lat="58.059917" lon="38.813127"><ele>103.3</ele><time>2022-02-02T08:39:49Z</time></trkpt><trkpt lat="58.05991" lon="38.813227"><ele>103.2</ele><time>2022-02-02T08:39:50Z</time></trkpt><trkpt lat="58.059898" lon="38.813297"><ele>103.1</ele><time>2022-02-02T08:39:52Z</time></trkpt><trkpt lat="58.05989" lon="38.813357"><ele>103.1</ele><time>2022-02-02T08:39:53Z</time></trkpt><trkpt lat="58.059885" lon="38.813417"><ele>103.0</ele><time>2022-02-02T08:39:54Z</time></trkpt><trkpt lat="58.059882" lon="38.813475"><ele>103.0</ele><time>2022-02-02T08:39:55Z</time></trkpt><trkpt lat="58.059872" lon="38.81354"><ele>102.9</ele><time>2022-02-02T08:39:56Z</time></trkpt><trkpt lat="58.059865" lon="38.813605"><ele>102.9</ele><time>2022-02-02T08:39:57Z</time></trkpt><trkpt lat="58.059857" lon="38.813665"><ele>102.9</ele><time>2022-02-02T08:39:58Z</time></trkpt><trkpt lat="58.059842" lon="38.813733"><ele>102.8</ele><time>2022-02-02T08:39:59Z</time></trkpt><trkpt lat="58.059828" lon="38.813793"><ele>102.8</ele><time>2022-02-02T08:40:00Z</time></trkpt><trkpt lat="58.0598" lon="38.813828"><ele>102.7</ele><time>2022-02-02T08:40:01Z</time></trkpt><trkpt lat="58.05975" lon="38.813858"><ele>102.7</ele><time>2022-02-02T08:40:02Z</time></trkpt><trkpt lat="58.059718" lon="38.813832"><ele>102.6</ele><time>2022-02-02T08:40:03Z</time></trkpt><trkpt lat="58.05969" lon="38.813808"><ele>102.6</ele><time>2022-02-02T08:40:05Z</time></trkpt><trkpt lat="58.059662" lon="38.8138"><ele>102.5</ele><time>2022-02-02T08:40:06Z</time></trkpt><trkpt lat="58.059633" lon="38.813788"><ele>102.5</ele><time>2022-02-02T08:40:07Z</time></trkpt><trkpt lat="58.059603" lon="38.813787"><ele>102.5</ele><time>2022-02-02T08:40:08Z</time></trkpt><trkpt lat="58.059573" lon="38.813785"><ele>102.4</ele><time>2022-02-02T08:40:09Z</time></trkpt><trkpt lat="58.059545" lon="38.813773"><ele>102.4</ele><time>2022-02-02T08:40:10Z</time></trkpt><trkpt lat="58.059513" lon="38.813755"><ele>102.4</ele><time>2022-02-02T08:40:11Z</time></trkpt><trkpt lat="58.059455" lon="38.813722"><ele>102.3</ele><time>2022-02-02T08:40:12Z</time></trkpt><trkpt lat="58.059417" lon="38.813705"><ele>102.3</ele><time>2022-02-02T08:40:14Z</time></trkpt><trkpt lat="58.059383" lon="38.813697"><ele>102.2</ele><time>2022-02-02T08:40:15Z</time></trkpt><trkpt lat="58.059352" lon="38.813683"><ele>102.2</ele><time>2022-02-02T08:40:16Z</time></trkpt><trkpt lat="58.059322" lon="38.81366"><ele>102.1</ele><time>2022-02-02T08:40:17Z</time></trkpt><trkpt lat="58.059297" lon="38.813633"><ele>102.1</ele><time>2022-02-02T08:40:18Z</time></trkpt><trkpt lat="58.059275" lon="38.813562"><ele>102.1</ele><time>2022-02-02T08:40:19Z</time></trkpt><trkpt lat="58.05928" lon="38.813462"><ele>102.2</ele><time>2022-02-02T08:40:21Z</time></trkpt><trkpt lat="58.059283" lon="38.813427"><ele>102.2</ele><time>2022-02-02T08:40:22Z</time></trkpt><trkpt lat="58.059287" lon="38.81339"><ele>102.3</ele><time>2022-02-02T08:40:23Z</time></trkpt><trkpt lat="58.059287" lon="38.813335"><ele>102.3</ele><time>2022-02-02T08:40:24Z</time></trkpt><trkpt lat="58.059293" lon="38.813278"><ele>102.3</ele><time>2022-02-02T08:40:25Z</time></trkpt><trkpt lat="58.0593" lon="38.813222"><ele>102.4</ele><time>2022-02-02T08:40:26Z</time></trkpt><trkpt lat="58.059317" lon="38.8131"><ele>102.5</ele><time>2022-02-02T08:40:27Z</time></trkpt><trkpt lat="58.05932" lon="38.81297"><ele>102.6</ele><time>2022-02-02T08:40:30Z</time></trkpt><trkpt lat="58.059323" lon="38.812892"><ele>102.6</ele><time>2022-02-02T08:40:31Z</time></trkpt><trkpt lat="58.059328" lon="38.812777"><ele>102.7</ele><time>2022-02-02T08:40:33Z</time></trkpt><trkpt lat="58.059338" lon="38.81273"><ele>102.7</ele><time>2022-02-02T08:40:35Z</time></trkpt><trkpt lat="58.05935" lon="38.812652"><ele>102.8</ele><time>2022-02-02T08:40:36Z</time></trkpt><trkpt lat="58.059357" lon="38.812617"><ele>102.8</ele><time>2022-02-02T08:40:37Z</time></trkpt><trkpt lat="58.059367" lon="38.81256"><ele>102.9</ele><time>2022-02-02T08:40:39Z</time></trkpt><trkpt lat="58.059382" lon="38.812505"><ele>102.9</ele><time>2022-02-02T08:40:40Z</time></trkpt><trkpt lat="58.059392" lon="38.812453"><ele>102.9</ele><time>2022-02-02T08:40:41Z</time></trkpt><trkpt lat="58.05942" lon="38.81239"><ele>103.0</ele><time>2022-02-02T08:40:43Z</time></trkpt><trkpt lat="58.059433" lon="38.812367"><ele>103.0</ele><time>2022-02-02T08:40:44Z</time></trkpt><trkpt lat="58.059467" lon="38.812357"><ele>103.1</ele><time>2022-02-02T08:40:46Z</time></trkpt><trkpt lat="58.059492" lon="38.812357"><ele>103.1</ele><time>2022-02-02T08:40:47Z</time></trkpt><trkpt lat="58.059537" lon="38.812347"><ele>103.2</ele><time>2022-02-02T08:40:49Z</time></trkpt><trkpt lat="58.05956" lon="38.812338"><ele>103.2</ele><time>2022-02-02T08:40:51Z</time></trkpt><trkpt lat="58.059595" lon="38.812325"><ele>103.2</ele><time>2022-02-02T08:40:52Z</time></trkpt><trkpt lat="58.059607" lon="38.812322"><ele>103.3</ele><time>2022-02-02T08:40:53Z</time></trkpt><trkpt lat="58.059635" lon="38.812318"><ele>103.3</ele><time>2022-02-02T08:40:54Z</time></trkpt><trkpt lat="58.059672" lon="38.81232"><ele>103.3</ele><time>2022-02-02T08:40:55Z</time></trkpt><trkpt lat="58.059687" lon="38.812327"><ele>103.4</ele><time>2022-02-02T08:40:56Z</time></trkpt><trkpt lat="58.059715" lon="38.812345"><ele>103.4</ele><time>2022-02-02T08:40:57Z</time></trkpt><trkpt lat="58.05977" lon="38.812393"><ele>103.5</ele><time>2022-02-02T08:40:58Z</time></trkpt><trkpt lat="58.059795" lon="38.812442"><ele>103.5</ele><time>2022-02-02T08:41:00Z</time></trkpt><trkpt lat="58.059813" lon="38.812492"><ele>103.6</ele><time>2022-02-02T08:41:01Z</time></trkpt><trkpt lat="58.059828" lon="38.81256"><ele>103.7</ele><time>2022-02-02T08:41:02Z</time></trkpt><trkpt lat="58.059838" lon="38.812627"><ele>103.6</ele><time>2022-02-02T08:41:03Z</time></trkpt><trkpt lat="58.059842" lon="38.812698"><ele>103.6</ele><time>2022-02-02T08:41:04Z</time></trkpt><trkpt lat="58.059847" lon="38.812768"><ele>103.5</ele><time>2022-02-02T08:41:05Z</time></trkpt><trkpt lat="58.059852" lon="38.81284"><ele>103.5</ele><time>2022-02-02T08:41:06Z</time></trkpt><trkpt lat="58.059855" lon="38.812998"><ele>103.3</ele><time>2022-02-02T08:41:07Z</time></trkpt><trkpt lat="58.059852" lon="38.81317"><ele>103.2</ele><time>2022-02-02T08:41:09Z</time></trkpt><trkpt lat="58.059845" lon="38.81325"><ele>103.2</ele><time>2022-02-02T08:41:11Z</time></trkpt><trkpt lat="58.05984" lon="38.813322"><ele>103.1</ele><time>2022-02-02T08:41:12Z</time></trkpt><trkpt lat="58.059835" lon="38.813387"><ele>103.1</ele><time>2022-02-02T08:41:13Z</time></trkpt><trkpt lat="58.059825" lon="38.813465"><ele>103.0</ele><time>2022-02-02T08:41:14Z</time></trkpt><trkpt lat="58.059817" lon="38.813625"><ele>102.9</ele><time>2022-02-02T08:41:16Z</time></trkpt><trkpt lat="58.059802" lon="38.813728"><ele>102.8</ele><time>2022-02-02T08:41:18Z</time></trkpt><trkpt lat="58.059782" lon="38.813805"><ele>102.8</ele><time>2022-02-02T08:41:20Z</time></trkpt><trkpt lat="58.059757" lon="38.813817"><ele>102.7</ele><time>2022-02-02T08:41:22Z</time></trkpt><trkpt lat="58.05973" lon="38.813797"><ele>102.6</ele><time>2022-02-02T08:41:23Z</time></trkpt><trkpt lat="58.059687" lon="38.813752"><ele>102.6</ele><time>2022-02-02T08:41:24Z</time></trkpt><trkpt lat="58.059642" lon="38.813727"><ele>102.5</ele><time>2022-02-02T08:41:26Z</time></trkpt><trkpt lat="58.059603" lon="38.81371"><ele>102.5</ele><time>2022-02-02T08:41:27Z</time></trkpt><trkpt lat="58.059555" lon="38.813702"><ele>102.4</ele><time>2022-02-02T08:41:28Z</time></trkpt><trkpt lat="58.05952" lon="38.813695"><ele>102.4</ele><time>2022-02-02T08:41:30Z</time></trkpt><trkpt lat="58.05949" lon="38.813685"><ele>102.3</ele><time>2022-02-02T08:41:31Z</time></trkpt><trkpt lat="58.059432" lon="38.813647"><ele>102.3</ele><time>2022-02-02T08:41:33Z</time></trkpt><trkpt lat="58.059402" lon="38.81364"><ele>102.2</ele><time>2022-02-02T08:41:34Z</time></trkpt><trkpt lat="58.05935" lon="38.813633"><ele>102.2</ele><time>2022-02-02T08:41:35Z</time></trkpt><trkpt lat="58.059293" lon="38.81361"><ele>102.1</ele><time>2022-02-02T08:41:37Z</time></trkpt><trkpt lat="58.059277" lon="38.813602"><ele>102.1</ele><time>2022-02-02T08:41:38Z</time></trkpt><trkpt lat="58.05927" lon="38.813557"><ele>102.2</ele><time>2022-02-02T08:41:40Z</time></trkpt><trkpt lat="58.059272" lon="38.81352"><ele>102.2</ele><time>2022-02-02T08:41:42Z</time></trkpt><trkpt lat="58.059282" lon="38.813468"><ele>102.2</ele><time>2022-02-02T08:41:44Z</time></trkpt><trkpt lat="58.059295" lon="38.813443"><ele>102.3</ele><time>2022-02-02T08:41:45Z</time></trkpt><trkpt lat="58.059297" lon="38.813437"><ele>102.3</ele><time>2022-02-02T08:41:46Z</time></trkpt><trkpt lat="58.0593" lon="38.813445"><ele>102.3</ele><time>2022-02-02T08:41:47Z</time></trkpt><trkpt lat="58.0593" lon="38.81344"><ele>102.3</ele><time>2022-02-02T08:41:48Z</time></trkpt><trkpt lat="58.059302" lon="38.813427"><ele>102.3</ele><time>2022-02-02T08:41:49Z</time></trkpt><trkpt lat="58.05931" lon="38.813357"><ele>102.3</ele><time>2022-02-02T08:41:50Z</time></trkpt><trkpt lat="58.059313" lon="38.813323"><ele>102.4</ele><time>2022-02-02T08:41:51Z</time></trkpt><trkpt lat="58.059322" lon="38.81327"><ele>102.4</ele><time>2022-02-02T08:41:52Z</time></trkpt><trkpt lat="58.059332" lon="38.813212"><ele>102.4</ele><time>2022-02-02T08:41:54Z</time></trkpt><trkpt lat="58.05934" lon="38.81316"><ele>102.5</ele><time>2022-02-02T08:41:55Z</time></trkpt><trkpt lat="58.059345" lon="38.813073"><ele>102.6</ele><time>2022-02-02T08:41:56Z</time></trkpt><trkpt lat="58.05935" lon="38.813007"><ele>102.6</ele><time>2022-02-02T08:41:58Z</time></trkpt><trkpt lat="58.05936" lon="38.812953"><ele>102.6</ele><time>2022-02-02T08:42:00Z</time></trkpt><trkpt lat="58.059373" lon="38.812897"><ele>102.7</ele><time>2022-02-02T08:42:01Z</time></trkpt><trkpt lat="58.059392" lon="38.812777"><ele>102.8</ele><time>2022-02-02T08:42:03Z</time></trkpt><trkpt lat="58.059402" lon="38.812717"><ele>102.8</ele><time>2022-02-02T08:42:04Z</time></trkpt><trkpt lat="58.059412" lon="38.812632"><ele>102.9</ele><time>2022-02-02T08:42:06Z</time></trkpt><trkpt lat="58.059427" lon="38.812558"><ele>103.0</ele><time>2022-02-02T08:42:08Z</time></trkpt><trkpt lat="58.059452" lon="38.812502"><ele>103.0</ele><time>2022-02-02T08:42:09Z</time></trkpt><trkpt lat="58.059463" lon="38.81249"><ele>103.0</ele><time>2022-02-02T08:42:10Z</time></trkpt><trkpt lat="58.059495" lon="38.812482"><ele>103.1</ele><time>2022-02-02T08:42:12Z</time></trkpt><trkpt lat="58.059505" lon="38.812482"><ele>103.1</ele><time>2022-02-02T08:42:13Z</time></trkpt><trkpt lat="58.059522" lon="38.81248"><ele>103.1</ele><time>2022-02-02T08:42:14Z</time></trkpt><trkpt lat="58.059552" lon="38.812463"><ele>103.2</ele><time>2022-02-02T08:42:16Z</time></trkpt><trkpt lat="58.059585" lon="38.812452"><ele>103.2</ele><time>2022-02-02T08:42:17Z</time></trkpt><trkpt lat="58.059627" lon="38.812417"><ele>103.3</ele><time>2022-02-02T08:42:19Z</time></trkpt><trkpt lat="58.059655" lon="38.812397"><ele>103.3</ele><time>2022-02-02T08:42:21Z</time></trkpt><trkpt lat="58.059685" lon="38.812377"><ele>103.4</ele><time>2022-02-02T08:42:22Z</time></trkpt><trkpt lat="58.05971" lon="38.812357"><ele>103.4</ele><time>2022-02-02T08:42:23Z</time></trkpt><trkpt lat="58.059745" lon="38.81236"><ele>103.4</ele><time>2022-02-02T08:42:24Z</time></trkpt><trkpt lat="58.059802" lon="38.812375"><ele>103.5</ele><time>2022-02-02T08:42:25Z</time></trkpt><trkpt lat="58.059828" lon="38.81239"><ele>103.6</ele><time>2022-02-02T08:42:26Z</time></trkpt><trkpt lat="58.05987" lon="38.812418"><ele>103.6</ele><time>2022-02-02T08:42:27Z</time></trkpt><trkpt lat="58.059912" lon="38.812448"><ele>103.7</ele><time>2022-02-02T08:42:29Z</time></trkpt><trkpt lat="58.059945" lon="38.8125"><ele>103.7</ele><time>2022-02-02T08:42:30Z</time></trkpt><trkpt lat="58.059963" lon="38.812573"><ele>103.7</ele><time>2022-02-02T08:42:31Z</time></trkpt><trkpt lat="58.059972" lon="38.812667"><ele>103.6</ele><time>2022-02-02T08:42:32Z</time></trkpt><trkpt lat="58.059967" lon="38.812762"><ele>103.5</ele><time>2022-02-02T08:42:34Z</time></trkpt><trkpt lat="58.059968" lon="38.812835"><ele>103.5</ele><time>2022-02-02T08:42:35Z</time></trkpt><trkpt lat="58.05996" lon="38.812917"><ele>103.4</ele><time>2022-02-02T08:42:36Z</time></trkpt><trkpt lat="58.059955" lon="38.81299"><ele>103.4</ele><time>2022-02-02T08:42:37Z</time></trkpt><trkpt lat="58.059943" lon="38.813137"><ele>103.3</ele><time>2022-02-02T08:42:38Z</time></trkpt><trkpt lat="58.059937" lon="38.813215"><ele>103.2</ele><time>2022-02-02T08:42:39Z</time></trkpt><trkpt lat="58.059932" lon="38.813305"><ele>103.2</ele><time>2022-02-02T08:42:41Z</time></trkpt><trkpt lat="58.059923" lon="38.813377"><ele>103.1</ele><time>2022-02-02T08:42:42Z</time></trkpt><trkpt lat="58.059907" lon="38.813458"><ele>103.1</ele><time>2022-02-02T08:42:43Z</time></trkpt><trkpt lat="58.059895" lon="38.813542"><ele>103.0</ele><time>2022-02-02T08:42:44Z</time></trkpt><trkpt lat="58.059887" lon="38.813622"><ele>102.9</ele><time>2022-02-02T08:42:45Z</time></trkpt><trkpt lat="58.059885" lon="38.8137"><ele>102.9</ele><time>2022-02-02T08:42:47Z</time></trkpt><trkpt lat="58.059875" lon="38.813748"><ele>102.9</ele><time>2022-02-02T08:42:48Z</time></trkpt><trkpt lat="58.059867" lon="38.813813"><ele>102.8</ele><time>2022-02-02T08:42:49Z</time></trkpt><trkpt lat="58.059865" lon="38.813835"><ele>102.8</ele><time>2022-02-02T08:42:50Z</time></trkpt><trkpt lat="58.059847" lon="38.813855"><ele>102.8</ele><time>2022-02-02T08:42:51Z</time></trkpt><trkpt lat="58.059837" lon="38.81387"><ele>102.8</ele><time>2022-02-02T08:42:53Z</time></trkpt><trkpt lat="58.059823" lon="38.81388"><ele>102.7</ele><time>2022-02-02T08:42:54Z</time></trkpt><trkpt lat="58.05981" lon="38.813887"><ele>102.7</ele><time>2022-02-02T08:42:55Z</time></trkpt><trkpt lat="58.059795" lon="38.813892"><ele>102.7</ele><time>2022-02-02T08:42:56Z</time></trkpt><trkpt lat="58.05978" lon="38.813892"><ele>102.7</ele><time>2022-02-02T08:42:57Z</time></trkpt><trkpt lat="58.059757" lon="38.81389"><ele>102.7</ele><time>2022-02-02T08:42:58Z</time></trkpt><trkpt lat="58.059745" lon="38.813887"><ele>102.7</ele><time>2022-02-02T08:42:59Z</time></trkpt><trkpt lat="58.059733" lon="38.813882"><ele>102.6</ele><time>2022-02-02T08:43:00Z</time></trkpt><trkpt lat="58.059688" lon="38.81384"><ele>102.6</ele><time>2022-02-02T08:43:02Z</time></trkpt><trkpt lat="58.05966" lon="38.813812"><ele>102.5</ele><time>2022-02-02T08:43:04Z</time></trkpt><trkpt lat="58.059635" lon="38.813775"><ele>102.5</ele><time>2022-02-02T08:43:05Z</time></trkpt><trkpt lat="58.059602" lon="38.81376"><ele>102.5</ele><time>2022-02-02T08:43:07Z</time></trkpt><trkpt lat="58.059592" lon="38.813755"><ele>102.5</ele><time>2022-02-02T08:43:08Z</time></trkpt><trkpt lat="58.059558" lon="38.813747"><ele>102.4</ele><time>2022-02-02T08:43:09Z</time></trkpt><trkpt lat="58.059547" lon="38.813747"><ele>102.4</ele><time>2022-02-02T08:43:10Z</time></trkpt><trkpt lat="58.059515" lon="38.813748"><ele>102.4</ele><time>2022-02-02T08:43:11Z</time></trkpt><trkpt lat="58.059502" lon="38.813745"><ele>102.4</ele><time>2022-02-02T08:43:12Z</time></trkpt><trkpt lat="58.059445" lon="38.813725"><ele>102.3</ele><time>2022-02-02T08:43:13Z</time></trkpt><trkpt lat="58.059407" lon="38.813698"><ele>102.2</ele><time>2022-02-02T08:43:15Z</time></trkpt><trkpt lat="58.059382" lon="38.813672"><ele>102.2</ele><time>2022-02-02T08:43:16Z</time></trkpt><trkpt lat="58.059362" lon="38.813592"><ele>102.1</ele><time>2022-02-02T08:43:17Z</time></trkpt><trkpt lat="58.05936" lon="38.813545"><ele>102.2</ele><time>2022-02-02T08:43:18Z</time></trkpt><trkpt lat="58.05936" lon="38.813483"><ele>102.2</ele><time>2022-02-02T08:43:19Z</time></trkpt><trkpt lat="58.05936" lon="38.813422"><ele>102.3</ele><time>2022-02-02T08:43:20Z</time></trkpt><trkpt lat="58.059365" lon="38.81336"><ele>102.3</ele><time>2022-02-02T08:43:21Z</time></trkpt><trkpt lat="58.059375" lon="38.813227"><ele>102.4</ele><time>2022-02-02T08:43:23Z</time></trkpt><trkpt lat="58.059382" lon="38.813167"><ele>102.5</ele><time>2022-02-02T08:43:24Z</time></trkpt><trkpt lat="58.059388" lon="38.813097"><ele>102.5</ele><time>2022-02-02T08:43:26Z</time></trkpt><trkpt lat="58.059395" lon="38.812997"><ele>102.6</ele><time>2022-02-02T08:43:27Z</time></trkpt><trkpt lat="58.059402" lon="38.812897"><ele>102.7</ele><time>2022-02-02T08:43:29Z</time></trkpt><trkpt lat="58.059405" lon="38.812857"><ele>102.7</ele><time>2022-02-02T08:43:30Z</time></trkpt><trkpt lat="58.05941" lon="38.812817"><ele>102.7</ele><time>2022-02-02T08:43:31Z</time></trkpt><trkpt lat="58.05942" lon="38.81275"><ele>102.8</ele><time>2022-02-02T08:43:33Z</time></trkpt><trkpt lat="58.059425" lon="38.812692"><ele>102.8</ele><time>2022-02-02T08:43:34Z</time></trkpt><trkpt lat="58.059437" lon="38.812622"><ele>102.9</ele><time>2022-02-02T08:43:35Z</time></trkpt><trkpt lat="58.059442" lon="38.812562"><ele>102.9</ele><time>2022-02-02T08:43:36Z</time></trkpt><trkpt lat="58.05945" lon="38.812492"><ele>103.0</ele><time>2022-02-02T08:43:37Z</time></trkpt><trkpt lat="58.059457" lon="38.812452"><ele>103.0</ele><time>2022-02-02T08:43:38Z</time></trkpt><trkpt lat="58.059462" lon="38.81243"><ele>103.0</ele><time>2022-02-02T08:43:40Z</time></trkpt><trkpt lat="58.05947" lon="38.812422"><ele>103.0</ele><time>2022-02-02T08:43:42Z</time></trkpt><trkpt lat="58.059465" lon="38.812463"><ele>103.0</ele><time>2022-02-02T08:43:44Z</time></trkpt><trkpt lat="58.059462" lon="38.812487"><ele>103.1</ele><time>2022-02-02T08:43:45Z</time></trkpt><trkpt lat="58.059465" lon="38.812485"><ele>103.1</ele><time>2022-02-02T08:43:46Z</time></trkpt><trkpt lat="58.059468" lon="38.812482"><ele>103.1</ele><time>2022-02-02T08:43:47Z</time></trkpt><trkpt lat="58.059472" lon="38.812478"><ele>103.1</ele><time>2022-02-02T08:43:48Z</time></trkpt><trkpt lat="58.059475" lon="38.812475"><ele>103.1</ele><time>2022-02-02T08:43:49Z</time></trkpt><trkpt lat="58.059478" lon="38.812472"><ele>103.1</ele><time>2022-02-02T08:43:50Z</time></trkpt><trkpt lat="58.059482" lon="38.812468"><ele>103.1</ele><time>2022-02-02T08:43:51Z</time></trkpt><trkpt lat="58.059485" lon="38.812465"><ele>103.1</ele><time>2022-02-02T08:43:52Z</time></trkpt><trkpt lat="58.059487" lon="38.812462"><ele>103.1</ele><time>2022-02-02T08:43:53Z</time></trkpt><trkpt lat="58.05949" lon="38.81246"><ele>103.1</ele><time>2022-02-02T08:43:54Z</time></trkpt><trkpt lat="58.059493" lon="38.812457"><ele>103.1</ele><time>2022-02-02T08:43:55Z</time></trkpt><trkpt lat="58.059497" lon="38.812452"><ele>103.1</ele><time>2022-02-02T08:43:56Z</time></trkpt><trkpt lat="58.0595" lon="38.81245"><ele>103.1</ele><time>2022-02-02T08:43:57Z</time></trkpt><trkpt lat="58.059503" lon="38.812447"><ele>103.1</ele><time>2022-02-02T08:43:58Z</time></trkpt><trkpt lat="58.059507" lon="38.812443"><ele>103.1</ele><time>2022-02-02T08:43:59Z</time></trkpt><trkpt lat="58.059542" lon="38.812422"><ele>103.2</ele><time>2022-02-02T08:44:00Z</time></trkpt><trkpt lat="58.059557" lon="38.812427"><ele>103.2</ele><time>2022-02-02T08:44:02Z</time></trkpt><trkpt lat="58.059573" lon="38.812432"><ele>103.2</ele><time>2022-02-02T08:44:03Z</time></trkpt><trkpt lat="58.059605" lon="38.81242"><ele>103.3</ele><time>2022-02-02T08:44:04Z</time></trkpt><trkpt lat="58.05965" lon="38.81241"><ele>103.3</ele><time>2022-02-02T08:44:06Z</time></trkpt><trkpt lat="58.05971" lon="38.812403"><ele>103.4</ele><time>2022-02-02T08:44:08Z</time></trkpt><trkpt lat="58.059737" lon="38.812405"><ele>103.5</ele><time>2022-02-02T08:44:10Z</time></trkpt><trkpt lat="58.059777" lon="38.812415"><ele>103.5</ele><time>2022-02-02T08:44:11Z</time></trkpt><trkpt lat="58.059792" lon="38.812422"><ele>103.5</ele><time>2022-02-02T08:44:12Z</time></trkpt><trkpt lat="58.059828" lon="38.812437"><ele>103.6</ele><time>2022-02-02T08:44:13Z</time></trkpt><trkpt lat="58.059842" lon="38.812445"><ele>103.6</ele><time>2022-02-02T08:44:14Z</time></trkpt><trkpt lat="58.05988" lon="38.812452"><ele>103.7</ele><time>2022-02-02T08:44:16Z</time></trkpt><trkpt lat="58.059917" lon="38.812468"><ele>103.7</ele><time>2022-02-02T08:44:17Z</time></trkpt><trkpt lat="58.059947" lon="38.81251"><ele>103.7</ele><time>2022-02-02T08:44:19Z</time></trkpt><trkpt lat="58.059965" lon="38.812577"><ele>103.7</ele><time>2022-02-02T08:44:20Z</time></trkpt><trkpt lat="58.059992" lon="38.812605"><ele>103.6</ele><time>2022-02-02T08:44:22Z</time></trkpt><trkpt lat="58.059987" lon="38.812597"><ele>103.6</ele><time>2022-02-02T08:44:23Z</time></trkpt><trkpt lat="58.05999" lon="38.812617"><ele>103.6</ele><time>2022-02-02T08:44:24Z</time></trkpt><trkpt lat="58.059987" lon="38.812615"><ele>103.6</ele><time>2022-02-02T08:44:25Z</time></trkpt><trkpt lat="58.059987" lon="38.812598"><ele>103.6</ele><time>2022-02-02T08:44:27Z</time></trkpt><trkpt lat="58.059983" lon="38.812602"><ele>103.6</ele><time>2022-02-02T08:44:29Z</time></trkpt><trkpt lat="58.059982" lon="38.812652"><ele>103.6</ele><time>2022-02-02T08:44:30Z</time></trkpt><trkpt lat="58.059967" lon="38.812753"><ele>103.5</ele><time>2022-02-02T08:44:32Z</time></trkpt><trkpt lat="58.059955" lon="38.812837"><ele>103.4</ele><time>2022-02-02T08:44:33Z</time></trkpt><trkpt lat="58.05995" lon="38.812873"><ele>103.4</ele><time>2022-02-02T08:44:34Z</time></trkpt><trkpt lat="58.05994" lon="38.812955"><ele>103.4</ele><time>2022-02-02T08:44:36Z</time></trkpt><trkpt lat="58.059928" lon="38.813057"><ele>103.3</ele><time>2022-02-02T08:44:38Z</time></trkpt><trkpt lat="58.059918" lon="38.813135"><ele>103.3</ele><time>2022-02-02T08:44:39Z</time></trkpt><trkpt lat="58.059913" lon="38.81317"><ele>103.2</ele><time>2022-02-02T08:44:40Z</time></trkpt><trkpt lat="58.0599" lon="38.81325"><ele>103.2</ele><time>2022-02-02T08:44:42Z</time></trkpt><trkpt lat="58.059897" lon="38.813277"><ele>103.2</ele><time>2022-02-02T08:44:43Z</time></trkpt><trkpt lat="58.059895" lon="38.813305"><ele>103.1</ele><time>2022-02-02T08:44:44Z</time></trkpt><trkpt lat="58.059888" lon="38.813365"><ele>103.1</ele><time>2022-02-02T08:44:45Z</time></trkpt><trkpt lat="58.059887" lon="38.813418"><ele>103.1</ele><time>2022-02-02T08:44:46Z</time></trkpt><trkpt lat="58.059882" lon="38.813487"><ele>103.0</ele><time>2022-02-02T08:44:48Z</time></trkpt><trkpt lat="58.059877" lon="38.81351"><ele>103.0</ele><time>2022-02-02T08:44:49Z</time></trkpt><trkpt lat="58.059865" lon="38.81359"><ele>103.0</ele><time>2022-02-02T08:44:50Z</time></trkpt><trkpt lat="58.059862" lon="38.81365"><ele>102.9</ele><time>2022-02-02T08:44:51Z</time></trkpt><trkpt lat="58.059857" lon="38.813707"><ele>102.9</ele><time>2022-02-02T08:44:52Z</time></trkpt><trkpt lat="58.059847" lon="38.813812"><ele>102.8</ele><time>2022-02-02T08:44:54Z</time></trkpt><trkpt lat="58.05984" lon="38.813862"><ele>102.8</ele><time>2022-02-02T08:44:55Z</time></trkpt><trkpt lat="58.059815" lon="38.81393"><ele>102.8</ele><time>2022-02-02T08:44:58Z</time></trkpt><trkpt lat="58.0598" lon="38.813945"><ele>102.7</ele><time>2022-02-02T08:44:59Z</time></trkpt><trkpt lat="58.059783" lon="38.813935"><ele>102.7</ele><time>2022-02-02T08:45:00Z</time></trkpt><trkpt lat="58.059772" lon="38.813947"><ele>102.7</ele><time>2022-02-02T08:45:01Z</time></trkpt><trkpt lat="58.059738" lon="38.81393"><ele>102.6</ele><time>2022-02-02T08:45:03Z</time></trkpt><trkpt lat="58.059713" lon="38.813905"><ele>102.6</ele><time>2022-02-02T08:45:04Z</time></trkpt><trkpt lat="58.059705" lon="38.8139"><ele>102.6</ele><time>2022-02-02T08:45:05Z</time></trkpt><trkpt lat="58.059688" lon="38.813885"><ele>102.6</ele><time>2022-02-02T08:45:06Z</time></trkpt><trkpt lat="58.059657" lon="38.813867"><ele>102.5</ele><time>2022-02-02T08:45:07Z</time></trkpt><trkpt lat="58.059637" lon="38.81385"><ele>102.5</ele><time>2022-02-02T08:45:09Z</time></trkpt><trkpt lat="58.059608" lon="38.813827"><ele>102.5</ele><time>2022-02-02T08:45:10Z</time></trkpt><trkpt lat="58.059598" lon="38.813817"><ele>102.5</ele><time>2022-02-02T08:45:11Z</time></trkpt><trkpt lat="58.059572" lon="38.813797"><ele>102.4</ele><time>2022-02-02T08:45:12Z</time></trkpt><trkpt lat="58.059562" lon="38.81379"><ele>102.4</ele><time>2022-02-02T08:45:13Z</time></trkpt><trkpt lat="58.059527" lon="38.813772"><ele>102.4</ele><time>2022-02-02T08:45:14Z</time></trkpt><trkpt lat="58.059517" lon="38.813765"><ele>102.4</ele><time>2022-02-02T08:45:15Z</time></trkpt><trkpt lat="58.059502" lon="38.813757"><ele>102.4</ele><time>2022-02-02T08:45:16Z</time></trkpt><trkpt lat="58.05948" lon="38.813757"><ele>102.3</ele><time>2022-02-02T08:45:18Z</time></trkpt><trkpt lat="58.059452" lon="38.813748"><ele>102.3</ele><time>2022-02-02T08:45:19Z</time></trkpt><trkpt lat="58.059422" lon="38.813737"><ele>102.3</ele><time>2022-02-02T08:45:20Z</time></trkpt><trkpt lat="58.059375" lon="38.813725"><ele>102.2</ele><time>2022-02-02T08:45:22Z</time></trkpt><trkpt lat="58.059347" lon="38.81371"><ele>102.2</ele><time>2022-02-02T08:45:24Z</time></trkpt><trkpt lat="58.059312" lon="38.813663"><ele>102.1</ele><time>2022-02-02T08:45:25Z</time></trkpt><trkpt lat="58.059297" lon="38.813632"><ele>102.1</ele><time>2022-02-02T08:45:26Z</time></trkpt><trkpt lat="58.059292" lon="38.813592"><ele>102.1</ele><time>2022-02-02T08:45:28Z</time></trkpt><trkpt lat="58.059295" lon="38.813533"><ele>102.2</ele><time>2022-02-02T08:45:29Z</time></trkpt><trkpt lat="58.059292" lon="38.813468"><ele>102.2</ele><time>2022-02-02T08:45:31Z</time></trkpt><trkpt lat="58.059302" lon="38.813402"><ele>102.3</ele><time>2022-02-02T08:45:32Z</time></trkpt><trkpt lat="58.059305" lon="38.813337"><ele>102.3</ele><time>2022-02-02T08:45:33Z</time></trkpt><trkpt lat="58.05931" lon="38.813293"><ele>102.4</ele><time>2022-02-02T08:45:35Z</time></trkpt><trkpt lat="58.059315" lon="38.813208"><ele>102.4</ele><time>2022-02-02T08:45:37Z</time></trkpt><trkpt lat="58.05933" lon="38.813145"><ele>102.5</ele><time>2022-02-02T08:45:38Z</time></trkpt><trkpt lat="58.059332" lon="38.813118"><ele>102.5</ele><time>2022-02-02T08:45:39Z</time></trkpt><trkpt lat="58.059337" lon="38.813057"><ele>102.5</ele><time>2022-02-02T08:45:40Z</time></trkpt><trkpt lat="58.059343" lon="38.813002"><ele>102.6</ele><time>2022-02-02T08:45:42Z</time></trkpt><trkpt lat="58.05935" lon="38.812947"><ele>102.6</ele><time>2022-02-02T08:45:43Z</time></trkpt><trkpt lat="58.059355" lon="38.8129"><ele>102.7</ele><time>2022-02-02T08:45:44Z</time></trkpt><trkpt lat="58.059365" lon="38.812843"><ele>102.7</ele><time>2022-02-02T08:45:46Z</time></trkpt><trkpt lat="58.05937" lon="38.812792"><ele>102.7</ele><time>2022-02-02T08:45:47Z</time></trkpt><trkpt lat="58.059382" lon="38.81272"><ele>102.8</ele><time>2022-02-02T08:45:49Z</time></trkpt><trkpt lat="58.059385" lon="38.812692"><ele>102.8</ele><time>2022-02-02T08:45:50Z</time></trkpt><trkpt lat="58.059395" lon="38.812598"><ele>102.9</ele><time>2022-02-02T08:45:52Z</time></trkpt><trkpt lat="58.0594" lon="38.81256"><ele>102.9</ele><time>2022-02-02T08:45:54Z</time></trkpt><trkpt lat="58.059402" lon="38.812502"><ele>103.0</ele><time>2022-02-02T08:45:55Z</time></trkpt><trkpt lat="58.059405" lon="38.812482"><ele>103.0</ele><time>2022-02-02T08:45:56Z</time></trkpt><trkpt lat="58.059415" lon="38.812427"><ele>103.0</ele><time>2022-02-02T08:45:57Z</time></trkpt><trkpt lat="58.059423" lon="38.812418"><ele>103.0</ele><time>2022-02-02T08:45:58Z</time></trkpt><trkpt lat="58.059445" lon="38.81242"><ele>103.1</ele><time>2022-02-02T08:46:00Z</time></trkpt><trkpt lat="58.059462" lon="38.812407"><ele>103.1</ele><time>2022-02-02T08:46:01Z</time></trkpt><trkpt lat="58.05949" lon="38.812387"><ele>103.1</ele><time>2022-02-02T08:46:03Z</time></trkpt><trkpt lat="58.05953" lon="38.812372"><ele>103.2</ele><time>2022-02-02T08:46:05Z</time></trkpt><trkpt lat="58.059563" lon="38.812358"><ele>103.2</ele><time>2022-02-02T08:46:07Z</time></trkpt><trkpt lat="58.059592" lon="38.812338"><ele>103.3</ele><time>2022-02-02T08:46:08Z</time></trkpt><trkpt lat="58.05963" lon="38.813732"><ele>102.4</ele><time>2022-02-02T08:47:18Z</time></trkpt></trkseg></trk></gpx>