<?xml version="1.0" encoding="UTF-8" standalone="no"?><gpx xmlns="http://www.topografix.com/GPX/1/1" xmlns:gpxtpx="http://www.garmin.com/xmlschemas/TrackPointExtension/v1" xmlns:xsi="http://www.w3.org/2001/XMLSchema-instance" creator="Sports Tracker" version="1.1" xsi:schemaLocation="http://www.topografix.com/GPX/1/1 http://www.topografix.com/GPX/1/1/gpx.xsd http://www.garmin.com/xmlschemas/TrackPointExtension/v1 http://www.garmin.com/xmlschemas/TrackPointExtensionv1.xsd"><metadata><name/><desc/><author><name>Александр</name></author></metadata><trk><name/><trkseg><trkpt lat="58.05857" lon="38.816737"><ele>101.5</ele><time>2023-05-13T18:09:33Z</time></trkpt><trkpt lat="58.058952" lon="38.81671"><ele>101.3</ele><time>2023-05-13T18:09:40Z</time></trkpt><trkpt lat="58.059047" lon="38.816708"><ele>103.8</ele><time>2023-05-13T18:09:42Z</time></trkpt><trkpt lat="58.05878" lon="38.81685"><ele>103.7</ele><time>2023-05-13T18:09:45Z</time></trkpt><trkpt lat="58.058755" lon="38.816982"><ele>105.5</ele><time>2023-05-13T18:09:48Z</time></trkpt><trkpt lat="58.058747" lon="38.817127"><ele>105.1</ele><time>2023-05-13T18:09:52Z</time></trkpt><trkpt lat="58.058785" lon="38.817267"><ele>104.1</ele><time>2023-05-13T18:09:56Z</time></trkpt><trkpt lat="58.058853" lon="38.817308"><ele>104.5</ele><time>2023-05-13T18:09:59Z</time></trkpt><trkpt lat="58.058945" lon="38.81732"><ele>103.6</ele><time>2023-05-13T18:10:02Z</time></trkpt><trkpt lat="58.059038" lon="38.817312"><ele>103.9</ele><time>2023-05-13T18:10:05Z</time></trkpt><trkpt lat="58.059112" lon="38.81728"><ele>104.1</ele><time>2023-05-13T18:10:07Z</time></trkpt><trkpt lat="58.059193" lon="38.817248"><ele>104.4</ele><time>2023-05-13T18:10:09Z</time></trkpt><trkpt lat="58.059275" lon="38.817245"><ele>103.4</ele><time>2023-05-13T18:10:11Z</time></trkpt><trkpt lat="58.059347" lon="38.817263"><ele>103.3</ele><time>2023-05-13T18:10:13Z</time></trkpt><trkpt lat="58.059458" lon="38.817312"><ele>103.5</ele><time>2023-05-13T18:10:16Z</time></trkpt><trkpt lat="58.059525" lon="38.817398"><ele>103.5</ele><time>2023-05-13T18:10:17Z</time></trkpt><trkpt lat="58.059628" lon="38.817432"><ele>102.9</ele><time>2023-05-13T18:10:19Z</time></trkpt><trkpt lat="58.059708" lon="38.817452"><ele>101.6</ele><time>2023-05-13T18:10:21Z</time></trkpt><trkpt lat="58.059808" lon="38.817647"><ele>100.4</ele><time>2023-05-13T18:10:27Z</time></trkpt><trkpt lat="58.059893" lon="38.817742"><ele>100.8</ele><time>2023-05-13T18:10:33Z</time></trkpt><trkpt lat="58.059985" lon="38.817818"><ele>100.3</ele><time>2023-05-13T18:10:36Z</time></trkpt><trkpt lat="58.060008" lon="38.81797"><ele>100.2</ele><time>2023-05-13T18:10:38Z</time></trkpt><trkpt lat="58.059965" lon="38.818098"><ele>100.1</ele><time>2023-05-13T18:10:39Z</time></trkpt><trkpt lat="58.059975" lon="38.818292"><ele>99.5</ele><time>2023-05-13T18:10:41Z</time></trkpt><trkpt lat="58.059953" lon="38.818518"><ele>99.7</ele><time>2023-05-13T18:10:43Z</time></trkpt><trkpt lat="58.059938" lon="38.818755"><ele>99.0</ele><time>2023-05-13T18:10:45Z</time></trkpt><trkpt lat="58.059923" lon="38.819002"><ele>99.1</ele><time>2023-05-13T18:10:47Z</time></trkpt><trkpt lat="58.059923" lon="38.81922"><ele>98.4</ele><time>2023-05-13T18:10:49Z</time></trkpt><trkpt lat="58.059922" lon="38.819413"><ele>98.7</ele><time>2023-05-13T18:10:51Z</time></trkpt><trkpt lat="58.059908" lon="38.81962"><ele>98.4</ele><time>2023-05-13T18:10:53Z</time></trkpt><trkpt lat="58.059907" lon="38.819793"><ele>98.1</ele><time>2023-05-13T18:10:55Z</time></trkpt><trkpt lat="58.059892" lon="38.819948"><ele>98.8</ele><time>2023-05-13T18:10:57Z</time></trkpt><trkpt lat="58.059875" lon="38.820128"><ele>99.3</ele><time>2023-05-13T18:10:59Z</time></trkpt><trkpt lat="58.059843" lon="38.82031"><ele>99.6</ele><time>2023-05-13T18:11:02Z</time></trkpt><trkpt lat="58.059833" lon="38.820448"><ele>98.8</ele><time>2023-05-13T18:11:04Z</time></trkpt><trkpt lat="58.059827" lon="38.820583"><ele>98.5</ele><time>2023-05-13T18:11:06Z</time></trkpt><trkpt lat="58.059823" lon="38.820742"><ele>98.6</ele><time>2023-05-13T18:11:09Z</time></trkpt><trkpt lat="58.059825" lon="38.820903"><ele>98.9</ele><time>2023-05-13T18:11:13Z</time></trkpt><trkpt lat="58.059825" lon="38.821052"><ele>99.4</ele><time>2023-05-13T18:11:18Z</time></trkpt><trkpt lat="58.059832" lon="38.821208"><ele>99.9</ele><time>2023-05-13T18:11:23Z</time></trkpt><trkpt lat="58.059753" lon="38.821258"><ele>99.2</ele><time>2023-05-13T18:11:42Z</time></trkpt><trkpt lat="58.059658" lon="38.821232"><ele>98.9</ele><time>2023-05-13T18:11:45Z</time></trkpt><trkpt lat="58.059562" lon="38.82115"><ele>98.0</ele><time>2023-05-13T18:11:48Z</time></trkpt><trkpt lat="58.059473" lon="38.821148"><ele>98.5</ele><time>2023-05-13T18:11:51Z</time></trkpt><trkpt lat="58.059545" lon="38.821167"><ele>97.8</ele><time>2023-05-13T18:14:56Z</time></trkpt><trkpt lat="58.059627" lon="38.821157"><ele>98.6</ele><time>2023-05-13T18:15:04Z</time></trkpt><trkpt lat="58.059707" lon="38.821168"><ele>98.8</ele><time>2023-05-13T18:15:07Z</time></trkpt><trkpt lat="58.059807" lon="38.8212"><ele>99.2</ele><time>2023-05-13T18:15:10Z</time></trkpt><trkpt lat="58.059895" lon="38.821222"><ele>99.0</ele><time>2023-05-13T18:15:13Z</time></trkpt><trkpt lat="58.059955" lon="38.821143"><ele>98.9</ele><time>2023-05-13T18:15:17Z</time></trkpt><trkpt lat="58.05997" lon="38.821007"><ele>99.2</ele><time>2023-05-13T18:15:20Z</time></trkpt><trkpt lat="58.05986" lon="38.82092"><ele>97.4</ele><time>2023-05-13T18:16:44Z</time></trkpt><trkpt lat="58.059928" lon="38.820973"><ele>97.1</ele><time>2023-05-13T18:19:49Z</time></trkpt><trkpt lat="58.05993" lon="38.82114"><ele>99.1</ele><time>2023-05-13T18:21:10Z</time></trkpt><trkpt lat="58.059863" lon="38.8213"><ele>99.2</ele><time>2023-05-13T18:21:13Z</time></trkpt><trkpt lat="58.05981" lon="38.821392"><ele>99.7</ele><time>2023-05-13T18:21:15Z</time></trkpt><trkpt lat="58.059742" lon="38.821542"><ele>99.5</ele><time>2023-05-13T18:21:18Z</time></trkpt><trkpt lat="58.05975" lon="38.82175"><ele>98.7</ele><time>2023-05-13T18:21:20Z</time></trkpt><trkpt lat="58.05973" lon="38.821925"><ele>98.8</ele><time>2023-05-13T18:21:22Z</time></trkpt><trkpt lat="58.059717" lon="38.822157"><ele>97.6</ele><time>2023-05-13T18:21:24Z</time></trkpt><trkpt lat="58.0597" lon="38.822333"><ele>97.9</ele><time>2023-05-13T18:21:26Z</time></trkpt><trkpt lat="58.05969" lon="38.822518"><ele>98.9</ele><time>2023-05-13T18:21:28Z</time></trkpt><trkpt lat="58.059677" lon="38.822655"><ele>98.6</ele><time>2023-05-13T18:21:30Z</time></trkpt><trkpt lat="58.059677" lon="38.822855"><ele>98.0</ele><time>2023-05-13T18:21:32Z</time></trkpt><trkpt lat="58.059672" lon="38.823065"><ele>98.8</ele><time>2023-05-13T18:21:34Z</time></trkpt><trkpt lat="58.059633" lon="38.823283"><ele>98.4</ele><time>2023-05-13T18:21:36Z</time></trkpt><trkpt lat="58.059562" lon="38.82348"><ele>98.2</ele><time>2023-05-13T18:21:38Z</time></trkpt><trkpt lat="58.0595" lon="38.82364"><ele>97.6</ele><time>2023-05-13T18:21:40Z</time></trkpt><trkpt lat="58.05943" lon="38.823767"><ele>97.0</ele><time>2023-05-13T18:21:42Z</time></trkpt><trkpt lat="58.05937" lon="38.823893"><ele>96.6</ele><time>2023-05-13T18:21:44Z</time></trkpt><trkpt lat="58.059303" lon="38.824025"><ele>96.8</ele><time>2023-05-13T18:21:46Z</time></trkpt><trkpt lat="58.059235" lon="38.824115"><ele>96.6</ele><time>2023-05-13T18:21:48Z</time></trkpt><trkpt lat="58.059178" lon="38.82425"><ele>96.0</ele><time>2023-05-13T18:21:50Z</time></trkpt><trkpt lat="58.059123" lon="38.82442"><ele>95.7</ele><time>2023-05-13T18:21:53Z</time></trkpt><trkpt lat="58.059097" lon="38.824577"><ele>95.8</ele><time>2023-05-13T18:21:55Z</time></trkpt><trkpt lat="58.059125" lon="38.824808"><ele>95.7</ele><time>2023-05-13T18:21:57Z</time></trkpt><trkpt lat="58.059183" lon="38.825003"><ele>96.5</ele><time>2023-05-13T18:21:59Z</time></trkpt><trkpt lat="58.059245" lon="38.82519"><ele>97.2</ele><time>2023-05-13T18:22:01Z</time></trkpt><trkpt lat="58.059312" lon="38.825377"><ele>97.1</ele><time>2023-05-13T18:22:03Z</time></trkpt><trkpt lat="58.05937" lon="38.825555"><ele>97.3</ele><time>2023-05-13T18:22:05Z</time></trkpt><trkpt lat="58.05941" lon="38.825707"><ele>97.6</ele><time>2023-05-13T18:22:07Z</time></trkpt><trkpt lat="58.059453" lon="38.825847"><ele>97.7</ele><time>2023-05-13T18:22:09Z</time></trkpt><trkpt lat="58.059453" lon="38.826012"><ele>97.5</ele><time>2023-05-13T18:22:11Z</time></trkpt><trkpt lat="58.059455" lon="38.826203"><ele>97.6</ele><time>2023-05-13T18:22:14Z</time></trkpt><trkpt lat="58.059485" lon="38.826383"><ele>98.5</ele><time>2023-05-13T18:22:17Z</time></trkpt><trkpt lat="58.059447" lon="38.826523"><ele>98.3</ele><time>2023-05-13T18:22:20Z</time></trkpt><trkpt lat="58.059398" lon="38.826623"><ele>97.8</ele><time>2023-05-13T18:22:22Z</time></trkpt><trkpt lat="58.059335" lon="38.826738"><ele>97.4</ele><time>2023-05-13T18:22:24Z</time></trkpt><trkpt lat="58.059262" lon="38.826913"><ele>97.1</ele><time>2023-05-13T18:22:26Z</time></trkpt><trkpt lat="58.059208" lon="38.827022"><ele>96.8</ele><time>2023-05-13T18:22:28Z</time></trkpt><trkpt lat="58.059135" lon="38.82719"><ele>96.5</ele><time>2023-05-13T18:22:30Z</time></trkpt><trkpt lat="58.059067" lon="38.8274"><ele>96.6</ele><time>2023-05-13T18:22:32Z</time></trkpt><trkpt lat="58.058978" lon="38.827587"><ele>96.3</ele><time>2023-05-13T18:22:34Z</time></trkpt><trkpt lat="58.05892" lon="38.827777"><ele>97.0</ele><time>2023-05-13T18:22:36Z</time></trkpt><trkpt lat="58.058872" lon="38.827932"><ele>97.3</ele><time>2023-05-13T18:22:38Z</time></trkpt><trkpt lat="58.058843" lon="38.82807"><ele>95.9</ele><time>2023-05-13T18:22:41Z</time></trkpt><trkpt lat="58.058795" lon="38.828188"><ele>94.4</ele><time>2023-05-13T18:22:46Z</time></trkpt><trkpt lat="58.058762" lon="38.82833"><ele>93.9</ele><time>2023-05-13T18:22:49Z</time></trkpt><trkpt lat="58.058732" lon="38.82846"><ele>93.6</ele><time>2023-05-13T18:22:51Z</time></trkpt><trkpt lat="58.058692" lon="38.8286"><ele>93.0</ele><time>2023-05-13T18:22:53Z</time></trkpt><trkpt lat="58.058625" lon="38.828775"><ele>93.2</ele><time>2023-05-13T18:22:55Z</time></trkpt><trkpt lat="58.058562" lon="38.82892"><ele>92.8</ele><time>2023-05-13T18:22:57Z</time></trkpt><trkpt lat="58.058477" lon="38.829082"><ele>92.4</ele><time>2023-05-13T18:22:59Z</time></trkpt><trkpt lat="58.058385" lon="38.829205"><ele>93.0</ele><time>2023-05-13T18:23:01Z</time></trkpt><trkpt lat="58.058328" lon="38.829292"><ele>93.7</ele><time>2023-05-13T18:23:02Z</time></trkpt><trkpt lat="58.058228" lon="38.829442"><ele>93.4</ele><time>2023-05-13T18:23:04Z</time></trkpt><trkpt lat="58.058128" lon="38.829603"><ele>93.6</ele><time>2023-05-13T18:23:06Z</time></trkpt><trkpt lat="58.058032" lon="38.82976"><ele>93.1</ele><time>2023-05-13T18:23:08Z</time></trkpt><trkpt lat="58.057937" lon="38.829953"><ele>92.7</ele><time>2023-05-13T18:23:10Z</time></trkpt><trkpt lat="58.057852" lon="38.830095"><ele>93.3</ele><time>2023-05-13T18:23:12Z</time></trkpt><trkpt lat="58.057757" lon="38.830208"><ele>93.9</ele><time>2023-05-13T18:23:14Z</time></trkpt><trkpt lat="58.057665" lon="38.83035"><ele>95.1</ele><time>2023-05-13T18:23:16Z</time></trkpt><trkpt lat="58.057583" lon="38.83051"><ele>94.8</ele><time>2023-05-13T18:23:18Z</time></trkpt><trkpt lat="58.05751" lon="38.830678"><ele>94.9</ele><time>2023-05-13T18:23:20Z</time></trkpt><trkpt lat="58.057432" lon="38.830813"><ele>94.4</ele><time>2023-05-13T18:23:22Z</time></trkpt><trkpt lat="58.05733" lon="38.830947"><ele>94.7</ele><time>2023-05-13T18:23:24Z</time></trkpt><trkpt lat="58.057252" lon="38.831042"><ele>93.9</ele><time>2023-05-13T18:23:26Z</time></trkpt><trkpt lat="58.057152" lon="38.831153"><ele>94.4</ele><time>2023-05-13T18:23:28Z</time></trkpt><trkpt lat="58.057045" lon="38.831317"><ele>94.2</ele><time>2023-05-13T18:23:30Z</time></trkpt><trkpt lat="58.056983" lon="38.831528"><ele>92.9</ele><time>2023-05-13T18:23:32Z</time></trkpt><trkpt lat="58.056923" lon="38.831727"><ele>93.2</ele><time>2023-05-13T18:23:34Z</time></trkpt><trkpt lat="58.056858" lon="38.831917"><ele>93.5</ele><time>2023-05-13T18:23:36Z</time></trkpt><trkpt lat="58.056788" lon="38.832137"><ele>93.4</ele><time>2023-05-13T18:23:38Z</time></trkpt><trkpt lat="58.05673" lon="38.832322"><ele>95.3</ele><time>2023-05-13T18:23:40Z</time></trkpt><trkpt lat="58.056673" lon="38.832515"><ele>95.9</ele><time>2023-05-13T18:23:42Z</time></trkpt><trkpt lat="58.056618" lon="38.832715"><ele>96.3</ele><time>2023-05-13T18:23:44Z</time></trkpt><trkpt lat="58.05655" lon="38.832888"><ele>94.7</ele><time>2023-05-13T18:23:46Z</time></trkpt><trkpt lat="58.05647" lon="38.833073"><ele>93.7</ele><time>2023-05-13T18:23:48Z</time></trkpt><trkpt lat="58.056408" lon="38.833235"><ele>94.0</ele><time>2023-05-13T18:23:50Z</time></trkpt><trkpt lat="58.056333" lon="38.833438"><ele>93.8</ele><time>2023-05-13T18:23:52Z</time></trkpt><trkpt lat="58.056283" lon="38.833625"><ele>94.3</ele><time>2023-05-13T18:23:54Z</time></trkpt><trkpt lat="58.056223" lon="38.833828"><ele>95.3</ele><time>2023-05-13T18:23:56Z</time></trkpt><trkpt lat="58.056157" lon="38.834007"><ele>95.3</ele><time>2023-05-13T18:23:58Z</time></trkpt><trkpt lat="58.056087" lon="38.834218"><ele>95.3</ele><time>2023-05-13T18:24:00Z</time></trkpt><trkpt lat="58.056052" lon="38.834358"><ele>95.5</ele><time>2023-05-13T18:24:01Z</time></trkpt><trkpt lat="58.05597" lon="38.834572"><ele>95.4</ele><time>2023-05-13T18:24:03Z</time></trkpt><trkpt lat="58.055895" lon="38.834757"><ele>95.4</ele><time>2023-05-13T18:24:05Z</time></trkpt><trkpt lat="58.05584" lon="38.834988"><ele>96.3</ele><time>2023-05-13T18:24:07Z</time></trkpt><trkpt lat="58.055775" lon="38.835207"><ele>96.6</ele><time>2023-05-13T18:24:09Z</time></trkpt><trkpt lat="58.055715" lon="38.835413"><ele>97.5</ele><time>2023-05-13T18:24:11Z</time></trkpt><trkpt lat="58.055675" lon="38.835542"><ele>97.4</ele><time>2023-05-13T18:24:12Z</time></trkpt><trkpt lat="58.055597" lon="38.835775"><ele>97.1</ele><time>2023-05-13T18:24:14Z</time></trkpt><trkpt lat="58.055557" lon="38.835902"><ele>96.7</ele><time>2023-05-13T18:24:15Z</time></trkpt><trkpt lat="58.055522" lon="38.836032"><ele>97.0</ele><time>2023-05-13T18:24:16Z</time></trkpt><trkpt lat="58.055457" lon="38.836248"><ele>96.7</ele><time>2023-05-13T18:24:18Z</time></trkpt><trkpt lat="58.055375" lon="38.836465"><ele>96.6</ele><time>2023-05-13T18:24:20Z</time></trkpt><trkpt lat="58.055307" lon="38.836687"><ele>96.1</ele><time>2023-05-13T18:24:22Z</time></trkpt><trkpt lat="58.055233" lon="38.836915"><ele>95.6</ele><time>2023-05-13T18:24:24Z</time></trkpt><trkpt lat="58.055168" lon="38.837142"><ele>95.4</ele><time>2023-05-13T18:24:26Z</time></trkpt><trkpt lat="58.05513" lon="38.837262"><ele>94.8</ele><time>2023-05-13T18:24:27Z</time></trkpt><trkpt lat="58.055083" lon="38.837385"><ele>94.3</ele><time>2023-05-13T18:24:28Z</time></trkpt><trkpt lat="58.055045" lon="38.83751"><ele>93.7</ele><time>2023-05-13T18:24:29Z</time></trkpt><trkpt lat="58.05501" lon="38.837642"><ele>94.2</ele><time>2023-05-13T18:24:30Z</time></trkpt><trkpt lat="58.05497" lon="38.83779"><ele>94.2</ele><time>2023-05-13T18:24:31Z</time></trkpt><trkpt lat="58.054897" lon="38.838013"><ele>93.8</ele><time>2023-05-13T18:24:33Z</time></trkpt><trkpt lat="58.054855" lon="38.838132"><ele>93.4</ele><time>2023-05-13T18:24:34Z</time></trkpt><trkpt lat="58.054785" lon="38.838323"><ele>93.2</ele><time>2023-05-13T18:24:36Z</time></trkpt><trkpt lat="58.054717" lon="38.838492"><ele>93.1</ele><time>2023-05-13T18:24:38Z</time></trkpt><trkpt lat="58.05465" lon="38.838697"><ele>93.6</ele><time>2023-05-13T18:24:40Z</time></trkpt><trkpt lat="58.054575" lon="38.838892"><ele>93.6</ele><time>2023-05-13T18:24:42Z</time></trkpt><trkpt lat="58.054498" lon="38.839097"><ele>92.7</ele><time>2023-05-13T18:24:44Z</time></trkpt><trkpt lat="58.05443" lon="38.839295"><ele>92.7</ele><time>2023-05-13T18:24:46Z</time></trkpt><trkpt lat="58.054368" lon="38.839495"><ele>93.1</ele><time>2023-05-13T18:24:48Z</time></trkpt><trkpt lat="58.054317" lon="38.839708"><ele>93.5</ele><time>2023-05-13T18:24:50Z</time></trkpt><trkpt lat="58.054252" lon="38.839898"><ele>94.0</ele><time>2023-05-13T18:24:52Z</time></trkpt><trkpt lat="58.054197" lon="38.840065"><ele>93.6</ele><time>2023-05-13T18:24:54Z</time></trkpt><trkpt lat="58.054137" lon="38.840228"><ele>93.2</ele><time>2023-05-13T18:24:56Z</time></trkpt><trkpt lat="58.05408" lon="38.8404"><ele>93.7</ele><time>2023-05-13T18:24:58Z</time></trkpt><trkpt lat="58.05402" lon="38.840562"><ele>94.2</ele><time>2023-05-13T18:25:00Z</time></trkpt><trkpt lat="58.053965" lon="38.840717"><ele>93.9</ele><time>2023-05-13T18:25:02Z</time></trkpt><trkpt lat="58.053905" lon="38.8409"><ele>93.8</ele><time>2023-05-13T18:25:04Z</time></trkpt><trkpt lat="58.053842" lon="38.841115"><ele>93.8</ele><time>2023-05-13T18:25:06Z</time></trkpt><trkpt lat="58.053803" lon="38.84123"><ele>93.6</ele><time>2023-05-13T18:25:07Z</time></trkpt><trkpt lat="58.053773" lon="38.841355"><ele>93.7</ele><time>2023-05-13T18:25:08Z</time></trkpt><trkpt lat="58.053707" lon="38.84154"><ele>94.2</ele><time>2023-05-13T18:25:10Z</time></trkpt><trkpt lat="58.053637" lon="38.841723"><ele>94.7</ele><time>2023-05-13T18:25:12Z</time></trkpt><trkpt lat="58.053603" lon="38.841852"><ele>94.9</ele><time>2023-05-13T18:25:13Z</time></trkpt><trkpt lat="58.053548" lon="38.842038"><ele>95.7</ele><time>2023-05-13T18:25:15Z</time></trkpt><trkpt lat="58.053483" lon="38.842218"><ele>93.5</ele><time>2023-05-13T18:25:17Z</time></trkpt><trkpt lat="58.053417" lon="38.842403"><ele>93.2</ele><time>2023-05-13T18:25:19Z</time></trkpt><trkpt lat="58.05336" lon="38.842502"><ele>93.1</ele><time>2023-05-13T18:25:21Z</time></trkpt><trkpt lat="58.05331" lon="38.84268"><ele>93.5</ele><time>2023-05-13T18:25:23Z</time></trkpt><trkpt lat="58.053217" lon="38.84283"><ele>93.1</ele><time>2023-05-13T18:25:25Z</time></trkpt><trkpt lat="58.053143" lon="38.843012"><ele>92.8</ele><time>2023-05-13T18:25:27Z</time></trkpt><trkpt lat="58.053088" lon="38.8432"><ele>94.0</ele><time>2023-05-13T18:25:29Z</time></trkpt><trkpt lat="58.053025" lon="38.84342"><ele>94.0</ele><time>2023-05-13T18:25:31Z</time></trkpt><trkpt lat="58.05298" lon="38.843617"><ele>93.6</ele><time>2023-05-13T18:25:33Z</time></trkpt><trkpt lat="58.052912" lon="38.843818"><ele>93.7</ele><time>2023-05-13T18:25:35Z</time></trkpt><trkpt lat="58.052855" lon="38.844003"><ele>94.8</ele><time>2023-05-13T18:25:37Z</time></trkpt><trkpt lat="58.05279" lon="38.844175"><ele>94.6</ele><time>2023-05-13T18:25:39Z</time></trkpt><trkpt lat="58.05275" lon="38.844335"><ele>95.6</ele><time>2023-05-13T18:25:41Z</time></trkpt><trkpt lat="58.052693" lon="38.844557"><ele>94.6</ele><time>2023-05-13T18:25:43Z</time></trkpt><trkpt lat="58.052632" lon="38.84471"><ele>95.5</ele><time>2023-05-13T18:25:45Z</time></trkpt><trkpt lat="58.05256" lon="38.84488"><ele>95.8</ele><time>2023-05-13T18:25:47Z</time></trkpt><trkpt lat="58.052518" lon="38.845017"><ele>96.0</ele><time>2023-05-13T18:25:49Z</time></trkpt><trkpt lat="58.052492" lon="38.845175"><ele>96.6</ele><time>2023-05-13T18:25:51Z</time></trkpt><trkpt lat="58.052458" lon="38.845378"><ele>95.5</ele><time>2023-05-13T18:25:53Z</time></trkpt><trkpt lat="58.05242" lon="38.845585"><ele>94.9</ele><time>2023-05-13T18:25:55Z</time></trkpt><trkpt lat="58.052397" lon="38.84575"><ele>94.1</ele><time>2023-05-13T18:25:57Z</time></trkpt><trkpt lat="58.05238" lon="38.845907"><ele>93.6</ele><time>2023-05-13T18:25:59Z</time></trkpt><trkpt lat="58.052342" lon="38.846043"><ele>91.7</ele><time>2023-05-13T18:26:01Z</time></trkpt><trkpt lat="58.052297" lon="38.846195"><ele>92.6</ele><time>2023-05-13T18:26:03Z</time></trkpt><trkpt lat="58.052247" lon="38.846375"><ele>94.1</ele><time>2023-05-13T18:26:05Z</time></trkpt><trkpt lat="58.052207" lon="38.846537"><ele>94.4</ele><time>2023-05-13T18:26:07Z</time></trkpt><trkpt lat="58.052152" lon="38.846692"><ele>93.4</ele><time>2023-05-13T18:26:09Z</time></trkpt><trkpt lat="58.052107" lon="38.846855"><ele>93.3</ele><time>2023-05-13T18:26:11Z</time></trkpt><trkpt lat="58.052052" lon="38.847008"><ele>92.9</ele><time>2023-05-13T18:26:13Z</time></trkpt><trkpt lat="58.052007" lon="38.847153"><ele>92.7</ele><time>2023-05-13T18:26:15Z</time></trkpt><trkpt lat="58.05197" lon="38.847317"><ele>92.5</ele><time>2023-05-13T18:26:17Z</time></trkpt><trkpt lat="58.051938" lon="38.84751"><ele>93.0</ele><time>2023-05-13T18:26:19Z</time></trkpt><trkpt lat="58.051907" lon="38.847713"><ele>93.4</ele><time>2023-05-13T18:26:21Z</time></trkpt><trkpt lat="58.051872" lon="38.84789"><ele>93.3</ele><time>2023-05-13T18:26:23Z</time></trkpt><trkpt lat="58.051837" lon="38.848075"><ele>94.1</ele><time>2023-05-13T18:26:25Z</time></trkpt><trkpt lat="58.051813" lon="38.848252"><ele>94.0</ele><time>2023-05-13T18:26:27Z</time></trkpt><trkpt lat="58.051795" lon="38.84845"><ele>93.5</ele><time>2023-05-13T18:26:29Z</time></trkpt><trkpt lat="58.05177" lon="38.84863"><ele>93.7</ele><time>2023-05-13T18:26:31Z</time></trkpt><trkpt lat="58.05174" lon="38.848802"><ele>93.3</ele><time>2023-05-13T18:26:33Z</time></trkpt><trkpt lat="58.051688" lon="38.848962"><ele>93.8</ele><time>2023-05-13T18:26:35Z</time></trkpt><trkpt lat="58.051628" lon="38.849102"><ele>92.2</ele><time>2023-05-13T18:26:37Z</time></trkpt><trkpt lat="58.051567" lon="38.84929"><ele>91.5</ele><time>2023-05-13T18:26:39Z</time></trkpt><trkpt lat="58.051497" lon="38.849513"><ele>91.7</ele><time>2023-05-13T18:26:41Z</time></trkpt><trkpt lat="58.051428" lon="38.84973"><ele>91.6</ele><time>2023-05-13T18:26:43Z</time></trkpt><trkpt lat="58.051362" lon="38.849923"><ele>92.2</ele><time>2023-05-13T18:26:45Z</time></trkpt><trkpt lat="58.051312" lon="38.850143"><ele>93.1</ele><time>2023-05-13T18:26:47Z</time></trkpt><trkpt lat="58.051247" lon="38.850322"><ele>92.9</ele><time>2023-05-13T18:26:49Z</time></trkpt><trkpt lat="58.051183" lon="38.850475"><ele>93.0</ele><time>2023-05-13T18:26:51Z</time></trkpt><trkpt lat="58.051133" lon="38.850648"><ele>93.0</ele><time>2023-05-13T18:26:53Z</time></trkpt><trkpt lat="58.051095" lon="38.85081"><ele>94.0</ele><time>2023-05-13T18:26:55Z</time></trkpt><trkpt lat="58.051045" lon="38.850948"><ele>94.1</ele><time>2023-05-13T18:26:57Z</time></trkpt><trkpt lat="58.05097" lon="38.851087"><ele>94.0</ele><time>2023-05-13T18:26:59Z</time></trkpt><trkpt lat="58.050923" lon="38.851228"><ele>94.3</ele><time>2023-05-13T18:27:01Z</time></trkpt><trkpt lat="58.050867" lon="38.851383"><ele>94.9</ele><time>2023-05-13T18:27:03Z</time></trkpt><trkpt lat="58.050805" lon="38.851565"><ele>94.6</ele><time>2023-05-13T18:27:05Z</time></trkpt><trkpt lat="58.050755" lon="38.851748"><ele>94.8</ele><time>2023-05-13T18:27:07Z</time></trkpt><trkpt lat="58.050715" lon="38.851922"><ele>94.9</ele><time>2023-05-13T18:27:09Z</time></trkpt><trkpt lat="58.05066" lon="38.85206"><ele>94.3</ele><time>2023-05-13T18:27:11Z</time></trkpt><trkpt lat="58.050618" lon="38.852182"><ele>93.9</ele><time>2023-05-13T18:27:13Z</time></trkpt><trkpt lat="58.050557" lon="38.852333"><ele>93.3</ele><time>2023-05-13T18:27:15Z</time></trkpt><trkpt lat="58.050495" lon="38.85249"><ele>93.3</ele><time>2023-05-13T18:27:17Z</time></trkpt><trkpt lat="58.050438" lon="38.852647"><ele>93.9</ele><time>2023-05-13T18:27:19Z</time></trkpt><trkpt lat="58.050388" lon="38.852842"><ele>94.4</ele><time>2023-05-13T18:27:21Z</time></trkpt><trkpt lat="58.05035" lon="38.853017"><ele>93.6</ele><time>2023-05-13T18:27:23Z</time></trkpt><trkpt lat="58.050293" lon="38.853198"><ele>93.7</ele><time>2023-05-13T18:27:25Z</time></trkpt><trkpt lat="58.050262" lon="38.853397"><ele>93.4</ele><time>2023-05-13T18:27:27Z</time></trkpt><trkpt lat="58.05023" lon="38.85357"><ele>93.9</ele><time>2023-05-13T18:27:29Z</time></trkpt><trkpt lat="58.050195" lon="38.853767"><ele>94.3</ele><time>2023-05-13T18:27:31Z</time></trkpt><trkpt lat="58.050162" lon="38.853972"><ele>94.7</ele><time>2023-05-13T18:27:33Z</time></trkpt><trkpt lat="58.050118" lon="38.854197"><ele>94.7</ele><time>2023-05-13T18:27:35Z</time></trkpt><trkpt lat="58.050082" lon="38.854392"><ele>95.1</ele><time>2023-05-13T18:27:37Z</time></trkpt><trkpt lat="58.050047" lon="38.854562"><ele>95.8</ele><time>2023-05-13T18:27:39Z</time></trkpt><trkpt lat="58.050027" lon="38.854752"><ele>95.6</ele><time>2023-05-13T18:27:41Z</time></trkpt><trkpt lat="58.049993" lon="38.854937"><ele>95.6</ele><time>2023-05-13T18:27:43Z</time></trkpt><trkpt lat="58.049958" lon="38.855145"><ele>95.3</ele><time>2023-05-13T18:27:45Z</time></trkpt><trkpt lat="58.049937" lon="38.855353"><ele>94.7</ele><time>2023-05-13T18:27:47Z</time></trkpt><trkpt lat="58.049918" lon="38.85557"><ele>94.1</ele><time>2023-05-13T18:27:49Z</time></trkpt><trkpt lat="58.049895" lon="38.855767"><ele>94.7</ele><time>2023-05-13T18:27:51Z</time></trkpt><trkpt lat="58.049845" lon="38.855953"><ele>94.6</ele><time>2023-05-13T18:27:53Z</time></trkpt><trkpt lat="58.04981" lon="38.85613"><ele>95.2</ele><time>2023-05-13T18:27:55Z</time></trkpt><trkpt lat="58.049782" lon="38.856328"><ele>95.0</ele><time>2023-05-13T18:27:57Z</time></trkpt><trkpt lat="58.049762" lon="38.856503"><ele>96.1</ele><time>2023-05-13T18:27:59Z</time></trkpt><trkpt lat="58.049713" lon="38.856677"><ele>94.4</ele><time>2023-05-13T18:28:01Z</time></trkpt><trkpt lat="58.049685" lon="38.856843"><ele>94.7</ele><time>2023-05-13T18:28:03Z</time></trkpt><trkpt lat="58.04962" lon="38.856968"><ele>95.0</ele><time>2023-05-13T18:28:05Z</time></trkpt><trkpt lat="58.04956" lon="38.857138"><ele>96.0</ele><time>2023-05-13T18:28:07Z</time></trkpt><trkpt lat="58.0495" lon="38.857292"><ele>96.1</ele><time>2023-05-13T18:28:09Z</time></trkpt><trkpt lat="58.049447" lon="38.857438"><ele>97.0</ele><time>2023-05-13T18:28:11Z</time></trkpt><trkpt lat="58.0494" lon="38.857623"><ele>97.8</ele><time>2023-05-13T18:28:13Z</time></trkpt><trkpt lat="58.049353" lon="38.8578"><ele>97.4</ele><time>2023-05-13T18:28:15Z</time></trkpt><trkpt lat="58.049305" lon="38.85798"><ele>97.8</ele><time>2023-05-13T18:28:17Z</time></trkpt><trkpt lat="58.049252" lon="38.858093"><ele>98.2</ele><time>2023-05-13T18:28:19Z</time></trkpt><trkpt lat="58.049215" lon="38.858218"><ele>98.1</ele><time>2023-05-13T18:28:21Z</time></trkpt><trkpt lat="58.049157" lon="38.858332"><ele>98.0</ele><time>2023-05-13T18:28:23Z</time></trkpt><trkpt lat="58.049098" lon="38.858468"><ele>98.7</ele><time>2023-05-13T18:28:26Z</time></trkpt><trkpt lat="58.049047" lon="38.858595"><ele>100.4</ele><time>2023-05-13T18:28:29Z</time></trkpt><trkpt lat="58.048978" lon="38.858705"><ele>99.9</ele><time>2023-05-13T18:28:34Z</time></trkpt><trkpt lat="58.048957" lon="38.858852"><ele>100.6</ele><time>2023-05-13T18:28:37Z</time></trkpt><trkpt lat="58.048903" lon="38.858952"><ele>99.6</ele><time>2023-05-13T18:28:42Z</time></trkpt><trkpt lat="58.04885" lon="38.858848"><ele>99.5</ele><time>2023-05-13T18:28:46Z</time></trkpt><trkpt lat="58.048777" lon="38.858782"><ele>99.6</ele><time>2023-05-13T18:28:49Z</time></trkpt><trkpt lat="58.048703" lon="38.858897"><ele>99.8</ele><time>2023-05-13T18:28:54Z</time></trkpt><trkpt lat="58.04869" lon="38.859042"><ele>99.7</ele><time>2023-05-13T18:28:56Z</time></trkpt><trkpt lat="58.048672" lon="38.859185"><ele>99.5</ele><time>2023-05-13T18:28:58Z</time></trkpt><trkpt lat="58.04863" lon="38.859305"><ele>99.3</ele><time>2023-05-13T18:28:59Z</time></trkpt><trkpt lat="58.048592" lon="38.859493"><ele>100.1</ele><time>2023-05-13T18:29:02Z</time></trkpt><trkpt lat="58.048573" lon="38.859637"><ele>100.2</ele><time>2023-05-13T18:29:04Z</time></trkpt><trkpt lat="58.048548" lon="38.85978"><ele>99.9</ele><time>2023-05-13T18:29:06Z</time></trkpt><trkpt lat="58.04852" lon="38.859915"><ele>100.3</ele><time>2023-05-13T18:29:08Z</time></trkpt><trkpt lat="58.048492" lon="38.860042"><ele>100.5</ele><time>2023-05-13T18:29:10Z</time></trkpt><trkpt lat="58.048457" lon="38.86022"><ele>100.4</ele><time>2023-05-13T18:29:13Z</time></trkpt><trkpt lat="58.04842" lon="38.860372"><ele>100.4</ele><time>2023-05-13T18:29:16Z</time></trkpt><trkpt lat="58.0484" lon="38.860513"><ele>100.9</ele><time>2023-05-13T18:29:19Z</time></trkpt><trkpt lat="58.04839" lon="38.860687"><ele>101.1</ele><time>2023-05-13T18:29:22Z</time></trkpt><trkpt lat="58.048368" lon="38.860863"><ele>102.5</ele><time>2023-05-13T18:29:25Z</time></trkpt><trkpt lat="58.048397" lon="38.86099"><ele>102.6</ele><time>2023-05-13T18:29:28Z</time></trkpt><trkpt lat="58.048448" lon="38.861085"><ele>102.4</ele><time>2023-05-13T18:29:33Z</time></trkpt><trkpt lat="58.048452" lon="38.861255"><ele>102.2</ele><time>2023-05-13T18:29:39Z</time></trkpt><trkpt lat="58.04842" lon="38.8614"><ele>101.0</ele><time>2023-05-13T18:29:42Z</time></trkpt><trkpt lat="58.048378" lon="38.861578"><ele>101.4</ele><time>2023-05-13T18:29:46Z</time></trkpt><trkpt lat="58.048338" lon="38.861752"><ele>100.7</ele><time>2023-05-13T18:29:49Z</time></trkpt><trkpt lat="58.048292" lon="38.861937"><ele>100.7</ele><time>2023-05-13T18:29:52Z</time></trkpt><trkpt lat="58.048262" lon="38.86207"><ele>101.0</ele><time>2023-05-13T18:29:54Z</time></trkpt><trkpt lat="58.04823" lon="38.8622"><ele>100.9</ele><time>2023-05-13T18:29:56Z</time></trkpt><trkpt lat="58.048178" lon="38.862368"><ele>100.6</ele><time>2023-05-13T18:29:59Z</time></trkpt><trkpt lat="58.048133" lon="38.86253"><ele>100.8</ele><time>2023-05-13T18:30:02Z</time></trkpt><trkpt lat="58.048083" lon="38.862697"><ele>100.1</ele><time>2023-05-13T18:30:05Z</time></trkpt><trkpt lat="58.048045" lon="38.862875"><ele>99.9</ele><time>2023-05-13T18:30:08Z</time></trkpt><trkpt lat="58.04799" lon="38.862982"><ele>99.4</ele><time>2023-05-13T18:30:11Z</time></trkpt><trkpt lat="58.047932" lon="38.863088"><ele>98.5</ele><time>2023-05-13T18:30:15Z</time></trkpt><trkpt lat="58.047912" lon="38.863255"><ele>98.2</ele><time>2023-05-13T18:30:19Z</time></trkpt><trkpt lat="58.047903" lon="38.863405"><ele>98.8</ele><time>2023-05-13T18:30:23Z</time></trkpt><trkpt lat="58.047882" lon="38.863597"><ele>99.5</ele><time>2023-05-13T18:30:26Z</time></trkpt><trkpt lat="58.04785" lon="38.863738"><ele>99.3</ele><time>2023-05-13T18:30:28Z</time></trkpt><trkpt lat="58.047815" lon="38.86387"><ele>98.1</ele><time>2023-05-13T18:30:30Z</time></trkpt><trkpt lat="58.047783" lon="38.863993"><ele>97.6</ele><time>2023-05-13T18:30:32Z</time></trkpt><trkpt lat="58.04775" lon="38.864157"><ele>97.3</ele><time>2023-05-13T18:30:35Z</time></trkpt><trkpt lat="58.04776" lon="38.864308"><ele>97.7</ele><time>2023-05-13T18:30:39Z</time></trkpt><trkpt lat="58.047767" lon="38.86445"><ele>95.6</ele><time>2023-05-13T18:30:44Z</time></trkpt><trkpt lat="58.047745" lon="38.86465"><ele>95.7</ele><time>2023-05-13T18:30:47Z</time></trkpt><trkpt lat="58.04772" lon="38.86483"><ele>95.6</ele><time>2023-05-13T18:30:49Z</time></trkpt><trkpt lat="58.047687" lon="38.86503"><ele>96.4</ele><time>2023-05-13T18:30:51Z</time></trkpt><trkpt lat="58.047653" lon="38.865195"><ele>95.9</ele><time>2023-05-13T18:30:53Z</time></trkpt><trkpt lat="58.047627" lon="38.86537"><ele>95.6</ele><time>2023-05-13T18:30:55Z</time></trkpt><trkpt lat="58.047605" lon="38.865538"><ele>96.5</ele><time>2023-05-13T18:30:57Z</time></trkpt><trkpt lat="58.047612" lon="38.865727"><ele>96.7</ele><time>2023-05-13T18:30:59Z</time></trkpt><trkpt lat="58.047582" lon="38.865912"><ele>96.4</ele><time>2023-05-13T18:31:01Z</time></trkpt><trkpt lat="58.047568" lon="38.866113"><ele>95.8</ele><time>2023-05-13T18:31:03Z</time></trkpt><trkpt lat="58.047543" lon="38.866333"><ele>95.6</ele><time>2023-05-13T18:31:05Z</time></trkpt><trkpt lat="58.047497" lon="38.866485"><ele>95.2</ele><time>2023-05-13T18:31:07Z</time></trkpt><trkpt lat="58.047462" lon="38.866675"><ele>94.4</ele><time>2023-05-13T18:31:09Z</time></trkpt><trkpt lat="58.047407" lon="38.86686"><ele>93.2</ele><time>2023-05-13T18:31:11Z</time></trkpt><trkpt lat="58.047368" lon="38.866997"><ele>92.3</ele><time>2023-05-13T18:31:14Z</time></trkpt><trkpt lat="58.047342" lon="38.867185"><ele>92.3</ele><time>2023-05-13T18:31:17Z</time></trkpt><trkpt lat="58.047317" lon="38.867328"><ele>92.5</ele><time>2023-05-13T18:31:19Z</time></trkpt><trkpt lat="58.047287" lon="38.867477"><ele>93.2</ele><time>2023-05-13T18:31:21Z</time></trkpt><trkpt lat="58.047248" lon="38.867635"><ele>93.6</ele><time>2023-05-13T18:31:23Z</time></trkpt><trkpt lat="58.047227" lon="38.867828"><ele>94.2</ele><time>2023-05-13T18:31:25Z</time></trkpt><trkpt lat="58.04721" lon="38.868002"><ele>94.1</ele><time>2023-05-13T18:31:27Z</time></trkpt><trkpt lat="58.047172" lon="38.868187"><ele>95.0</ele><time>2023-05-13T18:31:29Z</time></trkpt><trkpt lat="58.047138" lon="38.86836"><ele>94.2</ele><time>2023-05-13T18:31:31Z</time></trkpt><trkpt lat="58.047108" lon="38.868528"><ele>94.6</ele><time>2023-05-13T18:31:33Z</time></trkpt><trkpt lat="58.04707" lon="38.868712"><ele>94.4</ele><time>2023-05-13T18:31:35Z</time></trkpt><trkpt lat="58.047033" lon="38.868883"><ele>93.8</ele><time>2023-05-13T18:31:37Z</time></trkpt><trkpt lat="58.046975" lon="38.869047"><ele>92.3</ele><time>2023-05-13T18:31:39Z</time></trkpt><trkpt lat="58.046925" lon="38.869205"><ele>91.3</ele><time>2023-05-13T18:31:41Z</time></trkpt><trkpt lat="58.046892" lon="38.86937"><ele>91.2</ele><time>2023-05-13T18:31:43Z</time></trkpt><trkpt lat="58.046857" lon="38.869503"><ele>91.6</ele><time>2023-05-13T18:31:45Z</time></trkpt><trkpt lat="58.046825" lon="38.869673"><ele>91.2</ele><time>2023-05-13T18:31:47Z</time></trkpt><trkpt lat="58.046793" lon="38.869843"><ele>91.7</ele><time>2023-05-13T18:31:49Z</time></trkpt><trkpt lat="58.046758" lon="38.869992"><ele>91.9</ele><time>2023-05-13T18:31:51Z</time></trkpt><trkpt lat="58.046732" lon="38.870147"><ele>92.8</ele><time>2023-05-13T18:31:53Z</time></trkpt><trkpt lat="58.04671" lon="38.870328"><ele>92.2</ele><time>2023-05-13T18:31:55Z</time></trkpt><trkpt lat="58.046685" lon="38.8705"><ele>91.7</ele><time>2023-05-13T18:31:57Z</time></trkpt><trkpt lat="58.046628" lon="38.870652"><ele>91.7</ele><time>2023-05-13T18:31:59Z</time></trkpt><trkpt lat="58.04659" lon="38.870785"><ele>91.4</ele><time>2023-05-13T18:32:01Z</time></trkpt><trkpt lat="58.046552" lon="38.870932"><ele>92.1</ele><time>2023-05-13T18:32:03Z</time></trkpt><trkpt lat="58.046518" lon="38.8711"><ele>92.2</ele><time>2023-05-13T18:32:05Z</time></trkpt><trkpt lat="58.046488" lon="38.871253"><ele>92.3</ele><time>2023-05-13T18:32:07Z</time></trkpt><trkpt lat="58.046452" lon="38.871415"><ele>92.7</ele><time>2023-05-13T18:32:09Z</time></trkpt><trkpt lat="58.046418" lon="38.871572"><ele>92.6</ele><time>2023-05-13T18:32:11Z</time></trkpt><trkpt lat="58.046383" lon="38.87172"><ele>92.8</ele><time>2023-05-13T18:32:13Z</time></trkpt><trkpt lat="58.046357" lon="38.871887"><ele>92.7</ele><time>2023-05-13T18:32:15Z</time></trkpt><trkpt lat="58.046325" lon="38.872043"><ele>92.4</ele><time>2023-05-13T18:32:17Z</time></trkpt><trkpt lat="58.046288" lon="38.872187"><ele>93.0</ele><time>2023-05-13T18:32:19Z</time></trkpt><trkpt lat="58.046258" lon="38.872327"><ele>93.2</ele><time>2023-05-13T18:32:21Z</time></trkpt><trkpt lat="58.046233" lon="38.872455"><ele>93.5</ele><time>2023-05-13T18:32:23Z</time></trkpt><trkpt lat="58.046193" lon="38.872632"><ele>93.7</ele><time>2023-05-13T18:32:26Z</time></trkpt><trkpt lat="58.046158" lon="38.872783"><ele>93.1</ele><time>2023-05-13T18:32:29Z</time></trkpt><trkpt lat="58.046127" lon="38.872925"><ele>92.7</ele><time>2023-05-13T18:32:32Z</time></trkpt><trkpt lat="58.046092" lon="38.873078"><ele>92.3</ele><time>2023-05-13T18:32:36Z</time></trkpt><trkpt lat="58.046063" lon="38.873207"><ele>92.1</ele><time>2023-05-13T18:32:39Z</time></trkpt><trkpt lat="58.046037" lon="38.873348"><ele>92.4</ele><time>2023-05-13T18:32:42Z</time></trkpt><trkpt lat="58.046002" lon="38.873508"><ele>91.3</ele><time>2023-05-13T18:32:45Z</time></trkpt><trkpt lat="58.045982" lon="38.873645"><ele>91.0</ele><time>2023-05-13T18:32:48Z</time></trkpt><trkpt lat="58.045943" lon="38.873797"><ele>91.1</ele><time>2023-05-13T18:33:01Z</time></trkpt><trkpt lat="58.045918" lon="38.87395"><ele>91.4</ele><time>2023-05-13T18:33:05Z</time></trkpt><trkpt lat="58.045897" lon="38.874097"><ele>91.4</ele><time>2023-05-13T18:33:08Z</time></trkpt><trkpt lat="58.045878" lon="38.874265"><ele>89.9</ele><time>2023-05-13T18:33:11Z</time></trkpt><trkpt lat="58.045863" lon="38.874413"><ele>89.7</ele><time>2023-05-13T18:33:14Z</time></trkpt><trkpt lat="58.045842" lon="38.87459"><ele>89.4</ele><time>2023-05-13T18:33:18Z</time></trkpt><trkpt lat="58.045822" lon="38.874723"><ele>89.2</ele><time>2023-05-13T18:33:20Z</time></trkpt><trkpt lat="58.045805" lon="38.874868"><ele>89.4</ele><time>2023-05-13T18:33:22Z</time></trkpt><trkpt lat="58.04578" lon="38.875048"><ele>89.9</ele><time>2023-05-13T18:33:24Z</time></trkpt><trkpt lat="58.045773" lon="38.875228"><ele>89.4</ele><time>2023-05-13T18:33:26Z</time></trkpt><trkpt lat="58.045775" lon="38.875465"><ele>89.4</ele><time>2023-05-13T18:33:28Z</time></trkpt><trkpt lat="58.045763" lon="38.875657"><ele>90.0</ele><time>2023-05-13T18:33:30Z</time></trkpt><trkpt lat="58.045773" lon="38.875855"><ele>90.0</ele><time>2023-05-13T18:33:32Z</time></trkpt><trkpt lat="58.045768" lon="38.876007"><ele>90.1</ele><time>2023-05-13T18:33:34Z</time></trkpt><trkpt lat="58.045772" lon="38.876165"><ele>90.4</ele><time>2023-05-13T18:33:36Z</time></trkpt><trkpt lat="58.04577" lon="38.876303"><ele>90.6</ele><time>2023-05-13T18:33:38Z</time></trkpt><trkpt lat="58.045773" lon="38.87645"><ele>90.9</ele><time>2023-05-13T18:33:40Z</time></trkpt><trkpt lat="58.045782" lon="38.876645"><ele>90.9</ele><time>2023-05-13T18:33:42Z</time></trkpt><trkpt lat="58.04579" lon="38.876827"><ele>91.4</ele><time>2023-05-13T18:33:44Z</time></trkpt><trkpt lat="58.045805" lon="38.876998"><ele>92.4</ele><time>2023-05-13T18:33:46Z</time></trkpt><trkpt lat="58.045812" lon="38.877152"><ele>92.7</ele><time>2023-05-13T18:33:48Z</time></trkpt><trkpt lat="58.045805" lon="38.8773"><ele>92.5</ele><time>2023-05-13T18:33:50Z</time></trkpt><trkpt lat="58.045792" lon="38.877462"><ele>92.5</ele><time>2023-05-13T18:33:53Z</time></trkpt><trkpt lat="58.045758" lon="38.877625"><ele>92.4</ele><time>2023-05-13T18:33:56Z</time></trkpt><trkpt lat="58.045725" lon="38.877818"><ele>92.3</ele><time>2023-05-13T18:33:59Z</time></trkpt><trkpt lat="58.045698" lon="38.877963"><ele>92.2</ele><time>2023-05-13T18:34:01Z</time></trkpt><trkpt lat="58.045675" lon="38.878098"><ele>91.6</ele><time>2023-05-13T18:34:03Z</time></trkpt><trkpt lat="58.04565" lon="38.878237"><ele>91.0</ele><time>2023-05-13T18:34:06Z</time></trkpt><trkpt lat="58.045578" lon="38.878255"><ele>89.6</ele><time>2023-05-13T18:39:27Z</time></trkpt><trkpt lat="58.04562" lon="38.878143"><ele>90.7</ele><time>2023-05-13T18:40:24Z</time></trkpt><trkpt lat="58.045668" lon="38.878023"><ele>91.7</ele><time>2023-05-13T18:45:06Z</time></trkpt><trkpt lat="58.045693" lon="38.87788"><ele>91.7</ele><time>2023-05-13T18:45:11Z</time></trkpt><trkpt lat="58.04572" lon="38.877737"><ele>89.6</ele><time>2023-05-13T18:45:15Z</time></trkpt><trkpt lat="58.045745" lon="38.877577"><ele>89.6</ele><time>2023-05-13T18:45:19Z</time></trkpt><trkpt lat="58.045758" lon="38.877427"><ele>88.7</ele><time>2023-05-13T18:45:23Z</time></trkpt><trkpt lat="58.04576" lon="38.877275"><ele>88.5</ele><time>2023-05-13T18:45:27Z</time></trkpt><trkpt lat="58.045757" lon="38.877118"><ele>88.6</ele><time>2023-05-13T18:45:31Z</time></trkpt><trkpt lat="58.045758" lon="38.876967"><ele>89.0</ele><time>2023-05-13T18:45:35Z</time></trkpt><trkpt lat="58.045755" lon="38.876818"><ele>89.0</ele><time>2023-05-13T18:45:38Z</time></trkpt><trkpt lat="58.04575" lon="38.876658"><ele>89.3</ele><time>2023-05-13T18:45:41Z</time></trkpt><trkpt lat="58.045743" lon="38.876498"><ele>89.2</ele><time>2023-05-13T18:45:44Z</time></trkpt><trkpt lat="58.04574" lon="38.876323"><ele>89.5</ele><time>2023-05-13T18:45:47Z</time></trkpt><trkpt lat="58.045743" lon="38.876148"><ele>88.9</ele><time>2023-05-13T18:45:50Z</time></trkpt><trkpt lat="58.045752" lon="38.875963"><ele>89.1</ele><time>2023-05-13T18:45:53Z</time></trkpt><trkpt lat="58.04576" lon="38.875795"><ele>89.0</ele><time>2023-05-13T18:45:56Z</time></trkpt><trkpt lat="58.045775" lon="38.875635"><ele>87.8</ele><time>2023-05-13T18:45:59Z</time></trkpt><trkpt lat="58.045788" lon="38.875452"><ele>88.4</ele><time>2023-05-13T18:46:02Z</time></trkpt><trkpt lat="58.045798" lon="38.875272"><ele>88.8</ele><time>2023-05-13T18:46:05Z</time></trkpt><trkpt lat="58.045805" lon="38.875083"><ele>88.4</ele><time>2023-05-13T18:46:08Z</time></trkpt><trkpt lat="58.045822" lon="38.874893"><ele>89.1</ele><time>2023-05-13T18:46:11Z</time></trkpt><trkpt lat="58.045843" lon="38.874707"><ele>88.9</ele><time>2023-05-13T18:46:14Z</time></trkpt><trkpt lat="58.045867" lon="38.874517"><ele>88.8</ele><time>2023-05-13T18:46:17Z</time></trkpt><trkpt lat="58.045893" lon="38.874327"><ele>88.4</ele><time>2023-05-13T18:46:20Z</time></trkpt><trkpt lat="58.045922" lon="38.874153"><ele>88.4</ele><time>2023-05-13T18:46:23Z</time></trkpt><trkpt lat="58.045947" lon="38.873998"><ele>88.6</ele><time>2023-05-13T18:46:26Z</time></trkpt><trkpt lat="58.045975" lon="38.873857"><ele>88.8</ele><time>2023-05-13T18:46:29Z</time></trkpt><trkpt lat="58.045982" lon="38.873717"><ele>89.6</ele><time>2023-05-13T18:47:01Z</time></trkpt><trkpt lat="58.045977" lon="38.873582"><ele>90.6</ele><time>2023-05-13T18:47:11Z</time></trkpt><trkpt lat="58.046007" lon="38.873442"><ele>91.6</ele><time>2023-05-13T18:47:19Z</time></trkpt><trkpt lat="58.046042" lon="38.8733"><ele>91.8</ele><time>2023-05-13T18:47:28Z</time></trkpt><trkpt lat="58.04607" lon="38.87313"><ele>92.4</ele><time>2023-05-13T18:47:32Z</time></trkpt><trkpt lat="58.046108" lon="38.872977"><ele>91.8</ele><time>2023-05-13T18:47:35Z</time></trkpt><trkpt lat="58.046133" lon="38.872845"><ele>91.7</ele><time>2023-05-13T18:47:37Z</time></trkpt><trkpt lat="58.046167" lon="38.872718"><ele>92.2</ele><time>2023-05-13T18:47:39Z</time></trkpt><trkpt lat="58.046198" lon="38.872587"><ele>92.2</ele><time>2023-05-13T18:47:41Z</time></trkpt><trkpt lat="58.046228" lon="38.87245"><ele>92.0</ele><time>2023-05-13T18:47:43Z</time></trkpt><trkpt lat="58.046255" lon="38.872317"><ele>92.4</ele><time>2023-05-13T18:47:45Z</time></trkpt><trkpt lat="58.046282" lon="38.872173"><ele>92.0</ele><time>2023-05-13T18:47:47Z</time></trkpt><trkpt lat="58.046307" lon="38.872038"><ele>91.5</ele><time>2023-05-13T18:47:49Z</time></trkpt><trkpt lat="58.046335" lon="38.87191"><ele>91.5</ele><time>2023-05-13T18:47:51Z</time></trkpt><trkpt lat="58.046365" lon="38.871783"><ele>92.0</ele><time>2023-05-13T18:47:53Z</time></trkpt><trkpt lat="58.04639" lon="38.871653"><ele>91.7</ele><time>2023-05-13T18:47:55Z</time></trkpt><trkpt lat="58.04641" lon="38.871517"><ele>91.3</ele><time>2023-05-13T18:47:57Z</time></trkpt><trkpt lat="58.046443" lon="38.871385"><ele>91.6</ele><time>2023-05-13T18:47:59Z</time></trkpt><trkpt lat="58.046478" lon="38.871263"><ele>91.1</ele><time>2023-05-13T18:48:01Z</time></trkpt><trkpt lat="58.046508" lon="38.871132"><ele>90.6</ele><time>2023-05-13T18:48:03Z</time></trkpt><trkpt lat="58.046543" lon="38.870997"><ele>91.0</ele><time>2023-05-13T18:48:05Z</time></trkpt><trkpt lat="58.046587" lon="38.870825"><ele>91.5</ele><time>2023-05-13T18:48:08Z</time></trkpt><trkpt lat="58.046622" lon="38.870667"><ele>90.1</ele><time>2023-05-13T18:48:11Z</time></trkpt><trkpt lat="58.046655" lon="38.870477"><ele>90.0</ele><time>2023-05-13T18:48:14Z</time></trkpt><trkpt lat="58.046678" lon="38.870328"><ele>90.4</ele><time>2023-05-13T18:48:16Z</time></trkpt><trkpt lat="58.046703" lon="38.870185"><ele>90.3</ele><time>2023-05-13T18:48:18Z</time></trkpt><trkpt lat="58.046735" lon="38.870035"><ele>90.1</ele><time>2023-05-13T18:48:20Z</time></trkpt><trkpt lat="58.046767" lon="38.869883"><ele>91.0</ele><time>2023-05-13T18:48:22Z</time></trkpt><trkpt lat="58.0468" lon="38.869733"><ele>91.1</ele><time>2023-05-13T18:48:24Z</time></trkpt><trkpt lat="58.046835" lon="38.86957"><ele>90.4</ele><time>2023-05-13T18:48:26Z</time></trkpt><trkpt lat="58.046872" lon="38.869422"><ele>89.8</ele><time>2023-05-13T18:48:28Z</time></trkpt><trkpt lat="58.046918" lon="38.86923"><ele>90.9</ele><time>2023-05-13T18:48:30Z</time></trkpt><trkpt lat="58.046952" lon="38.869045"><ele>90.5</ele><time>2023-05-13T18:48:32Z</time></trkpt><trkpt lat="58.046968" lon="38.868815"><ele>89.8</ele><time>2023-05-13T18:48:34Z</time></trkpt><trkpt lat="58.04697" lon="38.86868"><ele>89.8</ele><time>2023-05-13T18:48:35Z</time></trkpt><trkpt lat="58.046983" lon="38.868445"><ele>89.2</ele><time>2023-05-13T18:48:37Z</time></trkpt><trkpt lat="58.046988" lon="38.868238"><ele>89.8</ele><time>2023-05-13T18:48:39Z</time></trkpt><trkpt lat="58.046992" lon="38.868083"><ele>90.5</ele><time>2023-05-13T18:48:41Z</time></trkpt><trkpt lat="58.046995" lon="38.867912"><ele>91.6</ele><time>2023-05-13T18:48:44Z</time></trkpt><trkpt lat="58.047" lon="38.867768"><ele>92.1</ele><time>2023-05-13T18:48:48Z</time></trkpt><trkpt lat="58.047025" lon="38.867593"><ele>93.2</ele><time>2023-05-13T18:48:52Z</time></trkpt><trkpt lat="58.04707" lon="38.86745"><ele>94.4</ele><time>2023-05-13T18:48:55Z</time></trkpt><trkpt lat="58.0471" lon="38.867273"><ele>94.4</ele><time>2023-05-13T18:48:58Z</time></trkpt><trkpt lat="58.047117" lon="38.867132"><ele>94.9</ele><time>2023-05-13T18:49:01Z</time></trkpt><trkpt lat="58.04714" lon="38.866957"><ele>95.6</ele><time>2023-05-13T18:49:05Z</time></trkpt><trkpt lat="58.047167" lon="38.866817"><ele>95.6</ele><time>2023-05-13T18:49:08Z</time></trkpt><trkpt lat="58.047188" lon="38.866677"><ele>96.3</ele><time>2023-05-13T18:49:12Z</time></trkpt><trkpt lat="58.04719" lon="38.866537"><ele>100.1</ele><time>2023-05-13T18:49:58Z</time></trkpt><trkpt lat="58.047218" lon="38.866397"><ele>100.1</ele><time>2023-05-13T18:50:48Z</time></trkpt><trkpt lat="58.047265" lon="38.866283"><ele>99.2</ele><time>2023-05-13T18:50:55Z</time></trkpt><trkpt lat="58.047307" lon="38.866147"><ele>100.9</ele><time>2023-05-13T18:51:02Z</time></trkpt><trkpt lat="58.047335" lon="38.866012"><ele>101.5</ele><time>2023-05-13T18:51:07Z</time></trkpt><trkpt lat="58.047365" lon="38.865848"><ele>101.3</ele><time>2023-05-13T18:51:11Z</time></trkpt><trkpt lat="58.047398" lon="38.865683"><ele>101.7</ele><time>2023-05-13T18:51:15Z</time></trkpt><trkpt lat="58.047422" lon="38.865552"><ele>101.4</ele><time>2023-05-13T18:51:18Z</time></trkpt><trkpt lat="58.047455" lon="38.865408"><ele>101.8</ele><time>2023-05-13T18:51:22Z</time></trkpt><trkpt lat="58.047488" lon="38.865257"><ele>101.2</ele><time>2023-05-13T18:51:27Z</time></trkpt><trkpt lat="58.047532" lon="38.865128"><ele>100.7</ele><time>2023-05-13T18:51:31Z</time></trkpt><trkpt lat="58.047572" lon="38.86498"><ele>100.3</ele><time>2023-05-13T18:51:35Z</time></trkpt><trkpt lat="58.04759" lon="38.864833"><ele>100.3</ele><time>2023-05-13T18:51:39Z</time></trkpt><trkpt lat="58.047622" lon="38.864672"><ele>99.8</ele><time>2023-05-13T18:51:43Z</time></trkpt><trkpt lat="58.047635" lon="38.864525"><ele>100.1</ele><time>2023-05-13T18:51:46Z</time></trkpt><trkpt lat="58.047665" lon="38.864373"><ele>99.8</ele><time>2023-05-13T18:51:50Z</time></trkpt><trkpt lat="58.047685" lon="38.864217"><ele>99.8</ele><time>2023-05-13T18:51:53Z</time></trkpt><trkpt lat="58.047718" lon="38.864023"><ele>100.4</ele><time>2023-05-13T18:51:56Z</time></trkpt><trkpt lat="58.047755" lon="38.863852"><ele>100.2</ele><time>2023-05-13T18:51:59Z</time></trkpt><trkpt lat="58.047797" lon="38.863685"><ele>99.6</ele><time>2023-05-13T18:52:02Z</time></trkpt><trkpt lat="58.047837" lon="38.863497"><ele>100.2</ele><time>2023-05-13T18:52:05Z</time></trkpt><trkpt lat="58.047862" lon="38.863368"><ele>100.2</ele><time>2023-05-13T18:52:07Z</time></trkpt><trkpt lat="58.04789" lon="38.863237"><ele>99.9</ele><time>2023-05-13T18:52:09Z</time></trkpt><trkpt lat="58.047918" lon="38.863097"><ele>99.5</ele><time>2023-05-13T18:52:11Z</time></trkpt><trkpt lat="58.047962" lon="38.862918"><ele>99.5</ele><time>2023-05-13T18:52:14Z</time></trkpt><trkpt lat="58.047995" lon="38.862783"><ele>99.4</ele><time>2023-05-13T18:52:16Z</time></trkpt><trkpt lat="58.048025" lon="38.862647"><ele>99.4</ele><time>2023-05-13T18:52:18Z</time></trkpt><trkpt lat="58.048052" lon="38.862513"><ele>99.0</ele><time>2023-05-13T18:52:20Z</time></trkpt><trkpt lat="58.048078" lon="38.862378"><ele>98.9</ele><time>2023-05-13T18:52:22Z</time></trkpt><trkpt lat="58.048108" lon="38.862237"><ele>98.6</ele><time>2023-05-13T18:52:24Z</time></trkpt><trkpt lat="58.048138" lon="38.862098"><ele>98.6</ele><time>2023-05-13T18:52:26Z</time></trkpt><trkpt lat="58.04817" lon="38.861925"><ele>98.6</ele><time>2023-05-13T18:52:29Z</time></trkpt><trkpt lat="58.048202" lon="38.86177"><ele>98.4</ele><time>2023-05-13T18:52:32Z</time></trkpt><trkpt lat="58.04825" lon="38.861595"><ele>98.7</ele><time>2023-05-13T18:52:35Z</time></trkpt><trkpt lat="58.048288" lon="38.861413"><ele>98.3</ele><time>2023-05-13T18:52:38Z</time></trkpt><trkpt lat="58.04832" lon="38.861237"><ele>97.0</ele><time>2023-05-13T18:52:41Z</time></trkpt><trkpt lat="58.048348" lon="38.8611"><ele>96.9</ele><time>2023-05-13T18:52:44Z</time></trkpt><trkpt lat="58.048355" lon="38.860915"><ele>97.9</ele><time>2023-05-13T18:52:48Z</time></trkpt><trkpt lat="58.048378" lon="38.86075"><ele>97.9</ele><time>2023-05-13T18:52:51Z</time></trkpt><trkpt lat="58.0484" lon="38.860615"><ele>97.1</ele><time>2023-05-13T18:52:54Z</time></trkpt><trkpt lat="58.048413" lon="38.860455"><ele>97.4</ele><time>2023-05-13T18:52:58Z</time></trkpt><trkpt lat="58.048438" lon="38.860315"><ele>98.0</ele><time>2023-05-13T18:53:01Z</time></trkpt><trkpt lat="58.04848" lon="38.860163"><ele>98.7</ele><time>2023-05-13T18:53:05Z</time></trkpt><trkpt lat="58.048488" lon="38.860022"><ele>97.6</ele><time>2023-05-13T18:53:08Z</time></trkpt><trkpt lat="58.048452" lon="38.859905"><ele>97.6</ele><time>2023-05-13T18:53:10Z</time></trkpt><trkpt lat="58.048403" lon="38.859785"><ele>97.2</ele><time>2023-05-13T18:53:12Z</time></trkpt><trkpt lat="58.04834" lon="38.859645"><ele>96.5</ele><time>2023-05-13T18:53:15Z</time></trkpt><trkpt lat="58.048277" lon="38.859545"><ele>95.7</ele><time>2023-05-13T18:53:18Z</time></trkpt><trkpt lat="58.048217" lon="38.859447"><ele>96.7</ele><time>2023-05-13T18:53:21Z</time></trkpt><trkpt lat="58.04814" lon="38.85937"><ele>97.0</ele><time>2023-05-13T18:53:24Z</time></trkpt><trkpt lat="58.048098" lon="38.85923"><ele>97.4</ele><time>2023-05-13T18:53:27Z</time></trkpt><trkpt lat="58.048075" lon="38.859083"><ele>97.5</ele><time>2023-05-13T18:53:30Z</time></trkpt><trkpt lat="58.048068" lon="38.858895"><ele>96.9</ele><time>2023-05-13T18:53:33Z</time></trkpt><trkpt lat="58.048068" lon="38.85872"><ele>96.7</ele><time>2023-05-13T18:53:36Z</time></trkpt><trkpt lat="58.048088" lon="38.858563"><ele>97.7</ele><time>2023-05-13T18:53:39Z</time></trkpt><trkpt lat="58.048115" lon="38.858418"><ele>98.1</ele><time>2023-05-13T18:53:42Z</time></trkpt><trkpt lat="58.048145" lon="38.858273"><ele>97.8</ele><time>2023-05-13T18:53:45Z</time></trkpt><trkpt lat="58.048158" lon="38.858107"><ele>97.6</ele><time>2023-05-13T18:53:48Z</time></trkpt><trkpt lat="58.048198" lon="38.85796"><ele>98.5</ele><time>2023-05-13T18:53:52Z</time></trkpt><trkpt lat="58.048235" lon="38.857787"><ele>98.5</ele><time>2023-05-13T18:53:55Z</time></trkpt><trkpt lat="58.048275" lon="38.857635"><ele>97.3</ele><time>2023-05-13T18:53:58Z</time></trkpt><trkpt lat="58.048293" lon="38.857458"><ele>96.9</ele><time>2023-05-13T18:54:02Z</time></trkpt><trkpt lat="58.048288" lon="38.8573"><ele>97.5</ele><time>2023-05-13T18:54:05Z</time></trkpt><trkpt lat="58.048278" lon="38.857155"><ele>98.4</ele><time>2023-05-13T18:54:09Z</time></trkpt><trkpt lat="58.048308" lon="38.85699"><ele>98.2</ele><time>2023-05-13T18:54:12Z</time></trkpt><trkpt lat="58.048342" lon="38.856853"><ele>98.6</ele><time>2023-05-13T18:54:15Z</time></trkpt><trkpt lat="58.0484" lon="38.856692"><ele>98.3</ele><time>2023-05-13T18:54:18Z</time></trkpt><trkpt lat="58.048435" lon="38.856565"><ele>98.1</ele><time>2023-05-13T18:54:20Z</time></trkpt><trkpt lat="58.048465" lon="38.856438"><ele>98.7</ele><time>2023-05-13T18:54:22Z</time></trkpt><trkpt lat="58.048502" lon="38.856295"><ele>99.4</ele><time>2023-05-13T18:54:25Z</time></trkpt><trkpt lat="58.048523" lon="38.85616"><ele>99.8</ele><time>2023-05-13T18:54:27Z</time></trkpt><trkpt lat="58.04855" lon="38.856005"><ele>99.5</ele><time>2023-05-13T18:54:29Z</time></trkpt><trkpt lat="58.048582" lon="38.855868"><ele>99.3</ele><time>2023-05-13T18:54:31Z</time></trkpt><trkpt lat="58.048598" lon="38.855705"><ele>99.3</ele><time>2023-05-13T18:54:33Z</time></trkpt><trkpt lat="58.048637" lon="38.855523"><ele>99.8</ele><time>2023-05-13T18:54:35Z</time></trkpt><trkpt lat="58.048677" lon="38.855383"><ele>99.9</ele><time>2023-05-13T18:54:37Z</time></trkpt><trkpt lat="58.04871" lon="38.855222"><ele>99.1</ele><time>2023-05-13T18:54:41Z</time></trkpt><trkpt lat="58.048767" lon="38.855088"><ele>99.9</ele><time>2023-05-13T18:54:44Z</time></trkpt><trkpt lat="58.048842" lon="38.854982"><ele>98.7</ele><time>2023-05-13T18:54:47Z</time></trkpt><trkpt lat="58.04887" lon="38.854823"><ele>98.7</ele><time>2023-05-13T18:54:49Z</time></trkpt><trkpt lat="58.048862" lon="38.854652"><ele>98.8</ele><time>2023-05-13T18:54:50Z</time></trkpt><trkpt lat="58.048868" lon="38.854467"><ele>98.5</ele><time>2023-05-13T18:54:52Z</time></trkpt><trkpt lat="58.048888" lon="38.85429"><ele>98.9</ele><time>2023-05-13T18:54:54Z</time></trkpt><trkpt lat="58.048925" lon="38.854083"><ele>98.7</ele><time>2023-05-13T18:54:57Z</time></trkpt><trkpt lat="58.04898" lon="38.85388"><ele>98.1</ele><time>2023-05-13T18:54:59Z</time></trkpt><trkpt lat="58.049017" lon="38.853687"><ele>98.5</ele><time>2023-05-13T18:55:01Z</time></trkpt><trkpt lat="58.049037" lon="38.853492"><ele>98.7</ele><time>2023-05-13T18:55:03Z</time></trkpt><trkpt lat="58.049042" lon="38.85329"><ele>98.3</ele><time>2023-05-13T18:55:05Z</time></trkpt><trkpt lat="58.04908" lon="38.853105"><ele>98.5</ele><time>2023-05-13T18:55:07Z</time></trkpt><trkpt lat="58.049103" lon="38.852955"><ele>97.8</ele><time>2023-05-13T18:55:09Z</time></trkpt><trkpt lat="58.049108" lon="38.85273"><ele>96.1</ele><time>2023-05-13T18:55:12Z</time></trkpt><trkpt lat="58.049123" lon="38.852565"><ele>97.8</ele><time>2023-05-13T18:55:14Z</time></trkpt><trkpt lat="58.049177" lon="38.852447"><ele>98.4</ele><time>2023-05-13T18:55:17Z</time></trkpt><trkpt lat="58.049212" lon="38.852267"><ele>99.1</ele><time>2023-05-13T18:55:20Z</time></trkpt><trkpt lat="58.049275" lon="38.852107"><ele>100.0</ele><time>2023-05-13T18:55:23Z</time></trkpt><trkpt lat="58.049307" lon="38.85198"><ele>99.7</ele><time>2023-05-13T18:55:25Z</time></trkpt><trkpt lat="58.049337" lon="38.85185"><ele>99.7</ele><time>2023-05-13T18:55:27Z</time></trkpt><trkpt lat="58.049362" lon="38.851712"><ele>99.2</ele><time>2023-05-13T18:55:29Z</time></trkpt><trkpt lat="58.049382" lon="38.851563"><ele>99.4</ele><time>2023-05-13T18:55:31Z</time></trkpt><trkpt lat="58.049402" lon="38.85142"><ele>99.7</ele><time>2023-05-13T18:55:33Z</time></trkpt><trkpt lat="58.049427" lon="38.85124"><ele>99.2</ele><time>2023-05-13T18:55:36Z</time></trkpt><trkpt lat="58.049453" lon="38.851047"><ele>99.3</ele><time>2023-05-13T18:55:39Z</time></trkpt><trkpt lat="58.04948" lon="38.850905"><ele>99.4</ele><time>2023-05-13T18:55:41Z</time></trkpt><trkpt lat="58.049513" lon="38.850758"><ele>99.1</ele><time>2023-05-13T18:55:43Z</time></trkpt><trkpt lat="58.049542" lon="38.85062"><ele>98.8</ele><time>2023-05-13T18:55:45Z</time></trkpt><trkpt lat="58.049572" lon="38.850435"><ele>98.6</ele><time>2023-05-13T18:55:48Z</time></trkpt><trkpt lat="58.049582" lon="38.850302"><ele>98.4</ele><time>2023-05-13T18:55:51Z</time></trkpt><trkpt lat="58.049572" lon="38.850163"><ele>100.4</ele><time>2023-05-13T18:56:03Z</time></trkpt><trkpt lat="58.049572" lon="38.85001"><ele>100.2</ele><time>2023-05-13T18:56:06Z</time></trkpt><trkpt lat="58.049583" lon="38.849865"><ele>99.6</ele><time>2023-05-13T18:56:08Z</time></trkpt><trkpt lat="58.049608" lon="38.849702"><ele>100.1</ele><time>2023-05-13T18:56:10Z</time></trkpt><trkpt lat="58.04964" lon="38.849543"><ele>100.0</ele><time>2023-05-13T18:56:12Z</time></trkpt><trkpt lat="58.049668" lon="38.849397"><ele>99.3</ele><time>2023-05-13T18:56:14Z</time></trkpt><trkpt lat="58.049708" lon="38.849212"><ele>98.9</ele><time>2023-05-13T18:56:17Z</time></trkpt><trkpt lat="58.049733" lon="38.849082"><ele>97.7</ele><time>2023-05-13T18:56:19Z</time></trkpt><trkpt lat="58.04976" lon="38.848885"><ele>96.1</ele><time>2023-05-13T18:56:22Z</time></trkpt><trkpt lat="58.049797" lon="38.848757"><ele>95.5</ele><time>2023-05-13T18:56:24Z</time></trkpt><trkpt lat="58.04983" lon="38.848637"><ele>96.1</ele><time>2023-05-13T18:56:26Z</time></trkpt><trkpt lat="58.04987" lon="38.848448"><ele>95.7</ele><time>2023-05-13T18:56:29Z</time></trkpt><trkpt lat="58.049912" lon="38.848283"><ele>97.1</ele><time>2023-05-13T18:56:32Z</time></trkpt><trkpt lat="58.04993" lon="38.848108"><ele>97.4</ele><time>2023-05-13T18:56:35Z</time></trkpt><trkpt lat="58.049962" lon="38.847937"><ele>95.5</ele><time>2023-05-13T18:56:38Z</time></trkpt><trkpt lat="58.050002" lon="38.847808"><ele>95.1</ele><time>2023-05-13T18:56:42Z</time></trkpt><trkpt lat="58.05004" lon="38.847642"><ele>94.7</ele><time>2023-05-13T18:56:45Z</time></trkpt><trkpt lat="58.050075" lon="38.847453"><ele>93.8</ele><time>2023-05-13T18:56:48Z</time></trkpt><trkpt lat="58.05011" lon="38.847307"><ele>93.2</ele><time>2023-05-13T18:56:50Z</time></trkpt><trkpt lat="58.05014" lon="38.847137"><ele>93.7</ele><time>2023-05-13T18:56:52Z</time></trkpt><trkpt lat="58.050167" lon="38.846963"><ele>93.8</ele><time>2023-05-13T18:56:54Z</time></trkpt><trkpt lat="58.05019" lon="38.846807"><ele>93.3</ele><time>2023-05-13T18:56:56Z</time></trkpt><trkpt lat="58.050205" lon="38.846635"><ele>93.0</ele><time>2023-05-13T18:56:58Z</time></trkpt><trkpt lat="58.050237" lon="38.846462"><ele>93.6</ele><time>2023-05-13T18:57:00Z</time></trkpt><trkpt lat="58.050275" lon="38.846313"><ele>93.8</ele><time>2023-05-13T18:57:02Z</time></trkpt><trkpt lat="58.050295" lon="38.846155"><ele>94.8</ele><time>2023-05-13T18:57:04Z</time></trkpt><trkpt lat="58.050322" lon="38.84598"><ele>94.8</ele><time>2023-05-13T18:57:06Z</time></trkpt><trkpt lat="58.050352" lon="38.845807"><ele>95.2</ele><time>2023-05-13T18:57:08Z</time></trkpt><trkpt lat="58.050385" lon="38.845625"><ele>95.4</ele><time>2023-05-13T18:57:10Z</time></trkpt><trkpt lat="58.050407" lon="38.845418"><ele>95.0</ele><time>2023-05-13T18:57:12Z</time></trkpt><trkpt lat="58.050438" lon="38.845228"><ele>96.0</ele><time>2023-05-13T18:57:14Z</time></trkpt><trkpt lat="58.050482" lon="38.84504"><ele>96.9</ele><time>2023-05-13T18:57:16Z</time></trkpt><trkpt lat="58.050525" lon="38.844863"><ele>97.6</ele><time>2023-05-13T18:57:18Z</time></trkpt><trkpt lat="58.05055" lon="38.844697"><ele>98.3</ele><time>2023-05-13T18:57:20Z</time></trkpt><trkpt lat="58.05057" lon="38.844535"><ele>98.1</ele><time>2023-05-13T18:57:22Z</time></trkpt><trkpt lat="58.050607" lon="38.844338"><ele>97.2</ele><time>2023-05-13T18:57:25Z</time></trkpt><trkpt lat="58.050652" lon="38.844193"><ele>97.6</ele><time>2023-05-13T18:57:28Z</time></trkpt><trkpt lat="58.050682" lon="38.844063"><ele>96.8</ele><time>2023-05-13T18:57:30Z</time></trkpt><trkpt lat="58.050708" lon="38.843913"><ele>96.5</ele><time>2023-05-13T18:57:32Z</time></trkpt><trkpt lat="58.050738" lon="38.843748"><ele>96.4</ele><time>2023-05-13T18:57:34Z</time></trkpt><trkpt lat="58.050762" lon="38.843563"><ele>96.2</ele><time>2023-05-13T18:57:36Z</time></trkpt><trkpt lat="58.05079" lon="38.843412"><ele>96.1</ele><time>2023-05-13T18:57:38Z</time></trkpt><trkpt lat="58.050825" lon="38.84327"><ele>95.1</ele><time>2023-05-13T18:57:40Z</time></trkpt><trkpt lat="58.050862" lon="38.8431"><ele>94.6</ele><time>2023-05-13T18:57:42Z</time></trkpt><trkpt lat="58.050895" lon="38.842932"><ele>94.9</ele><time>2023-05-13T18:57:44Z</time></trkpt><trkpt lat="58.05093" lon="38.84277"><ele>94.6</ele><time>2023-05-13T18:57:46Z</time></trkpt><trkpt lat="58.05096" lon="38.842573"><ele>95.4</ele><time>2023-05-13T18:57:48Z</time></trkpt><trkpt lat="58.05099" lon="38.84242"><ele>95.3</ele><time>2023-05-13T18:57:50Z</time></trkpt><trkpt lat="58.051015" lon="38.842288"><ele>96.2</ele><time>2023-05-13T18:57:52Z</time></trkpt><trkpt lat="58.051055" lon="38.842145"><ele>96.0</ele><time>2023-05-13T18:57:54Z</time></trkpt><trkpt lat="58.051075" lon="38.841982"><ele>95.8</ele><time>2023-05-13T18:57:56Z</time></trkpt><trkpt lat="58.051127" lon="38.841822"><ele>96.1</ele><time>2023-05-13T18:57:58Z</time></trkpt><trkpt lat="58.051167" lon="38.841633"><ele>96.4</ele><time>2023-05-13T18:58:00Z</time></trkpt><trkpt lat="58.051203" lon="38.841445"><ele>97.2</ele><time>2023-05-13T18:58:02Z</time></trkpt><trkpt lat="58.05124" lon="38.841297"><ele>97.5</ele><time>2023-05-13T18:58:04Z</time></trkpt><trkpt lat="58.051275" lon="38.841128"><ele>96.3</ele><time>2023-05-13T18:58:06Z</time></trkpt><trkpt lat="58.051307" lon="38.84091"><ele>95.0</ele><time>2023-05-13T18:58:08Z</time></trkpt><trkpt lat="58.051345" lon="38.840668"><ele>95.6</ele><time>2023-05-13T18:58:10Z</time></trkpt><trkpt lat="58.051393" lon="38.840438"><ele>94.6</ele><time>2023-05-13T18:58:12Z</time></trkpt><trkpt lat="58.051432" lon="38.840238"><ele>94.7</ele><time>2023-05-13T18:58:14Z</time></trkpt><trkpt lat="58.051477" lon="38.840025"><ele>94.8</ele><time>2023-05-13T18:58:16Z</time></trkpt><trkpt lat="58.051512" lon="38.839817"><ele>96.1</ele><time>2023-05-13T18:58:18Z</time></trkpt><trkpt lat="58.051532" lon="38.839612"><ele>95.6</ele><time>2023-05-13T18:58:20Z</time></trkpt><trkpt lat="58.051568" lon="38.839457"><ele>94.1</ele><time>2023-05-13T18:58:22Z</time></trkpt><trkpt lat="58.05158" lon="38.83929"><ele>94.8</ele><time>2023-05-13T18:58:24Z</time></trkpt><trkpt lat="58.051602" lon="38.839112"><ele>94.8</ele><time>2023-05-13T18:58:26Z</time></trkpt><trkpt lat="58.05164" lon="38.838923"><ele>94.7</ele><time>2023-05-13T18:58:28Z</time></trkpt><trkpt lat="58.051682" lon="38.83874"><ele>95.8</ele><time>2023-05-13T18:58:30Z</time></trkpt><trkpt lat="58.051715" lon="38.838573"><ele>95.6</ele><time>2023-05-13T18:58:32Z</time></trkpt><trkpt lat="58.051727" lon="38.838425"><ele>94.1</ele><time>2023-05-13T18:58:34Z</time></trkpt><trkpt lat="58.051755" lon="38.838278"><ele>94.2</ele><time>2023-05-13T18:58:37Z</time></trkpt><trkpt lat="58.051805" lon="38.838172"><ele>96.6</ele><time>2023-05-13T18:58:52Z</time></trkpt><trkpt lat="58.051757" lon="38.838035"><ele>98.3</ele><time>2023-05-13T18:59:24Z</time></trkpt><trkpt lat="58.051722" lon="38.83786"><ele>98.9</ele><time>2023-05-13T18:59:27Z</time></trkpt><trkpt lat="58.051732" lon="38.837678"><ele>99.2</ele><time>2023-05-13T18:59:30Z</time></trkpt><trkpt lat="58.051772" lon="38.837493"><ele>98.3</ele><time>2023-05-13T18:59:33Z</time></trkpt><trkpt lat="58.051808" lon="38.837345"><ele>97.7</ele><time>2023-05-13T18:59:36Z</time></trkpt><trkpt lat="58.051842" lon="38.837188"><ele>96.4</ele><time>2023-05-13T18:59:39Z</time></trkpt><trkpt lat="58.051867" lon="38.837033"><ele>95.4</ele><time>2023-05-13T18:59:42Z</time></trkpt><trkpt lat="58.0519" lon="38.836868"><ele>95.8</ele><time>2023-05-13T18:59:45Z</time></trkpt><trkpt lat="58.05193" lon="38.836717"><ele>98.2</ele><time>2023-05-13T18:59:48Z</time></trkpt><trkpt lat="58.051977" lon="38.836557"><ele>98.2</ele><time>2023-05-13T18:59:51Z</time></trkpt><trkpt lat="58.052" lon="38.836372"><ele>97.4</ele><time>2023-05-13T18:59:54Z</time></trkpt><trkpt lat="58.052012" lon="38.836232"><ele>97.7</ele><time>2023-05-13T18:59:56Z</time></trkpt><trkpt lat="58.05202" lon="38.836093"><ele>97.4</ele><time>2023-05-13T18:59:58Z</time></trkpt><trkpt lat="58.052017" lon="38.835958"><ele>97.7</ele><time>2023-05-13T19:00:00Z</time></trkpt><trkpt lat="58.052005" lon="38.835822"><ele>97.3</ele><time>2023-05-13T19:00:02Z</time></trkpt><trkpt lat="58.052003" lon="38.835627"><ele>96.4</ele><time>2023-05-13T19:00:05Z</time></trkpt><trkpt lat="58.052027" lon="38.835462"><ele>95.7</ele><time>2023-05-13T19:00:08Z</time></trkpt><trkpt lat="58.052072" lon="38.835298"><ele>95.9</ele><time>2023-05-13T19:00:11Z</time></trkpt><trkpt lat="58.052102" lon="38.83511"><ele>96.4</ele><time>2023-05-13T19:00:14Z</time></trkpt><trkpt lat="58.05212" lon="38.834952"><ele>93.9</ele><time>2023-05-13T19:00:17Z</time></trkpt><trkpt lat="58.05214" lon="38.834783"><ele>93.6</ele><time>2023-05-13T19:00:20Z</time></trkpt><trkpt lat="58.05216" lon="38.834598"><ele>92.2</ele><time>2023-05-13T19:00:23Z</time></trkpt><trkpt lat="58.052175" lon="38.834465"><ele>91.8</ele><time>2023-05-13T19:00:26Z</time></trkpt><trkpt lat="58.052205" lon="38.834335"><ele>92.3</ele><time>2023-05-13T19:00:31Z</time></trkpt><trkpt lat="58.05225" lon="38.83419"><ele>92.5</ele><time>2023-05-13T19:00:34Z</time></trkpt><trkpt lat="58.052273" lon="38.834048"><ele>93.1</ele><time>2023-05-13T19:00:36Z</time></trkpt><trkpt lat="58.052308" lon="38.833885"><ele>93.7</ele><time>2023-05-13T19:00:39Z</time></trkpt><trkpt lat="58.05236" lon="38.833723"><ele>96.0</ele><time>2023-05-13T19:00:43Z</time></trkpt><trkpt lat="58.05238" lon="38.833587"><ele>96.1</ele><time>2023-05-13T19:00:45Z</time></trkpt><trkpt lat="58.0524" lon="38.833427"><ele>97.1</ele><time>2023-05-13T19:00:47Z</time></trkpt><trkpt lat="58.052422" lon="38.833288"><ele>97.3</ele><time>2023-05-13T19:00:49Z</time></trkpt><trkpt lat="58.052455" lon="38.83311"><ele>97.5</ele><time>2023-05-13T19:00:52Z</time></trkpt><trkpt lat="58.05249" lon="38.832938"><ele>97.1</ele><time>2023-05-13T19:00:55Z</time></trkpt><trkpt lat="58.052515" lon="38.832803"><ele>97.2</ele><time>2023-05-13T19:00:57Z</time></trkpt><trkpt lat="58.052553" lon="38.832657"><ele>97.1</ele><time>2023-05-13T19:00:58Z</time></trkpt><trkpt lat="58.052592" lon="38.832505"><ele>97.0</ele><time>2023-05-13T19:01:00Z</time></trkpt><trkpt lat="58.05262" lon="38.832345"><ele>96.7</ele><time>2023-05-13T19:01:02Z</time></trkpt><trkpt lat="58.052642" lon="38.832185"><ele>96.3</ele><time>2023-05-13T19:01:04Z</time></trkpt><trkpt lat="58.052667" lon="38.832037"><ele>95.9</ele><time>2023-05-13T19:01:06Z</time></trkpt><trkpt lat="58.052708" lon="38.831865"><ele>94.1</ele><time>2023-05-13T19:01:09Z</time></trkpt><trkpt lat="58.052768" lon="38.831693"><ele>94.5</ele><time>2023-05-13T19:01:12Z</time></trkpt><trkpt lat="58.052805" lon="38.831502"><ele>94.9</ele><time>2023-05-13T19:01:15Z</time></trkpt><trkpt lat="58.052827" lon="38.831353"><ele>96.1</ele><time>2023-05-13T19:01:17Z</time></trkpt><trkpt lat="58.052857" lon="38.831163"><ele>96.3</ele><time>2023-05-13T19:01:19Z</time></trkpt><trkpt lat="58.052888" lon="38.830993"><ele>95.7</ele><time>2023-05-13T19:01:21Z</time></trkpt><trkpt lat="58.052908" lon="38.830805"><ele>95.1</ele><time>2023-05-13T19:01:23Z</time></trkpt><trkpt lat="58.052927" lon="38.83061"><ele>94.9</ele><time>2023-05-13T19:01:25Z</time></trkpt><trkpt lat="58.05296" lon="38.830463"><ele>93.0</ele><time>2023-05-13T19:01:27Z</time></trkpt><trkpt lat="58.053" lon="38.830348"><ele>93.6</ele><time>2023-05-13T19:01:29Z</time></trkpt><trkpt lat="58.053033" lon="38.83017"><ele>94.0</ele><time>2023-05-13T19:01:32Z</time></trkpt><trkpt lat="58.05306" lon="38.830022"><ele>92.3</ele><time>2023-05-13T19:01:35Z</time></trkpt><trkpt lat="58.053092" lon="38.829848"><ele>93.3</ele><time>2023-05-13T19:01:39Z</time></trkpt><trkpt lat="58.053122" lon="38.829688"><ele>94.0</ele><time>2023-05-13T19:01:43Z</time></trkpt><trkpt lat="58.053155" lon="38.829525"><ele>92.3</ele><time>2023-05-13T19:01:46Z</time></trkpt><trkpt lat="58.053188" lon="38.829398"><ele>91.8</ele><time>2023-05-13T19:01:48Z</time></trkpt><trkpt lat="58.053215" lon="38.829253"><ele>92.3</ele><time>2023-05-13T19:01:50Z</time></trkpt><trkpt lat="58.05324" lon="38.829103"><ele>93.3</ele><time>2023-05-13T19:01:52Z</time></trkpt><trkpt lat="58.05325" lon="38.828943"><ele>93.1</ele><time>2023-05-13T19:01:56Z</time></trkpt><trkpt lat="58.05327" lon="38.828758"><ele>93.2</ele><time>2023-05-13T19:01:59Z</time></trkpt><trkpt lat="58.05331" lon="38.828633"><ele>93.7</ele><time>2023-05-13T19:02:01Z</time></trkpt><trkpt lat="58.053348" lon="38.828452"><ele>94.0</ele><time>2023-05-13T19:02:04Z</time></trkpt><trkpt lat="58.053383" lon="38.828287"><ele>94.1</ele><time>2023-05-13T19:02:07Z</time></trkpt><trkpt lat="58.053412" lon="38.828105"><ele>93.8</ele><time>2023-05-13T19:02:10Z</time></trkpt><trkpt lat="58.053442" lon="38.82791"><ele>94.1</ele><time>2023-05-13T19:02:13Z</time></trkpt><trkpt lat="58.053467" lon="38.82778"><ele>93.9</ele><time>2023-05-13T19:02:15Z</time></trkpt><trkpt lat="58.053483" lon="38.827605"><ele>93.8</ele><time>2023-05-13T19:02:18Z</time></trkpt><trkpt lat="58.05349" lon="38.827443"><ele>91.4</ele><time>2023-05-13T19:02:21Z</time></trkpt><trkpt lat="58.053513" lon="38.82728"><ele>91.2</ele><time>2023-05-13T19:02:24Z</time></trkpt><trkpt lat="58.0535" lon="38.827123"><ele>91.6</ele><time>2023-05-13T19:02:27Z</time></trkpt><trkpt lat="58.053532" lon="38.826993"><ele>90.2</ele><time>2023-05-13T19:02:30Z</time></trkpt><trkpt lat="58.053582" lon="38.826843"><ele>90.7</ele><time>2023-05-13T19:02:33Z</time></trkpt><trkpt lat="58.05364" lon="38.826685"><ele>91.5</ele><time>2023-05-13T19:02:36Z</time></trkpt><trkpt lat="58.053683" lon="38.826525"><ele>92.1</ele><time>2023-05-13T19:02:39Z</time></trkpt><trkpt lat="58.053723" lon="38.826395"><ele>93.8</ele><time>2023-05-13T19:02:42Z</time></trkpt><trkpt lat="58.053803" lon="38.826347"><ele>94.4</ele><time>2023-05-13T19:02:45Z</time></trkpt><trkpt lat="58.053855" lon="38.826247"><ele>94.5</ele><time>2023-05-13T19:02:48Z</time></trkpt><trkpt lat="58.053877" lon="38.826102"><ele>94.9</ele><time>2023-05-13T19:02:51Z</time></trkpt><trkpt lat="58.053907" lon="38.825932"><ele>95.5</ele><time>2023-05-13T19:02:55Z</time></trkpt><trkpt lat="58.053942" lon="38.825773"><ele>95.0</ele><time>2023-05-13T19:02:58Z</time></trkpt><trkpt lat="58.05397" lon="38.825605"><ele>95.5</ele><time>2023-05-13T19:03:01Z</time></trkpt><trkpt lat="58.054008" lon="38.825425"><ele>96.0</ele><time>2023-05-13T19:03:04Z</time></trkpt><trkpt lat="58.054027" lon="38.825278"><ele>96.1</ele><time>2023-05-13T19:03:06Z</time></trkpt><trkpt lat="58.054048" lon="38.825123"><ele>95.2</ele><time>2023-05-13T19:03:08Z</time></trkpt><trkpt lat="58.054072" lon="38.824973"><ele>95.4</ele><time>2023-05-13T19:03:10Z</time></trkpt><trkpt lat="58.054097" lon="38.82483"><ele>95.5</ele><time>2023-05-13T19:03:12Z</time></trkpt><trkpt lat="58.054118" lon="38.82469"><ele>94.8</ele><time>2023-05-13T19:03:14Z</time></trkpt><trkpt lat="58.054138" lon="38.824545"><ele>94.3</ele><time>2023-05-13T19:03:16Z</time></trkpt><trkpt lat="58.05415" lon="38.824398"><ele>95.3</ele><time>2023-05-13T19:03:18Z</time></trkpt><trkpt lat="58.054135" lon="38.82426"><ele>95.7</ele><time>2023-05-13T19:03:20Z</time></trkpt><trkpt lat="58.054108" lon="38.824102"><ele>96.2</ele><time>2023-05-13T19:03:23Z</time></trkpt><trkpt lat="58.054102" lon="38.82394"><ele>95.1</ele><time>2023-05-13T19:03:27Z</time></trkpt><trkpt lat="58.054138" lon="38.823818"><ele>93.6</ele><time>2023-05-13T19:03:30Z</time></trkpt><trkpt lat="58.054198" lon="38.823667"><ele>92.8</ele><time>2023-05-13T19:03:33Z</time></trkpt><trkpt lat="58.054243" lon="38.823553"><ele>93.2</ele><time>2023-05-13T19:03:35Z</time></trkpt><trkpt lat="58.054292" lon="38.82343"><ele>92.1</ele><time>2023-05-13T19:03:37Z</time></trkpt><trkpt lat="58.054335" lon="38.823302"><ele>93.0</ele><time>2023-05-13T19:03:39Z</time></trkpt><trkpt lat="58.054377" lon="38.82315"><ele>93.5</ele><time>2023-05-13T19:03:41Z</time></trkpt><trkpt lat="58.054413" lon="38.823015"><ele>94.8</ele><time>2023-05-13T19:03:43Z</time></trkpt><trkpt lat="58.05445" lon="38.82286"><ele>94.7</ele><time>2023-05-13T19:03:45Z</time></trkpt><trkpt lat="58.054467" lon="38.822677"><ele>95.1</ele><time>2023-05-13T19:03:47Z</time></trkpt><trkpt lat="58.054498" lon="38.82253"><ele>95.2</ele><time>2023-05-13T19:03:49Z</time></trkpt><trkpt lat="58.054533" lon="38.8224"><ele>95.1</ele><time>2023-05-13T19:03:51Z</time></trkpt><trkpt lat="58.054558" lon="38.822267"><ele>94.3</ele><time>2023-05-13T19:03:53Z</time></trkpt><trkpt lat="58.054583" lon="38.82212"><ele>94.7</ele><time>2023-05-13T19:03:55Z</time></trkpt><trkpt lat="58.054612" lon="38.821947"><ele>95.1</ele><time>2023-05-13T19:03:58Z</time></trkpt><trkpt lat="58.054637" lon="38.821775"><ele>95.2</ele><time>2023-05-13T19:04:01Z</time></trkpt><trkpt lat="58.054647" lon="38.821618"><ele>97.0</ele><time>2023-05-13T19:04:12Z</time></trkpt><trkpt lat="58.054658" lon="38.821425"><ele>98.1</ele><time>2023-05-13T19:04:15Z</time></trkpt><trkpt lat="58.054667" lon="38.821273"><ele>97.7</ele><time>2023-05-13T19:04:17Z</time></trkpt><trkpt lat="58.05467" lon="38.821115"><ele>96.9</ele><time>2023-05-13T19:04:19Z</time></trkpt><trkpt lat="58.054673" lon="38.820962"><ele>97.2</ele><time>2023-05-13T19:04:21Z</time></trkpt><trkpt lat="58.054677" lon="38.820827"><ele>96.5</ele><time>2023-05-13T19:04:23Z</time></trkpt><trkpt lat="58.054687" lon="38.82068"><ele>97.5</ele><time>2023-05-13T19:04:25Z</time></trkpt><trkpt lat="58.0547" lon="38.820533"><ele>97.2</ele><time>2023-05-13T19:04:27Z</time></trkpt><trkpt lat="58.054712" lon="38.820387"><ele>96.2</ele><time>2023-05-13T19:04:29Z</time></trkpt><trkpt lat="58.054718" lon="38.820247"><ele>96.5</ele><time>2023-05-13T19:04:31Z</time></trkpt><trkpt lat="58.054725" lon="38.820065"><ele>96.9</ele><time>2023-05-13T19:04:34Z</time></trkpt><trkpt lat="58.054733" lon="38.819893"><ele>97.5</ele><time>2023-05-13T19:04:37Z</time></trkpt><trkpt lat="58.054752" lon="38.819723"><ele>96.2</ele><time>2023-05-13T19:04:40Z</time></trkpt><trkpt lat="58.054757" lon="38.819543"><ele>96.3</ele><time>2023-05-13T19:04:43Z</time></trkpt><trkpt lat="58.054753" lon="38.819373"><ele>97.1</ele><time>2023-05-13T19:04:46Z</time></trkpt><trkpt lat="58.054757" lon="38.819213"><ele>96.7</ele><time>2023-05-13T19:04:49Z</time></trkpt><trkpt lat="58.054765" lon="38.819042"><ele>96.9</ele><time>2023-05-13T19:04:52Z</time></trkpt><trkpt lat="58.05479" lon="38.818888"><ele>96.2</ele><time>2023-05-13T19:04:55Z</time></trkpt><trkpt lat="58.054802" lon="38.818718"><ele>96.2</ele><time>2023-05-13T19:04:59Z</time></trkpt><trkpt lat="58.054808" lon="38.81857"><ele>96.9</ele><time>2023-05-13T19:05:02Z</time></trkpt><trkpt lat="58.054818" lon="38.818418"><ele>97.4</ele><time>2023-05-13T19:05:05Z</time></trkpt><trkpt lat="58.05481" lon="38.818267"><ele>96.4</ele><time>2023-05-13T19:05:08Z</time></trkpt><trkpt lat="58.054817" lon="38.818083"><ele>96.7</ele><time>2023-05-13T19:05:11Z</time></trkpt><trkpt lat="58.054833" lon="38.817912"><ele>96.5</ele><time>2023-05-13T19:05:14Z</time></trkpt><trkpt lat="58.054843" lon="38.817737"><ele>96.5</ele><time>2023-05-13T19:05:17Z</time></trkpt><trkpt lat="58.054862" lon="38.817558"><ele>97.2</ele><time>2023-05-13T19:05:20Z</time></trkpt><trkpt lat="58.05488" lon="38.817375"><ele>97.3</ele><time>2023-05-13T19:05:23Z</time></trkpt><trkpt lat="58.054895" lon="38.817182"><ele>97.3</ele><time>2023-05-13T19:05:26Z</time></trkpt><trkpt lat="58.054905" lon="38.816985"><ele>96.7</ele><time>2023-05-13T19:05:29Z</time></trkpt><trkpt lat="58.05491" lon="38.816802"><ele>96.1</ele><time>2023-05-13T19:05:32Z</time></trkpt><trkpt lat="58.054928" lon="38.816643"><ele>95.1</ele><time>2023-05-13T19:05:40Z</time></trkpt><trkpt lat="58.054957" lon="38.816492"><ele>96.4</ele><time>2023-05-13T19:05:44Z</time></trkpt><trkpt lat="58.054968" lon="38.816323"><ele>95.8</ele><time>2023-05-13T19:05:48Z</time></trkpt><trkpt lat="58.055043" lon="38.816307"><ele>95.8</ele><time>2023-05-13T19:05:51Z</time></trkpt><trkpt lat="58.055112" lon="38.816382"><ele>96.4</ele><time>2023-05-13T19:05:53Z</time></trkpt><trkpt lat="58.055195" lon="38.816395"><ele>96.6</ele><time>2023-05-13T19:05:55Z</time></trkpt><trkpt lat="58.055263" lon="38.816338"><ele>97.5</ele><time>2023-05-13T19:05:57Z</time></trkpt><trkpt lat="58.055305" lon="38.816177"><ele>97.6</ele><time>2023-05-13T19:06:00Z</time></trkpt><trkpt lat="58.055337" lon="38.815995"><ele>98.1</ele><time>2023-05-13T19:06:03Z</time></trkpt><trkpt lat="58.055393" lon="38.815823"><ele>97.9</ele><time>2023-05-13T19:06:06Z</time></trkpt><trkpt lat="58.055448" lon="38.815705"><ele>97.6</ele><time>2023-05-13T19:06:08Z</time></trkpt><trkpt lat="58.05551" lon="38.81558"><ele>97.6</ele><time>2023-05-13T19:06:10Z</time></trkpt><trkpt lat="58.055562" lon="38.815483"><ele>98.1</ele><time>2023-05-13T19:06:12Z</time></trkpt><trkpt lat="58.055623" lon="38.81537"><ele>98.1</ele><time>2023-05-13T19:06:15Z</time></trkpt><trkpt lat="58.05568" lon="38.815208"><ele>96.8</ele><time>2023-05-13T19:06:18Z</time></trkpt><trkpt lat="58.055702" lon="38.815068"><ele>96.5</ele><time>2023-05-13T19:06:20Z</time></trkpt><trkpt lat="58.055705" lon="38.814918"><ele>95.8</ele><time>2023-05-13T19:06:22Z</time></trkpt><trkpt lat="58.055725" lon="38.814767"><ele>96.3</ele><time>2023-05-13T19:06:24Z</time></trkpt><trkpt lat="58.055745" lon="38.814613"><ele>96.1</ele><time>2023-05-13T19:06:26Z</time></trkpt><trkpt lat="58.055753" lon="38.814467"><ele>96.2</ele><time>2023-05-13T19:06:28Z</time></trkpt><trkpt lat="58.055778" lon="38.814302"><ele>96.2</ele><time>2023-05-13T19:06:30Z</time></trkpt><trkpt lat="58.055787" lon="38.814137"><ele>96.1</ele><time>2023-05-13T19:06:32Z</time></trkpt><trkpt lat="58.055793" lon="38.81396"><ele>95.0</ele><time>2023-05-13T19:06:34Z</time></trkpt><trkpt lat="58.055805" lon="38.813768"><ele>95.6</ele><time>2023-05-13T19:06:36Z</time></trkpt><trkpt lat="58.055813" lon="38.813595"><ele>95.2</ele><time>2023-05-13T19:06:38Z</time></trkpt><trkpt lat="58.055837" lon="38.813445"><ele>95.4</ele><time>2023-05-13T19:06:40Z</time></trkpt><trkpt lat="58.05585" lon="38.813253"><ele>95.2</ele><time>2023-05-13T19:06:43Z</time></trkpt><trkpt lat="58.05585" lon="38.813095"><ele>94.8</ele><time>2023-05-13T19:06:45Z</time></trkpt><trkpt lat="58.055858" lon="38.812958"><ele>94.0</ele><time>2023-05-13T19:06:47Z</time></trkpt><trkpt lat="58.055872" lon="38.812787"><ele>94.0</ele><time>2023-05-13T19:06:49Z</time></trkpt><trkpt lat="58.05593" lon="38.81264"><ele>94.0</ele><time>2023-05-13T19:06:51Z</time></trkpt><trkpt lat="58.055958" lon="38.812493"><ele>94.2</ele><time>2023-05-13T19:06:53Z</time></trkpt><trkpt lat="58.055943" lon="38.812323"><ele>93.9</ele><time>2023-05-13T19:06:56Z</time></trkpt><trkpt lat="58.055905" lon="38.812185"><ele>95.5</ele><time>2023-05-13T19:06:59Z</time></trkpt><trkpt lat="58.0559" lon="38.811992"><ele>95.4</ele><time>2023-05-13T19:07:03Z</time></trkpt><trkpt lat="58.055913" lon="38.811797"><ele>95.8</ele><time>2023-05-13T19:07:06Z</time></trkpt><trkpt lat="58.055923" lon="38.81159"><ele>94.4</ele><time>2023-05-13T19:07:09Z</time></trkpt><trkpt lat="58.055928" lon="38.81144"><ele>94.2</ele><time>2023-05-13T19:07:11Z</time></trkpt><trkpt lat="58.05594" lon="38.811297"><ele>94.3</ele><time>2023-05-13T19:07:13Z</time></trkpt><trkpt lat="58.05595" lon="38.81115"><ele>94.4</ele><time>2023-05-13T19:07:15Z</time></trkpt><trkpt lat="58.055957" lon="38.811003"><ele>93.9</ele><time>2023-05-13T19:07:17Z</time></trkpt><trkpt lat="58.05596" lon="38.810867"><ele>94.6</ele><time>2023-05-13T19:07:19Z</time></trkpt><trkpt lat="58.055973" lon="38.810665"><ele>95.6</ele><time>2023-05-13T19:07:22Z</time></trkpt><trkpt lat="58.056022" lon="38.810503"><ele>96.0</ele><time>2023-05-13T19:07:25Z</time></trkpt><trkpt lat="58.056093" lon="38.810408"><ele>96.7</ele><time>2023-05-13T19:07:28Z</time></trkpt><trkpt lat="58.056153" lon="38.810302"><ele>97.4</ele><time>2023-05-13T19:07:32Z</time></trkpt><trkpt lat="58.056228" lon="38.8102"><ele>98.1</ele><time>2023-05-13T19:07:36Z</time></trkpt><trkpt lat="58.0563" lon="38.810088"><ele>99.3</ele><time>2023-05-13T19:07:40Z</time></trkpt><trkpt lat="58.056377" lon="38.810035"><ele>100.3</ele><time>2023-05-13T19:07:43Z</time></trkpt><trkpt lat="58.056488" lon="38.810047"><ele>100.5</ele><time>2023-05-13T19:07:46Z</time></trkpt><trkpt lat="58.056573" lon="38.809952"><ele>100.2</ele><time>2023-05-13T19:07:49Z</time></trkpt><trkpt lat="58.056605" lon="38.809808"><ele>98.4</ele><time>2023-05-13T19:07:51Z</time></trkpt><trkpt lat="58.056618" lon="38.809673"><ele>95.9</ele><time>2023-05-13T19:07:53Z</time></trkpt><trkpt lat="58.056627" lon="38.809513"><ele>94.7</ele><time>2023-05-13T19:07:56Z</time></trkpt><trkpt lat="58.056707" lon="38.809533"><ele>98.2</ele><time>2023-05-13T19:08:01Z</time></trkpt><trkpt lat="58.056753" lon="38.809683"><ele>98.8</ele><time>2023-05-13T19:08:04Z</time></trkpt><trkpt lat="58.05685" lon="38.809745"><ele>100.7</ele><time>2023-05-13T19:08:07Z</time></trkpt><trkpt lat="58.05695" lon="38.809717"><ele>102.5</ele><time>2023-05-13T19:08:10Z</time></trkpt><trkpt lat="58.057025" lon="38.809683"><ele>103.8</ele><time>2023-05-13T19:08:13Z</time></trkpt><trkpt lat="58.05709" lon="38.809623"><ele>103.9</ele><time>2023-05-13T19:08:16Z</time></trkpt><trkpt lat="58.057115" lon="38.809448"><ele>105.1</ele><time>2023-05-13T19:08:20Z</time></trkpt><trkpt lat="58.05714" lon="38.809317"><ele>105.4</ele><time>2023-05-13T19:08:23Z</time></trkpt><trkpt lat="58.057215" lon="38.809248"><ele>105.7</ele><time>2023-05-13T19:08:27Z</time></trkpt><trkpt lat="58.057298" lon="38.809155"><ele>104.6</ele><time>2023-05-13T19:08:31Z</time></trkpt><trkpt lat="58.057368" lon="38.8091"><ele>104.3</ele><time>2023-05-13T19:08:34Z</time></trkpt><trkpt lat="58.057455" lon="38.809028"><ele>104.0</ele><time>2023-05-13T19:08:38Z</time></trkpt><trkpt lat="58.057545" lon="38.808957"><ele>103.0</ele><time>2023-05-13T19:08:41Z</time></trkpt><trkpt lat="58.057643" lon="38.808875"><ele>101.9</ele><time>2023-05-13T19:08:44Z</time></trkpt><trkpt lat="58.057752" lon="38.808873"><ele>101.2</ele><time>2023-05-13T19:08:47Z</time></trkpt><trkpt lat="58.057825" lon="38.808915"><ele>101.1</ele><time>2023-05-13T19:08:49Z</time></trkpt><trkpt lat="58.0579" lon="38.80894"><ele>101.7</ele><time>2023-05-13T19:08:51Z</time></trkpt><trkpt lat="58.057972" lon="38.80895"><ele>102.7</ele><time>2023-05-13T19:08:53Z</time></trkpt><trkpt lat="58.058047" lon="38.80894"><ele>103.0</ele><time>2023-05-13T19:08:55Z</time></trkpt><trkpt lat="58.05813" lon="38.80894"><ele>103.1</ele><time>2023-05-13T19:08:57Z</time></trkpt><trkpt lat="58.058215" lon="38.808963"><ele>103.2</ele><time>2023-05-13T19:08:59Z</time></trkpt><trkpt lat="58.058305" lon="38.808992"><ele>103.2</ele><time>2023-05-13T19:09:01Z</time></trkpt><trkpt lat="58.0584" lon="38.809015"><ele>102.6</ele><time>2023-05-13T19:09:02Z</time></trkpt><trkpt lat="58.058478" lon="38.809028"><ele>102.3</ele><time>2023-05-13T19:09:04Z</time></trkpt><trkpt lat="58.05856" lon="38.809007"><ele>101.7</ele><time>2023-05-13T19:09:06Z</time></trkpt><trkpt lat="58.05857" lon="38.808817"><ele>100.9</ele><time>2023-05-13T19:09:08Z</time></trkpt><trkpt lat="58.058577" lon="38.808653"><ele>100.1</ele><time>2023-05-13T19:09:10Z</time></trkpt><trkpt lat="58.058588" lon="38.808452"><ele>100.4</ele><time>2023-05-13T19:09:13Z</time></trkpt><trkpt lat="58.058618" lon="38.808323"><ele>99.9</ele><time>2023-05-13T19:09:15Z</time></trkpt><trkpt lat="58.058623" lon="38.80818"><ele>100.7</ele><time>2023-05-13T19:09:17Z</time></trkpt><trkpt lat="58.058627" lon="38.807985"><ele>100.6</ele><time>2023-05-13T19:09:20Z</time></trkpt><trkpt lat="58.058617" lon="38.807838"><ele>101.6</ele><time>2023-05-13T19:09:23Z</time></trkpt><trkpt lat="58.058613" lon="38.807697"><ele>102.7</ele><time>2023-05-13T19:09:27Z</time></trkpt><trkpt lat="58.058857" lon="38.807523"><ele>105.4</ele><time>2023-05-13T19:11:07Z</time></trkpt><trkpt lat="58.05877" lon="38.8075"><ele>105.4</ele><time>2023-05-13T19:11:15Z</time></trkpt><trkpt lat="58.058812" lon="38.807672"><ele>104.9</ele><time>2023-05-13T19:11:45Z</time></trkpt><trkpt lat="58.058922" lon="38.807533"><ele>104.9</ele><time>2023-05-13T19:12:04Z</time></trkpt><trkpt lat="58.058805" lon="38.807708"><ele>104.7</ele><time>2023-05-13T19:12:12Z</time></trkpt><trkpt lat="58.058828" lon="38.807562"><ele>105.4</ele><time>2023-05-13T19:12:47Z</time></trkpt><trkpt lat="58.058827" lon="38.807717"><ele>105.3</ele><time>2023-05-13T19:12:53Z</time></trkpt><trkpt lat="58.058727" lon="38.807633"><ele>105.3</ele><time>2023-05-13T19:13:02Z</time></trkpt><trkpt lat="58.0588" lon="38.80771"><ele>105.2</ele><time>2023-05-13T19:13:32Z</time></trkpt><trkpt lat="58.058718" lon="38.807672"><ele>105.5</ele><time>2023-05-13T19:13:58Z</time></trkpt><trkpt lat="58.05869" lon="38.807525"><ele>105.1</ele><time>2023-05-13T19:14:13Z</time></trkpt><trkpt lat="58.058663" lon="38.807815"><ele>105.1</ele><time>2023-05-13T19:14:19Z</time></trkpt><trkpt lat="58.058673" lon="38.80768"><ele>105.4</ele><time>2023-05-13T19:14:21Z</time></trkpt><trkpt lat="58.058795" lon="38.807765"><ele>105.1</ele><time>2023-05-13T19:14:40Z</time></trkpt><trkpt lat="58.058845" lon="38.80754"><ele>105.2</ele><time>2023-05-13T19:14:48Z</time></trkpt><trkpt lat="58.05876" lon="38.807312"><ele>105.2</ele><time>2023-05-13T19:14:49Z</time></trkpt><trkpt lat="58.05876" lon="38.807168"><ele>105.1</ele><time>2023-05-13T19:15:03Z</time></trkpt><trkpt lat="58.058742" lon="38.807362"><ele>105.1</ele><time>2023-05-13T19:15:12Z</time></trkpt><trkpt lat="58.058723" lon="38.807192"><ele>105.1</ele><time>2023-05-13T19:15:26Z</time></trkpt><trkpt lat="58.05872" lon="38.807382"><ele>105.1</ele><time>2023-05-13T19:15:35Z</time></trkpt><trkpt lat="58.058865" lon="38.80747"><ele>105.1</ele><time>2023-05-13T19:15:41Z</time></trkpt><trkpt lat="58.058752" lon="38.807665"><ele>105.1</ele><time>2023-05-13T19:15:49Z</time></trkpt><trkpt lat="58.058695" lon="38.807575"><ele>105.1</ele><time>2023-05-13T19:16:16Z</time></trkpt><trkpt lat="58.058665" lon="38.807425"><ele>105.0</ele><time>2023-05-13T19:16:23Z</time></trkpt><trkpt lat="58.0587" lon="38.807585"><ele>105.0</ele><time>2023-05-13T19:16:45Z</time></trkpt><trkpt lat="58.058553" lon="38.807557"><ele>105.4</ele><time>2023-05-13T19:39:49Z</time></trkpt><trkpt lat="58.058637" lon="38.807598"><ele>105.4</ele><time>2023-05-13T19:40:12Z</time></trkpt><trkpt lat="58.058708" lon="38.807583"><ele>105.4</ele><time>2023-05-13T19:45:07Z</time></trkpt><trkpt lat="58.058638" lon="38.807625"><ele>105.3</ele><time>2023-05-13T19:45:13Z</time></trkpt></trkseg></trk></gpx>