<?xml version="1.0" encoding="UTF-8" standalone="no"?><gpx xmlns="http://www.topografix.com/GPX/1/1" xmlns:gpxtpx="http://www.garmin.com/xmlschemas/TrackPointExtension/v1" xmlns:xsi="http://www.w3.org/2001/XMLSchema-instance" creator="Sports Tracker" version="1.1" xsi:schemaLocation="http://www.topografix.com/GPX/1/1 http://www.topografix.com/GPX/1/1/gpx.xsd http://www.garmin.com/xmlschemas/TrackPointExtension/v1 http://www.garmin.com/xmlschemas/TrackPointExtensionv1.xsd"><metadata><name>20.10.2022 16:48</name><desc>Восстановлено автоматически</desc><author><name>Александр</name></author></metadata><trk><name>20.10.2022 16:48</name><trkseg><trkpt lat="58.055035" lon="38.825275"><ele>10.3</ele><time>2022-10-20T13:48:00Z</time></trkpt><trkpt lat="58.055035" lon="38.825275"><ele>10.3</ele><time>2022-10-20T13:51:55Z</time></trkpt><trkpt lat="58.054955" lon="38.82539"><ele>16.0</ele><time>2022-10-20T13:51:57Z</time></trkpt><trkpt lat="58.05467" lon="38.826155"><ele>50.5</ele><time>2022-10-20T13:52:09Z</time></trkpt><trkpt lat="58.0546" lon="38.826227"><ele>53.0</ele><time>2022-10-20T13:52:10Z</time></trkpt><trkpt lat="58.05453" lon="38.826355"><ele>57.8</ele><time>2022-10-20T13:52:12Z</time></trkpt><trkpt lat="58.05448" lon="38.82651"><ele>65.7</ele><time>2022-10-20T13:52:15Z</time></trkpt><trkpt lat="58.054355" lon="38.82657"><ele>77.4</ele><time>2022-10-20T13:52:18Z</time></trkpt><trkpt lat="58.054245" lon="38.826605"><ele>87.2</ele><time>2022-10-20T13:52:20Z</time></trkpt><trkpt lat="58.05414" lon="38.826655"><ele>93.7</ele><time>2022-10-20T13:52:22Z</time></trkpt><trkpt lat="58.054068" lon="38.826765"><ele>98.7</ele><time>2022-10-20T13:52:24Z</time></trkpt><trkpt lat="58.053955" lon="38.82689"><ele>101.1</ele><time>2022-10-20T13:52:26Z</time></trkpt><trkpt lat="58.053918" lon="38.827055"><ele>101.5</ele><time>2022-10-20T13:52:28Z</time></trkpt><trkpt lat="58.053865" lon="38.82726"><ele>101.4</ele><time>2022-10-20T13:52:30Z</time></trkpt><trkpt lat="58.05383" lon="38.827438"><ele>101.7</ele><time>2022-10-20T13:52:32Z</time></trkpt><trkpt lat="58.05379" lon="38.827605"><ele>102.4</ele><time>2022-10-20T13:52:34Z</time></trkpt><trkpt lat="58.05376" lon="38.827753"><ele>102.6</ele><time>2022-10-20T13:52:36Z</time></trkpt><trkpt lat="58.05374" lon="38.82789"><ele>102.8</ele><time>2022-10-20T13:52:38Z</time></trkpt><trkpt lat="58.05372" lon="38.828055"><ele>108.4</ele><time>2022-10-20T13:52:41Z</time></trkpt><trkpt lat="58.053692" lon="38.82821"><ele>108.6</ele><time>2022-10-20T13:52:45Z</time></trkpt><trkpt lat="58.05367" lon="38.828358"><ele>109.5</ele><time>2022-10-20T13:52:48Z</time></trkpt><trkpt lat="58.053638" lon="38.828495"><ele>110.9</ele><time>2022-10-20T13:52:50Z</time></trkpt><trkpt lat="58.053605" lon="38.82863"><ele>111.1</ele><time>2022-10-20T13:52:52Z</time></trkpt><trkpt lat="58.053575" lon="38.82877"><ele>111.4</ele><time>2022-10-20T13:52:54Z</time></trkpt><trkpt lat="58.053555" lon="38.82895"><ele>109.5</ele><time>2022-10-20T13:52:57Z</time></trkpt><trkpt lat="58.05353" lon="38.82909"><ele>111.7</ele><time>2022-10-20T13:52:59Z</time></trkpt><trkpt lat="58.05351" lon="38.82923"><ele>110.2</ele><time>2022-10-20T13:53:01Z</time></trkpt><trkpt lat="58.05349" lon="38.829365"><ele>109.4</ele><time>2022-10-20T13:53:03Z</time></trkpt><trkpt lat="58.053463" lon="38.829525"><ele>109.9</ele><time>2022-10-20T13:53:06Z</time></trkpt><trkpt lat="58.053445" lon="38.829675"><ele>108.9</ele><time>2022-10-20T13:53:09Z</time></trkpt><trkpt lat="58.0535" lon="38.82982"><ele>106.1</ele><time>2022-10-20T13:53:13Z</time></trkpt><trkpt lat="58.05348" lon="38.830005"><ele>107.4</ele><time>2022-10-20T13:53:16Z</time></trkpt><trkpt lat="58.05344" lon="38.83015"><ele>109.9</ele><time>2022-10-20T13:53:18Z</time></trkpt><trkpt lat="58.05341" lon="38.83028"><ele>110.0</ele><time>2022-10-20T13:53:20Z</time></trkpt><trkpt lat="58.05339" lon="38.830465"><ele>109.7</ele><time>2022-10-20T13:53:23Z</time></trkpt><trkpt lat="58.053335" lon="38.83062"><ele>108.4</ele><time>2022-10-20T13:53:26Z</time></trkpt><trkpt lat="58.053275" lon="38.830707"><ele>109.0</ele><time>2022-10-20T13:53:28Z</time></trkpt><trkpt lat="58.053173" lon="38.830765"><ele>108.1</ele><time>2022-10-20T13:53:31Z</time></trkpt><trkpt lat="58.053145" lon="38.83092"><ele>110.5</ele><time>2022-10-20T13:53:33Z</time></trkpt><trkpt lat="58.053135" lon="38.83107"><ele>110.5</ele><time>2022-10-20T13:53:35Z</time></trkpt><trkpt lat="58.05311" lon="38.831225"><ele>111.8</ele><time>2022-10-20T13:53:37Z</time></trkpt><trkpt lat="58.05308" lon="38.831382"><ele>112.1</ele><time>2022-10-20T13:53:39Z</time></trkpt><trkpt lat="58.053045" lon="38.831537"><ele>112.5</ele><time>2022-10-20T13:53:41Z</time></trkpt><trkpt lat="58.053" lon="38.831693"><ele>113.1</ele><time>2022-10-20T13:53:43Z</time></trkpt><trkpt lat="58.05297" lon="38.83188"><ele>114.5</ele><time>2022-10-20T13:53:46Z</time></trkpt><trkpt lat="58.052955" lon="38.832065"><ele>115.7</ele><time>2022-10-20T13:53:49Z</time></trkpt><trkpt lat="58.052955" lon="38.832228"><ele>116.1</ele><time>2022-10-20T13:53:52Z</time></trkpt><trkpt lat="58.05294" lon="38.832395"><ele>119.9</ele><time>2022-10-20T13:53:55Z</time></trkpt><trkpt lat="58.052845" lon="38.832465"><ele>121.5</ele><time>2022-10-20T13:53:58Z</time></trkpt><trkpt lat="58.052805" lon="38.832615"><ele>122.5</ele><time>2022-10-20T13:54:01Z</time></trkpt><trkpt lat="58.05277" lon="38.832805"><ele>122.4</ele><time>2022-10-20T13:54:04Z</time></trkpt><trkpt lat="58.052755" lon="38.832935"><ele>122.9</ele><time>2022-10-20T13:54:06Z</time></trkpt><trkpt lat="58.052745" lon="38.8331"><ele>123.5</ele><time>2022-10-20T13:54:08Z</time></trkpt><trkpt lat="58.052708" lon="38.83331"><ele>124.0</ele><time>2022-10-20T13:54:10Z</time></trkpt><trkpt lat="58.052675" lon="38.83354"><ele>124.8</ele><time>2022-10-20T13:54:12Z</time></trkpt><trkpt lat="58.052635" lon="38.833765"><ele>125.8</ele><time>2022-10-20T13:54:14Z</time></trkpt><trkpt lat="58.05261" lon="38.83395"><ele>124.3</ele><time>2022-10-20T13:54:16Z</time></trkpt><trkpt lat="58.05256" lon="38.834112"><ele>122.7</ele><time>2022-10-20T13:54:18Z</time></trkpt><trkpt lat="58.052545" lon="38.834255"><ele>121.2</ele><time>2022-10-20T13:54:20Z</time></trkpt><trkpt lat="58.05252" lon="38.8344"><ele>120.1</ele><time>2022-10-20T13:54:23Z</time></trkpt><trkpt lat="58.052495" lon="38.83454"><ele>119.9</ele><time>2022-10-20T13:54:26Z</time></trkpt><trkpt lat="58.052465" lon="38.834675"><ele>119.9</ele><time>2022-10-20T13:54:28Z</time></trkpt><trkpt lat="58.05244" lon="38.834815"><ele>120.2</ele><time>2022-10-20T13:54:30Z</time></trkpt><trkpt lat="58.05241" lon="38.834958"><ele>122.1</ele><time>2022-10-20T13:54:32Z</time></trkpt><trkpt lat="58.052395" lon="38.835105"><ele>123.0</ele><time>2022-10-20T13:54:34Z</time></trkpt><trkpt lat="58.052365" lon="38.83529"><ele>122.2</ele><time>2022-10-20T13:54:36Z</time></trkpt><trkpt lat="58.052338" lon="38.835445"><ele>123.9</ele><time>2022-10-20T13:54:38Z</time></trkpt><trkpt lat="58.052305" lon="38.835625"><ele>123.6</ele><time>2022-10-20T13:54:40Z</time></trkpt><trkpt lat="58.052257" lon="38.835765"><ele>123.8</ele><time>2022-10-20T13:54:42Z</time></trkpt><trkpt lat="58.052225" lon="38.83592"><ele>121.7</ele><time>2022-10-20T13:54:44Z</time></trkpt><trkpt lat="58.05218" lon="38.83608"><ele>120.6</ele><time>2022-10-20T13:54:46Z</time></trkpt><trkpt lat="58.052145" lon="38.836255"><ele>119.5</ele><time>2022-10-20T13:54:48Z</time></trkpt><trkpt lat="58.052115" lon="38.836435"><ele>119.0</ele><time>2022-10-20T13:54:50Z</time></trkpt><trkpt lat="58.05208" lon="38.83661"><ele>118.0</ele><time>2022-10-20T13:54:52Z</time></trkpt><trkpt lat="58.052055" lon="38.83678"><ele>119.5</ele><time>2022-10-20T13:54:54Z</time></trkpt><trkpt lat="58.052025" lon="38.836955"><ele>118.4</ele><time>2022-10-20T13:54:56Z</time></trkpt><trkpt lat="58.05201" lon="38.837152"><ele>118.6</ele><time>2022-10-20T13:54:58Z</time></trkpt><trkpt lat="58.051963" lon="38.83737"><ele>119.6</ele><time>2022-10-20T13:55:00Z</time></trkpt><trkpt lat="58.051935" lon="38.83758"><ele>119.5</ele><time>2022-10-20T13:55:02Z</time></trkpt><trkpt lat="58.05189" lon="38.83775"><ele>119.8</ele><time>2022-10-20T13:55:04Z</time></trkpt><trkpt lat="58.0518" lon="38.83787"><ele>120.6</ele><time>2022-10-20T13:55:06Z</time></trkpt><trkpt lat="58.05171" lon="38.837955"><ele>117.9</ele><time>2022-10-20T13:55:09Z</time></trkpt><trkpt lat="58.051615" lon="38.83798"><ele>115.5</ele><time>2022-10-20T13:55:14Z</time></trkpt><trkpt lat="58.05153" lon="38.837905"><ele>115.3</ele><time>2022-10-20T13:55:17Z</time></trkpt><trkpt lat="58.051465" lon="38.837855"><ele>114.6</ele><time>2022-10-20T13:55:19Z</time></trkpt><trkpt lat="58.051395" lon="38.837805"><ele>114.9</ele><time>2022-10-20T13:55:21Z</time></trkpt><trkpt lat="58.051295" lon="38.83774"><ele>112.8</ele><time>2022-10-20T13:55:24Z</time></trkpt><trkpt lat="58.051215" lon="38.837705"><ele>111.8</ele><time>2022-10-20T13:55:27Z</time></trkpt><trkpt lat="58.051133" lon="38.83765"><ele>111.0</ele><time>2022-10-20T13:55:30Z</time></trkpt><trkpt lat="58.05104" lon="38.83757"><ele>111.1</ele><time>2022-10-20T13:55:33Z</time></trkpt><trkpt lat="58.05096" lon="38.837515"><ele>110.8</ele><time>2022-10-20T13:55:35Z</time></trkpt><trkpt lat="58.050865" lon="38.837445"><ele>111.0</ele><time>2022-10-20T13:55:37Z</time></trkpt><trkpt lat="58.050765" lon="38.837378"><ele>112.5</ele><time>2022-10-20T13:55:39Z</time></trkpt><trkpt lat="58.05069" lon="38.83733"><ele>113.9</ele><time>2022-10-20T13:55:41Z</time></trkpt><trkpt lat="58.050675" lon="38.837305"><ele>113.8</ele><time>2022-10-20T13:55:48Z</time></trkpt><trkpt lat="58.050675" lon="38.837305"><ele>113.8</ele><time>2022-10-20T13:55:51Z</time></trkpt><trkpt lat="58.050593" lon="38.8373"><ele>113.3</ele><time>2022-10-20T13:55:57Z</time></trkpt><trkpt lat="58.050525" lon="38.83736"><ele>111.8</ele><time>2022-10-20T13:56:02Z</time></trkpt><trkpt lat="58.05051" lon="38.837555"><ele>112.4</ele><time>2022-10-20T13:56:07Z</time></trkpt><trkpt lat="58.050495" lon="38.837695"><ele>109.2</ele><time>2022-10-20T13:56:12Z</time></trkpt><trkpt lat="58.050485" lon="38.83787"><ele>107.5</ele><time>2022-10-20T13:56:16Z</time></trkpt><trkpt lat="58.05052" lon="38.837985"><ele>108.4</ele><time>2022-10-20T13:56:19Z</time></trkpt><trkpt lat="58.05049" lon="38.838155"><ele>109.8</ele><time>2022-10-20T13:56:22Z</time></trkpt><trkpt lat="58.05033" lon="38.838575"><ele>124.8</ele><time>2022-10-20T13:56:25Z</time></trkpt><trkpt lat="58.05032" lon="38.83871"><ele>126.0</ele><time>2022-10-20T13:56:29Z</time></trkpt><trkpt lat="58.050275" lon="38.838905"><ele>121.0</ele><time>2022-10-20T13:56:33Z</time></trkpt><trkpt lat="58.05027" lon="38.839095"><ele>119.1</ele><time>2022-10-20T13:56:37Z</time></trkpt><trkpt lat="58.05025" lon="38.83925"><ele>119.2</ele><time>2022-10-20T13:56:39Z</time></trkpt><trkpt lat="58.050235" lon="38.83941"><ele>118.3</ele><time>2022-10-20T13:56:41Z</time></trkpt><trkpt lat="58.050175" lon="38.839555"><ele>117.0</ele><time>2022-10-20T13:56:43Z</time></trkpt><trkpt lat="58.05011" lon="38.83975"><ele>116.1</ele><time>2022-10-20T13:56:45Z</time></trkpt><trkpt lat="58.050075" lon="38.839925"><ele>115.9</ele><time>2022-10-20T13:56:47Z</time></trkpt><trkpt lat="58.050035" lon="38.84013"><ele>117.1</ele><time>2022-10-20T13:56:50Z</time></trkpt><trkpt lat="58.05002" lon="38.840295"><ele>118.7</ele><time>2022-10-20T13:56:53Z</time></trkpt><trkpt lat="58.050005" lon="38.840465"><ele>118.3</ele><time>2022-10-20T13:56:57Z</time></trkpt><trkpt lat="58.049965" lon="38.840585"><ele>118.6</ele><time>2022-10-20T13:56:59Z</time></trkpt><trkpt lat="58.049915" lon="38.84073"><ele>118.6</ele><time>2022-10-20T13:57:01Z</time></trkpt><trkpt lat="58.04987" lon="38.840845"><ele>117.4</ele><time>2022-10-20T13:57:03Z</time></trkpt><trkpt lat="58.049838" lon="38.841045"><ele>116.9</ele><time>2022-10-20T13:57:06Z</time></trkpt><trkpt lat="58.049795" lon="38.841215"><ele>117.9</ele><time>2022-10-20T13:57:08Z</time></trkpt><trkpt lat="58.04976" lon="38.84136"><ele>117.3</ele><time>2022-10-20T13:57:10Z</time></trkpt><trkpt lat="58.049735" lon="38.84149"><ele>117.1</ele><time>2022-10-20T13:57:12Z</time></trkpt><trkpt lat="58.049705" lon="38.841695"><ele>117.3</ele><time>2022-10-20T13:57:15Z</time></trkpt><trkpt lat="58.049665" lon="38.84183"><ele>117.0</ele><time>2022-10-20T13:57:17Z</time></trkpt><trkpt lat="58.04963" lon="38.842015"><ele>119.2</ele><time>2022-10-20T13:57:20Z</time></trkpt><trkpt lat="58.04957" lon="38.842245"><ele>119.0</ele><time>2022-10-20T13:57:23Z</time></trkpt><trkpt lat="58.04954" lon="38.842425"><ele>119.1</ele><time>2022-10-20T13:57:26Z</time></trkpt><trkpt lat="58.04952" lon="38.842585"><ele>119.1</ele><time>2022-10-20T13:57:29Z</time></trkpt><trkpt lat="58.049495" lon="38.842735"><ele>118.0</ele><time>2022-10-20T13:57:32Z</time></trkpt><trkpt lat="58.049455" lon="38.8429"><ele>118.9</ele><time>2022-10-20T13:57:36Z</time></trkpt><trkpt lat="58.049425" lon="38.843075"><ele>116.2</ele><time>2022-10-20T13:57:42Z</time></trkpt><trkpt lat="58.049415" lon="38.843218"><ele>116.4</ele><time>2022-10-20T13:57:47Z</time></trkpt><trkpt lat="58.04937" lon="38.84338"><ele>121.2</ele><time>2022-10-20T13:57:51Z</time></trkpt><trkpt lat="58.049345" lon="38.84352"><ele>121.7</ele><time>2022-10-20T13:57:54Z</time></trkpt><trkpt lat="58.04933" lon="38.843685"><ele>121.2</ele><time>2022-10-20T13:57:57Z</time></trkpt><trkpt lat="58.04931" lon="38.843822"><ele>120.2</ele><time>2022-10-20T13:57:59Z</time></trkpt><trkpt lat="58.04927" lon="38.843975"><ele>118.3</ele><time>2022-10-20T13:58:03Z</time></trkpt><trkpt lat="58.04924" lon="38.844117"><ele>117.9</ele><time>2022-10-20T13:58:06Z</time></trkpt><trkpt lat="58.04921" lon="38.844255"><ele>119.8</ele><time>2022-10-20T13:58:08Z</time></trkpt><trkpt lat="58.04918" lon="38.8444"><ele>120.0</ele><time>2022-10-20T13:58:10Z</time></trkpt><trkpt lat="58.049155" lon="38.844545"><ele>119.1</ele><time>2022-10-20T13:58:12Z</time></trkpt><trkpt lat="58.049125" lon="38.84469"><ele>118.2</ele><time>2022-10-20T13:58:14Z</time></trkpt><trkpt lat="58.0491" lon="38.844855"><ele>119.4</ele><time>2022-10-20T13:58:16Z</time></trkpt><trkpt lat="58.049075" lon="38.845"><ele>119.8</ele><time>2022-10-20T13:58:18Z</time></trkpt><trkpt lat="58.04904" lon="38.845125"><ele>119.0</ele><time>2022-10-20T13:58:20Z</time></trkpt><trkpt lat="58.049" lon="38.8453"><ele>118.2</ele><time>2022-10-20T13:58:23Z</time></trkpt><trkpt lat="58.048975" lon="38.845455"><ele>119.9</ele><time>2022-10-20T13:58:26Z</time></trkpt><trkpt lat="58.04901" lon="38.845375"><ele>116.5</ele><time>2022-10-20T13:58:33Z</time></trkpt><trkpt lat="58.049007" lon="38.84538"><ele>116.4</ele><time>2022-10-20T13:58:34Z</time></trkpt><trkpt lat="58.049002" lon="38.84537"><ele>119.8</ele><time>2022-10-20T13:58:46Z</time></trkpt><trkpt lat="58.04899" lon="38.84549"><ele>118.0</ele><time>2022-10-20T13:58:53Z</time></trkpt></trkseg></trk></gpx>