<?xml version="1.0" encoding="UTF-8" standalone="no"?><gpx xmlns="http://www.topografix.com/GPX/1/1" xmlns:gpxtpx="http://www.garmin.com/xmlschemas/TrackPointExtension/v1" xmlns:xsi="http://www.w3.org/2001/XMLSchema-instance" creator="Sports Tracker" version="1.1" xsi:schemaLocation="http://www.topografix.com/GPX/1/1 http://www.topografix.com/GPX/1/1/gpx.xsd http://www.garmin.com/xmlschemas/TrackPointExtension/v1 http://www.garmin.com/xmlschemas/TrackPointExtensionv1.xsd"><metadata><name/><desc/><author><name>Александр</name></author></metadata><trk><name/><trkseg><trkpt lat="58.058885" lon="38.81667"><ele>100.4</ele><time>2022-11-24T13:52:29Z</time></trkpt><trkpt lat="58.058597" lon="38.816705"><ele>100.4</ele><time>2022-11-24T13:52:32Z</time></trkpt><trkpt lat="58.058703" lon="38.816697"><ele>103.7</ele><time>2022-11-24T13:52:35Z</time></trkpt><trkpt lat="58.058558" lon="38.81671"><ele>103.3</ele><time>2022-11-24T13:52:42Z</time></trkpt><trkpt lat="58.058892" lon="38.816707"><ele>103.8</ele><time>2022-11-24T13:52:51Z</time></trkpt><trkpt lat="58.059017" lon="38.81671"><ele>103.5</ele><time>2022-11-24T13:52:59Z</time></trkpt><trkpt lat="58.05864" lon="38.816668"><ele>103.0</ele><time>2022-11-24T13:53:00Z</time></trkpt><trkpt lat="58.058938" lon="38.81699"><ele>103.6</ele><time>2022-11-24T13:53:07Z</time></trkpt><trkpt lat="58.058897" lon="38.817383"><ele>103.4</ele><time>2022-11-24T13:53:19Z</time></trkpt><trkpt lat="58.059063" lon="38.817222"><ele>103.0</ele><time>2022-11-24T13:53:32Z</time></trkpt><trkpt lat="58.059178" lon="38.817267"><ele>103.0</ele><time>2022-11-24T13:53:39Z</time></trkpt><trkpt lat="58.05932" lon="38.817085"><ele>102.7</ele><time>2022-11-24T13:53:41Z</time></trkpt><trkpt lat="58.059505" lon="38.817382"><ele>123.5</ele><time>2022-11-24T13:53:42Z</time></trkpt><trkpt lat="58.05961" lon="38.817353"><ele>122.7</ele><time>2022-11-24T13:53:43Z</time></trkpt><trkpt lat="58.05949" lon="38.817382"><ele>123.4</ele><time>2022-11-24T13:53:45Z</time></trkpt><trkpt lat="58.059557" lon="38.817455"><ele>89.3</ele><time>2022-11-24T13:53:49Z</time></trkpt><trkpt lat="58.059658" lon="38.817458"><ele>101.1</ele><time>2022-11-24T13:53:52Z</time></trkpt><trkpt lat="58.059732" lon="38.817463"><ele>99.2</ele><time>2022-11-24T13:53:54Z</time></trkpt><trkpt lat="58.0598" lon="38.817582"><ele>98.4</ele><time>2022-11-24T13:53:57Z</time></trkpt><trkpt lat="58.05977" lon="38.817705"><ele>95.5</ele><time>2022-11-24T13:54:02Z</time></trkpt><trkpt lat="58.059853" lon="38.817715"><ele>96.7</ele><time>2022-11-24T13:54:20Z</time></trkpt><trkpt lat="58.059948" lon="38.817722"><ele>95.4</ele><time>2022-11-24T13:54:23Z</time></trkpt><trkpt lat="58.060002" lon="38.817823"><ele>94.3</ele><time>2022-11-24T13:54:26Z</time></trkpt><trkpt lat="58.059997" lon="38.817965"><ele>94.8</ele><time>2022-11-24T13:54:28Z</time></trkpt><trkpt lat="58.059987" lon="38.818127"><ele>95.1</ele><time>2022-11-24T13:54:30Z</time></trkpt><trkpt lat="58.05997" lon="38.818322"><ele>94.8</ele><time>2022-11-24T13:54:32Z</time></trkpt><trkpt lat="58.059972" lon="38.818475"><ele>95.1</ele><time>2022-11-24T13:54:34Z</time></trkpt><trkpt lat="58.05996" lon="38.818633"><ele>95.2</ele><time>2022-11-24T13:54:36Z</time></trkpt><trkpt lat="58.059945" lon="38.818767"><ele>95.3</ele><time>2022-11-24T13:54:38Z</time></trkpt><trkpt lat="58.059928" lon="38.818928"><ele>95.2</ele><time>2022-11-24T13:54:40Z</time></trkpt><trkpt lat="58.059912" lon="38.819077"><ele>95.6</ele><time>2022-11-24T13:54:42Z</time></trkpt><trkpt lat="58.059892" lon="38.819245"><ele>96.1</ele><time>2022-11-24T13:54:44Z</time></trkpt><trkpt lat="58.059882" lon="38.8194"><ele>95.9</ele><time>2022-11-24T13:54:46Z</time></trkpt><trkpt lat="58.059877" lon="38.819553"><ele>96.2</ele><time>2022-11-24T13:54:48Z</time></trkpt><trkpt lat="58.05987" lon="38.819708"><ele>96.1</ele><time>2022-11-24T13:54:50Z</time></trkpt><trkpt lat="58.059857" lon="38.819863"><ele>95.2</ele><time>2022-11-24T13:54:52Z</time></trkpt><trkpt lat="58.059845" lon="38.820022"><ele>96.0</ele><time>2022-11-24T13:54:54Z</time></trkpt><trkpt lat="58.059838" lon="38.820185"><ele>96.3</ele><time>2022-11-24T13:54:56Z</time></trkpt><trkpt lat="58.059845" lon="38.820343"><ele>96.1</ele><time>2022-11-24T13:54:58Z</time></trkpt><trkpt lat="58.059837" lon="38.820525"><ele>96.1</ele><time>2022-11-24T13:55:00Z</time></trkpt><trkpt lat="58.059833" lon="38.82069"><ele>96.6</ele><time>2022-11-24T13:55:02Z</time></trkpt><trkpt lat="58.059842" lon="38.820863"><ele>97.1</ele><time>2022-11-24T13:55:04Z</time></trkpt><trkpt lat="58.059845" lon="38.821022"><ele>97.8</ele><time>2022-11-24T13:55:06Z</time></trkpt><trkpt lat="58.059847" lon="38.821198"><ele>97.5</ele><time>2022-11-24T13:55:08Z</time></trkpt><trkpt lat="58.059845" lon="38.821408"><ele>97.3</ele><time>2022-11-24T13:55:11Z</time></trkpt><trkpt lat="58.059802" lon="38.82157"><ele>97.5</ele><time>2022-11-24T13:55:13Z</time></trkpt><trkpt lat="58.059762" lon="38.821765"><ele>97.4</ele><time>2022-11-24T13:55:15Z</time></trkpt><trkpt lat="58.059742" lon="38.821928"><ele>96.9</ele><time>2022-11-24T13:55:17Z</time></trkpt><trkpt lat="58.059738" lon="38.822125"><ele>96.9</ele><time>2022-11-24T13:55:19Z</time></trkpt><trkpt lat="58.05972" lon="38.822297"><ele>96.6</ele><time>2022-11-24T13:55:21Z</time></trkpt><trkpt lat="58.059707" lon="38.822468"><ele>96.3</ele><time>2022-11-24T13:55:23Z</time></trkpt><trkpt lat="58.059697" lon="38.822642"><ele>96.0</ele><time>2022-11-24T13:55:25Z</time></trkpt><trkpt lat="58.059667" lon="38.822863"><ele>96.2</ele><time>2022-11-24T13:55:27Z</time></trkpt><trkpt lat="58.05964" lon="38.82307"><ele>96.3</ele><time>2022-11-24T13:55:29Z</time></trkpt><trkpt lat="58.059587" lon="38.823247"><ele>95.5</ele><time>2022-11-24T13:55:31Z</time></trkpt><trkpt lat="58.059545" lon="38.823383"><ele>95.3</ele><time>2022-11-24T13:55:33Z</time></trkpt><trkpt lat="58.059482" lon="38.823562"><ele>95.3</ele><time>2022-11-24T13:55:35Z</time></trkpt><trkpt lat="58.059447" lon="38.823722"><ele>95.4</ele><time>2022-11-24T13:55:37Z</time></trkpt><trkpt lat="58.059367" lon="38.823822"><ele>94.8</ele><time>2022-11-24T13:55:39Z</time></trkpt><trkpt lat="58.0593" lon="38.82395"><ele>95.1</ele><time>2022-11-24T13:55:41Z</time></trkpt><trkpt lat="58.05922" lon="38.824083"><ele>95.2</ele><time>2022-11-24T13:55:43Z</time></trkpt><trkpt lat="58.059153" lon="38.824228"><ele>94.3</ele><time>2022-11-24T13:55:45Z</time></trkpt><trkpt lat="58.059098" lon="38.824325"><ele>94.2</ele><time>2022-11-24T13:55:47Z</time></trkpt><trkpt lat="58.059055" lon="38.824478"><ele>94.7</ele><time>2022-11-24T13:55:50Z</time></trkpt><trkpt lat="58.059005" lon="38.824612"><ele>95.0</ele><time>2022-11-24T13:55:52Z</time></trkpt><trkpt lat="58.05893" lon="38.824725"><ele>95.4</ele><time>2022-11-24T13:55:55Z</time></trkpt><trkpt lat="58.058875" lon="38.824842"><ele>95.9</ele><time>2022-11-24T13:55:57Z</time></trkpt><trkpt lat="58.058813" lon="38.824967"><ele>96.0</ele><time>2022-11-24T13:55:59Z</time></trkpt><trkpt lat="58.058755" lon="38.825082"><ele>96.7</ele><time>2022-11-24T13:56:01Z</time></trkpt><trkpt lat="58.05873" lon="38.825247"><ele>97.1</ele><time>2022-11-24T13:56:04Z</time></trkpt><trkpt lat="58.058802" lon="38.82535"><ele>97.1</ele><time>2022-11-24T13:56:07Z</time></trkpt><trkpt lat="58.058897" lon="38.82545"><ele>97.4</ele><time>2022-11-24T13:56:10Z</time></trkpt><trkpt lat="58.058973" lon="38.825532"><ele>97.4</ele><time>2022-11-24T13:56:12Z</time></trkpt><trkpt lat="58.059065" lon="38.82563"><ele>96.9</ele><time>2022-11-24T13:56:14Z</time></trkpt><trkpt lat="58.059142" lon="38.82572"><ele>96.9</ele><time>2022-11-24T13:56:16Z</time></trkpt><trkpt lat="58.059223" lon="38.825785"><ele>97.2</ele><time>2022-11-24T13:56:18Z</time></trkpt><trkpt lat="58.059302" lon="38.825852"><ele>96.6</ele><time>2022-11-24T13:56:20Z</time></trkpt><trkpt lat="58.059363" lon="38.825943"><ele>96.0</ele><time>2022-11-24T13:56:22Z</time></trkpt><trkpt lat="58.059428" lon="38.826035"><ele>95.4</ele><time>2022-11-24T13:56:24Z</time></trkpt><trkpt lat="58.059453" lon="38.826168"><ele>95.3</ele><time>2022-11-24T13:56:26Z</time></trkpt><trkpt lat="58.059477" lon="38.82633"><ele>95.2</ele><time>2022-11-24T13:56:29Z</time></trkpt><trkpt lat="58.059455" lon="38.826465"><ele>94.6</ele><time>2022-11-24T13:56:33Z</time></trkpt><trkpt lat="58.059378" lon="38.826593"><ele>94.9</ele><time>2022-11-24T13:56:37Z</time></trkpt><trkpt lat="58.059322" lon="38.82672"><ele>94.7</ele><time>2022-11-24T13:56:40Z</time></trkpt><trkpt lat="58.059283" lon="38.826835"><ele>94.9</ele><time>2022-11-24T13:56:42Z</time></trkpt><trkpt lat="58.059242" lon="38.826973"><ele>94.8</ele><time>2022-11-24T13:56:44Z</time></trkpt><trkpt lat="58.059197" lon="38.82711"><ele>94.8</ele><time>2022-11-24T13:56:46Z</time></trkpt><trkpt lat="58.059148" lon="38.827238"><ele>94.7</ele><time>2022-11-24T13:56:48Z</time></trkpt><trkpt lat="58.059103" lon="38.82737"><ele>94.6</ele><time>2022-11-24T13:56:50Z</time></trkpt><trkpt lat="58.059035" lon="38.827463"><ele>94.8</ele><time>2022-11-24T13:56:52Z</time></trkpt><trkpt lat="58.058982" lon="38.827597"><ele>95.1</ele><time>2022-11-24T13:56:54Z</time></trkpt><trkpt lat="58.058923" lon="38.827747"><ele>95.7</ele><time>2022-11-24T13:56:56Z</time></trkpt><trkpt lat="58.058885" lon="38.827872"><ele>95.9</ele><time>2022-11-24T13:56:57Z</time></trkpt><trkpt lat="58.058843" lon="38.828025"><ele>96.3</ele><time>2022-11-24T13:56:59Z</time></trkpt><trkpt lat="58.058815" lon="38.828157"><ele>95.3</ele><time>2022-11-24T13:57:01Z</time></trkpt><trkpt lat="58.058765" lon="38.828268"><ele>92.6</ele><time>2022-11-24T13:57:03Z</time></trkpt><trkpt lat="58.058725" lon="38.828452"><ele>92.0</ele><time>2022-11-24T13:57:05Z</time></trkpt><trkpt lat="58.058683" lon="38.828608"><ele>91.1</ele><time>2022-11-24T13:57:07Z</time></trkpt><trkpt lat="58.058633" lon="38.828773"><ele>90.0</ele><time>2022-11-24T13:57:09Z</time></trkpt><trkpt lat="58.058567" lon="38.828963"><ele>89.3</ele><time>2022-11-24T13:57:11Z</time></trkpt><trkpt lat="58.058497" lon="38.8291"><ele>88.9</ele><time>2022-11-24T13:57:13Z</time></trkpt><trkpt lat="58.058417" lon="38.829222"><ele>87.0</ele><time>2022-11-24T13:57:15Z</time></trkpt><trkpt lat="58.058348" lon="38.82936"><ele>88.1</ele><time>2022-11-24T13:57:17Z</time></trkpt><trkpt lat="58.058267" lon="38.829493"><ele>89.7</ele><time>2022-11-24T13:57:19Z</time></trkpt><trkpt lat="58.05817" lon="38.829642"><ele>89.2</ele><time>2022-11-24T13:57:21Z</time></trkpt><trkpt lat="58.05808" lon="38.829802"><ele>88.4</ele><time>2022-11-24T13:57:23Z</time></trkpt><trkpt lat="58.058008" lon="38.830003"><ele>88.2</ele><time>2022-11-24T13:57:25Z</time></trkpt><trkpt lat="58.057922" lon="38.830038"><ele>88.3</ele><time>2022-11-24T13:57:27Z</time></trkpt><trkpt lat="58.05785" lon="38.830117"><ele>89.4</ele><time>2022-11-24T13:57:29Z</time></trkpt><trkpt lat="58.057777" lon="38.830232"><ele>90.1</ele><time>2022-11-24T13:57:31Z</time></trkpt><trkpt lat="58.057698" lon="38.830347"><ele>90.8</ele><time>2022-11-24T13:57:33Z</time></trkpt><trkpt lat="58.057633" lon="38.830482"><ele>90.6</ele><time>2022-11-24T13:57:35Z</time></trkpt><trkpt lat="58.057572" lon="38.83063"><ele>90.6</ele><time>2022-11-24T13:57:37Z</time></trkpt><trkpt lat="58.057495" lon="38.830785"><ele>90.2</ele><time>2022-11-24T13:57:39Z</time></trkpt><trkpt lat="58.057398" lon="38.830932"><ele>89.9</ele><time>2022-11-24T13:57:41Z</time></trkpt><trkpt lat="58.057317" lon="38.83104"><ele>89.2</ele><time>2022-11-24T13:57:43Z</time></trkpt><trkpt lat="58.057237" lon="38.831102"><ele>89.5</ele><time>2022-11-24T13:57:45Z</time></trkpt><trkpt lat="58.057153" lon="38.831172"><ele>90.0</ele><time>2022-11-24T13:57:47Z</time></trkpt><trkpt lat="58.0571" lon="38.831293"><ele>90.0</ele><time>2022-11-24T13:57:49Z</time></trkpt><trkpt lat="58.057008" lon="38.83137"><ele>90.0</ele><time>2022-11-24T13:57:52Z</time></trkpt><trkpt lat="58.05697" lon="38.831515"><ele>89.9</ele><time>2022-11-24T13:57:54Z</time></trkpt><trkpt lat="58.05693" lon="38.831685"><ele>90.8</ele><time>2022-11-24T13:57:56Z</time></trkpt><trkpt lat="58.056867" lon="38.831845"><ele>90.9</ele><time>2022-11-24T13:57:58Z</time></trkpt><trkpt lat="58.056835" lon="38.832007"><ele>91.8</ele><time>2022-11-24T13:58:00Z</time></trkpt><trkpt lat="58.056777" lon="38.832117"><ele>92.1</ele><time>2022-11-24T13:58:02Z</time></trkpt><trkpt lat="58.056742" lon="38.83226"><ele>93.2</ele><time>2022-11-24T13:58:04Z</time></trkpt><trkpt lat="58.056695" lon="38.832395"><ele>94.2</ele><time>2022-11-24T13:58:06Z</time></trkpt><trkpt lat="58.056655" lon="38.832557"><ele>94.4</ele><time>2022-11-24T13:58:08Z</time></trkpt><trkpt lat="58.056612" lon="38.832712"><ele>94.0</ele><time>2022-11-24T13:58:10Z</time></trkpt><trkpt lat="58.05658" lon="38.832913"><ele>93.7</ele><time>2022-11-24T13:58:12Z</time></trkpt><trkpt lat="58.056528" lon="38.833078"><ele>93.4</ele><time>2022-11-24T13:58:14Z</time></trkpt><trkpt lat="58.05648" lon="38.833223"><ele>92.9</ele><time>2022-11-24T13:58:16Z</time></trkpt><trkpt lat="58.05642" lon="38.83338"><ele>92.7</ele><time>2022-11-24T13:58:18Z</time></trkpt><trkpt lat="58.056358" lon="38.833567"><ele>92.2</ele><time>2022-11-24T13:58:20Z</time></trkpt><trkpt lat="58.056293" lon="38.83378"><ele>91.9</ele><time>2022-11-24T13:58:22Z</time></trkpt><trkpt lat="58.056253" lon="38.833922"><ele>92.1</ele><time>2022-11-24T13:58:23Z</time></trkpt><trkpt lat="58.056215" lon="38.834098"><ele>92.4</ele><time>2022-11-24T13:58:25Z</time></trkpt><trkpt lat="58.056128" lon="38.834353"><ele>92.5</ele><time>2022-11-24T13:58:27Z</time></trkpt><trkpt lat="58.05609" lon="38.834487"><ele>93.0</ele><time>2022-11-24T13:58:28Z</time></trkpt><trkpt lat="58.056062" lon="38.834653"><ele>92.5</ele><time>2022-11-24T13:58:30Z</time></trkpt><trkpt lat="58.05599" lon="38.834812"><ele>92.8</ele><time>2022-11-24T13:58:32Z</time></trkpt><trkpt lat="58.055938" lon="38.834955"><ele>92.4</ele><time>2022-11-24T13:58:34Z</time></trkpt><trkpt lat="58.055897" lon="38.835073"><ele>92.6</ele><time>2022-11-24T13:58:36Z</time></trkpt><trkpt lat="58.05587" lon="38.835233"><ele>93.0</ele><time>2022-11-24T13:58:38Z</time></trkpt><trkpt lat="58.055827" lon="38.83538"><ele>94.1</ele><time>2022-11-24T13:58:41Z</time></trkpt><trkpt lat="58.055788" lon="38.835505"><ele>94.2</ele><time>2022-11-24T13:58:43Z</time></trkpt><trkpt lat="58.055752" lon="38.835623"><ele>94.2</ele><time>2022-11-24T13:58:45Z</time></trkpt><trkpt lat="58.055712" lon="38.83574"><ele>94.0</ele><time>2022-11-24T13:58:47Z</time></trkpt><trkpt lat="58.055668" lon="38.835858"><ele>94.1</ele><time>2022-11-24T13:58:49Z</time></trkpt><trkpt lat="58.055625" lon="38.83599"><ele>94.2</ele><time>2022-11-24T13:58:51Z</time></trkpt><trkpt lat="58.055583" lon="38.836108"><ele>94.2</ele><time>2022-11-24T13:58:53Z</time></trkpt><trkpt lat="58.055537" lon="38.836228"><ele>94.4</ele><time>2022-11-24T13:58:55Z</time></trkpt><trkpt lat="58.055497" lon="38.836348"><ele>94.0</ele><time>2022-11-24T13:58:57Z</time></trkpt><trkpt lat="58.055442" lon="38.836517"><ele>93.4</ele><time>2022-11-24T13:59:00Z</time></trkpt><trkpt lat="58.055395" lon="38.836685"><ele>93.6</ele><time>2022-11-24T13:59:03Z</time></trkpt><trkpt lat="58.055342" lon="38.836835"><ele>93.4</ele><time>2022-11-24T13:59:06Z</time></trkpt><trkpt lat="58.055278" lon="38.836988"><ele>93.6</ele><time>2022-11-24T13:59:09Z</time></trkpt><trkpt lat="58.055217" lon="38.837147"><ele>92.7</ele><time>2022-11-24T13:59:12Z</time></trkpt><trkpt lat="58.055172" lon="38.837263"><ele>93.4</ele><time>2022-11-24T13:59:14Z</time></trkpt><trkpt lat="58.055127" lon="38.837388"><ele>93.5</ele><time>2022-11-24T13:59:16Z</time></trkpt><trkpt lat="58.055085" lon="38.837518"><ele>94.1</ele><time>2022-11-24T13:59:18Z</time></trkpt><trkpt lat="58.055045" lon="38.837647"><ele>94.2</ele><time>2022-11-24T13:59:20Z</time></trkpt><trkpt lat="58.055005" lon="38.837773"><ele>93.7</ele><time>2022-11-24T13:59:22Z</time></trkpt><trkpt lat="58.054965" lon="38.837895"><ele>93.7</ele><time>2022-11-24T13:59:24Z</time></trkpt><trkpt lat="58.05491" lon="38.83805"><ele>93.1</ele><time>2022-11-24T13:59:27Z</time></trkpt><trkpt lat="58.054858" lon="38.838212"><ele>93.4</ele><time>2022-11-24T13:59:30Z</time></trkpt><trkpt lat="58.054825" lon="38.838333"><ele>93.3</ele><time>2022-11-24T13:59:32Z</time></trkpt><trkpt lat="58.054785" lon="38.838458"><ele>93.4</ele><time>2022-11-24T13:59:34Z</time></trkpt><trkpt lat="58.054737" lon="38.838583"><ele>92.9</ele><time>2022-11-24T13:59:36Z</time></trkpt><trkpt lat="58.054692" lon="38.838712"><ele>92.9</ele><time>2022-11-24T13:59:38Z</time></trkpt><trkpt lat="58.054638" lon="38.83885"><ele>92.5</ele><time>2022-11-24T13:59:40Z</time></trkpt><trkpt lat="58.054587" lon="38.83901"><ele>92.7</ele><time>2022-11-24T13:59:42Z</time></trkpt><trkpt lat="58.054537" lon="38.839148"><ele>92.3</ele><time>2022-11-24T13:59:44Z</time></trkpt><trkpt lat="58.054495" lon="38.839272"><ele>92.1</ele><time>2022-11-24T13:59:46Z</time></trkpt><trkpt lat="58.054443" lon="38.839417"><ele>92.2</ele><time>2022-11-24T13:59:49Z</time></trkpt><trkpt lat="58.054395" lon="38.839528"><ele>91.8</ele><time>2022-11-24T13:59:52Z</time></trkpt><trkpt lat="58.054348" lon="38.839638"><ele>92.2</ele><time>2022-11-24T13:59:56Z</time></trkpt><trkpt lat="58.054307" lon="38.839752"><ele>92.2</ele><time>2022-11-24T14:00:01Z</time></trkpt><trkpt lat="58.054262" lon="38.839893"><ele>91.8</ele><time>2022-11-24T14:00:06Z</time></trkpt><trkpt lat="58.054222" lon="38.84001"><ele>91.9</ele><time>2022-11-24T14:00:10Z</time></trkpt><trkpt lat="58.054183" lon="38.840145"><ele>91.8</ele><time>2022-11-24T14:00:14Z</time></trkpt><trkpt lat="58.054132" lon="38.840283"><ele>92.2</ele><time>2022-11-24T14:00:19Z</time></trkpt><trkpt lat="58.05409" lon="38.840417"><ele>92.4</ele><time>2022-11-24T14:00:23Z</time></trkpt><trkpt lat="58.054043" lon="38.840557"><ele>92.7</ele><time>2022-11-24T14:00:27Z</time></trkpt><trkpt lat="58.054002" lon="38.840673"><ele>93.1</ele><time>2022-11-24T14:00:30Z</time></trkpt><trkpt lat="58.053947" lon="38.840817"><ele>93.2</ele><time>2022-11-24T14:00:33Z</time></trkpt><trkpt lat="58.0539" lon="38.840977"><ele>93.7</ele><time>2022-11-24T14:00:36Z</time></trkpt><trkpt lat="58.053852" lon="38.84114"><ele>93.2</ele><time>2022-11-24T14:00:39Z</time></trkpt><trkpt lat="58.053798" lon="38.841297"><ele>92.6</ele><time>2022-11-24T14:00:42Z</time></trkpt><trkpt lat="58.053742" lon="38.841438"><ele>93.4</ele><time>2022-11-24T14:00:45Z</time></trkpt><trkpt lat="58.053688" lon="38.841593"><ele>94.5</ele><time>2022-11-24T14:00:48Z</time></trkpt><trkpt lat="58.053627" lon="38.841747"><ele>94.7</ele><time>2022-11-24T14:00:51Z</time></trkpt><trkpt lat="58.053568" lon="38.841913"><ele>94.1</ele><time>2022-11-24T14:00:54Z</time></trkpt><trkpt lat="58.053515" lon="38.842073"><ele>93.1</ele><time>2022-11-24T14:00:57Z</time></trkpt><trkpt lat="58.053458" lon="38.842227"><ele>92.9</ele><time>2022-11-24T14:01:00Z</time></trkpt><trkpt lat="58.053403" lon="38.842382"><ele>93.4</ele><time>2022-11-24T14:01:03Z</time></trkpt><trkpt lat="58.053362" lon="38.842513"><ele>92.6</ele><time>2022-11-24T14:01:05Z</time></trkpt><trkpt lat="58.05332" lon="38.842648"><ele>91.8</ele><time>2022-11-24T14:01:07Z</time></trkpt><trkpt lat="58.053282" lon="38.842832"><ele>90.4</ele><time>2022-11-24T14:01:09Z</time></trkpt><trkpt lat="58.053223" lon="38.842985"><ele>89.9</ele><time>2022-11-24T14:01:11Z</time></trkpt><trkpt lat="58.053173" lon="38.84315"><ele>90.5</ele><time>2022-11-24T14:01:13Z</time></trkpt><trkpt lat="58.053123" lon="38.843313"><ele>91.0</ele><time>2022-11-24T14:01:15Z</time></trkpt><trkpt lat="58.053083" lon="38.843452"><ele>91.2</ele><time>2022-11-24T14:01:17Z</time></trkpt><trkpt lat="58.053047" lon="38.843568"><ele>90.2</ele><time>2022-11-24T14:01:19Z</time></trkpt><trkpt lat="58.053017" lon="38.843707"><ele>89.8</ele><time>2022-11-24T14:01:21Z</time></trkpt><trkpt lat="58.052975" lon="38.843832"><ele>89.4</ele><time>2022-11-24T14:01:23Z</time></trkpt><trkpt lat="58.052927" lon="38.843962"><ele>89.0</ele><time>2022-11-24T14:01:26Z</time></trkpt><trkpt lat="58.052873" lon="38.844097"><ele>88.8</ele><time>2022-11-24T14:01:29Z</time></trkpt><trkpt lat="58.052815" lon="38.84424"><ele>89.2</ele><time>2022-11-24T14:01:32Z</time></trkpt><trkpt lat="58.052738" lon="38.844272"><ele>88.3</ele><time>2022-11-24T14:01:35Z</time></trkpt><trkpt lat="58.052663" lon="38.844257"><ele>89.2</ele><time>2022-11-24T14:01:38Z</time></trkpt><trkpt lat="58.052587" lon="38.84425"><ele>90.6</ele><time>2022-11-24T14:01:41Z</time></trkpt><trkpt lat="58.052508" lon="38.844287"><ele>89.6</ele><time>2022-11-24T14:01:44Z</time></trkpt><trkpt lat="58.052437" lon="38.844308"><ele>89.7</ele><time>2022-11-24T14:01:46Z</time></trkpt><trkpt lat="58.052365" lon="38.844345"><ele>91.9</ele><time>2022-11-24T14:01:48Z</time></trkpt><trkpt lat="58.052292" lon="38.844387"><ele>91.6</ele><time>2022-11-24T14:01:50Z</time></trkpt><trkpt lat="58.052222" lon="38.844425"><ele>91.9</ele><time>2022-11-24T14:01:52Z</time></trkpt><trkpt lat="58.052133" lon="38.844457"><ele>91.9</ele><time>2022-11-24T14:01:55Z</time></trkpt><trkpt lat="58.052047" lon="38.844493"><ele>91.5</ele><time>2022-11-24T14:01:58Z</time></trkpt><trkpt lat="58.051972" lon="38.844527"><ele>91.8</ele><time>2022-11-24T14:02:01Z</time></trkpt><trkpt lat="58.051883" lon="38.84458"><ele>91.2</ele><time>2022-11-24T14:02:04Z</time></trkpt><trkpt lat="58.051795" lon="38.844593"><ele>91.7</ele><time>2022-11-24T14:02:07Z</time></trkpt><trkpt lat="58.051702" lon="38.844593"><ele>92.9</ele><time>2022-11-24T14:02:10Z</time></trkpt><trkpt lat="58.05164" lon="38.844678"><ele>94.3</ele><time>2022-11-24T14:02:13Z</time></trkpt><trkpt lat="58.0516" lon="38.844862"><ele>93.3</ele><time>2022-11-24T14:02:16Z</time></trkpt><trkpt lat="58.051575" lon="38.845007"><ele>93.1</ele><time>2022-11-24T14:02:18Z</time></trkpt><trkpt lat="58.051548" lon="38.845152"><ele>92.8</ele><time>2022-11-24T14:02:20Z</time></trkpt><trkpt lat="58.051515" lon="38.845312"><ele>92.7</ele><time>2022-11-24T14:02:22Z</time></trkpt><trkpt lat="58.051482" lon="38.845478"><ele>93.0</ele><time>2022-11-24T14:02:24Z</time></trkpt><trkpt lat="58.051455" lon="38.845625"><ele>93.5</ele><time>2022-11-24T14:02:26Z</time></trkpt><trkpt lat="58.051427" lon="38.845807"><ele>94.2</ele><time>2022-11-24T14:02:29Z</time></trkpt><trkpt lat="58.051393" lon="38.845963"><ele>94.4</ele><time>2022-11-24T14:02:32Z</time></trkpt><trkpt lat="58.05136" lon="38.846133"><ele>94.5</ele><time>2022-11-24T14:02:35Z</time></trkpt><trkpt lat="58.051323" lon="38.846305"><ele>95.2</ele><time>2022-11-24T14:02:38Z</time></trkpt><trkpt lat="58.051298" lon="38.846475"><ele>95.5</ele><time>2022-11-24T14:02:41Z</time></trkpt><trkpt lat="58.05128" lon="38.846628"><ele>95.5</ele><time>2022-11-24T14:02:44Z</time></trkpt><trkpt lat="58.051198" lon="38.846602"><ele>96.8</ele><time>2022-11-24T14:03:53Z</time></trkpt><trkpt lat="58.051115" lon="38.846525"><ele>96.9</ele><time>2022-11-24T14:03:56Z</time></trkpt><trkpt lat="58.051043" lon="38.846493"><ele>97.2</ele><time>2022-11-24T14:03:59Z</time></trkpt><trkpt lat="58.05097" lon="38.846462"><ele>96.9</ele><time>2022-11-24T14:04:02Z</time></trkpt><trkpt lat="58.050893" lon="38.846408"><ele>97.3</ele><time>2022-11-24T14:04:05Z</time></trkpt><trkpt lat="58.050805" lon="38.846355"><ele>97.4</ele><time>2022-11-24T14:04:08Z</time></trkpt><trkpt lat="58.050732" lon="38.846303"><ele>97.4</ele><time>2022-11-24T14:04:10Z</time></trkpt><trkpt lat="58.05063" lon="38.84625"><ele>96.9</ele><time>2022-11-24T14:04:13Z</time></trkpt><trkpt lat="58.050552" lon="38.846202"><ele>96.9</ele><time>2022-11-24T14:04:15Z</time></trkpt><trkpt lat="58.050485" lon="38.846152"><ele>96.0</ele><time>2022-11-24T14:04:17Z</time></trkpt><trkpt lat="58.050408" lon="38.8461"><ele>96.2</ele><time>2022-11-24T14:04:20Z</time></trkpt><trkpt lat="58.05033" lon="38.846078"><ele>96.4</ele><time>2022-11-24T14:04:24Z</time></trkpt><trkpt lat="58.050242" lon="38.846073"><ele>96.7</ele><time>2022-11-24T14:04:39Z</time></trkpt><trkpt lat="58.050165" lon="38.846003"><ele>96.8</ele><time>2022-11-24T14:04:42Z</time></trkpt><trkpt lat="58.050087" lon="38.845958"><ele>96.9</ele><time>2022-11-24T14:04:45Z</time></trkpt><trkpt lat="58.050012" lon="38.845913"><ele>96.6</ele><time>2022-11-24T14:04:49Z</time></trkpt><trkpt lat="58.04994" lon="38.845887"><ele>97.0</ele><time>2022-11-24T14:04:54Z</time></trkpt><trkpt lat="58.049865" lon="38.845842"><ele>97.5</ele><time>2022-11-24T14:04:59Z</time></trkpt><trkpt lat="58.04978" lon="38.845785"><ele>97.8</ele><time>2022-11-24T14:05:04Z</time></trkpt><trkpt lat="58.049687" lon="38.845743"><ele>97.8</ele><time>2022-11-24T14:05:08Z</time></trkpt><trkpt lat="58.0496" lon="38.845695"><ele>98.5</ele><time>2022-11-24T14:05:11Z</time></trkpt><trkpt lat="58.04951" lon="38.84563"><ele>99.0</ele><time>2022-11-24T14:05:14Z</time></trkpt><trkpt lat="58.049423" lon="38.84557"><ele>99.2</ele><time>2022-11-24T14:05:17Z</time></trkpt><trkpt lat="58.04933" lon="38.845495"><ele>99.2</ele><time>2022-11-24T14:05:20Z</time></trkpt><trkpt lat="58.049252" lon="38.845462"><ele>99.0</ele><time>2022-11-24T14:05:23Z</time></trkpt><trkpt lat="58.049187" lon="38.845402"><ele>99.6</ele><time>2022-11-24T14:05:32Z</time></trkpt><trkpt lat="58.048855" lon="38.845267"><ele>99.0</ele><time>2022-11-24T16:08:50Z</time></trkpt><trkpt lat="58.048932" lon="38.845215"><ele>101.7</ele><time>2022-11-24T16:09:07Z</time></trkpt><trkpt lat="58.049007" lon="38.845242"><ele>100.9</ele><time>2022-11-24T16:09:17Z</time></trkpt><trkpt lat="58.049095" lon="38.845282"><ele>100.3</ele><time>2022-11-24T16:09:24Z</time></trkpt><trkpt lat="58.049173" lon="38.845375"><ele>99.7</ele><time>2022-11-24T16:09:27Z</time></trkpt><trkpt lat="58.049273" lon="38.845455"><ele>99.4</ele><time>2022-11-24T16:09:30Z</time></trkpt><trkpt lat="58.04936" lon="38.845502"><ele>99.0</ele><time>2022-11-24T16:09:32Z</time></trkpt><trkpt lat="58.049445" lon="38.845555"><ele>98.7</ele><time>2022-11-24T16:09:34Z</time></trkpt><trkpt lat="58.049533" lon="38.845597"><ele>98.5</ele><time>2022-11-24T16:09:36Z</time></trkpt><trkpt lat="58.049623" lon="38.845655"><ele>98.6</ele><time>2022-11-24T16:09:38Z</time></trkpt><trkpt lat="58.049715" lon="38.845735"><ele>97.7</ele><time>2022-11-24T16:09:41Z</time></trkpt><trkpt lat="58.04979" lon="38.845787"><ele>96.5</ele><time>2022-11-24T16:09:43Z</time></trkpt><trkpt lat="58.049877" lon="38.845825"><ele>95.6</ele><time>2022-11-24T16:09:45Z</time></trkpt><trkpt lat="58.049982" lon="38.845877"><ele>95.7</ele><time>2022-11-24T16:09:47Z</time></trkpt><trkpt lat="58.050112" lon="38.845968"><ele>95.5</ele><time>2022-11-24T16:09:50Z</time></trkpt><trkpt lat="58.050198" lon="38.846"><ele>96.1</ele><time>2022-11-24T16:09:52Z</time></trkpt><trkpt lat="58.050282" lon="38.846022"><ele>96.9</ele><time>2022-11-24T16:09:54Z</time></trkpt><trkpt lat="58.050365" lon="38.846063"><ele>96.1</ele><time>2022-11-24T16:09:56Z</time></trkpt><trkpt lat="58.050458" lon="38.846077"><ele>95.6</ele><time>2022-11-24T16:09:58Z</time></trkpt><trkpt lat="58.050532" lon="38.846145"><ele>95.2</ele><time>2022-11-24T16:10:00Z</time></trkpt><trkpt lat="58.050618" lon="38.846227"><ele>94.6</ele><time>2022-11-24T16:10:02Z</time></trkpt><trkpt lat="58.050707" lon="38.846287"><ele>95.6</ele><time>2022-11-24T16:10:04Z</time></trkpt><trkpt lat="58.050798" lon="38.84632"><ele>95.9</ele><time>2022-11-24T16:10:06Z</time></trkpt><trkpt lat="58.050895" lon="38.846372"><ele>95.2</ele><time>2022-11-24T16:10:09Z</time></trkpt><trkpt lat="58.050968" lon="38.846453"><ele>96.1</ele><time>2022-11-24T16:10:12Z</time></trkpt><trkpt lat="58.051043" lon="38.846507"><ele>95.7</ele><time>2022-11-24T16:10:15Z</time></trkpt><trkpt lat="58.051128" lon="38.846588"><ele>95.4</ele><time>2022-11-24T16:11:02Z</time></trkpt><trkpt lat="58.051208" lon="38.84657"><ele>95.2</ele><time>2022-11-24T16:11:04Z</time></trkpt><trkpt lat="58.051272" lon="38.84648"><ele>94.4</ele><time>2022-11-24T16:11:07Z</time></trkpt><trkpt lat="58.051297" lon="38.846298"><ele>94.0</ele><time>2022-11-24T16:11:10Z</time></trkpt><trkpt lat="58.051312" lon="38.846165"><ele>93.4</ele><time>2022-11-24T16:11:12Z</time></trkpt><trkpt lat="58.051323" lon="38.846015"><ele>93.0</ele><time>2022-11-24T16:11:14Z</time></trkpt><trkpt lat="58.051342" lon="38.845877"><ele>92.8</ele><time>2022-11-24T16:11:16Z</time></trkpt><trkpt lat="58.051372" lon="38.845742"><ele>93.3</ele><time>2022-11-24T16:11:18Z</time></trkpt><trkpt lat="58.051412" lon="38.845558"><ele>93.6</ele><time>2022-11-24T16:11:21Z</time></trkpt><trkpt lat="58.051455" lon="38.84537"><ele>93.9</ele><time>2022-11-24T16:11:24Z</time></trkpt><trkpt lat="58.051485" lon="38.845233"><ele>94.0</ele><time>2022-11-24T16:11:26Z</time></trkpt><trkpt lat="58.051512" lon="38.845093"><ele>94.2</ele><time>2022-11-24T16:11:28Z</time></trkpt><trkpt lat="58.051547" lon="38.844948"><ele>93.8</ele><time>2022-11-24T16:11:30Z</time></trkpt><trkpt lat="58.051583" lon="38.844803"><ele>94.2</ele><time>2022-11-24T16:11:32Z</time></trkpt><trkpt lat="58.051635" lon="38.844643"><ele>94.9</ele><time>2022-11-24T16:11:35Z</time></trkpt><trkpt lat="58.051707" lon="38.844592"><ele>94.2</ele><time>2022-11-24T16:11:37Z</time></trkpt><trkpt lat="58.051793" lon="38.84461"><ele>92.8</ele><time>2022-11-24T16:11:39Z</time></trkpt><trkpt lat="58.05188" lon="38.844637"><ele>92.3</ele><time>2022-11-24T16:11:41Z</time></trkpt><trkpt lat="58.051985" lon="38.8446"><ele>93.0</ele><time>2022-11-24T16:11:43Z</time></trkpt><trkpt lat="58.052088" lon="38.844545"><ele>92.2</ele><time>2022-11-24T16:11:45Z</time></trkpt><trkpt lat="58.05218" lon="38.844517"><ele>93.0</ele><time>2022-11-24T16:11:47Z</time></trkpt><trkpt lat="58.052293" lon="38.844443"><ele>93.2</ele><time>2022-11-24T16:11:49Z</time></trkpt><trkpt lat="58.052387" lon="38.844408"><ele>93.0</ele><time>2022-11-24T16:11:51Z</time></trkpt><trkpt lat="58.052472" lon="38.844373"><ele>92.7</ele><time>2022-11-24T16:11:53Z</time></trkpt><trkpt lat="58.052542" lon="38.844322"><ele>92.6</ele><time>2022-11-24T16:11:55Z</time></trkpt><trkpt lat="58.052615" lon="38.844293"><ele>91.9</ele><time>2022-11-24T16:11:57Z</time></trkpt><trkpt lat="58.052692" lon="38.844275"><ele>90.9</ele><time>2022-11-24T16:11:59Z</time></trkpt><trkpt lat="58.052797" lon="38.844185"><ele>90.2</ele><time>2022-11-24T16:12:02Z</time></trkpt><trkpt lat="58.052877" lon="38.844065"><ele>90.6</ele><time>2022-11-24T16:12:05Z</time></trkpt><trkpt lat="58.05292" lon="38.843948"><ele>89.6</ele><time>2022-11-24T16:12:07Z</time></trkpt><trkpt lat="58.05295" lon="38.843753"><ele>88.8</ele><time>2022-11-24T16:12:09Z</time></trkpt><trkpt lat="58.053" lon="38.843618"><ele>88.2</ele><time>2022-11-24T16:12:11Z</time></trkpt><trkpt lat="58.053055" lon="38.843457"><ele>88.4</ele><time>2022-11-24T16:12:13Z</time></trkpt><trkpt lat="58.053095" lon="38.843337"><ele>88.6</ele><time>2022-11-24T16:12:15Z</time></trkpt><trkpt lat="58.05314" lon="38.843187"><ele>87.5</ele><time>2022-11-24T16:12:17Z</time></trkpt><trkpt lat="58.053182" lon="38.843048"><ele>87.5</ele><time>2022-11-24T16:12:19Z</time></trkpt><trkpt lat="58.053233" lon="38.842907"><ele>88.3</ele><time>2022-11-24T16:12:21Z</time></trkpt><trkpt lat="58.053267" lon="38.842778"><ele>87.4</ele><time>2022-11-24T16:12:23Z</time></trkpt><trkpt lat="58.05331" lon="38.842648"><ele>87.6</ele><time>2022-11-24T16:12:25Z</time></trkpt><trkpt lat="58.053362" lon="38.842468"><ele>87.9</ele><time>2022-11-24T16:12:28Z</time></trkpt><trkpt lat="58.053402" lon="38.842343"><ele>88.3</ele><time>2022-11-24T16:12:30Z</time></trkpt><trkpt lat="58.053458" lon="38.842192"><ele>89.1</ele><time>2022-11-24T16:12:32Z</time></trkpt><trkpt lat="58.05352" lon="38.842033"><ele>89.4</ele><time>2022-11-24T16:12:34Z</time></trkpt><trkpt lat="58.053592" lon="38.841895"><ele>89.8</ele><time>2022-11-24T16:12:36Z</time></trkpt><trkpt lat="58.053642" lon="38.84176"><ele>90.2</ele><time>2022-11-24T16:12:38Z</time></trkpt><trkpt lat="58.053678" lon="38.841632"><ele>90.3</ele><time>2022-11-24T16:12:40Z</time></trkpt><trkpt lat="58.053713" lon="38.841505"><ele>90.5</ele><time>2022-11-24T16:12:42Z</time></trkpt><trkpt lat="58.053755" lon="38.841378"><ele>91.4</ele><time>2022-11-24T16:12:44Z</time></trkpt><trkpt lat="58.053798" lon="38.841253"><ele>91.2</ele><time>2022-11-24T16:12:46Z</time></trkpt><trkpt lat="58.05384" lon="38.841132"><ele>91.5</ele><time>2022-11-24T16:12:48Z</time></trkpt><trkpt lat="58.053883" lon="38.841018"><ele>91.5</ele><time>2022-11-24T16:12:50Z</time></trkpt><trkpt lat="58.053925" lon="38.840893"><ele>90.0</ele><time>2022-11-24T16:12:52Z</time></trkpt><trkpt lat="58.053972" lon="38.840777"><ele>90.0</ele><time>2022-11-24T16:12:54Z</time></trkpt><trkpt lat="58.054017" lon="38.84065"><ele>89.4</ele><time>2022-11-24T16:12:56Z</time></trkpt><trkpt lat="58.05406" lon="38.840527"><ele>89.6</ele><time>2022-11-24T16:12:58Z</time></trkpt><trkpt lat="58.054108" lon="38.840388"><ele>89.0</ele><time>2022-11-24T16:13:00Z</time></trkpt><trkpt lat="58.054155" lon="38.840252"><ele>89.1</ele><time>2022-11-24T16:13:02Z</time></trkpt><trkpt lat="58.054197" lon="38.840123"><ele>89.2</ele><time>2022-11-24T16:13:04Z</time></trkpt><trkpt lat="58.054252" lon="38.839953"><ele>88.8</ele><time>2022-11-24T16:13:07Z</time></trkpt><trkpt lat="58.05429" lon="38.839823"><ele>88.9</ele><time>2022-11-24T16:13:09Z</time></trkpt><trkpt lat="58.054338" lon="38.839677"><ele>89.0</ele><time>2022-11-24T16:13:11Z</time></trkpt><trkpt lat="58.054392" lon="38.839522"><ele>89.4</ele><time>2022-11-24T16:13:13Z</time></trkpt><trkpt lat="58.054445" lon="38.83936"><ele>89.3</ele><time>2022-11-24T16:13:15Z</time></trkpt><trkpt lat="58.054498" lon="38.839235"><ele>88.9</ele><time>2022-11-24T16:13:17Z</time></trkpt><trkpt lat="58.05454" lon="38.839115"><ele>89.3</ele><time>2022-11-24T16:13:19Z</time></trkpt><trkpt lat="58.054605" lon="38.838955"><ele>88.8</ele><time>2022-11-24T16:13:22Z</time></trkpt><trkpt lat="58.054648" lon="38.838802"><ele>88.6</ele><time>2022-11-24T16:13:24Z</time></trkpt><trkpt lat="58.054702" lon="38.83866"><ele>88.5</ele><time>2022-11-24T16:13:26Z</time></trkpt><trkpt lat="58.054748" lon="38.838503"><ele>88.3</ele><time>2022-11-24T16:13:28Z</time></trkpt><trkpt lat="58.054795" lon="38.838377"><ele>88.2</ele><time>2022-11-24T16:13:30Z</time></trkpt><trkpt lat="58.054838" lon="38.838235"><ele>88.7</ele><time>2022-11-24T16:13:32Z</time></trkpt><trkpt lat="58.054888" lon="38.838077"><ele>88.3</ele><time>2022-11-24T16:13:34Z</time></trkpt><trkpt lat="58.054933" lon="38.837918"><ele>88.3</ele><time>2022-11-24T16:13:36Z</time></trkpt><trkpt lat="58.054982" lon="38.837757"><ele>87.6</ele><time>2022-11-24T16:13:38Z</time></trkpt><trkpt lat="58.055032" lon="38.837598"><ele>88.7</ele><time>2022-11-24T16:13:40Z</time></trkpt><trkpt lat="58.055093" lon="38.837448"><ele>88.6</ele><time>2022-11-24T16:13:42Z</time></trkpt><trkpt lat="58.05514" lon="38.83728"><ele>88.2</ele><time>2022-11-24T16:13:44Z</time></trkpt><trkpt lat="58.055192" lon="38.837115"><ele>87.8</ele><time>2022-11-24T16:13:46Z</time></trkpt><trkpt lat="58.055262" lon="38.836995"><ele>88.0</ele><time>2022-11-24T16:13:48Z</time></trkpt><trkpt lat="58.055305" lon="38.836802"><ele>87.6</ele><time>2022-11-24T16:13:50Z</time></trkpt><trkpt lat="58.055357" lon="38.836663"><ele>87.8</ele><time>2022-11-24T16:13:52Z</time></trkpt><trkpt lat="58.055402" lon="38.836533"><ele>87.1</ele><time>2022-11-24T16:13:54Z</time></trkpt><trkpt lat="58.055433" lon="38.836363"><ele>87.5</ele><time>2022-11-24T16:13:56Z</time></trkpt><trkpt lat="58.055475" lon="38.836235"><ele>88.4</ele><time>2022-11-24T16:13:58Z</time></trkpt><trkpt lat="58.055527" lon="38.836105"><ele>89.3</ele><time>2022-11-24T16:14:00Z</time></trkpt><trkpt lat="58.055572" lon="38.835982"><ele>89.7</ele><time>2022-11-24T16:14:02Z</time></trkpt><trkpt lat="58.055617" lon="38.835842"><ele>90.4</ele><time>2022-11-24T16:14:04Z</time></trkpt><trkpt lat="58.055653" lon="38.835695"><ele>90.8</ele><time>2022-11-24T16:14:06Z</time></trkpt><trkpt lat="58.055712" lon="38.835563"><ele>91.0</ele><time>2022-11-24T16:14:08Z</time></trkpt><trkpt lat="58.05576" lon="38.835412"><ele>91.5</ele><time>2022-11-24T16:14:10Z</time></trkpt><trkpt lat="58.05578" lon="38.835273"><ele>90.1</ele><time>2022-11-24T16:14:12Z</time></trkpt><trkpt lat="58.05585" lon="38.835118"><ele>90.5</ele><time>2022-11-24T16:14:14Z</time></trkpt><trkpt lat="58.055923" lon="38.835003"><ele>90.4</ele><time>2022-11-24T16:14:16Z</time></trkpt><trkpt lat="58.05597" lon="38.834875"><ele>90.4</ele><time>2022-11-24T16:14:18Z</time></trkpt><trkpt lat="58.056" lon="38.834752"><ele>89.2</ele><time>2022-11-24T16:14:20Z</time></trkpt><trkpt lat="58.05602" lon="38.834618"><ele>88.9</ele><time>2022-11-24T16:14:22Z</time></trkpt><trkpt lat="58.056038" lon="38.834483"><ele>87.8</ele><time>2022-11-24T16:14:24Z</time></trkpt><trkpt lat="58.056078" lon="38.83436"><ele>88.1</ele><time>2022-11-24T16:14:26Z</time></trkpt><trkpt lat="58.056127" lon="38.834217"><ele>86.9</ele><time>2022-11-24T16:14:28Z</time></trkpt><trkpt lat="58.05617" lon="38.834038"><ele>87.3</ele><time>2022-11-24T16:14:30Z</time></trkpt><trkpt lat="58.056217" lon="38.833862"><ele>87.8</ele><time>2022-11-24T16:14:32Z</time></trkpt><trkpt lat="58.056297" lon="38.833708"><ele>88.2</ele><time>2022-11-24T16:14:34Z</time></trkpt><trkpt lat="58.05633" lon="38.833565"><ele>89.8</ele><time>2022-11-24T16:14:36Z</time></trkpt><trkpt lat="58.056377" lon="38.833415"><ele>89.1</ele><time>2022-11-24T16:14:38Z</time></trkpt><trkpt lat="58.056445" lon="38.833252"><ele>88.8</ele><time>2022-11-24T16:14:40Z</time></trkpt><trkpt lat="58.0565" lon="38.833097"><ele>89.1</ele><time>2022-11-24T16:14:42Z</time></trkpt><trkpt lat="58.05655" lon="38.832912"><ele>89.0</ele><time>2022-11-24T16:14:44Z</time></trkpt><trkpt lat="58.056593" lon="38.83275"><ele>89.3</ele><time>2022-11-24T16:14:46Z</time></trkpt><trkpt lat="58.056655" lon="38.832635"><ele>89.3</ele><time>2022-11-24T16:14:48Z</time></trkpt><trkpt lat="58.056663" lon="38.832408"><ele>88.1</ele><time>2022-11-24T16:14:50Z</time></trkpt><trkpt lat="58.056703" lon="38.832273"><ele>87.4</ele><time>2022-11-24T16:14:52Z</time></trkpt><trkpt lat="58.05675" lon="38.832138"><ele>87.8</ele><time>2022-11-24T16:14:54Z</time></trkpt><trkpt lat="58.056812" lon="38.832015"><ele>91.4</ele><time>2022-11-24T16:14:56Z</time></trkpt><trkpt lat="58.05686" lon="38.83189"><ele>90.5</ele><time>2022-11-24T16:14:58Z</time></trkpt><trkpt lat="58.056912" lon="38.831752"><ele>89.2</ele><time>2022-11-24T16:15:00Z</time></trkpt><trkpt lat="58.05695" lon="38.831627"><ele>88.2</ele><time>2022-11-24T16:15:02Z</time></trkpt><trkpt lat="58.057003" lon="38.83146"><ele>87.5</ele><time>2022-11-24T16:15:05Z</time></trkpt><trkpt lat="58.057058" lon="38.831313"><ele>86.9</ele><time>2022-11-24T16:15:08Z</time></trkpt><trkpt lat="58.057138" lon="38.831197"><ele>87.3</ele><time>2022-11-24T16:15:11Z</time></trkpt><trkpt lat="58.057223" lon="38.8311"><ele>87.8</ele><time>2022-11-24T16:15:14Z</time></trkpt><trkpt lat="58.057312" lon="38.831002"><ele>88.5</ele><time>2022-11-24T16:15:17Z</time></trkpt><trkpt lat="58.057398" lon="38.830892"><ele>89.2</ele><time>2022-11-24T16:15:20Z</time></trkpt><trkpt lat="58.057482" lon="38.830787"><ele>89.2</ele><time>2022-11-24T16:15:23Z</time></trkpt><trkpt lat="58.057555" lon="38.830667"><ele>88.7</ele><time>2022-11-24T16:15:26Z</time></trkpt><trkpt lat="58.057615" lon="38.830525"><ele>88.7</ele><time>2022-11-24T16:15:29Z</time></trkpt><trkpt lat="58.057662" lon="38.830395"><ele>87.8</ele><time>2022-11-24T16:15:32Z</time></trkpt><trkpt lat="58.05771" lon="38.83029"><ele>87.9</ele><time>2022-11-24T16:15:35Z</time></trkpt><trkpt lat="58.05779" lon="38.830182"><ele>89.1</ele><time>2022-11-24T16:15:38Z</time></trkpt><trkpt lat="58.057853" lon="38.830098"><ele>89.4</ele><time>2022-11-24T16:15:40Z</time></trkpt><trkpt lat="58.057917" lon="38.830003"><ele>89.4</ele><time>2022-11-24T16:15:42Z</time></trkpt><trkpt lat="58.05797" lon="38.829908"><ele>87.3</ele><time>2022-11-24T16:15:44Z</time></trkpt><trkpt lat="58.058027" lon="38.829808"><ele>87.7</ele><time>2022-11-24T16:15:46Z</time></trkpt><trkpt lat="58.058085" lon="38.829707"><ele>87.5</ele><time>2022-11-24T16:15:48Z</time></trkpt><trkpt lat="58.058143" lon="38.829605"><ele>87.2</ele><time>2022-11-24T16:15:50Z</time></trkpt><trkpt lat="58.058205" lon="38.829513"><ele>88.0</ele><time>2022-11-24T16:15:52Z</time></trkpt><trkpt lat="58.058267" lon="38.829413"><ele>88.0</ele><time>2022-11-24T16:15:54Z</time></trkpt><trkpt lat="58.05833" lon="38.829303"><ele>88.7</ele><time>2022-11-24T16:15:56Z</time></trkpt><trkpt lat="58.058395" lon="38.829213"><ele>88.6</ele><time>2022-11-24T16:15:58Z</time></trkpt><trkpt lat="58.058457" lon="38.829138"><ele>89.2</ele><time>2022-11-24T16:16:00Z</time></trkpt><trkpt lat="58.058543" lon="38.82902"><ele>88.8</ele><time>2022-11-24T16:16:03Z</time></trkpt><trkpt lat="58.058615" lon="38.828903"><ele>88.6</ele><time>2022-11-24T16:16:06Z</time></trkpt><trkpt lat="58.05866" lon="38.82878"><ele>88.5</ele><time>2022-11-24T16:16:09Z</time></trkpt><trkpt lat="58.058687" lon="38.828648"><ele>88.8</ele><time>2022-11-24T16:16:13Z</time></trkpt><trkpt lat="58.05873" lon="38.828505"><ele>89.0</ele><time>2022-11-24T16:16:17Z</time></trkpt><trkpt lat="58.05877" lon="38.82837"><ele>89.3</ele><time>2022-11-24T16:16:21Z</time></trkpt><trkpt lat="58.058815" lon="38.828242"><ele>91.0</ele><time>2022-11-24T16:16:25Z</time></trkpt><trkpt lat="58.058863" lon="38.828115"><ele>90.3</ele><time>2022-11-24T16:16:29Z</time></trkpt><trkpt lat="58.058897" lon="38.827987"><ele>90.4</ele><time>2022-11-24T16:16:32Z</time></trkpt><trkpt lat="58.058933" lon="38.827835"><ele>90.5</ele><time>2022-11-24T16:16:35Z</time></trkpt><trkpt lat="58.058982" lon="38.827693"><ele>91.7</ele><time>2022-11-24T16:16:38Z</time></trkpt><trkpt lat="58.059035" lon="38.827565"><ele>93.5</ele><time>2022-11-24T16:16:41Z</time></trkpt><trkpt lat="58.05908" lon="38.827422"><ele>93.1</ele><time>2022-11-24T16:16:43Z</time></trkpt><trkpt lat="58.059125" lon="38.827283"><ele>91.9</ele><time>2022-11-24T16:16:46Z</time></trkpt><trkpt lat="58.059163" lon="38.827132"><ele>91.5</ele><time>2022-11-24T16:16:49Z</time></trkpt><trkpt lat="58.059213" lon="38.826978"><ele>91.0</ele><time>2022-11-24T16:16:52Z</time></trkpt><trkpt lat="58.059262" lon="38.826823"><ele>90.7</ele><time>2022-11-24T16:16:55Z</time></trkpt><trkpt lat="58.059312" lon="38.826678"><ele>90.5</ele><time>2022-11-24T16:16:58Z</time></trkpt><trkpt lat="58.059368" lon="38.826548"><ele>90.7</ele><time>2022-11-24T16:17:01Z</time></trkpt><trkpt lat="58.059428" lon="38.826425"><ele>91.2</ele><time>2022-11-24T16:17:04Z</time></trkpt><trkpt lat="58.05946" lon="38.826288"><ele>91.5</ele><time>2022-11-24T16:17:07Z</time></trkpt><trkpt lat="58.059448" lon="38.82613"><ele>91.0</ele><time>2022-11-24T16:17:12Z</time></trkpt><trkpt lat="58.059435" lon="38.825975"><ele>91.1</ele><time>2022-11-24T16:17:16Z</time></trkpt><trkpt lat="58.059417" lon="38.825793"><ele>91.6</ele><time>2022-11-24T16:17:20Z</time></trkpt><trkpt lat="58.059423" lon="38.825632"><ele>91.6</ele><time>2022-11-24T16:17:23Z</time></trkpt><trkpt lat="58.059407" lon="38.825478"><ele>92.3</ele><time>2022-11-24T16:17:26Z</time></trkpt><trkpt lat="58.059362" lon="38.825328"><ele>92.4</ele><time>2022-11-24T16:17:29Z</time></trkpt><trkpt lat="58.059308" lon="38.825233"><ele>92.4</ele><time>2022-11-24T16:17:31Z</time></trkpt><trkpt lat="58.059248" lon="38.825142"><ele>91.6</ele><time>2022-11-24T16:17:33Z</time></trkpt><trkpt lat="58.059212" lon="38.825018"><ele>91.7</ele><time>2022-11-24T16:17:35Z</time></trkpt><trkpt lat="58.05915" lon="38.824845"><ele>92.2</ele><time>2022-11-24T16:17:38Z</time></trkpt><trkpt lat="58.059105" lon="38.82474"><ele>92.5</ele><time>2022-11-24T16:17:40Z</time></trkpt><trkpt lat="58.059052" lon="38.824597"><ele>92.7</ele><time>2022-11-24T16:17:43Z</time></trkpt><trkpt lat="58.059032" lon="38.82446"><ele>93.3</ele><time>2022-11-24T16:17:47Z</time></trkpt><trkpt lat="58.059082" lon="38.824352"><ele>93.8</ele><time>2022-11-24T16:17:50Z</time></trkpt><trkpt lat="58.05916" lon="38.824217"><ele>94.0</ele><time>2022-11-24T16:17:53Z</time></trkpt><trkpt lat="58.05922" lon="38.824118"><ele>94.4</ele><time>2022-11-24T16:17:55Z</time></trkpt><trkpt lat="58.059277" lon="38.82401"><ele>94.4</ele><time>2022-11-24T16:17:57Z</time></trkpt><trkpt lat="58.05934" lon="38.823875"><ele>94.1</ele><time>2022-11-24T16:18:00Z</time></trkpt><trkpt lat="58.059402" lon="38.823723"><ele>94.3</ele><time>2022-11-24T16:18:03Z</time></trkpt><trkpt lat="58.059472" lon="38.823573"><ele>94.0</ele><time>2022-11-24T16:18:06Z</time></trkpt><trkpt lat="58.059542" lon="38.823422"><ele>93.8</ele><time>2022-11-24T16:18:09Z</time></trkpt><trkpt lat="58.059582" lon="38.823298"><ele>94.1</ele><time>2022-11-24T16:18:11Z</time></trkpt><trkpt lat="58.059615" lon="38.823145"><ele>94.7</ele><time>2022-11-24T16:18:13Z</time></trkpt><trkpt lat="58.05963" lon="38.822953"><ele>95.3</ele><time>2022-11-24T16:18:15Z</time></trkpt><trkpt lat="58.059665" lon="38.822782"><ele>94.1</ele><time>2022-11-24T16:18:17Z</time></trkpt><trkpt lat="58.059678" lon="38.822627"><ele>94.6</ele><time>2022-11-24T16:18:19Z</time></trkpt><trkpt lat="58.059685" lon="38.82247"><ele>95.1</ele><time>2022-11-24T16:18:22Z</time></trkpt><trkpt lat="58.059688" lon="38.822317"><ele>94.9</ele><time>2022-11-24T16:18:25Z</time></trkpt><trkpt lat="58.059705" lon="38.822152"><ele>95.3</ele><time>2022-11-24T16:18:28Z</time></trkpt><trkpt lat="58.059732" lon="38.82196"><ele>95.5</ele><time>2022-11-24T16:18:31Z</time></trkpt><trkpt lat="58.059747" lon="38.821812"><ele>95.7</ele><time>2022-11-24T16:18:33Z</time></trkpt><trkpt lat="58.05976" lon="38.821657"><ele>96.0</ele><time>2022-11-24T16:18:35Z</time></trkpt><trkpt lat="58.059775" lon="38.821498"><ele>96.3</ele><time>2022-11-24T16:18:37Z</time></trkpt><trkpt lat="58.059788" lon="38.821355"><ele>96.2</ele><time>2022-11-24T16:18:39Z</time></trkpt><trkpt lat="58.059792" lon="38.82117"><ele>96.3</ele><time>2022-11-24T16:18:42Z</time></trkpt><trkpt lat="58.059797" lon="38.821018"><ele>96.4</ele><time>2022-11-24T16:18:45Z</time></trkpt><trkpt lat="58.059798" lon="38.82088"><ele>96.7</ele><time>2022-11-24T16:18:48Z</time></trkpt><trkpt lat="58.059815" lon="38.82072"><ele>95.9</ele><time>2022-11-24T16:18:52Z</time></trkpt><trkpt lat="58.059823" lon="38.820535"><ele>96.2</ele><time>2022-11-24T16:18:56Z</time></trkpt><trkpt lat="58.059822" lon="38.820383"><ele>95.9</ele><time>2022-11-24T16:18:59Z</time></trkpt><trkpt lat="58.059832" lon="38.820225"><ele>95.3</ele><time>2022-11-24T16:19:02Z</time></trkpt><trkpt lat="58.059845" lon="38.820057"><ele>95.3</ele><time>2022-11-24T16:19:05Z</time></trkpt><trkpt lat="58.059863" lon="38.819868"><ele>95.3</ele><time>2022-11-24T16:19:08Z</time></trkpt><trkpt lat="58.059888" lon="38.819683"><ele>96.1</ele><time>2022-11-24T16:19:11Z</time></trkpt><trkpt lat="58.059895" lon="38.819497"><ele>95.3</ele><time>2022-11-24T16:19:14Z</time></trkpt><trkpt lat="58.059903" lon="38.819317"><ele>95.4</ele><time>2022-11-24T16:19:17Z</time></trkpt><trkpt lat="58.059912" lon="38.81915"><ele>95.9</ele><time>2022-11-24T16:19:20Z</time></trkpt><trkpt lat="58.059925" lon="38.818992"><ele>96.7</ele><time>2022-11-24T16:19:23Z</time></trkpt><trkpt lat="58.059937" lon="38.818845"><ele>96.5</ele><time>2022-11-24T16:19:26Z</time></trkpt><trkpt lat="58.059948" lon="38.818697"><ele>96.4</ele><time>2022-11-24T16:19:29Z</time></trkpt><trkpt lat="58.059948" lon="38.818542"><ele>95.7</ele><time>2022-11-24T16:19:32Z</time></trkpt><trkpt lat="58.059938" lon="38.818395"><ele>95.4</ele><time>2022-11-24T16:19:35Z</time></trkpt><trkpt lat="58.059933" lon="38.81822"><ele>95.8</ele><time>2022-11-24T16:19:39Z</time></trkpt><trkpt lat="58.05994" lon="38.81805"><ele>96.4</ele><time>2022-11-24T16:19:43Z</time></trkpt><trkpt lat="58.05996" lon="38.817903"><ele>95.7</ele><time>2022-11-24T16:19:47Z</time></trkpt><trkpt lat="58.05998" lon="38.817773"><ele>96.0</ele><time>2022-11-24T16:19:51Z</time></trkpt><trkpt lat="58.059905" lon="38.817688"><ele>97.5</ele><time>2022-11-24T16:20:35Z</time></trkpt><trkpt lat="58.059835" lon="38.817598"><ele>98.3</ele><time>2022-11-24T16:20:38Z</time></trkpt><trkpt lat="58.059805" lon="38.817462"><ele>98.8</ele><time>2022-11-24T16:20:41Z</time></trkpt><trkpt lat="58.05974" lon="38.817392"><ele>99.0</ele><time>2022-11-24T16:20:44Z</time></trkpt><trkpt lat="58.059658" lon="38.817373"><ele>99.4</ele><time>2022-11-24T16:20:47Z</time></trkpt><trkpt lat="58.059572" lon="38.817382"><ele>99.4</ele><time>2022-11-24T16:20:50Z</time></trkpt><trkpt lat="58.059483" lon="38.817342"><ele>99.5</ele><time>2022-11-24T16:20:54Z</time></trkpt><trkpt lat="58.059395" lon="38.817338"><ele>99.8</ele><time>2022-11-24T16:20:58Z</time></trkpt><trkpt lat="58.059312" lon="38.817382"><ele>100.0</ele><time>2022-11-24T16:21:00Z</time></trkpt><trkpt lat="58.059225" lon="38.817458"><ele>100.3</ele><time>2022-11-24T16:21:02Z</time></trkpt><trkpt lat="58.059122" lon="38.81747"><ele>100.6</ele><time>2022-11-24T16:21:04Z</time></trkpt><trkpt lat="58.059038" lon="38.817425"><ele>100.9</ele><time>2022-11-24T16:21:07Z</time></trkpt><trkpt lat="58.058987" lon="38.817317"><ele>101.1</ele><time>2022-11-24T16:21:11Z</time></trkpt><trkpt lat="58.058907" lon="38.817238"><ele>100.8</ele><time>2022-11-24T16:21:17Z</time></trkpt><trkpt lat="58.058827" lon="38.817137"><ele>100.7</ele><time>2022-11-24T16:21:20Z</time></trkpt><trkpt lat="58.05877" lon="38.817043"><ele>101.0</ele><time>2022-11-24T16:21:22Z</time></trkpt><trkpt lat="58.058735" lon="38.816897"><ele>101.7</ele><time>2022-11-24T16:21:25Z</time></trkpt><trkpt lat="58.058728" lon="38.816735"><ele>101.3</ele><time>2022-11-24T16:21:29Z</time></trkpt></trkseg></trk></gpx>