<?xml version="1.0" encoding="UTF-8" standalone="no"?><gpx xmlns="http://www.topografix.com/GPX/1/1" xmlns:gpxtpx="http://www.garmin.com/xmlschemas/TrackPointExtension/v1" xmlns:xsi="http://www.w3.org/2001/XMLSchema-instance" creator="Sports Tracker" version="1.1" xsi:schemaLocation="http://www.topografix.com/GPX/1/1 http://www.topografix.com/GPX/1/1/gpx.xsd http://www.garmin.com/xmlschemas/TrackPointExtension/v1 http://www.garmin.com/xmlschemas/TrackPointExtensionv1.xsd"><metadata><name/><desc/><author><name>Александр</name></author></metadata><trk><name/><trkseg><trkpt lat="58.058583" lon="38.816732"><ele>105.1</ele><time>2023-06-16T11:23:52Z</time></trkpt><trkpt lat="58.05884" lon="38.81685"><ele>105.0</ele><time>2023-06-16T11:23:58Z</time></trkpt><trkpt lat="58.058742" lon="38.816882"><ele>104.3</ele><time>2023-06-16T11:24:05Z</time></trkpt><trkpt lat="58.05891" lon="38.81712"><ele>104.4</ele><time>2023-06-16T11:24:14Z</time></trkpt><trkpt lat="58.058992" lon="38.817322"><ele>103.6</ele><time>2023-06-16T11:24:20Z</time></trkpt><trkpt lat="58.05921" lon="38.817213"><ele>103.3</ele><time>2023-06-16T11:24:33Z</time></trkpt><trkpt lat="58.059362" lon="38.817423"><ele>102.8</ele><time>2023-06-16T11:24:40Z</time></trkpt><trkpt lat="58.05949" lon="38.817307"><ele>101.3</ele><time>2023-06-16T11:24:46Z</time></trkpt><trkpt lat="58.059598" lon="38.817195"><ele>101.2</ele><time>2023-06-16T11:24:47Z</time></trkpt><trkpt lat="58.059708" lon="38.817443"><ele>96.8</ele><time>2023-06-16T11:24:49Z</time></trkpt><trkpt lat="58.059727" lon="38.81775"><ele>95.4</ele><time>2023-06-16T11:24:52Z</time></trkpt><trkpt lat="58.05969" lon="38.81849"><ele>103.2</ele><time>2023-06-16T11:25:04Z</time></trkpt><trkpt lat="58.059645" lon="38.818693"><ele>98.9</ele><time>2023-06-16T11:25:05Z</time></trkpt><trkpt lat="58.059647" lon="38.818537"><ele>94.8</ele><time>2023-06-16T11:25:06Z</time></trkpt><trkpt lat="58.059682" lon="38.818748"><ele>97.6</ele><time>2023-06-16T11:25:09Z</time></trkpt><trkpt lat="58.059672" lon="38.81892"><ele>97.6</ele><time>2023-06-16T11:25:11Z</time></trkpt><trkpt lat="58.059665" lon="38.819128"><ele>97.7</ele><time>2023-06-16T11:25:13Z</time></trkpt><trkpt lat="58.059652" lon="38.819327"><ele>98.6</ele><time>2023-06-16T11:25:16Z</time></trkpt><trkpt lat="58.059645" lon="38.819472"><ele>98.1</ele><time>2023-06-16T11:25:18Z</time></trkpt><trkpt lat="58.059633" lon="38.81963"><ele>98.5</ele><time>2023-06-16T11:25:20Z</time></trkpt><trkpt lat="58.059622" lon="38.819772"><ele>98.2</ele><time>2023-06-16T11:25:22Z</time></trkpt><trkpt lat="58.05962" lon="38.819933"><ele>97.8</ele><time>2023-06-16T11:25:24Z</time></trkpt><trkpt lat="58.059625" lon="38.820128"><ele>97.8</ele><time>2023-06-16T11:25:26Z</time></trkpt><trkpt lat="58.059603" lon="38.82026"><ele>98.0</ele><time>2023-06-16T11:25:28Z</time></trkpt><trkpt lat="58.059592" lon="38.820445"><ele>98.1</ele><time>2023-06-16T11:25:30Z</time></trkpt><trkpt lat="58.059562" lon="38.820587"><ele>97.2</ele><time>2023-06-16T11:25:32Z</time></trkpt><trkpt lat="58.059527" lon="38.820705"><ele>97.6</ele><time>2023-06-16T11:25:34Z</time></trkpt><trkpt lat="58.059527" lon="38.820875"><ele>97.4</ele><time>2023-06-16T11:25:36Z</time></trkpt><trkpt lat="58.059525" lon="38.821013"><ele>97.9</ele><time>2023-06-16T11:25:38Z</time></trkpt><trkpt lat="58.059547" lon="38.821157"><ele>99.1</ele><time>2023-06-16T11:26:24Z</time></trkpt><trkpt lat="58.059615" lon="38.82128"><ele>98.7</ele><time>2023-06-16T11:26:27Z</time></trkpt><trkpt lat="58.059685" lon="38.821358"><ele>98.3</ele><time>2023-06-16T11:26:29Z</time></trkpt><trkpt lat="58.059733" lon="38.82146"><ele>98.7</ele><time>2023-06-16T11:26:31Z</time></trkpt><trkpt lat="58.059735" lon="38.8216"><ele>97.8</ele><time>2023-06-16T11:26:33Z</time></trkpt><trkpt lat="58.059712" lon="38.821767"><ele>97.8</ele><time>2023-06-16T11:26:35Z</time></trkpt><trkpt lat="58.05967" lon="38.821962"><ele>97.4</ele><time>2023-06-16T11:26:37Z</time></trkpt><trkpt lat="58.05966" lon="38.82213"><ele>96.7</ele><time>2023-06-16T11:26:39Z</time></trkpt><trkpt lat="58.059668" lon="38.822302"><ele>97.1</ele><time>2023-06-16T11:26:41Z</time></trkpt><trkpt lat="58.059663" lon="38.822483"><ele>97.1</ele><time>2023-06-16T11:26:43Z</time></trkpt><trkpt lat="58.059648" lon="38.822653"><ele>96.9</ele><time>2023-06-16T11:26:45Z</time></trkpt><trkpt lat="58.059642" lon="38.82283"><ele>97.0</ele><time>2023-06-16T11:26:47Z</time></trkpt><trkpt lat="58.059623" lon="38.82302"><ele>96.9</ele><time>2023-06-16T11:26:49Z</time></trkpt><trkpt lat="58.059588" lon="38.8232"><ele>96.8</ele><time>2023-06-16T11:26:51Z</time></trkpt><trkpt lat="58.059545" lon="38.82338"><ele>96.9</ele><time>2023-06-16T11:26:53Z</time></trkpt><trkpt lat="58.059488" lon="38.82354"><ele>97.2</ele><time>2023-06-16T11:26:55Z</time></trkpt><trkpt lat="58.059423" lon="38.823707"><ele>96.0</ele><time>2023-06-16T11:26:57Z</time></trkpt><trkpt lat="58.059353" lon="38.823843"><ele>95.7</ele><time>2023-06-16T11:26:59Z</time></trkpt><trkpt lat="58.059282" lon="38.82398"><ele>95.8</ele><time>2023-06-16T11:27:01Z</time></trkpt><trkpt lat="58.059215" lon="38.824132"><ele>95.6</ele><time>2023-06-16T11:27:03Z</time></trkpt><trkpt lat="58.059142" lon="38.82427"><ele>95.8</ele><time>2023-06-16T11:27:05Z</time></trkpt><trkpt lat="58.059075" lon="38.824398"><ele>95.3</ele><time>2023-06-16T11:27:07Z</time></trkpt><trkpt lat="58.059003" lon="38.82452"><ele>95.3</ele><time>2023-06-16T11:27:09Z</time></trkpt><trkpt lat="58.058927" lon="38.824638"><ele>95.1</ele><time>2023-06-16T11:27:11Z</time></trkpt><trkpt lat="58.058852" lon="38.824763"><ele>94.2</ele><time>2023-06-16T11:27:13Z</time></trkpt><trkpt lat="58.058787" lon="38.824903"><ele>95.7</ele><time>2023-06-16T11:27:15Z</time></trkpt><trkpt lat="58.058722" lon="38.825033"><ele>95.3</ele><time>2023-06-16T11:27:17Z</time></trkpt><trkpt lat="58.058657" lon="38.825153"><ele>95.5</ele><time>2023-06-16T11:27:19Z</time></trkpt><trkpt lat="58.058597" lon="38.825272"><ele>95.2</ele><time>2023-06-16T11:27:21Z</time></trkpt><trkpt lat="58.058538" lon="38.825372"><ele>95.0</ele><time>2023-06-16T11:27:23Z</time></trkpt><trkpt lat="58.058477" lon="38.825532"><ele>94.9</ele><time>2023-06-16T11:27:25Z</time></trkpt><trkpt lat="58.058402" lon="38.825692"><ele>94.4</ele><time>2023-06-16T11:27:27Z</time></trkpt><trkpt lat="58.058323" lon="38.825877"><ele>94.1</ele><time>2023-06-16T11:27:29Z</time></trkpt><trkpt lat="58.058273" lon="38.826058"><ele>94.3</ele><time>2023-06-16T11:27:31Z</time></trkpt><trkpt lat="58.058202" lon="38.826207"><ele>94.1</ele><time>2023-06-16T11:27:33Z</time></trkpt><trkpt lat="58.058162" lon="38.82639"><ele>93.9</ele><time>2023-06-16T11:27:35Z</time></trkpt><trkpt lat="58.058118" lon="38.826553"><ele>93.8</ele><time>2023-06-16T11:27:37Z</time></trkpt><trkpt lat="58.058075" lon="38.826758"><ele>93.6</ele><time>2023-06-16T11:27:39Z</time></trkpt><trkpt lat="58.058037" lon="38.826923"><ele>93.5</ele><time>2023-06-16T11:27:41Z</time></trkpt><trkpt lat="58.057998" lon="38.827067"><ele>93.7</ele><time>2023-06-16T11:27:43Z</time></trkpt><trkpt lat="58.057977" lon="38.827195"><ele>94.5</ele><time>2023-06-16T11:27:45Z</time></trkpt><trkpt lat="58.057972" lon="38.827335"><ele>94.7</ele><time>2023-06-16T11:27:47Z</time></trkpt><trkpt lat="58.058002" lon="38.827478"><ele>96.3</ele><time>2023-06-16T11:27:49Z</time></trkpt><trkpt lat="58.058012" lon="38.82762"><ele>95.6</ele><time>2023-06-16T11:27:51Z</time></trkpt><trkpt lat="58.058027" lon="38.827778"><ele>95.4</ele><time>2023-06-16T11:27:53Z</time></trkpt><trkpt lat="58.058042" lon="38.827942"><ele>95.4</ele><time>2023-06-16T11:27:55Z</time></trkpt><trkpt lat="58.058038" lon="38.828107"><ele>94.8</ele><time>2023-06-16T11:27:57Z</time></trkpt><trkpt lat="58.058027" lon="38.828277"><ele>94.5</ele><time>2023-06-16T11:27:59Z</time></trkpt><trkpt lat="58.058017" lon="38.828443"><ele>94.2</ele><time>2023-06-16T11:28:01Z</time></trkpt><trkpt lat="58.057998" lon="38.828607"><ele>93.8</ele><time>2023-06-16T11:28:03Z</time></trkpt><trkpt lat="58.057952" lon="38.828758"><ele>93.4</ele><time>2023-06-16T11:28:05Z</time></trkpt><trkpt lat="58.05797" lon="38.828958"><ele>93.5</ele><time>2023-06-16T11:28:08Z</time></trkpt><trkpt lat="58.057932" lon="38.829143"><ele>93.1</ele><time>2023-06-16T11:28:11Z</time></trkpt><trkpt lat="58.057885" lon="38.82928"><ele>92.6</ele><time>2023-06-16T11:28:13Z</time></trkpt><trkpt lat="58.057848" lon="38.829422"><ele>92.3</ele><time>2023-06-16T11:28:15Z</time></trkpt><trkpt lat="58.057803" lon="38.829545"><ele>92.8</ele><time>2023-06-16T11:28:17Z</time></trkpt><trkpt lat="58.057763" lon="38.829668"><ele>92.8</ele><time>2023-06-16T11:28:19Z</time></trkpt><trkpt lat="58.057728" lon="38.829792"><ele>92.8</ele><time>2023-06-16T11:28:21Z</time></trkpt><trkpt lat="58.057718" lon="38.829933"><ele>93.0</ele><time>2023-06-16T11:28:23Z</time></trkpt><trkpt lat="58.057732" lon="38.830128"><ele>93.7</ele><time>2023-06-16T11:28:26Z</time></trkpt><trkpt lat="58.057708" lon="38.83032"><ele>94.4</ele><time>2023-06-16T11:28:29Z</time></trkpt><trkpt lat="58.057652" lon="38.830428"><ele>94.6</ele><time>2023-06-16T11:28:31Z</time></trkpt><trkpt lat="58.057592" lon="38.83053"><ele>93.4</ele><time>2023-06-16T11:28:33Z</time></trkpt><trkpt lat="58.057528" lon="38.830635"><ele>92.9</ele><time>2023-06-16T11:28:35Z</time></trkpt><trkpt lat="58.057438" lon="38.830777"><ele>92.1</ele><time>2023-06-16T11:28:37Z</time></trkpt><trkpt lat="58.05736" lon="38.830905"><ele>91.1</ele><time>2023-06-16T11:28:39Z</time></trkpt><trkpt lat="58.057297" lon="38.830998"><ele>91.1</ele><time>2023-06-16T11:28:41Z</time></trkpt><trkpt lat="58.057208" lon="38.831092"><ele>90.2</ele><time>2023-06-16T11:28:43Z</time></trkpt><trkpt lat="58.05714" lon="38.831163"><ele>89.6</ele><time>2023-06-16T11:28:45Z</time></trkpt><trkpt lat="58.057037" lon="38.831252"><ele>90.1</ele><time>2023-06-16T11:28:47Z</time></trkpt><trkpt lat="58.056977" lon="38.831395"><ele>89.5</ele><time>2023-06-16T11:28:49Z</time></trkpt><trkpt lat="58.05691" lon="38.83153"><ele>89.5</ele><time>2023-06-16T11:28:51Z</time></trkpt><trkpt lat="58.056847" lon="38.831643"><ele>89.3</ele><time>2023-06-16T11:28:53Z</time></trkpt><trkpt lat="58.056798" lon="38.831805"><ele>89.6</ele><time>2023-06-16T11:28:55Z</time></trkpt><trkpt lat="58.05675" lon="38.831945"><ele>90.5</ele><time>2023-06-16T11:28:57Z</time></trkpt><trkpt lat="58.056703" lon="38.832063"><ele>91.7</ele><time>2023-06-16T11:28:59Z</time></trkpt><trkpt lat="58.056642" lon="38.83221"><ele>93.3</ele><time>2023-06-16T11:29:01Z</time></trkpt><trkpt lat="58.056602" lon="38.832348"><ele>94.1</ele><time>2023-06-16T11:29:03Z</time></trkpt><trkpt lat="58.05656" lon="38.832507"><ele>94.1</ele><time>2023-06-16T11:29:05Z</time></trkpt><trkpt lat="58.056523" lon="38.832695"><ele>94.0</ele><time>2023-06-16T11:29:07Z</time></trkpt><trkpt lat="58.056483" lon="38.83286"><ele>92.9</ele><time>2023-06-16T11:29:09Z</time></trkpt><trkpt lat="58.056433" lon="38.833057"><ele>92.5</ele><time>2023-06-16T11:29:11Z</time></trkpt><trkpt lat="58.05638" lon="38.833233"><ele>92.6</ele><time>2023-06-16T11:29:13Z</time></trkpt><trkpt lat="58.05633" lon="38.833415"><ele>91.7</ele><time>2023-06-16T11:29:15Z</time></trkpt><trkpt lat="58.056272" lon="38.833528"><ele>91.0</ele><time>2023-06-16T11:29:17Z</time></trkpt><trkpt lat="58.056237" lon="38.833665"><ele>90.2</ele><time>2023-06-16T11:29:19Z</time></trkpt><trkpt lat="58.05618" lon="38.833835"><ele>90.7</ele><time>2023-06-16T11:29:21Z</time></trkpt><trkpt lat="58.056118" lon="38.834035"><ele>91.3</ele><time>2023-06-16T11:29:23Z</time></trkpt><trkpt lat="58.056062" lon="38.834228"><ele>91.3</ele><time>2023-06-16T11:29:25Z</time></trkpt><trkpt lat="58.056008" lon="38.834405"><ele>90.9</ele><time>2023-06-16T11:29:27Z</time></trkpt><trkpt lat="58.05595" lon="38.834563"><ele>91.1</ele><time>2023-06-16T11:29:29Z</time></trkpt><trkpt lat="58.055885" lon="38.83471"><ele>90.8</ele><time>2023-06-16T11:29:31Z</time></trkpt><trkpt lat="58.055833" lon="38.83483"><ele>90.8</ele><time>2023-06-16T11:29:33Z</time></trkpt><trkpt lat="58.055778" lon="38.834987"><ele>90.2</ele><time>2023-06-16T11:29:35Z</time></trkpt><trkpt lat="58.05573" lon="38.835122"><ele>90.0</ele><time>2023-06-16T11:29:37Z</time></trkpt><trkpt lat="58.05568" lon="38.835285"><ele>90.3</ele><time>2023-06-16T11:29:39Z</time></trkpt><trkpt lat="58.05563" lon="38.83546"><ele>90.2</ele><time>2023-06-16T11:29:41Z</time></trkpt><trkpt lat="58.055577" lon="38.835653"><ele>90.6</ele><time>2023-06-16T11:29:43Z</time></trkpt><trkpt lat="58.055523" lon="38.83583"><ele>90.8</ele><time>2023-06-16T11:29:45Z</time></trkpt><trkpt lat="58.055472" lon="38.835973"><ele>92.1</ele><time>2023-06-16T11:29:47Z</time></trkpt><trkpt lat="58.05542" lon="38.836127"><ele>92.2</ele><time>2023-06-16T11:29:49Z</time></trkpt><trkpt lat="58.055378" lon="38.836253"><ele>91.6</ele><time>2023-06-16T11:29:51Z</time></trkpt><trkpt lat="58.055333" lon="38.836427"><ele>91.3</ele><time>2023-06-16T11:29:53Z</time></trkpt><trkpt lat="58.055288" lon="38.836602"><ele>90.4</ele><time>2023-06-16T11:29:55Z</time></trkpt><trkpt lat="58.055242" lon="38.836715"><ele>90.4</ele><time>2023-06-16T11:29:57Z</time></trkpt><trkpt lat="58.055158" lon="38.836797"><ele>88.0</ele><time>2023-06-16T11:30:00Z</time></trkpt><trkpt lat="58.055107" lon="38.836988"><ele>87.9</ele><time>2023-06-16T11:30:02Z</time></trkpt><trkpt lat="58.055047" lon="38.837162"><ele>87.8</ele><time>2023-06-16T11:30:04Z</time></trkpt><trkpt lat="58.05499" lon="38.837275"><ele>85.7</ele><time>2023-06-16T11:30:06Z</time></trkpt><trkpt lat="58.05494" lon="38.837457"><ele>87.0</ele><time>2023-06-16T11:30:08Z</time></trkpt><trkpt lat="58.054877" lon="38.837663"><ele>88.3</ele><time>2023-06-16T11:30:10Z</time></trkpt><trkpt lat="58.054805" lon="38.837848"><ele>87.7</ele><time>2023-06-16T11:30:12Z</time></trkpt><trkpt lat="58.054762" lon="38.838067"><ele>88.5</ele><time>2023-06-16T11:30:14Z</time></trkpt><trkpt lat="58.054712" lon="38.838243"><ele>89.9</ele><time>2023-06-16T11:30:16Z</time></trkpt><trkpt lat="58.054663" lon="38.838422"><ele>89.8</ele><time>2023-06-16T11:30:18Z</time></trkpt><trkpt lat="58.054587" lon="38.838558"><ele>89.9</ele><time>2023-06-16T11:30:20Z</time></trkpt><trkpt lat="58.054548" lon="38.838775"><ele>90.8</ele><time>2023-06-16T11:30:22Z</time></trkpt><trkpt lat="58.05449" lon="38.838983"><ele>91.9</ele><time>2023-06-16T11:30:24Z</time></trkpt><trkpt lat="58.054438" lon="38.839173"><ele>91.4</ele><time>2023-06-16T11:30:26Z</time></trkpt><trkpt lat="58.054377" lon="38.839378"><ele>91.3</ele><time>2023-06-16T11:30:28Z</time></trkpt><trkpt lat="58.054315" lon="38.83956"><ele>90.9</ele><time>2023-06-16T11:30:30Z</time></trkpt><trkpt lat="58.054228" lon="38.839733"><ele>92.0</ele><time>2023-06-16T11:30:32Z</time></trkpt><trkpt lat="58.054165" lon="38.839915"><ele>92.3</ele><time>2023-06-16T11:30:34Z</time></trkpt><trkpt lat="58.054103" lon="38.840115"><ele>92.4</ele><time>2023-06-16T11:30:36Z</time></trkpt><trkpt lat="58.054047" lon="38.840333"><ele>92.4</ele><time>2023-06-16T11:30:38Z</time></trkpt><trkpt lat="58.053988" lon="38.84054"><ele>92.8</ele><time>2023-06-16T11:30:40Z</time></trkpt><trkpt lat="58.053935" lon="38.840767"><ele>93.9</ele><time>2023-06-16T11:30:42Z</time></trkpt><trkpt lat="58.05386" lon="38.840915"><ele>93.7</ele><time>2023-06-16T11:30:44Z</time></trkpt><trkpt lat="58.053757" lon="38.841072"><ele>93.7</ele><time>2023-06-16T11:30:46Z</time></trkpt><trkpt lat="58.053688" lon="38.841265"><ele>94.1</ele><time>2023-06-16T11:30:48Z</time></trkpt><trkpt lat="58.053627" lon="38.841493"><ele>95.5</ele><time>2023-06-16T11:30:50Z</time></trkpt><trkpt lat="58.053557" lon="38.84173"><ele>97.0</ele><time>2023-06-16T11:30:52Z</time></trkpt><trkpt lat="58.053482" lon="38.841938"><ele>97.3</ele><time>2023-06-16T11:30:54Z</time></trkpt><trkpt lat="58.05342" lon="38.842148"><ele>95.6</ele><time>2023-06-16T11:30:56Z</time></trkpt><trkpt lat="58.053347" lon="38.842343"><ele>94.9</ele><time>2023-06-16T11:30:58Z</time></trkpt><trkpt lat="58.05331" lon="38.84246"><ele>94.3</ele><time>2023-06-16T11:30:59Z</time></trkpt><trkpt lat="58.05324" lon="38.842672"><ele>92.8</ele><time>2023-06-16T11:31:01Z</time></trkpt><trkpt lat="58.053175" lon="38.842877"><ele>92.2</ele><time>2023-06-16T11:31:03Z</time></trkpt><trkpt lat="58.053093" lon="38.8431"><ele>93.1</ele><time>2023-06-16T11:31:05Z</time></trkpt><trkpt lat="58.05302" lon="38.843307"><ele>93.1</ele><time>2023-06-16T11:31:07Z</time></trkpt><trkpt lat="58.052953" lon="38.843497"><ele>92.9</ele><time>2023-06-16T11:31:09Z</time></trkpt><trkpt lat="58.052882" lon="38.843707"><ele>92.4</ele><time>2023-06-16T11:31:11Z</time></trkpt><trkpt lat="58.05282" lon="38.843915"><ele>92.8</ele><time>2023-06-16T11:31:13Z</time></trkpt><trkpt lat="58.052758" lon="38.844077"><ele>92.9</ele><time>2023-06-16T11:31:15Z</time></trkpt><trkpt lat="58.052655" lon="38.844168"><ele>92.5</ele><time>2023-06-16T11:31:17Z</time></trkpt><trkpt lat="58.052542" lon="38.844183"><ele>92.2</ele><time>2023-06-16T11:31:19Z</time></trkpt><trkpt lat="58.052462" lon="38.84418"><ele>92.2</ele><time>2023-06-16T11:31:21Z</time></trkpt><trkpt lat="58.052383" lon="38.844185"><ele>93.8</ele><time>2023-06-16T11:31:23Z</time></trkpt><trkpt lat="58.052287" lon="38.844275"><ele>94.0</ele><time>2023-06-16T11:31:25Z</time></trkpt><trkpt lat="58.052197" lon="38.844332"><ele>94.8</ele><time>2023-06-16T11:31:27Z</time></trkpt><trkpt lat="58.052095" lon="38.844383"><ele>95.3</ele><time>2023-06-16T11:31:29Z</time></trkpt><trkpt lat="58.051997" lon="38.844485"><ele>96.2</ele><time>2023-06-16T11:31:31Z</time></trkpt><trkpt lat="58.051913" lon="38.844535"><ele>95.4</ele><time>2023-06-16T11:31:34Z</time></trkpt><trkpt lat="58.051833" lon="38.844573"><ele>95.4</ele><time>2023-06-16T11:31:36Z</time></trkpt><trkpt lat="58.051763" lon="38.844542"><ele>94.9</ele><time>2023-06-16T11:31:38Z</time></trkpt><trkpt lat="58.05167" lon="38.844572"><ele>94.8</ele><time>2023-06-16T11:31:40Z</time></trkpt><trkpt lat="58.051617" lon="38.844708"><ele>95.5</ele><time>2023-06-16T11:31:42Z</time></trkpt><trkpt lat="58.05158" lon="38.84486"><ele>95.3</ele><time>2023-06-16T11:31:44Z</time></trkpt><trkpt lat="58.051543" lon="38.845033"><ele>94.5</ele><time>2023-06-16T11:31:46Z</time></trkpt><trkpt lat="58.051515" lon="38.845187"><ele>94.7</ele><time>2023-06-16T11:31:48Z</time></trkpt><trkpt lat="58.051478" lon="38.845325"><ele>95.2</ele><time>2023-06-16T11:31:50Z</time></trkpt><trkpt lat="58.051442" lon="38.845473"><ele>95.4</ele><time>2023-06-16T11:31:52Z</time></trkpt><trkpt lat="58.051407" lon="38.845633"><ele>96.0</ele><time>2023-06-16T11:31:54Z</time></trkpt><trkpt lat="58.05138" lon="38.845798"><ele>96.2</ele><time>2023-06-16T11:31:56Z</time></trkpt><trkpt lat="58.051355" lon="38.845947"><ele>96.4</ele><time>2023-06-16T11:31:58Z</time></trkpt><trkpt lat="58.051328" lon="38.846098"><ele>95.3</ele><time>2023-06-16T11:32:00Z</time></trkpt><trkpt lat="58.051302" lon="38.846247"><ele>96.0</ele><time>2023-06-16T11:32:02Z</time></trkpt><trkpt lat="58.051277" lon="38.846388"><ele>96.3</ele><time>2023-06-16T11:32:04Z</time></trkpt><trkpt lat="58.051248" lon="38.846573"><ele>96.2</ele><time>2023-06-16T11:32:07Z</time></trkpt><trkpt lat="58.051222" lon="38.846702"><ele>96.7</ele><time>2023-06-16T11:32:10Z</time></trkpt><trkpt lat="58.051152" lon="38.846575"><ele>97.4</ele><time>2023-06-16T11:32:30Z</time></trkpt><trkpt lat="58.051065" lon="38.846482"><ele>99.2</ele><time>2023-06-16T11:32:33Z</time></trkpt><trkpt lat="58.050997" lon="38.846442"><ele>99.7</ele><time>2023-06-16T11:32:35Z</time></trkpt><trkpt lat="58.050922" lon="38.846388"><ele>100.4</ele><time>2023-06-16T11:32:37Z</time></trkpt><trkpt lat="58.05084" lon="38.846327"><ele>100.4</ele><time>2023-06-16T11:32:39Z</time></trkpt><trkpt lat="58.050762" lon="38.846278"><ele>100.5</ele><time>2023-06-16T11:32:41Z</time></trkpt><trkpt lat="58.05069" lon="38.846245"><ele>100.9</ele><time>2023-06-16T11:32:43Z</time></trkpt><trkpt lat="58.050615" lon="38.846208"><ele>101.0</ele><time>2023-06-16T11:32:45Z</time></trkpt><trkpt lat="58.050513" lon="38.846148"><ele>100.2</ele><time>2023-06-16T11:32:48Z</time></trkpt><trkpt lat="58.05044" lon="38.846113"><ele>100.5</ele><time>2023-06-16T11:32:50Z</time></trkpt><trkpt lat="58.050348" lon="38.846113"><ele>100.3</ele><time>2023-06-16T11:32:53Z</time></trkpt><trkpt lat="58.050268" lon="38.84608"><ele>98.9</ele><time>2023-06-16T11:32:57Z</time></trkpt><trkpt lat="58.050198" lon="38.845987"><ele>99.5</ele><time>2023-06-16T11:33:00Z</time></trkpt><trkpt lat="58.050105" lon="38.845893"><ele>100.2</ele><time>2023-06-16T11:33:03Z</time></trkpt><trkpt lat="58.050012" lon="38.845825"><ele>100.8</ele><time>2023-06-16T11:33:06Z</time></trkpt><trkpt lat="58.049932" lon="38.845822"><ele>100.5</ele><time>2023-06-16T11:33:09Z</time></trkpt><trkpt lat="58.049848" lon="38.845775"><ele>100.5</ele><time>2023-06-16T11:33:13Z</time></trkpt><trkpt lat="58.049772" lon="38.845737"><ele>100.6</ele><time>2023-06-16T11:33:16Z</time></trkpt><trkpt lat="58.049698" lon="38.845698"><ele>100.5</ele><time>2023-06-16T11:33:19Z</time></trkpt><trkpt lat="58.04961" lon="38.845638"><ele>101.1</ele><time>2023-06-16T11:33:22Z</time></trkpt><trkpt lat="58.049508" lon="38.845593"><ele>100.7</ele><time>2023-06-16T11:33:25Z</time></trkpt><trkpt lat="58.049438" lon="38.845558"><ele>100.8</ele><time>2023-06-16T11:33:27Z</time></trkpt><trkpt lat="58.049347" lon="38.845513"><ele>100.8</ele><time>2023-06-16T11:33:30Z</time></trkpt><trkpt lat="58.049263" lon="38.845467"><ele>100.6</ele><time>2023-06-16T11:33:33Z</time></trkpt><trkpt lat="58.04917" lon="38.8454"><ele>100.3</ele><time>2023-06-16T11:33:54Z</time></trkpt><trkpt lat="58.04908" lon="38.845327"><ele>100.7</ele><time>2023-06-16T11:33:57Z</time></trkpt><trkpt lat="58.04902" lon="38.845445"><ele>100.3</ele><time>2023-06-16T11:34:01Z</time></trkpt><trkpt lat="58.048977" lon="38.84558"><ele>100.4</ele><time>2023-06-16T11:34:05Z</time></trkpt><trkpt lat="58.048618" lon="38.849963"><ele>102.5</ele><time>2023-06-16T12:05:21Z</time></trkpt><trkpt lat="58.04864" lon="38.849813"><ele>103.6</ele><time>2023-06-16T12:05:26Z</time></trkpt><trkpt lat="58.048717" lon="38.849793"><ele>103.5</ele><time>2023-06-16T12:05:31Z</time></trkpt><trkpt lat="58.048792" lon="38.849808"><ele>103.5</ele><time>2023-06-16T12:05:35Z</time></trkpt><trkpt lat="58.048863" lon="38.849823"><ele>103.1</ele><time>2023-06-16T12:05:40Z</time></trkpt><trkpt lat="58.048943" lon="38.84983"><ele>103.4</ele><time>2023-06-16T12:05:44Z</time></trkpt><trkpt lat="58.049015" lon="38.849902"><ele>103.4</ele><time>2023-06-16T12:05:47Z</time></trkpt><trkpt lat="58.049102" lon="38.849998"><ele>103.5</ele><time>2023-06-16T12:05:51Z</time></trkpt><trkpt lat="58.049188" lon="38.850068"><ele>103.4</ele><time>2023-06-16T12:05:54Z</time></trkpt><trkpt lat="58.049273" lon="38.850118"><ele>103.6</ele><time>2023-06-16T12:05:57Z</time></trkpt><trkpt lat="58.04936" lon="38.850173"><ele>103.9</ele><time>2023-06-16T12:06:01Z</time></trkpt><trkpt lat="58.049448" lon="38.85021"><ele>102.7</ele><time>2023-06-16T12:06:20Z</time></trkpt><trkpt lat="58.049523" lon="38.850235"><ele>103.5</ele><time>2023-06-16T12:06:49Z</time></trkpt><trkpt lat="58.04958" lon="38.850368"><ele>103.2</ele><time>2023-06-16T12:06:52Z</time></trkpt><trkpt lat="58.049542" lon="38.850538"><ele>103.0</ele><time>2023-06-16T12:06:55Z</time></trkpt><trkpt lat="58.049495" lon="38.850653"><ele>102.7</ele><time>2023-06-16T12:06:57Z</time></trkpt><trkpt lat="58.049453" lon="38.850783"><ele>102.1</ele><time>2023-06-16T12:06:59Z</time></trkpt><trkpt lat="58.049425" lon="38.850918"><ele>102.0</ele><time>2023-06-16T12:07:01Z</time></trkpt><trkpt lat="58.049398" lon="38.85107"><ele>101.7</ele><time>2023-06-16T12:07:04Z</time></trkpt><trkpt lat="58.04937" lon="38.851197"><ele>101.5</ele><time>2023-06-16T12:07:07Z</time></trkpt><trkpt lat="58.049342" lon="38.851342"><ele>101.6</ele><time>2023-06-16T12:07:10Z</time></trkpt><trkpt lat="58.049313" lon="38.851505"><ele>101.5</ele><time>2023-06-16T12:07:14Z</time></trkpt><trkpt lat="58.049277" lon="38.85164"><ele>100.4</ele><time>2023-06-16T12:07:19Z</time></trkpt><trkpt lat="58.049238" lon="38.851768"><ele>100.9</ele><time>2023-06-16T12:07:22Z</time></trkpt><trkpt lat="58.049208" lon="38.85192"><ele>101.9</ele><time>2023-06-16T12:07:25Z</time></trkpt><trkpt lat="58.049173" lon="38.852072"><ele>102.0</ele><time>2023-06-16T12:07:28Z</time></trkpt><trkpt lat="58.04915" lon="38.852258"><ele>102.1</ele><time>2023-06-16T12:07:31Z</time></trkpt><trkpt lat="58.049113" lon="38.852432"><ele>102.7</ele><time>2023-06-16T12:07:34Z</time></trkpt><trkpt lat="58.049073" lon="38.852563"><ele>102.3</ele><time>2023-06-16T12:07:37Z</time></trkpt><trkpt lat="58.04904" lon="38.852712"><ele>102.7</ele><time>2023-06-16T12:07:40Z</time></trkpt><trkpt lat="58.049012" lon="38.852885"><ele>101.1</ele><time>2023-06-16T12:07:44Z</time></trkpt><trkpt lat="58.048992" lon="38.853017"><ele>101.0</ele><time>2023-06-16T12:07:46Z</time></trkpt><trkpt lat="58.048973" lon="38.853155"><ele>101.3</ele><time>2023-06-16T12:07:48Z</time></trkpt><trkpt lat="58.048948" lon="38.853335"><ele>101.5</ele><time>2023-06-16T12:07:51Z</time></trkpt><trkpt lat="58.048922" lon="38.853495"><ele>101.0</ele><time>2023-06-16T12:07:54Z</time></trkpt><trkpt lat="58.048898" lon="38.853688"><ele>100.3</ele><time>2023-06-16T12:07:57Z</time></trkpt><trkpt lat="58.048875" lon="38.853827"><ele>100.4</ele><time>2023-06-16T12:07:59Z</time></trkpt><trkpt lat="58.048845" lon="38.853962"><ele>100.0</ele><time>2023-06-16T12:08:01Z</time></trkpt><trkpt lat="58.048822" lon="38.854093"><ele>99.6</ele><time>2023-06-16T12:08:03Z</time></trkpt><trkpt lat="58.048798" lon="38.85427"><ele>100.1</ele><time>2023-06-16T12:08:06Z</time></trkpt><trkpt lat="58.048783" lon="38.85444"><ele>99.4</ele><time>2023-06-16T12:08:09Z</time></trkpt><trkpt lat="58.048745" lon="38.854628"><ele>99.8</ele><time>2023-06-16T12:08:12Z</time></trkpt><trkpt lat="58.048715" lon="38.854755"><ele>99.8</ele><time>2023-06-16T12:08:14Z</time></trkpt><trkpt lat="58.048687" lon="38.85489"><ele>99.9</ele><time>2023-06-16T12:08:16Z</time></trkpt><trkpt lat="58.048657" lon="38.855057"><ele>100.2</ele><time>2023-06-16T12:08:19Z</time></trkpt><trkpt lat="58.048613" lon="38.855238"><ele>100.3</ele><time>2023-06-16T12:08:22Z</time></trkpt><trkpt lat="58.04858" lon="38.855385"><ele>101.1</ele><time>2023-06-16T12:08:24Z</time></trkpt><trkpt lat="58.04855" lon="38.85556"><ele>101.7</ele><time>2023-06-16T12:08:26Z</time></trkpt><trkpt lat="58.048533" lon="38.855717"><ele>101.7</ele><time>2023-06-16T12:08:28Z</time></trkpt><trkpt lat="58.048512" lon="38.855947"><ele>102.0</ele><time>2023-06-16T12:08:31Z</time></trkpt><trkpt lat="58.048482" lon="38.856138"><ele>102.2</ele><time>2023-06-16T12:08:33Z</time></trkpt><trkpt lat="58.048452" lon="38.856328"><ele>102.5</ele><time>2023-06-16T12:08:35Z</time></trkpt><trkpt lat="58.048413" lon="38.85647"><ele>102.7</ele><time>2023-06-16T12:08:37Z</time></trkpt><trkpt lat="58.048368" lon="38.856615"><ele>102.7</ele><time>2023-06-16T12:08:40Z</time></trkpt><trkpt lat="58.048327" lon="38.856783"><ele>103.1</ele><time>2023-06-16T12:08:44Z</time></trkpt><trkpt lat="58.0483" lon="38.856932"><ele>102.9</ele><time>2023-06-16T12:08:47Z</time></trkpt><trkpt lat="58.048273" lon="38.857078"><ele>104.2</ele><time>2023-06-16T12:08:51Z</time></trkpt><trkpt lat="58.048345" lon="38.85705"><ele>101.4</ele><time>2023-06-16T12:09:31Z</time></trkpt><trkpt lat="58.048405" lon="38.857302"><ele>101.4</ele><time>2023-06-16T12:10:09Z</time></trkpt><trkpt lat="58.048355" lon="38.857173"><ele>101.7</ele><time>2023-06-16T12:10:47Z</time></trkpt><trkpt lat="58.048305" lon="38.857063"><ele>105.2</ele><time>2023-06-16T12:11:55Z</time></trkpt><trkpt lat="58.048293" lon="38.85721"><ele>103.9</ele><time>2023-06-16T12:12:33Z</time></trkpt><trkpt lat="58.048372" lon="38.857273"><ele>102.7</ele><time>2023-06-16T12:12:37Z</time></trkpt><trkpt lat="58.048443" lon="38.857347"><ele>103.0</ele><time>2023-06-16T12:12:41Z</time></trkpt><trkpt lat="58.048512" lon="38.857405"><ele>104.3</ele><time>2023-06-16T12:12:47Z</time></trkpt><trkpt lat="58.04858" lon="38.857465"><ele>104.0</ele><time>2023-06-16T12:12:51Z</time></trkpt><trkpt lat="58.048648" lon="38.857557"><ele>104.5</ele><time>2023-06-16T12:12:58Z</time></trkpt><trkpt lat="58.048722" lon="38.857588"><ele>104.4</ele><time>2023-06-16T12:13:04Z</time></trkpt><trkpt lat="58.048793" lon="38.857672"><ele>104.2</ele><time>2023-06-16T12:13:10Z</time></trkpt><trkpt lat="58.048878" lon="38.857728"><ele>104.4</ele><time>2023-06-16T12:13:14Z</time></trkpt><trkpt lat="58.048947" lon="38.85778"><ele>103.9</ele><time>2023-06-16T12:13:17Z</time></trkpt><trkpt lat="58.049005" lon="38.857698"><ele>103.5</ele><time>2023-06-16T12:13:20Z</time></trkpt><trkpt lat="58.049042" lon="38.85751"><ele>103.1</ele><time>2023-06-16T12:13:23Z</time></trkpt><trkpt lat="58.049073" lon="38.857322"><ele>102.8</ele><time>2023-06-16T12:13:26Z</time></trkpt><trkpt lat="58.049113" lon="38.857187"><ele>102.7</ele><time>2023-06-16T12:13:29Z</time></trkpt><trkpt lat="58.049147" lon="38.857058"><ele>102.6</ele><time>2023-06-16T12:13:31Z</time></trkpt><trkpt lat="58.04918" lon="38.856918"><ele>102.8</ele><time>2023-06-16T12:13:33Z</time></trkpt><trkpt lat="58.049205" lon="38.85678"><ele>103.0</ele><time>2023-06-16T12:13:35Z</time></trkpt><trkpt lat="58.049207" lon="38.856643"><ele>103.2</ele><time>2023-06-16T12:13:41Z</time></trkpt><trkpt lat="58.049253" lon="38.856503"><ele>102.1</ele><time>2023-06-16T12:13:48Z</time></trkpt><trkpt lat="58.04931" lon="38.856357"><ele>102.2</ele><time>2023-06-16T12:13:50Z</time></trkpt><trkpt lat="58.049357" lon="38.856163"><ele>102.4</ele><time>2023-06-16T12:13:52Z</time></trkpt><trkpt lat="58.049388" lon="38.85597"><ele>102.3</ele><time>2023-06-16T12:13:54Z</time></trkpt><trkpt lat="58.049415" lon="38.855815"><ele>102.2</ele><time>2023-06-16T12:13:56Z</time></trkpt><trkpt lat="58.049442" lon="38.855677"><ele>101.7</ele><time>2023-06-16T12:13:58Z</time></trkpt><trkpt lat="58.049473" lon="38.855493"><ele>101.1</ele><time>2023-06-16T12:14:01Z</time></trkpt><trkpt lat="58.049507" lon="38.855317"><ele>99.6</ele><time>2023-06-16T12:14:04Z</time></trkpt><trkpt lat="58.049545" lon="38.855193"><ele>99.6</ele><time>2023-06-16T12:14:06Z</time></trkpt><trkpt lat="58.049577" lon="38.855035"><ele>99.8</ele><time>2023-06-16T12:14:08Z</time></trkpt><trkpt lat="58.049597" lon="38.854878"><ele>98.3</ele><time>2023-06-16T12:14:10Z</time></trkpt><trkpt lat="58.049618" lon="38.854738"><ele>98.0</ele><time>2023-06-16T12:14:12Z</time></trkpt><trkpt lat="58.049643" lon="38.85461"><ele>98.3</ele><time>2023-06-16T12:14:14Z</time></trkpt><trkpt lat="58.04967" lon="38.854433"><ele>98.0</ele><time>2023-06-16T12:14:17Z</time></trkpt><trkpt lat="58.049695" lon="38.854288"><ele>97.9</ele><time>2023-06-16T12:14:20Z</time></trkpt><trkpt lat="58.049717" lon="38.854138"><ele>97.5</ele><time>2023-06-16T12:14:23Z</time></trkpt><trkpt lat="58.04974" lon="38.85398"><ele>98.3</ele><time>2023-06-16T12:14:26Z</time></trkpt><trkpt lat="58.049777" lon="38.853812"><ele>98.9</ele><time>2023-06-16T12:14:29Z</time></trkpt><trkpt lat="58.049805" lon="38.853637"><ele>99.1</ele><time>2023-06-16T12:14:32Z</time></trkpt><trkpt lat="58.049825" lon="38.853485"><ele>99.6</ele><time>2023-06-16T12:14:35Z</time></trkpt><trkpt lat="58.049857" lon="38.85336"><ele>99.8</ele><time>2023-06-16T12:14:38Z</time></trkpt><trkpt lat="58.049885" lon="38.853218"><ele>99.6</ele><time>2023-06-16T12:14:41Z</time></trkpt><trkpt lat="58.049902" lon="38.853038"><ele>99.6</ele><time>2023-06-16T12:14:45Z</time></trkpt><trkpt lat="58.049918" lon="38.852898"><ele>98.9</ele><time>2023-06-16T12:14:48Z</time></trkpt><trkpt lat="58.049937" lon="38.85275"><ele>98.0</ele><time>2023-06-16T12:14:52Z</time></trkpt><trkpt lat="58.049955" lon="38.852603"><ele>98.3</ele><time>2023-06-16T12:14:56Z</time></trkpt><trkpt lat="58.050038" lon="38.852542"><ele>99.2</ele><time>2023-06-16T12:15:01Z</time></trkpt><trkpt lat="58.050085" lon="38.852682"><ele>97.9</ele><time>2023-06-16T12:15:05Z</time></trkpt><trkpt lat="58.0501" lon="38.852847"><ele>97.6</ele><time>2023-06-16T12:15:08Z</time></trkpt><trkpt lat="58.050168" lon="38.852913"><ele>96.9</ele><time>2023-06-16T12:15:10Z</time></trkpt><trkpt lat="58.05024" lon="38.852867"><ele>96.5</ele><time>2023-06-16T12:15:11Z</time></trkpt><trkpt lat="58.050325" lon="38.852815"><ele>96.1</ele><time>2023-06-16T12:15:13Z</time></trkpt><trkpt lat="58.050378" lon="38.852717"><ele>95.5</ele><time>2023-06-16T12:15:15Z</time></trkpt><trkpt lat="58.050433" lon="38.852597"><ele>95.7</ele><time>2023-06-16T12:15:17Z</time></trkpt><trkpt lat="58.05051" lon="38.85245"><ele>96.7</ele><time>2023-06-16T12:15:20Z</time></trkpt><trkpt lat="58.05056" lon="38.852315"><ele>96.4</ele><time>2023-06-16T12:15:22Z</time></trkpt><trkpt lat="58.050607" lon="38.8522"><ele>95.6</ele><time>2023-06-16T12:15:24Z</time></trkpt><trkpt lat="58.050657" lon="38.852067"><ele>95.6</ele><time>2023-06-16T12:15:26Z</time></trkpt><trkpt lat="58.050722" lon="38.851932"><ele>95.3</ele><time>2023-06-16T12:15:28Z</time></trkpt><trkpt lat="58.050775" lon="38.851773"><ele>94.4</ele><time>2023-06-16T12:15:30Z</time></trkpt><trkpt lat="58.050832" lon="38.851652"><ele>94.5</ele><time>2023-06-16T12:15:32Z</time></trkpt><trkpt lat="58.050892" lon="38.851505"><ele>94.1</ele><time>2023-06-16T12:15:34Z</time></trkpt><trkpt lat="58.050942" lon="38.851348"><ele>93.5</ele><time>2023-06-16T12:15:36Z</time></trkpt><trkpt lat="58.050992" lon="38.8512"><ele>93.1</ele><time>2023-06-16T12:15:38Z</time></trkpt><trkpt lat="58.051038" lon="38.851057"><ele>92.4</ele><time>2023-06-16T12:15:40Z</time></trkpt><trkpt lat="58.051093" lon="38.85091"><ele>92.1</ele><time>2023-06-16T12:15:42Z</time></trkpt><trkpt lat="58.051148" lon="38.850777"><ele>91.8</ele><time>2023-06-16T12:15:44Z</time></trkpt><trkpt lat="58.051197" lon="38.850622"><ele>91.0</ele><time>2023-06-16T12:15:46Z</time></trkpt><trkpt lat="58.051265" lon="38.850485"><ele>91.2</ele><time>2023-06-16T12:15:48Z</time></trkpt><trkpt lat="58.051332" lon="38.850332"><ele>91.7</ele><time>2023-06-16T12:15:50Z</time></trkpt><trkpt lat="58.051397" lon="38.850182"><ele>93.1</ele><time>2023-06-16T12:15:52Z</time></trkpt><trkpt lat="58.051438" lon="38.850033"><ele>92.5</ele><time>2023-06-16T12:15:54Z</time></trkpt><trkpt lat="58.051485" lon="38.849873"><ele>91.6</ele><time>2023-06-16T12:15:56Z</time></trkpt><trkpt lat="58.051542" lon="38.849685"><ele>90.9</ele><time>2023-06-16T12:15:58Z</time></trkpt><trkpt lat="58.051602" lon="38.849472"><ele>90.7</ele><time>2023-06-16T12:16:00Z</time></trkpt><trkpt lat="58.051667" lon="38.849273"><ele>90.2</ele><time>2023-06-16T12:16:02Z</time></trkpt><trkpt lat="58.051708" lon="38.849132"><ele>89.9</ele><time>2023-06-16T12:16:04Z</time></trkpt><trkpt lat="58.051752" lon="38.848975"><ele>89.9</ele><time>2023-06-16T12:16:06Z</time></trkpt><trkpt lat="58.051783" lon="38.848807"><ele>90.4</ele><time>2023-06-16T12:16:08Z</time></trkpt><trkpt lat="58.051807" lon="38.848638"><ele>90.8</ele><time>2023-06-16T12:16:10Z</time></trkpt><trkpt lat="58.051833" lon="38.848478"><ele>89.9</ele><time>2023-06-16T12:16:12Z</time></trkpt><trkpt lat="58.051862" lon="38.848303"><ele>90.0</ele><time>2023-06-16T12:16:14Z</time></trkpt><trkpt lat="58.051898" lon="38.848172"><ele>91.2</ele><time>2023-06-16T12:16:16Z</time></trkpt><trkpt lat="58.051923" lon="38.847998"><ele>91.8</ele><time>2023-06-16T12:16:18Z</time></trkpt><trkpt lat="58.051955" lon="38.847837"><ele>91.9</ele><time>2023-06-16T12:16:20Z</time></trkpt><trkpt lat="58.051983" lon="38.84767"><ele>91.8</ele><time>2023-06-16T12:16:22Z</time></trkpt><trkpt lat="58.052028" lon="38.847538"><ele>91.7</ele><time>2023-06-16T12:16:24Z</time></trkpt><trkpt lat="58.052065" lon="38.847357"><ele>91.7</ele><time>2023-06-16T12:16:26Z</time></trkpt><trkpt lat="58.052082" lon="38.847185"><ele>92.5</ele><time>2023-06-16T12:16:28Z</time></trkpt><trkpt lat="58.052108" lon="38.847028"><ele>92.6</ele><time>2023-06-16T12:16:30Z</time></trkpt><trkpt lat="58.052138" lon="38.846857"><ele>92.9</ele><time>2023-06-16T12:16:32Z</time></trkpt><trkpt lat="58.052192" lon="38.846702"><ele>93.5</ele><time>2023-06-16T12:16:34Z</time></trkpt><trkpt lat="58.052252" lon="38.84654"><ele>93.0</ele><time>2023-06-16T12:16:36Z</time></trkpt><trkpt lat="58.0523" lon="38.846422"><ele>93.0</ele><time>2023-06-16T12:16:38Z</time></trkpt><trkpt lat="58.052347" lon="38.8463"><ele>92.7</ele><time>2023-06-16T12:16:40Z</time></trkpt><trkpt lat="58.052373" lon="38.84615"><ele>92.3</ele><time>2023-06-16T12:16:42Z</time></trkpt><trkpt lat="58.052398" lon="38.84597"><ele>92.2</ele><time>2023-06-16T12:16:44Z</time></trkpt><trkpt lat="58.0524" lon="38.845817"><ele>92.5</ele><time>2023-06-16T12:16:46Z</time></trkpt><trkpt lat="58.052423" lon="38.845678"><ele>92.4</ele><time>2023-06-16T12:16:48Z</time></trkpt><trkpt lat="58.052448" lon="38.84554"><ele>92.3</ele><time>2023-06-16T12:16:50Z</time></trkpt><trkpt lat="58.052473" lon="38.845403"><ele>92.3</ele><time>2023-06-16T12:16:52Z</time></trkpt><trkpt lat="58.052507" lon="38.845217"><ele>92.8</ele><time>2023-06-16T12:16:55Z</time></trkpt><trkpt lat="58.052537" lon="38.845015"><ele>93.7</ele><time>2023-06-16T12:16:58Z</time></trkpt><trkpt lat="58.052572" lon="38.844873"><ele>94.1</ele><time>2023-06-16T12:17:00Z</time></trkpt><trkpt lat="58.052618" lon="38.844742"><ele>93.6</ele><time>2023-06-16T12:17:02Z</time></trkpt><trkpt lat="58.05266" lon="38.844625"><ele>93.6</ele><time>2023-06-16T12:17:04Z</time></trkpt><trkpt lat="58.052708" lon="38.844455"><ele>94.0</ele><time>2023-06-16T12:17:07Z</time></trkpt><trkpt lat="58.052757" lon="38.844293"><ele>94.4</ele><time>2023-06-16T12:17:10Z</time></trkpt><trkpt lat="58.05281" lon="38.844137"><ele>94.5</ele><time>2023-06-16T12:17:13Z</time></trkpt><trkpt lat="58.052862" lon="38.843983"><ele>93.8</ele><time>2023-06-16T12:17:16Z</time></trkpt><trkpt lat="58.052913" lon="38.843818"><ele>93.4</ele><time>2023-06-16T12:17:19Z</time></trkpt><trkpt lat="58.052972" lon="38.843648"><ele>92.1</ele><time>2023-06-16T12:17:22Z</time></trkpt><trkpt lat="58.053012" lon="38.843512"><ele>92.4</ele><time>2023-06-16T12:17:24Z</time></trkpt><trkpt lat="58.053058" lon="38.843378"><ele>91.5</ele><time>2023-06-16T12:17:26Z</time></trkpt><trkpt lat="58.053103" lon="38.84323"><ele>91.7</ele><time>2023-06-16T12:17:28Z</time></trkpt><trkpt lat="58.053147" lon="38.84308"><ele>90.9</ele><time>2023-06-16T12:17:30Z</time></trkpt><trkpt lat="58.053203" lon="38.842952"><ele>91.8</ele><time>2023-06-16T12:17:32Z</time></trkpt><trkpt lat="58.053257" lon="38.842795"><ele>92.0</ele><time>2023-06-16T12:17:34Z</time></trkpt><trkpt lat="58.05332" lon="38.842668"><ele>91.6</ele><time>2023-06-16T12:17:36Z</time></trkpt><trkpt lat="58.053362" lon="38.842517"><ele>90.7</ele><time>2023-06-16T12:17:38Z</time></trkpt><trkpt lat="58.0534" lon="38.842365"><ele>91.1</ele><time>2023-06-16T12:17:40Z</time></trkpt><trkpt lat="58.053452" lon="38.84221"><ele>92.2</ele><time>2023-06-16T12:17:42Z</time></trkpt><trkpt lat="58.053508" lon="38.84205"><ele>93.2</ele><time>2023-06-16T12:17:44Z</time></trkpt><trkpt lat="58.053543" lon="38.841918"><ele>93.6</ele><time>2023-06-16T12:17:46Z</time></trkpt><trkpt lat="58.05359" lon="38.84178"><ele>93.7</ele><time>2023-06-16T12:17:48Z</time></trkpt><trkpt lat="58.05365" lon="38.841623"><ele>93.5</ele><time>2023-06-16T12:17:50Z</time></trkpt><trkpt lat="58.053708" lon="38.841457"><ele>95.0</ele><time>2023-06-16T12:17:52Z</time></trkpt><trkpt lat="58.053758" lon="38.841293"><ele>95.6</ele><time>2023-06-16T12:17:54Z</time></trkpt><trkpt lat="58.053825" lon="38.84114"><ele>95.1</ele><time>2023-06-16T12:17:56Z</time></trkpt><trkpt lat="58.053872" lon="38.841"><ele>94.8</ele><time>2023-06-16T12:17:58Z</time></trkpt><trkpt lat="58.053922" lon="38.840845"><ele>94.1</ele><time>2023-06-16T12:18:00Z</time></trkpt><trkpt lat="58.05397" lon="38.840727"><ele>93.6</ele><time>2023-06-16T12:18:02Z</time></trkpt><trkpt lat="58.054017" lon="38.840597"><ele>93.4</ele><time>2023-06-16T12:18:04Z</time></trkpt><trkpt lat="58.054063" lon="38.840455"><ele>93.3</ele><time>2023-06-16T12:18:06Z</time></trkpt><trkpt lat="58.054125" lon="38.840312"><ele>92.9</ele><time>2023-06-16T12:18:08Z</time></trkpt><trkpt lat="58.054168" lon="38.840153"><ele>91.5</ele><time>2023-06-16T12:18:10Z</time></trkpt><trkpt lat="58.054225" lon="38.840018"><ele>90.6</ele><time>2023-06-16T12:18:12Z</time></trkpt><trkpt lat="58.054278" lon="38.839857"><ele>89.5</ele><time>2023-06-16T12:18:15Z</time></trkpt><trkpt lat="58.054323" lon="38.839727"><ele>90.6</ele><time>2023-06-16T12:18:17Z</time></trkpt><trkpt lat="58.054363" lon="38.839608"><ele>90.9</ele><time>2023-06-16T12:18:19Z</time></trkpt><trkpt lat="58.054407" lon="38.839478"><ele>90.8</ele><time>2023-06-16T12:18:21Z</time></trkpt><trkpt lat="58.054473" lon="38.839313"><ele>91.2</ele><time>2023-06-16T12:18:23Z</time></trkpt><trkpt lat="58.054542" lon="38.83914"><ele>91.1</ele><time>2023-06-16T12:18:25Z</time></trkpt><trkpt lat="58.054607" lon="38.838943"><ele>90.8</ele><time>2023-06-16T12:18:27Z</time></trkpt><trkpt lat="58.05467" lon="38.838728"><ele>89.9</ele><time>2023-06-16T12:18:29Z</time></trkpt><trkpt lat="58.054752" lon="38.838525"><ele>90.3</ele><time>2023-06-16T12:18:31Z</time></trkpt><trkpt lat="58.054823" lon="38.838327"><ele>90.8</ele><time>2023-06-16T12:18:33Z</time></trkpt><trkpt lat="58.054885" lon="38.83813"><ele>91.0</ele><time>2023-06-16T12:18:35Z</time></trkpt><trkpt lat="58.054942" lon="38.837978"><ele>90.9</ele><time>2023-06-16T12:18:37Z</time></trkpt><trkpt lat="58.054997" lon="38.837812"><ele>91.8</ele><time>2023-06-16T12:18:39Z</time></trkpt><trkpt lat="58.05505" lon="38.837618"><ele>91.8</ele><time>2023-06-16T12:18:41Z</time></trkpt><trkpt lat="58.055113" lon="38.837448"><ele>90.9</ele><time>2023-06-16T12:18:43Z</time></trkpt><trkpt lat="58.05516" lon="38.837277"><ele>92.1</ele><time>2023-06-16T12:18:45Z</time></trkpt><trkpt lat="58.055213" lon="38.837098"><ele>91.9</ele><time>2023-06-16T12:18:47Z</time></trkpt><trkpt lat="58.055263" lon="38.836892"><ele>91.9</ele><time>2023-06-16T12:18:49Z</time></trkpt><trkpt lat="58.05532" lon="38.836737"><ele>91.8</ele><time>2023-06-16T12:18:51Z</time></trkpt><trkpt lat="58.055375" lon="38.836535"><ele>91.1</ele><time>2023-06-16T12:18:53Z</time></trkpt><trkpt lat="58.055415" lon="38.836363"><ele>90.9</ele><time>2023-06-16T12:18:55Z</time></trkpt><trkpt lat="58.055488" lon="38.836192"><ele>90.6</ele><time>2023-06-16T12:18:57Z</time></trkpt><trkpt lat="58.055525" lon="38.836058"><ele>90.7</ele><time>2023-06-16T12:18:59Z</time></trkpt><trkpt lat="58.055587" lon="38.835922"><ele>92.0</ele><time>2023-06-16T12:19:01Z</time></trkpt><trkpt lat="58.055638" lon="38.83575"><ele>91.8</ele><time>2023-06-16T12:19:03Z</time></trkpt><trkpt lat="58.055687" lon="38.835583"><ele>92.0</ele><time>2023-06-16T12:19:05Z</time></trkpt><trkpt lat="58.055733" lon="38.835427"><ele>92.1</ele><time>2023-06-16T12:19:07Z</time></trkpt><trkpt lat="58.055788" lon="38.835257"><ele>91.6</ele><time>2023-06-16T12:19:09Z</time></trkpt><trkpt lat="58.055843" lon="38.835092"><ele>92.5</ele><time>2023-06-16T12:19:11Z</time></trkpt><trkpt lat="58.055907" lon="38.834903"><ele>92.4</ele><time>2023-06-16T12:19:13Z</time></trkpt><trkpt lat="58.055958" lon="38.834735"><ele>92.5</ele><time>2023-06-16T12:19:15Z</time></trkpt><trkpt lat="58.056023" lon="38.834583"><ele>92.8</ele><time>2023-06-16T12:19:17Z</time></trkpt><trkpt lat="58.056077" lon="38.834425"><ele>93.0</ele><time>2023-06-16T12:19:19Z</time></trkpt><trkpt lat="58.056145" lon="38.834252"><ele>92.7</ele><time>2023-06-16T12:19:21Z</time></trkpt><trkpt lat="58.056197" lon="38.83409"><ele>92.8</ele><time>2023-06-16T12:19:23Z</time></trkpt><trkpt lat="58.05625" lon="38.83393"><ele>93.4</ele><time>2023-06-16T12:19:25Z</time></trkpt><trkpt lat="58.056298" lon="38.833773"><ele>93.3</ele><time>2023-06-16T12:19:27Z</time></trkpt><trkpt lat="58.056352" lon="38.833605"><ele>92.8</ele><time>2023-06-16T12:19:29Z</time></trkpt><trkpt lat="58.056383" lon="38.833468"><ele>92.7</ele><time>2023-06-16T12:19:31Z</time></trkpt><trkpt lat="58.056435" lon="38.833332"><ele>91.7</ele><time>2023-06-16T12:19:33Z</time></trkpt><trkpt lat="58.056457" lon="38.833185"><ele>91.1</ele><time>2023-06-16T12:19:35Z</time></trkpt><trkpt lat="58.056483" lon="38.833038"><ele>91.7</ele><time>2023-06-16T12:19:37Z</time></trkpt><trkpt lat="58.056532" lon="38.832907"><ele>91.9</ele><time>2023-06-16T12:19:39Z</time></trkpt><trkpt lat="58.05658" lon="38.83274"><ele>92.3</ele><time>2023-06-16T12:19:41Z</time></trkpt><trkpt lat="58.056617" lon="38.83262"><ele>91.5</ele><time>2023-06-16T12:19:43Z</time></trkpt><trkpt lat="58.056655" lon="38.832475"><ele>91.4</ele><time>2023-06-16T12:19:44Z</time></trkpt><trkpt lat="58.056718" lon="38.832318"><ele>91.7</ele><time>2023-06-16T12:19:46Z</time></trkpt><trkpt lat="58.05676" lon="38.832175"><ele>91.9</ele><time>2023-06-16T12:19:48Z</time></trkpt><trkpt lat="58.056808" lon="38.832023"><ele>92.7</ele><time>2023-06-16T12:19:50Z</time></trkpt><trkpt lat="58.05684" lon="38.831868"><ele>92.0</ele><time>2023-06-16T12:19:52Z</time></trkpt><trkpt lat="58.0569" lon="38.831725"><ele>91.6</ele><time>2023-06-16T12:19:54Z</time></trkpt><trkpt lat="58.056952" lon="38.831588"><ele>91.8</ele><time>2023-06-16T12:19:56Z</time></trkpt><trkpt lat="58.057005" lon="38.831435"><ele>91.8</ele><time>2023-06-16T12:19:58Z</time></trkpt><trkpt lat="58.057057" lon="38.831293"><ele>91.3</ele><time>2023-06-16T12:20:00Z</time></trkpt><trkpt lat="58.057142" lon="38.831197"><ele>91.9</ele><time>2023-06-16T12:20:02Z</time></trkpt><trkpt lat="58.057233" lon="38.8311"><ele>92.3</ele><time>2023-06-16T12:20:04Z</time></trkpt><trkpt lat="58.057317" lon="38.831005"><ele>92.8</ele><time>2023-06-16T12:20:06Z</time></trkpt><trkpt lat="58.057398" lon="38.830885"><ele>92.8</ele><time>2023-06-16T12:20:08Z</time></trkpt><trkpt lat="58.057472" lon="38.830775"><ele>92.6</ele><time>2023-06-16T12:20:10Z</time></trkpt><trkpt lat="58.057545" lon="38.830632"><ele>92.5</ele><time>2023-06-16T12:20:12Z</time></trkpt><trkpt lat="58.057618" lon="38.830467"><ele>92.5</ele><time>2023-06-16T12:20:15Z</time></trkpt><trkpt lat="58.057723" lon="38.830325"><ele>92.7</ele><time>2023-06-16T12:20:17Z</time></trkpt><trkpt lat="58.057753" lon="38.830123"><ele>93.4</ele><time>2023-06-16T12:20:19Z</time></trkpt><trkpt lat="58.05773" lon="38.829932"><ele>94.3</ele><time>2023-06-16T12:20:21Z</time></trkpt><trkpt lat="58.057722" lon="38.829757"><ele>94.5</ele><time>2023-06-16T12:20:23Z</time></trkpt><trkpt lat="58.057768" lon="38.829608"><ele>95.0</ele><time>2023-06-16T12:20:25Z</time></trkpt><trkpt lat="58.057823" lon="38.82947"><ele>95.0</ele><time>2023-06-16T12:20:27Z</time></trkpt><trkpt lat="58.057877" lon="38.829313"><ele>94.7</ele><time>2023-06-16T12:20:29Z</time></trkpt><trkpt lat="58.057918" lon="38.829168"><ele>94.8</ele><time>2023-06-16T12:20:31Z</time></trkpt><trkpt lat="58.057965" lon="38.82903"><ele>95.2</ele><time>2023-06-16T12:20:33Z</time></trkpt><trkpt lat="58.058012" lon="38.828868"><ele>95.1</ele><time>2023-06-16T12:20:35Z</time></trkpt><trkpt lat="58.058083" lon="38.828722"><ele>95.6</ele><time>2023-06-16T12:20:37Z</time></trkpt><trkpt lat="58.058103" lon="38.828553"><ele>95.4</ele><time>2023-06-16T12:20:39Z</time></trkpt><trkpt lat="58.058087" lon="38.828377"><ele>95.7</ele><time>2023-06-16T12:20:41Z</time></trkpt><trkpt lat="58.058063" lon="38.828215"><ele>95.4</ele><time>2023-06-16T12:20:43Z</time></trkpt><trkpt lat="58.058055" lon="38.828052"><ele>96.0</ele><time>2023-06-16T12:20:45Z</time></trkpt><trkpt lat="58.058025" lon="38.827877"><ele>96.7</ele><time>2023-06-16T12:20:47Z</time></trkpt><trkpt lat="58.058023" lon="38.827705"><ele>97.5</ele><time>2023-06-16T12:20:49Z</time></trkpt><trkpt lat="58.058012" lon="38.827552"><ele>96.8</ele><time>2023-06-16T12:20:51Z</time></trkpt><trkpt lat="58.05797" lon="38.827427"><ele>97.3</ele><time>2023-06-16T12:20:53Z</time></trkpt><trkpt lat="58.057968" lon="38.827253"><ele>97.3</ele><time>2023-06-16T12:20:56Z</time></trkpt><trkpt lat="58.058025" lon="38.827065"><ele>96.5</ele><time>2023-06-16T12:20:59Z</time></trkpt><trkpt lat="58.05808" lon="38.826923"><ele>97.1</ele><time>2023-06-16T12:21:01Z</time></trkpt><trkpt lat="58.05812" lon="38.826757"><ele>96.9</ele><time>2023-06-16T12:21:03Z</time></trkpt><trkpt lat="58.05817" lon="38.826615"><ele>96.6</ele><time>2023-06-16T12:21:05Z</time></trkpt><trkpt lat="58.058205" lon="38.826475"><ele>96.5</ele><time>2023-06-16T12:21:07Z</time></trkpt><trkpt lat="58.058243" lon="38.826343"><ele>97.0</ele><time>2023-06-16T12:21:09Z</time></trkpt><trkpt lat="58.058292" lon="38.826153"><ele>97.5</ele><time>2023-06-16T12:21:12Z</time></trkpt><trkpt lat="58.058348" lon="38.826013"><ele>97.9</ele><time>2023-06-16T12:21:14Z</time></trkpt><trkpt lat="58.058398" lon="38.825868"><ele>97.3</ele><time>2023-06-16T12:21:16Z</time></trkpt><trkpt lat="58.058448" lon="38.825755"><ele>97.3</ele><time>2023-06-16T12:21:18Z</time></trkpt><trkpt lat="58.058483" lon="38.825635"><ele>97.4</ele><time>2023-06-16T12:21:20Z</time></trkpt><trkpt lat="58.058543" lon="38.825497"><ele>97.2</ele><time>2023-06-16T12:21:23Z</time></trkpt><trkpt lat="58.058617" lon="38.825355"><ele>96.7</ele><time>2023-06-16T12:21:26Z</time></trkpt><trkpt lat="58.058675" lon="38.825267"><ele>96.6</ele><time>2023-06-16T12:21:28Z</time></trkpt><trkpt lat="58.05873" lon="38.825165"><ele>96.4</ele><time>2023-06-16T12:21:30Z</time></trkpt><trkpt lat="58.058795" lon="38.825023"><ele>96.7</ele><time>2023-06-16T12:21:33Z</time></trkpt><trkpt lat="58.058858" lon="38.824913"><ele>96.2</ele><time>2023-06-16T12:21:35Z</time></trkpt><trkpt lat="58.058923" lon="38.82478"><ele>96.2</ele><time>2023-06-16T12:21:37Z</time></trkpt><trkpt lat="58.058983" lon="38.824652"><ele>96.1</ele><time>2023-06-16T12:21:39Z</time></trkpt><trkpt lat="58.059027" lon="38.824518"><ele>95.7</ele><time>2023-06-16T12:21:41Z</time></trkpt><trkpt lat="58.059077" lon="38.824418"><ele>95.1</ele><time>2023-06-16T12:21:43Z</time></trkpt><trkpt lat="58.059128" lon="38.824298"><ele>94.5</ele><time>2023-06-16T12:21:45Z</time></trkpt><trkpt lat="58.059187" lon="38.824187"><ele>93.8</ele><time>2023-06-16T12:21:47Z</time></trkpt><trkpt lat="58.05925" lon="38.824048"><ele>94.0</ele><time>2023-06-16T12:21:49Z</time></trkpt><trkpt lat="58.059323" lon="38.823937"><ele>94.2</ele><time>2023-06-16T12:21:51Z</time></trkpt><trkpt lat="58.059392" lon="38.823815"><ele>94.3</ele><time>2023-06-16T12:21:53Z</time></trkpt><trkpt lat="58.059453" lon="38.823653"><ele>94.4</ele><time>2023-06-16T12:21:55Z</time></trkpt><trkpt lat="58.059527" lon="38.823497"><ele>94.6</ele><time>2023-06-16T12:21:57Z</time></trkpt><trkpt lat="58.059587" lon="38.82334"><ele>95.3</ele><time>2023-06-16T12:21:59Z</time></trkpt><trkpt lat="58.05964" lon="38.823193"><ele>95.2</ele><time>2023-06-16T12:22:01Z</time></trkpt><trkpt lat="58.059673" lon="38.823017"><ele>95.4</ele><time>2023-06-16T12:22:03Z</time></trkpt><trkpt lat="58.059688" lon="38.822842"><ele>95.6</ele><time>2023-06-16T12:22:05Z</time></trkpt><trkpt lat="58.059695" lon="38.822678"><ele>96.3</ele><time>2023-06-16T12:22:07Z</time></trkpt><trkpt lat="58.059705" lon="38.822515"><ele>96.2</ele><time>2023-06-16T12:22:09Z</time></trkpt><trkpt lat="58.059707" lon="38.822362"><ele>96.6</ele><time>2023-06-16T12:22:11Z</time></trkpt><trkpt lat="58.059722" lon="38.822187"><ele>97.0</ele><time>2023-06-16T12:22:13Z</time></trkpt><trkpt lat="58.059733" lon="38.821993"><ele>97.4</ele><time>2023-06-16T12:22:15Z</time></trkpt><trkpt lat="58.059763" lon="38.82185"><ele>96.6</ele><time>2023-06-16T12:22:17Z</time></trkpt><trkpt lat="58.059757" lon="38.82171"><ele>97.1</ele><time>2023-06-16T12:22:19Z</time></trkpt><trkpt lat="58.059758" lon="38.821538"><ele>97.5</ele><time>2023-06-16T12:22:22Z</time></trkpt><trkpt lat="58.059718" lon="38.821373"><ele>97.3</ele><time>2023-06-16T12:22:31Z</time></trkpt><trkpt lat="58.059632" lon="38.821252"><ele>98.4</ele><time>2023-06-16T12:22:34Z</time></trkpt><trkpt lat="58.059575" lon="38.821163"><ele>98.5</ele><time>2023-06-16T12:22:36Z</time></trkpt><trkpt lat="58.05953" lon="38.821025"><ele>98.9</ele><time>2023-06-16T12:22:39Z</time></trkpt><trkpt lat="58.059543" lon="38.820842"><ele>98.5</ele><time>2023-06-16T12:22:42Z</time></trkpt><trkpt lat="58.059565" lon="38.820698"><ele>98.2</ele><time>2023-06-16T12:22:44Z</time></trkpt><trkpt lat="58.059577" lon="38.820538"><ele>98.2</ele><time>2023-06-16T12:22:46Z</time></trkpt><trkpt lat="58.059588" lon="38.82037"><ele>98.7</ele><time>2023-06-16T12:22:48Z</time></trkpt><trkpt lat="58.059618" lon="38.82019"><ele>97.9</ele><time>2023-06-16T12:22:50Z</time></trkpt><trkpt lat="58.059635" lon="38.820015"><ele>97.8</ele><time>2023-06-16T12:22:52Z</time></trkpt><trkpt lat="58.059625" lon="38.819877"><ele>97.8</ele><time>2023-06-16T12:22:54Z</time></trkpt><trkpt lat="58.059657" lon="38.819702"><ele>97.9</ele><time>2023-06-16T12:22:56Z</time></trkpt><trkpt lat="58.059698" lon="38.819565"><ele>97.2</ele><time>2023-06-16T12:22:58Z</time></trkpt><trkpt lat="58.059735" lon="38.819423"><ele>96.4</ele><time>2023-06-16T12:23:00Z</time></trkpt><trkpt lat="58.059718" lon="38.81926"><ele>96.2</ele><time>2023-06-16T12:23:02Z</time></trkpt><trkpt lat="58.059738" lon="38.819105"><ele>96.2</ele><time>2023-06-16T12:23:04Z</time></trkpt><trkpt lat="58.059742" lon="38.818953"><ele>96.1</ele><time>2023-06-16T12:23:06Z</time></trkpt><trkpt lat="58.05971" lon="38.818775"><ele>95.8</ele><time>2023-06-16T12:23:08Z</time></trkpt><trkpt lat="58.059725" lon="38.81862"><ele>95.9</ele><time>2023-06-16T12:23:10Z</time></trkpt><trkpt lat="58.059762" lon="38.818468"><ele>95.9</ele><time>2023-06-16T12:23:12Z</time></trkpt><trkpt lat="58.05977" lon="38.81828"><ele>96.4</ele><time>2023-06-16T12:23:14Z</time></trkpt><trkpt lat="58.059793" lon="38.818107"><ele>96.5</ele><time>2023-06-16T12:23:16Z</time></trkpt><trkpt lat="58.059807" lon="38.817948"><ele>96.8</ele><time>2023-06-16T12:23:18Z</time></trkpt><trkpt lat="58.059822" lon="38.81781"><ele>97.0</ele><time>2023-06-16T12:23:20Z</time></trkpt><trkpt lat="58.059835" lon="38.817653"><ele>97.3</ele><time>2023-06-16T12:23:22Z</time></trkpt><trkpt lat="58.059762" lon="38.8175"><ele>98.4</ele><time>2023-06-16T12:23:25Z</time></trkpt><trkpt lat="58.059667" lon="38.817498"><ele>98.6</ele><time>2023-06-16T12:23:27Z</time></trkpt><trkpt lat="58.059595" lon="38.81749"><ele>98.0</ele><time>2023-06-16T12:23:29Z</time></trkpt><trkpt lat="58.0595" lon="38.817472"><ele>98.4</ele><time>2023-06-16T12:23:32Z</time></trkpt><trkpt lat="58.059428" lon="38.817448"><ele>97.7</ele><time>2023-06-16T12:23:34Z</time></trkpt><trkpt lat="58.059325" lon="38.817452"><ele>99.1</ele><time>2023-06-16T12:23:37Z</time></trkpt><trkpt lat="58.059212" lon="38.817452"><ele>99.7</ele><time>2023-06-16T12:23:40Z</time></trkpt><trkpt lat="58.059132" lon="38.81745"><ele>100.4</ele><time>2023-06-16T12:23:42Z</time></trkpt><trkpt lat="58.059053" lon="38.817442"><ele>100.4</ele><time>2023-06-16T12:23:44Z</time></trkpt><trkpt lat="58.058975" lon="38.817428"><ele>100.4</ele><time>2023-06-16T12:23:46Z</time></trkpt><trkpt lat="58.058888" lon="38.81741"><ele>100.4</ele><time>2023-06-16T12:23:48Z</time></trkpt><trkpt lat="58.058818" lon="38.817383"><ele>100.7</ele><time>2023-06-16T12:23:50Z</time></trkpt><trkpt lat="58.058757" lon="38.817248"><ele>102.6</ele><time>2023-06-16T12:23:54Z</time></trkpt><trkpt lat="58.058712" lon="38.817082"><ele>102.2</ele><time>2023-06-16T12:23:57Z</time></trkpt><trkpt lat="58.058695" lon="38.816915"><ele>103.3</ele><time>2023-06-16T12:24:00Z</time></trkpt><trkpt lat="58.058712" lon="38.81677"><ele>104.9</ele><time>2023-06-16T12:24:04Z</time></trkpt></trkseg></trk></gpx>