<?xml version="1.0" encoding="UTF-8" standalone="no"?><gpx xmlns="http://www.topografix.com/GPX/1/1" xmlns:gpxtpx="http://www.garmin.com/xmlschemas/TrackPointExtension/v1" xmlns:xsi="http://www.w3.org/2001/XMLSchema-instance" creator="Sports Tracker" version="1.1" xsi:schemaLocation="http://www.topografix.com/GPX/1/1 http://www.topografix.com/GPX/1/1/gpx.xsd http://www.garmin.com/xmlschemas/TrackPointExtension/v1 http://www.garmin.com/xmlschemas/TrackPointExtensionv1.xsd"><metadata><name>31.12.2023 15:10</name><desc/><author><name>Александр</name></author></metadata><trk><name>31.12.2023 15:10</name><trkseg><trkpt lat="58.036205" lon="39.112827"><ele>107.8</ele><time>2023-12-31T12:10:01Z</time></trkpt><trkpt lat="58.036205" lon="39.112827"><ele>107.8</ele><time>2023-12-31T12:10:37Z</time></trkpt><trkpt lat="58.03624" lon="39.11285"><ele>106.9</ele><time>2023-12-31T12:10:45Z</time></trkpt><trkpt lat="58.03625" lon="39.113025"><ele>106.2</ele><time>2023-12-31T12:10:47Z</time></trkpt><trkpt lat="58.036245" lon="39.113185"><ele>106.1</ele><time>2023-12-31T12:10:49Z</time></trkpt><trkpt lat="58.036343" lon="39.113085"><ele>105.4</ele><time>2023-12-31T12:10:50Z</time></trkpt><trkpt lat="58.036405" lon="39.113"><ele>103.5</ele><time>2023-12-31T12:10:52Z</time></trkpt><trkpt lat="58.03646" lon="39.1129"><ele>103.6</ele><time>2023-12-31T12:10:54Z</time></trkpt><trkpt lat="58.03647" lon="39.113033"><ele>102.6</ele><time>2023-12-31T12:10:56Z</time></trkpt><trkpt lat="58.03648" lon="39.11318"><ele>102.8</ele><time>2023-12-31T12:11:00Z</time></trkpt><trkpt lat="58.036622" lon="39.11358"><ele>103.5</ele><time>2023-12-31T12:11:05Z</time></trkpt><trkpt lat="58.036722" lon="39.113575"><ele>103.7</ele><time>2023-12-31T12:11:07Z</time></trkpt><trkpt lat="58.036792" lon="39.113617"><ele>100.5</ele><time>2023-12-31T12:11:09Z</time></trkpt><trkpt lat="58.036845" lon="39.113715"><ele>101.0</ele><time>2023-12-31T12:11:11Z</time></trkpt><trkpt lat="58.036915" lon="39.113745"><ele>101.2</ele><time>2023-12-31T12:11:13Z</time></trkpt><trkpt lat="58.036985" lon="39.113785"><ele>103.1</ele><time>2023-12-31T12:11:15Z</time></trkpt><trkpt lat="58.037055" lon="39.113835"><ele>104.3</ele><time>2023-12-31T12:11:18Z</time></trkpt><trkpt lat="58.037118" lon="39.113922"><ele>106.1</ele><time>2023-12-31T12:11:21Z</time></trkpt><trkpt lat="58.037182" lon="39.11403"><ele>105.8</ele><time>2023-12-31T12:11:24Z</time></trkpt><trkpt lat="58.037245" lon="39.114158"><ele>107.5</ele><time>2023-12-31T12:11:27Z</time></trkpt><trkpt lat="58.0373" lon="39.11426"><ele>107.6</ele><time>2023-12-31T12:11:29Z</time></trkpt><trkpt lat="58.03378" lon="39.11804"><ele>111.5</ele><time>2023-12-31T12:17:42Z</time></trkpt><trkpt lat="58.0338" lon="39.117905"><ele>109.6</ele><time>2023-12-31T12:17:44Z</time></trkpt><trkpt lat="58.033835" lon="39.117718"><ele>109.8</ele><time>2023-12-31T12:17:47Z</time></trkpt><trkpt lat="58.03388" lon="39.117602"><ele>108.6</ele><time>2023-12-31T12:17:49Z</time></trkpt><trkpt lat="58.033935" lon="39.11748"><ele>107.1</ele><time>2023-12-31T12:17:51Z</time></trkpt><trkpt lat="58.034005" lon="39.117348"><ele>106.2</ele><time>2023-12-31T12:17:53Z</time></trkpt><trkpt lat="58.03409" lon="39.11724"><ele>105.6</ele><time>2023-12-31T12:17:55Z</time></trkpt><trkpt lat="58.03419" lon="39.117165"><ele>105.1</ele><time>2023-12-31T12:17:57Z</time></trkpt><trkpt lat="58.034272" lon="39.11713"><ele>105.3</ele><time>2023-12-31T12:17:59Z</time></trkpt><trkpt lat="58.03436" lon="39.117112"><ele>104.9</ele><time>2023-12-31T12:18:02Z</time></trkpt><trkpt lat="58.034452" lon="39.117135"><ele>104.6</ele><time>2023-12-31T12:18:05Z</time></trkpt><trkpt lat="58.034542" lon="39.117177"><ele>106.1</ele><time>2023-12-31T12:18:08Z</time></trkpt><trkpt lat="58.034613" lon="39.11722"><ele>104.3</ele><time>2023-12-31T12:18:10Z</time></trkpt><trkpt lat="58.034702" lon="39.11725"><ele>104.6</ele><time>2023-12-31T12:18:12Z</time></trkpt><trkpt lat="58.034792" lon="39.117285"><ele>103.5</ele><time>2023-12-31T12:18:14Z</time></trkpt><trkpt lat="58.034885" lon="39.117325"><ele>102.2</ele><time>2023-12-31T12:18:16Z</time></trkpt><trkpt lat="58.035005" lon="39.1174"><ele>98.9</ele><time>2023-12-31T12:18:18Z</time></trkpt><trkpt lat="58.035065" lon="39.11748"><ele>98.7</ele><time>2023-12-31T12:18:19Z</time></trkpt><trkpt lat="58.035182" lon="39.11762"><ele>97.9</ele><time>2023-12-31T12:18:21Z</time></trkpt><trkpt lat="58.035277" lon="39.117772"><ele>96.7</ele><time>2023-12-31T12:18:23Z</time></trkpt><trkpt lat="58.035357" lon="39.117882"><ele>97.0</ele><time>2023-12-31T12:18:25Z</time></trkpt><trkpt lat="58.035428" lon="39.117975"><ele>100.2</ele><time>2023-12-31T12:18:27Z</time></trkpt><trkpt lat="58.035512" lon="39.118085"><ele>100.9</ele><time>2023-12-31T12:18:30Z</time></trkpt><trkpt lat="58.03559" lon="39.11817"><ele>100.7</ele><time>2023-12-31T12:18:33Z</time></trkpt><trkpt lat="58.035645" lon="39.118295"><ele>100.7</ele><time>2023-12-31T12:18:36Z</time></trkpt><trkpt lat="58.035725" lon="39.118397"><ele>99.1</ele><time>2023-12-31T12:18:39Z</time></trkpt><trkpt lat="58.035792" lon="39.118477"><ele>99.8</ele><time>2023-12-31T12:18:42Z</time></trkpt><trkpt lat="58.03586" lon="39.118557"><ele>98.6</ele><time>2023-12-31T12:18:44Z</time></trkpt><trkpt lat="58.035935" lon="39.118652"><ele>95.0</ele><time>2023-12-31T12:18:47Z</time></trkpt><trkpt lat="58.036025" lon="39.11876"><ele>96.5</ele><time>2023-12-31T12:18:50Z</time></trkpt><trkpt lat="58.0361" lon="39.118858"><ele>96.5</ele><time>2023-12-31T12:18:53Z</time></trkpt><trkpt lat="58.036165" lon="39.118955"><ele>99.2</ele><time>2023-12-31T12:18:55Z</time></trkpt><trkpt lat="58.036242" lon="39.11907"><ele>102.5</ele><time>2023-12-31T12:18:57Z</time></trkpt><trkpt lat="58.03632" lon="39.119175"><ele>105.6</ele><time>2023-12-31T12:18:59Z</time></trkpt><trkpt lat="58.036395" lon="39.11927"><ele>106.6</ele><time>2023-12-31T12:19:01Z</time></trkpt><trkpt lat="58.036465" lon="39.119355"><ele>104.7</ele><time>2023-12-31T12:19:04Z</time></trkpt><trkpt lat="58.03654" lon="39.119445"><ele>103.8</ele><time>2023-12-31T12:19:08Z</time></trkpt><trkpt lat="58.03662" lon="39.119437"><ele>101.7</ele><time>2023-12-31T12:19:12Z</time></trkpt><trkpt lat="58.03671" lon="39.119392"><ele>103.3</ele><time>2023-12-31T12:19:16Z</time></trkpt><trkpt lat="58.036785" lon="39.119365"><ele>103.0</ele><time>2023-12-31T12:19:19Z</time></trkpt><trkpt lat="58.036865" lon="39.119318"><ele>103.6</ele><time>2023-12-31T12:19:24Z</time></trkpt><trkpt lat="58.036935" lon="39.11927"><ele>103.6</ele><time>2023-12-31T12:19:29Z</time></trkpt><trkpt lat="58.03701" lon="39.11922"><ele>106.0</ele><time>2023-12-31T12:19:32Z</time></trkpt><trkpt lat="58.0371" lon="39.119145"><ele>108.1</ele><time>2023-12-31T12:19:37Z</time></trkpt><trkpt lat="58.037185" lon="39.11909"><ele>109.7</ele><time>2023-12-31T12:19:41Z</time></trkpt><trkpt lat="58.03724" lon="39.118997"><ele>110.7</ele><time>2023-12-31T12:19:44Z</time></trkpt><trkpt lat="58.0373" lon="39.11888"><ele>108.1</ele><time>2023-12-31T12:19:47Z</time></trkpt><trkpt lat="58.037343" lon="39.118725"><ele>107.5</ele><time>2023-12-31T12:19:49Z</time></trkpt><trkpt lat="58.037382" lon="39.118545"><ele>107.3</ele><time>2023-12-31T12:19:51Z</time></trkpt><trkpt lat="58.037435" lon="39.118375"><ele>104.8</ele><time>2023-12-31T12:19:53Z</time></trkpt><trkpt lat="58.037475" lon="39.11817"><ele>104.7</ele><time>2023-12-31T12:19:55Z</time></trkpt><trkpt lat="58.037512" lon="39.117957"><ele>104.3</ele><time>2023-12-31T12:19:57Z</time></trkpt><trkpt lat="58.03756" lon="39.11783"><ele>102.7</ele><time>2023-12-31T12:19:59Z</time></trkpt><trkpt lat="58.03763" lon="39.11771"><ele>102.5</ele><time>2023-12-31T12:20:02Z</time></trkpt><trkpt lat="58.0377" lon="39.117625"><ele>101.8</ele><time>2023-12-31T12:20:05Z</time></trkpt><trkpt lat="58.037755" lon="39.117535"><ele>101.9</ele><time>2023-12-31T12:20:08Z</time></trkpt><trkpt lat="58.03782" lon="39.11745"><ele>104.1</ele><time>2023-12-31T12:20:11Z</time></trkpt><trkpt lat="58.037902" lon="39.117345"><ele>103.9</ele><time>2023-12-31T12:20:14Z</time></trkpt><trkpt lat="58.03797" lon="39.117262"><ele>103.4</ele><time>2023-12-31T12:20:17Z</time></trkpt><trkpt lat="58.03805" lon="39.117192"><ele>104.0</ele><time>2023-12-31T12:20:20Z</time></trkpt><trkpt lat="58.038115" lon="39.1171"><ele>104.3</ele><time>2023-12-31T12:20:23Z</time></trkpt><trkpt lat="58.038192" lon="39.117015"><ele>104.8</ele><time>2023-12-31T12:20:26Z</time></trkpt><trkpt lat="58.038255" lon="39.116945"><ele>104.1</ele><time>2023-12-31T12:20:29Z</time></trkpt><trkpt lat="58.038325" lon="39.116877"><ele>104.2</ele><time>2023-12-31T12:20:32Z</time></trkpt><trkpt lat="58.03839" lon="39.116785"><ele>103.4</ele><time>2023-12-31T12:20:35Z</time></trkpt><trkpt lat="58.03845" lon="39.116687"><ele>103.6</ele><time>2023-12-31T12:20:38Z</time></trkpt><trkpt lat="58.03852" lon="39.11658"><ele>104.2</ele><time>2023-12-31T12:20:42Z</time></trkpt><trkpt lat="58.038575" lon="39.116465"><ele>104.5</ele><time>2023-12-31T12:20:45Z</time></trkpt><trkpt lat="58.038615" lon="39.116335"><ele>103.0</ele><time>2023-12-31T12:20:48Z</time></trkpt><trkpt lat="58.038635" lon="39.116177"><ele>105.5</ele><time>2023-12-31T12:20:51Z</time></trkpt><trkpt lat="58.03865" lon="39.116"><ele>104.7</ele><time>2023-12-31T12:20:54Z</time></trkpt><trkpt lat="58.038655" lon="39.11583"><ele>103.9</ele><time>2023-12-31T12:20:58Z</time></trkpt><trkpt lat="58.03869" lon="39.11565"><ele>104.9</ele><time>2023-12-31T12:21:02Z</time></trkpt><trkpt lat="58.038702" lon="39.11547"><ele>105.2</ele><time>2023-12-31T12:21:06Z</time></trkpt><trkpt lat="58.038712" lon="39.115312"><ele>106.4</ele><time>2023-12-31T12:21:09Z</time></trkpt><trkpt lat="58.038735" lon="39.115143"><ele>109.1</ele><time>2023-12-31T12:21:11Z</time></trkpt><trkpt lat="58.03875" lon="39.114992"><ele>107.6</ele><time>2023-12-31T12:21:14Z</time></trkpt><trkpt lat="58.038762" lon="39.11484"><ele>109.7</ele><time>2023-12-31T12:21:16Z</time></trkpt><trkpt lat="58.03879" lon="39.114652"><ele>106.5</ele><time>2023-12-31T12:21:19Z</time></trkpt><trkpt lat="58.038812" lon="39.114525"><ele>105.9</ele><time>2023-12-31T12:21:21Z</time></trkpt><trkpt lat="58.03883" lon="39.11434"><ele>105.5</ele><time>2023-12-31T12:21:24Z</time></trkpt><trkpt lat="58.03886" lon="39.114215"><ele>105.7</ele><time>2023-12-31T12:21:26Z</time></trkpt><trkpt lat="58.038882" lon="39.11399"><ele>106.6</ele><time>2023-12-31T12:21:29Z</time></trkpt><trkpt lat="58.038905" lon="39.11381"><ele>104.9</ele><time>2023-12-31T12:21:32Z</time></trkpt><trkpt lat="58.038925" lon="39.11368"><ele>105.0</ele><time>2023-12-31T12:21:34Z</time></trkpt><trkpt lat="58.03894" lon="39.113495"><ele>103.5</ele><time>2023-12-31T12:21:37Z</time></trkpt><trkpt lat="58.038962" lon="39.113352"><ele>102.5</ele><time>2023-12-31T12:21:39Z</time></trkpt><trkpt lat="58.038975" lon="39.11321"><ele>102.3</ele><time>2023-12-31T12:21:42Z</time></trkpt><trkpt lat="58.038975" lon="39.11302"><ele>102.5</ele><time>2023-12-31T12:21:45Z</time></trkpt><trkpt lat="58.038955" lon="39.112872"><ele>102.3</ele><time>2023-12-31T12:21:47Z</time></trkpt><trkpt lat="58.038925" lon="39.11271"><ele>102.0</ele><time>2023-12-31T12:21:49Z</time></trkpt><trkpt lat="58.038882" lon="39.112567"><ele>101.9</ele><time>2023-12-31T12:21:51Z</time></trkpt><trkpt lat="58.038825" lon="39.112457"><ele>103.1</ele><time>2023-12-31T12:21:53Z</time></trkpt><trkpt lat="58.038755" lon="39.112305"><ele>101.8</ele><time>2023-12-31T12:21:56Z</time></trkpt><trkpt lat="58.03867" lon="39.112225"><ele>99.2</ele><time>2023-12-31T12:21:59Z</time></trkpt><trkpt lat="58.038592" lon="39.112187"><ele>100.4</ele><time>2023-12-31T12:22:02Z</time></trkpt><trkpt lat="58.038517" lon="39.112155"><ele>101.7</ele><time>2023-12-31T12:22:05Z</time></trkpt><trkpt lat="58.03844" lon="39.112185"><ele>103.0</ele><time>2023-12-31T12:22:08Z</time></trkpt><trkpt lat="58.03836" lon="39.112265"><ele>102.7</ele><time>2023-12-31T12:22:12Z</time></trkpt><trkpt lat="58.0383" lon="39.112362"><ele>103.9</ele><time>2023-12-31T12:22:15Z</time></trkpt><trkpt lat="58.038257" lon="39.112485"><ele>106.2</ele><time>2023-12-31T12:22:18Z</time></trkpt><trkpt lat="58.038243" lon="39.11266"><ele>106.8</ele><time>2023-12-31T12:22:22Z</time></trkpt><trkpt lat="58.03826" lon="39.112825"><ele>107.2</ele><time>2023-12-31T12:22:26Z</time></trkpt><trkpt lat="58.03828" lon="39.11296"><ele>106.2</ele><time>2023-12-31T12:22:29Z</time></trkpt><trkpt lat="58.038295" lon="39.11311"><ele>104.6</ele><time>2023-12-31T12:22:33Z</time></trkpt><trkpt lat="58.038325" lon="39.11324"><ele>102.3</ele><time>2023-12-31T12:22:36Z</time></trkpt><trkpt lat="58.03835" lon="39.113382"><ele>103.3</ele><time>2023-12-31T12:22:39Z</time></trkpt><trkpt lat="58.03838" lon="39.113545"><ele>103.6</ele><time>2023-12-31T12:22:42Z</time></trkpt><trkpt lat="58.038397" lon="39.11372"><ele>104.1</ele><time>2023-12-31T12:22:45Z</time></trkpt><trkpt lat="58.03841" lon="39.113875"><ele>104.6</ele><time>2023-12-31T12:22:48Z</time></trkpt><trkpt lat="58.038405" lon="39.11403"><ele>104.8</ele><time>2023-12-31T12:22:51Z</time></trkpt><trkpt lat="58.038392" lon="39.11419"><ele>105.5</ele><time>2023-12-31T12:22:55Z</time></trkpt><trkpt lat="58.038365" lon="39.114322"><ele>106.2</ele><time>2023-12-31T12:22:58Z</time></trkpt><trkpt lat="58.03834" lon="39.11445"><ele>109.0</ele><time>2023-12-31T12:23:01Z</time></trkpt><trkpt lat="58.0383" lon="39.11458"><ele>108.2</ele><time>2023-12-31T12:23:05Z</time></trkpt><trkpt lat="58.038272" lon="39.114715"><ele>110.3</ele><time>2023-12-31T12:23:08Z</time></trkpt><trkpt lat="58.038225" lon="39.114837"><ele>110.5</ele><time>2023-12-31T12:23:11Z</time></trkpt><trkpt lat="58.038185" lon="39.11497"><ele>111.1</ele><time>2023-12-31T12:23:14Z</time></trkpt><trkpt lat="58.038165" lon="39.11512"><ele>108.9</ele><time>2023-12-31T12:23:19Z</time></trkpt><trkpt lat="58.038137" lon="39.115257"><ele>110.0</ele><time>2023-12-31T12:23:22Z</time></trkpt><trkpt lat="58.03811" lon="39.1154"><ele>108.5</ele><time>2023-12-31T12:23:25Z</time></trkpt><trkpt lat="58.038065" lon="39.11554"><ele>107.9</ele><time>2023-12-31T12:23:29Z</time></trkpt><trkpt lat="58.037987" lon="39.115523"><ele>108.2</ele><time>2023-12-31T12:23:32Z</time></trkpt><trkpt lat="58.03791" lon="39.115462"><ele>107.3</ele><time>2023-12-31T12:23:35Z</time></trkpt><trkpt lat="58.037852" lon="39.115382"><ele>106.6</ele><time>2023-12-31T12:23:38Z</time></trkpt><trkpt lat="58.037775" lon="39.115257"><ele>104.7</ele><time>2023-12-31T12:23:42Z</time></trkpt><trkpt lat="58.037703" lon="39.11515"><ele>105.5</ele><time>2023-12-31T12:23:45Z</time></trkpt><trkpt lat="58.03762" lon="39.115065"><ele>105.0</ele><time>2023-12-31T12:23:48Z</time></trkpt><trkpt lat="58.037535" lon="39.114987"><ele>104.7</ele><time>2023-12-31T12:23:51Z</time></trkpt><trkpt lat="58.037455" lon="39.114925"><ele>103.8</ele><time>2023-12-31T12:23:53Z</time></trkpt><trkpt lat="58.037375" lon="39.114875"><ele>102.9</ele><time>2023-12-31T12:23:55Z</time></trkpt><trkpt lat="58.037295" lon="39.11481"><ele>102.1</ele><time>2023-12-31T12:23:57Z</time></trkpt><trkpt lat="58.037222" lon="39.114767"><ele>102.3</ele><time>2023-12-31T12:23:59Z</time></trkpt><trkpt lat="58.03715" lon="39.11472"><ele>102.8</ele><time>2023-12-31T12:24:01Z</time></trkpt><trkpt lat="58.03706" lon="39.11467"><ele>102.1</ele><time>2023-12-31T12:24:04Z</time></trkpt><trkpt lat="58.036975" lon="39.114642"><ele>103.3</ele><time>2023-12-31T12:24:07Z</time></trkpt><trkpt lat="58.036895" lon="39.11463"><ele>102.8</ele><time>2023-12-31T12:24:10Z</time></trkpt><trkpt lat="58.036825" lon="39.11458"><ele>103.7</ele><time>2023-12-31T12:24:13Z</time></trkpt><trkpt lat="58.036745" lon="39.114535"><ele>102.0</ele><time>2023-12-31T12:24:16Z</time></trkpt><trkpt lat="58.036662" lon="39.114465"><ele>101.1</ele><time>2023-12-31T12:24:19Z</time></trkpt><trkpt lat="58.036585" lon="39.11439"><ele>104.1</ele><time>2023-12-31T12:24:22Z</time></trkpt><trkpt lat="58.036492" lon="39.11434"><ele>102.2</ele><time>2023-12-31T12:24:25Z</time></trkpt><trkpt lat="58.036405" lon="39.11428"><ele>103.3</ele><time>2023-12-31T12:24:28Z</time></trkpt><trkpt lat="58.03631" lon="39.114195"><ele>105.5</ele><time>2023-12-31T12:24:31Z</time></trkpt><trkpt lat="58.03624" lon="39.11412"><ele>105.0</ele><time>2023-12-31T12:24:34Z</time></trkpt><trkpt lat="58.03616" lon="39.114035"><ele>104.4</ele><time>2023-12-31T12:24:37Z</time></trkpt><trkpt lat="58.03607" lon="39.113975"><ele>103.9</ele><time>2023-12-31T12:24:40Z</time></trkpt><trkpt lat="58.035977" lon="39.11399"><ele>104.0</ele><time>2023-12-31T12:24:44Z</time></trkpt><trkpt lat="58.03588" lon="39.11403"><ele>105.7</ele><time>2023-12-31T12:24:48Z</time></trkpt><trkpt lat="58.035817" lon="39.114145"><ele>105.9</ele><time>2023-12-31T12:24:52Z</time></trkpt><trkpt lat="58.035757" lon="39.114243"><ele>107.0</ele><time>2023-12-31T12:24:55Z</time></trkpt><trkpt lat="58.035695" lon="39.11436"><ele>104.8</ele><time>2023-12-31T12:24:59Z</time></trkpt><trkpt lat="58.03564" lon="39.11446"><ele>104.8</ele><time>2023-12-31T12:25:02Z</time></trkpt><trkpt lat="58.03558" lon="39.114565"><ele>105.2</ele><time>2023-12-31T12:25:05Z</time></trkpt><trkpt lat="58.03552" lon="39.114645"><ele>106.1</ele><time>2023-12-31T12:25:08Z</time></trkpt><trkpt lat="58.03546" lon="39.11474"><ele>106.3</ele><time>2023-12-31T12:25:11Z</time></trkpt><trkpt lat="58.035395" lon="39.114837"><ele>104.7</ele><time>2023-12-31T12:25:14Z</time></trkpt><trkpt lat="58.03534" lon="39.114932"><ele>108.5</ele><time>2023-12-31T12:25:18Z</time></trkpt><trkpt lat="58.03528" lon="39.115052"><ele>107.5</ele><time>2023-12-31T12:25:22Z</time></trkpt><trkpt lat="58.035215" lon="39.11517"><ele>106.2</ele><time>2023-12-31T12:25:26Z</time></trkpt><trkpt lat="58.035155" lon="39.11529"><ele>107.6</ele><time>2023-12-31T12:25:29Z</time></trkpt><trkpt lat="58.035095" lon="39.115392"><ele>108.3</ele><time>2023-12-31T12:25:32Z</time></trkpt><trkpt lat="58.035035" lon="39.11552"><ele>109.6</ele><time>2023-12-31T12:25:35Z</time></trkpt><trkpt lat="58.03499" lon="39.115625"><ele>108.7</ele><time>2023-12-31T12:25:38Z</time></trkpt><trkpt lat="58.03494" lon="39.115755"><ele>112.6</ele><time>2023-12-31T12:25:42Z</time></trkpt><trkpt lat="58.03488" lon="39.11587"><ele>111.5</ele><time>2023-12-31T12:25:46Z</time></trkpt><trkpt lat="58.03483" lon="39.115987"><ele>112.2</ele><time>2023-12-31T12:25:49Z</time></trkpt><trkpt lat="58.03478" lon="39.116105"><ele>112.4</ele><time>2023-12-31T12:25:53Z</time></trkpt><trkpt lat="58.034725" lon="39.116212"><ele>111.9</ele><time>2023-12-31T12:25:57Z</time></trkpt><trkpt lat="58.034662" lon="39.116327"><ele>112.2</ele><time>2023-12-31T12:26:02Z</time></trkpt><trkpt lat="58.034597" lon="39.116435"><ele>110.3</ele><time>2023-12-31T12:26:05Z</time></trkpt><trkpt lat="58.034505" lon="39.116487"><ele>109.2</ele><time>2023-12-31T12:26:08Z</time></trkpt><trkpt lat="58.03442" lon="39.116505"><ele>108.9</ele><time>2023-12-31T12:26:10Z</time></trkpt><trkpt lat="58.034325" lon="39.116517"><ele>108.7</ele><time>2023-12-31T12:26:13Z</time></trkpt><trkpt lat="58.034245" lon="39.116515"><ele>109.8</ele><time>2023-12-31T12:26:15Z</time></trkpt><trkpt lat="58.034155" lon="39.116525"><ele>109.1</ele><time>2023-12-31T12:26:18Z</time></trkpt><trkpt lat="58.03407" lon="39.116545"><ele>109.6</ele><time>2023-12-31T12:26:22Z</time></trkpt><trkpt lat="58.034" lon="39.116642"><ele>112.4</ele><time>2023-12-31T12:26:25Z</time></trkpt><trkpt lat="58.033937" lon="39.11672"><ele>111.4</ele><time>2023-12-31T12:26:27Z</time></trkpt><trkpt lat="58.033865" lon="39.116832"><ele>110.0</ele><time>2023-12-31T12:26:30Z</time></trkpt><trkpt lat="58.0338" lon="39.11694"><ele>109.6</ele><time>2023-12-31T12:26:32Z</time></trkpt><trkpt lat="58.03373" lon="39.117043"><ele>108.3</ele><time>2023-12-31T12:26:34Z</time></trkpt><trkpt lat="58.033667" lon="39.117155"><ele>108.4</ele><time>2023-12-31T12:26:36Z</time></trkpt><trkpt lat="58.03362" lon="39.117268"><ele>108.5</ele><time>2023-12-31T12:26:38Z</time></trkpt><trkpt lat="58.033567" lon="39.11737"><ele>108.2</ele><time>2023-12-31T12:26:40Z</time></trkpt><trkpt lat="58.033515" lon="39.11748"><ele>106.3</ele><time>2023-12-31T12:26:43Z</time></trkpt><trkpt lat="58.033462" lon="39.117585"><ele>106.0</ele><time>2023-12-31T12:26:46Z</time></trkpt><trkpt lat="58.033402" lon="39.117682"><ele>106.7</ele><time>2023-12-31T12:26:50Z</time></trkpt><trkpt lat="58.033347" lon="39.117818"><ele>107.0</ele><time>2023-12-31T12:26:54Z</time></trkpt><trkpt lat="58.033295" lon="39.117935"><ele>108.8</ele><time>2023-12-31T12:26:58Z</time></trkpt><trkpt lat="58.033245" lon="39.11804"><ele>107.0</ele><time>2023-12-31T12:27:02Z</time></trkpt><trkpt lat="58.03319" lon="39.118202"><ele>107.8</ele><time>2023-12-31T12:27:06Z</time></trkpt><trkpt lat="58.03315" lon="39.11839"><ele>106.8</ele><time>2023-12-31T12:27:09Z</time></trkpt><trkpt lat="58.03312" lon="39.11853"><ele>107.0</ele><time>2023-12-31T12:27:12Z</time></trkpt><trkpt lat="58.03311" lon="39.118685"><ele>106.5</ele><time>2023-12-31T12:27:15Z</time></trkpt><trkpt lat="58.033135" lon="39.11883"><ele>107.1</ele><time>2023-12-31T12:27:19Z</time></trkpt><trkpt lat="58.033197" lon="39.118915"><ele>105.5</ele><time>2023-12-31T12:27:23Z</time></trkpt><trkpt lat="58.033282" lon="39.119"><ele>104.5</ele><time>2023-12-31T12:27:27Z</time></trkpt><trkpt lat="58.033372" lon="39.11904"><ele>104.2</ele><time>2023-12-31T12:27:30Z</time></trkpt><trkpt lat="58.033445" lon="39.119065"><ele>102.9</ele><time>2023-12-31T12:27:33Z</time></trkpt><trkpt lat="58.033515" lon="39.119105"><ele>101.6</ele><time>2023-12-31T12:27:36Z</time></trkpt><trkpt lat="58.03361" lon="39.119205"><ele>101.6</ele><time>2023-12-31T12:27:40Z</time></trkpt><trkpt lat="58.033675" lon="39.119265"><ele>102.3</ele><time>2023-12-31T12:27:44Z</time></trkpt><trkpt lat="58.033755" lon="39.119335"><ele>100.5</ele><time>2023-12-31T12:27:48Z</time></trkpt><trkpt lat="58.033822" lon="39.119425"><ele>102.7</ele><time>2023-12-31T12:27:52Z</time></trkpt><trkpt lat="58.03389" lon="39.1195"><ele>102.2</ele><time>2023-12-31T12:27:56Z</time></trkpt><trkpt lat="58.03397" lon="39.11939"><ele>103.9</ele><time>2023-12-31T12:28:03Z</time></trkpt><trkpt lat="58.034015" lon="39.119265"><ele>103.0</ele><time>2023-12-31T12:28:07Z</time></trkpt><trkpt lat="58.03405" lon="39.119115"><ele>105.5</ele><time>2023-12-31T12:28:11Z</time></trkpt><trkpt lat="58.03407" lon="39.118967"><ele>105.7</ele><time>2023-12-31T12:28:15Z</time></trkpt><trkpt lat="58.03405" lon="39.118835"><ele>105.6</ele><time>2023-12-31T12:28:19Z</time></trkpt><trkpt lat="58.03398" lon="39.118727"><ele>105.7</ele><time>2023-12-31T12:28:23Z</time></trkpt><trkpt lat="58.033915" lon="39.118642"><ele>107.2</ele><time>2023-12-31T12:28:27Z</time></trkpt><trkpt lat="58.03386" lon="39.118535"><ele>108.0</ele><time>2023-12-31T12:28:31Z</time></trkpt><trkpt lat="58.03382" lon="39.1184"><ele>108.3</ele><time>2023-12-31T12:28:35Z</time></trkpt><trkpt lat="58.033807" lon="39.11826"><ele>110.7</ele><time>2023-12-31T12:28:40Z</time></trkpt><trkpt lat="58.03379" lon="39.11812"><ele>110.4</ele><time>2023-12-31T12:28:45Z</time></trkpt><trkpt lat="58.03379" lon="39.117957"><ele>109.6</ele><time>2023-12-31T12:28:49Z</time></trkpt><trkpt lat="58.033825" lon="39.117785"><ele>108.2</ele><time>2023-12-31T12:28:53Z</time></trkpt><trkpt lat="58.033862" lon="39.117625"><ele>107.1</ele><time>2023-12-31T12:28:56Z</time></trkpt><trkpt lat="58.03392" lon="39.11745"><ele>107.4</ele><time>2023-12-31T12:28:59Z</time></trkpt><trkpt lat="58.033975" lon="39.11734"><ele>107.3</ele><time>2023-12-31T12:29:01Z</time></trkpt><trkpt lat="58.03404" lon="39.117235"><ele>107.2</ele><time>2023-12-31T12:29:03Z</time></trkpt><trkpt lat="58.034117" lon="39.117167"><ele>106.7</ele><time>2023-12-31T12:29:05Z</time></trkpt><trkpt lat="58.03419" lon="39.117127"><ele>106.6</ele><time>2023-12-31T12:29:07Z</time></trkpt><trkpt lat="58.03428" lon="39.117105"><ele>107.9</ele><time>2023-12-31T12:29:10Z</time></trkpt><trkpt lat="58.03437" lon="39.117102"><ele>106.8</ele><time>2023-12-31T12:29:14Z</time></trkpt><trkpt lat="58.034442" lon="39.117127"><ele>105.6</ele><time>2023-12-31T12:29:17Z</time></trkpt><trkpt lat="58.034525" lon="39.117155"><ele>105.7</ele><time>2023-12-31T12:29:20Z</time></trkpt><trkpt lat="58.034597" lon="39.11723"><ele>106.9</ele><time>2023-12-31T12:29:24Z</time></trkpt><trkpt lat="58.034668" lon="39.117255"><ele>105.4</ele><time>2023-12-31T12:29:27Z</time></trkpt><trkpt lat="58.03478" lon="39.11734"><ele>103.6</ele><time>2023-12-31T12:29:31Z</time></trkpt><trkpt lat="58.034867" lon="39.117347"><ele>104.5</ele><time>2023-12-31T12:29:33Z</time></trkpt><trkpt lat="58.034985" lon="39.11745"><ele>103.1</ele><time>2023-12-31T12:29:35Z</time></trkpt><trkpt lat="58.035045" lon="39.117545"><ele>102.9</ele><time>2023-12-31T12:29:36Z</time></trkpt><trkpt lat="58.03511" lon="39.11762"><ele>102.4</ele><time>2023-12-31T12:29:37Z</time></trkpt><trkpt lat="58.035235" lon="39.11776"><ele>103.0</ele><time>2023-12-31T12:29:39Z</time></trkpt><trkpt lat="58.035337" lon="39.117882"><ele>103.0</ele><time>2023-12-31T12:29:41Z</time></trkpt><trkpt lat="58.035442" lon="39.118025"><ele>102.8</ele><time>2023-12-31T12:29:43Z</time></trkpt><trkpt lat="58.035527" lon="39.11804"><ele>103.1</ele><time>2023-12-31T12:29:45Z</time></trkpt><trkpt lat="58.035583" lon="39.118187"><ele>101.3</ele><time>2023-12-31T12:29:48Z</time></trkpt><trkpt lat="58.035652" lon="39.11831"><ele>100.8</ele><time>2023-12-31T12:29:53Z</time></trkpt><trkpt lat="58.035705" lon="39.11843"><ele>98.5</ele><time>2023-12-31T12:29:56Z</time></trkpt><trkpt lat="58.035795" lon="39.118482"><ele>98.1</ele><time>2023-12-31T12:30:00Z</time></trkpt><trkpt lat="58.035852" lon="39.118563"><ele>97.4</ele><time>2023-12-31T12:30:03Z</time></trkpt><trkpt lat="58.035905" lon="39.118665"><ele>97.8</ele><time>2023-12-31T12:30:07Z</time></trkpt><trkpt lat="58.035955" lon="39.11877"><ele>97.7</ele><time>2023-12-31T12:30:11Z</time></trkpt><trkpt lat="58.03602" lon="39.118858"><ele>97.1</ele><time>2023-12-31T12:30:15Z</time></trkpt><trkpt lat="58.03609" lon="39.11895"><ele>96.0</ele><time>2023-12-31T12:30:19Z</time></trkpt><trkpt lat="58.036145" lon="39.119087"><ele>97.4</ele><time>2023-12-31T12:30:22Z</time></trkpt><trkpt lat="58.03621" lon="39.119155"><ele>97.2</ele><time>2023-12-31T12:30:26Z</time></trkpt><trkpt lat="58.036275" lon="39.119238"><ele>98.7</ele><time>2023-12-31T12:30:30Z</time></trkpt><trkpt lat="58.03635" lon="39.1193"><ele>97.2</ele><time>2023-12-31T12:30:35Z</time></trkpt><trkpt lat="58.036427" lon="39.11938"><ele>95.5</ele><time>2023-12-31T12:30:40Z</time></trkpt><trkpt lat="58.036497" lon="39.119387"><ele>98.9</ele><time>2023-12-31T12:30:44Z</time></trkpt><trkpt lat="58.03658" lon="39.119387"><ele>99.9</ele><time>2023-12-31T12:30:48Z</time></trkpt><trkpt lat="58.03666" lon="39.119375"><ele>100.7</ele><time>2023-12-31T12:30:52Z</time></trkpt><trkpt lat="58.036747" lon="39.119347"><ele>100.7</ele><time>2023-12-31T12:30:56Z</time></trkpt><trkpt lat="58.036827" lon="39.119285"><ele>102.2</ele><time>2023-12-31T12:31:01Z</time></trkpt><trkpt lat="58.0369" lon="39.11923"><ele>103.3</ele><time>2023-12-31T12:31:07Z</time></trkpt><trkpt lat="58.036985" lon="39.11918"><ele>105.4</ele><time>2023-12-31T12:31:11Z</time></trkpt><trkpt lat="58.037028" lon="39.11916"><ele>106.2</ele><time>2023-12-31T12:31:18Z</time></trkpt><trkpt lat="58.037115" lon="39.119115"><ele>108.7</ele><time>2023-12-31T12:31:23Z</time></trkpt><trkpt lat="58.037172" lon="39.119005"><ele>108.6</ele><time>2023-12-31T12:31:30Z</time></trkpt><trkpt lat="58.03725" lon="39.118922"><ele>108.0</ele><time>2023-12-31T12:31:35Z</time></trkpt><trkpt lat="58.037305" lon="39.11878"><ele>108.6</ele><time>2023-12-31T12:31:38Z</time></trkpt><trkpt lat="58.037342" lon="39.11863"><ele>108.1</ele><time>2023-12-31T12:31:40Z</time></trkpt><trkpt lat="58.037385" lon="39.11847"><ele>106.8</ele><time>2023-12-31T12:31:42Z</time></trkpt><trkpt lat="58.037425" lon="39.118297"><ele>106.1</ele><time>2023-12-31T12:31:44Z</time></trkpt><trkpt lat="58.037472" lon="39.11813"><ele>105.3</ele><time>2023-12-31T12:31:46Z</time></trkpt><trkpt lat="58.037525" lon="39.11795"><ele>105.8</ele><time>2023-12-31T12:31:48Z</time></trkpt><trkpt lat="58.03758" lon="39.117835"><ele>105.3</ele><time>2023-12-31T12:31:50Z</time></trkpt><trkpt lat="58.037632" lon="39.11774"><ele>105.4</ele><time>2023-12-31T12:31:52Z</time></trkpt><trkpt lat="58.0377" lon="39.11762"><ele>103.4</ele><time>2023-12-31T12:31:55Z</time></trkpt><trkpt lat="58.037765" lon="39.117525"><ele>102.2</ele><time>2023-12-31T12:31:59Z</time></trkpt><trkpt lat="58.037835" lon="39.117442"><ele>102.8</ele><time>2023-12-31T12:32:04Z</time></trkpt><trkpt lat="58.0379" lon="39.117375"><ele>103.1</ele><time>2023-12-31T12:32:07Z</time></trkpt><trkpt lat="58.037967" lon="39.117295"><ele>104.3</ele><time>2023-12-31T12:32:11Z</time></trkpt><trkpt lat="58.038035" lon="39.11723"><ele>106.0</ele><time>2023-12-31T12:32:14Z</time></trkpt><trkpt lat="58.038115" lon="39.117155"><ele>104.9</ele><time>2023-12-31T12:32:18Z</time></trkpt><trkpt lat="58.038185" lon="39.117085"><ele>106.8</ele><time>2023-12-31T12:32:22Z</time></trkpt><trkpt lat="58.038265" lon="39.117005"><ele>105.6</ele><time>2023-12-31T12:32:27Z</time></trkpt><trkpt lat="58.038335" lon="39.116932"><ele>106.3</ele><time>2023-12-31T12:32:32Z</time></trkpt><trkpt lat="58.0384" lon="39.116827"><ele>105.8</ele><time>2023-12-31T12:32:36Z</time></trkpt><trkpt lat="58.03846" lon="39.11672"><ele>106.4</ele><time>2023-12-31T12:32:40Z</time></trkpt><trkpt lat="58.038525" lon="39.116605"><ele>104.5</ele><time>2023-12-31T12:32:44Z</time></trkpt><trkpt lat="58.038575" lon="39.116485"><ele>105.2</ele><time>2023-12-31T12:32:49Z</time></trkpt><trkpt lat="58.038605" lon="39.11635"><ele>103.9</ele><time>2023-12-31T12:32:53Z</time></trkpt><trkpt lat="58.038615" lon="39.116167"><ele>104.0</ele><time>2023-12-31T12:32:57Z</time></trkpt><trkpt lat="58.038635" lon="39.11601"><ele>106.4</ele><time>2023-12-31T12:33:01Z</time></trkpt><trkpt lat="58.03867" lon="39.115848"><ele>105.1</ele><time>2023-12-31T12:33:05Z</time></trkpt><trkpt lat="58.038687" lon="39.11572"><ele>107.3</ele><time>2023-12-31T12:33:10Z</time></trkpt><trkpt lat="58.038697" lon="39.11557"><ele>107.4</ele><time>2023-12-31T12:33:15Z</time></trkpt><trkpt lat="58.038707" lon="39.115422"><ele>107.1</ele><time>2023-12-31T12:33:19Z</time></trkpt><trkpt lat="58.038725" lon="39.115265"><ele>107.9</ele><time>2023-12-31T12:33:23Z</time></trkpt><trkpt lat="58.03875" lon="39.1151"><ele>107.9</ele><time>2023-12-31T12:33:27Z</time></trkpt><trkpt lat="58.038775" lon="39.11496"><ele>107.2</ele><time>2023-12-31T12:33:30Z</time></trkpt><trkpt lat="58.0388" lon="39.114807"><ele>107.8</ele><time>2023-12-31T12:33:33Z</time></trkpt><trkpt lat="58.038825" lon="39.11464"><ele>107.7</ele><time>2023-12-31T12:33:36Z</time></trkpt><trkpt lat="58.038832" lon="39.114467"><ele>107.5</ele><time>2023-12-31T12:33:39Z</time></trkpt><trkpt lat="58.03884" lon="39.114332"><ele>106.3</ele><time>2023-12-31T12:33:42Z</time></trkpt><trkpt lat="58.03886" lon="39.11419"><ele>106.5</ele><time>2023-12-31T12:33:45Z</time></trkpt><trkpt lat="58.03889" lon="39.114017"><ele>106.6</ele><time>2023-12-31T12:33:48Z</time></trkpt><trkpt lat="58.038915" lon="39.113875"><ele>106.8</ele><time>2023-12-31T12:33:51Z</time></trkpt><trkpt lat="58.038933" lon="39.11367"><ele>106.3</ele><time>2023-12-31T12:33:55Z</time></trkpt><trkpt lat="58.038945" lon="39.113535"><ele>105.8</ele><time>2023-12-31T12:33:58Z</time></trkpt><trkpt lat="58.038957" lon="39.113385"><ele>107.0</ele><time>2023-12-31T12:34:01Z</time></trkpt><trkpt lat="58.038965" lon="39.113195"><ele>106.8</ele><time>2023-12-31T12:34:04Z</time></trkpt><trkpt lat="58.03896" lon="39.11306"><ele>105.2</ele><time>2023-12-31T12:34:07Z</time></trkpt><trkpt lat="58.038945" lon="39.112865"><ele>104.6</ele><time>2023-12-31T12:34:10Z</time></trkpt><trkpt lat="58.038905" lon="39.11273"><ele>103.5</ele><time>2023-12-31T12:34:13Z</time></trkpt><trkpt lat="58.038845" lon="39.11258"><ele>101.4</ele><time>2023-12-31T12:34:16Z</time></trkpt><trkpt lat="58.038795" lon="39.11248"><ele>102.4</ele><time>2023-12-31T12:34:18Z</time></trkpt><trkpt lat="58.03872" lon="39.11238"><ele>103.1</ele><time>2023-12-31T12:34:21Z</time></trkpt><trkpt lat="58.038655" lon="39.112255"><ele>101.3</ele><time>2023-12-31T12:34:24Z</time></trkpt><trkpt lat="58.038585" lon="39.112225"><ele>100.9</ele><time>2023-12-31T12:34:27Z</time></trkpt><trkpt lat="58.038492" lon="39.112187"><ele>100.9</ele><time>2023-12-31T12:34:32Z</time></trkpt><trkpt lat="58.038415" lon="39.1122"><ele>101.0</ele><time>2023-12-31T12:34:35Z</time></trkpt><trkpt lat="58.038337" lon="39.112272"><ele>101.3</ele><time>2023-12-31T12:34:38Z</time></trkpt><trkpt lat="58.038277" lon="39.11236"><ele>102.0</ele><time>2023-12-31T12:34:41Z</time></trkpt><trkpt lat="58.03824" lon="39.112492"><ele>102.8</ele><time>2023-12-31T12:34:44Z</time></trkpt><trkpt lat="58.038242" lon="39.112662"><ele>104.9</ele><time>2023-12-31T12:34:48Z</time></trkpt><trkpt lat="58.03826" lon="39.112807"><ele>105.7</ele><time>2023-12-31T12:34:51Z</time></trkpt><trkpt lat="58.038282" lon="39.112962"><ele>105.0</ele><time>2023-12-31T12:34:54Z</time></trkpt><trkpt lat="58.038313" lon="39.113127"><ele>103.9</ele><time>2023-12-31T12:34:58Z</time></trkpt><trkpt lat="58.038355" lon="39.113282"><ele>104.4</ele><time>2023-12-31T12:35:02Z</time></trkpt><trkpt lat="58.038375" lon="39.113425"><ele>101.4</ele><time>2023-12-31T12:35:05Z</time></trkpt><trkpt lat="58.038405" lon="39.113552"><ele>102.6</ele><time>2023-12-31T12:35:08Z</time></trkpt><trkpt lat="58.038435" lon="39.113695"><ele>100.7</ele><time>2023-12-31T12:35:11Z</time></trkpt><trkpt lat="58.03845" lon="39.11383"><ele>101.6</ele><time>2023-12-31T12:35:14Z</time></trkpt><trkpt lat="58.03844" lon="39.11398"><ele>102.4</ele><time>2023-12-31T12:35:17Z</time></trkpt><trkpt lat="58.038427" lon="39.11412"><ele>100.1</ele><time>2023-12-31T12:35:21Z</time></trkpt><trkpt lat="58.038397" lon="39.11426"><ele>103.6</ele><time>2023-12-31T12:35:25Z</time></trkpt><trkpt lat="58.038365" lon="39.114392"><ele>103.6</ele><time>2023-12-31T12:35:31Z</time></trkpt><trkpt lat="58.038325" lon="39.114538"><ele>104.3</ele><time>2023-12-31T12:35:35Z</time></trkpt><trkpt lat="58.038295" lon="39.114662"><ele>106.0</ele><time>2023-12-31T12:35:38Z</time></trkpt><trkpt lat="58.038265" lon="39.114795"><ele>107.4</ele><time>2023-12-31T12:35:41Z</time></trkpt><trkpt lat="58.038225" lon="39.11491"><ele>107.9</ele><time>2023-12-31T12:35:44Z</time></trkpt><trkpt lat="58.038185" lon="39.115025"><ele>108.0</ele><time>2023-12-31T12:35:48Z</time></trkpt><trkpt lat="58.03815" lon="39.115175"><ele>107.4</ele><time>2023-12-31T12:35:52Z</time></trkpt><trkpt lat="58.038115" lon="39.115305"><ele>107.1</ele><time>2023-12-31T12:35:56Z</time></trkpt><trkpt lat="58.038087" lon="39.11544"><ele>107.2</ele><time>2023-12-31T12:36:00Z</time></trkpt><trkpt lat="58.03804" lon="39.11555"><ele>104.3</ele><time>2023-12-31T12:36:06Z</time></trkpt><trkpt lat="58.037965" lon="39.115502"><ele>105.0</ele><time>2023-12-31T12:36:11Z</time></trkpt><trkpt lat="58.03789" lon="39.11541"><ele>105.1</ele><time>2023-12-31T12:36:17Z</time></trkpt><trkpt lat="58.03783" lon="39.11532"><ele>104.9</ele><time>2023-12-31T12:36:20Z</time></trkpt><trkpt lat="58.037765" lon="39.11525"><ele>103.3</ele><time>2023-12-31T12:36:23Z</time></trkpt><trkpt lat="58.03769" lon="39.11515"><ele>102.9</ele><time>2023-12-31T12:36:27Z</time></trkpt><trkpt lat="58.03762" lon="39.11506"><ele>104.0</ele><time>2023-12-31T12:36:31Z</time></trkpt><trkpt lat="58.037535" lon="39.114985"><ele>103.2</ele><time>2023-12-31T12:36:35Z</time></trkpt><trkpt lat="58.037437" lon="39.114915"><ele>101.8</ele><time>2023-12-31T12:36:38Z</time></trkpt><trkpt lat="58.037375" lon="39.114847"><ele>99.3</ele><time>2023-12-31T12:36:40Z</time></trkpt><trkpt lat="58.037305" lon="39.114815"><ele>98.1</ele><time>2023-12-31T12:36:42Z</time></trkpt><trkpt lat="58.037205" lon="39.114775"><ele>98.4</ele><time>2023-12-31T12:36:45Z</time></trkpt><trkpt lat="58.037115" lon="39.11475"><ele>99.2</ele><time>2023-12-31T12:36:48Z</time></trkpt><trkpt lat="58.03703" lon="39.114707"><ele>101.2</ele><time>2023-12-31T12:36:52Z</time></trkpt><trkpt lat="58.036935" lon="39.11467"><ele>100.9</ele><time>2023-12-31T12:36:55Z</time></trkpt><trkpt lat="58.036857" lon="39.114622"><ele>99.5</ele><time>2023-12-31T12:36:58Z</time></trkpt><trkpt lat="58.03678" lon="39.114565"><ele>100.0</ele><time>2023-12-31T12:37:02Z</time></trkpt><trkpt lat="58.03671" lon="39.11453"><ele>100.1</ele><time>2023-12-31T12:37:05Z</time></trkpt><trkpt lat="58.036612" lon="39.11446"><ele>99.7</ele><time>2023-12-31T12:37:10Z</time></trkpt><trkpt lat="58.036545" lon="39.114405"><ele>99.6</ele><time>2023-12-31T12:37:13Z</time></trkpt><trkpt lat="58.03648" lon="39.114345"><ele>99.5</ele><time>2023-12-31T12:37:16Z</time></trkpt><trkpt lat="58.036395" lon="39.114275"><ele>100.5</ele><time>2023-12-31T12:37:20Z</time></trkpt><trkpt lat="58.036332" lon="39.1142"><ele>99.8</ele><time>2023-12-31T12:37:23Z</time></trkpt><trkpt lat="58.03626" lon="39.11413"><ele>99.0</ele><time>2023-12-31T12:37:28Z</time></trkpt><trkpt lat="58.036175" lon="39.11406"><ele>101.4</ele><time>2023-12-31T12:37:34Z</time></trkpt><trkpt lat="58.036107" lon="39.11401"><ele>101.0</ele><time>2023-12-31T12:37:38Z</time></trkpt><trkpt lat="58.036027" lon="39.11396"><ele>100.9</ele><time>2023-12-31T12:37:42Z</time></trkpt><trkpt lat="58.035945" lon="39.113975"><ele>98.7</ele><time>2023-12-31T12:37:46Z</time></trkpt><trkpt lat="58.03587" lon="39.11403"><ele>100.3</ele><time>2023-12-31T12:37:50Z</time></trkpt><trkpt lat="58.035795" lon="39.114115"><ele>99.0</ele><time>2023-12-31T12:37:54Z</time></trkpt><trkpt lat="58.03573" lon="39.114255"><ele>98.1</ele><time>2023-12-31T12:37:59Z</time></trkpt><trkpt lat="58.035657" lon="39.114365"><ele>99.6</ele><time>2023-12-31T12:38:03Z</time></trkpt><trkpt lat="58.035602" lon="39.114475"><ele>99.9</ele><time>2023-12-31T12:38:07Z</time></trkpt><trkpt lat="58.03554" lon="39.114602"><ele>99.0</ele><time>2023-12-31T12:38:11Z</time></trkpt><trkpt lat="58.03549" lon="39.114715"><ele>100.5</ele><time>2023-12-31T12:38:15Z</time></trkpt><trkpt lat="58.035427" lon="39.114817"><ele>99.8</ele><time>2023-12-31T12:38:19Z</time></trkpt><trkpt lat="58.035365" lon="39.114925"><ele>99.0</ele><time>2023-12-31T12:38:23Z</time></trkpt><trkpt lat="58.0353" lon="39.11503"><ele>99.4</ele><time>2023-12-31T12:38:27Z</time></trkpt><trkpt lat="58.035235" lon="39.11514"><ele>100.5</ele><time>2023-12-31T12:38:32Z</time></trkpt><trkpt lat="58.03517" lon="39.115275"><ele>102.8</ele><time>2023-12-31T12:38:36Z</time></trkpt><trkpt lat="58.03512" lon="39.115395"><ele>102.3</ele><time>2023-12-31T12:38:39Z</time></trkpt><trkpt lat="58.035055" lon="39.11552"><ele>101.9</ele><time>2023-12-31T12:38:43Z</time></trkpt><trkpt lat="58.035" lon="39.115608"><ele>101.6</ele><time>2023-12-31T12:38:46Z</time></trkpt><trkpt lat="58.034935" lon="39.115715"><ele>102.1</ele><time>2023-12-31T12:38:49Z</time></trkpt><trkpt lat="58.034885" lon="39.115815"><ele>101.2</ele><time>2023-12-31T12:38:53Z</time></trkpt><trkpt lat="58.034822" lon="39.115942"><ele>101.0</ele><time>2023-12-31T12:38:57Z</time></trkpt><trkpt lat="58.03478" lon="39.116058"><ele>103.9</ele><time>2023-12-31T12:39:02Z</time></trkpt><trkpt lat="58.034732" lon="39.116185"><ele>105.0</ele><time>2023-12-31T12:39:06Z</time></trkpt><trkpt lat="58.034667" lon="39.11631"><ele>104.7</ele><time>2023-12-31T12:39:10Z</time></trkpt><trkpt lat="58.034605" lon="39.116395"><ele>104.6</ele><time>2023-12-31T12:39:14Z</time></trkpt><trkpt lat="58.034517" lon="39.11647"><ele>104.6</ele><time>2023-12-31T12:39:18Z</time></trkpt><trkpt lat="58.034443" lon="39.1165"><ele>104.5</ele><time>2023-12-31T12:39:21Z</time></trkpt><trkpt lat="58.034362" lon="39.116535"><ele>105.5</ele><time>2023-12-31T12:39:25Z</time></trkpt><trkpt lat="58.03427" lon="39.116517"><ele>104.6</ele><time>2023-12-31T12:39:29Z</time></trkpt><trkpt lat="58.034197" lon="39.116507"><ele>103.5</ele><time>2023-12-31T12:39:32Z</time></trkpt><trkpt lat="58.0341" lon="39.116552"><ele>102.3</ele><time>2023-12-31T12:39:36Z</time></trkpt><trkpt lat="58.03403" lon="39.116605"><ele>105.2</ele><time>2023-12-31T12:39:40Z</time></trkpt><trkpt lat="58.033975" lon="39.116697"><ele>105.9</ele><time>2023-12-31T12:39:43Z</time></trkpt><trkpt lat="58.033905" lon="39.116812"><ele>105.7</ele><time>2023-12-31T12:39:46Z</time></trkpt><trkpt lat="58.033825" lon="39.11693"><ele>105.1</ele><time>2023-12-31T12:39:49Z</time></trkpt><trkpt lat="58.033767" lon="39.11703"><ele>105.7</ele><time>2023-12-31T12:39:51Z</time></trkpt><trkpt lat="58.033683" lon="39.117145"><ele>103.8</ele><time>2023-12-31T12:39:54Z</time></trkpt><trkpt lat="58.033613" lon="39.117267"><ele>105.7</ele><time>2023-12-31T12:39:57Z</time></trkpt><trkpt lat="58.033555" lon="39.11739"><ele>104.6</ele><time>2023-12-31T12:40:00Z</time></trkpt><trkpt lat="58.033495" lon="39.117527"><ele>105.6</ele><time>2023-12-31T12:40:04Z</time></trkpt><trkpt lat="58.033425" lon="39.11762"><ele>105.1</ele><time>2023-12-31T12:40:08Z</time></trkpt><trkpt lat="58.033375" lon="39.117757"><ele>103.9</ele><time>2023-12-31T12:40:13Z</time></trkpt><trkpt lat="58.03333" lon="39.117872"><ele>104.2</ele><time>2023-12-31T12:40:16Z</time></trkpt><trkpt lat="58.03327" lon="39.117995"><ele>101.8</ele><time>2023-12-31T12:40:21Z</time></trkpt><trkpt lat="58.033227" lon="39.118117"><ele>100.6</ele><time>2023-12-31T12:40:25Z</time></trkpt><trkpt lat="58.033195" lon="39.118253"><ele>99.6</ele><time>2023-12-31T12:40:28Z</time></trkpt><trkpt lat="58.033163" lon="39.118395"><ele>100.8</ele><time>2023-12-31T12:40:31Z</time></trkpt><trkpt lat="58.033135" lon="39.118545"><ele>101.6</ele><time>2023-12-31T12:40:34Z</time></trkpt><trkpt lat="58.033125" lon="39.1187"><ele>100.9</ele><time>2023-12-31T12:40:38Z</time></trkpt><trkpt lat="58.03314" lon="39.118847"><ele>102.1</ele><time>2023-12-31T12:40:42Z</time></trkpt><trkpt lat="58.0332" lon="39.11893"><ele>102.1</ele><time>2023-12-31T12:40:48Z</time></trkpt><trkpt lat="58.033272" lon="39.11899"><ele>103.0</ele><time>2023-12-31T12:40:53Z</time></trkpt><trkpt lat="58.033355" lon="39.119025"><ele>102.2</ele><time>2023-12-31T12:40:56Z</time></trkpt><trkpt lat="58.033435" lon="39.11904"><ele>103.3</ele><time>2023-12-31T12:41:00Z</time></trkpt><trkpt lat="58.03352" lon="39.119098"><ele>102.5</ele><time>2023-12-31T12:41:04Z</time></trkpt><trkpt lat="58.033595" lon="39.119167"><ele>101.5</ele><time>2023-12-31T12:41:08Z</time></trkpt><trkpt lat="58.033665" lon="39.119245"><ele>101.2</ele><time>2023-12-31T12:41:12Z</time></trkpt><trkpt lat="58.03374" lon="39.119322"><ele>101.4</ele><time>2023-12-31T12:41:17Z</time></trkpt><trkpt lat="58.03381" lon="39.119425"><ele>100.8</ele><time>2023-12-31T12:41:23Z</time></trkpt><trkpt lat="58.033892" lon="39.11944"><ele>102.9</ele><time>2023-12-31T12:41:28Z</time></trkpt><trkpt lat="58.03395" lon="39.119357"><ele>102.4</ele><time>2023-12-31T12:41:31Z</time></trkpt><trkpt lat="58.034005" lon="39.119255"><ele>105.5</ele><time>2023-12-31T12:41:35Z</time></trkpt><trkpt lat="58.034017" lon="39.11923"><ele>106.7</ele><time>2023-12-31T12:41:42Z</time></trkpt><trkpt lat="58.034017" lon="39.11923"><ele>106.8</ele><time>2023-12-31T12:41:43Z</time></trkpt><trkpt lat="58.034035" lon="39.11909"><ele>106.2</ele><time>2023-12-31T12:41:46Z</time></trkpt><trkpt lat="58.03408" lon="39.11897"><ele>106.5</ele><time>2023-12-31T12:41:51Z</time></trkpt><trkpt lat="58.034055" lon="39.118825"><ele>107.7</ele><time>2023-12-31T12:41:56Z</time></trkpt><trkpt lat="58.033992" lon="39.11872"><ele>107.8</ele><time>2023-12-31T12:41:58Z</time></trkpt><trkpt lat="58.033935" lon="39.118645"><ele>107.4</ele><time>2023-12-31T12:42:00Z</time></trkpt><trkpt lat="58.03387" lon="39.118535"><ele>107.4</ele><time>2023-12-31T12:42:04Z</time></trkpt><trkpt lat="58.03386" lon="39.118395"><ele>108.5</ele><time>2023-12-31T12:42:06Z</time></trkpt><trkpt lat="58.03382" lon="39.11825"><ele>107.2</ele><time>2023-12-31T12:42:10Z</time></trkpt><trkpt lat="58.0338" lon="39.118105"><ele>107.9</ele><time>2023-12-31T12:42:13Z</time></trkpt><trkpt lat="58.033805" lon="39.117945"><ele>108.4</ele><time>2023-12-31T12:42:16Z</time></trkpt><trkpt lat="58.033838" lon="39.117732"><ele>108.9</ele><time>2023-12-31T12:42:19Z</time></trkpt><trkpt lat="58.033887" lon="39.11755"><ele>109.4</ele><time>2023-12-31T12:42:21Z</time></trkpt><trkpt lat="58.03394" lon="39.117407"><ele>110.1</ele><time>2023-12-31T12:42:23Z</time></trkpt><trkpt lat="58.033992" lon="39.11728"><ele>111.4</ele><time>2023-12-31T12:42:25Z</time></trkpt><trkpt lat="58.034062" lon="39.117185"><ele>110.2</ele><time>2023-12-31T12:42:27Z</time></trkpt><trkpt lat="58.034148" lon="39.117112"><ele>107.9</ele><time>2023-12-31T12:42:29Z</time></trkpt><trkpt lat="58.03423" lon="39.11707"><ele>107.7</ele><time>2023-12-31T12:42:32Z</time></trkpt><trkpt lat="58.03428" lon="39.117032"><ele>106.7</ele><time>2023-12-31T12:42:39Z</time></trkpt><trkpt lat="58.03429" lon="39.117"><ele>106.6</ele><time>2023-12-31T12:42:46Z</time></trkpt><trkpt lat="58.034303" lon="39.117005"><ele>106.4</ele><time>2023-12-31T12:42:53Z</time></trkpt><trkpt lat="58.034373" lon="39.117057"><ele>107.7</ele><time>2023-12-31T12:42:56Z</time></trkpt><trkpt lat="58.034465" lon="39.1171"><ele>107.7</ele><time>2023-12-31T12:43:00Z</time></trkpt><trkpt lat="58.034537" lon="39.11712"><ele>108.3</ele><time>2023-12-31T12:43:02Z</time></trkpt><trkpt lat="58.034607" lon="39.117152"><ele>107.9</ele><time>2023-12-31T12:43:04Z</time></trkpt><trkpt lat="58.03468" lon="39.11718"><ele>107.9</ele><time>2023-12-31T12:43:06Z</time></trkpt><trkpt lat="58.03477" lon="39.117212"><ele>106.3</ele><time>2023-12-31T12:43:08Z</time></trkpt><trkpt lat="58.034875" lon="39.11724"><ele>107.5</ele><time>2023-12-31T12:43:10Z</time></trkpt><trkpt lat="58.034992" lon="39.117332"><ele>106.7</ele><time>2023-12-31T12:43:12Z</time></trkpt><trkpt lat="58.035115" lon="39.117482"><ele>104.8</ele><time>2023-12-31T12:43:14Z</time></trkpt><trkpt lat="58.035225" lon="39.117627"><ele>103.7</ele><time>2023-12-31T12:43:16Z</time></trkpt><trkpt lat="58.03532" lon="39.117775"><ele>102.4</ele><time>2023-12-31T12:43:18Z</time></trkpt><trkpt lat="58.03541" lon="39.117905"><ele>101.4</ele><time>2023-12-31T12:43:20Z</time></trkpt><trkpt lat="58.035477" lon="39.118007"><ele>101.8</ele><time>2023-12-31T12:43:22Z</time></trkpt><trkpt lat="58.035535" lon="39.118112"><ele>100.8</ele><time>2023-12-31T12:43:24Z</time></trkpt><trkpt lat="58.03561" lon="39.118225"><ele>103.5</ele><time>2023-12-31T12:43:26Z</time></trkpt><trkpt lat="58.03568" lon="39.118375"><ele>100.8</ele><time>2023-12-31T12:43:29Z</time></trkpt><trkpt lat="58.035745" lon="39.118485"><ele>100.7</ele><time>2023-12-31T12:43:31Z</time></trkpt><trkpt lat="58.03583" lon="39.118572"><ele>97.6</ele><time>2023-12-31T12:43:35Z</time></trkpt><trkpt lat="58.035905" lon="39.118685"><ele>98.3</ele><time>2023-12-31T12:43:38Z</time></trkpt><trkpt lat="58.035962" lon="39.118787"><ele>97.3</ele><time>2023-12-31T12:43:41Z</time></trkpt><trkpt lat="58.03604" lon="39.11889"><ele>97.0</ele><time>2023-12-31T12:43:44Z</time></trkpt><trkpt lat="58.036113" lon="39.118995"><ele>96.5</ele><time>2023-12-31T12:43:47Z</time></trkpt><trkpt lat="58.036188" lon="39.119083"><ele>97.5</ele><time>2023-12-31T12:43:50Z</time></trkpt><trkpt lat="58.03626" lon="39.119165"><ele>95.9</ele><time>2023-12-31T12:43:53Z</time></trkpt><trkpt lat="58.036335" lon="39.119285"><ele>95.4</ele><time>2023-12-31T12:43:57Z</time></trkpt><trkpt lat="58.036422" lon="39.11938"><ele>97.1</ele><time>2023-12-31T12:44:01Z</time></trkpt><trkpt lat="58.03651" lon="39.119435"><ele>97.0</ele><time>2023-12-31T12:44:05Z</time></trkpt><trkpt lat="58.036575" lon="39.119427"><ele>99.4</ele><time>2023-12-31T12:44:12Z</time></trkpt><trkpt lat="58.03666" lon="39.119382"><ele>98.6</ele><time>2023-12-31T12:44:19Z</time></trkpt><trkpt lat="58.03673" lon="39.119345"><ele>97.5</ele><time>2023-12-31T12:44:23Z</time></trkpt><trkpt lat="58.03681" lon="39.119285"><ele>97.1</ele><time>2023-12-31T12:44:27Z</time></trkpt><trkpt lat="58.036873" lon="39.11925"><ele>98.4</ele><time>2023-12-31T12:44:34Z</time></trkpt><trkpt lat="58.036942" lon="39.119215"><ele>99.0</ele><time>2023-12-31T12:44:41Z</time></trkpt><trkpt lat="58.037022" lon="39.119168"><ele>101.4</ele><time>2023-12-31T12:44:45Z</time></trkpt><trkpt lat="58.037098" lon="39.119122"><ele>101.6</ele><time>2023-12-31T12:44:51Z</time></trkpt><trkpt lat="58.037172" lon="39.11908"><ele>101.4</ele><time>2023-12-31T12:44:57Z</time></trkpt><trkpt lat="58.037245" lon="39.11898"><ele>101.2</ele><time>2023-12-31T12:45:02Z</time></trkpt><trkpt lat="58.037305" lon="39.11885"><ele>99.9</ele><time>2023-12-31T12:45:05Z</time></trkpt><trkpt lat="58.037345" lon="39.118697"><ele>99.0</ele><time>2023-12-31T12:45:07Z</time></trkpt><trkpt lat="58.037392" lon="39.11854"><ele>97.0</ele><time>2023-12-31T12:45:09Z</time></trkpt><trkpt lat="58.037435" lon="39.11837"><ele>95.6</ele><time>2023-12-31T12:45:11Z</time></trkpt><trkpt lat="58.037462" lon="39.118183"><ele>94.8</ele><time>2023-12-31T12:45:13Z</time></trkpt><trkpt lat="58.037495" lon="39.11804"><ele>94.5</ele><time>2023-12-31T12:45:15Z</time></trkpt><trkpt lat="58.037545" lon="39.11791"><ele>94.5</ele><time>2023-12-31T12:45:17Z</time></trkpt><trkpt lat="58.037605" lon="39.117755"><ele>93.5</ele><time>2023-12-31T12:45:20Z</time></trkpt><trkpt lat="58.037695" lon="39.117647"><ele>94.9</ele><time>2023-12-31T12:45:24Z</time></trkpt><trkpt lat="58.037765" lon="39.117575"><ele>94.4</ele><time>2023-12-31T12:45:28Z</time></trkpt><trkpt lat="58.037825" lon="39.117502"><ele>95.4</ele><time>2023-12-31T12:45:31Z</time></trkpt><trkpt lat="58.037902" lon="39.117415"><ele>94.8</ele><time>2023-12-31T12:45:35Z</time></trkpt><trkpt lat="58.03796" lon="39.117325"><ele>94.1</ele><time>2023-12-31T12:45:38Z</time></trkpt><trkpt lat="58.038035" lon="39.117255"><ele>94.3</ele><time>2023-12-31T12:45:42Z</time></trkpt><trkpt lat="58.0381" lon="39.117185"><ele>96.5</ele><time>2023-12-31T12:45:47Z</time></trkpt><trkpt lat="58.03817" lon="39.11711"><ele>99.4</ele><time>2023-12-31T12:45:51Z</time></trkpt><trkpt lat="58.038235" lon="39.117043"><ele>101.7</ele><time>2023-12-31T12:45:55Z</time></trkpt><trkpt lat="58.03829" lon="39.11696"><ele>102.5</ele><time>2023-12-31T12:45:58Z</time></trkpt><trkpt lat="58.038367" lon="39.116903"><ele>105.3</ele><time>2023-12-31T12:46:03Z</time></trkpt><trkpt lat="58.03844" lon="39.116802"><ele>105.4</ele><time>2023-12-31T12:46:07Z</time></trkpt><trkpt lat="58.0385" lon="39.11669"><ele>105.6</ele><time>2023-12-31T12:46:11Z</time></trkpt><trkpt lat="58.03856" lon="39.116562"><ele>104.6</ele><time>2023-12-31T12:46:16Z</time></trkpt><trkpt lat="58.03858" lon="39.116415"><ele>105.3</ele><time>2023-12-31T12:46:20Z</time></trkpt><trkpt lat="58.038595" lon="39.116265"><ele>106.6</ele><time>2023-12-31T12:46:23Z</time></trkpt><trkpt lat="58.0386" lon="39.11611"><ele>103.4</ele><time>2023-12-31T12:46:27Z</time></trkpt><trkpt lat="58.038623" lon="39.115945"><ele>105.5</ele><time>2023-12-31T12:46:31Z</time></trkpt><trkpt lat="58.03866" lon="39.11579"><ele>105.9</ele><time>2023-12-31T12:46:35Z</time></trkpt><trkpt lat="58.038675" lon="39.115655"><ele>104.7</ele><time>2023-12-31T12:46:39Z</time></trkpt><trkpt lat="58.038687" lon="39.11551"><ele>104.0</ele><time>2023-12-31T12:46:43Z</time></trkpt><trkpt lat="58.038707" lon="39.115345"><ele>103.3</ele><time>2023-12-31T12:46:47Z</time></trkpt><trkpt lat="58.038725" lon="39.115192"><ele>102.2</ele><time>2023-12-31T12:46:51Z</time></trkpt><trkpt lat="58.038735" lon="39.115035"><ele>103.8</ele><time>2023-12-31T12:46:55Z</time></trkpt><trkpt lat="58.038757" lon="39.114895"><ele>103.0</ele><time>2023-12-31T12:46:58Z</time></trkpt><trkpt lat="58.038777" lon="39.114737"><ele>101.4</ele><time>2023-12-31T12:47:02Z</time></trkpt><trkpt lat="58.038805" lon="39.114575"><ele>100.4</ele><time>2023-12-31T12:47:05Z</time></trkpt><trkpt lat="58.038825" lon="39.114382"><ele>101.7</ele><time>2023-12-31T12:47:08Z</time></trkpt><trkpt lat="58.038835" lon="39.114225"><ele>103.7</ele><time>2023-12-31T12:47:11Z</time></trkpt><trkpt lat="58.03886" lon="39.11404"><ele>103.9</ele><time>2023-12-31T12:47:14Z</time></trkpt><trkpt lat="58.03887" lon="39.113905"><ele>100.9</ele><time>2023-12-31T12:47:17Z</time></trkpt><trkpt lat="58.038895" lon="39.113745"><ele>102.2</ele><time>2023-12-31T12:47:20Z</time></trkpt><trkpt lat="58.038913" lon="39.113607"><ele>102.0</ele><time>2023-12-31T12:47:23Z</time></trkpt><trkpt lat="58.038922" lon="39.11343"><ele>103.9</ele><time>2023-12-31T12:47:26Z</time></trkpt><trkpt lat="58.038935" lon="39.113265"><ele>103.6</ele><time>2023-12-31T12:47:29Z</time></trkpt><trkpt lat="58.038935" lon="39.113107"><ele>104.9</ele><time>2023-12-31T12:47:32Z</time></trkpt><trkpt lat="58.03893" lon="39.11296"><ele>102.9</ele><time>2023-12-31T12:47:35Z</time></trkpt><trkpt lat="58.038905" lon="39.112802"><ele>104.2</ele><time>2023-12-31T12:47:38Z</time></trkpt><trkpt lat="58.03886" lon="39.11268"><ele>103.5</ele><time>2023-12-31T12:47:40Z</time></trkpt><trkpt lat="58.038807" lon="39.112512"><ele>101.6</ele><time>2023-12-31T12:47:43Z</time></trkpt><trkpt lat="58.03876" lon="39.112405"><ele>103.8</ele><time>2023-12-31T12:47:45Z</time></trkpt><trkpt lat="58.038692" lon="39.11229"><ele>103.2</ele><time>2023-12-31T12:47:48Z</time></trkpt><trkpt lat="58.03862" lon="39.112215"><ele>102.5</ele><time>2023-12-31T12:47:51Z</time></trkpt><trkpt lat="58.038545" lon="39.112157"><ele>101.3</ele><time>2023-12-31T12:47:55Z</time></trkpt><trkpt lat="58.03846" lon="39.112152"><ele>103.4</ele><time>2023-12-31T12:48:00Z</time></trkpt><trkpt lat="58.038372" lon="39.11221"><ele>103.5</ele><time>2023-12-31T12:48:05Z</time></trkpt><trkpt lat="58.0383" lon="39.112315"><ele>102.9</ele><time>2023-12-31T12:48:10Z</time></trkpt><trkpt lat="58.038255" lon="39.112425"><ele>101.6</ele><time>2023-12-31T12:48:13Z</time></trkpt><trkpt lat="58.038237" lon="39.112587"><ele>104.1</ele><time>2023-12-31T12:48:17Z</time></trkpt><trkpt lat="58.038255" lon="39.112737"><ele>104.5</ele><time>2023-12-31T12:48:21Z</time></trkpt><trkpt lat="58.03828" lon="39.112895"><ele>106.5</ele><time>2023-12-31T12:48:25Z</time></trkpt><trkpt lat="58.03831" lon="39.113025"><ele>105.6</ele><time>2023-12-31T12:48:29Z</time></trkpt><trkpt lat="58.038355" lon="39.113182"><ele>104.6</ele><time>2023-12-31T12:48:33Z</time></trkpt><trkpt lat="58.038382" lon="39.11331"><ele>104.8</ele><time>2023-12-31T12:48:36Z</time></trkpt><trkpt lat="58.038415" lon="39.113455"><ele>105.2</ele><time>2023-12-31T12:48:41Z</time></trkpt><trkpt lat="58.038435" lon="39.113597"><ele>102.7</ele><time>2023-12-31T12:48:44Z</time></trkpt><trkpt lat="58.038435" lon="39.113755"><ele>102.3</ele><time>2023-12-31T12:48:48Z</time></trkpt><trkpt lat="58.038425" lon="39.11391"><ele>100.4</ele><time>2023-12-31T12:48:52Z</time></trkpt><trkpt lat="58.038417" lon="39.114052"><ele>100.8</ele><time>2023-12-31T12:48:56Z</time></trkpt><trkpt lat="58.03839" lon="39.114202"><ele>102.1</ele><time>2023-12-31T12:49:00Z</time></trkpt><trkpt lat="58.038355" lon="39.11436"><ele>101.7</ele><time>2023-12-31T12:49:04Z</time></trkpt><trkpt lat="58.038325" lon="39.114507"><ele>103.0</ele><time>2023-12-31T12:49:07Z</time></trkpt><trkpt lat="58.038285" lon="39.114635"><ele>102.1</ele><time>2023-12-31T12:49:10Z</time></trkpt><trkpt lat="58.038243" lon="39.11475"><ele>102.5</ele><time>2023-12-31T12:49:13Z</time></trkpt><trkpt lat="58.038195" lon="39.114875"><ele>103.5</ele><time>2023-12-31T12:49:16Z</time></trkpt><trkpt lat="58.038155" lon="39.11499"><ele>103.5</ele><time>2023-12-31T12:49:19Z</time></trkpt><trkpt lat="58.038125" lon="39.11513"><ele>102.9</ele><time>2023-12-31T12:49:24Z</time></trkpt><trkpt lat="58.038105" lon="39.115285"><ele>102.3</ele><time>2023-12-31T12:49:27Z</time></trkpt><trkpt lat="58.03808" lon="39.11544"><ele>101.6</ele><time>2023-12-31T12:49:30Z</time></trkpt><trkpt lat="58.038015" lon="39.11553"><ele>102.1</ele><time>2023-12-31T12:49:34Z</time></trkpt><trkpt lat="58.037948" lon="39.115472"><ele>101.5</ele><time>2023-12-31T12:49:38Z</time></trkpt><trkpt lat="58.03789" lon="39.115395"><ele>100.4</ele><time>2023-12-31T12:49:42Z</time></trkpt><trkpt lat="58.037827" lon="39.11531"><ele>100.6</ele><time>2023-12-31T12:49:46Z</time></trkpt><trkpt lat="58.037765" lon="39.115228"><ele>99.6</ele><time>2023-12-31T12:49:52Z</time></trkpt><trkpt lat="58.037715" lon="39.115142"><ele>99.0</ele><time>2023-12-31T12:49:59Z</time></trkpt><trkpt lat="58.03765" lon="39.115055"><ele>99.6</ele><time>2023-12-31T12:50:04Z</time></trkpt><trkpt lat="58.03758" lon="39.114965"><ele>101.5</ele><time>2023-12-31T12:50:08Z</time></trkpt><trkpt lat="58.03751" lon="39.114907"><ele>100.1</ele><time>2023-12-31T12:50:11Z</time></trkpt><trkpt lat="58.037408" lon="39.114885"><ele>99.5</ele><time>2023-12-31T12:50:14Z</time></trkpt><trkpt lat="58.03734" lon="39.114875"><ele>101.4</ele><time>2023-12-31T12:50:16Z</time></trkpt><trkpt lat="58.037247" lon="39.11486"><ele>101.0</ele><time>2023-12-31T12:50:19Z</time></trkpt><trkpt lat="58.037165" lon="39.114847"><ele>101.2</ele><time>2023-12-31T12:50:22Z</time></trkpt><trkpt lat="58.037075" lon="39.11483"><ele>99.6</ele><time>2023-12-31T12:50:25Z</time></trkpt><trkpt lat="58.036995" lon="39.11479"><ele>100.2</ele><time>2023-12-31T12:50:27Z</time></trkpt><trkpt lat="58.036915" lon="39.114745"><ele>98.1</ele><time>2023-12-31T12:50:29Z</time></trkpt><trkpt lat="58.03683" lon="39.11469"><ele>98.1</ele><time>2023-12-31T12:50:31Z</time></trkpt><trkpt lat="58.03673" lon="39.114623"><ele>96.1</ele><time>2023-12-31T12:50:34Z</time></trkpt><trkpt lat="58.036653" lon="39.114575"><ele>96.9</ele><time>2023-12-31T12:50:37Z</time></trkpt><trkpt lat="58.036565" lon="39.114495"><ele>95.7</ele><time>2023-12-31T12:50:40Z</time></trkpt><trkpt lat="58.03649" lon="39.114422"><ele>96.4</ele><time>2023-12-31T12:50:43Z</time></trkpt><trkpt lat="58.03642" lon="39.114327"><ele>96.7</ele><time>2023-12-31T12:50:46Z</time></trkpt><trkpt lat="58.03635" lon="39.11427"><ele>95.9</ele><time>2023-12-31T12:50:49Z</time></trkpt><trkpt lat="58.036282" lon="39.114195"><ele>95.5</ele><time>2023-12-31T12:50:51Z</time></trkpt><trkpt lat="58.036187" lon="39.114122"><ele>95.6</ele><time>2023-12-31T12:50:54Z</time></trkpt><trkpt lat="58.03608" lon="39.114055"><ele>95.2</ele><time>2023-12-31T12:50:57Z</time></trkpt><trkpt lat="58.036002" lon="39.114018"><ele>95.9</ele><time>2023-12-31T12:51:00Z</time></trkpt><trkpt lat="58.03591" lon="39.11406"><ele>97.9</ele><time>2023-12-31T12:51:03Z</time></trkpt><trkpt lat="58.035847" lon="39.11417"><ele>98.5</ele><time>2023-12-31T12:51:06Z</time></trkpt><trkpt lat="58.03578" lon="39.11429"><ele>98.2</ele><time>2023-12-31T12:51:09Z</time></trkpt><trkpt lat="58.03572" lon="39.1144"><ele>97.4</ele><time>2023-12-31T12:51:12Z</time></trkpt><trkpt lat="58.035653" lon="39.11449"><ele>99.4</ele><time>2023-12-31T12:51:15Z</time></trkpt><trkpt lat="58.035592" lon="39.114585"><ele>100.1</ele><time>2023-12-31T12:51:18Z</time></trkpt><trkpt lat="58.035535" lon="39.11467"><ele>101.7</ele><time>2023-12-31T12:51:21Z</time></trkpt><trkpt lat="58.03547" lon="39.114782"><ele>101.9</ele><time>2023-12-31T12:51:25Z</time></trkpt><trkpt lat="58.0354" lon="39.11486"><ele>102.2</ele><time>2023-12-31T12:51:29Z</time></trkpt><trkpt lat="58.03533" lon="39.114965"><ele>103.5</ele><time>2023-12-31T12:51:35Z</time></trkpt><trkpt lat="58.03527" lon="39.115105"><ele>103.4</ele><time>2023-12-31T12:51:40Z</time></trkpt><trkpt lat="58.035215" lon="39.1152"><ele>101.5</ele><time>2023-12-31T12:51:44Z</time></trkpt><trkpt lat="58.035147" lon="39.115332"><ele>104.3</ele><time>2023-12-31T12:51:47Z</time></trkpt><trkpt lat="58.035085" lon="39.115467"><ele>103.3</ele><time>2023-12-31T12:51:50Z</time></trkpt><trkpt lat="58.035015" lon="39.115585"><ele>104.3</ele><time>2023-12-31T12:51:53Z</time></trkpt><trkpt lat="58.03496" lon="39.115705"><ele>107.0</ele><time>2023-12-31T12:51:55Z</time></trkpt><trkpt lat="58.034902" lon="39.115825"><ele>104.8</ele><time>2023-12-31T12:51:58Z</time></trkpt><trkpt lat="58.034845" lon="39.115972"><ele>107.3</ele><time>2023-12-31T12:52:01Z</time></trkpt><trkpt lat="58.034785" lon="39.11609"><ele>105.4</ele><time>2023-12-31T12:52:05Z</time></trkpt><trkpt lat="58.034725" lon="39.116185"><ele>109.4</ele><time>2023-12-31T12:52:08Z</time></trkpt><trkpt lat="58.03466" lon="39.1163"><ele>110.2</ele><time>2023-12-31T12:52:11Z</time></trkpt><trkpt lat="58.034605" lon="39.116385"><ele>110.2</ele><time>2023-12-31T12:52:14Z</time></trkpt><trkpt lat="58.034528" lon="39.116435"><ele>109.8</ele><time>2023-12-31T12:52:20Z</time></trkpt><trkpt lat="58.034452" lon="39.116462"><ele>109.5</ele><time>2023-12-31T12:52:23Z</time></trkpt><trkpt lat="58.03438" lon="39.116452"><ele>108.4</ele><time>2023-12-31T12:52:26Z</time></trkpt><trkpt lat="58.034303" lon="39.11645"><ele>108.7</ele><time>2023-12-31T12:52:30Z</time></trkpt><trkpt lat="58.03423" lon="39.116475"><ele>108.4</ele><time>2023-12-31T12:52:35Z</time></trkpt><trkpt lat="58.034162" lon="39.116507"><ele>107.9</ele><time>2023-12-31T12:52:42Z</time></trkpt><trkpt lat="58.03409" lon="39.116545"><ele>108.3</ele><time>2023-12-31T12:52:46Z</time></trkpt><trkpt lat="58.034015" lon="39.116612"><ele>109.5</ele><time>2023-12-31T12:52:50Z</time></trkpt><trkpt lat="58.03395" lon="39.116695"><ele>107.2</ele><time>2023-12-31T12:52:53Z</time></trkpt><trkpt lat="58.033887" lon="39.116818"><ele>108.6</ele><time>2023-12-31T12:52:56Z</time></trkpt><trkpt lat="58.03383" lon="39.11693"><ele>106.1</ele><time>2023-12-31T12:52:58Z</time></trkpt><trkpt lat="58.033772" lon="39.117035"><ele>106.3</ele><time>2023-12-31T12:53:00Z</time></trkpt><trkpt lat="58.033695" lon="39.11717"><ele>107.3</ele><time>2023-12-31T12:53:02Z</time></trkpt><trkpt lat="58.03361" lon="39.117317"><ele>107.3</ele><time>2023-12-31T12:53:04Z</time></trkpt><trkpt lat="58.033532" lon="39.117427"><ele>106.4</ele><time>2023-12-31T12:53:06Z</time></trkpt><trkpt lat="58.033465" lon="39.117515"><ele>102.5</ele><time>2023-12-31T12:53:09Z</time></trkpt><trkpt lat="58.033415" lon="39.117645"><ele>104.8</ele><time>2023-12-31T12:53:12Z</time></trkpt><trkpt lat="58.033355" lon="39.117765"><ele>104.3</ele><time>2023-12-31T12:53:15Z</time></trkpt><trkpt lat="58.03331" lon="39.117872"><ele>105.8</ele><time>2023-12-31T12:53:18Z</time></trkpt><trkpt lat="58.033255" lon="39.11801"><ele>107.6</ele><time>2023-12-31T12:53:21Z</time></trkpt><trkpt lat="58.03321" lon="39.118137"><ele>105.8</ele><time>2023-12-31T12:53:24Z</time></trkpt><trkpt lat="58.03318" lon="39.118285"><ele>105.2</ele><time>2023-12-31T12:53:27Z</time></trkpt><trkpt lat="58.033145" lon="39.118455"><ele>104.5</ele><time>2023-12-31T12:53:30Z</time></trkpt><trkpt lat="58.03312" lon="39.118597"><ele>104.6</ele><time>2023-12-31T12:53:33Z</time></trkpt><trkpt lat="58.03313" lon="39.11875"><ele>105.2</ele><time>2023-12-31T12:53:37Z</time></trkpt><trkpt lat="58.033177" lon="39.118858"><ele>105.4</ele><time>2023-12-31T12:53:42Z</time></trkpt><trkpt lat="58.03326" lon="39.118925"><ele>103.9</ele><time>2023-12-31T12:53:47Z</time></trkpt><trkpt lat="58.033325" lon="39.118972"><ele>104.6</ele><time>2023-12-31T12:53:49Z</time></trkpt><trkpt lat="58.0334" lon="39.11903"><ele>105.1</ele><time>2023-12-31T12:53:52Z</time></trkpt><trkpt lat="58.033485" lon="39.119095"><ele>104.9</ele><time>2023-12-31T12:53:55Z</time></trkpt><trkpt lat="58.03356" lon="39.119162"><ele>105.0</ele><time>2023-12-31T12:53:58Z</time></trkpt><trkpt lat="58.033635" lon="39.11922"><ele>106.3</ele><time>2023-12-31T12:54:02Z</time></trkpt><trkpt lat="58.03371" lon="39.119315"><ele>105.2</ele><time>2023-12-31T12:54:06Z</time></trkpt><trkpt lat="58.033775" lon="39.119385"><ele>105.8</ele><time>2023-12-31T12:54:09Z</time></trkpt><trkpt lat="58.033852" lon="39.119475"><ele>103.7</ele><time>2023-12-31T12:54:12Z</time></trkpt><trkpt lat="58.033915" lon="39.119545"><ele>102.4</ele><time>2023-12-31T12:54:16Z</time></trkpt><trkpt lat="58.033988" lon="39.119502"><ele>101.6</ele><time>2023-12-31T12:54:20Z</time></trkpt><trkpt lat="58.03404" lon="39.11938"><ele>100.7</ele><time>2023-12-31T12:54:24Z</time></trkpt><trkpt lat="58.034085" lon="39.11926"><ele>103.3</ele><time>2023-12-31T12:54:27Z</time></trkpt><trkpt lat="58.034115" lon="39.11909"><ele>105.2</ele><time>2023-12-31T12:54:31Z</time></trkpt><trkpt lat="58.03411" lon="39.118925"><ele>103.6</ele><time>2023-12-31T12:54:35Z</time></trkpt><trkpt lat="58.034055" lon="39.11882"><ele>101.0</ele><time>2023-12-31T12:54:38Z</time></trkpt><trkpt lat="58.033985" lon="39.11874"><ele>104.4</ele><time>2023-12-31T12:54:41Z</time></trkpt><trkpt lat="58.033922" lon="39.11866"><ele>106.3</ele><time>2023-12-31T12:54:44Z</time></trkpt><trkpt lat="58.033875" lon="39.11854"><ele>105.3</ele><time>2023-12-31T12:54:47Z</time></trkpt><trkpt lat="58.03383" lon="39.118405"><ele>105.4</ele><time>2023-12-31T12:54:51Z</time></trkpt><trkpt lat="58.0338" lon="39.118285"><ele>103.5</ele><time>2023-12-31T12:54:56Z</time></trkpt><trkpt lat="58.033767" lon="39.11814"><ele>102.5</ele><time>2023-12-31T12:54:59Z</time></trkpt><trkpt lat="58.033775" lon="39.117982"><ele>104.0</ele><time>2023-12-31T12:55:03Z</time></trkpt><trkpt lat="58.033795" lon="39.11782"><ele>105.4</ele><time>2023-12-31T12:55:07Z</time></trkpt><trkpt lat="58.033845" lon="39.117662"><ele>105.5</ele><time>2023-12-31T12:55:11Z</time></trkpt><trkpt lat="58.033902" lon="39.11752"><ele>104.0</ele><time>2023-12-31T12:55:14Z</time></trkpt><trkpt lat="58.03396" lon="39.117422"><ele>104.2</ele><time>2023-12-31T12:55:16Z</time></trkpt><trkpt lat="58.03402" lon="39.11732"><ele>103.2</ele><time>2023-12-31T12:55:18Z</time></trkpt><trkpt lat="58.0341" lon="39.117222"><ele>102.6</ele><time>2023-12-31T12:55:20Z</time></trkpt><trkpt lat="58.03417" lon="39.11718"><ele>102.4</ele><time>2023-12-31T12:55:22Z</time></trkpt><trkpt lat="58.03426" lon="39.117155"><ele>102.6</ele><time>2023-12-31T12:55:25Z</time></trkpt><trkpt lat="58.03434" lon="39.11714"><ele>102.9</ele><time>2023-12-31T12:55:28Z</time></trkpt><trkpt lat="58.03443" lon="39.117137"><ele>105.7</ele><time>2023-12-31T12:55:33Z</time></trkpt><trkpt lat="58.034512" lon="39.117155"><ele>104.1</ele><time>2023-12-31T12:55:37Z</time></trkpt><trkpt lat="58.034602" lon="39.117205"><ele>103.3</ele><time>2023-12-31T12:55:41Z</time></trkpt><trkpt lat="58.034677" lon="39.117268"><ele>103.3</ele><time>2023-12-31T12:55:44Z</time></trkpt><trkpt lat="58.034765" lon="39.117282"><ele>102.1</ele><time>2023-12-31T12:55:47Z</time></trkpt><trkpt lat="58.034835" lon="39.117365"><ele>102.1</ele><time>2023-12-31T12:55:49Z</time></trkpt><trkpt lat="58.034935" lon="39.1174"><ele>100.2</ele><time>2023-12-31T12:55:51Z</time></trkpt><trkpt lat="58.035048" lon="39.117515"><ele>98.6</ele><time>2023-12-31T12:55:53Z</time></trkpt><trkpt lat="58.03516" lon="39.117672"><ele>97.9</ele><time>2023-12-31T12:55:55Z</time></trkpt><trkpt lat="58.035265" lon="39.117798"><ele>98.0</ele><time>2023-12-31T12:55:57Z</time></trkpt><trkpt lat="58.035335" lon="39.117915"><ele>97.4</ele><time>2023-12-31T12:55:59Z</time></trkpt><trkpt lat="58.03542" lon="39.118005"><ele>97.7</ele><time>2023-12-31T12:56:01Z</time></trkpt><trkpt lat="58.035485" lon="39.118075"><ele>97.8</ele><time>2023-12-31T12:56:03Z</time></trkpt><trkpt lat="58.035555" lon="39.118155"><ele>98.3</ele><time>2023-12-31T12:56:06Z</time></trkpt><trkpt lat="58.03562" lon="39.118235"><ele>97.2</ele><time>2023-12-31T12:56:11Z</time></trkpt><trkpt lat="58.035685" lon="39.118335"><ele>96.9</ele><time>2023-12-31T12:56:15Z</time></trkpt><trkpt lat="58.035745" lon="39.118415"><ele>99.2</ele><time>2023-12-31T12:56:18Z</time></trkpt><trkpt lat="58.035808" lon="39.118487"><ele>99.1</ele><time>2023-12-31T12:56:21Z</time></trkpt><trkpt lat="58.03588" lon="39.118582"><ele>102.1</ele><time>2023-12-31T12:56:25Z</time></trkpt><trkpt lat="58.035945" lon="39.118647"><ele>102.0</ele><time>2023-12-31T12:56:28Z</time></trkpt><trkpt lat="58.036007" lon="39.11873"><ele>100.5</ele><time>2023-12-31T12:56:32Z</time></trkpt><trkpt lat="58.036075" lon="39.118807"><ele>100.8</ele><time>2023-12-31T12:56:36Z</time></trkpt><trkpt lat="58.036145" lon="39.118895"><ele>100.8</ele><time>2023-12-31T12:56:40Z</time></trkpt><trkpt lat="58.036215" lon="39.11897"><ele>98.6</ele><time>2023-12-31T12:56:44Z</time></trkpt><trkpt lat="58.036285" lon="39.119067"><ele>97.2</ele><time>2023-12-31T12:56:49Z</time></trkpt><trkpt lat="58.036357" lon="39.119163"><ele>96.8</ele><time>2023-12-31T12:56:54Z</time></trkpt><trkpt lat="58.036435" lon="39.119252"><ele>96.2</ele><time>2023-12-31T12:56:59Z</time></trkpt><trkpt lat="58.03651" lon="39.119295"><ele>98.7</ele><time>2023-12-31T12:57:04Z</time></trkpt><trkpt lat="58.036595" lon="39.119305"><ele>97.9</ele><time>2023-12-31T12:57:08Z</time></trkpt><trkpt lat="58.036677" lon="39.119307"><ele>98.9</ele><time>2023-12-31T12:57:12Z</time></trkpt><trkpt lat="58.03675" lon="39.119295"><ele>99.5</ele><time>2023-12-31T12:57:16Z</time></trkpt><trkpt lat="58.036825" lon="39.11928"><ele>100.4</ele><time>2023-12-31T12:57:22Z</time></trkpt><trkpt lat="58.036812" lon="39.119265"><ele>100.7</ele><time>2023-12-31T12:57:29Z</time></trkpt><trkpt lat="58.036812" lon="39.119265"><ele>100.7</ele><time>2023-12-31T12:57:30Z</time></trkpt><trkpt lat="58.036887" lon="39.119222"><ele>102.1</ele><time>2023-12-31T12:57:38Z</time></trkpt><trkpt lat="58.03696" lon="39.11919"><ele>102.0</ele><time>2023-12-31T12:57:42Z</time></trkpt><trkpt lat="58.03705" lon="39.11913"><ele>103.6</ele><time>2023-12-31T12:57:47Z</time></trkpt><trkpt lat="58.037125" lon="39.11911"><ele>103.1</ele><time>2023-12-31T12:57:52Z</time></trkpt><trkpt lat="58.037205" lon="39.11904"><ele>102.1</ele><time>2023-12-31T12:57:58Z</time></trkpt><trkpt lat="58.037257" lon="39.11895"><ele>102.0</ele><time>2023-12-31T12:58:01Z</time></trkpt><trkpt lat="58.037295" lon="39.118825"><ele>101.5</ele><time>2023-12-31T12:58:03Z</time></trkpt><trkpt lat="58.03735" lon="39.118685"><ele>99.9</ele><time>2023-12-31T12:58:05Z</time></trkpt><trkpt lat="58.037397" lon="39.118493"><ele>99.6</ele><time>2023-12-31T12:58:07Z</time></trkpt><trkpt lat="58.03744" lon="39.11831"><ele>99.1</ele><time>2023-12-31T12:58:09Z</time></trkpt><trkpt lat="58.03749" lon="39.118105"><ele>99.2</ele><time>2023-12-31T12:58:11Z</time></trkpt><trkpt lat="58.03754" lon="39.117955"><ele>98.3</ele><time>2023-12-31T12:58:13Z</time></trkpt><trkpt lat="58.037595" lon="39.117795"><ele>97.8</ele><time>2023-12-31T12:58:15Z</time></trkpt><trkpt lat="58.037645" lon="39.117685"><ele>96.7</ele><time>2023-12-31T12:58:17Z</time></trkpt><trkpt lat="58.03774" lon="39.11759"><ele>96.1</ele><time>2023-12-31T12:58:20Z</time></trkpt><trkpt lat="58.037812" lon="39.117512"><ele>96.7</ele><time>2023-12-31T12:58:23Z</time></trkpt><trkpt lat="58.03787" lon="39.11743"><ele>96.8</ele><time>2023-12-31T12:58:26Z</time></trkpt><trkpt lat="58.03793" lon="39.117335"><ele>97.1</ele><time>2023-12-31T12:58:29Z</time></trkpt><trkpt lat="58.037995" lon="39.11728"><ele>97.5</ele><time>2023-12-31T12:58:32Z</time></trkpt><trkpt lat="58.038077" lon="39.117215"><ele>97.5</ele><time>2023-12-31T12:58:36Z</time></trkpt><trkpt lat="58.038165" lon="39.11716"><ele>97.8</ele><time>2023-12-31T12:58:40Z</time></trkpt><trkpt lat="58.038237" lon="39.11707"><ele>96.2</ele><time>2023-12-31T12:58:44Z</time></trkpt><trkpt lat="58.038307" lon="39.11697"><ele>96.9</ele><time>2023-12-31T12:58:48Z</time></trkpt><trkpt lat="58.038375" lon="39.116888"><ele>96.4</ele><time>2023-12-31T12:58:52Z</time></trkpt><trkpt lat="58.038435" lon="39.116802"><ele>98.1</ele><time>2023-12-31T12:58:56Z</time></trkpt><trkpt lat="58.03849" lon="39.116678"><ele>98.4</ele><time>2023-12-31T12:59:00Z</time></trkpt><trkpt lat="58.038527" lon="39.116557"><ele>100.2</ele><time>2023-12-31T12:59:05Z</time></trkpt><trkpt lat="58.038565" lon="39.116405"><ele>101.7</ele><time>2023-12-31T12:59:12Z</time></trkpt><trkpt lat="58.038595" lon="39.116227"><ele>99.8</ele><time>2023-12-31T12:59:16Z</time></trkpt><trkpt lat="58.038618" lon="39.116072"><ele>100.9</ele><time>2023-12-31T12:59:19Z</time></trkpt><trkpt lat="58.03866" lon="39.115935"><ele>103.0</ele><time>2023-12-31T12:59:22Z</time></trkpt><trkpt lat="58.03868" lon="39.115767"><ele>102.7</ele><time>2023-12-31T12:59:25Z</time></trkpt><trkpt lat="58.0387" lon="39.115625"><ele>101.3</ele><time>2023-12-31T12:59:29Z</time></trkpt><trkpt lat="58.038735" lon="39.115435"><ele>102.8</ele><time>2023-12-31T12:59:33Z</time></trkpt><trkpt lat="58.038755" lon="39.115297"><ele>104.3</ele><time>2023-12-31T12:59:35Z</time></trkpt><trkpt lat="58.038772" lon="39.115142"><ele>104.9</ele><time>2023-12-31T12:59:38Z</time></trkpt><trkpt lat="58.038773" lon="39.115"><ele>104.5</ele><time>2023-12-31T12:59:40Z</time></trkpt><trkpt lat="58.03878" lon="39.114785"><ele>104.6</ele><time>2023-12-31T12:59:43Z</time></trkpt><trkpt lat="58.0388" lon="39.1146"><ele>104.2</ele><time>2023-12-31T12:59:46Z</time></trkpt><trkpt lat="58.038825" lon="39.11442"><ele>103.5</ele><time>2023-12-31T12:59:49Z</time></trkpt><trkpt lat="58.038857" lon="39.114235"><ele>103.5</ele><time>2023-12-31T12:59:52Z</time></trkpt><trkpt lat="58.03888" lon="39.114065"><ele>102.3</ele><time>2023-12-31T12:59:55Z</time></trkpt><trkpt lat="58.03891" lon="39.113887"><ele>101.4</ele><time>2023-12-31T12:59:58Z</time></trkpt><trkpt lat="58.03893" lon="39.113755"><ele>102.7</ele><time>2023-12-31T13:00:00Z</time></trkpt><trkpt lat="58.038945" lon="39.113625"><ele>104.3</ele><time>2023-12-31T13:00:02Z</time></trkpt><trkpt lat="58.03896" lon="39.113455"><ele>103.1</ele><time>2023-12-31T13:00:05Z</time></trkpt><trkpt lat="58.03898" lon="39.113285"><ele>103.5</ele><time>2023-12-31T13:00:08Z</time></trkpt><trkpt lat="58.038982" lon="39.113142"><ele>103.8</ele><time>2023-12-31T13:00:11Z</time></trkpt><trkpt lat="58.03898" lon="39.11297"><ele>100.5</ele><time>2023-12-31T13:00:14Z</time></trkpt><trkpt lat="58.038945" lon="39.112805"><ele>101.7</ele><time>2023-12-31T13:00:17Z</time></trkpt><trkpt lat="58.038885" lon="39.112695"><ele>99.4</ele><time>2023-12-31T13:00:19Z</time></trkpt><trkpt lat="58.038835" lon="39.11255"><ele>98.5</ele><time>2023-12-31T13:00:22Z</time></trkpt><trkpt lat="58.038782" lon="39.11244"><ele>97.2</ele><time>2023-12-31T13:00:24Z</time></trkpt><trkpt lat="58.038725" lon="39.11235"><ele>98.9</ele><time>2023-12-31T13:00:26Z</time></trkpt><trkpt lat="58.038635" lon="39.11226"><ele>99.4</ele><time>2023-12-31T13:00:29Z</time></trkpt><trkpt lat="58.03855" lon="39.11224"><ele>99.8</ele><time>2023-12-31T13:00:32Z</time></trkpt><trkpt lat="58.038455" lon="39.112235"><ele>102.0</ele><time>2023-12-31T13:00:35Z</time></trkpt><trkpt lat="58.03837" lon="39.112273"><ele>104.2</ele><time>2023-12-31T13:00:38Z</time></trkpt><trkpt lat="58.0383" lon="39.11233"><ele>101.9</ele><time>2023-12-31T13:00:41Z</time></trkpt><trkpt lat="58.038235" lon="39.112445"><ele>103.8</ele><time>2023-12-31T13:00:44Z</time></trkpt><trkpt lat="58.038225" lon="39.11262"><ele>104.0</ele><time>2023-12-31T13:00:47Z</time></trkpt><trkpt lat="58.038242" lon="39.11279"><ele>103.7</ele><time>2023-12-31T13:00:50Z</time></trkpt><trkpt lat="58.038275" lon="39.11297"><ele>105.6</ele><time>2023-12-31T13:00:54Z</time></trkpt><trkpt lat="58.03833" lon="39.11313"><ele>107.1</ele><time>2023-12-31T13:00:57Z</time></trkpt><trkpt lat="58.03836" lon="39.113252"><ele>105.6</ele><time>2023-12-31T13:01:00Z</time></trkpt><trkpt lat="58.038397" lon="39.113435"><ele>105.6</ele><time>2023-12-31T13:01:03Z</time></trkpt><trkpt lat="58.038425" lon="39.11361"><ele>104.5</ele><time>2023-12-31T13:01:06Z</time></trkpt><trkpt lat="58.038445" lon="39.113745"><ele>104.0</ele><time>2023-12-31T13:01:09Z</time></trkpt><trkpt lat="58.038445" lon="39.1139"><ele>103.8</ele><time>2023-12-31T13:01:12Z</time></trkpt><trkpt lat="58.03842" lon="39.114018"><ele>104.4</ele><time>2023-12-31T13:01:19Z</time></trkpt><trkpt lat="58.03838" lon="39.114145"><ele>104.4</ele><time>2023-12-31T13:01:23Z</time></trkpt><trkpt lat="58.038345" lon="39.11429"><ele>103.9</ele><time>2023-12-31T13:01:27Z</time></trkpt><trkpt lat="58.038295" lon="39.114445"><ele>105.7</ele><time>2023-12-31T13:01:30Z</time></trkpt><trkpt lat="58.038265" lon="39.114595"><ele>105.3</ele><time>2023-12-31T13:01:34Z</time></trkpt><trkpt lat="58.038225" lon="39.114725"><ele>105.2</ele><time>2023-12-31T13:01:37Z</time></trkpt><trkpt lat="58.038185" lon="39.11486"><ele>104.3</ele><time>2023-12-31T13:01:41Z</time></trkpt><trkpt lat="58.038155" lon="39.114985"><ele>105.8</ele><time>2023-12-31T13:01:44Z</time></trkpt><trkpt lat="58.038117" lon="39.11511"><ele>108.3</ele><time>2023-12-31T13:01:47Z</time></trkpt><trkpt lat="58.038095" lon="39.115285"><ele>105.3</ele><time>2023-12-31T13:01:51Z</time></trkpt><trkpt lat="58.03807" lon="39.115447"><ele>103.2</ele><time>2023-12-31T13:01:56Z</time></trkpt><trkpt lat="58.03806" lon="39.115497"><ele>103.7</ele><time>2023-12-31T13:02:03Z</time></trkpt><trkpt lat="58.038057" lon="39.115505"><ele>104.0</ele><time>2023-12-31T13:02:06Z</time></trkpt><trkpt lat="58.038045" lon="39.115445"><ele>102.4</ele><time>2023-12-31T13:02:14Z</time></trkpt><trkpt lat="58.038045" lon="39.115445"><ele>102.4</ele><time>2023-12-31T13:02:19Z</time></trkpt><trkpt lat="58.03806" lon="39.115585"><ele>104.6</ele><time>2023-12-31T13:02:25Z</time></trkpt><trkpt lat="58.03811" lon="39.1157"><ele>103.0</ele><time>2023-12-31T13:02:32Z</time></trkpt><trkpt lat="58.038173" lon="39.11571"><ele>103.3</ele><time>2023-12-31T13:02:39Z</time></trkpt><trkpt lat="58.038137" lon="39.115635"><ele>105.1</ele><time>2023-12-31T13:02:46Z</time></trkpt><trkpt lat="58.03813" lon="39.11562"><ele>105.2</ele><time>2023-12-31T13:02:53Z</time></trkpt><trkpt lat="58.038117" lon="39.11576"><ele>104.7</ele><time>2023-12-31T13:03:03Z</time></trkpt><trkpt lat="58.03814" lon="39.1159"><ele>103.9</ele><time>2023-12-31T13:03:08Z</time></trkpt><trkpt lat="58.038192" lon="39.116005"><ele>103.2</ele><time>2023-12-31T13:03:12Z</time></trkpt><trkpt lat="58.038242" lon="39.11611"><ele>103.1</ele><time>2023-12-31T13:03:17Z</time></trkpt><trkpt lat="58.038275" lon="39.116185"><ele>103.9</ele><time>2023-12-31T13:03:24Z</time></trkpt><trkpt lat="58.038275" lon="39.11618"><ele>104.4</ele><time>2023-12-31T13:03:29Z</time></trkpt></trkseg></trk></gpx>