<?xml version="1.0" encoding="UTF-8" standalone="no"?><gpx xmlns="http://www.topografix.com/GPX/1/1" xmlns:gpxtpx="http://www.garmin.com/xmlschemas/TrackPointExtension/v1" xmlns:xsi="http://www.w3.org/2001/XMLSchema-instance" creator="Sports Tracker" version="1.1" xsi:schemaLocation="http://www.topografix.com/GPX/1/1 http://www.topografix.com/GPX/1/1/gpx.xsd http://www.garmin.com/xmlschemas/TrackPointExtension/v1 http://www.garmin.com/xmlschemas/TrackPointExtensionv1.xsd"><metadata><name>12.10.2024 08:26</name><desc>Восстановлено автоматически</desc><author><name>Александр</name></author></metadata><trk><name>12.10.2024 08:26</name><trkseg><trkpt lat="58.05859" lon="38.80758"><ele>121.9</ele><time>2024-10-12T05:26:55Z</time></trkpt><trkpt lat="58.058605" lon="38.80758"><ele>126.0</ele><time>2024-10-12T05:26:55Z</time></trkpt><trkpt lat="58.058557" lon="38.807585"><ele>120.0</ele><time>2024-10-12T05:27:02Z</time></trkpt><trkpt lat="58.058548" lon="38.807588"><ele>119.5</ele><time>2024-10-12T05:27:09Z</time></trkpt><trkpt lat="58.058557" lon="38.807735"><ele>117.4</ele><time>2024-10-12T05:27:12Z</time></trkpt><trkpt lat="58.05857" lon="38.80792"><ele>116.1</ele><time>2024-10-12T05:27:14Z</time></trkpt><trkpt lat="58.05856" lon="38.80809"><ele>117.3</ele><time>2024-10-12T05:27:16Z</time></trkpt><trkpt lat="58.058547" lon="38.808247"><ele>117.8</ele><time>2024-10-12T05:27:18Z</time></trkpt><trkpt lat="58.058575" lon="38.80838"><ele>111.6</ele><time>2024-10-12T05:27:20Z</time></trkpt><trkpt lat="58.05858" lon="38.80852"><ele>110.3</ele><time>2024-10-12T05:27:22Z</time></trkpt><trkpt lat="58.058548" lon="38.808675"><ele>110.0</ele><time>2024-10-12T05:27:24Z</time></trkpt><trkpt lat="58.058475" lon="38.808765"><ele>111.6</ele><time>2024-10-12T05:27:26Z</time></trkpt><trkpt lat="58.05838" lon="38.808785"><ele>111.4</ele><time>2024-10-12T05:27:28Z</time></trkpt><trkpt lat="58.0583" lon="38.80878"><ele>111.8</ele><time>2024-10-12T05:27:30Z</time></trkpt><trkpt lat="58.05822" lon="38.808805"><ele>112.5</ele><time>2024-10-12T05:27:32Z</time></trkpt><trkpt lat="58.058145" lon="38.80881"><ele>112.9</ele><time>2024-10-12T05:27:34Z</time></trkpt><trkpt lat="58.05804" lon="38.80877"><ele>111.7</ele><time>2024-10-12T05:27:37Z</time></trkpt><trkpt lat="58.057965" lon="38.808725"><ele>112.2</ele><time>2024-10-12T05:27:39Z</time></trkpt><trkpt lat="58.057885" lon="38.808695"><ele>111.5</ele><time>2024-10-12T05:27:41Z</time></trkpt><trkpt lat="58.05781" lon="38.808655"><ele>112.2</ele><time>2024-10-12T05:27:43Z</time></trkpt><trkpt lat="58.05773" lon="38.808637"><ele>112.4</ele><time>2024-10-12T05:27:45Z</time></trkpt><trkpt lat="58.057647" lon="38.808655"><ele>110.4</ele><time>2024-10-12T05:27:47Z</time></trkpt><trkpt lat="58.05755" lon="38.808727"><ele>110.8</ele><time>2024-10-12T05:27:50Z</time></trkpt><trkpt lat="58.057493" lon="38.80883"><ele>108.9</ele><time>2024-10-12T05:27:52Z</time></trkpt><trkpt lat="58.057403" lon="38.808945"><ele>109.0</ele><time>2024-10-12T05:27:55Z</time></trkpt><trkpt lat="58.05732" lon="38.808995"><ele>108.0</ele><time>2024-10-12T05:27:57Z</time></trkpt><trkpt lat="58.057253" lon="38.80908"><ele>105.2</ele><time>2024-10-12T05:27:59Z</time></trkpt><trkpt lat="58.05717" lon="38.809178"><ele>105.6</ele><time>2024-10-12T05:28:01Z</time></trkpt><trkpt lat="58.057095" lon="38.809347"><ele>104.7</ele><time>2024-10-12T05:28:03Z</time></trkpt><trkpt lat="58.057035" lon="38.809517"><ele>103.7</ele><time>2024-10-12T05:28:05Z</time></trkpt><trkpt lat="58.05693" lon="38.80954"><ele>104.2</ele><time>2024-10-12T05:28:07Z</time></trkpt><trkpt lat="58.056825" lon="38.809558"><ele>103.6</ele><time>2024-10-12T05:28:09Z</time></trkpt><trkpt lat="58.05679" lon="38.809747"><ele>104.2</ele><time>2024-10-12T05:28:12Z</time></trkpt><trkpt lat="58.056775" lon="38.809895"><ele>104.9</ele><time>2024-10-12T05:28:14Z</time></trkpt><trkpt lat="58.056775" lon="38.810035"><ele>106.1</ele><time>2024-10-12T05:28:16Z</time></trkpt><trkpt lat="58.05678" lon="38.81021"><ele>105.6</ele><time>2024-10-12T05:28:18Z</time></trkpt><trkpt lat="58.05679" lon="38.810387"><ele>106.6</ele><time>2024-10-12T05:28:21Z</time></trkpt><trkpt lat="58.056775" lon="38.810542"><ele>108.3</ele><time>2024-10-12T05:28:23Z</time></trkpt><trkpt lat="58.056725" lon="38.810667"><ele>109.8</ele><time>2024-10-12T05:28:25Z</time></trkpt><trkpt lat="58.056652" lon="38.81076"><ele>111.9</ele><time>2024-10-12T05:28:27Z</time></trkpt><trkpt lat="58.056555" lon="38.810792"><ele>113.9</ele><time>2024-10-12T05:28:29Z</time></trkpt><trkpt lat="58.05646" lon="38.810802"><ele>115.4</ele><time>2024-10-12T05:28:31Z</time></trkpt><trkpt lat="58.056365" lon="38.810837"><ele>115.1</ele><time>2024-10-12T05:28:33Z</time></trkpt><trkpt lat="58.056268" lon="38.81082"><ele>114.4</ele><time>2024-10-12T05:28:35Z</time></trkpt><trkpt lat="58.05619" lon="38.8108"><ele>113.3</ele><time>2024-10-12T05:28:37Z</time></trkpt><trkpt lat="58.0561" lon="38.810795"><ele>114.8</ele><time>2024-10-12T05:28:39Z</time></trkpt><trkpt lat="58.05602" lon="38.810815"><ele>115.0</ele><time>2024-10-12T05:28:41Z</time></trkpt><trkpt lat="58.05596" lon="38.810915"><ele>114.5</ele><time>2024-10-12T05:28:43Z</time></trkpt><trkpt lat="58.055945" lon="38.811055"><ele>114.1</ele><time>2024-10-12T05:28:45Z</time></trkpt><trkpt lat="58.05596" lon="38.811195"><ele>112.8</ele><time>2024-10-12T05:28:47Z</time></trkpt><trkpt lat="58.055955" lon="38.811357"><ele>110.5</ele><time>2024-10-12T05:28:49Z</time></trkpt><trkpt lat="58.05595" lon="38.811522"><ele>110.0</ele><time>2024-10-12T05:28:51Z</time></trkpt><trkpt lat="58.055937" lon="38.811695"><ele>111.5</ele><time>2024-10-12T05:28:53Z</time></trkpt><trkpt lat="58.055925" lon="38.811895"><ele>112.1</ele><time>2024-10-12T05:28:55Z</time></trkpt><trkpt lat="58.055915" lon="38.81208"><ele>111.7</ele><time>2024-10-12T05:28:57Z</time></trkpt><trkpt lat="58.055887" lon="38.81227"><ele>112.9</ele><time>2024-10-12T05:28:59Z</time></trkpt><trkpt lat="58.055867" lon="38.81246"><ele>111.4</ele><time>2024-10-12T05:29:01Z</time></trkpt><trkpt lat="58.05586" lon="38.812647"><ele>111.4</ele><time>2024-10-12T05:29:03Z</time></trkpt><trkpt lat="58.055855" lon="38.812812"><ele>111.4</ele><time>2024-10-12T05:29:05Z</time></trkpt><trkpt lat="58.055835" lon="38.813"><ele>111.3</ele><time>2024-10-12T05:29:07Z</time></trkpt><trkpt lat="58.055817" lon="38.813185"><ele>112.6</ele><time>2024-10-12T05:29:09Z</time></trkpt><trkpt lat="58.055795" lon="38.813375"><ele>113.0</ele><time>2024-10-12T05:29:11Z</time></trkpt><trkpt lat="58.05579" lon="38.813552"><ele>112.2</ele><time>2024-10-12T05:29:13Z</time></trkpt><trkpt lat="58.055795" lon="38.813722"><ele>109.6</ele><time>2024-10-12T05:29:15Z</time></trkpt><trkpt lat="58.05579" lon="38.813897"><ele>108.2</ele><time>2024-10-12T05:29:17Z</time></trkpt><trkpt lat="58.055785" lon="38.814082"><ele>107.9</ele><time>2024-10-12T05:29:19Z</time></trkpt><trkpt lat="58.055775" lon="38.814272"><ele>108.2</ele><time>2024-10-12T05:29:21Z</time></trkpt><trkpt lat="58.05576" lon="38.814455"><ele>109.6</ele><time>2024-10-12T05:29:23Z</time></trkpt><trkpt lat="58.05574" lon="38.814607"><ele>109.3</ele><time>2024-10-12T05:29:25Z</time></trkpt><trkpt lat="58.05572" lon="38.814745"><ele>109.3</ele><time>2024-10-12T05:29:27Z</time></trkpt><trkpt lat="58.055715" lon="38.814905"><ele>110.5</ele><time>2024-10-12T05:29:29Z</time></trkpt><trkpt lat="58.055685" lon="38.81506"><ele>111.1</ele><time>2024-10-12T05:29:31Z</time></trkpt><trkpt lat="58.05563" lon="38.815207"><ele>110.6</ele><time>2024-10-12T05:29:33Z</time></trkpt><trkpt lat="58.055572" lon="38.815345"><ele>110.5</ele><time>2024-10-12T05:29:35Z</time></trkpt><trkpt lat="58.055515" lon="38.81549"><ele>107.4</ele><time>2024-10-12T05:29:37Z</time></trkpt><trkpt lat="58.05546" lon="38.815642"><ele>106.2</ele><time>2024-10-12T05:29:39Z</time></trkpt><trkpt lat="58.0554" lon="38.81579"><ele>105.5</ele><time>2024-10-12T05:29:41Z</time></trkpt><trkpt lat="58.055347" lon="38.815935"><ele>104.8</ele><time>2024-10-12T05:29:43Z</time></trkpt><trkpt lat="58.05531" lon="38.81608"><ele>106.0</ele><time>2024-10-12T05:29:45Z</time></trkpt><trkpt lat="58.055295" lon="38.81624"><ele>104.4</ele><time>2024-10-12T05:29:48Z</time></trkpt><trkpt lat="58.055217" lon="38.81627"><ele>106.0</ele><time>2024-10-12T05:29:50Z</time></trkpt><trkpt lat="58.055105" lon="38.816225"><ele>107.3</ele><time>2024-10-12T05:29:52Z</time></trkpt><trkpt lat="58.055005" lon="38.816205"><ele>107.9</ele><time>2024-10-12T05:29:54Z</time></trkpt><trkpt lat="58.054955" lon="38.816375"><ele>108.0</ele><time>2024-10-12T05:29:57Z</time></trkpt><trkpt lat="58.05495" lon="38.81652"><ele>107.7</ele><time>2024-10-12T05:29:59Z</time></trkpt><trkpt lat="58.05494" lon="38.816675"><ele>107.4</ele><time>2024-10-12T05:30:01Z</time></trkpt><trkpt lat="58.05492" lon="38.81682"><ele>106.3</ele><time>2024-10-12T05:30:03Z</time></trkpt><trkpt lat="58.054875" lon="38.816947"><ele>105.2</ele><time>2024-10-12T05:30:05Z</time></trkpt><trkpt lat="58.054827" lon="38.81705"><ele>105.4</ele><time>2024-10-12T05:30:07Z</time></trkpt><trkpt lat="58.054777" lon="38.817155"><ele>104.3</ele><time>2024-10-12T05:30:09Z</time></trkpt><trkpt lat="58.054712" lon="38.817315"><ele>103.3</ele><time>2024-10-12T05:30:12Z</time></trkpt><trkpt lat="58.05465" lon="38.817462"><ele>103.2</ele><time>2024-10-12T05:30:15Z</time></trkpt><trkpt lat="58.054595" lon="38.81758"><ele>105.9</ele><time>2024-10-12T05:30:17Z</time></trkpt><trkpt lat="58.054527" lon="38.81769"><ele>106.6</ele><time>2024-10-12T05:30:19Z</time></trkpt><trkpt lat="58.054507" lon="38.81784"><ele>104.8</ele><time>2024-10-12T05:30:21Z</time></trkpt><trkpt lat="58.054507" lon="38.818005"><ele>104.1</ele><time>2024-10-12T05:30:23Z</time></trkpt><trkpt lat="58.0545" lon="38.81816"><ele>103.3</ele><time>2024-10-12T05:30:25Z</time></trkpt><trkpt lat="58.05449" lon="38.818325"><ele>102.9</ele><time>2024-10-12T05:30:27Z</time></trkpt><trkpt lat="58.054485" lon="38.81848"><ele>103.4</ele><time>2024-10-12T05:30:29Z</time></trkpt><trkpt lat="58.054448" lon="38.818635"><ele>103.7</ele><time>2024-10-12T05:30:31Z</time></trkpt><trkpt lat="58.05439" lon="38.818775"><ele>103.6</ele><time>2024-10-12T05:30:33Z</time></trkpt><trkpt lat="58.05432" lon="38.8189"><ele>103.5</ele><time>2024-10-12T05:30:35Z</time></trkpt><trkpt lat="58.05425" lon="38.819035"><ele>103.4</ele><time>2024-10-12T05:30:37Z</time></trkpt><trkpt lat="58.054175" lon="38.81917"><ele>103.1</ele><time>2024-10-12T05:30:39Z</time></trkpt><trkpt lat="58.054105" lon="38.81931"><ele>104.0</ele><time>2024-10-12T05:30:41Z</time></trkpt><trkpt lat="58.054035" lon="38.81943"><ele>102.9</ele><time>2024-10-12T05:30:43Z</time></trkpt><trkpt lat="58.05397" lon="38.81955"><ele>103.0</ele><time>2024-10-12T05:30:45Z</time></trkpt><trkpt lat="58.053905" lon="38.819675"><ele>103.7</ele><time>2024-10-12T05:30:47Z</time></trkpt><trkpt lat="58.053875" lon="38.81983"><ele>102.7</ele><time>2024-10-12T05:30:49Z</time></trkpt><trkpt lat="58.053842" lon="38.81996"><ele>103.1</ele><time>2024-10-12T05:30:51Z</time></trkpt><trkpt lat="58.05378" lon="38.820092"><ele>103.4</ele><time>2024-10-12T05:30:54Z</time></trkpt><trkpt lat="58.053692" lon="38.820145"><ele>102.6</ele><time>2024-10-12T05:30:57Z</time></trkpt><trkpt lat="58.05361" lon="38.820115"><ele>101.5</ele><time>2024-10-12T05:30:59Z</time></trkpt><trkpt lat="58.05351" lon="38.82006"><ele>101.5</ele><time>2024-10-12T05:31:02Z</time></trkpt><trkpt lat="58.053445" lon="38.82018"><ele>101.6</ele><time>2024-10-12T05:31:05Z</time></trkpt><trkpt lat="58.053365" lon="38.82023"><ele>101.7</ele><time>2024-10-12T05:31:07Z</time></trkpt><trkpt lat="58.053257" lon="38.82023"><ele>102.5</ele><time>2024-10-12T05:31:09Z</time></trkpt><trkpt lat="58.053155" lon="38.820225"><ele>102.1</ele><time>2024-10-12T05:31:11Z</time></trkpt><trkpt lat="58.05305" lon="38.820205"><ele>101.0</ele><time>2024-10-12T05:31:13Z</time></trkpt><trkpt lat="58.052948" lon="38.8202"><ele>101.1</ele><time>2024-10-12T05:31:15Z</time></trkpt><trkpt lat="58.05285" lon="38.8202"><ele>101.9</ele><time>2024-10-12T05:31:17Z</time></trkpt><trkpt lat="58.052745" lon="38.820187"><ele>103.8</ele><time>2024-10-12T05:31:19Z</time></trkpt><trkpt lat="58.052653" lon="38.82018"><ele>104.0</ele><time>2024-10-12T05:31:21Z</time></trkpt><trkpt lat="58.052562" lon="38.820175"><ele>103.9</ele><time>2024-10-12T05:31:23Z</time></trkpt><trkpt lat="58.052483" lon="38.82015"><ele>103.9</ele><time>2024-10-12T05:31:25Z</time></trkpt><trkpt lat="58.0524" lon="38.82013"><ele>104.2</ele><time>2024-10-12T05:31:27Z</time></trkpt><trkpt lat="58.052307" lon="38.82012"><ele>104.8</ele><time>2024-10-12T05:31:29Z</time></trkpt><trkpt lat="58.052227" lon="38.820175"><ele>106.9</ele><time>2024-10-12T05:31:30Z</time></trkpt><trkpt lat="58.05214" lon="38.82019"><ele>107.7</ele><time>2024-10-12T05:31:32Z</time></trkpt><trkpt lat="58.05204" lon="38.820145"><ele>108.5</ele><time>2024-10-12T05:31:34Z</time></trkpt><trkpt lat="58.051945" lon="38.820117"><ele>108.5</ele><time>2024-10-12T05:31:36Z</time></trkpt><trkpt lat="58.051842" lon="38.82011"><ele>110.1</ele><time>2024-10-12T05:31:38Z</time></trkpt><trkpt lat="58.05175" lon="38.820085"><ele>109.9</ele><time>2024-10-12T05:31:40Z</time></trkpt><trkpt lat="58.05166" lon="38.82004"><ele>110.5</ele><time>2024-10-12T05:31:42Z</time></trkpt><trkpt lat="58.051568" lon="38.820035"><ele>112.0</ele><time>2024-10-12T05:31:44Z</time></trkpt><trkpt lat="58.05148" lon="38.820035"><ele>112.9</ele><time>2024-10-12T05:31:46Z</time></trkpt><trkpt lat="58.051407" lon="38.819975"><ele>112.2</ele><time>2024-10-12T05:31:48Z</time></trkpt><trkpt lat="58.051315" lon="38.819977"><ele>112.2</ele><time>2024-10-12T05:31:50Z</time></trkpt><trkpt lat="58.051235" lon="38.81997"><ele>113.7</ele><time>2024-10-12T05:31:52Z</time></trkpt><trkpt lat="58.05116" lon="38.819955"><ele>114.9</ele><time>2024-10-12T05:31:54Z</time></trkpt><trkpt lat="58.051077" lon="38.819937"><ele>115.6</ele><time>2024-10-12T05:31:56Z</time></trkpt><trkpt lat="58.05099" lon="38.819927"><ele>115.6</ele><time>2024-10-12T05:31:58Z</time></trkpt><trkpt lat="58.050912" lon="38.819955"><ele>116.4</ele><time>2024-10-12T05:32:00Z</time></trkpt><trkpt lat="58.05083" lon="38.819935"><ele>118.0</ele><time>2024-10-12T05:32:02Z</time></trkpt><trkpt lat="58.05075" lon="38.81991"><ele>117.8</ele><time>2024-10-12T05:32:04Z</time></trkpt><trkpt lat="58.050675" lon="38.819895"><ele>118.0</ele><time>2024-10-12T05:32:06Z</time></trkpt><trkpt lat="58.050575" lon="38.819877"><ele>119.1</ele><time>2024-10-12T05:32:09Z</time></trkpt><trkpt lat="58.0505" lon="38.819857"><ele>118.7</ele><time>2024-10-12T05:32:11Z</time></trkpt><trkpt lat="58.050425" lon="38.819837"><ele>116.8</ele><time>2024-10-12T05:32:13Z</time></trkpt><trkpt lat="58.050345" lon="38.819812"><ele>116.3</ele><time>2024-10-12T05:32:15Z</time></trkpt><trkpt lat="58.05027" lon="38.819782"><ele>114.8</ele><time>2024-10-12T05:32:17Z</time></trkpt><trkpt lat="58.05019" lon="38.81975"><ele>115.3</ele><time>2024-10-12T05:32:19Z</time></trkpt><trkpt lat="58.05012" lon="38.819725"><ele>115.7</ele><time>2024-10-12T05:32:21Z</time></trkpt><trkpt lat="58.05004" lon="38.819705"><ele>115.3</ele><time>2024-10-12T05:32:23Z</time></trkpt><trkpt lat="58.04994" lon="38.819657"><ele>114.0</ele><time>2024-10-12T05:32:26Z</time></trkpt><trkpt lat="58.04985" lon="38.819645"><ele>114.5</ele><time>2024-10-12T05:32:28Z</time></trkpt><trkpt lat="58.0498" lon="38.819775"><ele>113.9</ele><time>2024-10-12T05:32:30Z</time></trkpt><trkpt lat="58.049753" lon="38.819885"><ele>113.2</ele><time>2024-10-12T05:32:32Z</time></trkpt><trkpt lat="58.04969" lon="38.81996"><ele>113.0</ele><time>2024-10-12T05:32:34Z</time></trkpt><trkpt lat="58.049635" lon="38.820098"><ele>113.4</ele><time>2024-10-12T05:32:37Z</time></trkpt><trkpt lat="58.049602" lon="38.82025"><ele>110.9</ele><time>2024-10-12T05:32:40Z</time></trkpt><trkpt lat="58.04951" lon="38.820362"><ele>111.0</ele><time>2024-10-12T05:32:43Z</time></trkpt><trkpt lat="58.04943" lon="38.82044"><ele>109.2</ele><time>2024-10-12T05:32:45Z</time></trkpt><trkpt lat="58.04935" lon="38.82052"><ele>107.8</ele><time>2024-10-12T05:32:47Z</time></trkpt><trkpt lat="58.049265" lon="38.820615"><ele>108.7</ele><time>2024-10-12T05:32:49Z</time></trkpt><trkpt lat="58.04918" lon="38.820703"><ele>108.8</ele><time>2024-10-12T05:32:51Z</time></trkpt><trkpt lat="58.04911" lon="38.820807"><ele>109.6</ele><time>2024-10-12T05:32:53Z</time></trkpt><trkpt lat="58.049035" lon="38.8209"><ele>111.2</ele><time>2024-10-12T05:32:55Z</time></trkpt><trkpt lat="58.048965" lon="38.820995"><ele>111.1</ele><time>2024-10-12T05:32:57Z</time></trkpt><trkpt lat="58.048895" lon="38.821095"><ele>109.8</ele><time>2024-10-12T05:32:59Z</time></trkpt><trkpt lat="58.048825" lon="38.82121"><ele>110.2</ele><time>2024-10-12T05:33:01Z</time></trkpt><trkpt lat="58.04876" lon="38.821325"><ele>110.2</ele><time>2024-10-12T05:33:03Z</time></trkpt><trkpt lat="58.048685" lon="38.821447"><ele>110.8</ele><time>2024-10-12T05:33:05Z</time></trkpt><trkpt lat="58.048592" lon="38.821565"><ele>109.6</ele><time>2024-10-12T05:33:07Z</time></trkpt><trkpt lat="58.048507" lon="38.821675"><ele>106.8</ele><time>2024-10-12T05:33:09Z</time></trkpt><trkpt lat="58.048415" lon="38.82178"><ele>108.2</ele><time>2024-10-12T05:33:11Z</time></trkpt><trkpt lat="58.04834" lon="38.821885"><ele>110.7</ele><time>2024-10-12T05:33:13Z</time></trkpt><trkpt lat="58.04826" lon="38.821982"><ele>111.6</ele><time>2024-10-12T05:33:15Z</time></trkpt><trkpt lat="58.048195" lon="38.822075"><ele>111.2</ele><time>2024-10-12T05:33:17Z</time></trkpt><trkpt lat="58.048135" lon="38.822175"><ele>111.1</ele><time>2024-10-12T05:33:19Z</time></trkpt><trkpt lat="58.048045" lon="38.82226"><ele>111.0</ele><time>2024-10-12T05:33:22Z</time></trkpt><trkpt lat="58.047965" lon="38.822342"><ele>112.2</ele><time>2024-10-12T05:33:25Z</time></trkpt><trkpt lat="58.04789" lon="38.822385"><ele>111.9</ele><time>2024-10-12T05:33:28Z</time></trkpt><trkpt lat="58.047825" lon="38.822405"><ele>111.2</ele><time>2024-10-12T05:33:35Z</time></trkpt><trkpt lat="58.047792" lon="38.82255"><ele>110.5</ele><time>2024-10-12T05:33:40Z</time></trkpt><trkpt lat="58.047775" lon="38.822695"><ele>110.0</ele><time>2024-10-12T05:33:42Z</time></trkpt><trkpt lat="58.04776" lon="38.822845"><ele>107.6</ele><time>2024-10-12T05:33:44Z</time></trkpt><trkpt lat="58.047737" lon="38.823052"><ele>108.3</ele><time>2024-10-12T05:33:46Z</time></trkpt><trkpt lat="58.04772" lon="38.823225"><ele>108.8</ele><time>2024-10-12T05:33:48Z</time></trkpt><trkpt lat="58.047675" lon="38.82338"><ele>108.4</ele><time>2024-10-12T05:33:50Z</time></trkpt><trkpt lat="58.047642" lon="38.82358"><ele>107.3</ele><time>2024-10-12T05:33:52Z</time></trkpt><trkpt lat="58.047602" lon="38.82376"><ele>108.3</ele><time>2024-10-12T05:33:54Z</time></trkpt><trkpt lat="58.047557" lon="38.823965"><ele>108.9</ele><time>2024-10-12T05:33:56Z</time></trkpt><trkpt lat="58.047525" lon="38.824185"><ele>107.5</ele><time>2024-10-12T05:33:58Z</time></trkpt><trkpt lat="58.0475" lon="38.824395"><ele>108.1</ele><time>2024-10-12T05:34:00Z</time></trkpt><trkpt lat="58.047472" lon="38.824605"><ele>106.6</ele><time>2024-10-12T05:34:02Z</time></trkpt><trkpt lat="58.04743" lon="38.824802"><ele>107.3</ele><time>2024-10-12T05:34:04Z</time></trkpt><trkpt lat="58.04739" lon="38.82501"><ele>106.5</ele><time>2024-10-12T05:34:06Z</time></trkpt><trkpt lat="58.047365" lon="38.825242"><ele>105.8</ele><time>2024-10-12T05:34:08Z</time></trkpt><trkpt lat="58.04732" lon="38.82545"><ele>104.9</ele><time>2024-10-12T05:34:10Z</time></trkpt><trkpt lat="58.047282" lon="38.825655"><ele>105.0</ele><time>2024-10-12T05:34:12Z</time></trkpt><trkpt lat="58.047245" lon="38.82586"><ele>105.5</ele><time>2024-10-12T05:34:14Z</time></trkpt><trkpt lat="58.047192" lon="38.82607"><ele>104.5</ele><time>2024-10-12T05:34:16Z</time></trkpt><trkpt lat="58.047142" lon="38.826255"><ele>104.8</ele><time>2024-10-12T05:34:18Z</time></trkpt><trkpt lat="58.047085" lon="38.82643"><ele>102.4</ele><time>2024-10-12T05:34:20Z</time></trkpt><trkpt lat="58.04706" lon="38.826595"><ele>100.5</ele><time>2024-10-12T05:34:22Z</time></trkpt><trkpt lat="58.047022" lon="38.826797"><ele>102.7</ele><time>2024-10-12T05:34:24Z</time></trkpt><trkpt lat="58.046995" lon="38.82698"><ele>104.3</ele><time>2024-10-12T05:34:26Z</time></trkpt><trkpt lat="58.04696" lon="38.827205"><ele>105.7</ele><time>2024-10-12T05:34:28Z</time></trkpt><trkpt lat="58.04692" lon="38.827425"><ele>105.9</ele><time>2024-10-12T05:34:30Z</time></trkpt><trkpt lat="58.04688" lon="38.827645"><ele>105.0</ele><time>2024-10-12T05:34:32Z</time></trkpt><trkpt lat="58.046842" lon="38.82785"><ele>105.1</ele><time>2024-10-12T05:34:34Z</time></trkpt><trkpt lat="58.046797" lon="38.82804"><ele>104.4</ele><time>2024-10-12T05:34:36Z</time></trkpt><trkpt lat="58.04678" lon="38.828235"><ele>105.6</ele><time>2024-10-12T05:34:38Z</time></trkpt><trkpt lat="58.04674" lon="38.82841"><ele>105.9</ele><time>2024-10-12T05:34:40Z</time></trkpt><trkpt lat="58.04672" lon="38.828583"><ele>106.0</ele><time>2024-10-12T05:34:42Z</time></trkpt><trkpt lat="58.04668" lon="38.82877"><ele>108.7</ele><time>2024-10-12T05:34:44Z</time></trkpt><trkpt lat="58.046655" lon="38.828942"><ele>109.6</ele><time>2024-10-12T05:34:46Z</time></trkpt><trkpt lat="58.04661" lon="38.829135"><ele>108.6</ele><time>2024-10-12T05:34:48Z</time></trkpt><trkpt lat="58.046595" lon="38.829335"><ele>108.6</ele><time>2024-10-12T05:34:50Z</time></trkpt><trkpt lat="58.04655" lon="38.82955"><ele>109.1</ele><time>2024-10-12T05:34:52Z</time></trkpt><trkpt lat="58.046502" lon="38.829762"><ele>108.6</ele><time>2024-10-12T05:34:54Z</time></trkpt><trkpt lat="58.04647" lon="38.82989"><ele>108.6</ele><time>2024-10-12T05:34:55Z</time></trkpt><trkpt lat="58.046445" lon="38.83012"><ele>108.2</ele><time>2024-10-12T05:34:57Z</time></trkpt><trkpt lat="58.046402" lon="38.83033"><ele>108.1</ele><time>2024-10-12T05:34:59Z</time></trkpt><trkpt lat="58.046375" lon="38.830535"><ele>109.1</ele><time>2024-10-12T05:35:01Z</time></trkpt><trkpt lat="58.046332" lon="38.830742"><ele>108.9</ele><time>2024-10-12T05:35:03Z</time></trkpt><trkpt lat="58.046302" lon="38.830933"><ele>108.3</ele><time>2024-10-12T05:35:05Z</time></trkpt><trkpt lat="58.04627" lon="38.831115"><ele>110.9</ele><time>2024-10-12T05:35:07Z</time></trkpt><trkpt lat="58.046225" lon="38.83129"><ele>109.1</ele><time>2024-10-12T05:35:09Z</time></trkpt><trkpt lat="58.046175" lon="38.83148"><ele>109.6</ele><time>2024-10-12T05:35:11Z</time></trkpt><trkpt lat="58.046135" lon="38.831652"><ele>109.6</ele><time>2024-10-12T05:35:13Z</time></trkpt><trkpt lat="58.04611" lon="38.831865"><ele>108.7</ele><time>2024-10-12T05:35:15Z</time></trkpt><trkpt lat="58.046075" lon="38.832055"><ele>107.8</ele><time>2024-10-12T05:35:17Z</time></trkpt><trkpt lat="58.046052" lon="38.832225"><ele>105.8</ele><time>2024-10-12T05:35:19Z</time></trkpt><trkpt lat="58.04602" lon="38.832425"><ele>106.3</ele><time>2024-10-12T05:35:21Z</time></trkpt><trkpt lat="58.045977" lon="38.832592"><ele>105.8</ele><time>2024-10-12T05:35:23Z</time></trkpt><trkpt lat="58.045935" lon="38.832742"><ele>107.3</ele><time>2024-10-12T05:35:25Z</time></trkpt><trkpt lat="58.045905" lon="38.832915"><ele>109.5</ele><time>2024-10-12T05:35:27Z</time></trkpt><trkpt lat="58.045883" lon="38.8331"><ele>108.1</ele><time>2024-10-12T05:35:29Z</time></trkpt><trkpt lat="58.045855" lon="38.83327"><ele>109.2</ele><time>2024-10-12T05:35:31Z</time></trkpt><trkpt lat="58.045822" lon="38.833432"><ele>110.8</ele><time>2024-10-12T05:35:33Z</time></trkpt><trkpt lat="58.045795" lon="38.833593"><ele>111.9</ele><time>2024-10-12T05:35:35Z</time></trkpt><trkpt lat="58.045757" lon="38.833745"><ele>111.6</ele><time>2024-10-12T05:35:37Z</time></trkpt><trkpt lat="58.04574" lon="38.83377"><ele>110.2</ele><time>2024-10-12T05:35:44Z</time></trkpt><trkpt lat="58.04574" lon="38.83377"><ele>110.2</ele><time>2024-10-12T05:35:47Z</time></trkpt><trkpt lat="58.045725" lon="38.83392"><ele>107.8</ele><time>2024-10-12T05:36:09Z</time></trkpt><trkpt lat="58.045615" lon="38.834352"><ele>108.7</ele><time>2024-10-12T05:36:11Z</time></trkpt><trkpt lat="58.045602" lon="38.83452"><ele>108.5</ele><time>2024-10-12T05:36:13Z</time></trkpt><trkpt lat="58.04557" lon="38.834695"><ele>105.2</ele><time>2024-10-12T05:36:15Z</time></trkpt><trkpt lat="58.04553" lon="38.83488"><ele>104.4</ele><time>2024-10-12T05:36:17Z</time></trkpt><trkpt lat="58.045497" lon="38.83504"><ele>103.7</ele><time>2024-10-12T05:36:19Z</time></trkpt><trkpt lat="58.04547" lon="38.835167"><ele>102.7</ele><time>2024-10-12T05:36:21Z</time></trkpt><trkpt lat="58.045425" lon="38.835315"><ele>102.7</ele><time>2024-10-12T05:36:23Z</time></trkpt><trkpt lat="58.045395" lon="38.835472"><ele>102.8</ele><time>2024-10-12T05:36:25Z</time></trkpt><trkpt lat="58.045375" lon="38.835625"><ele>100.9</ele><time>2024-10-12T05:36:27Z</time></trkpt><trkpt lat="58.04534" lon="38.835762"><ele>101.1</ele><time>2024-10-12T05:36:29Z</time></trkpt><trkpt lat="58.045315" lon="38.835928"><ele>101.9</ele><time>2024-10-12T05:36:31Z</time></trkpt><trkpt lat="58.045277" lon="38.83609"><ele>100.9</ele><time>2024-10-12T05:36:33Z</time></trkpt><trkpt lat="58.045245" lon="38.83626"><ele>101.3</ele><time>2024-10-12T05:36:35Z</time></trkpt><trkpt lat="58.04522" lon="38.83641"><ele>101.6</ele><time>2024-10-12T05:36:37Z</time></trkpt><trkpt lat="58.0452" lon="38.836565"><ele>104.2</ele><time>2024-10-12T05:36:39Z</time></trkpt><trkpt lat="58.04517" lon="38.83671"><ele>104.7</ele><time>2024-10-12T05:36:41Z</time></trkpt><trkpt lat="58.045145" lon="38.836835"><ele>105.1</ele><time>2024-10-12T05:36:43Z</time></trkpt><trkpt lat="58.045115" lon="38.83701"><ele>105.0</ele><time>2024-10-12T05:36:46Z</time></trkpt><trkpt lat="58.045087" lon="38.837135"><ele>105.8</ele><time>2024-10-12T05:36:48Z</time></trkpt><trkpt lat="58.045063" lon="38.837265"><ele>106.2</ele><time>2024-10-12T05:36:50Z</time></trkpt><trkpt lat="58.045042" lon="38.837395"><ele>106.1</ele><time>2024-10-12T05:36:52Z</time></trkpt><trkpt lat="58.045005" lon="38.83755"><ele>106.9</ele><time>2024-10-12T05:36:55Z</time></trkpt><trkpt lat="58.044922" lon="38.837667"><ele>107.3</ele><time>2024-10-12T05:36:58Z</time></trkpt><trkpt lat="58.044845" lon="38.837725"><ele>107.9</ele><time>2024-10-12T05:37:00Z</time></trkpt><trkpt lat="58.04477" lon="38.837715"><ele>108.3</ele><time>2024-10-12T05:37:02Z</time></trkpt><trkpt lat="58.044695" lon="38.837688"><ele>108.1</ele><time>2024-10-12T05:37:04Z</time></trkpt><trkpt lat="58.044602" lon="38.837668"><ele>109.3</ele><time>2024-10-12T05:37:07Z</time></trkpt><trkpt lat="58.044525" lon="38.83767"><ele>108.7</ele><time>2024-10-12T05:37:10Z</time></trkpt><trkpt lat="58.044562" lon="38.837735"><ele>108.6</ele><time>2024-10-12T05:37:17Z</time></trkpt><trkpt lat="58.044562" lon="38.837747"><ele>108.6</ele><time>2024-10-12T05:37:23Z</time></trkpt><trkpt lat="58.04457" lon="38.837735"><ele>107.4</ele><time>2024-10-12T05:37:36Z</time></trkpt><trkpt lat="58.04457" lon="38.837735"><ele>107.4</ele><time>2024-10-12T05:37:37Z</time></trkpt><trkpt lat="58.044527" lon="38.83784"><ele>106.1</ele><time>2024-10-12T05:37:49Z</time></trkpt><trkpt lat="58.044475" lon="38.837955"><ele>107.2</ele><time>2024-10-12T05:37:55Z</time></trkpt><trkpt lat="58.044448" lon="38.838105"><ele>105.5</ele><time>2024-10-12T05:38:01Z</time></trkpt><trkpt lat="58.04443" lon="38.838255"><ele>102.8</ele><time>2024-10-12T05:38:07Z</time></trkpt><trkpt lat="58.04441" lon="38.838305"><ele>102.2</ele><time>2024-10-12T05:38:14Z</time></trkpt><trkpt lat="58.044415" lon="38.838445"><ele>103.5</ele><time>2024-10-12T05:38:18Z</time></trkpt></trkseg></trk></gpx>