<?xml version="1.0" encoding="UTF-8" standalone="no"?><gpx xmlns="http://www.topografix.com/GPX/1/1" xmlns:gpxtpx="http://www.garmin.com/xmlschemas/TrackPointExtension/v1" xmlns:xsi="http://www.w3.org/2001/XMLSchema-instance" creator="Sports Tracker" version="1.1" xsi:schemaLocation="http://www.topografix.com/GPX/1/1 http://www.topografix.com/GPX/1/1/gpx.xsd http://www.garmin.com/xmlschemas/TrackPointExtension/v1 http://www.garmin.com/xmlschemas/TrackPointExtensionv1.xsd"><metadata><name>13.01.2024 17:42</name><desc/><author><name>Александр</name></author></metadata><trk><name>13.01.2024 17:42</name><trkseg><trkpt lat="58.05592" lon="38.81264"><ele>109.9</ele><time>2024-01-13T14:42:57Z</time></trkpt><trkpt lat="58.05592" lon="38.81264"><ele>109.9</ele><time>2024-01-13T14:50:39Z</time></trkpt><trkpt lat="58.05588" lon="38.812755"><ele>109.7</ele><time>2024-01-13T14:50:44Z</time></trkpt><trkpt lat="58.055852" lon="38.812885"><ele>109.8</ele><time>2024-01-13T14:50:50Z</time></trkpt><trkpt lat="58.055832" lon="38.812995"><ele>109.7</ele><time>2024-01-13T14:50:57Z</time></trkpt><trkpt lat="58.05585" lon="38.813125"><ele>107.9</ele><time>2024-01-13T14:51:01Z</time></trkpt><trkpt lat="58.055855" lon="38.813272"><ele>108.3</ele><time>2024-01-13T14:51:06Z</time></trkpt><trkpt lat="58.055855" lon="38.813415"><ele>109.7</ele><time>2024-01-13T14:51:11Z</time></trkpt><trkpt lat="58.05584" lon="38.813542"><ele>109.7</ele><time>2024-01-13T14:51:18Z</time></trkpt><trkpt lat="58.055845" lon="38.813695"><ele>112.2</ele><time>2024-01-13T14:51:23Z</time></trkpt><trkpt lat="58.05585" lon="38.813865"><ele>112.9</ele><time>2024-01-13T14:51:28Z</time></trkpt><trkpt lat="58.055837" lon="38.814"><ele>112.6</ele><time>2024-01-13T14:51:33Z</time></trkpt><trkpt lat="58.055805" lon="38.8141"><ele>111.2</ele><time>2024-01-13T14:51:40Z</time></trkpt><trkpt lat="58.055805" lon="38.814252"><ele>111.1</ele><time>2024-01-13T14:51:47Z</time></trkpt><trkpt lat="58.0558" lon="38.814445"><ele>111.1</ele><time>2024-01-13T14:51:48Z</time></trkpt><trkpt lat="58.055775" lon="38.81446"><ele>108.8</ele><time>2024-01-13T14:51:55Z</time></trkpt><trkpt lat="58.055755" lon="38.8146"><ele>110.2</ele><time>2024-01-13T14:52:00Z</time></trkpt><trkpt lat="58.05571" lon="38.81469"><ele>109.3</ele><time>2024-01-13T14:52:07Z</time></trkpt><trkpt lat="58.055695" lon="38.814835"><ele>108.0</ele><time>2024-01-13T14:52:13Z</time></trkpt><trkpt lat="58.055715" lon="38.81498"><ele>108.7</ele><time>2024-01-13T14:52:18Z</time></trkpt><trkpt lat="58.055675" lon="38.815097"><ele>107.9</ele><time>2024-01-13T14:52:22Z</time></trkpt><trkpt lat="58.055657" lon="38.815238"><ele>105.6</ele><time>2024-01-13T14:52:26Z</time></trkpt><trkpt lat="58.055592" lon="38.8153"><ele>107.1</ele><time>2024-01-13T14:52:33Z</time></trkpt><trkpt lat="58.05554" lon="38.815382"><ele>107.1</ele><time>2024-01-13T14:52:40Z</time></trkpt><trkpt lat="58.055465" lon="38.81541"><ele>107.7</ele><time>2024-01-13T14:52:46Z</time></trkpt><trkpt lat="58.05543" lon="38.81548"><ele>106.4</ele><time>2024-01-13T14:52:53Z</time></trkpt><trkpt lat="58.055375" lon="38.815585"><ele>107.2</ele><time>2024-01-13T14:52:57Z</time></trkpt><trkpt lat="58.05534" lon="38.815715"><ele>107.2</ele><time>2024-01-13T14:53:01Z</time></trkpt><trkpt lat="58.05533" lon="38.815855"><ele>107.0</ele><time>2024-01-13T14:53:04Z</time></trkpt><trkpt lat="58.05529" lon="38.816002"><ele>106.5</ele><time>2024-01-13T14:53:08Z</time></trkpt><trkpt lat="58.05527" lon="38.816135"><ele>108.5</ele><time>2024-01-13T14:53:11Z</time></trkpt><trkpt lat="58.05524" lon="38.816262"><ele>108.4</ele><time>2024-01-13T14:53:16Z</time></trkpt><trkpt lat="58.055165" lon="38.81626"><ele>107.0</ele><time>2024-01-13T14:53:20Z</time></trkpt><trkpt lat="58.05509" lon="38.816205"><ele>104.4</ele><time>2024-01-13T14:53:24Z</time></trkpt><trkpt lat="58.05501" lon="38.81619"><ele>106.6</ele><time>2024-01-13T14:53:29Z</time></trkpt><trkpt lat="58.05498" lon="38.816347"><ele>107.0</ele><time>2024-01-13T14:53:36Z</time></trkpt><trkpt lat="58.054967" lon="38.8165"><ele>109.4</ele><time>2024-01-13T14:53:42Z</time></trkpt><trkpt lat="58.054935" lon="38.816615"><ele>108.3</ele><time>2024-01-13T14:53:49Z</time></trkpt><trkpt lat="58.054915" lon="38.816755"><ele>109.8</ele><time>2024-01-13T14:53:55Z</time></trkpt><trkpt lat="58.054952" lon="38.8169"><ele>107.4</ele><time>2024-01-13T14:54:00Z</time></trkpt><trkpt lat="58.054965" lon="38.817035"><ele>109.2</ele><time>2024-01-13T14:54:04Z</time></trkpt><trkpt lat="58.05497" lon="38.817172"><ele>107.8</ele><time>2024-01-13T14:54:09Z</time></trkpt><trkpt lat="58.054965" lon="38.81722"><ele>108.7</ele><time>2024-01-13T14:54:16Z</time></trkpt><trkpt lat="58.054895" lon="38.817305"><ele>109.4</ele><time>2024-01-13T14:54:19Z</time></trkpt><trkpt lat="58.054837" lon="38.817385"><ele>110.0</ele><time>2024-01-13T14:54:23Z</time></trkpt><trkpt lat="58.054857" lon="38.817535"><ele>112.6</ele><time>2024-01-13T14:54:28Z</time></trkpt><trkpt lat="58.054875" lon="38.817667"><ele>111.8</ele><time>2024-01-13T14:54:31Z</time></trkpt><trkpt lat="58.054882" lon="38.81783"><ele>110.4</ele><time>2024-01-13T14:54:37Z</time></trkpt><trkpt lat="58.05491" lon="38.81799"><ele>110.1</ele><time>2024-01-13T14:54:43Z</time></trkpt><trkpt lat="58.054947" lon="38.818095"><ele>106.1</ele><time>2024-01-13T14:54:50Z</time></trkpt><trkpt lat="58.05487" lon="38.81814"><ele>106.3</ele><time>2024-01-13T14:54:53Z</time></trkpt><trkpt lat="58.054795" lon="38.81818"><ele>106.1</ele><time>2024-01-13T14:54:57Z</time></trkpt><trkpt lat="58.05474" lon="38.818267"><ele>106.7</ele><time>2024-01-13T14:55:00Z</time></trkpt><trkpt lat="58.05469" lon="38.818395"><ele>103.5</ele><time>2024-01-13T14:55:05Z</time></trkpt><trkpt lat="58.054673" lon="38.818545"><ele>103.2</ele><time>2024-01-13T14:55:10Z</time></trkpt><trkpt lat="58.054655" lon="38.818635"><ele>104.1</ele><time>2024-01-13T14:55:17Z</time></trkpt><trkpt lat="58.054765" lon="38.818545"><ele>94.5</ele><time>2024-01-13T15:00:04Z</time></trkpt><trkpt lat="58.05471" lon="38.818457"><ele>94.7</ele><time>2024-01-13T15:00:10Z</time></trkpt><trkpt lat="58.054745" lon="38.818335"><ele>113.6</ele><time>2024-01-13T15:00:16Z</time></trkpt><trkpt lat="58.0548" lon="38.818198"><ele>110.5</ele><time>2024-01-13T15:00:20Z</time></trkpt><trkpt lat="58.05486" lon="38.81809"><ele>112.5</ele><time>2024-01-13T15:00:24Z</time></trkpt><trkpt lat="58.054885" lon="38.817945"><ele>111.9</ele><time>2024-01-13T15:00:29Z</time></trkpt><trkpt lat="58.054892" lon="38.817795"><ele>111.1</ele><time>2024-01-13T15:00:34Z</time></trkpt><trkpt lat="58.05489" lon="38.817632"><ele>110.5</ele><time>2024-01-13T15:00:39Z</time></trkpt><trkpt lat="58.054895" lon="38.81748"><ele>113.3</ele><time>2024-01-13T15:00:45Z</time></trkpt><trkpt lat="58.0549" lon="38.817447"><ele>113.4</ele><time>2024-01-13T15:00:52Z</time></trkpt><trkpt lat="58.0549" lon="38.817438"><ele>113.6</ele><time>2024-01-13T15:00:53Z</time></trkpt><trkpt lat="58.05491" lon="38.817298"><ele>113.4</ele><time>2024-01-13T15:01:00Z</time></trkpt><trkpt lat="58.054925" lon="38.81713"><ele>114.7</ele><time>2024-01-13T15:01:04Z</time></trkpt><trkpt lat="58.05494" lon="38.81696"><ele>114.5</ele><time>2024-01-13T15:01:08Z</time></trkpt><trkpt lat="58.054957" lon="38.816805"><ele>113.6</ele><time>2024-01-13T15:01:12Z</time></trkpt><trkpt lat="58.054975" lon="38.816645"><ele>113.6</ele><time>2024-01-13T15:01:18Z</time></trkpt><trkpt lat="58.054997" lon="38.816505"><ele>114.2</ele><time>2024-01-13T15:01:23Z</time></trkpt><trkpt lat="58.05501" lon="38.81636"><ele>112.8</ele><time>2024-01-13T15:01:28Z</time></trkpt><trkpt lat="58.055035" lon="38.81622"><ele>112.3</ele><time>2024-01-13T15:01:34Z</time></trkpt><trkpt lat="58.055052" lon="38.81618"><ele>112.3</ele><time>2024-01-13T15:01:41Z</time></trkpt><trkpt lat="58.055052" lon="38.81618"><ele>112.1</ele><time>2024-01-13T15:01:43Z</time></trkpt><trkpt lat="58.05514" lon="38.816235"><ele>115.0</ele><time>2024-01-13T15:01:59Z</time></trkpt><trkpt lat="58.055225" lon="38.816205"><ele>115.4</ele><time>2024-01-13T15:02:03Z</time></trkpt><trkpt lat="58.055297" lon="38.81625"><ele>115.8</ele><time>2024-01-13T15:02:07Z</time></trkpt><trkpt lat="58.055372" lon="38.816297"><ele>114.9</ele><time>2024-01-13T15:02:13Z</time></trkpt><trkpt lat="58.055445" lon="38.816337"><ele>111.8</ele><time>2024-01-13T15:02:18Z</time></trkpt><trkpt lat="58.05554" lon="38.816275"><ele>113.5</ele><time>2024-01-13T15:02:21Z</time></trkpt><trkpt lat="58.05564" lon="38.816232"><ele>113.1</ele><time>2024-01-13T15:02:26Z</time></trkpt><trkpt lat="58.055735" lon="38.81624"><ele>115.6</ele><time>2024-01-13T15:02:33Z</time></trkpt><trkpt lat="58.05581" lon="38.816275"><ele>116.6</ele><time>2024-01-13T15:02:38Z</time></trkpt><trkpt lat="58.055888" lon="38.816285"><ele>115.7</ele><time>2024-01-13T15:02:45Z</time></trkpt><trkpt lat="58.055955" lon="38.816345"><ele>114.5</ele><time>2024-01-13T15:02:50Z</time></trkpt><trkpt lat="58.056035" lon="38.81639"><ele>114.6</ele><time>2024-01-13T15:02:56Z</time></trkpt><trkpt lat="58.056113" lon="38.816415"><ele>114.3</ele><time>2024-01-13T15:03:01Z</time></trkpt><trkpt lat="58.056193" lon="38.816432"><ele>113.1</ele><time>2024-01-13T15:03:06Z</time></trkpt><trkpt lat="58.056277" lon="38.81643"><ele>111.6</ele><time>2024-01-13T15:03:11Z</time></trkpt><trkpt lat="58.05635" lon="38.816505"><ele>115.9</ele><time>2024-01-13T15:03:16Z</time></trkpt><trkpt lat="58.056412" lon="38.81643"><ele>112.0</ele><time>2024-01-13T15:03:21Z</time></trkpt><trkpt lat="58.056485" lon="38.816383"><ele>108.7</ele><time>2024-01-13T15:03:27Z</time></trkpt><trkpt lat="58.056545" lon="38.816452"><ele>107.5</ele><time>2024-01-13T15:03:34Z</time></trkpt><trkpt lat="58.056635" lon="38.816467"><ele>111.2</ele><time>2024-01-13T15:03:39Z</time></trkpt><trkpt lat="58.056715" lon="38.816502"><ele>112.7</ele><time>2024-01-13T15:03:43Z</time></trkpt><trkpt lat="58.0568" lon="38.81651"><ele>113.5</ele><time>2024-01-13T15:03:48Z</time></trkpt><trkpt lat="58.05688" lon="38.81657"><ele>113.3</ele><time>2024-01-13T15:03:53Z</time></trkpt><trkpt lat="58.056965" lon="38.816615"><ele>112.8</ele><time>2024-01-13T15:03:57Z</time></trkpt><trkpt lat="58.057055" lon="38.816607"><ele>112.0</ele><time>2024-01-13T15:04:01Z</time></trkpt><trkpt lat="58.05713" lon="38.816585"><ele>111.9</ele><time>2024-01-13T15:04:05Z</time></trkpt><trkpt lat="58.057205" lon="38.81657"><ele>111.9</ele><time>2024-01-13T15:04:08Z</time></trkpt><trkpt lat="58.05728" lon="38.816507"><ele>110.6</ele><time>2024-01-13T15:04:14Z</time></trkpt><trkpt lat="58.057325" lon="38.81659"><ele>109.4</ele><time>2024-01-13T15:04:21Z</time></trkpt><trkpt lat="58.057397" lon="38.816665"><ele>109.4</ele><time>2024-01-13T15:04:26Z</time></trkpt><trkpt lat="58.057472" lon="38.8167"><ele>111.8</ele><time>2024-01-13T15:04:31Z</time></trkpt><trkpt lat="58.057555" lon="38.81666"><ele>111.7</ele><time>2024-01-13T15:04:35Z</time></trkpt><trkpt lat="58.057625" lon="38.81667"><ele>110.9</ele><time>2024-01-13T15:04:40Z</time></trkpt><trkpt lat="58.057695" lon="38.816595"><ele>114.8</ele><time>2024-01-13T15:04:47Z</time></trkpt><trkpt lat="58.057767" lon="38.81664"><ele>115.2</ele><time>2024-01-13T15:04:51Z</time></trkpt><trkpt lat="58.05784" lon="38.81656"><ele>115.8</ele><time>2024-01-13T15:04:58Z</time></trkpt><trkpt lat="58.057915" lon="38.816595"><ele>119.5</ele><time>2024-01-13T15:05:01Z</time></trkpt><trkpt lat="58.05798" lon="38.816675"><ele>118.9</ele><time>2024-01-13T15:05:04Z</time></trkpt><trkpt lat="58.058055" lon="38.816735"><ele>118.9</ele><time>2024-01-13T15:05:08Z</time></trkpt><trkpt lat="58.058135" lon="38.81679"><ele>117.1</ele><time>2024-01-13T15:05:13Z</time></trkpt><trkpt lat="58.058225" lon="38.816775"><ele>116.9</ele><time>2024-01-13T15:05:19Z</time></trkpt><trkpt lat="58.05831" lon="38.81675"><ele>119.8</ele><time>2024-01-13T15:05:25Z</time></trkpt><trkpt lat="58.058387" lon="38.816735"><ele>125.4</ele><time>2024-01-13T15:05:29Z</time></trkpt><trkpt lat="58.058463" lon="38.816752"><ele>124.8</ele><time>2024-01-13T15:05:33Z</time></trkpt><trkpt lat="58.058502" lon="38.81688"><ele>127.6</ele><time>2024-01-13T15:05:37Z</time></trkpt><trkpt lat="58.05856" lon="38.816987"><ele>124.3</ele><time>2024-01-13T15:05:44Z</time></trkpt><trkpt lat="58.05856" lon="38.81694"><ele>121.8</ele><time>2024-01-13T15:05:51Z</time></trkpt><trkpt lat="58.05858" lon="38.81692"><ele>121.6</ele><time>2024-01-13T15:05:58Z</time></trkpt><trkpt lat="58.058605" lon="38.816775"><ele>126.0</ele><time>2024-01-13T15:06:03Z</time></trkpt><trkpt lat="58.0586" lon="38.81663"><ele>130.7</ele><time>2024-01-13T15:06:10Z</time></trkpt><trkpt lat="58.058365" lon="38.81583"><ele>124.1</ele><time>2024-01-13T15:08:13Z</time></trkpt><trkpt lat="58.05851" lon="38.816115"><ele>104.0</ele><time>2024-01-13T15:08:15Z</time></trkpt><trkpt lat="58.05849" lon="38.816007"><ele>98.2</ele><time>2024-01-13T15:08:23Z</time></trkpt><trkpt lat="58.05847" lon="38.81603"><ele>97.1</ele><time>2024-01-13T15:08:30Z</time></trkpt><trkpt lat="58.058463" lon="38.81605"><ele>97.5</ele><time>2024-01-13T15:08:37Z</time></trkpt><trkpt lat="58.05847" lon="38.816055"><ele>97.4</ele><time>2024-01-13T15:08:40Z</time></trkpt><trkpt lat="58.058485" lon="38.816212"><ele>101.8</ele><time>2024-01-13T15:08:45Z</time></trkpt><trkpt lat="58.058505" lon="38.81638"><ele>102.2</ele><time>2024-01-13T15:08:48Z</time></trkpt><trkpt lat="58.05867" lon="38.816585"><ele>95.7</ele><time>2024-01-13T15:08:50Z</time></trkpt><trkpt lat="58.05863" lon="38.816615"><ele>100.7</ele><time>2024-01-13T15:08:57Z</time></trkpt><trkpt lat="58.05863" lon="38.816603"><ele>101.9</ele><time>2024-01-13T15:09:04Z</time></trkpt><trkpt lat="58.058635" lon="38.816608"><ele>100.1</ele><time>2024-01-13T15:09:17Z</time></trkpt><trkpt lat="58.058635" lon="38.816608"><ele>100.1</ele><time>2024-01-13T15:09:18Z</time></trkpt><trkpt lat="58.058645" lon="38.816635"><ele>98.4</ele><time>2024-01-13T15:09:30Z</time></trkpt><trkpt lat="58.058645" lon="38.816635"><ele>98.5</ele><time>2024-01-13T15:09:31Z</time></trkpt><trkpt lat="58.05865" lon="38.816655"><ele>99.2</ele><time>2024-01-13T15:09:39Z</time></trkpt><trkpt lat="58.05865" lon="38.816655"><ele>99.1</ele><time>2024-01-13T15:09:40Z</time></trkpt><trkpt lat="58.058652" lon="38.816667"><ele>99.3</ele><time>2024-01-13T15:09:55Z</time></trkpt><trkpt lat="58.058652" lon="38.816667"><ele>99.4</ele><time>2024-01-13T15:09:56Z</time></trkpt><trkpt lat="58.05866" lon="38.81669"><ele>98.2</ele><time>2024-01-13T15:10:31Z</time></trkpt><trkpt lat="58.05866" lon="38.816692"><ele>98.2</ele><time>2024-01-13T15:10:32Z</time></trkpt><trkpt lat="58.05867" lon="38.816705"><ele>98.9</ele><time>2024-01-13T15:10:43Z</time></trkpt><trkpt lat="58.05867" lon="38.81671"><ele>98.9</ele><time>2024-01-13T15:10:44Z</time></trkpt><trkpt lat="58.058672" lon="38.816715"><ele>99.6</ele><time>2024-01-13T15:11:21Z</time></trkpt><trkpt lat="58.058672" lon="38.816715"><ele>99.6</ele><time>2024-01-13T15:11:22Z</time></trkpt><trkpt lat="58.05868" lon="38.81672"><ele>100.5</ele><time>2024-01-13T15:12:32Z</time></trkpt><trkpt lat="58.05868" lon="38.81672"><ele>100.5</ele><time>2024-01-13T15:12:33Z</time></trkpt><trkpt lat="58.058685" lon="38.816725"><ele>100.5</ele><time>2024-01-13T15:16:06Z</time></trkpt><trkpt lat="58.058685" lon="38.816725"><ele>100.5</ele><time>2024-01-13T15:16:07Z</time></trkpt><trkpt lat="58.05869" lon="38.81673"><ele>100.9</ele><time>2024-01-13T15:18:41Z</time></trkpt><trkpt lat="58.05869" lon="38.81673"><ele>100.9</ele><time>2024-01-13T15:18:42Z</time></trkpt><trkpt lat="58.05869" lon="38.816742"><ele>101.4</ele><time>2024-01-13T15:20:22Z</time></trkpt><trkpt lat="58.05869" lon="38.816742"><ele>101.4</ele><time>2024-01-13T15:20:23Z</time></trkpt><trkpt lat="58.058692" lon="38.816755"><ele>101.7</ele><time>2024-01-13T15:20:58Z</time></trkpt><trkpt lat="58.058692" lon="38.816755"><ele>101.7</ele><time>2024-01-13T15:20:59Z</time></trkpt><trkpt lat="58.058695" lon="38.816767"><ele>101.7</ele><time>2024-01-13T15:21:20Z</time></trkpt><trkpt lat="58.058695" lon="38.81677"><ele>101.7</ele><time>2024-01-13T15:21:21Z</time></trkpt><trkpt lat="58.058695" lon="38.81678"><ele>101.5</ele><time>2024-01-13T15:22:40Z</time></trkpt><trkpt lat="58.058695" lon="38.81678"><ele>101.5</ele><time>2024-01-13T15:22:41Z</time></trkpt><trkpt lat="58.058695" lon="38.81679"><ele>101.5</ele><time>2024-01-13T15:23:29Z</time></trkpt><trkpt lat="58.058697" lon="38.81679"><ele>101.5</ele><time>2024-01-13T15:23:30Z</time></trkpt><trkpt lat="58.058697" lon="38.8168"><ele>101.5</ele><time>2024-01-13T15:24:26Z</time></trkpt><trkpt lat="58.058697" lon="38.8168"><ele>101.5</ele><time>2024-01-13T15:24:27Z</time></trkpt><trkpt lat="58.058698" lon="38.81681"><ele>101.7</ele><time>2024-01-13T15:26:58Z</time></trkpt><trkpt lat="58.058698" lon="38.81681"><ele>101.7</ele><time>2024-01-13T15:26:59Z</time></trkpt><trkpt lat="58.058695" lon="38.81681"><ele>102.2</ele><time>2024-01-13T15:35:22Z</time></trkpt><trkpt lat="58.058695" lon="38.81681"><ele>102.2</ele><time>2024-01-13T15:35:23Z</time></trkpt><trkpt lat="58.05869" lon="38.81681"><ele>103.2</ele><time>2024-01-13T15:56:07Z</time></trkpt><trkpt lat="58.05869" lon="38.81681"><ele>103.2</ele><time>2024-01-13T15:56:08Z</time></trkpt><trkpt lat="58.058567" lon="38.816665"><ele>109.7</ele><time>2024-01-13T16:01:34Z</time></trkpt><trkpt lat="58.058645" lon="38.817005"><ele>114.5</ele><time>2024-01-13T16:46:45Z</time></trkpt><trkpt lat="58.05861" lon="38.8172"><ele>115.9</ele><time>2024-01-13T16:46:52Z</time></trkpt><trkpt lat="58.058618" lon="38.817055"><ele>119.1</ele><time>2024-01-13T16:46:54Z</time></trkpt><trkpt lat="58.05865" lon="38.816867"><ele>117.9</ele><time>2024-01-13T16:46:58Z</time></trkpt><trkpt lat="58.05865" lon="38.816872"><ele>117.3</ele><time>2024-01-13T16:47:05Z</time></trkpt><trkpt lat="58.058652" lon="38.81689"><ele>117.4</ele><time>2024-01-13T16:47:12Z</time></trkpt><trkpt lat="58.058652" lon="38.816887"><ele>117.3</ele><time>2024-01-13T16:47:13Z</time></trkpt><trkpt lat="58.05865" lon="38.81691"><ele>117.3</ele><time>2024-01-13T16:47:23Z</time></trkpt><trkpt lat="58.05865" lon="38.81691"><ele>117.2</ele><time>2024-01-13T16:47:24Z</time></trkpt><trkpt lat="58.058645" lon="38.81692"><ele>117.1</ele><time>2024-01-13T16:47:31Z</time></trkpt><trkpt lat="58.058645" lon="38.81692"><ele>117.1</ele><time>2024-01-13T16:47:32Z</time></trkpt><trkpt lat="58.058645" lon="38.81694"><ele>116.7</ele><time>2024-01-13T16:49:56Z</time></trkpt><trkpt lat="58.058645" lon="38.816945"><ele>116.8</ele><time>2024-01-13T16:49:57Z</time></trkpt><trkpt lat="58.058645" lon="38.816955"><ele>116.7</ele><time>2024-01-13T16:50:08Z</time></trkpt><trkpt lat="58.058645" lon="38.816955"><ele>116.7</ele><time>2024-01-13T16:50:09Z</time></trkpt><trkpt lat="58.05865" lon="38.816967"><ele>116.4</ele><time>2024-01-13T16:50:57Z</time></trkpt><trkpt lat="58.05865" lon="38.816967"><ele>116.4</ele><time>2024-01-13T16:50:58Z</time></trkpt><trkpt lat="58.05865" lon="38.816957"><ele>116.7</ele><time>2024-01-13T16:51:51Z</time></trkpt><trkpt lat="58.05865" lon="38.816955"><ele>116.8</ele><time>2024-01-13T16:51:52Z</time></trkpt><trkpt lat="58.058652" lon="38.81695"><ele>117.0</ele><time>2024-01-13T16:52:03Z</time></trkpt><trkpt lat="58.058652" lon="38.81695"><ele>117.0</ele><time>2024-01-13T16:52:04Z</time></trkpt><trkpt lat="58.058652" lon="38.81696"><ele>116.5</ele><time>2024-01-13T16:52:19Z</time></trkpt><trkpt lat="58.058652" lon="38.81696"><ele>116.5</ele><time>2024-01-13T16:52:20Z</time></trkpt><trkpt lat="58.05866" lon="38.816975"><ele>116.4</ele><time>2024-01-13T16:52:37Z</time></trkpt><trkpt lat="58.05866" lon="38.81698"><ele>116.4</ele><time>2024-01-13T16:52:38Z</time></trkpt><trkpt lat="58.05866" lon="38.816995"><ele>115.6</ele><time>2024-01-13T16:52:56Z</time></trkpt><trkpt lat="58.05866" lon="38.816995"><ele>115.5</ele><time>2024-01-13T16:52:57Z</time></trkpt><trkpt lat="58.058665" lon="38.816988"><ele>115.9</ele><time>2024-01-13T16:53:08Z</time></trkpt><trkpt lat="58.058665" lon="38.816988"><ele>115.9</ele><time>2024-01-13T16:53:09Z</time></trkpt><trkpt lat="58.058667" lon="38.817"><ele>116.2</ele><time>2024-01-13T16:54:49Z</time></trkpt><trkpt lat="58.058667" lon="38.817"><ele>116.2</ele><time>2024-01-13T16:54:50Z</time></trkpt><trkpt lat="58.05867" lon="38.81701"><ele>116.2</ele><time>2024-01-13T16:55:32Z</time></trkpt><trkpt lat="58.05867" lon="38.81701"><ele>116.2</ele><time>2024-01-13T16:55:33Z</time></trkpt><trkpt lat="58.05867" lon="38.817015"><ele>116.3</ele><time>2024-01-13T16:56:28Z</time></trkpt><trkpt lat="58.05867" lon="38.817015"><ele>116.3</ele><time>2024-01-13T16:56:29Z</time></trkpt><trkpt lat="58.05868" lon="38.81703"><ele>112.7</ele><time>2024-01-13T16:59:05Z</time></trkpt><trkpt lat="58.058685" lon="38.81703"><ele>113.7</ele><time>2024-01-13T16:59:11Z</time></trkpt><trkpt lat="58.058695" lon="38.817025"><ele>118.1</ele><time>2024-01-13T16:59:18Z</time></trkpt><trkpt lat="58.0587" lon="38.817025"><ele>118.4</ele><time>2024-01-13T16:59:25Z</time></trkpt><trkpt lat="58.058698" lon="38.817052"><ele>118.4</ele><time>2024-01-13T16:59:32Z</time></trkpt><trkpt lat="58.058695" lon="38.817025"><ele>119.8</ele><time>2024-01-13T16:59:39Z</time></trkpt><trkpt lat="58.058707" lon="38.817037"><ele>120.6</ele><time>2024-01-13T16:59:46Z</time></trkpt><trkpt lat="58.05871" lon="38.817037"><ele>121.6</ele><time>2024-01-13T16:59:48Z</time></trkpt><trkpt lat="58.0587" lon="38.81702"><ele>121.3</ele><time>2024-01-13T16:59:59Z</time></trkpt><trkpt lat="58.0587" lon="38.81702"><ele>121.3</ele><time>2024-01-13T17:00:00Z</time></trkpt><trkpt lat="58.05871" lon="38.81704"><ele>121.7</ele><time>2024-01-13T17:00:22Z</time></trkpt><trkpt lat="58.05871" lon="38.81704"><ele>122.3</ele><time>2024-01-13T17:00:24Z</time></trkpt><trkpt lat="58.058707" lon="38.81703"><ele>121.5</ele><time>2024-01-13T17:00:54Z</time></trkpt><trkpt lat="58.058707" lon="38.81703"><ele>121.6</ele><time>2024-01-13T17:00:55Z</time></trkpt><trkpt lat="58.058703" lon="38.817025"><ele>121.8</ele><time>2024-01-13T17:01:44Z</time></trkpt><trkpt lat="58.058703" lon="38.817025"><ele>121.8</ele><time>2024-01-13T17:01:45Z</time></trkpt><trkpt lat="58.05869" lon="38.81701"><ele>119.5</ele><time>2024-01-13T17:02:54Z</time></trkpt><trkpt lat="58.05869" lon="38.81701"><ele>119.3</ele><time>2024-01-13T17:02:55Z</time></trkpt><trkpt lat="58.058682" lon="38.817005"><ele>118.4</ele><time>2024-01-13T17:03:06Z</time></trkpt><trkpt lat="58.05868" lon="38.817005"><ele>118.4</ele><time>2024-01-13T17:03:07Z</time></trkpt><trkpt lat="58.05867" lon="38.816995"><ele>116.5</ele><time>2024-01-13T17:03:24Z</time></trkpt><trkpt lat="58.05867" lon="38.816995"><ele>116.5</ele><time>2024-01-13T17:03:25Z</time></trkpt><trkpt lat="58.058665" lon="38.816987"><ele>115.7</ele><time>2024-01-13T17:04:06Z</time></trkpt><trkpt lat="58.058665" lon="38.816987"><ele>115.6</ele><time>2024-01-13T17:04:07Z</time></trkpt><trkpt lat="58.058665" lon="38.816255"><ele>105.0</ele><time>2024-01-13T17:05:24Z</time></trkpt><trkpt lat="58.058485" lon="38.81485"><ele>105.9</ele><time>2024-01-13T17:30:45Z</time></trkpt><trkpt lat="58.058545" lon="38.81486"><ele>101.6</ele><time>2024-01-13T17:30:52Z</time></trkpt><trkpt lat="58.058557" lon="38.81468"><ele>102.8</ele><time>2024-01-13T17:30:58Z</time></trkpt><trkpt lat="58.05863" lon="38.81461"><ele>100.9</ele><time>2024-01-13T17:31:01Z</time></trkpt><trkpt lat="58.05866" lon="38.814455"><ele>105.2</ele><time>2024-01-13T17:31:07Z</time></trkpt><trkpt lat="58.058613" lon="38.81432"><ele>105.9</ele><time>2024-01-13T17:31:14Z</time></trkpt><trkpt lat="58.058595" lon="38.814147"><ele>104.3</ele><time>2024-01-13T17:31:18Z</time></trkpt><trkpt lat="58.05856" lon="38.81401"><ele>105.5</ele><time>2024-01-13T17:31:20Z</time></trkpt><trkpt lat="58.05856" lon="38.81386"><ele>107.4</ele><time>2024-01-13T17:31:24Z</time></trkpt><trkpt lat="58.058635" lon="38.813817"><ele>106.5</ele><time>2024-01-13T17:31:28Z</time></trkpt><trkpt lat="58.058645" lon="38.81368"><ele>106.4</ele><time>2024-01-13T17:31:33Z</time></trkpt><trkpt lat="58.058715" lon="38.813605"><ele>105.5</ele><time>2024-01-13T17:31:39Z</time></trkpt><trkpt lat="58.0587" lon="38.813407"><ele>108.2</ele><time>2024-01-13T17:31:42Z</time></trkpt><trkpt lat="58.058697" lon="38.813365"><ele>108.2</ele><time>2024-01-13T17:31:49Z</time></trkpt><trkpt lat="58.058685" lon="38.813222"><ele>106.0</ele><time>2024-01-13T17:31:54Z</time></trkpt><trkpt lat="58.058675" lon="38.813082"><ele>106.3</ele><time>2024-01-13T17:32:00Z</time></trkpt><trkpt lat="58.058662" lon="38.812905"><ele>107.6</ele><time>2024-01-13T17:32:05Z</time></trkpt><trkpt lat="58.05868" lon="38.812775"><ele>109.9</ele><time>2024-01-13T17:32:12Z</time></trkpt><trkpt lat="58.058685" lon="38.812625"><ele>106.5</ele><time>2024-01-13T17:32:18Z</time></trkpt><trkpt lat="58.058675" lon="38.812485"><ele>105.9</ele><time>2024-01-13T17:32:23Z</time></trkpt><trkpt lat="58.058685" lon="38.812345"><ele>108.1</ele><time>2024-01-13T17:32:28Z</time></trkpt><trkpt lat="58.058695" lon="38.8122"><ele>110.3</ele><time>2024-01-13T17:32:31Z</time></trkpt><trkpt lat="58.058697" lon="38.812047"><ele>110.1</ele><time>2024-01-13T17:32:36Z</time></trkpt><trkpt lat="58.058702" lon="38.8119"><ele>109.1</ele><time>2024-01-13T17:32:42Z</time></trkpt><trkpt lat="58.05871" lon="38.811732"><ele>109.4</ele><time>2024-01-13T17:32:48Z</time></trkpt><trkpt lat="58.05874" lon="38.81159"><ele>111.3</ele><time>2024-01-13T17:32:53Z</time></trkpt><trkpt lat="58.05881" lon="38.811522"><ele>110.3</ele><time>2024-01-13T17:32:59Z</time></trkpt><trkpt lat="58.05881" lon="38.811365"><ele>111.3</ele><time>2024-01-13T17:33:05Z</time></trkpt><trkpt lat="58.058805" lon="38.8112"><ele>112.3</ele><time>2024-01-13T17:33:08Z</time></trkpt><trkpt lat="58.058795" lon="38.811055"><ele>113.3</ele><time>2024-01-13T17:33:13Z</time></trkpt><trkpt lat="58.058745" lon="38.810937"><ele>113.6</ele><time>2024-01-13T17:33:18Z</time></trkpt><trkpt lat="58.058667" lon="38.81085"><ele>114.6</ele><time>2024-01-13T17:33:23Z</time></trkpt><trkpt lat="58.058655" lon="38.81069"><ele>113.5</ele><time>2024-01-13T17:33:30Z</time></trkpt><trkpt lat="58.058645" lon="38.81053"><ele>115.3</ele><time>2024-01-13T17:33:36Z</time></trkpt><trkpt lat="58.05866" lon="38.810425"><ele>116.4</ele><time>2024-01-13T17:33:43Z</time></trkpt><trkpt lat="58.05871" lon="38.810317"><ele>118.1</ele><time>2024-01-13T17:33:46Z</time></trkpt><trkpt lat="58.05872" lon="38.810182"><ele>118.9</ele><time>2024-01-13T17:33:50Z</time></trkpt><trkpt lat="58.05868" lon="38.81007"><ele>118.9</ele><time>2024-01-13T17:33:56Z</time></trkpt><trkpt lat="58.058715" lon="38.809952"><ele>115.8</ele><time>2024-01-13T17:33:59Z</time></trkpt><trkpt lat="58.05869" lon="38.809815"><ele>117.0</ele><time>2024-01-13T17:34:04Z</time></trkpt><trkpt lat="58.058605" lon="38.809752"><ele>120.2</ele><time>2024-01-13T17:34:07Z</time></trkpt><trkpt lat="58.058525" lon="38.809712"><ele>119.1</ele><time>2024-01-13T17:34:10Z</time></trkpt><trkpt lat="58.05847" lon="38.80961"><ele>118.5</ele><time>2024-01-13T17:34:14Z</time></trkpt><trkpt lat="58.058463" lon="38.809472"><ele>117.1</ele><time>2024-01-13T17:34:18Z</time></trkpt><trkpt lat="58.05849" lon="38.809315"><ele>115.9</ele><time>2024-01-13T17:34:23Z</time></trkpt><trkpt lat="58.058517" lon="38.809175"><ele>116.8</ele><time>2024-01-13T17:34:28Z</time></trkpt><trkpt lat="58.058543" lon="38.809017"><ele>115.0</ele><time>2024-01-13T17:34:34Z</time></trkpt><trkpt lat="58.058563" lon="38.80888"><ele>115.4</ele><time>2024-01-13T17:34:39Z</time></trkpt><trkpt lat="58.058548" lon="38.80872"><ele>117.8</ele><time>2024-01-13T17:34:43Z</time></trkpt><trkpt lat="58.058585" lon="38.8086"><ele>120.0</ele><time>2024-01-13T17:34:48Z</time></trkpt><trkpt lat="58.05861" lon="38.808465"><ele>115.4</ele><time>2024-01-13T17:34:55Z</time></trkpt><trkpt lat="58.058605" lon="38.80832"><ele>115.1</ele><time>2024-01-13T17:34:59Z</time></trkpt><trkpt lat="58.058605" lon="38.80815"><ele>114.8</ele><time>2024-01-13T17:35:04Z</time></trkpt><trkpt lat="58.0586" lon="38.808"><ele>111.9</ele><time>2024-01-13T17:35:10Z</time></trkpt><trkpt lat="58.058605" lon="38.80784"><ele>110.4</ele><time>2024-01-13T17:35:16Z</time></trkpt><trkpt lat="58.058652" lon="38.8078"><ele>109.3</ele><time>2024-01-13T17:35:23Z</time></trkpt><trkpt lat="58.058655" lon="38.807785"><ele>109.6</ele><time>2024-01-13T17:35:28Z</time></trkpt><trkpt lat="58.058655" lon="38.807785"><ele>109.8</ele><time>2024-01-13T17:35:42Z</time></trkpt><trkpt lat="58.058655" lon="38.807785"><ele>109.8</ele><time>2024-01-13T17:35:44Z</time></trkpt><trkpt lat="58.058567" lon="38.80756"><ele>106.7</ele><time>2024-01-13T17:35:45Z</time></trkpt></trkseg></trk></gpx>