<?xml version="1.0" encoding="UTF-8" standalone="no"?><gpx xmlns="http://www.topografix.com/GPX/1/1" xmlns:gpxtpx="http://www.garmin.com/xmlschemas/TrackPointExtension/v1" xmlns:xsi="http://www.w3.org/2001/XMLSchema-instance" creator="Sports Tracker" version="1.1" xsi:schemaLocation="http://www.topografix.com/GPX/1/1 http://www.topografix.com/GPX/1/1/gpx.xsd http://www.garmin.com/xmlschemas/TrackPointExtension/v1 http://www.garmin.com/xmlschemas/TrackPointExtensionv1.xsd"><metadata><name>13.10.2022 16:56</name><desc>Восстановлено автоматически</desc><author><name>Александр</name></author></metadata><trk><name>13.10.2022 16:56</name><trkseg><trkpt lat="58.053925" lon="38.82647"><ele>110.2</ele><time>2022-10-13T13:56:51Z</time></trkpt><trkpt lat="58.053925" lon="38.82647"><ele>110.2</ele><time>2022-10-13T13:57:33Z</time></trkpt><trkpt lat="58.053952" lon="38.826375"><ele>106.1</ele><time>2022-10-13T13:57:41Z</time></trkpt><trkpt lat="58.053955" lon="38.826387"><ele>106.3</ele><time>2022-10-13T13:57:46Z</time></trkpt><trkpt lat="58.05394" lon="38.826445"><ele>109.5</ele><time>2022-10-13T13:57:54Z</time></trkpt><trkpt lat="58.05394" lon="38.826445"><ele>109.6</ele><time>2022-10-13T13:57:55Z</time></trkpt><trkpt lat="58.053905" lon="38.826617"><ele>108.3</ele><time>2022-10-13T13:58:03Z</time></trkpt><trkpt lat="58.053882" lon="38.82681"><ele>107.7</ele><time>2022-10-13T13:58:06Z</time></trkpt><trkpt lat="58.05384" lon="38.82698"><ele>107.4</ele><time>2022-10-13T13:58:08Z</time></trkpt><trkpt lat="58.053825" lon="38.827195"><ele>106.5</ele><time>2022-10-13T13:58:10Z</time></trkpt><trkpt lat="58.053773" lon="38.827435"><ele>106.0</ele><time>2022-10-13T13:58:12Z</time></trkpt><trkpt lat="58.05372" lon="38.827675"><ele>106.0</ele><time>2022-10-13T13:58:14Z</time></trkpt><trkpt lat="58.053677" lon="38.827917"><ele>105.9</ele><time>2022-10-13T13:58:16Z</time></trkpt><trkpt lat="58.05364" lon="38.828127"><ele>105.4</ele><time>2022-10-13T13:58:18Z</time></trkpt><trkpt lat="58.053585" lon="38.82833"><ele>105.2</ele><time>2022-10-13T13:58:20Z</time></trkpt><trkpt lat="58.053555" lon="38.828535"><ele>105.2</ele><time>2022-10-13T13:58:22Z</time></trkpt><trkpt lat="58.053522" lon="38.828737"><ele>104.0</ele><time>2022-10-13T13:58:24Z</time></trkpt><trkpt lat="58.053485" lon="38.828952"><ele>103.6</ele><time>2022-10-13T13:58:26Z</time></trkpt><trkpt lat="58.05345" lon="38.82916"><ele>103.6</ele><time>2022-10-13T13:58:28Z</time></trkpt><trkpt lat="58.053405" lon="38.829367"><ele>103.8</ele><time>2022-10-13T13:58:30Z</time></trkpt><trkpt lat="58.05337" lon="38.829575"><ele>103.5</ele><time>2022-10-13T13:58:32Z</time></trkpt><trkpt lat="58.05333" lon="38.829765"><ele>103.7</ele><time>2022-10-13T13:58:34Z</time></trkpt><trkpt lat="58.05329" lon="38.829952"><ele>103.6</ele><time>2022-10-13T13:58:36Z</time></trkpt><trkpt lat="58.053255" lon="38.83014"><ele>103.3</ele><time>2022-10-13T13:58:38Z</time></trkpt><trkpt lat="58.05322" lon="38.830335"><ele>103.6</ele><time>2022-10-13T13:58:40Z</time></trkpt><trkpt lat="58.05319" lon="38.830482"><ele>103.4</ele><time>2022-10-13T13:58:42Z</time></trkpt><trkpt lat="58.05317" lon="38.83064"><ele>104.2</ele><time>2022-10-13T13:58:44Z</time></trkpt><trkpt lat="58.05314" lon="38.830817"><ele>104.6</ele><time>2022-10-13T13:58:46Z</time></trkpt><trkpt lat="58.053095" lon="38.83099"><ele>104.9</ele><time>2022-10-13T13:58:48Z</time></trkpt><trkpt lat="58.053065" lon="38.83118"><ele>105.2</ele><time>2022-10-13T13:58:50Z</time></trkpt><trkpt lat="58.053025" lon="38.831365"><ele>105.6</ele><time>2022-10-13T13:58:52Z</time></trkpt><trkpt lat="58.052987" lon="38.83157"><ele>105.8</ele><time>2022-10-13T13:58:54Z</time></trkpt><trkpt lat="58.052952" lon="38.831762"><ele>106.4</ele><time>2022-10-13T13:58:56Z</time></trkpt><trkpt lat="58.05292" lon="38.83194"><ele>106.6</ele><time>2022-10-13T13:58:58Z</time></trkpt><trkpt lat="58.05289" lon="38.832095"><ele>106.4</ele><time>2022-10-13T13:59:00Z</time></trkpt><trkpt lat="58.05285" lon="38.83229"><ele>107.6</ele><time>2022-10-13T13:59:03Z</time></trkpt><trkpt lat="58.052827" lon="38.83243"><ele>108.0</ele><time>2022-10-13T13:59:05Z</time></trkpt><trkpt lat="58.052802" lon="38.83258"><ele>108.3</ele><time>2022-10-13T13:59:07Z</time></trkpt><trkpt lat="58.052765" lon="38.832757"><ele>108.2</ele><time>2022-10-13T13:59:09Z</time></trkpt><trkpt lat="58.052745" lon="38.832922"><ele>108.7</ele><time>2022-10-13T13:59:11Z</time></trkpt><trkpt lat="58.052722" lon="38.833105"><ele>109.7</ele><time>2022-10-13T13:59:13Z</time></trkpt><trkpt lat="58.05269" lon="38.833295"><ele>110.0</ele><time>2022-10-13T13:59:15Z</time></trkpt><trkpt lat="58.052657" lon="38.833502"><ele>109.8</ele><time>2022-10-13T13:59:17Z</time></trkpt><trkpt lat="58.05262" lon="38.833655"><ele>109.6</ele><time>2022-10-13T13:59:19Z</time></trkpt><trkpt lat="58.05258" lon="38.83377"><ele>109.6</ele><time>2022-10-13T13:59:21Z</time></trkpt><trkpt lat="58.05256" lon="38.833905"><ele>108.9</ele><time>2022-10-13T13:59:24Z</time></trkpt><trkpt lat="58.05252" lon="38.834035"><ele>108.8</ele><time>2022-10-13T13:59:29Z</time></trkpt><trkpt lat="58.05251" lon="38.834065"><ele>107.0</ele><time>2022-10-13T13:59:36Z</time></trkpt><trkpt lat="58.052507" lon="38.834065"><ele>106.9</ele><time>2022-10-13T13:59:37Z</time></trkpt><trkpt lat="58.052475" lon="38.834235"><ele>107.8</ele><time>2022-10-13T13:59:46Z</time></trkpt><trkpt lat="58.05246" lon="38.8344"><ele>108.8</ele><time>2022-10-13T13:59:50Z</time></trkpt><trkpt lat="58.05242" lon="38.834525"><ele>109.5</ele><time>2022-10-13T13:59:53Z</time></trkpt><trkpt lat="58.052407" lon="38.834667"><ele>108.9</ele><time>2022-10-13T13:59:58Z</time></trkpt><trkpt lat="58.052408" lon="38.834812"><ele>107.4</ele><time>2022-10-13T14:00:03Z</time></trkpt><trkpt lat="58.052375" lon="38.834937"><ele>107.3</ele><time>2022-10-13T14:00:05Z</time></trkpt><trkpt lat="58.05235" lon="38.835097"><ele>107.8</ele><time>2022-10-13T14:00:07Z</time></trkpt><trkpt lat="58.052338" lon="38.83528"><ele>107.4</ele><time>2022-10-13T14:00:09Z</time></trkpt><trkpt lat="58.0523" lon="38.83549"><ele>106.7</ele><time>2022-10-13T14:00:11Z</time></trkpt><trkpt lat="58.052252" lon="38.835702"><ele>107.0</ele><time>2022-10-13T14:00:13Z</time></trkpt><trkpt lat="58.052207" lon="38.835927"><ele>107.2</ele><time>2022-10-13T14:00:15Z</time></trkpt><trkpt lat="58.052155" lon="38.836153"><ele>106.2</ele><time>2022-10-13T14:00:17Z</time></trkpt><trkpt lat="58.052103" lon="38.836378"><ele>105.5</ele><time>2022-10-13T14:00:19Z</time></trkpt><trkpt lat="58.05206" lon="38.83658"><ele>105.8</ele><time>2022-10-13T14:00:21Z</time></trkpt><trkpt lat="58.05204" lon="38.836758"><ele>105.4</ele><time>2022-10-13T14:00:23Z</time></trkpt><trkpt lat="58.052017" lon="38.836932"><ele>105.3</ele><time>2022-10-13T14:00:25Z</time></trkpt><trkpt lat="58.051982" lon="38.8371"><ele>105.3</ele><time>2022-10-13T14:00:27Z</time></trkpt><trkpt lat="58.051947" lon="38.83725"><ele>105.3</ele><time>2022-10-13T14:00:29Z</time></trkpt><trkpt lat="58.05192" lon="38.837395"><ele>104.6</ele><time>2022-10-13T14:00:31Z</time></trkpt><trkpt lat="58.051893" lon="38.837535"><ele>103.7</ele><time>2022-10-13T14:00:33Z</time></trkpt><trkpt lat="58.051872" lon="38.837672"><ele>103.2</ele><time>2022-10-13T14:00:35Z</time></trkpt><trkpt lat="58.05185" lon="38.837815"><ele>103.0</ele><time>2022-10-13T14:00:38Z</time></trkpt><trkpt lat="58.051835" lon="38.83781"><ele>103.5</ele><time>2022-10-13T14:00:45Z</time></trkpt><trkpt lat="58.051755" lon="38.83789"><ele>103.5</ele><time>2022-10-13T14:00:55Z</time></trkpt><trkpt lat="58.051675" lon="38.83799"><ele>103.9</ele><time>2022-10-13T14:00:58Z</time></trkpt><trkpt lat="58.0516" lon="38.838012"><ele>103.0</ele><time>2022-10-13T14:01:01Z</time></trkpt><trkpt lat="58.05151" lon="38.83796"><ele>102.5</ele><time>2022-10-13T14:01:04Z</time></trkpt><trkpt lat="58.051412" lon="38.83792"><ele>101.2</ele><time>2022-10-13T14:01:07Z</time></trkpt><trkpt lat="58.051327" lon="38.83788"><ele>101.7</ele><time>2022-10-13T14:01:10Z</time></trkpt><trkpt lat="58.051252" lon="38.837823"><ele>100.8</ele><time>2022-10-13T14:01:12Z</time></trkpt><trkpt lat="58.051182" lon="38.837777"><ele>100.3</ele><time>2022-10-13T14:01:14Z</time></trkpt><trkpt lat="58.051115" lon="38.837722"><ele>101.3</ele><time>2022-10-13T14:01:16Z</time></trkpt><trkpt lat="58.051025" lon="38.83766"><ele>103.7</ele><time>2022-10-13T14:01:19Z</time></trkpt><trkpt lat="58.05095" lon="38.837632"><ele>103.0</ele><time>2022-10-13T14:01:21Z</time></trkpt><trkpt lat="58.05088" lon="38.8376"><ele>102.3</ele><time>2022-10-13T14:01:23Z</time></trkpt><trkpt lat="58.05079" lon="38.837525"><ele>102.4</ele><time>2022-10-13T14:01:27Z</time></trkpt><trkpt lat="58.050707" lon="38.83746"><ele>105.0</ele><time>2022-10-13T14:01:30Z</time></trkpt><trkpt lat="58.05063" lon="38.8374"><ele>104.1</ele><time>2022-10-13T14:01:33Z</time></trkpt><trkpt lat="58.050557" lon="38.83735"><ele>105.3</ele><time>2022-10-13T14:01:36Z</time></trkpt><trkpt lat="58.050507" lon="38.83747"><ele>104.9</ele><time>2022-10-13T14:01:39Z</time></trkpt><trkpt lat="58.05048" lon="38.83761"><ele>106.1</ele><time>2022-10-13T14:01:41Z</time></trkpt><trkpt lat="58.05045" lon="38.837757"><ele>107.5</ele><time>2022-10-13T14:01:43Z</time></trkpt><trkpt lat="58.050415" lon="38.83788"><ele>107.0</ele><time>2022-10-13T14:01:45Z</time></trkpt><trkpt lat="58.05037" lon="38.83804"><ele>106.2</ele><time>2022-10-13T14:01:48Z</time></trkpt><trkpt lat="58.050345" lon="38.838203"><ele>106.4</ele><time>2022-10-13T14:01:51Z</time></trkpt><trkpt lat="58.0503" lon="38.838395"><ele>105.5</ele><time>2022-10-13T14:01:54Z</time></trkpt><trkpt lat="58.050275" lon="38.838535"><ele>106.0</ele><time>2022-10-13T14:01:56Z</time></trkpt><trkpt lat="58.05025" lon="38.83868"><ele>105.9</ele><time>2022-10-13T14:01:58Z</time></trkpt><trkpt lat="58.050217" lon="38.838807"><ele>107.5</ele><time>2022-10-13T14:02:00Z</time></trkpt><trkpt lat="58.050187" lon="38.838975"><ele>105.2</ele><time>2022-10-13T14:02:03Z</time></trkpt><trkpt lat="58.050155" lon="38.839108"><ele>103.8</ele><time>2022-10-13T14:02:06Z</time></trkpt><trkpt lat="58.05012" lon="38.839235"><ele>104.1</ele><time>2022-10-13T14:02:09Z</time></trkpt><trkpt lat="58.050085" lon="38.839418"><ele>104.9</ele><time>2022-10-13T14:02:12Z</time></trkpt><trkpt lat="58.050055" lon="38.839565"><ele>104.1</ele><time>2022-10-13T14:02:14Z</time></trkpt><trkpt lat="58.050027" lon="38.83972"><ele>103.9</ele><time>2022-10-13T14:02:16Z</time></trkpt><trkpt lat="58.049978" lon="38.83988"><ele>103.8</ele><time>2022-10-13T14:02:18Z</time></trkpt><trkpt lat="58.04995" lon="38.84005"><ele>103.9</ele><time>2022-10-13T14:02:20Z</time></trkpt><trkpt lat="58.049925" lon="38.840205"><ele>103.0</ele><time>2022-10-13T14:02:22Z</time></trkpt><trkpt lat="58.0499" lon="38.84035"><ele>103.2</ele><time>2022-10-13T14:02:24Z</time></trkpt><trkpt lat="58.049875" lon="38.840525"><ele>103.5</ele><time>2022-10-13T14:02:26Z</time></trkpt><trkpt lat="58.049847" lon="38.840665"><ele>103.1</ele><time>2022-10-13T14:02:28Z</time></trkpt><trkpt lat="58.04982" lon="38.8408"><ele>103.7</ele><time>2022-10-13T14:02:31Z</time></trkpt><trkpt lat="58.049805" lon="38.840675"><ele>99.0</ele><time>2022-10-13T14:02:38Z</time></trkpt><trkpt lat="58.049805" lon="38.840677"><ele>99.1</ele><time>2022-10-13T14:02:42Z</time></trkpt><trkpt lat="58.049795" lon="38.84083"><ele>99.1</ele><time>2022-10-13T14:02:53Z</time></trkpt><trkpt lat="58.04979" lon="38.84098"><ele>97.1</ele><time>2022-10-13T14:02:56Z</time></trkpt><trkpt lat="58.04976" lon="38.841115"><ele>96.9</ele><time>2022-10-13T14:02:58Z</time></trkpt><trkpt lat="58.049735" lon="38.841247"><ele>97.5</ele><time>2022-10-13T14:03:00Z</time></trkpt><trkpt lat="58.04971" lon="38.841382"><ele>97.9</ele><time>2022-10-13T14:03:02Z</time></trkpt><trkpt lat="58.04967" lon="38.841538"><ele>97.3</ele><time>2022-10-13T14:03:05Z</time></trkpt><trkpt lat="58.049635" lon="38.841682"><ele>95.7</ele><time>2022-10-13T14:03:08Z</time></trkpt><trkpt lat="58.049617" lon="38.84182"><ele>96.1</ele><time>2022-10-13T14:03:10Z</time></trkpt><trkpt lat="58.049595" lon="38.84196"><ele>96.5</ele><time>2022-10-13T14:03:12Z</time></trkpt><trkpt lat="58.049565" lon="38.842112"><ele>97.0</ele><time>2022-10-13T14:03:14Z</time></trkpt><trkpt lat="58.049535" lon="38.842255"><ele>96.9</ele><time>2022-10-13T14:03:16Z</time></trkpt><trkpt lat="58.049505" lon="38.84239"><ele>96.9</ele><time>2022-10-13T14:03:18Z</time></trkpt><trkpt lat="58.04948" lon="38.842545"><ele>98.9</ele><time>2022-10-13T14:03:20Z</time></trkpt><trkpt lat="58.049445" lon="38.842707"><ele>97.7</ele><time>2022-10-13T14:03:23Z</time></trkpt><trkpt lat="58.04943" lon="38.84285"><ele>102.3</ele><time>2022-10-13T14:03:27Z</time></trkpt><trkpt lat="58.049425" lon="38.842985"><ele>103.0</ele><time>2022-10-13T14:03:29Z</time></trkpt><trkpt lat="58.049405" lon="38.843155"><ele>103.6</ele><time>2022-10-13T14:03:31Z</time></trkpt><trkpt lat="58.049372" lon="38.84331"><ele>103.6</ele><time>2022-10-13T14:03:33Z</time></trkpt><trkpt lat="58.049342" lon="38.843455"><ele>103.3</ele><time>2022-10-13T14:03:35Z</time></trkpt><trkpt lat="58.04931" lon="38.843635"><ele>103.4</ele><time>2022-10-13T14:03:38Z</time></trkpt><trkpt lat="58.049287" lon="38.84378"><ele>104.9</ele><time>2022-10-13T14:03:40Z</time></trkpt><trkpt lat="58.04926" lon="38.843922"><ele>104.7</ele><time>2022-10-13T14:03:42Z</time></trkpt><trkpt lat="58.049222" lon="38.84411"><ele>105.1</ele><time>2022-10-13T14:03:45Z</time></trkpt><trkpt lat="58.049195" lon="38.84424"><ele>105.3</ele><time>2022-10-13T14:03:47Z</time></trkpt><trkpt lat="58.049145" lon="38.84436"><ele>103.1</ele><time>2022-10-13T14:03:50Z</time></trkpt><trkpt lat="58.049135" lon="38.844535"><ele>102.8</ele><time>2022-10-13T14:03:53Z</time></trkpt><trkpt lat="58.049105" lon="38.844665"><ele>102.8</ele><time>2022-10-13T14:03:55Z</time></trkpt><trkpt lat="58.049067" lon="38.844787"><ele>102.1</ele><time>2022-10-13T14:03:58Z</time></trkpt><trkpt lat="58.049055" lon="38.844875"><ele>103.0</ele><time>2022-10-13T14:04:05Z</time></trkpt><trkpt lat="58.049055" lon="38.844877"><ele>103.0</ele><time>2022-10-13T14:04:07Z</time></trkpt><trkpt lat="58.04904" lon="38.845055"><ele>104.6</ele><time>2022-10-13T14:04:59Z</time></trkpt><trkpt lat="58.048992" lon="38.845225"><ele>104.0</ele><time>2022-10-13T14:05:02Z</time></trkpt><trkpt lat="58.048975" lon="38.84537"><ele>104.7</ele><time>2022-10-13T14:05:04Z</time></trkpt><trkpt lat="58.04895" lon="38.845445"><ele>104.2</ele><time>2022-10-13T14:05:11Z</time></trkpt><trkpt lat="58.04895" lon="38.845435"><ele>103.9</ele><time>2022-10-13T14:05:13Z</time></trkpt><trkpt lat="58.048972" lon="38.845365"><ele>104.3</ele><time>2022-10-13T14:05:20Z</time></trkpt><trkpt lat="58.048975" lon="38.845355"><ele>104.3</ele><time>2022-10-13T14:05:21Z</time></trkpt><trkpt lat="58.048992" lon="38.8453"><ele>104.4</ele><time>2022-10-13T14:05:28Z</time></trkpt><trkpt lat="58.049037" lon="38.845455"><ele>104.4</ele><time>2022-10-13T14:05:32Z</time></trkpt><trkpt lat="58.04909" lon="38.845557"><ele>108.3</ele><time>2022-10-13T14:05:35Z</time></trkpt></trkseg></trk></gpx>