<?xml version="1.0" encoding="UTF-8" standalone="no"?><gpx xmlns="http://www.topografix.com/GPX/1/1" xmlns:gpxtpx="http://www.garmin.com/xmlschemas/TrackPointExtension/v1" xmlns:xsi="http://www.w3.org/2001/XMLSchema-instance" creator="Sports Tracker" version="1.1" xsi:schemaLocation="http://www.topografix.com/GPX/1/1 http://www.topografix.com/GPX/1/1/gpx.xsd http://www.garmin.com/xmlschemas/TrackPointExtension/v1 http://www.garmin.com/xmlschemas/TrackPointExtensionv1.xsd"><metadata><name/><desc/><author><name>Александр</name></author></metadata><trk><name/><trkseg><trkpt lat="58.058613" lon="38.816858"><ele>96.9</ele><time>2022-08-30T13:28:17Z</time></trkpt><trkpt lat="58.058745" lon="38.817032"><ele>107.5</ele><time>2022-08-30T13:28:18Z</time></trkpt><trkpt lat="58.058745" lon="38.817193"><ele>103.1</ele><time>2022-08-30T13:28:22Z</time></trkpt><trkpt lat="58.058735" lon="38.816813"><ele>106.2</ele><time>2022-08-30T13:28:25Z</time></trkpt><trkpt lat="58.058648" lon="38.817383"><ele>104.7</ele><time>2022-08-30T13:28:26Z</time></trkpt><trkpt lat="58.058668" lon="38.817522"><ele>103.7</ele><time>2022-08-30T13:28:34Z</time></trkpt><trkpt lat="58.058663" lon="38.817658"><ele>103.4</ele><time>2022-08-30T13:28:36Z</time></trkpt><trkpt lat="58.058658" lon="38.817813"><ele>103.5</ele><time>2022-08-30T13:28:38Z</time></trkpt><trkpt lat="58.058653" lon="38.817978"><ele>103.2</ele><time>2022-08-30T13:28:40Z</time></trkpt><trkpt lat="58.05866" lon="38.818122"><ele>103.0</ele><time>2022-08-30T13:28:42Z</time></trkpt><trkpt lat="58.058673" lon="38.818332"><ele>102.2</ele><time>2022-08-30T13:28:45Z</time></trkpt><trkpt lat="58.05867" lon="38.81848"><ele>102.2</ele><time>2022-08-30T13:28:47Z</time></trkpt><trkpt lat="58.058665" lon="38.81865"><ele>102.0</ele><time>2022-08-30T13:28:49Z</time></trkpt><trkpt lat="58.05865" lon="38.818823"><ele>101.9</ele><time>2022-08-30T13:28:51Z</time></trkpt><trkpt lat="58.058647" lon="38.819"><ele>101.8</ele><time>2022-08-30T13:28:53Z</time></trkpt><trkpt lat="58.058643" lon="38.819183"><ele>101.6</ele><time>2022-08-30T13:28:55Z</time></trkpt><trkpt lat="58.058648" lon="38.819363"><ele>100.9</ele><time>2022-08-30T13:28:57Z</time></trkpt><trkpt lat="58.058628" lon="38.819555"><ele>100.8</ele><time>2022-08-30T13:28:59Z</time></trkpt><trkpt lat="58.058608" lon="38.81974"><ele>100.5</ele><time>2022-08-30T13:29:01Z</time></trkpt><trkpt lat="58.058583" lon="38.819957"><ele>99.1</ele><time>2022-08-30T13:29:04Z</time></trkpt><trkpt lat="58.058572" lon="38.820098"><ele>97.9</ele><time>2022-08-30T13:29:06Z</time></trkpt><trkpt lat="58.058563" lon="38.820263"><ele>97.2</ele><time>2022-08-30T13:29:08Z</time></trkpt><trkpt lat="58.058555" lon="38.820435"><ele>96.9</ele><time>2022-08-30T13:29:10Z</time></trkpt><trkpt lat="58.05853" lon="38.82061"><ele>97.1</ele><time>2022-08-30T13:29:12Z</time></trkpt><trkpt lat="58.058478" lon="38.820718"><ele>97.9</ele><time>2022-08-30T13:29:15Z</time></trkpt><trkpt lat="58.058387" lon="38.820715"><ele>98.9</ele><time>2022-08-30T13:29:18Z</time></trkpt><trkpt lat="58.058302" lon="38.820768"><ele>98.6</ele><time>2022-08-30T13:29:21Z</time></trkpt><trkpt lat="58.0582" lon="38.82079"><ele>96.8</ele><time>2022-08-30T13:29:24Z</time></trkpt><trkpt lat="58.05812" lon="38.820773"><ele>96.9</ele><time>2022-08-30T13:29:26Z</time></trkpt><trkpt lat="58.058037" lon="38.820765"><ele>96.9</ele><time>2022-08-30T13:29:28Z</time></trkpt><trkpt lat="58.057952" lon="38.820748"><ele>96.5</ele><time>2022-08-30T13:29:30Z</time></trkpt><trkpt lat="58.057868" lon="38.820723"><ele>96.7</ele><time>2022-08-30T13:29:32Z</time></trkpt><trkpt lat="58.057782" lon="38.820702"><ele>97.1</ele><time>2022-08-30T13:29:34Z</time></trkpt><trkpt lat="58.057695" lon="38.820685"><ele>96.6</ele><time>2022-08-30T13:29:36Z</time></trkpt><trkpt lat="58.057612" lon="38.820663"><ele>95.9</ele><time>2022-08-30T13:29:38Z</time></trkpt><trkpt lat="58.057528" lon="38.820638"><ele>95.6</ele><time>2022-08-30T13:29:40Z</time></trkpt><trkpt lat="58.057448" lon="38.820623"><ele>96.1</ele><time>2022-08-30T13:29:42Z</time></trkpt><trkpt lat="58.057372" lon="38.820607"><ele>95.5</ele><time>2022-08-30T13:29:44Z</time></trkpt><trkpt lat="58.057298" lon="38.82059"><ele>95.9</ele><time>2022-08-30T13:29:46Z</time></trkpt><trkpt lat="58.057228" lon="38.820573"><ele>96.0</ele><time>2022-08-30T13:29:48Z</time></trkpt><trkpt lat="58.057135" lon="38.820545"><ele>96.3</ele><time>2022-08-30T13:29:51Z</time></trkpt><trkpt lat="58.057038" lon="38.820528"><ele>96.3</ele><time>2022-08-30T13:29:54Z</time></trkpt><trkpt lat="58.056963" lon="38.820515"><ele>97.8</ele><time>2022-08-30T13:29:56Z</time></trkpt><trkpt lat="58.056877" lon="38.82049"><ele>97.9</ele><time>2022-08-30T13:29:59Z</time></trkpt><trkpt lat="58.056802" lon="38.820467"><ele>96.9</ele><time>2022-08-30T13:30:02Z</time></trkpt><trkpt lat="58.056713" lon="38.820447"><ele>97.3</ele><time>2022-08-30T13:30:05Z</time></trkpt><trkpt lat="58.056603" lon="38.820433"><ele>97.6</ele><time>2022-08-30T13:30:08Z</time></trkpt><trkpt lat="58.056523" lon="38.820408"><ele>97.1</ele><time>2022-08-30T13:30:10Z</time></trkpt><trkpt lat="58.056445" lon="38.82039"><ele>97.5</ele><time>2022-08-30T13:30:12Z</time></trkpt><trkpt lat="58.056343" lon="38.820363"><ele>97.6</ele><time>2022-08-30T13:30:15Z</time></trkpt><trkpt lat="58.056242" lon="38.820342"><ele>97.7</ele><time>2022-08-30T13:30:18Z</time></trkpt><trkpt lat="58.056158" lon="38.820338"><ele>98.2</ele><time>2022-08-30T13:30:22Z</time></trkpt><trkpt lat="58.056098" lon="38.820445"><ele>97.6</ele><time>2022-08-30T13:30:27Z</time></trkpt><trkpt lat="58.05603" lon="38.820588"><ele>97.7</ele><time>2022-08-30T13:30:30Z</time></trkpt><trkpt lat="58.05598" lon="38.820708"><ele>97.8</ele><time>2022-08-30T13:30:32Z</time></trkpt><trkpt lat="58.055925" lon="38.82081"><ele>98.7</ele><time>2022-08-30T13:30:36Z</time></trkpt><trkpt lat="58.055833" lon="38.82076"><ele>99.1</ele><time>2022-08-30T13:30:39Z</time></trkpt><trkpt lat="58.05575" lon="38.82073"><ele>99.5</ele><time>2022-08-30T13:30:41Z</time></trkpt><trkpt lat="58.055673" lon="38.820702"><ele>99.7</ele><time>2022-08-30T13:30:43Z</time></trkpt><trkpt lat="58.055545" lon="38.82072"><ele>99.9</ele><time>2022-08-30T13:30:44Z</time></trkpt><trkpt lat="58.055435" lon="38.82075"><ele>100.0</ele><time>2022-08-30T13:30:46Z</time></trkpt><trkpt lat="58.05537" lon="38.820845"><ele>99.3</ele><time>2022-08-30T13:30:48Z</time></trkpt><trkpt lat="58.055327" lon="38.821012"><ele>99.0</ele><time>2022-08-30T13:30:51Z</time></trkpt><trkpt lat="58.055265" lon="38.821137"><ele>99.1</ele><time>2022-08-30T13:30:53Z</time></trkpt><trkpt lat="58.055162" lon="38.82117"><ele>98.2</ele><time>2022-08-30T13:30:55Z</time></trkpt><trkpt lat="58.055077" lon="38.821145"><ele>97.1</ele><time>2022-08-30T13:30:57Z</time></trkpt><trkpt lat="58.055" lon="38.821113"><ele>97.0</ele><time>2022-08-30T13:30:59Z</time></trkpt><trkpt lat="58.054918" lon="38.821075"><ele>96.8</ele><time>2022-08-30T13:31:03Z</time></trkpt><trkpt lat="58.054885" lon="38.821253"><ele>97.2</ele><time>2022-08-30T13:31:06Z</time></trkpt><trkpt lat="58.054882" lon="38.821427"><ele>96.6</ele><time>2022-08-30T13:31:08Z</time></trkpt><trkpt lat="58.054863" lon="38.821592"><ele>96.1</ele><time>2022-08-30T13:31:10Z</time></trkpt><trkpt lat="58.054845" lon="38.821757"><ele>95.1</ele><time>2022-08-30T13:31:12Z</time></trkpt><trkpt lat="58.054822" lon="38.821925"><ele>94.4</ele><time>2022-08-30T13:31:14Z</time></trkpt><trkpt lat="58.054788" lon="38.822085"><ele>93.7</ele><time>2022-08-30T13:31:16Z</time></trkpt><trkpt lat="58.054762" lon="38.822247"><ele>93.8</ele><time>2022-08-30T13:31:18Z</time></trkpt><trkpt lat="58.054732" lon="38.822408"><ele>93.9</ele><time>2022-08-30T13:31:20Z</time></trkpt><trkpt lat="58.054705" lon="38.822572"><ele>93.8</ele><time>2022-08-30T13:31:22Z</time></trkpt><trkpt lat="58.054672" lon="38.82273"><ele>94.1</ele><time>2022-08-30T13:31:24Z</time></trkpt><trkpt lat="58.05464" lon="38.822892"><ele>94.1</ele><time>2022-08-30T13:31:26Z</time></trkpt><trkpt lat="58.054617" lon="38.823065"><ele>95.3</ele><time>2022-08-30T13:31:28Z</time></trkpt><trkpt lat="58.054573" lon="38.823227"><ele>95.1</ele><time>2022-08-30T13:31:30Z</time></trkpt><trkpt lat="58.05455" lon="38.823382"><ele>94.0</ele><time>2022-08-30T13:31:32Z</time></trkpt><trkpt lat="58.054523" lon="38.823518"><ele>93.1</ele><time>2022-08-30T13:31:34Z</time></trkpt><trkpt lat="58.054485" lon="38.823708"><ele>92.3</ele><time>2022-08-30T13:31:37Z</time></trkpt><trkpt lat="58.05446" lon="38.823862"><ele>92.0</ele><time>2022-08-30T13:31:39Z</time></trkpt><trkpt lat="58.054427" lon="38.824023"><ele>92.2</ele><time>2022-08-30T13:31:41Z</time></trkpt><trkpt lat="58.054395" lon="38.824172"><ele>93.9</ele><time>2022-08-30T13:31:43Z</time></trkpt><trkpt lat="58.05437" lon="38.824347"><ele>93.3</ele><time>2022-08-30T13:31:45Z</time></trkpt><trkpt lat="58.054342" lon="38.824515"><ele>94.7</ele><time>2022-08-30T13:31:47Z</time></trkpt><trkpt lat="58.054317" lon="38.824645"><ele>94.6</ele><time>2022-08-30T13:31:49Z</time></trkpt><trkpt lat="58.054285" lon="38.824767"><ele>95.6</ele><time>2022-08-30T13:31:51Z</time></trkpt><trkpt lat="58.054257" lon="38.824905"><ele>95.6</ele><time>2022-08-30T13:31:53Z</time></trkpt><trkpt lat="58.054228" lon="38.825042"><ele>95.8</ele><time>2022-08-30T13:31:55Z</time></trkpt><trkpt lat="58.054203" lon="38.825188"><ele>95.0</ele><time>2022-08-30T13:31:57Z</time></trkpt><trkpt lat="58.054188" lon="38.825338"><ele>95.4</ele><time>2022-08-30T13:31:59Z</time></trkpt><trkpt lat="58.054172" lon="38.82549"><ele>95.5</ele><time>2022-08-30T13:32:01Z</time></trkpt><trkpt lat="58.05415" lon="38.82568"><ele>96.0</ele><time>2022-08-30T13:32:03Z</time></trkpt><trkpt lat="58.054118" lon="38.825892"><ele>96.4</ele><time>2022-08-30T13:32:05Z</time></trkpt><trkpt lat="58.054065" lon="38.82605"><ele>96.0</ele><time>2022-08-30T13:32:07Z</time></trkpt><trkpt lat="58.054038" lon="38.826205"><ele>94.9</ele><time>2022-08-30T13:32:09Z</time></trkpt><trkpt lat="58.054012" lon="38.826358"><ele>93.8</ele><time>2022-08-30T13:32:12Z</time></trkpt><trkpt lat="58.053955" lon="38.826455"><ele>93.1</ele><time>2022-08-30T13:32:47Z</time></trkpt><trkpt lat="58.053925" lon="38.82659"><ele>94.0</ele><time>2022-08-30T13:32:53Z</time></trkpt><trkpt lat="58.0539" lon="38.826737"><ele>93.6</ele><time>2022-08-30T13:32:58Z</time></trkpt><trkpt lat="58.053882" lon="38.82689"><ele>93.5</ele><time>2022-08-30T13:33:03Z</time></trkpt><trkpt lat="58.053828" lon="38.82701"><ele>92.4</ele><time>2022-08-30T13:33:07Z</time></trkpt><trkpt lat="58.0538" lon="38.827147"><ele>92.1</ele><time>2022-08-30T13:33:09Z</time></trkpt><trkpt lat="58.053775" lon="38.827357"><ele>92.1</ele><time>2022-08-30T13:33:11Z</time></trkpt><trkpt lat="58.053735" lon="38.827583"><ele>91.7</ele><time>2022-08-30T13:33:13Z</time></trkpt><trkpt lat="58.053695" lon="38.827793"><ele>91.7</ele><time>2022-08-30T13:33:15Z</time></trkpt><trkpt lat="58.053657" lon="38.827985"><ele>91.8</ele><time>2022-08-30T13:33:17Z</time></trkpt><trkpt lat="58.053638" lon="38.828167"><ele>91.6</ele><time>2022-08-30T13:33:19Z</time></trkpt><trkpt lat="58.05361" lon="38.828332"><ele>91.8</ele><time>2022-08-30T13:33:21Z</time></trkpt><trkpt lat="58.053595" lon="38.828472"><ele>92.2</ele><time>2022-08-30T13:33:23Z</time></trkpt><trkpt lat="58.05357" lon="38.828613"><ele>92.9</ele><time>2022-08-30T13:33:25Z</time></trkpt><trkpt lat="58.053557" lon="38.828758"><ele>93.5</ele><time>2022-08-30T13:33:27Z</time></trkpt><trkpt lat="58.053522" lon="38.828908"><ele>94.0</ele><time>2022-08-30T13:33:29Z</time></trkpt><trkpt lat="58.05348" lon="38.829083"><ele>94.7</ele><time>2022-08-30T13:33:31Z</time></trkpt><trkpt lat="58.053442" lon="38.829265"><ele>95.1</ele><time>2022-08-30T13:33:33Z</time></trkpt><trkpt lat="58.053418" lon="38.829468"><ele>95.4</ele><time>2022-08-30T13:33:35Z</time></trkpt><trkpt lat="58.053392" lon="38.829637"><ele>95.6</ele><time>2022-08-30T13:33:37Z</time></trkpt><trkpt lat="58.053385" lon="38.82978"><ele>96.1</ele><time>2022-08-30T13:33:39Z</time></trkpt><trkpt lat="58.05335" lon="38.829912"><ele>96.6</ele><time>2022-08-30T13:33:41Z</time></trkpt><trkpt lat="58.053312" lon="38.830058"><ele>97.2</ele><time>2022-08-30T13:33:43Z</time></trkpt><trkpt lat="58.053292" lon="38.830192"><ele>97.8</ele><time>2022-08-30T13:33:45Z</time></trkpt><trkpt lat="58.053265" lon="38.83032"><ele>97.4</ele><time>2022-08-30T13:33:49Z</time></trkpt><trkpt lat="58.053225" lon="38.830438"><ele>96.0</ele><time>2022-08-30T13:34:25Z</time></trkpt><trkpt lat="58.053198" lon="38.830577"><ele>95.6</ele><time>2022-08-30T13:34:27Z</time></trkpt><trkpt lat="58.053162" lon="38.83072"><ele>96.1</ele><time>2022-08-30T13:34:29Z</time></trkpt><trkpt lat="58.053128" lon="38.830873"><ele>96.2</ele><time>2022-08-30T13:34:31Z</time></trkpt><trkpt lat="58.0531" lon="38.831032"><ele>96.1</ele><time>2022-08-30T13:34:33Z</time></trkpt><trkpt lat="58.053072" lon="38.831182"><ele>95.8</ele><time>2022-08-30T13:34:35Z</time></trkpt><trkpt lat="58.053043" lon="38.831325"><ele>95.6</ele><time>2022-08-30T13:34:37Z</time></trkpt><trkpt lat="58.053012" lon="38.831468"><ele>95.4</ele><time>2022-08-30T13:34:39Z</time></trkpt><trkpt lat="58.05298" lon="38.831635"><ele>95.3</ele><time>2022-08-30T13:34:41Z</time></trkpt><trkpt lat="58.052943" lon="38.8318"><ele>95.8</ele><time>2022-08-30T13:34:43Z</time></trkpt><trkpt lat="58.05291" lon="38.831963"><ele>96.0</ele><time>2022-08-30T13:34:45Z</time></trkpt><trkpt lat="58.052877" lon="38.832112"><ele>97.2</ele><time>2022-08-30T13:34:47Z</time></trkpt><trkpt lat="58.052847" lon="38.832302"><ele>97.5</ele><time>2022-08-30T13:34:50Z</time></trkpt><trkpt lat="58.052813" lon="38.832443"><ele>97.6</ele><time>2022-08-30T13:34:53Z</time></trkpt><trkpt lat="58.05279" lon="38.832602"><ele>97.9</ele><time>2022-08-30T13:34:55Z</time></trkpt><trkpt lat="58.052753" lon="38.832812"><ele>98.1</ele><time>2022-08-30T13:34:57Z</time></trkpt><trkpt lat="58.052732" lon="38.832965"><ele>97.6</ele><time>2022-08-30T13:34:59Z</time></trkpt><trkpt lat="58.052697" lon="38.833147"><ele>97.5</ele><time>2022-08-30T13:35:01Z</time></trkpt><trkpt lat="58.052657" lon="38.833308"><ele>97.7</ele><time>2022-08-30T13:35:03Z</time></trkpt><trkpt lat="58.052637" lon="38.833477"><ele>97.7</ele><time>2022-08-30T13:35:05Z</time></trkpt><trkpt lat="58.052633" lon="38.833643"><ele>97.5</ele><time>2022-08-30T13:35:07Z</time></trkpt><trkpt lat="58.052598" lon="38.833808"><ele>97.3</ele><time>2022-08-30T13:35:09Z</time></trkpt><trkpt lat="58.052568" lon="38.833955"><ele>96.8</ele><time>2022-08-30T13:35:12Z</time></trkpt><trkpt lat="58.052542" lon="38.834095"><ele>98.8</ele><time>2022-08-30T13:36:16Z</time></trkpt><trkpt lat="58.052488" lon="38.834225"><ele>98.3</ele><time>2022-08-30T13:36:19Z</time></trkpt><trkpt lat="58.052465" lon="38.834388"><ele>98.4</ele><time>2022-08-30T13:36:21Z</time></trkpt><trkpt lat="58.052435" lon="38.834568"><ele>98.7</ele><time>2022-08-30T13:36:23Z</time></trkpt><trkpt lat="58.052393" lon="38.834748"><ele>98.7</ele><time>2022-08-30T13:36:25Z</time></trkpt><trkpt lat="58.052362" lon="38.834908"><ele>98.5</ele><time>2022-08-30T13:36:27Z</time></trkpt><trkpt lat="58.052333" lon="38.83508"><ele>98.2</ele><time>2022-08-30T13:36:29Z</time></trkpt><trkpt lat="58.0523" lon="38.835248"><ele>98.1</ele><time>2022-08-30T13:36:31Z</time></trkpt><trkpt lat="58.052258" lon="38.835455"><ele>98.7</ele><time>2022-08-30T13:36:33Z</time></trkpt><trkpt lat="58.052227" lon="38.83563"><ele>98.6</ele><time>2022-08-30T13:36:35Z</time></trkpt><trkpt lat="58.052203" lon="38.835803"><ele>98.3</ele><time>2022-08-30T13:36:37Z</time></trkpt><trkpt lat="58.052168" lon="38.835965"><ele>98.6</ele><time>2022-08-30T13:36:39Z</time></trkpt><trkpt lat="58.052148" lon="38.83611"><ele>98.4</ele><time>2022-08-30T13:36:41Z</time></trkpt><trkpt lat="58.052118" lon="38.836237"><ele>98.2</ele><time>2022-08-30T13:36:43Z</time></trkpt><trkpt lat="58.052092" lon="38.83643"><ele>98.9</ele><time>2022-08-30T13:36:46Z</time></trkpt><trkpt lat="58.052047" lon="38.836608"><ele>98.7</ele><time>2022-08-30T13:36:50Z</time></trkpt><trkpt lat="58.052022" lon="38.836768"><ele>99.2</ele><time>2022-08-30T13:36:52Z</time></trkpt><trkpt lat="58.051992" lon="38.836962"><ele>99.2</ele><time>2022-08-30T13:36:54Z</time></trkpt><trkpt lat="58.051958" lon="38.837133"><ele>98.9</ele><time>2022-08-30T13:36:56Z</time></trkpt><trkpt lat="58.051925" lon="38.83731"><ele>99.3</ele><time>2022-08-30T13:36:58Z</time></trkpt><trkpt lat="58.0519" lon="38.837507"><ele>99.6</ele><time>2022-08-30T13:37:00Z</time></trkpt><trkpt lat="58.05189" lon="38.837667"><ele>100.3</ele><time>2022-08-30T13:37:02Z</time></trkpt><trkpt lat="58.051862" lon="38.837827"><ele>99.9</ele><time>2022-08-30T13:37:04Z</time></trkpt><trkpt lat="58.051822" lon="38.837987"><ele>99.9</ele><time>2022-08-30T13:37:06Z</time></trkpt><trkpt lat="58.051777" lon="38.83818"><ele>99.7</ele><time>2022-08-30T13:37:08Z</time></trkpt><trkpt lat="58.051733" lon="38.838312"><ele>99.0</ele><time>2022-08-30T13:37:10Z</time></trkpt><trkpt lat="58.051677" lon="38.838458"><ele>97.9</ele><time>2022-08-30T13:37:14Z</time></trkpt><trkpt lat="58.051675" lon="38.838678"><ele>98.0</ele><time>2022-08-30T13:37:17Z</time></trkpt><trkpt lat="58.051662" lon="38.838842"><ele>98.1</ele><time>2022-08-30T13:37:19Z</time></trkpt><trkpt lat="58.051622" lon="38.839023"><ele>98.1</ele><time>2022-08-30T13:37:21Z</time></trkpt><trkpt lat="58.05159" lon="38.839175"><ele>97.9</ele><time>2022-08-30T13:37:23Z</time></trkpt><trkpt lat="58.051547" lon="38.839295"><ele>97.4</ele><time>2022-08-30T13:37:26Z</time></trkpt><trkpt lat="58.051532" lon="38.839437"><ele>96.5</ele><time>2022-08-30T13:37:30Z</time></trkpt><trkpt lat="58.051487" lon="38.83957"><ele>97.7</ele><time>2022-08-30T13:37:37Z</time></trkpt><trkpt lat="58.051452" lon="38.839757"><ele>96.6</ele><time>2022-08-30T13:37:40Z</time></trkpt><trkpt lat="58.051427" lon="38.839903"><ele>96.6</ele><time>2022-08-30T13:37:41Z</time></trkpt><trkpt lat="58.051383" lon="38.840077"><ele>96.6</ele><time>2022-08-30T13:37:43Z</time></trkpt><trkpt lat="58.051348" lon="38.840262"><ele>96.1</ele><time>2022-08-30T13:37:45Z</time></trkpt><trkpt lat="58.051293" lon="38.840412"><ele>95.5</ele><time>2022-08-30T13:37:47Z</time></trkpt><trkpt lat="58.051303" lon="38.84063"><ele>95.6</ele><time>2022-08-30T13:37:49Z</time></trkpt><trkpt lat="58.051252" lon="38.840792"><ele>95.3</ele><time>2022-08-30T13:37:51Z</time></trkpt><trkpt lat="58.051202" lon="38.840945"><ele>94.1</ele><time>2022-08-30T13:37:53Z</time></trkpt><trkpt lat="58.051205" lon="38.841102"><ele>94.8</ele><time>2022-08-30T13:37:55Z</time></trkpt><trkpt lat="58.051173" lon="38.84124"><ele>94.8</ele><time>2022-08-30T13:37:57Z</time></trkpt><trkpt lat="58.051143" lon="38.841373"><ele>94.4</ele><time>2022-08-30T13:37:59Z</time></trkpt><trkpt lat="58.051112" lon="38.841528"><ele>95.0</ele><time>2022-08-30T13:38:01Z</time></trkpt><trkpt lat="58.051108" lon="38.841672"><ele>95.1</ele><time>2022-08-30T13:38:04Z</time></trkpt><trkpt lat="58.051115" lon="38.84182"><ele>96.5</ele><time>2022-08-30T13:38:57Z</time></trkpt><trkpt lat="58.051072" lon="38.841945"><ele>96.3</ele><time>2022-08-30T13:38:59Z</time></trkpt><trkpt lat="58.051045" lon="38.842083"><ele>97.1</ele><time>2022-08-30T13:39:01Z</time></trkpt><trkpt lat="58.051017" lon="38.842242"><ele>97.2</ele><time>2022-08-30T13:39:03Z</time></trkpt><trkpt lat="58.050982" lon="38.842387"><ele>96.3</ele><time>2022-08-30T13:39:05Z</time></trkpt><trkpt lat="58.050945" lon="38.842535"><ele>96.2</ele><time>2022-08-30T13:39:07Z</time></trkpt><trkpt lat="58.05091" lon="38.842688"><ele>96.4</ele><time>2022-08-30T13:39:09Z</time></trkpt><trkpt lat="58.050885" lon="38.842862"><ele>96.3</ele><time>2022-08-30T13:39:11Z</time></trkpt><trkpt lat="58.050852" lon="38.843023"><ele>96.3</ele><time>2022-08-30T13:39:13Z</time></trkpt><trkpt lat="58.05082" lon="38.843177"><ele>96.5</ele><time>2022-08-30T13:39:15Z</time></trkpt><trkpt lat="58.05079" lon="38.843367"><ele>96.6</ele><time>2022-08-30T13:39:17Z</time></trkpt><trkpt lat="58.050773" lon="38.843502"><ele>96.5</ele><time>2022-08-30T13:39:19Z</time></trkpt><trkpt lat="58.050732" lon="38.843688"><ele>96.3</ele><time>2022-08-30T13:39:22Z</time></trkpt><trkpt lat="58.050698" lon="38.84383"><ele>97.4</ele><time>2022-08-30T13:39:24Z</time></trkpt><trkpt lat="58.050655" lon="38.844018"><ele>97.8</ele><time>2022-08-30T13:39:26Z</time></trkpt><trkpt lat="58.050625" lon="38.844215"><ele>97.8</ele><time>2022-08-30T13:39:28Z</time></trkpt><trkpt lat="58.050582" lon="38.844435"><ele>97.0</ele><time>2022-08-30T13:39:30Z</time></trkpt><trkpt lat="58.050565" lon="38.844605"><ele>96.4</ele><time>2022-08-30T13:39:32Z</time></trkpt><trkpt lat="58.050533" lon="38.844753"><ele>96.4</ele><time>2022-08-30T13:39:34Z</time></trkpt><trkpt lat="58.0505" lon="38.844885"><ele>96.4</ele><time>2022-08-30T13:39:36Z</time></trkpt><trkpt lat="58.050463" lon="38.845033"><ele>95.9</ele><time>2022-08-30T13:39:38Z</time></trkpt><trkpt lat="58.050447" lon="38.845175"><ele>95.4</ele><time>2022-08-30T13:39:40Z</time></trkpt><trkpt lat="58.050432" lon="38.84532"><ele>95.7</ele><time>2022-08-30T13:39:43Z</time></trkpt><trkpt lat="58.050413" lon="38.845498"><ele>96.5</ele><time>2022-08-30T13:39:47Z</time></trkpt><trkpt lat="58.05039" lon="38.84563"><ele>95.8</ele><time>2022-08-30T13:39:49Z</time></trkpt><trkpt lat="58.050358" lon="38.84577"><ele>94.8</ele><time>2022-08-30T13:39:51Z</time></trkpt><trkpt lat="58.050337" lon="38.845938"><ele>94.3</ele><time>2022-08-30T13:39:54Z</time></trkpt><trkpt lat="58.050312" lon="38.84607"><ele>93.9</ele><time>2022-08-30T13:39:56Z</time></trkpt><trkpt lat="58.050278" lon="38.846218"><ele>93.1</ele><time>2022-08-30T13:39:58Z</time></trkpt><trkpt lat="58.050235" lon="38.846402"><ele>93.5</ele><time>2022-08-30T13:40:00Z</time></trkpt><trkpt lat="58.050203" lon="38.846595"><ele>94.5</ele><time>2022-08-30T13:40:02Z</time></trkpt><trkpt lat="58.050187" lon="38.84674"><ele>94.8</ele><time>2022-08-30T13:40:04Z</time></trkpt><trkpt lat="58.05017" lon="38.84688"><ele>95.5</ele><time>2022-08-30T13:40:06Z</time></trkpt><trkpt lat="58.050153" lon="38.847022"><ele>95.1</ele><time>2022-08-30T13:40:08Z</time></trkpt><trkpt lat="58.05015" lon="38.847217"><ele>95.8</ele><time>2022-08-30T13:40:10Z</time></trkpt><trkpt lat="58.050118" lon="38.847365"><ele>95.2</ele><time>2022-08-30T13:40:12Z</time></trkpt><trkpt lat="58.050098" lon="38.84751"><ele>94.5</ele><time>2022-08-30T13:40:14Z</time></trkpt><trkpt lat="58.050063" lon="38.847652"><ele>91.9</ele><time>2022-08-30T13:40:16Z</time></trkpt><trkpt lat="58.050037" lon="38.847782"><ele>94.9</ele><time>2022-08-30T13:40:18Z</time></trkpt><trkpt lat="58.050008" lon="38.847907"><ele>96.4</ele><time>2022-08-30T13:40:21Z</time></trkpt><trkpt lat="58.049962" lon="38.8481"><ele>97.3</ele><time>2022-08-30T13:40:24Z</time></trkpt><trkpt lat="58.049908" lon="38.848307"><ele>97.9</ele><time>2022-08-30T13:40:26Z</time></trkpt><trkpt lat="58.049867" lon="38.848487"><ele>97.8</ele><time>2022-08-30T13:40:28Z</time></trkpt><trkpt lat="58.049805" lon="38.84863"><ele>97.8</ele><time>2022-08-30T13:40:30Z</time></trkpt><trkpt lat="58.049757" lon="38.848778"><ele>97.5</ele><time>2022-08-30T13:40:32Z</time></trkpt><trkpt lat="58.049748" lon="38.84898"><ele>98.0</ele><time>2022-08-30T13:40:34Z</time></trkpt><trkpt lat="58.049698" lon="38.849112"><ele>98.3</ele><time>2022-08-30T13:40:36Z</time></trkpt><trkpt lat="58.049673" lon="38.849242"><ele>98.5</ele><time>2022-08-30T13:40:38Z</time></trkpt><trkpt lat="58.04966" lon="38.84943"><ele>98.4</ele><time>2022-08-30T13:40:40Z</time></trkpt><trkpt lat="58.04965" lon="38.84962"><ele>98.4</ele><time>2022-08-30T13:40:43Z</time></trkpt><trkpt lat="58.049642" lon="38.849755"><ele>98.5</ele><time>2022-08-30T13:40:45Z</time></trkpt><trkpt lat="58.049638" lon="38.849925"><ele>98.8</ele><time>2022-08-30T13:40:48Z</time></trkpt><trkpt lat="58.049615" lon="38.850067"><ele>98.1</ele><time>2022-08-30T13:41:01Z</time></trkpt><trkpt lat="58.049577" lon="38.850188"><ele>96.9</ele><time>2022-08-30T13:41:05Z</time></trkpt><trkpt lat="58.049525" lon="38.850383"><ele>97.3</ele><time>2022-08-30T13:41:08Z</time></trkpt><trkpt lat="58.04949" lon="38.850532"><ele>97.4</ele><time>2022-08-30T13:41:10Z</time></trkpt><trkpt lat="58.049448" lon="38.850678"><ele>97.0</ele><time>2022-08-30T13:41:12Z</time></trkpt><trkpt lat="58.049432" lon="38.850837"><ele>96.4</ele><time>2022-08-30T13:41:14Z</time></trkpt><trkpt lat="58.049422" lon="38.850987"><ele>95.6</ele><time>2022-08-30T13:41:16Z</time></trkpt><trkpt lat="58.049398" lon="38.851138"><ele>95.9</ele><time>2022-08-30T13:41:18Z</time></trkpt><trkpt lat="58.049367" lon="38.851275"><ele>95.6</ele><time>2022-08-30T13:41:20Z</time></trkpt><trkpt lat="58.049323" lon="38.851433"><ele>95.6</ele><time>2022-08-30T13:41:23Z</time></trkpt><trkpt lat="58.049273" lon="38.851542"><ele>95.2</ele><time>2022-08-30T13:41:26Z</time></trkpt><trkpt lat="58.049218" lon="38.851653"><ele>94.9</ele><time>2022-08-30T13:41:29Z</time></trkpt><trkpt lat="58.04917" lon="38.851793"><ele>95.5</ele><time>2022-08-30T13:41:32Z</time></trkpt><trkpt lat="58.049107" lon="38.851887"><ele>98.3</ele><time>2022-08-30T13:41:41Z</time></trkpt><trkpt lat="58.049027" lon="38.851937"><ele>98.4</ele><time>2022-08-30T13:41:45Z</time></trkpt><trkpt lat="58.048932" lon="38.851975"><ele>98.5</ele><time>2022-08-30T13:41:48Z</time></trkpt><trkpt lat="58.048833" lon="38.852022"><ele>98.6</ele><time>2022-08-30T13:41:51Z</time></trkpt><trkpt lat="58.048738" lon="38.852065"><ele>98.4</ele><time>2022-08-30T13:41:54Z</time></trkpt><trkpt lat="58.048643" lon="38.852105"><ele>97.9</ele><time>2022-08-30T13:41:57Z</time></trkpt><trkpt lat="58.048563" lon="38.852128"><ele>96.5</ele><time>2022-08-30T13:42:01Z</time></trkpt><trkpt lat="58.048525" lon="38.85228"><ele>97.4</ele><time>2022-08-30T13:42:05Z</time></trkpt><trkpt lat="58.048507" lon="38.85241"><ele>99.1</ele><time>2022-08-30T13:42:08Z</time></trkpt><trkpt lat="58.048422" lon="38.852468"><ele>99.6</ele><time>2022-08-30T13:42:11Z</time></trkpt><trkpt lat="58.048335" lon="38.852492"><ele>100.8</ele><time>2022-08-30T13:42:14Z</time></trkpt><trkpt lat="58.048258" lon="38.852538"><ele>101.3</ele><time>2022-08-30T13:42:17Z</time></trkpt><trkpt lat="58.048155" lon="38.852578"><ele>100.7</ele><time>2022-08-30T13:42:20Z</time></trkpt><trkpt lat="58.048078" lon="38.85262"><ele>100.3</ele><time>2022-08-30T13:42:23Z</time></trkpt><trkpt lat="58.047998" lon="38.852655"><ele>100.6</ele><time>2022-08-30T13:42:27Z</time></trkpt><trkpt lat="58.047907" lon="38.852655"><ele>100.2</ele><time>2022-08-30T13:42:30Z</time></trkpt><trkpt lat="58.047833" lon="38.852667"><ele>100.2</ele><time>2022-08-30T13:42:32Z</time></trkpt><trkpt lat="58.047733" lon="38.85269"><ele>100.0</ele><time>2022-08-30T13:42:35Z</time></trkpt><trkpt lat="58.04765" lon="38.852728"><ele>100.5</ele><time>2022-08-30T13:42:37Z</time></trkpt><trkpt lat="58.047552" lon="38.852805"><ele>101.4</ele><time>2022-08-30T13:42:40Z</time></trkpt><trkpt lat="58.047458" lon="38.852833"><ele>101.0</ele><time>2022-08-30T13:42:44Z</time></trkpt><trkpt lat="58.047355" lon="38.85285"><ele>100.6</ele><time>2022-08-30T13:42:47Z</time></trkpt><trkpt lat="58.047272" lon="38.852853"><ele>101.1</ele><time>2022-08-30T13:42:49Z</time></trkpt><trkpt lat="58.0472" lon="38.852865"><ele>100.8</ele><time>2022-08-30T13:42:51Z</time></trkpt><trkpt lat="58.047122" lon="38.852895"><ele>100.6</ele><time>2022-08-30T13:42:54Z</time></trkpt><trkpt lat="58.04704" lon="38.852938"><ele>100.4</ele><time>2022-08-30T13:42:58Z</time></trkpt><trkpt lat="58.046935" lon="38.852997"><ele>100.2</ele><time>2022-08-30T13:43:01Z</time></trkpt><trkpt lat="58.04686" lon="38.853037"><ele>100.1</ele><time>2022-08-30T13:43:03Z</time></trkpt><trkpt lat="58.046783" lon="38.85308"><ele>100.0</ele><time>2022-08-30T13:43:06Z</time></trkpt><trkpt lat="58.046688" lon="38.853157"><ele>99.6</ele><time>2022-08-30T13:43:10Z</time></trkpt><trkpt lat="58.046617" lon="38.853228"><ele>99.3</ele><time>2022-08-30T13:43:12Z</time></trkpt><trkpt lat="58.04657" lon="38.853353"><ele>98.9</ele><time>2022-08-30T13:43:16Z</time></trkpt><trkpt lat="58.046498" lon="38.85348"><ele>99.0</ele><time>2022-08-30T13:43:21Z</time></trkpt><trkpt lat="58.046467" lon="38.853625"><ele>98.6</ele><time>2022-08-30T13:43:26Z</time></trkpt><trkpt lat="58.046455" lon="38.853782"><ele>98.4</ele><time>2022-08-30T13:43:29Z</time></trkpt><trkpt lat="58.046477" lon="38.853963"><ele>98.4</ele><time>2022-08-30T13:43:32Z</time></trkpt><trkpt lat="58.0465" lon="38.85411"><ele>98.2</ele><time>2022-08-30T13:43:34Z</time></trkpt><trkpt lat="58.046533" lon="38.854303"><ele>97.8</ele><time>2022-08-30T13:43:37Z</time></trkpt><trkpt lat="58.046565" lon="38.854493"><ele>98.1</ele><time>2022-08-30T13:43:40Z</time></trkpt><trkpt lat="58.046582" lon="38.854653"><ele>97.9</ele><time>2022-08-30T13:43:42Z</time></trkpt><trkpt lat="58.046598" lon="38.854802"><ele>98.0</ele><time>2022-08-30T13:43:44Z</time></trkpt><trkpt lat="58.046615" lon="38.854943"><ele>97.8</ele><time>2022-08-30T13:43:46Z</time></trkpt><trkpt lat="58.046632" lon="38.855082"><ele>98.0</ele><time>2022-08-30T13:43:48Z</time></trkpt><trkpt lat="58.046655" lon="38.855247"><ele>98.4</ele><time>2022-08-30T13:43:51Z</time></trkpt><trkpt lat="58.046688" lon="38.855412"><ele>98.2</ele><time>2022-08-30T13:43:54Z</time></trkpt><trkpt lat="58.046708" lon="38.855548"><ele>98.5</ele><time>2022-08-30T13:43:57Z</time></trkpt><trkpt lat="58.046742" lon="38.855698"><ele>98.9</ele><time>2022-08-30T13:44:01Z</time></trkpt><trkpt lat="58.046753" lon="38.855838"><ele>99.4</ele><time>2022-08-30T13:44:06Z</time></trkpt><trkpt lat="58.046752" lon="38.856003"><ele>98.8</ele><time>2022-08-30T13:54:37Z</time></trkpt><trkpt lat="58.046817" lon="38.856068"><ele>99.2</ele><time>2022-08-30T13:54:39Z</time></trkpt><trkpt lat="58.046885" lon="38.856193"><ele>99.9</ele><time>2022-08-30T13:54:41Z</time></trkpt><trkpt lat="58.046923" lon="38.856385"><ele>100.1</ele><time>2022-08-30T13:54:43Z</time></trkpt><trkpt lat="58.046955" lon="38.85659"><ele>100.3</ele><time>2022-08-30T13:54:45Z</time></trkpt><trkpt lat="58.04698" lon="38.856772"><ele>100.3</ele><time>2022-08-30T13:54:47Z</time></trkpt><trkpt lat="58.047002" lon="38.856952"><ele>100.1</ele><time>2022-08-30T13:54:49Z</time></trkpt><trkpt lat="58.047023" lon="38.857117"><ele>100.7</ele><time>2022-08-30T13:54:51Z</time></trkpt><trkpt lat="58.047063" lon="38.857278"><ele>100.1</ele><time>2022-08-30T13:54:54Z</time></trkpt><trkpt lat="58.047105" lon="38.85741"><ele>99.0</ele><time>2022-08-30T13:54:56Z</time></trkpt><trkpt lat="58.04713" lon="38.857587"><ele>98.9</ele><time>2022-08-30T13:54:58Z</time></trkpt><trkpt lat="58.047157" lon="38.857777"><ele>99.4</ele><time>2022-08-30T13:55:00Z</time></trkpt><trkpt lat="58.047187" lon="38.857925"><ele>99.2</ele><time>2022-08-30T13:55:02Z</time></trkpt><trkpt lat="58.04721" lon="38.85806"><ele>99.1</ele><time>2022-08-30T13:55:04Z</time></trkpt><trkpt lat="58.047243" lon="38.858238"><ele>99.8</ele><time>2022-08-30T13:55:07Z</time></trkpt><trkpt lat="58.047263" lon="38.85838"><ele>98.1</ele><time>2022-08-30T13:55:11Z</time></trkpt><trkpt lat="58.047323" lon="38.858502"><ele>98.4</ele><time>2022-08-30T14:10:38Z</time></trkpt><trkpt lat="58.047347" lon="38.858647"><ele>98.1</ele><time>2022-08-30T14:10:41Z</time></trkpt><trkpt lat="58.047338" lon="38.858832"><ele>97.5</ele><time>2022-08-30T14:10:44Z</time></trkpt><trkpt lat="58.047312" lon="38.858973"><ele>97.7</ele><time>2022-08-30T14:10:48Z</time></trkpt><trkpt lat="58.047268" lon="38.859128"><ele>96.3</ele><time>2022-08-30T14:10:53Z</time></trkpt><trkpt lat="58.047195" lon="38.859162"><ele>95.1</ele><time>2022-08-30T14:10:59Z</time></trkpt><trkpt lat="58.047267" lon="38.859122"><ele>94.5</ele><time>2022-08-30T14:36:06Z</time></trkpt><trkpt lat="58.047285" lon="38.858973"><ele>94.4</ele><time>2022-08-30T14:36:12Z</time></trkpt><trkpt lat="58.047212" lon="38.85899"><ele>92.5</ele><time>2022-08-30T14:36:24Z</time></trkpt><trkpt lat="58.047148" lon="38.859058"><ele>92.5</ele><time>2022-08-30T14:36:32Z</time></trkpt><trkpt lat="58.047107" lon="38.859173"><ele>93.4</ele><time>2022-08-30T14:36:44Z</time></trkpt><trkpt lat="58.047093" lon="38.859333"><ele>93.2</ele><time>2022-08-30T14:36:50Z</time></trkpt><trkpt lat="58.047095" lon="38.859495"><ele>91.9</ele><time>2022-08-30T14:36:55Z</time></trkpt><trkpt lat="58.047103" lon="38.859628"><ele>90.9</ele><time>2022-08-30T14:37:03Z</time></trkpt><trkpt lat="58.047162" lon="38.859723"><ele>90.0</ele><time>2022-08-30T14:37:18Z</time></trkpt><trkpt lat="58.047238" lon="38.859777"><ele>90.5</ele><time>2022-08-30T14:37:33Z</time></trkpt><trkpt lat="58.047267" lon="38.859912"><ele>91.3</ele><time>2022-08-30T14:37:41Z</time></trkpt><trkpt lat="58.04733" lon="38.860032"><ele>92.0</ele><time>2022-08-30T14:37:47Z</time></trkpt><trkpt lat="58.047387" lon="38.86012"><ele>92.5</ele><time>2022-08-30T14:37:52Z</time></trkpt><trkpt lat="58.047453" lon="38.860185"><ele>93.0</ele><time>2022-08-30T14:37:56Z</time></trkpt><trkpt lat="58.047507" lon="38.860087"><ele>92.6</ele><time>2022-08-30T14:38:01Z</time></trkpt><trkpt lat="58.047588" lon="38.860153"><ele>92.3</ele><time>2022-08-30T14:38:11Z</time></trkpt><trkpt lat="58.04766" lon="38.860228"><ele>92.2</ele><time>2022-08-30T14:38:13Z</time></trkpt><trkpt lat="58.047738" lon="38.860243"><ele>92.4</ele><time>2022-08-30T14:38:15Z</time></trkpt><trkpt lat="58.047838" lon="38.8602"><ele>92.6</ele><time>2022-08-30T14:38:18Z</time></trkpt><trkpt lat="58.047912" lon="38.860168"><ele>92.6</ele><time>2022-08-30T14:38:20Z</time></trkpt><trkpt lat="58.047987" lon="38.860203"><ele>92.8</ele><time>2022-08-30T14:38:22Z</time></trkpt><trkpt lat="58.048053" lon="38.86027"><ele>92.5</ele><time>2022-08-30T14:38:24Z</time></trkpt><trkpt lat="58.048152" lon="38.860352"><ele>92.6</ele><time>2022-08-30T14:38:27Z</time></trkpt><trkpt lat="58.04822" lon="38.860395"><ele>92.5</ele><time>2022-08-30T14:38:29Z</time></trkpt><trkpt lat="58.04831" lon="38.860455"><ele>93.1</ele><time>2022-08-30T14:38:32Z</time></trkpt><trkpt lat="58.048388" lon="38.86048"><ele>93.2</ele><time>2022-08-30T14:38:36Z</time></trkpt><trkpt lat="58.048465" lon="38.860523"><ele>93.7</ele><time>2022-08-30T14:38:39Z</time></trkpt><trkpt lat="58.048538" lon="38.860535"><ele>95.5</ele><time>2022-08-30T14:38:43Z</time></trkpt><trkpt lat="58.048615" lon="38.860413"><ele>95.2</ele><time>2022-08-30T14:38:47Z</time></trkpt><trkpt lat="58.04864" lon="38.860285"><ele>94.9</ele><time>2022-08-30T14:38:49Z</time></trkpt><trkpt lat="58.048665" lon="38.860123"><ele>94.3</ele><time>2022-08-30T14:38:52Z</time></trkpt><trkpt lat="58.048738" lon="38.860025"><ele>92.2</ele><time>2022-08-30T14:38:56Z</time></trkpt><trkpt lat="58.048815" lon="38.859875"><ele>92.7</ele><time>2022-08-30T14:38:59Z</time></trkpt><trkpt lat="58.048852" lon="38.859717"><ele>92.2</ele><time>2022-08-30T14:39:01Z</time></trkpt><trkpt lat="58.048877" lon="38.859555"><ele>91.5</ele><time>2022-08-30T14:39:03Z</time></trkpt><trkpt lat="58.048908" lon="38.859418"><ele>91.6</ele><time>2022-08-30T14:39:05Z</time></trkpt><trkpt lat="58.048937" lon="38.85929"><ele>91.8</ele><time>2022-08-30T14:39:07Z</time></trkpt><trkpt lat="58.048968" lon="38.859105"><ele>91.0</ele><time>2022-08-30T14:39:10Z</time></trkpt><trkpt lat="58.048983" lon="38.858945"><ele>92.0</ele><time>2022-08-30T14:39:13Z</time></trkpt><trkpt lat="58.048995" lon="38.858757"><ele>91.5</ele><time>2022-08-30T14:39:16Z</time></trkpt><trkpt lat="58.049005" lon="38.858618"><ele>91.2</ele><time>2022-08-30T14:39:18Z</time></trkpt><trkpt lat="58.049022" lon="38.858478"><ele>91.9</ele><time>2022-08-30T14:39:20Z</time></trkpt><trkpt lat="58.049055" lon="38.858292"><ele>91.7</ele><time>2022-08-30T14:39:23Z</time></trkpt><trkpt lat="58.04908" lon="38.858108"><ele>91.1</ele><time>2022-08-30T14:39:26Z</time></trkpt><trkpt lat="58.0491" lon="38.857935"><ele>91.4</ele><time>2022-08-30T14:39:29Z</time></trkpt><trkpt lat="58.049125" lon="38.857793"><ele>92.2</ele><time>2022-08-30T14:39:32Z</time></trkpt><trkpt lat="58.049157" lon="38.857645"><ele>92.4</ele><time>2022-08-30T14:39:36Z</time></trkpt><trkpt lat="58.049205" lon="38.857515"><ele>92.6</ele><time>2022-08-30T14:39:40Z</time></trkpt><trkpt lat="58.049225" lon="38.857383"><ele>94.4</ele><time>2022-08-30T14:39:44Z</time></trkpt><trkpt lat="58.049248" lon="38.85724"><ele>96.2</ele><time>2022-08-30T14:39:48Z</time></trkpt><trkpt lat="58.049285" lon="38.8571"><ele>96.7</ele><time>2022-08-30T14:39:51Z</time></trkpt><trkpt lat="58.049297" lon="38.85696"><ele>95.4</ele><time>2022-08-30T14:39:56Z</time></trkpt><trkpt lat="58.049263" lon="38.856835"><ele>96.2</ele><time>2022-08-30T14:40:02Z</time></trkpt><trkpt lat="58.04931" lon="38.856988"><ele>96.7</ele><time>2022-08-30T14:40:08Z</time></trkpt><trkpt lat="58.049308" lon="38.857212"><ele>97.4</ele><time>2022-08-30T14:40:10Z</time></trkpt><trkpt lat="58.049282" lon="38.85738"><ele>97.4</ele><time>2022-08-30T14:40:12Z</time></trkpt><trkpt lat="58.049245" lon="38.857557"><ele>97.5</ele><time>2022-08-30T14:40:14Z</time></trkpt><trkpt lat="58.049207" lon="38.857712"><ele>97.1</ele><time>2022-08-30T14:40:16Z</time></trkpt><trkpt lat="58.049173" lon="38.857855"><ele>97.0</ele><time>2022-08-30T14:40:18Z</time></trkpt><trkpt lat="58.049132" lon="38.85803"><ele>96.9</ele><time>2022-08-30T14:40:21Z</time></trkpt><trkpt lat="58.049102" lon="38.858165"><ele>97.1</ele><time>2022-08-30T14:40:24Z</time></trkpt><trkpt lat="58.049077" lon="38.858317"><ele>96.3</ele><time>2022-08-30T14:40:28Z</time></trkpt><trkpt lat="58.049048" lon="38.858442"><ele>96.7</ele><time>2022-08-30T14:40:30Z</time></trkpt><trkpt lat="58.049005" lon="38.85856"><ele>96.8</ele><time>2022-08-30T14:40:32Z</time></trkpt><trkpt lat="58.049077" lon="38.858532"><ele>96.2</ele><time>2022-08-30T14:40:38Z</time></trkpt><trkpt lat="58.049145" lon="38.858315"><ele>95.2</ele><time>2022-08-30T14:40:40Z</time></trkpt><trkpt lat="58.04921" lon="38.858132"><ele>93.7</ele><time>2022-08-30T14:40:42Z</time></trkpt><trkpt lat="58.049285" lon="38.857913"><ele>93.0</ele><time>2022-08-30T14:40:44Z</time></trkpt><trkpt lat="58.049325" lon="38.8578"><ele>92.9</ele><time>2022-08-30T14:40:45Z</time></trkpt><trkpt lat="58.049367" lon="38.857678"><ele>92.5</ele><time>2022-08-30T14:40:46Z</time></trkpt><trkpt lat="58.049412" lon="38.857552"><ele>92.0</ele><time>2022-08-30T14:40:47Z</time></trkpt><trkpt lat="58.04945" lon="38.857437"><ele>91.9</ele><time>2022-08-30T14:40:48Z</time></trkpt><trkpt lat="58.049523" lon="38.857218"><ele>90.6</ele><time>2022-08-30T14:40:50Z</time></trkpt><trkpt lat="58.049583" lon="38.857023"><ele>90.9</ele><time>2022-08-30T14:40:52Z</time></trkpt><trkpt lat="58.049622" lon="38.856823"><ele>90.5</ele><time>2022-08-30T14:40:54Z</time></trkpt><trkpt lat="58.049675" lon="38.856642"><ele>90.5</ele><time>2022-08-30T14:40:56Z</time></trkpt><trkpt lat="58.049713" lon="38.856467"><ele>90.3</ele><time>2022-08-30T14:40:58Z</time></trkpt><trkpt lat="58.04975" lon="38.856282"><ele>89.4</ele><time>2022-08-30T14:41:00Z</time></trkpt><trkpt lat="58.049783" lon="38.8561"><ele>89.4</ele><time>2022-08-30T14:41:02Z</time></trkpt><trkpt lat="58.049813" lon="38.855913"><ele>89.8</ele><time>2022-08-30T14:41:04Z</time></trkpt><trkpt lat="58.049845" lon="38.855725"><ele>89.4</ele><time>2022-08-30T14:41:06Z</time></trkpt><trkpt lat="58.049857" lon="38.855542"><ele>89.1</ele><time>2022-08-30T14:41:08Z</time></trkpt><trkpt lat="58.049878" lon="38.855365"><ele>88.4</ele><time>2022-08-30T14:41:10Z</time></trkpt><trkpt lat="58.049912" lon="38.855188"><ele>88.8</ele><time>2022-08-30T14:41:12Z</time></trkpt><trkpt lat="58.049952" lon="38.855023"><ele>88.6</ele><time>2022-08-30T14:41:14Z</time></trkpt><trkpt lat="58.049962" lon="38.854857"><ele>89.0</ele><time>2022-08-30T14:41:16Z</time></trkpt><trkpt lat="58.049963" lon="38.854692"><ele>89.7</ele><time>2022-08-30T14:41:18Z</time></trkpt><trkpt lat="58.049995" lon="38.854512"><ele>90.1</ele><time>2022-08-30T14:41:21Z</time></trkpt><trkpt lat="58.05004" lon="38.854332"><ele>89.5</ele><time>2022-08-30T14:41:24Z</time></trkpt><trkpt lat="58.050072" lon="38.854207"><ele>89.9</ele><time>2022-08-30T14:41:26Z</time></trkpt><trkpt lat="58.050112" lon="38.854025"><ele>89.7</ele><time>2022-08-30T14:41:29Z</time></trkpt><trkpt lat="58.050148" lon="38.853838"><ele>89.4</ele><time>2022-08-30T14:41:32Z</time></trkpt><trkpt lat="58.050172" lon="38.853707"><ele>89.9</ele><time>2022-08-30T14:41:34Z</time></trkpt><trkpt lat="58.050193" lon="38.853568"><ele>90.1</ele><time>2022-08-30T14:41:36Z</time></trkpt><trkpt lat="58.050217" lon="38.853397"><ele>89.5</ele><time>2022-08-30T14:41:38Z</time></trkpt><trkpt lat="58.05021" lon="38.853225"><ele>89.8</ele><time>2022-08-30T14:41:40Z</time></trkpt><trkpt lat="58.050182" lon="38.853058"><ele>89.8</ele><time>2022-08-30T14:41:42Z</time></trkpt><trkpt lat="58.050115" lon="38.85294"><ele>90.1</ele><time>2022-08-30T14:41:44Z</time></trkpt><trkpt lat="58.050025" lon="38.85293"><ele>90.6</ele><time>2022-08-30T14:41:47Z</time></trkpt><trkpt lat="58.049983" lon="38.853057"><ele>93.2</ele><time>2022-08-30T14:41:57Z</time></trkpt><trkpt lat="58.050035" lon="38.852925"><ele>94.3</ele><time>2022-08-30T14:42:28Z</time></trkpt><trkpt lat="58.050057" lon="38.852793"><ele>94.4</ele><time>2022-08-30T14:42:33Z</time></trkpt><trkpt lat="58.050095" lon="38.852667"><ele>94.5</ele><time>2022-08-30T14:42:39Z</time></trkpt><trkpt lat="58.050127" lon="38.852517"><ele>95.1</ele><time>2022-08-30T14:42:47Z</time></trkpt><trkpt lat="58.050187" lon="38.852357"><ele>95.4</ele><time>2022-08-30T14:42:51Z</time></trkpt><trkpt lat="58.050227" lon="38.852238"><ele>95.4</ele><time>2022-08-30T14:42:53Z</time></trkpt><trkpt lat="58.050268" lon="38.85209"><ele>95.6</ele><time>2022-08-30T14:42:55Z</time></trkpt><trkpt lat="58.0503" lon="38.851942"><ele>95.4</ele><time>2022-08-30T14:42:57Z</time></trkpt><trkpt lat="58.050325" lon="38.851805"><ele>95.6</ele><time>2022-08-30T14:42:59Z</time></trkpt><trkpt lat="58.050372" lon="38.85163"><ele>95.4</ele><time>2022-08-30T14:43:02Z</time></trkpt><trkpt lat="58.0504" lon="38.85147"><ele>95.1</ele><time>2022-08-30T14:43:05Z</time></trkpt><trkpt lat="58.050408" lon="38.85133"><ele>95.0</ele><time>2022-08-30T14:43:07Z</time></trkpt><trkpt lat="58.05044" lon="38.851168"><ele>94.3</ele><time>2022-08-30T14:43:09Z</time></trkpt><trkpt lat="58.050448" lon="38.851"><ele>94.4</ele><time>2022-08-30T14:43:11Z</time></trkpt><trkpt lat="58.050478" lon="38.850862"><ele>94.4</ele><time>2022-08-30T14:43:13Z</time></trkpt><trkpt lat="58.050507" lon="38.850737"><ele>94.4</ele><time>2022-08-30T14:43:52Z</time></trkpt><trkpt lat="58.050487" lon="38.8506"><ele>93.5</ele><time>2022-08-30T14:47:51Z</time></trkpt><trkpt lat="58.050532" lon="38.850457"><ele>94.0</ele><time>2022-08-30T14:47:55Z</time></trkpt><trkpt lat="58.050545" lon="38.85031"><ele>94.2</ele><time>2022-08-30T14:48:03Z</time></trkpt><trkpt lat="58.050582" lon="38.850153"><ele>94.4</ele><time>2022-08-30T14:48:10Z</time></trkpt><trkpt lat="58.050618" lon="38.850003"><ele>94.3</ele><time>2022-08-30T14:48:13Z</time></trkpt><trkpt lat="58.050643" lon="38.849867"><ele>94.1</ele><time>2022-08-30T14:48:15Z</time></trkpt><trkpt lat="58.050667" lon="38.849722"><ele>94.2</ele><time>2022-08-30T14:48:17Z</time></trkpt><trkpt lat="58.050693" lon="38.849568"><ele>94.0</ele><time>2022-08-30T14:48:19Z</time></trkpt><trkpt lat="58.050722" lon="38.849432"><ele>94.0</ele><time>2022-08-30T14:48:21Z</time></trkpt><trkpt lat="58.050753" lon="38.849272"><ele>95.3</ele><time>2022-08-30T14:48:24Z</time></trkpt><trkpt lat="58.050782" lon="38.849085"><ele>95.4</ele><time>2022-08-30T14:48:27Z</time></trkpt><trkpt lat="58.050802" lon="38.848953"><ele>96.0</ele><time>2022-08-30T14:48:29Z</time></trkpt><trkpt lat="58.050835" lon="38.848778"><ele>96.8</ele><time>2022-08-30T14:48:32Z</time></trkpt><trkpt lat="58.05086" lon="38.848648"><ele>97.2</ele><time>2022-08-30T14:48:37Z</time></trkpt><trkpt lat="58.050877" lon="38.848492"><ele>97.5</ele><time>2022-08-30T14:48:41Z</time></trkpt><trkpt lat="58.050898" lon="38.848348"><ele>97.5</ele><time>2022-08-30T14:48:44Z</time></trkpt><trkpt lat="58.050915" lon="38.848215"><ele>97.0</ele><time>2022-08-30T14:48:48Z</time></trkpt><trkpt lat="58.050962" lon="38.848042"><ele>96.3</ele><time>2022-08-30T14:49:23Z</time></trkpt><trkpt lat="58.050985" lon="38.847897"><ele>95.7</ele><time>2022-08-30T14:49:25Z</time></trkpt><trkpt lat="58.051015" lon="38.847667"><ele>96.2</ele><time>2022-08-30T14:49:27Z</time></trkpt><trkpt lat="58.051053" lon="38.84749"><ele>96.6</ele><time>2022-08-30T14:49:29Z</time></trkpt><trkpt lat="58.051092" lon="38.847317"><ele>96.9</ele><time>2022-08-30T14:49:31Z</time></trkpt><trkpt lat="58.051128" lon="38.847173"><ele>96.8</ele><time>2022-08-30T14:49:33Z</time></trkpt><trkpt lat="58.051173" lon="38.847043"><ele>97.1</ele><time>2022-08-30T14:49:35Z</time></trkpt><trkpt lat="58.051218" lon="38.846907"><ele>96.9</ele><time>2022-08-30T14:49:37Z</time></trkpt><trkpt lat="58.051247" lon="38.846775"><ele>96.7</ele><time>2022-08-30T14:49:39Z</time></trkpt><trkpt lat="58.05126" lon="38.846623"><ele>97.2</ele><time>2022-08-30T14:49:41Z</time></trkpt><trkpt lat="58.051295" lon="38.846482"><ele>98.0</ele><time>2022-08-30T14:49:44Z</time></trkpt><trkpt lat="58.05131" lon="38.846337"><ele>97.8</ele><time>2022-08-30T14:49:46Z</time></trkpt><trkpt lat="58.051332" lon="38.846162"><ele>97.1</ele><time>2022-08-30T14:49:49Z</time></trkpt><trkpt lat="58.05136" lon="38.846007"><ele>96.6</ele><time>2022-08-30T14:49:52Z</time></trkpt><trkpt lat="58.051385" lon="38.845833"><ele>96.3</ele><time>2022-08-30T14:49:55Z</time></trkpt><trkpt lat="58.05141" lon="38.845653"><ele>95.8</ele><time>2022-08-30T14:49:58Z</time></trkpt><trkpt lat="58.051432" lon="38.845495"><ele>95.9</ele><time>2022-08-30T14:50:01Z</time></trkpt><trkpt lat="58.051468" lon="38.845353"><ele>95.5</ele><time>2022-08-30T14:50:04Z</time></trkpt><trkpt lat="58.051503" lon="38.84519"><ele>95.6</ele><time>2022-08-30T14:50:07Z</time></trkpt><trkpt lat="58.051527" lon="38.845025"><ele>95.5</ele><time>2022-08-30T14:50:10Z</time></trkpt><trkpt lat="58.051562" lon="38.844843"><ele>95.1</ele><time>2022-08-30T14:50:13Z</time></trkpt><trkpt lat="58.051608" lon="38.844667"><ele>95.4</ele><time>2022-08-30T14:50:16Z</time></trkpt><trkpt lat="58.051638" lon="38.844542"><ele>94.8</ele><time>2022-08-30T14:50:18Z</time></trkpt><trkpt lat="58.051682" lon="38.844378"><ele>96.7</ele><time>2022-08-30T14:50:21Z</time></trkpt><trkpt lat="58.051712" lon="38.844245"><ele>97.1</ele><time>2022-08-30T14:50:24Z</time></trkpt><trkpt lat="58.051735" lon="38.844075"><ele>96.9</ele><time>2022-08-30T14:50:28Z</time></trkpt><trkpt lat="58.051757" lon="38.84388"><ele>97.5</ele><time>2022-08-30T14:50:31Z</time></trkpt><trkpt lat="58.051792" lon="38.843715"><ele>97.8</ele><time>2022-08-30T14:50:33Z</time></trkpt><trkpt lat="58.051825" lon="38.843567"><ele>97.7</ele><time>2022-08-30T14:50:35Z</time></trkpt><trkpt lat="58.051855" lon="38.84342"><ele>97.9</ele><time>2022-08-30T14:50:37Z</time></trkpt><trkpt lat="58.051893" lon="38.843255"><ele>97.3</ele><time>2022-08-30T14:50:39Z</time></trkpt><trkpt lat="58.051907" lon="38.843115"><ele>95.8</ele><time>2022-08-30T14:50:41Z</time></trkpt><trkpt lat="58.051957" lon="38.842978"><ele>96.2</ele><time>2022-08-30T14:50:45Z</time></trkpt><trkpt lat="58.051987" lon="38.84283"><ele>94.5</ele><time>2022-08-30T14:52:44Z</time></trkpt><trkpt lat="58.052013" lon="38.842692"><ele>95.7</ele><time>2022-08-30T14:52:48Z</time></trkpt><trkpt lat="58.05203" lon="38.842548"><ele>94.9</ele><time>2022-08-30T14:52:51Z</time></trkpt><trkpt lat="58.052053" lon="38.842418"><ele>96.2</ele><time>2022-08-30T14:53:02Z</time></trkpt><trkpt lat="58.05208" lon="38.842257"><ele>97.2</ele><time>2022-08-30T14:54:20Z</time></trkpt><trkpt lat="58.052113" lon="38.842107"><ele>97.3</ele><time>2022-08-30T14:54:24Z</time></trkpt><trkpt lat="58.052138" lon="38.841973"><ele>97.5</ele><time>2022-08-30T14:54:27Z</time></trkpt><trkpt lat="58.052157" lon="38.841842"><ele>98.2</ele><time>2022-08-30T14:54:30Z</time></trkpt><trkpt lat="58.052175" lon="38.841697"><ele>98.2</ele><time>2022-08-30T14:54:32Z</time></trkpt><trkpt lat="58.0522" lon="38.841563"><ele>98.2</ele><time>2022-08-30T14:54:34Z</time></trkpt><trkpt lat="58.05226" lon="38.841388"><ele>98.2</ele><time>2022-08-30T14:54:37Z</time></trkpt><trkpt lat="58.052297" lon="38.841158"><ele>97.8</ele><time>2022-08-30T14:54:39Z</time></trkpt><trkpt lat="58.052333" lon="38.840995"><ele>97.2</ele><time>2022-08-30T14:54:41Z</time></trkpt><trkpt lat="58.052355" lon="38.84077"><ele>97.8</ele><time>2022-08-30T14:54:43Z</time></trkpt><trkpt lat="58.052397" lon="38.840548"><ele>98.5</ele><time>2022-08-30T14:54:46Z</time></trkpt><trkpt lat="58.052428" lon="38.840362"><ele>98.6</ele><time>2022-08-30T14:54:48Z</time></trkpt><trkpt lat="58.052448" lon="38.840188"><ele>98.5</ele><time>2022-08-30T14:54:52Z</time></trkpt><trkpt lat="58.05247" lon="38.840052"><ele>98.4</ele><time>2022-08-30T15:01:40Z</time></trkpt><trkpt lat="58.052487" lon="38.839902"><ele>96.8</ele><time>2022-08-30T15:01:43Z</time></trkpt><trkpt lat="58.052515" lon="38.839777"><ele>96.4</ele><time>2022-08-30T15:01:46Z</time></trkpt><trkpt lat="58.052552" lon="38.839618"><ele>95.8</ele><time>2022-08-30T15:01:50Z</time></trkpt><trkpt lat="58.052573" lon="38.839467"><ele>97.1</ele><time>2022-08-30T15:01:53Z</time></trkpt><trkpt lat="58.052603" lon="38.839282"><ele>97.9</ele><time>2022-08-30T15:01:56Z</time></trkpt><trkpt lat="58.052635" lon="38.8391"><ele>98.1</ele><time>2022-08-30T15:01:59Z</time></trkpt><trkpt lat="58.052715" lon="38.839022"><ele>98.2</ele><time>2022-08-30T15:02:04Z</time></trkpt><trkpt lat="58.052788" lon="38.83907"><ele>97.6</ele><time>2022-08-30T15:02:06Z</time></trkpt><trkpt lat="58.052858" lon="38.839133"><ele>97.2</ele><time>2022-08-30T15:02:08Z</time></trkpt><trkpt lat="58.05294" lon="38.8392"><ele>97.9</ele><time>2022-08-30T15:02:10Z</time></trkpt><trkpt lat="58.05302" lon="38.83928"><ele>98.1</ele><time>2022-08-30T15:02:12Z</time></trkpt><trkpt lat="58.053093" lon="38.839353"><ele>97.2</ele><time>2022-08-30T15:02:14Z</time></trkpt><trkpt lat="58.053198" lon="38.839418"><ele>96.5</ele><time>2022-08-30T15:02:16Z</time></trkpt><trkpt lat="58.053288" lon="38.839523"><ele>96.0</ele><time>2022-08-30T15:02:18Z</time></trkpt><trkpt lat="58.053397" lon="38.839522"><ele>96.4</ele><time>2022-08-30T15:02:20Z</time></trkpt><trkpt lat="58.053477" lon="38.83961"><ele>96.7</ele><time>2022-08-30T15:02:22Z</time></trkpt><trkpt lat="58.053558" lon="38.839708"><ele>97.6</ele><time>2022-08-30T15:02:24Z</time></trkpt><trkpt lat="58.053643" lon="38.839762"><ele>97.3</ele><time>2022-08-30T15:02:26Z</time></trkpt><trkpt lat="58.05372" lon="38.839775"><ele>97.5</ele><time>2022-08-30T15:02:28Z</time></trkpt><trkpt lat="58.05381" lon="38.839783"><ele>96.6</ele><time>2022-08-30T15:02:31Z</time></trkpt><trkpt lat="58.053887" lon="38.839722"><ele>96.0</ele><time>2022-08-30T15:02:34Z</time></trkpt><trkpt lat="58.053917" lon="38.839565"><ele>95.4</ele><time>2022-08-30T15:02:39Z</time></trkpt><trkpt lat="58.053965" lon="38.839457"><ele>94.9</ele><time>2022-08-30T15:06:12Z</time></trkpt><trkpt lat="58.053992" lon="38.839318"><ele>95.2</ele><time>2022-08-30T15:06:14Z</time></trkpt><trkpt lat="58.054037" lon="38.839162"><ele>94.6</ele><time>2022-08-30T15:06:16Z</time></trkpt><trkpt lat="58.054065" lon="38.838952"><ele>94.0</ele><time>2022-08-30T15:06:18Z</time></trkpt><trkpt lat="58.054098" lon="38.838807"><ele>93.5</ele><time>2022-08-30T15:06:20Z</time></trkpt><trkpt lat="58.054135" lon="38.838675"><ele>93.1</ele><time>2022-08-30T15:06:22Z</time></trkpt><trkpt lat="58.054197" lon="38.838527"><ele>93.2</ele><time>2022-08-30T15:06:25Z</time></trkpt><trkpt lat="58.054223" lon="38.838358"><ele>94.1</ele><time>2022-08-30T15:06:28Z</time></trkpt><trkpt lat="58.054268" lon="38.838195"><ele>95.2</ele><time>2022-08-30T15:06:31Z</time></trkpt><trkpt lat="58.054335" lon="38.838062"><ele>96.5</ele><time>2022-08-30T15:06:34Z</time></trkpt><trkpt lat="58.054388" lon="38.837945"><ele>96.6</ele><time>2022-08-30T15:06:36Z</time></trkpt><trkpt lat="58.054423" lon="38.837817"><ele>97.0</ele><time>2022-08-30T15:06:38Z</time></trkpt><trkpt lat="58.054457" lon="38.837677"><ele>97.4</ele><time>2022-08-30T15:06:40Z</time></trkpt><trkpt lat="58.054505" lon="38.837522"><ele>97.5</ele><time>2022-08-30T15:06:42Z</time></trkpt><trkpt lat="58.054553" lon="38.837375"><ele>97.2</ele><time>2022-08-30T15:06:44Z</time></trkpt><trkpt lat="58.05459" lon="38.83723"><ele>96.2</ele><time>2022-08-30T15:06:46Z</time></trkpt><trkpt lat="58.054623" lon="38.837048"><ele>95.2</ele><time>2022-08-30T15:06:49Z</time></trkpt><trkpt lat="58.054655" lon="38.836922"><ele>95.6</ele><time>2022-08-30T15:06:51Z</time></trkpt><trkpt lat="58.05469" lon="38.836745"><ele>96.0</ele><time>2022-08-30T15:06:54Z</time></trkpt><trkpt lat="58.054728" lon="38.836602"><ele>97.5</ele><time>2022-08-30T15:06:57Z</time></trkpt><trkpt lat="58.054782" lon="38.836458"><ele>97.4</ele><time>2022-08-30T15:07:00Z</time></trkpt><trkpt lat="58.05483" lon="38.836315"><ele>97.8</ele><time>2022-08-30T15:07:03Z</time></trkpt><trkpt lat="58.05486" lon="38.836162"><ele>97.4</ele><time>2022-08-30T15:07:06Z</time></trkpt><trkpt lat="58.054805" lon="38.836048"><ele>97.6</ele><time>2022-08-30T15:07:09Z</time></trkpt><trkpt lat="58.054737" lon="38.836005"><ele>97.0</ele><time>2022-08-30T15:07:11Z</time></trkpt><trkpt lat="58.054668" lon="38.83595"><ele>96.9</ele><time>2022-08-30T15:07:13Z</time></trkpt><trkpt lat="58.054595" lon="38.83586"><ele>97.1</ele><time>2022-08-30T15:07:16Z</time></trkpt><trkpt lat="58.054537" lon="38.835775"><ele>96.5</ele><time>2022-08-30T15:07:19Z</time></trkpt><trkpt lat="58.054517" lon="38.835642"><ele>97.4</ele><time>2022-08-30T15:07:23Z</time></trkpt><trkpt lat="58.054575" lon="38.8355"><ele>97.3</ele><time>2022-08-30T15:07:26Z</time></trkpt><trkpt lat="58.054635" lon="38.835347"><ele>97.7</ele><time>2022-08-30T15:07:29Z</time></trkpt><trkpt lat="58.05469" lon="38.835177"><ele>97.3</ele><time>2022-08-30T15:07:32Z</time></trkpt><trkpt lat="58.054727" lon="38.835048"><ele>96.6</ele><time>2022-08-30T15:07:34Z</time></trkpt><trkpt lat="58.054767" lon="38.83493"><ele>96.4</ele><time>2022-08-30T15:07:36Z</time></trkpt><trkpt lat="58.05481" lon="38.834822"><ele>97.0</ele><time>2022-08-30T15:07:38Z</time></trkpt><trkpt lat="58.05487" lon="38.83465"><ele>97.5</ele><time>2022-08-30T15:07:41Z</time></trkpt><trkpt lat="58.054907" lon="38.834525"><ele>97.5</ele><time>2022-08-30T15:07:43Z</time></trkpt><trkpt lat="58.054952" lon="38.834363"><ele>96.7</ele><time>2022-08-30T15:07:46Z</time></trkpt><trkpt lat="58.054998" lon="38.834212"><ele>96.6</ele><time>2022-08-30T15:07:49Z</time></trkpt><trkpt lat="58.055055" lon="38.834067"><ele>95.6</ele><time>2022-08-30T15:07:52Z</time></trkpt><trkpt lat="58.055128" lon="38.833927"><ele>96.0</ele><time>2022-08-30T15:07:55Z</time></trkpt><trkpt lat="58.055165" lon="38.833775"><ele>96.1</ele><time>2022-08-30T15:07:58Z</time></trkpt><trkpt lat="58.055202" lon="38.833638"><ele>96.2</ele><time>2022-08-30T15:08:01Z</time></trkpt><trkpt lat="58.055258" lon="38.833537"><ele>95.2</ele><time>2022-08-30T15:08:10Z</time></trkpt><trkpt lat="58.055318" lon="38.833445"><ele>95.9</ele><time>2022-08-30T15:08:14Z</time></trkpt><trkpt lat="58.055302" lon="38.83328"><ele>96.2</ele><time>2022-08-30T15:08:20Z</time></trkpt><trkpt lat="58.055328" lon="38.83314"><ele>96.7</ele><time>2022-08-30T15:08:23Z</time></trkpt><trkpt lat="58.05538" lon="38.832993"><ele>96.5</ele><time>2022-08-30T15:08:26Z</time></trkpt><trkpt lat="58.055443" lon="38.832835"><ele>95.8</ele><time>2022-08-30T15:08:29Z</time></trkpt><trkpt lat="58.0555" lon="38.832682"><ele>95.7</ele><time>2022-08-30T15:08:32Z</time></trkpt><trkpt lat="58.055542" lon="38.832567"><ele>95.9</ele><time>2022-08-30T15:08:34Z</time></trkpt><trkpt lat="58.055588" lon="38.832392"><ele>96.5</ele><time>2022-08-30T15:08:37Z</time></trkpt><trkpt lat="58.055622" lon="38.832267"><ele>96.1</ele><time>2022-08-30T15:08:39Z</time></trkpt><trkpt lat="58.055678" lon="38.832117"><ele>96.3</ele><time>2022-08-30T15:08:42Z</time></trkpt><trkpt lat="58.055717" lon="38.831973"><ele>96.1</ele><time>2022-08-30T15:08:45Z</time></trkpt><trkpt lat="58.055748" lon="38.831842"><ele>95.0</ele><time>2022-08-30T15:08:47Z</time></trkpt><trkpt lat="58.05579" lon="38.83169"><ele>95.2</ele><time>2022-08-30T15:08:49Z</time></trkpt><trkpt lat="58.055832" lon="38.83156"><ele>94.9</ele><time>2022-08-30T15:08:51Z</time></trkpt><trkpt lat="58.055877" lon="38.831442"><ele>95.1</ele><time>2022-08-30T15:08:52Z</time></trkpt><trkpt lat="58.055932" lon="38.831283"><ele>95.2</ele><time>2022-08-30T15:08:55Z</time></trkpt><trkpt lat="58.055978" lon="38.831148"><ele>95.0</ele><time>2022-08-30T15:08:58Z</time></trkpt><trkpt lat="58.05602" lon="38.831038"><ele>94.7</ele><time>2022-08-30T15:09:01Z</time></trkpt><trkpt lat="58.056063" lon="38.8309"><ele>95.2</ele><time>2022-08-30T15:09:05Z</time></trkpt><trkpt lat="58.056123" lon="38.830782"><ele>95.3</ele><time>2022-08-30T15:09:11Z</time></trkpt><trkpt lat="58.056168" lon="38.830663"><ele>94.9</ele><time>2022-08-30T15:09:15Z</time></trkpt><trkpt lat="58.056213" lon="38.830548"><ele>94.2</ele><time>2022-08-30T15:09:18Z</time></trkpt><trkpt lat="58.056263" lon="38.830403"><ele>94.0</ele><time>2022-08-30T15:09:21Z</time></trkpt><trkpt lat="58.056305" lon="38.830267"><ele>92.4</ele><time>2022-08-30T15:09:24Z</time></trkpt><trkpt lat="58.056347" lon="38.830142"><ele>92.4</ele><time>2022-08-30T15:09:27Z</time></trkpt><trkpt lat="58.056388" lon="38.830013"><ele>92.5</ele><time>2022-08-30T15:09:30Z</time></trkpt><trkpt lat="58.056428" lon="38.829892"><ele>92.9</ele><time>2022-08-30T15:09:35Z</time></trkpt><trkpt lat="58.05637" lon="38.830017"><ele>91.6</ele><time>2022-08-30T15:17:55Z</time></trkpt><trkpt lat="58.056402" lon="38.830163"><ele>92.8</ele><time>2022-08-30T15:18:00Z</time></trkpt><trkpt lat="58.05648" lon="38.830207"><ele>92.7</ele><time>2022-08-30T15:18:03Z</time></trkpt><trkpt lat="58.056555" lon="38.830265"><ele>92.7</ele><time>2022-08-30T15:18:06Z</time></trkpt><trkpt lat="58.056642" lon="38.830315"><ele>92.1</ele><time>2022-08-30T15:18:10Z</time></trkpt><trkpt lat="58.056697" lon="38.830223"><ele>92.2</ele><time>2022-08-30T15:18:15Z</time></trkpt><trkpt lat="58.056717" lon="38.830072"><ele>91.5</ele><time>2022-08-30T15:18:20Z</time></trkpt><trkpt lat="58.056748" lon="38.82994"><ele>91.6</ele><time>2022-08-30T15:18:23Z</time></trkpt><trkpt lat="58.056778" lon="38.829773"><ele>91.3</ele><time>2022-08-30T15:18:26Z</time></trkpt><trkpt lat="58.056767" lon="38.829598"><ele>91.0</ele><time>2022-08-30T15:18:29Z</time></trkpt><trkpt lat="58.05681" lon="38.82945"><ele>91.2</ele><time>2022-08-30T15:18:33Z</time></trkpt><trkpt lat="58.056853" lon="38.82931"><ele>91.6</ele><time>2022-08-30T15:18:37Z</time></trkpt><trkpt lat="58.056883" lon="38.829165"><ele>92.0</ele><time>2022-08-30T15:18:41Z</time></trkpt><trkpt lat="58.056957" lon="38.829055"><ele>92.2</ele><time>2022-08-30T15:19:02Z</time></trkpt><trkpt lat="58.05697" lon="38.828915"><ele>92.4</ele><time>2022-08-30T15:19:05Z</time></trkpt><trkpt lat="58.056958" lon="38.828782"><ele>92.2</ele><time>2022-08-30T15:19:08Z</time></trkpt><trkpt lat="58.056922" lon="38.828637"><ele>92.1</ele><time>2022-08-30T15:19:12Z</time></trkpt><trkpt lat="58.056955" lon="38.828492"><ele>92.2</ele><time>2022-08-30T15:19:16Z</time></trkpt><trkpt lat="58.057013" lon="38.828383"><ele>92.6</ele><time>2022-08-30T15:19:19Z</time></trkpt><trkpt lat="58.057073" lon="38.828273"><ele>92.3</ele><time>2022-08-30T15:19:22Z</time></trkpt><trkpt lat="58.057128" lon="38.828177"><ele>92.1</ele><time>2022-08-30T15:19:25Z</time></trkpt><trkpt lat="58.057182" lon="38.828078"><ele>92.0</ele><time>2022-08-30T15:19:28Z</time></trkpt><trkpt lat="58.057232" lon="38.827972"><ele>92.2</ele><time>2022-08-30T15:19:31Z</time></trkpt><trkpt lat="58.057295" lon="38.827833"><ele>92.5</ele><time>2022-08-30T15:19:35Z</time></trkpt><trkpt lat="58.057342" lon="38.827728"><ele>92.5</ele><time>2022-08-30T15:19:38Z</time></trkpt><trkpt lat="58.057395" lon="38.827623"><ele>92.6</ele><time>2022-08-30T15:19:41Z</time></trkpt><trkpt lat="58.057448" lon="38.827518"><ele>93.1</ele><time>2022-08-30T15:19:44Z</time></trkpt><trkpt lat="58.057507" lon="38.827408"><ele>93.2</ele><time>2022-08-30T15:19:48Z</time></trkpt><trkpt lat="58.05757" lon="38.827295"><ele>93.3</ele><time>2022-08-30T15:19:53Z</time></trkpt><trkpt lat="58.057637" lon="38.827167"><ele>92.9</ele><time>2022-08-30T15:19:57Z</time></trkpt><trkpt lat="58.057688" lon="38.827063"><ele>93.3</ele><time>2022-08-30T15:20:00Z</time></trkpt><trkpt lat="58.057745" lon="38.826935"><ele>93.4</ele><time>2022-08-30T15:20:04Z</time></trkpt><trkpt lat="58.057818" lon="38.826818"><ele>93.1</ele><time>2022-08-30T15:20:08Z</time></trkpt><trkpt lat="58.057885" lon="38.826687"><ele>93.1</ele><time>2022-08-30T15:20:11Z</time></trkpt><trkpt lat="58.057952" lon="38.826562"><ele>92.8</ele><time>2022-08-30T15:20:14Z</time></trkpt><trkpt lat="58.058018" lon="38.826435"><ele>93.3</ele><time>2022-08-30T15:20:18Z</time></trkpt><trkpt lat="58.058075" lon="38.826295"><ele>94.1</ele><time>2022-08-30T15:20:22Z</time></trkpt><trkpt lat="58.058137" lon="38.82615"><ele>94.2</ele><time>2022-08-30T15:20:25Z</time></trkpt><trkpt lat="58.058203" lon="38.826032"><ele>94.5</ele><time>2022-08-30T15:20:28Z</time></trkpt><trkpt lat="58.058267" lon="38.825928"><ele>94.5</ele><time>2022-08-30T15:20:31Z</time></trkpt><trkpt lat="58.058333" lon="38.825818"><ele>95.0</ele><time>2022-08-30T15:20:35Z</time></trkpt><trkpt lat="58.058398" lon="38.82571"><ele>95.1</ele><time>2022-08-30T15:20:39Z</time></trkpt><trkpt lat="58.058457" lon="38.82558"><ele>95.4</ele><time>2022-08-30T15:20:43Z</time></trkpt><trkpt lat="58.058503" lon="38.825457"><ele>96.5</ele><time>2022-08-30T15:20:51Z</time></trkpt><trkpt lat="58.058553" lon="38.825345"><ele>97.3</ele><time>2022-08-30T15:20:57Z</time></trkpt><trkpt lat="58.058597" lon="38.82522"><ele>97.2</ele><time>2022-08-30T15:41:45Z</time></trkpt><trkpt lat="58.058683" lon="38.82511"><ele>96.8</ele><time>2022-08-30T15:41:48Z</time></trkpt><trkpt lat="58.05874" lon="38.825027"><ele>97.6</ele><time>2022-08-30T15:41:50Z</time></trkpt><trkpt lat="58.05881" lon="38.82489"><ele>97.0</ele><time>2022-08-30T15:41:53Z</time></trkpt><trkpt lat="58.058867" lon="38.82478"><ele>97.0</ele><time>2022-08-30T15:41:56Z</time></trkpt><trkpt lat="58.058918" lon="38.824687"><ele>96.7</ele><time>2022-08-30T15:41:59Z</time></trkpt><trkpt lat="58.058993" lon="38.824545"><ele>96.8</ele><time>2022-08-30T15:42:02Z</time></trkpt><trkpt lat="58.059047" lon="38.824445"><ele>96.6</ele><time>2022-08-30T15:42:04Z</time></trkpt><trkpt lat="58.059112" lon="38.824327"><ele>97.0</ele><time>2022-08-30T15:42:06Z</time></trkpt><trkpt lat="58.059185" lon="38.824195"><ele>96.8</ele><time>2022-08-30T15:42:08Z</time></trkpt><trkpt lat="58.05925" lon="38.82407"><ele>96.6</ele><time>2022-08-30T15:42:10Z</time></trkpt><trkpt lat="58.059317" lon="38.823938"><ele>95.9</ele><time>2022-08-30T15:42:12Z</time></trkpt><trkpt lat="58.059382" lon="38.82381"><ele>95.6</ele><time>2022-08-30T15:42:14Z</time></trkpt><trkpt lat="58.059435" lon="38.823682"><ele>95.6</ele><time>2022-08-30T15:42:16Z</time></trkpt><trkpt lat="58.059498" lon="38.823547"><ele>95.7</ele><time>2022-08-30T15:42:18Z</time></trkpt><trkpt lat="58.059548" lon="38.823383"><ele>95.4</ele><time>2022-08-30T15:42:20Z</time></trkpt><trkpt lat="58.059598" lon="38.823163"><ele>95.4</ele><time>2022-08-30T15:42:22Z</time></trkpt><trkpt lat="58.059638" lon="38.82294"><ele>95.7</ele><time>2022-08-30T15:42:24Z</time></trkpt><trkpt lat="58.059647" lon="38.822712"><ele>95.4</ele><time>2022-08-30T15:42:26Z</time></trkpt><trkpt lat="58.059665" lon="38.822513"><ele>95.4</ele><time>2022-08-30T15:42:28Z</time></trkpt><trkpt lat="58.05967" lon="38.822342"><ele>95.5</ele><time>2022-08-30T15:42:30Z</time></trkpt><trkpt lat="58.059685" lon="38.822187"><ele>95.8</ele><time>2022-08-30T15:42:32Z</time></trkpt><trkpt lat="58.059688" lon="38.821983"><ele>96.1</ele><time>2022-08-30T15:42:34Z</time></trkpt><trkpt lat="58.059705" lon="38.821828"><ele>95.9</ele><time>2022-08-30T15:42:36Z</time></trkpt><trkpt lat="58.05972" lon="38.821667"><ele>96.3</ele><time>2022-08-30T15:42:38Z</time></trkpt><trkpt lat="58.05974" lon="38.821485"><ele>96.7</ele><time>2022-08-30T15:42:40Z</time></trkpt><trkpt lat="58.059762" lon="38.821338"><ele>97.2</ele><time>2022-08-30T15:42:42Z</time></trkpt><trkpt lat="58.05976" lon="38.821193"><ele>97.4</ele><time>2022-08-30T15:42:44Z</time></trkpt><trkpt lat="58.059763" lon="38.821038"><ele>97.4</ele><time>2022-08-30T15:42:46Z</time></trkpt><trkpt lat="58.059777" lon="38.820862"><ele>97.2</ele><time>2022-08-30T15:42:48Z</time></trkpt><trkpt lat="58.059792" lon="38.820665"><ele>97.0</ele><time>2022-08-30T15:42:50Z</time></trkpt><trkpt lat="58.059805" lon="38.820498"><ele>97.4</ele><time>2022-08-30T15:42:52Z</time></trkpt><trkpt lat="58.059815" lon="38.820338"><ele>97.6</ele><time>2022-08-30T15:42:54Z</time></trkpt><trkpt lat="58.059822" lon="38.820155"><ele>97.8</ele><time>2022-08-30T15:42:56Z</time></trkpt><trkpt lat="58.059847" lon="38.819958"><ele>96.8</ele><time>2022-08-30T15:42:58Z</time></trkpt><trkpt lat="58.059863" lon="38.819768"><ele>97.1</ele><time>2022-08-30T15:43:00Z</time></trkpt><trkpt lat="58.05988" lon="38.819592"><ele>97.6</ele><time>2022-08-30T15:43:02Z</time></trkpt><trkpt lat="58.059885" lon="38.819427"><ele>98.2</ele><time>2022-08-30T15:43:04Z</time></trkpt><trkpt lat="58.059895" lon="38.819263"><ele>98.3</ele><time>2022-08-30T15:43:06Z</time></trkpt><trkpt lat="58.059898" lon="38.819118"><ele>98.0</ele><time>2022-08-30T15:43:08Z</time></trkpt><trkpt lat="58.059912" lon="38.81892"><ele>97.8</ele><time>2022-08-30T15:43:11Z</time></trkpt><trkpt lat="58.059925" lon="38.818778"><ele>97.8</ele><time>2022-08-30T15:43:13Z</time></trkpt><trkpt lat="58.059933" lon="38.818637"><ele>97.5</ele><time>2022-08-30T15:43:15Z</time></trkpt><trkpt lat="58.059947" lon="38.818437"><ele>97.5</ele><time>2022-08-30T15:43:18Z</time></trkpt><trkpt lat="58.059957" lon="38.818282"><ele>97.4</ele><time>2022-08-30T15:43:20Z</time></trkpt><trkpt lat="58.059965" lon="38.818128"><ele>97.8</ele><time>2022-08-30T15:43:22Z</time></trkpt><trkpt lat="58.059965" lon="38.817933"><ele>98.2</ele><time>2022-08-30T15:43:24Z</time></trkpt><trkpt lat="58.05997" lon="38.817727"><ele>98.2</ele><time>2022-08-30T15:43:26Z</time></trkpt><trkpt lat="58.059977" lon="38.817502"><ele>98.6</ele><time>2022-08-30T15:43:28Z</time></trkpt><trkpt lat="58.059982" lon="38.81728"><ele>98.3</ele><time>2022-08-30T15:43:30Z</time></trkpt><trkpt lat="58.059978" lon="38.817108"><ele>98.7</ele><time>2022-08-30T15:43:32Z</time></trkpt><trkpt lat="58.059997" lon="38.816948"><ele>98.3</ele><time>2022-08-30T15:43:34Z</time></trkpt><trkpt lat="58.060023" lon="38.81676"><ele>98.5</ele><time>2022-08-30T15:43:36Z</time></trkpt><trkpt lat="58.060032" lon="38.816568"><ele>98.4</ele><time>2022-08-30T15:43:38Z</time></trkpt><trkpt lat="58.06004" lon="38.816383"><ele>98.0</ele><time>2022-08-30T15:43:40Z</time></trkpt><trkpt lat="58.060048" lon="38.816237"><ele>98.6</ele><time>2022-08-30T15:43:42Z</time></trkpt><trkpt lat="58.060058" lon="38.816052"><ele>98.2</ele><time>2022-08-30T15:43:45Z</time></trkpt><trkpt lat="58.060075" lon="38.815902"><ele>97.7</ele><time>2022-08-30T15:43:47Z</time></trkpt><trkpt lat="58.060088" lon="38.815743"><ele>97.6</ele><time>2022-08-30T15:43:49Z</time></trkpt><trkpt lat="58.060105" lon="38.815607"><ele>97.3</ele><time>2022-08-30T15:43:51Z</time></trkpt><trkpt lat="58.060113" lon="38.815402"><ele>97.0</ele><time>2022-08-30T15:43:54Z</time></trkpt><trkpt lat="58.060122" lon="38.815265"><ele>97.0</ele><time>2022-08-30T15:43:56Z</time></trkpt><trkpt lat="58.06014" lon="38.815115"><ele>98.8</ele><time>2022-08-30T15:43:59Z</time></trkpt><trkpt lat="58.06012" lon="38.814982"><ele>101.6</ele><time>2022-08-30T15:46:48Z</time></trkpt><trkpt lat="58.060137" lon="38.814845"><ele>101.6</ele><time>2022-08-30T15:46:53Z</time></trkpt><trkpt lat="58.060137" lon="38.814695"><ele>103.1</ele><time>2022-08-30T15:46:57Z</time></trkpt><trkpt lat="58.060152" lon="38.81453"><ele>103.5</ele><time>2022-08-30T15:47:02Z</time></trkpt><trkpt lat="58.060162" lon="38.814382"><ele>104.0</ele><time>2022-08-30T15:47:05Z</time></trkpt><trkpt lat="58.060177" lon="38.814237"><ele>103.3</ele><time>2022-08-30T15:47:08Z</time></trkpt><trkpt lat="58.060182" lon="38.814085"><ele>102.7</ele><time>2022-08-30T15:47:12Z</time></trkpt><trkpt lat="58.060185" lon="38.813933"><ele>102.8</ele><time>2022-08-30T15:47:15Z</time></trkpt><trkpt lat="58.060187" lon="38.813763"><ele>102.3</ele><time>2022-08-30T15:47:18Z</time></trkpt><trkpt lat="58.060148" lon="38.813645"><ele>102.2</ele><time>2022-08-30T15:47:22Z</time></trkpt><trkpt lat="58.060075" lon="38.813612"><ele>102.2</ele><time>2022-08-30T15:47:24Z</time></trkpt><trkpt lat="58.060015" lon="38.813487"><ele>102.4</ele><time>2022-08-30T15:47:27Z</time></trkpt><trkpt lat="58.060035" lon="38.81329"><ele>102.6</ele><time>2022-08-30T15:47:30Z</time></trkpt><trkpt lat="58.060053" lon="38.813098"><ele>102.5</ele><time>2022-08-30T15:47:33Z</time></trkpt><trkpt lat="58.060068" lon="38.81293"><ele>102.3</ele><time>2022-08-30T15:47:36Z</time></trkpt><trkpt lat="58.060085" lon="38.812758"><ele>102.4</ele><time>2022-08-30T15:47:40Z</time></trkpt><trkpt lat="58.060082" lon="38.812603"><ele>100.8</ele><time>2022-08-30T15:52:37Z</time></trkpt><trkpt lat="58.060087" lon="38.812462"><ele>101.3</ele><time>2022-08-30T15:52:40Z</time></trkpt><trkpt lat="58.060103" lon="38.812268"><ele>101.0</ele><time>2022-08-30T15:52:43Z</time></trkpt><trkpt lat="58.060113" lon="38.812092"><ele>100.6</ele><time>2022-08-30T15:52:46Z</time></trkpt><trkpt lat="58.060117" lon="38.811952"><ele>100.6</ele><time>2022-08-30T15:52:49Z</time></trkpt><trkpt lat="58.060125" lon="38.811787"><ele>100.5</ele><time>2022-08-30T15:52:52Z</time></trkpt><trkpt lat="58.060133" lon="38.81164"><ele>100.8</ele><time>2022-08-30T15:52:55Z</time></trkpt><trkpt lat="58.060118" lon="38.811493"><ele>100.4</ele><time>2022-08-30T15:52:59Z</time></trkpt><trkpt lat="58.060022" lon="38.811477"><ele>100.3</ele><time>2022-08-30T15:53:03Z</time></trkpt><trkpt lat="58.059917" lon="38.811442"><ele>99.9</ele><time>2022-08-30T15:53:06Z</time></trkpt><trkpt lat="58.05982" lon="38.81143"><ele>100.1</ele><time>2022-08-30T15:53:09Z</time></trkpt><trkpt lat="58.059742" lon="38.811427"><ele>99.9</ele><time>2022-08-30T15:53:12Z</time></trkpt><trkpt lat="58.059668" lon="38.811425"><ele>100.2</ele><time>2022-08-30T15:53:15Z</time></trkpt><trkpt lat="58.059583" lon="38.811412"><ele>100.7</ele><time>2022-08-30T15:53:18Z</time></trkpt><trkpt lat="58.059492" lon="38.811382"><ele>100.7</ele><time>2022-08-30T15:53:21Z</time></trkpt><trkpt lat="58.059413" lon="38.81136"><ele>100.6</ele><time>2022-08-30T15:53:24Z</time></trkpt><trkpt lat="58.059338" lon="38.811345"><ele>100.6</ele><time>2022-08-30T15:53:27Z</time></trkpt><trkpt lat="58.059263" lon="38.811403"><ele>99.9</ele><time>2022-08-30T15:53:31Z</time></trkpt><trkpt lat="58.059255" lon="38.811548"><ele>100.1</ele><time>2022-08-30T15:53:33Z</time></trkpt><trkpt lat="58.05924" lon="38.811697"><ele>99.9</ele><time>2022-08-30T15:53:35Z</time></trkpt><trkpt lat="58.059152" lon="38.811758"><ele>99.8</ele><time>2022-08-30T15:53:38Z</time></trkpt><trkpt lat="58.059077" lon="38.811793"><ele>99.7</ele><time>2022-08-30T15:53:40Z</time></trkpt><trkpt lat="58.05903" lon="38.811908"><ele>99.3</ele><time>2022-08-30T15:53:42Z</time></trkpt><trkpt lat="58.059008" lon="38.812058"><ele>99.6</ele><time>2022-08-30T15:53:44Z</time></trkpt><trkpt lat="58.058993" lon="38.812218"><ele>100.3</ele><time>2022-08-30T15:53:46Z</time></trkpt><trkpt lat="58.058983" lon="38.812383"><ele>100.4</ele><time>2022-08-30T15:53:48Z</time></trkpt><trkpt lat="58.058977" lon="38.812537"><ele>100.3</ele><time>2022-08-30T15:53:50Z</time></trkpt><trkpt lat="58.058975" lon="38.812688"><ele>101.1</ele><time>2022-08-30T15:53:52Z</time></trkpt><trkpt lat="58.058977" lon="38.812843"><ele>101.0</ele><time>2022-08-30T15:53:54Z</time></trkpt><trkpt lat="58.058975" lon="38.812987"><ele>100.6</ele><time>2022-08-30T15:53:56Z</time></trkpt><trkpt lat="58.05897" lon="38.813125"><ele>101.3</ele><time>2022-08-30T15:53:58Z</time></trkpt><trkpt lat="58.058953" lon="38.813265"><ele>101.4</ele><time>2022-08-30T15:54:00Z</time></trkpt><trkpt lat="58.058935" lon="38.813427"><ele>102.4</ele><time>2022-08-30T15:54:03Z</time></trkpt><trkpt lat="58.058928" lon="38.813602"><ele>101.9</ele><time>2022-08-30T15:54:07Z</time></trkpt><trkpt lat="58.058918" lon="38.813782"><ele>102.8</ele><time>2022-08-30T15:54:11Z</time></trkpt><trkpt lat="58.0589" lon="38.813952"><ele>102.8</ele><time>2022-08-30T15:54:14Z</time></trkpt><trkpt lat="58.058885" lon="38.81412"><ele>102.7</ele><time>2022-08-30T15:54:17Z</time></trkpt><trkpt lat="58.058873" lon="38.814265"><ele>101.8</ele><time>2022-08-30T15:54:20Z</time></trkpt><trkpt lat="58.058855" lon="38.814443"><ele>101.6</ele><time>2022-08-30T15:54:23Z</time></trkpt><trkpt lat="58.058843" lon="38.81458"><ele>101.8</ele><time>2022-08-30T15:54:25Z</time></trkpt><trkpt lat="58.058832" lon="38.814787"><ele>102.4</ele><time>2022-08-30T15:54:28Z</time></trkpt><trkpt lat="58.058828" lon="38.814943"><ele>103.1</ele><time>2022-08-30T15:54:30Z</time></trkpt><trkpt lat="58.058823" lon="38.815128"><ele>103.3</ele><time>2022-08-30T15:54:33Z</time></trkpt><trkpt lat="58.05875" lon="38.815227"><ele>103.0</ele><time>2022-08-30T15:54:37Z</time></trkpt><trkpt lat="58.05865" lon="38.815205"><ele>103.4</ele><time>2022-08-30T15:54:40Z</time></trkpt><trkpt lat="58.058557" lon="38.81527"><ele>102.8</ele><time>2022-08-30T15:54:43Z</time></trkpt><trkpt lat="58.058545" lon="38.81546"><ele>102.9</ele><time>2022-08-30T15:54:46Z</time></trkpt><trkpt lat="58.058557" lon="38.81565"><ele>103.1</ele><time>2022-08-30T15:54:49Z</time></trkpt><trkpt lat="58.05857" lon="38.815825"><ele>103.5</ele><time>2022-08-30T15:54:52Z</time></trkpt><trkpt lat="58.058573" lon="38.816037"><ele>103.5</ele><time>2022-08-30T15:54:55Z</time></trkpt><trkpt lat="58.058562" lon="38.816207"><ele>103.7</ele><time>2022-08-30T15:54:57Z</time></trkpt><trkpt lat="58.058548" lon="38.816362"><ele>104.1</ele><time>2022-08-30T15:54:59Z</time></trkpt><trkpt lat="58.05853" lon="38.816523"><ele>103.8</ele><time>2022-08-30T15:55:01Z</time></trkpt><trkpt lat="58.05851" lon="38.81671"><ele>103.5</ele><time>2022-08-30T15:55:04Z</time></trkpt><trkpt lat="58.058478" lon="38.816845"><ele>103.5</ele><time>2022-08-30T15:55:07Z</time></trkpt><trkpt lat="58.058402" lon="38.816918"><ele>102.6</ele><time>2022-08-30T15:55:11Z</time></trkpt><trkpt lat="58.058303" lon="38.81686"><ele>102.6</ele><time>2022-08-30T15:55:14Z</time></trkpt><trkpt lat="58.058207" lon="38.816795"><ele>102.3</ele><time>2022-08-30T15:55:17Z</time></trkpt><trkpt lat="58.058115" lon="38.816787"><ele>101.5</ele><time>2022-08-30T15:55:20Z</time></trkpt><trkpt lat="58.05802" lon="38.816773"><ele>101.5</ele><time>2022-08-30T15:55:23Z</time></trkpt><trkpt lat="58.057935" lon="38.816752"><ele>102.4</ele><time>2022-08-30T15:55:26Z</time></trkpt><trkpt lat="58.057845" lon="38.816753"><ele>102.4</ele><time>2022-08-30T15:55:29Z</time></trkpt><trkpt lat="58.057748" lon="38.816752"><ele>102.8</ele><time>2022-08-30T15:55:32Z</time></trkpt><trkpt lat="58.057672" lon="38.81673"><ele>103.0</ele><time>2022-08-30T15:55:35Z</time></trkpt><trkpt lat="58.057587" lon="38.816717"><ele>102.4</ele><time>2022-08-30T15:55:38Z</time></trkpt><trkpt lat="58.057487" lon="38.816695"><ele>102.8</ele><time>2022-08-30T15:55:41Z</time></trkpt><trkpt lat="58.05739" lon="38.816677"><ele>102.6</ele><time>2022-08-30T15:55:44Z</time></trkpt><trkpt lat="58.057308" lon="38.81664"><ele>102.8</ele><time>2022-08-30T15:55:47Z</time></trkpt><trkpt lat="58.057223" lon="38.816617"><ele>102.0</ele><time>2022-08-30T15:55:50Z</time></trkpt><trkpt lat="58.057135" lon="38.816617"><ele>101.9</ele><time>2022-08-30T15:55:53Z</time></trkpt><trkpt lat="58.057052" lon="38.816617"><ele>101.4</ele><time>2022-08-30T15:55:56Z</time></trkpt><trkpt lat="58.05696" lon="38.816605"><ele>101.1</ele><time>2022-08-30T15:55:59Z</time></trkpt><trkpt lat="58.05686" lon="38.816572"><ele>101.1</ele><time>2022-08-30T15:56:02Z</time></trkpt><trkpt lat="58.056782" lon="38.81655"><ele>100.8</ele><time>2022-08-30T15:56:05Z</time></trkpt><trkpt lat="58.056692" lon="38.81652"><ele>101.6</ele><time>2022-08-30T15:56:09Z</time></trkpt><trkpt lat="58.056615" lon="38.816482"><ele>101.6</ele><time>2022-08-30T15:56:12Z</time></trkpt><trkpt lat="58.056522" lon="38.816455"><ele>100.8</ele><time>2022-08-30T15:56:16Z</time></trkpt><trkpt lat="58.056443" lon="38.81645"><ele>100.8</ele><time>2022-08-30T15:56:19Z</time></trkpt><trkpt lat="58.056358" lon="38.816452"><ele>100.7</ele><time>2022-08-30T15:56:22Z</time></trkpt><trkpt lat="58.05626" lon="38.816435"><ele>100.4</ele><time>2022-08-30T15:56:25Z</time></trkpt><trkpt lat="58.056153" lon="38.816413"><ele>100.5</ele><time>2022-08-30T15:56:28Z</time></trkpt><trkpt lat="58.056055" lon="38.816385"><ele>101.2</ele><time>2022-08-30T15:56:31Z</time></trkpt><trkpt lat="58.055957" lon="38.816375"><ele>101.3</ele><time>2022-08-30T15:56:34Z</time></trkpt><trkpt lat="58.055847" lon="38.816365"><ele>101.1</ele><time>2022-08-30T15:56:37Z</time></trkpt><trkpt lat="58.055762" lon="38.816328"><ele>101.0</ele><time>2022-08-30T15:56:39Z</time></trkpt><trkpt lat="58.055662" lon="38.816347"><ele>100.5</ele><time>2022-08-30T15:56:41Z</time></trkpt><trkpt lat="58.055568" lon="38.816332"><ele>100.3</ele><time>2022-08-30T15:56:43Z</time></trkpt><trkpt lat="58.05547" lon="38.816315"><ele>100.3</ele><time>2022-08-30T15:56:45Z</time></trkpt><trkpt lat="58.055363" lon="38.816288"><ele>101.3</ele><time>2022-08-30T15:56:48Z</time></trkpt><trkpt lat="58.05529" lon="38.816267"><ele>100.6</ele><time>2022-08-30T15:56:53Z</time></trkpt><trkpt lat="58.055205" lon="38.816285"><ele>100.9</ele><time>2022-08-30T15:57:06Z</time></trkpt><trkpt lat="58.055132" lon="38.816288"><ele>101.6</ele><time>2022-08-30T15:57:08Z</time></trkpt><trkpt lat="58.055047" lon="38.816252"><ele>101.2</ele><time>2022-08-30T15:57:10Z</time></trkpt><trkpt lat="58.054945" lon="38.816227"><ele>101.4</ele><time>2022-08-30T15:57:13Z</time></trkpt><trkpt lat="58.054872" lon="38.81623"><ele>101.8</ele><time>2022-08-30T15:57:15Z</time></trkpt><trkpt lat="58.054788" lon="38.816215"><ele>101.8</ele><time>2022-08-30T15:57:17Z</time></trkpt><trkpt lat="58.054693" lon="38.816202"><ele>100.9</ele><time>2022-08-30T15:57:19Z</time></trkpt><trkpt lat="58.054632" lon="38.816295"><ele>101.3</ele><time>2022-08-30T15:57:21Z</time></trkpt><trkpt lat="58.054548" lon="38.81633"><ele>101.6</ele><time>2022-08-30T15:57:24Z</time></trkpt><trkpt lat="58.054457" lon="38.816428"><ele>101.7</ele><time>2022-08-30T15:57:27Z</time></trkpt><trkpt lat="58.054437" lon="38.816572"><ele>101.9</ele><time>2022-08-30T15:57:30Z</time></trkpt><trkpt lat="58.054445" lon="38.81677"><ele>102.4</ele><time>2022-08-30T15:57:33Z</time></trkpt><trkpt lat="58.054452" lon="38.816917"><ele>102.0</ele><time>2022-08-30T15:57:35Z</time></trkpt><trkpt lat="58.05446" lon="38.817133"><ele>101.2</ele><time>2022-08-30T15:57:37Z</time></trkpt><trkpt lat="58.054453" lon="38.817328"><ele>100.8</ele><time>2022-08-30T15:57:39Z</time></trkpt><trkpt lat="58.05445" lon="38.81747"><ele>100.4</ele><time>2022-08-30T15:57:41Z</time></trkpt><trkpt lat="58.054458" lon="38.817648"><ele>100.0</ele><time>2022-08-30T15:57:44Z</time></trkpt><trkpt lat="58.054543" lon="38.817653"><ele>100.0</ele><time>2022-08-30T15:57:46Z</time></trkpt><trkpt lat="58.054632" lon="38.817585"><ele>99.9</ele><time>2022-08-30T15:57:49Z</time></trkpt><trkpt lat="58.054712" lon="38.817602"><ele>100.1</ele><time>2022-08-30T15:57:52Z</time></trkpt><trkpt lat="58.054795" lon="38.817555"><ele>99.6</ele><time>2022-08-30T15:57:55Z</time></trkpt><trkpt lat="58.054878" lon="38.817507"><ele>99.6</ele><time>2022-08-30T15:57:59Z</time></trkpt><trkpt lat="58.054935" lon="38.817623"><ele>99.5</ele><time>2022-08-30T15:58:05Z</time></trkpt><trkpt lat="58.054917" lon="38.817823"><ele>99.7</ele><time>2022-08-30T15:58:08Z</time></trkpt><trkpt lat="58.0549" lon="38.817977"><ele>99.7</ele><time>2022-08-30T15:58:10Z</time></trkpt><trkpt lat="58.054878" lon="38.81812"><ele>100.1</ele><time>2022-08-30T15:58:12Z</time></trkpt><trkpt lat="58.054843" lon="38.818258"><ele>100.4</ele><time>2022-08-30T15:58:14Z</time></trkpt><trkpt lat="58.054818" lon="38.818393"><ele>100.1</ele><time>2022-08-30T15:58:16Z</time></trkpt><trkpt lat="58.054808" lon="38.818535"><ele>101.2</ele><time>2022-08-30T15:58:18Z</time></trkpt><trkpt lat="58.0548" lon="38.818685"><ele>101.3</ele><time>2022-08-30T15:58:21Z</time></trkpt><trkpt lat="58.054723" lon="38.818658"><ele>100.5</ele><time>2022-08-30T15:59:56Z</time></trkpt><trkpt lat="58.054655" lon="38.818615"><ele>100.5</ele><time>2022-08-30T16:00:14Z</time></trkpt><trkpt lat="58.05476" lon="38.818582"><ele>100.4</ele><time>2022-08-30T16:05:13Z</time></trkpt><trkpt lat="58.054842" lon="38.818557"><ele>100.0</ele><time>2022-08-30T16:05:17Z</time></trkpt><trkpt lat="58.054775" lon="38.818612"><ele>103.4</ele><time>2022-08-30T16:11:48Z</time></trkpt><trkpt lat="58.054793" lon="38.81842"><ele>100.2</ele><time>2022-08-30T17:07:12Z</time></trkpt><trkpt lat="58.054802" lon="38.818207"><ele>99.4</ele><time>2022-08-30T17:07:15Z</time></trkpt><trkpt lat="58.054822" lon="38.818063"><ele>99.3</ele><time>2022-08-30T17:07:17Z</time></trkpt><trkpt lat="58.054863" lon="38.817897"><ele>98.5</ele><time>2022-08-30T17:07:20Z</time></trkpt><trkpt lat="58.054875" lon="38.817695"><ele>97.6</ele><time>2022-08-30T17:07:23Z</time></trkpt><trkpt lat="58.054878" lon="38.817537"><ele>96.6</ele><time>2022-08-30T17:07:25Z</time></trkpt><trkpt lat="58.054875" lon="38.817378"><ele>96.8</ele><time>2022-08-30T17:07:27Z</time></trkpt><trkpt lat="58.054888" lon="38.817188"><ele>96.3</ele><time>2022-08-30T17:07:29Z</time></trkpt><trkpt lat="58.054892" lon="38.816985"><ele>96.6</ele><time>2022-08-30T17:07:31Z</time></trkpt><trkpt lat="58.054913" lon="38.81685"><ele>95.6</ele><time>2022-08-30T17:07:33Z</time></trkpt><trkpt lat="58.05493" lon="38.816683"><ele>96.0</ele><time>2022-08-30T17:07:35Z</time></trkpt><trkpt lat="58.054943" lon="38.816525"><ele>96.0</ele><time>2022-08-30T17:07:37Z</time></trkpt><trkpt lat="58.05496" lon="38.816383"><ele>96.3</ele><time>2022-08-30T17:07:39Z</time></trkpt><trkpt lat="58.055028" lon="38.816275"><ele>95.0</ele><time>2022-08-30T17:07:42Z</time></trkpt><trkpt lat="58.055098" lon="38.816223"><ele>94.5</ele><time>2022-08-30T17:07:44Z</time></trkpt><trkpt lat="58.055188" lon="38.816222"><ele>95.7</ele><time>2022-08-30T17:07:47Z</time></trkpt><trkpt lat="58.055268" lon="38.81625"><ele>95.6</ele><time>2022-08-30T17:07:51Z</time></trkpt><trkpt lat="58.05537" lon="38.816285"><ele>96.1</ele><time>2022-08-30T17:07:58Z</time></trkpt><trkpt lat="58.055445" lon="38.816307"><ele>96.0</ele><time>2022-08-30T17:08:00Z</time></trkpt><trkpt lat="58.055547" lon="38.816317"><ele>96.1</ele><time>2022-08-30T17:08:02Z</time></trkpt><trkpt lat="58.055645" lon="38.81634"><ele>95.9</ele><time>2022-08-30T17:08:04Z</time></trkpt><trkpt lat="58.055733" lon="38.816362"><ele>95.6</ele><time>2022-08-30T17:08:06Z</time></trkpt><trkpt lat="58.055817" lon="38.816378"><ele>96.0</ele><time>2022-08-30T17:08:08Z</time></trkpt><trkpt lat="58.055897" lon="38.816393"><ele>96.0</ele><time>2022-08-30T17:08:10Z</time></trkpt><trkpt lat="58.055972" lon="38.816403"><ele>95.8</ele><time>2022-08-30T17:08:12Z</time></trkpt><trkpt lat="58.056053" lon="38.816427"><ele>96.2</ele><time>2022-08-30T17:08:14Z</time></trkpt><trkpt lat="58.056138" lon="38.816423"><ele>97.8</ele><time>2022-08-30T17:08:16Z</time></trkpt><trkpt lat="58.056213" lon="38.816437"><ele>98.5</ele><time>2022-08-30T17:08:18Z</time></trkpt><trkpt lat="58.056315" lon="38.816453"><ele>99.8</ele><time>2022-08-30T17:08:21Z</time></trkpt><trkpt lat="58.056397" lon="38.816477"><ele>98.1</ele><time>2022-08-30T17:08:24Z</time></trkpt><trkpt lat="58.05649" lon="38.816497"><ele>99.7</ele><time>2022-08-30T17:08:27Z</time></trkpt><trkpt lat="58.056562" lon="38.816512"><ele>100.5</ele><time>2022-08-30T17:08:29Z</time></trkpt><trkpt lat="58.056653" lon="38.816537"><ele>101.0</ele><time>2022-08-30T17:08:32Z</time></trkpt><trkpt lat="58.056727" lon="38.816565"><ele>100.5</ele><time>2022-08-30T17:08:34Z</time></trkpt><trkpt lat="58.056802" lon="38.816587"><ele>100.8</ele><time>2022-08-30T17:08:36Z</time></trkpt><trkpt lat="58.056897" lon="38.816597"><ele>102.2</ele><time>2022-08-30T17:08:39Z</time></trkpt><trkpt lat="58.056978" lon="38.816612"><ele>101.9</ele><time>2022-08-30T17:08:41Z</time></trkpt><trkpt lat="58.057055" lon="38.816605"><ele>102.3</ele><time>2022-08-30T17:08:43Z</time></trkpt><trkpt lat="58.057155" lon="38.81661"><ele>103.0</ele><time>2022-08-30T17:08:46Z</time></trkpt><trkpt lat="58.05724" lon="38.816623"><ele>103.4</ele><time>2022-08-30T17:08:49Z</time></trkpt><trkpt lat="58.057325" lon="38.816663"><ele>104.5</ele><time>2022-08-30T17:08:52Z</time></trkpt><trkpt lat="58.057398" lon="38.816695"><ele>103.9</ele><time>2022-08-30T17:08:54Z</time></trkpt><trkpt lat="58.057495" lon="38.81666"><ele>103.9</ele><time>2022-08-30T17:08:57Z</time></trkpt><trkpt lat="58.057597" lon="38.816675"><ele>103.9</ele><time>2022-08-30T17:09:00Z</time></trkpt><trkpt lat="58.057683" lon="38.81671"><ele>104.1</ele><time>2022-08-30T17:09:02Z</time></trkpt><trkpt lat="58.05777" lon="38.81674"><ele>105.1</ele><time>2022-08-30T17:09:04Z</time></trkpt><trkpt lat="58.057865" lon="38.816757"><ele>104.6</ele><time>2022-08-30T17:09:07Z</time></trkpt><trkpt lat="58.05796" lon="38.816765"><ele>104.3</ele><time>2022-08-30T17:09:10Z</time></trkpt><trkpt lat="58.05805" lon="38.816808"><ele>103.8</ele><time>2022-08-30T17:09:13Z</time></trkpt><trkpt lat="58.058127" lon="38.816847"><ele>103.0</ele><time>2022-08-30T17:09:16Z</time></trkpt><trkpt lat="58.058228" lon="38.81685"><ele>103.7</ele><time>2022-08-30T17:09:19Z</time></trkpt><trkpt lat="58.058332" lon="38.816897"><ele>103.6</ele><time>2022-08-30T17:09:22Z</time></trkpt><trkpt lat="58.058435" lon="38.816925"><ele>102.7</ele><time>2022-08-30T17:09:25Z</time></trkpt><trkpt lat="58.058537" lon="38.81696"><ele>102.5</ele><time>2022-08-30T17:09:28Z</time></trkpt><trkpt lat="58.058627" lon="38.816973"><ele>102.6</ele><time>2022-08-30T17:09:31Z</time></trkpt><trkpt lat="58.058697" lon="38.816888"><ele>102.2</ele><time>2022-08-30T17:09:35Z</time></trkpt><trkpt lat="58.058687" lon="38.816742"><ele>101.7</ele><time>2022-08-30T17:09:39Z</time></trkpt><trkpt lat="58.058563" lon="38.816955"><ele>105.3</ele><time>2022-08-30T17:10:50Z</time></trkpt><trkpt lat="58.058567" lon="38.816807"><ele>105.4</ele><time>2022-08-30T17:10:54Z</time></trkpt><trkpt lat="58.058482" lon="38.816625"><ele>105.4</ele><time>2022-08-30T17:11:16Z</time></trkpt><trkpt lat="58.058572" lon="38.816843"><ele>107.7</ele><time>2022-08-30T17:11:45Z</time></trkpt><trkpt lat="58.058708" lon="38.817105"><ele>104.7</ele><time>2022-08-30T17:12:00Z</time></trkpt><trkpt lat="58.058628" lon="38.817055"><ele>105.1</ele><time>2022-08-30T17:12:02Z</time></trkpt><trkpt lat="58.058637" lon="38.817215"><ele>104.9</ele><time>2022-08-30T17:12:14Z</time></trkpt><trkpt lat="58.058585" lon="38.817348"><ele>104.2</ele><time>2022-08-30T17:12:24Z</time></trkpt><trkpt lat="58.058595" lon="38.817207"><ele>104.4</ele><time>2022-08-30T17:12:37Z</time></trkpt><trkpt lat="58.058585" lon="38.817052"><ele>105.0</ele><time>2022-08-30T17:12:42Z</time></trkpt><trkpt lat="58.05858" lon="38.816908"><ele>105.5</ele><time>2022-08-30T17:12:51Z</time></trkpt><trkpt lat="58.058582" lon="38.816688"><ele>105.2</ele><time>2022-08-30T17:13:22Z</time></trkpt><trkpt lat="58.058663" lon="38.816663"><ele>104.9</ele><time>2022-08-30T17:13:24Z</time></trkpt><trkpt lat="58.058732" lon="38.81658"><ele>100.4</ele><time>2022-08-30T17:13:28Z</time></trkpt><trkpt lat="58.058768" lon="38.816452"><ele>100.5</ele><time>2022-08-30T17:13:35Z</time></trkpt><trkpt lat="58.058772" lon="38.816307"><ele>100.0</ele><time>2022-08-30T17:13:41Z</time></trkpt><trkpt lat="58.058768" lon="38.816163"><ele>101.7</ele><time>2022-08-30T17:13:49Z</time></trkpt></trkseg></trk></gpx>