<?xml version="1.0" encoding="UTF-8" standalone="no"?><gpx xmlns="http://www.topografix.com/GPX/1/1" xmlns:gpxtpx="http://www.garmin.com/xmlschemas/TrackPointExtension/v1" xmlns:xsi="http://www.w3.org/2001/XMLSchema-instance" creator="Sports Tracker" version="1.1" xsi:schemaLocation="http://www.topografix.com/GPX/1/1 http://www.topografix.com/GPX/1/1/gpx.xsd http://www.garmin.com/xmlschemas/TrackPointExtension/v1 http://www.garmin.com/xmlschemas/TrackPointExtensionv1.xsd"><metadata><name/><desc/><author><name>Александр</name></author></metadata><trk><name/><trkseg><trkpt lat="58.058588" lon="38.807838"><ele>105.5</ele><time>2023-08-22T15:14:03Z</time></trkpt><trkpt lat="58.058622" lon="38.808228"><ele>105.5</ele><time>2023-08-22T15:14:11Z</time></trkpt><trkpt lat="58.058587" lon="38.808612"><ele>105.6</ele><time>2023-08-22T15:14:18Z</time></trkpt><trkpt lat="58.058573" lon="38.809125"><ele>105.9</ele><time>2023-08-22T15:14:24Z</time></trkpt><trkpt lat="58.058547" lon="38.809398"><ele>105.9</ele><time>2023-08-22T15:14:29Z</time></trkpt><trkpt lat="58.058553" lon="38.80959"><ele>107.3</ele><time>2023-08-22T15:14:32Z</time></trkpt><trkpt lat="58.058547" lon="38.809742"><ele>105.8</ele><time>2023-08-22T15:14:34Z</time></trkpt><trkpt lat="58.058635" lon="38.809818"><ele>106.2</ele><time>2023-08-22T15:14:37Z</time></trkpt><trkpt lat="58.058718" lon="38.809807"><ele>106.5</ele><time>2023-08-22T15:14:39Z</time></trkpt><trkpt lat="58.05881" lon="38.80986"><ele>105.8</ele><time>2023-08-22T15:14:42Z</time></trkpt><trkpt lat="58.05888" lon="38.809923"><ele>104.5</ele><time>2023-08-22T15:14:45Z</time></trkpt><trkpt lat="58.058937" lon="38.810022"><ele>103.8</ele><time>2023-08-22T15:14:48Z</time></trkpt><trkpt lat="58.058925" lon="38.810197"><ele>104.2</ele><time>2023-08-22T15:14:51Z</time></trkpt><trkpt lat="58.05891" lon="38.810347"><ele>104.4</ele><time>2023-08-22T15:14:53Z</time></trkpt><trkpt lat="58.058902" lon="38.8105"><ele>104.7</ele><time>2023-08-22T15:14:55Z</time></trkpt><trkpt lat="58.058893" lon="38.810657"><ele>105.1</ele><time>2023-08-22T15:14:57Z</time></trkpt><trkpt lat="58.05888" lon="38.810792"><ele>105.7</ele><time>2023-08-22T15:14:59Z</time></trkpt><trkpt lat="58.058867" lon="38.810942"><ele>104.8</ele><time>2023-08-22T15:15:02Z</time></trkpt><trkpt lat="58.058842" lon="38.811085"><ele>103.1</ele><time>2023-08-22T15:15:04Z</time></trkpt><trkpt lat="58.05888" lon="38.811265"><ele>102.1</ele><time>2023-08-22T15:15:07Z</time></trkpt><trkpt lat="58.058957" lon="38.81131"><ele>103.0</ele><time>2023-08-22T15:15:08Z</time></trkpt><trkpt lat="58.05908" lon="38.811323"><ele>103.2</ele><time>2023-08-22T15:15:10Z</time></trkpt><trkpt lat="58.059165" lon="38.811292"><ele>103.2</ele><time>2023-08-22T15:15:11Z</time></trkpt><trkpt lat="58.059273" lon="38.811282"><ele>103.2</ele><time>2023-08-22T15:15:13Z</time></trkpt><trkpt lat="58.059367" lon="38.811297"><ele>102.9</ele><time>2023-08-22T15:15:15Z</time></trkpt><trkpt lat="58.059457" lon="38.811307"><ele>102.9</ele><time>2023-08-22T15:15:17Z</time></trkpt><trkpt lat="58.059538" lon="38.811302"><ele>103.2</ele><time>2023-08-22T15:15:19Z</time></trkpt><trkpt lat="58.059622" lon="38.81131"><ele>103.1</ele><time>2023-08-22T15:15:21Z</time></trkpt><trkpt lat="58.0597" lon="38.811353"><ele>103.3</ele><time>2023-08-22T15:15:23Z</time></trkpt><trkpt lat="58.059797" lon="38.811348"><ele>103.6</ele><time>2023-08-22T15:15:25Z</time></trkpt><trkpt lat="58.059877" lon="38.811347"><ele>103.9</ele><time>2023-08-22T15:15:27Z</time></trkpt><trkpt lat="58.059962" lon="38.811363"><ele>103.4</ele><time>2023-08-22T15:15:29Z</time></trkpt><trkpt lat="58.060053" lon="38.811347"><ele>105.2</ele><time>2023-08-22T15:15:31Z</time></trkpt><trkpt lat="58.060103" lon="38.81147"><ele>105.2</ele><time>2023-08-22T15:15:32Z</time></trkpt><trkpt lat="58.060182" lon="38.811508"><ele>102.1</ele><time>2023-08-22T15:15:42Z</time></trkpt><trkpt lat="58.060255" lon="38.811532"><ele>101.1</ele><time>2023-08-22T15:15:46Z</time></trkpt><trkpt lat="58.060337" lon="38.811572"><ele>102.6</ele><time>2023-08-22T15:15:50Z</time></trkpt><trkpt lat="58.060325" lon="38.811733"><ele>102.1</ele><time>2023-08-22T15:15:57Z</time></trkpt><trkpt lat="58.060285" lon="38.811915"><ele>102.2</ele><time>2023-08-22T15:16:00Z</time></trkpt><trkpt lat="58.060252" lon="38.812088"><ele>101.5</ele><time>2023-08-22T15:16:02Z</time></trkpt><trkpt lat="58.060235" lon="38.812277"><ele>101.2</ele><time>2023-08-22T15:16:04Z</time></trkpt><trkpt lat="58.060227" lon="38.812458"><ele>100.7</ele><time>2023-08-22T15:16:06Z</time></trkpt><trkpt lat="58.06022" lon="38.812635"><ele>100.5</ele><time>2023-08-22T15:16:08Z</time></trkpt><trkpt lat="58.060217" lon="38.812798"><ele>100.0</ele><time>2023-08-22T15:16:10Z</time></trkpt><trkpt lat="58.06022" lon="38.812973"><ele>100.6</ele><time>2023-08-22T15:16:13Z</time></trkpt><trkpt lat="58.060227" lon="38.813148"><ele>100.6</ele><time>2023-08-22T15:16:15Z</time></trkpt><trkpt lat="58.060227" lon="38.81332"><ele>101.1</ele><time>2023-08-22T15:16:17Z</time></trkpt><trkpt lat="58.06021" lon="38.81349"><ele>100.4</ele><time>2023-08-22T15:16:20Z</time></trkpt><trkpt lat="58.060188" lon="38.813663"><ele>100.2</ele><time>2023-08-22T15:16:23Z</time></trkpt><trkpt lat="58.060202" lon="38.813802"><ele>100.3</ele><time>2023-08-22T15:16:25Z</time></trkpt><trkpt lat="58.060217" lon="38.813938"><ele>99.7</ele><time>2023-08-22T15:16:27Z</time></trkpt><trkpt lat="58.060213" lon="38.81409"><ele>99.1</ele><time>2023-08-22T15:16:29Z</time></trkpt><trkpt lat="58.060198" lon="38.814258"><ele>99.4</ele><time>2023-08-22T15:16:31Z</time></trkpt><trkpt lat="58.060185" lon="38.814432"><ele>99.1</ele><time>2023-08-22T15:16:33Z</time></trkpt><trkpt lat="58.060175" lon="38.814623"><ele>99.3</ele><time>2023-08-22T15:16:35Z</time></trkpt><trkpt lat="58.060153" lon="38.814787"><ele>99.2</ele><time>2023-08-22T15:16:37Z</time></trkpt><trkpt lat="58.060148" lon="38.814945"><ele>99.6</ele><time>2023-08-22T15:16:39Z</time></trkpt><trkpt lat="58.060128" lon="38.815122"><ele>99.6</ele><time>2023-08-22T15:16:41Z</time></trkpt><trkpt lat="58.060123" lon="38.815298"><ele>98.8</ele><time>2023-08-22T15:16:43Z</time></trkpt><trkpt lat="58.060115" lon="38.815488"><ele>99.7</ele><time>2023-08-22T15:16:45Z</time></trkpt><trkpt lat="58.060097" lon="38.815673"><ele>100.1</ele><time>2023-08-22T15:16:47Z</time></trkpt><trkpt lat="58.060085" lon="38.815868"><ele>100.6</ele><time>2023-08-22T15:16:49Z</time></trkpt><trkpt lat="58.060067" lon="38.81607"><ele>100.6</ele><time>2023-08-22T15:16:51Z</time></trkpt><trkpt lat="58.060048" lon="38.816288"><ele>100.8</ele><time>2023-08-22T15:16:53Z</time></trkpt><trkpt lat="58.060025" lon="38.816485"><ele>100.1</ele><time>2023-08-22T15:16:55Z</time></trkpt><trkpt lat="58.060018" lon="38.81667"><ele>99.5</ele><time>2023-08-22T15:16:57Z</time></trkpt><trkpt lat="58.060063" lon="38.816782"><ele>99.6</ele><time>2023-08-22T15:16:58Z</time></trkpt><trkpt lat="58.06003" lon="38.817"><ele>99.8</ele><time>2023-08-22T15:17:00Z</time></trkpt><trkpt lat="58.060035" lon="38.817255"><ele>99.4</ele><time>2023-08-22T15:17:02Z</time></trkpt><trkpt lat="58.060032" lon="38.8175"><ele>98.9</ele><time>2023-08-22T15:17:04Z</time></trkpt><trkpt lat="58.060015" lon="38.817743"><ele>98.9</ele><time>2023-08-22T15:17:06Z</time></trkpt><trkpt lat="58.059927" lon="38.8179"><ele>99.0</ele><time>2023-08-22T15:17:07Z</time></trkpt><trkpt lat="58.059902" lon="38.81816"><ele>96.5</ele><time>2023-08-22T15:17:09Z</time></trkpt><trkpt lat="58.059888" lon="38.818413"><ele>96.1</ele><time>2023-08-22T15:17:11Z</time></trkpt><trkpt lat="58.05987" lon="38.818558"><ele>96.4</ele><time>2023-08-22T15:17:12Z</time></trkpt><trkpt lat="58.059842" lon="38.818707"><ele>96.4</ele><time>2023-08-22T15:17:13Z</time></trkpt><trkpt lat="58.059832" lon="38.818952"><ele>97.2</ele><time>2023-08-22T15:17:15Z</time></trkpt><trkpt lat="58.05983" lon="38.819228"><ele>97.4</ele><time>2023-08-22T15:17:17Z</time></trkpt><trkpt lat="58.059798" lon="38.819473"><ele>97.4</ele><time>2023-08-22T15:17:19Z</time></trkpt><trkpt lat="58.059775" lon="38.819718"><ele>97.2</ele><time>2023-08-22T15:17:21Z</time></trkpt><trkpt lat="58.059768" lon="38.81996"><ele>97.1</ele><time>2023-08-22T15:17:23Z</time></trkpt><trkpt lat="58.059753" lon="38.820208"><ele>96.5</ele><time>2023-08-22T15:17:25Z</time></trkpt><trkpt lat="58.059735" lon="38.82045"><ele>96.3</ele><time>2023-08-22T15:17:27Z</time></trkpt><trkpt lat="58.05972" lon="38.820662"><ele>96.4</ele><time>2023-08-22T15:17:29Z</time></trkpt><trkpt lat="58.059708" lon="38.820858"><ele>96.4</ele><time>2023-08-22T15:17:31Z</time></trkpt><trkpt lat="58.05968" lon="38.821032"><ele>96.7</ele><time>2023-08-22T15:17:33Z</time></trkpt><trkpt lat="58.05964" lon="38.82121"><ele>96.9</ele><time>2023-08-22T15:17:36Z</time></trkpt><trkpt lat="58.059718" lon="38.821295"><ele>96.1</ele><time>2023-08-22T15:17:49Z</time></trkpt><trkpt lat="58.05972" lon="38.821465"><ele>96.3</ele><time>2023-08-22T15:18:19Z</time></trkpt><trkpt lat="58.059713" lon="38.821633"><ele>97.5</ele><time>2023-08-22T15:18:21Z</time></trkpt><trkpt lat="58.059702" lon="38.82182"><ele>99.2</ele><time>2023-08-22T15:18:23Z</time></trkpt><trkpt lat="58.059682" lon="38.822005"><ele>98.6</ele><time>2023-08-22T15:18:25Z</time></trkpt><trkpt lat="58.059662" lon="38.822212"><ele>98.2</ele><time>2023-08-22T15:18:27Z</time></trkpt><trkpt lat="58.059628" lon="38.822438"><ele>97.1</ele><time>2023-08-22T15:18:29Z</time></trkpt><trkpt lat="58.059623" lon="38.822652"><ele>97.5</ele><time>2023-08-22T15:18:31Z</time></trkpt><trkpt lat="58.059612" lon="38.822868"><ele>97.5</ele><time>2023-08-22T15:18:33Z</time></trkpt><trkpt lat="58.059587" lon="38.823093"><ele>97.5</ele><time>2023-08-22T15:18:35Z</time></trkpt><trkpt lat="58.05953" lon="38.823307"><ele>97.7</ele><time>2023-08-22T15:18:37Z</time></trkpt><trkpt lat="58.059482" lon="38.823518"><ele>98.4</ele><time>2023-08-22T15:18:39Z</time></trkpt><trkpt lat="58.059432" lon="38.823675"><ele>98.6</ele><time>2023-08-22T15:18:41Z</time></trkpt><trkpt lat="58.059343" lon="38.82384"><ele>100.4</ele><time>2023-08-22T15:18:43Z</time></trkpt><trkpt lat="58.059267" lon="38.823993"><ele>99.8</ele><time>2023-08-22T15:18:45Z</time></trkpt><trkpt lat="58.059177" lon="38.824157"><ele>99.9</ele><time>2023-08-22T15:18:47Z</time></trkpt><trkpt lat="58.059122" lon="38.824245"><ele>99.5</ele><time>2023-08-22T15:18:48Z</time></trkpt><trkpt lat="58.05905" lon="38.82444"><ele>97.9</ele><time>2023-08-22T15:18:50Z</time></trkpt><trkpt lat="58.059022" lon="38.824623"><ele>97.4</ele><time>2023-08-22T15:18:52Z</time></trkpt><trkpt lat="58.059043" lon="38.824758"><ele>97.7</ele><time>2023-08-22T15:18:53Z</time></trkpt><trkpt lat="58.059068" lon="38.824918"><ele>97.9</ele><time>2023-08-22T15:18:54Z</time></trkpt><trkpt lat="58.059088" lon="38.82505"><ele>97.8</ele><time>2023-08-22T15:18:55Z</time></trkpt><trkpt lat="58.059123" lon="38.82519"><ele>97.8</ele><time>2023-08-22T15:18:56Z</time></trkpt><trkpt lat="58.059172" lon="38.825377"><ele>97.1</ele><time>2023-08-22T15:18:58Z</time></trkpt><trkpt lat="58.059255" lon="38.825552"><ele>97.8</ele><time>2023-08-22T15:19:00Z</time></trkpt><trkpt lat="58.059335" lon="38.825722"><ele>98.1</ele><time>2023-08-22T15:19:02Z</time></trkpt><trkpt lat="58.059405" lon="38.825862"><ele>98.5</ele><time>2023-08-22T15:19:04Z</time></trkpt><trkpt lat="58.05946" lon="38.826022"><ele>98.5</ele><time>2023-08-22T15:19:06Z</time></trkpt><trkpt lat="58.059493" lon="38.826187"><ele>98.2</ele><time>2023-08-22T15:19:08Z</time></trkpt><trkpt lat="58.059498" lon="38.826323"><ele>98.0</ele><time>2023-08-22T15:19:10Z</time></trkpt><trkpt lat="58.059458" lon="38.82648"><ele>99.7</ele><time>2023-08-22T15:19:12Z</time></trkpt><trkpt lat="58.059358" lon="38.826613"><ele>97.9</ele><time>2023-08-22T15:19:14Z</time></trkpt><trkpt lat="58.05929" lon="38.82673"><ele>98.3</ele><time>2023-08-22T15:19:16Z</time></trkpt><trkpt lat="58.059233" lon="38.826898"><ele>98.2</ele><time>2023-08-22T15:19:18Z</time></trkpt><trkpt lat="58.059172" lon="38.827087"><ele>99.1</ele><time>2023-08-22T15:19:20Z</time></trkpt><trkpt lat="58.059105" lon="38.827257"><ele>99.8</ele><time>2023-08-22T15:19:22Z</time></trkpt><trkpt lat="58.05905" lon="38.82744"><ele>100.3</ele><time>2023-08-22T15:19:24Z</time></trkpt><trkpt lat="58.05899" lon="38.827617"><ele>100.5</ele><time>2023-08-22T15:19:26Z</time></trkpt><trkpt lat="58.058927" lon="38.827808"><ele>101.1</ele><time>2023-08-22T15:19:28Z</time></trkpt><trkpt lat="58.058868" lon="38.828002"><ele>101.0</ele><time>2023-08-22T15:19:30Z</time></trkpt><trkpt lat="58.058798" lon="38.828177"><ele>100.0</ele><time>2023-08-22T15:19:32Z</time></trkpt><trkpt lat="58.058747" lon="38.828355"><ele>99.7</ele><time>2023-08-22T15:19:34Z</time></trkpt><trkpt lat="58.058698" lon="38.828537"><ele>99.2</ele><time>2023-08-22T15:19:36Z</time></trkpt><trkpt lat="58.058645" lon="38.82872"><ele>98.4</ele><time>2023-08-22T15:19:38Z</time></trkpt><trkpt lat="58.058567" lon="38.828927"><ele>98.4</ele><time>2023-08-22T15:19:40Z</time></trkpt><trkpt lat="58.058527" lon="38.82904"><ele>97.3</ele><time>2023-08-22T15:19:41Z</time></trkpt><trkpt lat="58.058478" lon="38.829142"><ele>97.0</ele><time>2023-08-22T15:19:42Z</time></trkpt><trkpt lat="58.058358" lon="38.82928"><ele>96.6</ele><time>2023-08-22T15:19:44Z</time></trkpt><trkpt lat="58.058255" lon="38.829453"><ele>96.5</ele><time>2023-08-22T15:19:46Z</time></trkpt><trkpt lat="58.058157" lon="38.829628"><ele>96.4</ele><time>2023-08-22T15:19:48Z</time></trkpt><trkpt lat="58.058067" lon="38.829798"><ele>95.9</ele><time>2023-08-22T15:19:50Z</time></trkpt><trkpt lat="58.057967" lon="38.829963"><ele>95.5</ele><time>2023-08-22T15:19:52Z</time></trkpt><trkpt lat="58.057873" lon="38.83013"><ele>94.8</ele><time>2023-08-22T15:19:54Z</time></trkpt><trkpt lat="58.057763" lon="38.83028"><ele>95.1</ele><time>2023-08-22T15:19:56Z</time></trkpt><trkpt lat="58.057665" lon="38.830417"><ele>95.9</ele><time>2023-08-22T15:19:58Z</time></trkpt><trkpt lat="58.057562" lon="38.83054"><ele>95.2</ele><time>2023-08-22T15:20:00Z</time></trkpt><trkpt lat="58.057488" lon="38.830682"><ele>94.7</ele><time>2023-08-22T15:20:02Z</time></trkpt><trkpt lat="58.057428" lon="38.83084"><ele>94.4</ele><time>2023-08-22T15:20:04Z</time></trkpt><trkpt lat="58.057352" lon="38.830895"><ele>94.0</ele><time>2023-08-22T15:20:06Z</time></trkpt><trkpt lat="58.057272" lon="38.830993"><ele>93.5</ele><time>2023-08-22T15:20:08Z</time></trkpt><trkpt lat="58.057175" lon="38.831077"><ele>92.9</ele><time>2023-08-22T15:20:10Z</time></trkpt><trkpt lat="58.0571" lon="38.831163"><ele>92.4</ele><time>2023-08-22T15:20:12Z</time></trkpt><trkpt lat="58.057012" lon="38.831177"><ele>91.4</ele><time>2023-08-22T15:20:14Z</time></trkpt><trkpt lat="58.056947" lon="38.83127"><ele>89.6</ele><time>2023-08-22T15:20:27Z</time></trkpt><trkpt lat="58.056915" lon="38.831435"><ele>91.1</ele><time>2023-08-22T15:20:31Z</time></trkpt><trkpt lat="58.056887" lon="38.83159"><ele>91.8</ele><time>2023-08-22T15:20:33Z</time></trkpt><trkpt lat="58.056828" lon="38.831758"><ele>93.2</ele><time>2023-08-22T15:20:35Z</time></trkpt><trkpt lat="58.056795" lon="38.831908"><ele>93.6</ele><time>2023-08-22T15:20:36Z</time></trkpt><trkpt lat="58.056725" lon="38.83205"><ele>94.3</ele><time>2023-08-22T15:20:37Z</time></trkpt><trkpt lat="58.056678" lon="38.832167"><ele>93.6</ele><time>2023-08-22T15:20:38Z</time></trkpt><trkpt lat="58.05664" lon="38.832287"><ele>94.2</ele><time>2023-08-22T15:20:39Z</time></trkpt><trkpt lat="58.05655" lon="38.83251"><ele>95.7</ele><time>2023-08-22T15:20:41Z</time></trkpt><trkpt lat="58.056477" lon="38.832717"><ele>94.4</ele><time>2023-08-22T15:20:43Z</time></trkpt><trkpt lat="58.056433" lon="38.832923"><ele>93.4</ele><time>2023-08-22T15:20:45Z</time></trkpt><trkpt lat="58.056382" lon="38.833135"><ele>93.7</ele><time>2023-08-22T15:20:47Z</time></trkpt><trkpt lat="58.05632" lon="38.833248"><ele>93.8</ele><time>2023-08-22T15:20:48Z</time></trkpt><trkpt lat="58.056247" lon="38.833467"><ele>92.6</ele><time>2023-08-22T15:20:50Z</time></trkpt><trkpt lat="58.05618" lon="38.83368"><ele>92.5</ele><time>2023-08-22T15:20:52Z</time></trkpt><trkpt lat="58.056115" lon="38.833908"><ele>93.3</ele><time>2023-08-22T15:20:54Z</time></trkpt><trkpt lat="58.056052" lon="38.834102"><ele>92.9</ele><time>2023-08-22T15:20:56Z</time></trkpt><trkpt lat="58.05599" lon="38.83429"><ele>93.4</ele><time>2023-08-22T15:20:58Z</time></trkpt><trkpt lat="58.05595" lon="38.834492"><ele>93.8</ele><time>2023-08-22T15:21:00Z</time></trkpt><trkpt lat="58.055905" lon="38.83468"><ele>93.7</ele><time>2023-08-22T15:21:02Z</time></trkpt><trkpt lat="58.055858" lon="38.834857"><ele>94.4</ele><time>2023-08-22T15:21:04Z</time></trkpt><trkpt lat="58.055797" lon="38.835045"><ele>94.0</ele><time>2023-08-22T15:21:06Z</time></trkpt><trkpt lat="58.055738" lon="38.835225"><ele>93.8</ele><time>2023-08-22T15:21:08Z</time></trkpt><trkpt lat="58.055693" lon="38.835422"><ele>94.2</ele><time>2023-08-22T15:21:10Z</time></trkpt><trkpt lat="58.055643" lon="38.835633"><ele>94.1</ele><time>2023-08-22T15:21:12Z</time></trkpt><trkpt lat="58.05557" lon="38.83582"><ele>93.7</ele><time>2023-08-22T15:21:14Z</time></trkpt><trkpt lat="58.055513" lon="38.836005"><ele>93.6</ele><time>2023-08-22T15:21:16Z</time></trkpt><trkpt lat="58.055457" lon="38.836195"><ele>93.8</ele><time>2023-08-22T15:21:18Z</time></trkpt><trkpt lat="58.055402" lon="38.836412"><ele>93.5</ele><time>2023-08-22T15:21:20Z</time></trkpt><trkpt lat="58.05535" lon="38.836615"><ele>92.5</ele><time>2023-08-22T15:21:22Z</time></trkpt><trkpt lat="58.05531" lon="38.836767"><ele>92.1</ele><time>2023-08-22T15:21:24Z</time></trkpt><trkpt lat="58.055252" lon="38.836935"><ele>91.6</ele><time>2023-08-22T15:21:26Z</time></trkpt><trkpt lat="58.055202" lon="38.837098"><ele>91.4</ele><time>2023-08-22T15:21:28Z</time></trkpt><trkpt lat="58.055145" lon="38.837275"><ele>91.5</ele><time>2023-08-22T15:21:30Z</time></trkpt><trkpt lat="58.055085" lon="38.83744"><ele>92.3</ele><time>2023-08-22T15:21:32Z</time></trkpt><trkpt lat="58.055028" lon="38.837612"><ele>92.5</ele><time>2023-08-22T15:21:34Z</time></trkpt><trkpt lat="58.054982" lon="38.8378"><ele>92.3</ele><time>2023-08-22T15:21:36Z</time></trkpt><trkpt lat="58.05493" lon="38.838005"><ele>92.1</ele><time>2023-08-22T15:21:38Z</time></trkpt><trkpt lat="58.05488" lon="38.838197"><ele>92.1</ele><time>2023-08-22T15:21:40Z</time></trkpt><trkpt lat="58.054815" lon="38.838385"><ele>92.5</ele><time>2023-08-22T15:21:42Z</time></trkpt><trkpt lat="58.054747" lon="38.838565"><ele>92.2</ele><time>2023-08-22T15:21:44Z</time></trkpt><trkpt lat="58.05468" lon="38.83873"><ele>92.6</ele><time>2023-08-22T15:21:46Z</time></trkpt><trkpt lat="58.05463" lon="38.838923"><ele>93.5</ele><time>2023-08-22T15:21:48Z</time></trkpt><trkpt lat="58.054568" lon="38.839088"><ele>93.0</ele><time>2023-08-22T15:21:50Z</time></trkpt><trkpt lat="58.054498" lon="38.83923"><ele>93.1</ele><time>2023-08-22T15:21:52Z</time></trkpt><trkpt lat="58.054428" lon="38.83941"><ele>92.8</ele><time>2023-08-22T15:21:54Z</time></trkpt><trkpt lat="58.05436" lon="38.839618"><ele>93.9</ele><time>2023-08-22T15:21:56Z</time></trkpt><trkpt lat="58.054278" lon="38.839792"><ele>94.6</ele><time>2023-08-22T15:21:58Z</time></trkpt><trkpt lat="58.05419" lon="38.839848"><ele>95.1</ele><time>2023-08-22T15:22:00Z</time></trkpt><trkpt lat="58.05411" lon="38.839802"><ele>95.3</ele><time>2023-08-22T15:22:01Z</time></trkpt><trkpt lat="58.054005" lon="38.839737"><ele>94.1</ele><time>2023-08-22T15:22:03Z</time></trkpt><trkpt lat="58.053883" lon="38.839745"><ele>94.4</ele><time>2023-08-22T15:22:05Z</time></trkpt><trkpt lat="58.053778" lon="38.83983"><ele>94.3</ele><time>2023-08-22T15:22:07Z</time></trkpt><trkpt lat="58.05367" lon="38.839805"><ele>94.9</ele><time>2023-08-22T15:22:09Z</time></trkpt><trkpt lat="58.053567" lon="38.839817"><ele>95.0</ele><time>2023-08-22T15:22:11Z</time></trkpt><trkpt lat="58.053487" lon="38.839725"><ele>96.4</ele><time>2023-08-22T15:22:13Z</time></trkpt><trkpt lat="58.053392" lon="38.83964"><ele>97.2</ele><time>2023-08-22T15:22:16Z</time></trkpt><trkpt lat="58.053312" lon="38.839568"><ele>97.0</ele><time>2023-08-22T15:22:18Z</time></trkpt><trkpt lat="58.053243" lon="38.839523"><ele>96.8</ele><time>2023-08-22T15:22:20Z</time></trkpt><trkpt lat="58.053185" lon="38.839443"><ele>96.3</ele><time>2023-08-22T15:22:22Z</time></trkpt><trkpt lat="58.053103" lon="38.839373"><ele>95.8</ele><time>2023-08-22T15:22:24Z</time></trkpt><trkpt lat="58.053033" lon="38.839302"><ele>95.6</ele><time>2023-08-22T15:22:26Z</time></trkpt><trkpt lat="58.052925" lon="38.839252"><ele>96.0</ele><time>2023-08-22T15:22:28Z</time></trkpt><trkpt lat="58.05283" lon="38.839175"><ele>96.1</ele><time>2023-08-22T15:22:30Z</time></trkpt><trkpt lat="58.052755" lon="38.839087"><ele>96.4</ele><time>2023-08-22T15:22:32Z</time></trkpt><trkpt lat="58.052678" lon="38.839083"><ele>96.9</ele><time>2023-08-22T15:22:34Z</time></trkpt><trkpt lat="58.05263" lon="38.838953"><ele>97.2</ele><time>2023-08-22T15:22:43Z</time></trkpt><trkpt lat="58.052548" lon="38.838913"><ele>97.6</ele><time>2023-08-22T15:22:47Z</time></trkpt><trkpt lat="58.052505" lon="38.838805"><ele>98.7</ele><time>2023-08-22T15:22:52Z</time></trkpt><trkpt lat="58.052535" lon="38.838648"><ele>99.6</ele><time>2023-08-22T15:22:58Z</time></trkpt><trkpt lat="58.052533" lon="38.838503"><ele>100.1</ele><time>2023-08-22T15:23:03Z</time></trkpt><trkpt lat="58.052452" lon="38.838462"><ele>100.2</ele><time>2023-08-22T15:23:06Z</time></trkpt><trkpt lat="58.052372" lon="38.838433"><ele>100.1</ele><time>2023-08-22T15:23:08Z</time></trkpt><trkpt lat="58.052295" lon="38.838402"><ele>99.9</ele><time>2023-08-22T15:23:10Z</time></trkpt><trkpt lat="58.052205" lon="38.838353"><ele>100.0</ele><time>2023-08-22T15:23:13Z</time></trkpt><trkpt lat="58.052135" lon="38.838262"><ele>100.2</ele><time>2023-08-22T15:23:22Z</time></trkpt><trkpt lat="58.052057" lon="38.838178"><ele>100.2</ele><time>2023-08-22T15:23:26Z</time></trkpt><trkpt lat="58.05198" lon="38.838117"><ele>100.3</ele><time>2023-08-22T15:23:31Z</time></trkpt><trkpt lat="58.05189" lon="38.838085"><ele>100.8</ele><time>2023-08-22T15:23:37Z</time></trkpt><trkpt lat="58.0518" lon="38.838097"><ele>100.8</ele><time>2023-08-22T15:23:42Z</time></trkpt><trkpt lat="58.051755" lon="38.83826"><ele>100.7</ele><time>2023-08-22T15:23:45Z</time></trkpt><trkpt lat="58.051737" lon="38.838435"><ele>100.5</ele><time>2023-08-22T15:23:48Z</time></trkpt><trkpt lat="58.051697" lon="38.838607"><ele>100.2</ele><time>2023-08-22T15:23:51Z</time></trkpt><trkpt lat="58.051665" lon="38.838767"><ele>100.3</ele><time>2023-08-22T15:23:54Z</time></trkpt><trkpt lat="58.051643" lon="38.838897"><ele>100.2</ele><time>2023-08-22T15:23:57Z</time></trkpt><trkpt lat="58.051712" lon="38.838955"><ele>100.8</ele><time>2023-08-22T15:24:23Z</time></trkpt><trkpt lat="58.051737" lon="38.83909"><ele>101.2</ele><time>2023-08-22T15:25:04Z</time></trkpt><trkpt lat="58.051678" lon="38.839013"><ele>101.0</ele><time>2023-08-22T15:25:36Z</time></trkpt><trkpt lat="58.051672" lon="38.839155"><ele>100.3</ele><time>2023-08-22T15:25:59Z</time></trkpt><trkpt lat="58.051597" lon="38.839238"><ele>100.4</ele><time>2023-08-22T15:26:03Z</time></trkpt><trkpt lat="58.051675" lon="38.83912"><ele>100.5</ele><time>2023-08-22T15:26:16Z</time></trkpt><trkpt lat="58.05161" lon="38.839182"><ele>100.6</ele><time>2023-08-22T15:26:27Z</time></trkpt><trkpt lat="58.051685" lon="38.839205"><ele>100.6</ele><time>2023-08-22T15:26:49Z</time></trkpt><trkpt lat="58.051755" lon="38.83917"><ele>100.3</ele><time>2023-08-22T15:27:02Z</time></trkpt><trkpt lat="58.0517" lon="38.839085"><ele>100.0</ele><time>2023-08-22T15:27:33Z</time></trkpt><trkpt lat="58.051965" lon="38.839407"><ele>100.4</ele><time>2023-08-22T15:27:43Z</time></trkpt><trkpt lat="58.051993" lon="38.839275"><ele>99.4</ele><time>2023-08-22T15:27:47Z</time></trkpt><trkpt lat="58.051987" lon="38.839117"><ele>99.4</ele><time>2023-08-22T15:27:52Z</time></trkpt><trkpt lat="58.05202" lon="38.838993"><ele>99.6</ele><time>2023-08-22T15:27:54Z</time></trkpt><trkpt lat="58.052065" lon="38.838872"><ele>99.9</ele><time>2023-08-22T15:27:56Z</time></trkpt><trkpt lat="58.052125" lon="38.838795"><ele>99.9</ele><time>2023-08-22T15:28:00Z</time></trkpt><trkpt lat="58.052057" lon="38.838745"><ele>99.8</ele><time>2023-08-22T15:28:03Z</time></trkpt><trkpt lat="58.051967" lon="38.83872"><ele>100.2</ele><time>2023-08-22T15:28:06Z</time></trkpt><trkpt lat="58.051707" lon="38.839265"><ele>100.3</ele><time>2023-08-22T15:28:07Z</time></trkpt><trkpt lat="58.051918" lon="38.83919"><ele>100.4</ele><time>2023-08-22T15:28:21Z</time></trkpt><trkpt lat="58.051985" lon="38.838692"><ele>100.4</ele><time>2023-08-22T15:28:22Z</time></trkpt><trkpt lat="58.052047" lon="38.838532"><ele>100.3</ele><time>2023-08-22T15:28:24Z</time></trkpt><trkpt lat="58.051803" lon="38.838748"><ele>100.2</ele><time>2023-08-22T15:28:26Z</time></trkpt><trkpt lat="58.051577" lon="38.838692"><ele>100.8</ele><time>2023-08-22T15:28:47Z</time></trkpt><trkpt lat="58.05152" lon="38.83879"><ele>99.9</ele><time>2023-08-22T15:29:00Z</time></trkpt><trkpt lat="58.051578" lon="38.838905"><ele>99.7</ele><time>2023-08-22T15:29:06Z</time></trkpt><trkpt lat="58.051652" lon="38.838892"><ele>100.3</ele><time>2023-08-22T15:29:10Z</time></trkpt><trkpt lat="58.051727" lon="38.838905"><ele>100.4</ele><time>2023-08-22T15:29:22Z</time></trkpt><trkpt lat="58.05174" lon="38.83904"><ele>99.1</ele><time>2023-08-22T15:30:03Z</time></trkpt><trkpt lat="58.051758" lon="38.839172"><ele>100.5</ele><time>2023-08-22T15:30:29Z</time></trkpt><trkpt lat="58.051757" lon="38.839023"><ele>102.2</ele><time>2023-08-22T15:35:32Z</time></trkpt><trkpt lat="58.051688" lon="38.838952"><ele>104.1</ele><time>2023-08-22T15:35:48Z</time></trkpt><trkpt lat="58.051682" lon="38.838787"><ele>104.0</ele><time>2023-08-22T15:36:58Z</time></trkpt><trkpt lat="58.051702" lon="38.838652"><ele>104.1</ele><time>2023-08-22T15:37:01Z</time></trkpt><trkpt lat="58.051723" lon="38.838507"><ele>105.0</ele><time>2023-08-22T15:37:05Z</time></trkpt><trkpt lat="58.051737" lon="38.838368"><ele>103.7</ele><time>2023-08-22T15:37:10Z</time></trkpt><trkpt lat="58.051748" lon="38.838222"><ele>104.1</ele><time>2023-08-22T15:37:16Z</time></trkpt><trkpt lat="58.051765" lon="38.838088"><ele>104.4</ele><time>2023-08-22T15:38:17Z</time></trkpt><trkpt lat="58.051838" lon="38.838077"><ele>103.1</ele><time>2023-08-22T15:38:22Z</time></trkpt><trkpt lat="58.051908" lon="38.838152"><ele>103.1</ele><time>2023-08-22T15:38:27Z</time></trkpt><trkpt lat="58.05183" lon="38.838095"><ele>102.6</ele><time>2023-08-22T15:43:33Z</time></trkpt><trkpt lat="58.051732" lon="38.838082"><ele>101.9</ele><time>2023-08-22T15:43:36Z</time></trkpt><trkpt lat="58.051657" lon="38.838052"><ele>101.5</ele><time>2023-08-22T15:43:38Z</time></trkpt><trkpt lat="58.051585" lon="38.837938"><ele>101.6</ele><time>2023-08-22T15:43:41Z</time></trkpt><trkpt lat="58.051513" lon="38.837858"><ele>101.8</ele><time>2023-08-22T15:43:43Z</time></trkpt><trkpt lat="58.051433" lon="38.837803"><ele>101.2</ele><time>2023-08-22T15:43:45Z</time></trkpt><trkpt lat="58.051332" lon="38.837763"><ele>100.1</ele><time>2023-08-22T15:43:48Z</time></trkpt><trkpt lat="58.05124" lon="38.8377"><ele>100.9</ele><time>2023-08-22T15:43:51Z</time></trkpt><trkpt lat="58.051168" lon="38.837667"><ele>100.3</ele><time>2023-08-22T15:43:53Z</time></trkpt><trkpt lat="58.05107" lon="38.837608"><ele>100.5</ele><time>2023-08-22T15:43:56Z</time></trkpt><trkpt lat="58.051002" lon="38.83756"><ele>100.1</ele><time>2023-08-22T15:43:58Z</time></trkpt><trkpt lat="58.050933" lon="38.837512"><ele>100.2</ele><time>2023-08-22T15:44:00Z</time></trkpt><trkpt lat="58.050838" lon="38.837445"><ele>99.7</ele><time>2023-08-22T15:44:03Z</time></trkpt><trkpt lat="58.050752" lon="38.837398"><ele>100.1</ele><time>2023-08-22T15:44:06Z</time></trkpt><trkpt lat="58.05068" lon="38.837365"><ele>99.6</ele><time>2023-08-22T15:44:09Z</time></trkpt><trkpt lat="58.050607" lon="38.837333"><ele>100.0</ele><time>2023-08-22T15:44:46Z</time></trkpt><trkpt lat="58.050527" lon="38.837253"><ele>99.8</ele><time>2023-08-22T15:44:49Z</time></trkpt><trkpt lat="58.05043" lon="38.837193"><ele>99.4</ele><time>2023-08-22T15:44:52Z</time></trkpt><trkpt lat="58.050343" lon="38.837185"><ele>100.1</ele><time>2023-08-22T15:44:55Z</time></trkpt><trkpt lat="58.050273" lon="38.83716"><ele>100.1</ele><time>2023-08-22T15:44:57Z</time></trkpt><trkpt lat="58.050195" lon="38.837142"><ele>99.8</ele><time>2023-08-22T15:44:59Z</time></trkpt><trkpt lat="58.050123" lon="38.837102"><ele>99.9</ele><time>2023-08-22T15:45:01Z</time></trkpt><trkpt lat="58.050058" lon="38.837035"><ele>100.8</ele><time>2023-08-22T15:45:03Z</time></trkpt><trkpt lat="58.04999" lon="38.836972"><ele>100.6</ele><time>2023-08-22T15:45:05Z</time></trkpt><trkpt lat="58.049922" lon="38.83692"><ele>100.9</ele><time>2023-08-22T15:45:07Z</time></trkpt><trkpt lat="58.049835" lon="38.836905"><ele>100.9</ele><time>2023-08-22T15:45:10Z</time></trkpt><trkpt lat="58.049742" lon="38.836867"><ele>101.4</ele><time>2023-08-22T15:45:15Z</time></trkpt><trkpt lat="58.049653" lon="38.836825"><ele>102.0</ele><time>2023-08-22T15:45:18Z</time></trkpt><trkpt lat="58.049565" lon="38.836753"><ele>101.8</ele><time>2023-08-22T15:45:21Z</time></trkpt><trkpt lat="58.049472" lon="38.83665"><ele>101.5</ele><time>2023-08-22T15:45:24Z</time></trkpt><trkpt lat="58.049403" lon="38.836575"><ele>101.6</ele><time>2023-08-22T15:45:26Z</time></trkpt><trkpt lat="58.049305" lon="38.836525"><ele>101.0</ele><time>2023-08-22T15:45:29Z</time></trkpt><trkpt lat="58.049232" lon="38.836473"><ele>101.8</ele><time>2023-08-22T15:45:33Z</time></trkpt><trkpt lat="58.04916" lon="38.83644"><ele>101.4</ele><time>2023-08-22T15:45:37Z</time></trkpt><trkpt lat="58.049098" lon="38.836372"><ele>100.5</ele><time>2023-08-22T15:45:40Z</time></trkpt><trkpt lat="58.049" lon="38.836283"><ele>100.3</ele><time>2023-08-22T15:45:43Z</time></trkpt><trkpt lat="58.04892" lon="38.836232"><ele>100.8</ele><time>2023-08-22T15:45:45Z</time></trkpt><trkpt lat="58.048823" lon="38.836223"><ele>100.5</ele><time>2023-08-22T15:45:48Z</time></trkpt><trkpt lat="58.048778" lon="38.836383"><ele>100.7</ele><time>2023-08-22T15:45:51Z</time></trkpt><trkpt lat="58.048752" lon="38.836553"><ele>100.4</ele><time>2023-08-22T15:45:54Z</time></trkpt><trkpt lat="58.048717" lon="38.836695"><ele>100.2</ele><time>2023-08-22T15:45:57Z</time></trkpt><trkpt lat="58.048693" lon="38.836853"><ele>100.8</ele><time>2023-08-22T15:46:01Z</time></trkpt><trkpt lat="58.048672" lon="38.837018"><ele>100.9</ele><time>2023-08-22T15:46:04Z</time></trkpt><trkpt lat="58.048645" lon="38.837155"><ele>101.1</ele><time>2023-08-22T15:46:07Z</time></trkpt><trkpt lat="58.048613" lon="38.837297"><ele>101.5</ele><time>2023-08-22T15:46:10Z</time></trkpt><trkpt lat="58.048588" lon="38.837428"><ele>101.2</ele><time>2023-08-22T15:46:13Z</time></trkpt><trkpt lat="58.048568" lon="38.837567"><ele>101.9</ele><time>2023-08-22T15:46:17Z</time></trkpt><trkpt lat="58.048543" lon="38.837723"><ele>101.8</ele><time>2023-08-22T15:46:20Z</time></trkpt><trkpt lat="58.048515" lon="38.837868"><ele>101.6</ele><time>2023-08-22T15:46:23Z</time></trkpt><trkpt lat="58.048492" lon="38.838013"><ele>101.9</ele><time>2023-08-22T15:46:27Z</time></trkpt><trkpt lat="58.04842" lon="38.838078"><ele>103.5</ele><time>2023-08-22T15:47:18Z</time></trkpt><trkpt lat="58.048343" lon="38.83802"><ele>103.5</ele><time>2023-08-22T15:47:22Z</time></trkpt><trkpt lat="58.048285" lon="38.837925"><ele>103.3</ele><time>2023-08-22T15:47:28Z</time></trkpt><trkpt lat="58.048223" lon="38.838023"><ele>102.6</ele><time>2023-08-22T15:47:34Z</time></trkpt><trkpt lat="58.048492" lon="38.838058"><ele>102.6</ele><time>2023-08-22T15:47:36Z</time></trkpt><trkpt lat="58.048407" lon="38.83797"><ele>102.9</ele><time>2023-08-22T15:47:41Z</time></trkpt><trkpt lat="58.048308" lon="38.837965"><ele>102.9</ele><time>2023-08-22T15:47:43Z</time></trkpt><trkpt lat="58.048257" lon="38.838403"><ele>102.2</ele><time>2023-08-22T15:47:50Z</time></trkpt><trkpt lat="58.048242" lon="38.838555"><ele>102.3</ele><time>2023-08-22T15:47:52Z</time></trkpt><trkpt lat="58.048155" lon="38.83858"><ele>102.5</ele><time>2023-08-22T15:47:57Z</time></trkpt><trkpt lat="58.04818" lon="38.838408"><ele>102.2</ele><time>2023-08-22T15:48:00Z</time></trkpt><trkpt lat="58.04825" lon="38.838247"><ele>102.1</ele><time>2023-08-22T15:48:06Z</time></trkpt><trkpt lat="58.048318" lon="38.83813"><ele>102.5</ele><time>2023-08-22T15:48:10Z</time></trkpt><trkpt lat="58.048497" lon="38.838377"><ele>102.2</ele><time>2023-08-22T15:49:40Z</time></trkpt><trkpt lat="58.048455" lon="38.838223"><ele>102.5</ele><time>2023-08-22T15:49:41Z</time></trkpt><trkpt lat="58.048448" lon="38.838087"><ele>104.6</ele><time>2023-08-22T15:49:45Z</time></trkpt><trkpt lat="58.048518" lon="38.83803"><ele>106.5</ele><time>2023-08-22T15:51:11Z</time></trkpt><trkpt lat="58.048537" lon="38.837887"><ele>103.7</ele><time>2023-08-22T15:51:23Z</time></trkpt><trkpt lat="58.048555" lon="38.83773"><ele>103.3</ele><time>2023-08-22T15:51:26Z</time></trkpt><trkpt lat="58.048567" lon="38.83757"><ele>103.5</ele><time>2023-08-22T15:51:29Z</time></trkpt><trkpt lat="58.04859" lon="38.837408"><ele>103.4</ele><time>2023-08-22T15:51:32Z</time></trkpt><trkpt lat="58.048642" lon="38.837277"><ele>103.1</ele><time>2023-08-22T15:51:35Z</time></trkpt><trkpt lat="58.048675" lon="38.837117"><ele>102.6</ele><time>2023-08-22T15:51:38Z</time></trkpt><trkpt lat="58.048707" lon="38.836958"><ele>102.8</ele><time>2023-08-22T15:51:41Z</time></trkpt><trkpt lat="58.048747" lon="38.836793"><ele>102.6</ele><time>2023-08-22T15:51:44Z</time></trkpt><trkpt lat="58.048768" lon="38.836643"><ele>103.7</ele><time>2023-08-22T15:51:47Z</time></trkpt><trkpt lat="58.04878" lon="38.836508"><ele>103.6</ele><time>2023-08-22T15:51:50Z</time></trkpt><trkpt lat="58.0488" lon="38.836348"><ele>103.4</ele><time>2023-08-22T15:51:54Z</time></trkpt><trkpt lat="58.048853" lon="38.836237"><ele>104.0</ele><time>2023-08-22T15:51:58Z</time></trkpt><trkpt lat="58.048935" lon="38.836177"><ele>103.6</ele><time>2023-08-22T15:52:04Z</time></trkpt><trkpt lat="58.049027" lon="38.836202"><ele>103.0</ele><time>2023-08-22T15:52:07Z</time></trkpt><trkpt lat="58.049113" lon="38.83629"><ele>103.7</ele><time>2023-08-22T15:52:10Z</time></trkpt><trkpt lat="58.049185" lon="38.83634"><ele>102.9</ele><time>2023-08-22T15:52:13Z</time></trkpt><trkpt lat="58.049255" lon="38.836393"><ele>103.0</ele><time>2023-08-22T15:54:12Z</time></trkpt><trkpt lat="58.049335" lon="38.836463"><ele>103.2</ele><time>2023-08-22T15:54:16Z</time></trkpt><trkpt lat="58.04942" lon="38.836532"><ele>103.5</ele><time>2023-08-22T15:54:19Z</time></trkpt><trkpt lat="58.049495" lon="38.83662"><ele>103.1</ele><time>2023-08-22T15:54:22Z</time></trkpt><trkpt lat="58.049563" lon="38.8367"><ele>104.2</ele><time>2023-08-22T15:54:25Z</time></trkpt><trkpt lat="58.049648" lon="38.836772"><ele>103.8</ele><time>2023-08-22T15:54:28Z</time></trkpt><trkpt lat="58.049737" lon="38.836838"><ele>104.2</ele><time>2023-08-22T15:54:31Z</time></trkpt><trkpt lat="58.049832" lon="38.836907"><ele>103.8</ele><time>2023-08-22T15:54:34Z</time></trkpt><trkpt lat="58.049923" lon="38.83699"><ele>103.7</ele><time>2023-08-22T15:54:37Z</time></trkpt><trkpt lat="58.049985" lon="38.837062"><ele>103.1</ele><time>2023-08-22T15:54:39Z</time></trkpt><trkpt lat="58.050055" lon="38.837118"><ele>103.0</ele><time>2023-08-22T15:54:41Z</time></trkpt><trkpt lat="58.050138" lon="38.837122"><ele>102.6</ele><time>2023-08-22T15:54:43Z</time></trkpt><trkpt lat="58.050228" lon="38.837103"><ele>102.4</ele><time>2023-08-22T15:54:45Z</time></trkpt><trkpt lat="58.050305" lon="38.83712"><ele>102.3</ele><time>2023-08-22T15:54:47Z</time></trkpt><trkpt lat="58.050403" lon="38.83719"><ele>102.1</ele><time>2023-08-22T15:54:50Z</time></trkpt><trkpt lat="58.050475" lon="38.837248"><ele>102.7</ele><time>2023-08-22T15:54:52Z</time></trkpt><trkpt lat="58.050565" lon="38.837345"><ele>102.9</ele><time>2023-08-22T15:54:55Z</time></trkpt><trkpt lat="58.050643" lon="38.837412"><ele>101.8</ele><time>2023-08-22T15:54:59Z</time></trkpt><trkpt lat="58.050755" lon="38.837468"><ele>101.9</ele><time>2023-08-22T15:55:02Z</time></trkpt><trkpt lat="58.050842" lon="38.837507"><ele>102.0</ele><time>2023-08-22T15:55:04Z</time></trkpt><trkpt lat="58.050918" lon="38.837555"><ele>102.1</ele><time>2023-08-22T15:55:06Z</time></trkpt><trkpt lat="58.050988" lon="38.837597"><ele>101.8</ele><time>2023-08-22T15:55:08Z</time></trkpt><trkpt lat="58.051065" lon="38.837642"><ele>101.6</ele><time>2023-08-22T15:55:11Z</time></trkpt><trkpt lat="58.051137" lon="38.837693"><ele>101.5</ele><time>2023-08-22T15:55:14Z</time></trkpt><trkpt lat="58.051205" lon="38.837747"><ele>101.1</ele><time>2023-08-22T15:55:17Z</time></trkpt><trkpt lat="58.051273" lon="38.837805"><ele>101.1</ele><time>2023-08-22T15:55:20Z</time></trkpt><trkpt lat="58.051352" lon="38.837852"><ele>101.4</ele><time>2023-08-22T15:55:23Z</time></trkpt><trkpt lat="58.051435" lon="38.837923"><ele>100.8</ele><time>2023-08-22T15:55:27Z</time></trkpt><trkpt lat="58.051507" lon="38.838002"><ele>100.8</ele><time>2023-08-22T15:55:30Z</time></trkpt><trkpt lat="58.051598" lon="38.838052"><ele>100.5</ele><time>2023-08-22T15:55:34Z</time></trkpt><trkpt lat="58.051673" lon="38.838072"><ele>100.4</ele><time>2023-08-22T15:55:36Z</time></trkpt><trkpt lat="58.051745" lon="38.83811"><ele>100.8</ele><time>2023-08-22T15:55:38Z</time></trkpt><trkpt lat="58.051825" lon="38.838108"><ele>100.9</ele><time>2023-08-22T15:55:40Z</time></trkpt><trkpt lat="58.05191" lon="38.83811"><ele>100.6</ele><time>2023-08-22T15:55:42Z</time></trkpt><trkpt lat="58.052015" lon="38.838192"><ele>100.4</ele><time>2023-08-22T15:55:44Z</time></trkpt><trkpt lat="58.052143" lon="38.83823"><ele>100.2</ele><time>2023-08-22T15:55:46Z</time></trkpt><trkpt lat="58.052285" lon="38.838245"><ele>100.4</ele><time>2023-08-22T15:55:48Z</time></trkpt><trkpt lat="58.052357" lon="38.838365"><ele>100.5</ele><time>2023-08-22T15:55:50Z</time></trkpt><trkpt lat="58.052467" lon="38.838417"><ele>100.4</ele><time>2023-08-22T15:55:53Z</time></trkpt><trkpt lat="58.052553" lon="38.83848"><ele>99.8</ele><time>2023-08-22T15:55:56Z</time></trkpt><trkpt lat="58.052593" lon="38.838605"><ele>100.0</ele><time>2023-08-22T15:55:59Z</time></trkpt><trkpt lat="58.052593" lon="38.838748"><ele>99.9</ele><time>2023-08-22T15:56:02Z</time></trkpt><trkpt lat="58.052572" lon="38.838882"><ele>100.1</ele><time>2023-08-22T15:56:05Z</time></trkpt><trkpt lat="58.052602" lon="38.83902"><ele>99.4</ele><time>2023-08-22T15:56:13Z</time></trkpt><trkpt lat="58.052668" lon="38.839075"><ele>99.4</ele><time>2023-08-22T15:56:17Z</time></trkpt><trkpt lat="58.052757" lon="38.839188"><ele>99.7</ele><time>2023-08-22T15:56:23Z</time></trkpt><trkpt lat="58.052837" lon="38.839247"><ele>99.8</ele><time>2023-08-22T15:56:24Z</time></trkpt><trkpt lat="58.052925" lon="38.83931"><ele>99.4</ele><time>2023-08-22T15:56:26Z</time></trkpt><trkpt lat="58.053022" lon="38.839372"><ele>99.7</ele><time>2023-08-22T15:56:28Z</time></trkpt><trkpt lat="58.05312" lon="38.839425"><ele>99.3</ele><time>2023-08-22T15:56:30Z</time></trkpt><trkpt lat="58.053227" lon="38.839445"><ele>99.2</ele><time>2023-08-22T15:56:32Z</time></trkpt><trkpt lat="58.053302" lon="38.8395"><ele>99.1</ele><time>2023-08-22T15:56:34Z</time></trkpt><trkpt lat="58.0534" lon="38.839582"><ele>98.5</ele><time>2023-08-22T15:56:36Z</time></trkpt><trkpt lat="58.053487" lon="38.839652"><ele>99.0</ele><time>2023-08-22T15:56:38Z</time></trkpt><trkpt lat="58.053555" lon="38.839723"><ele>99.6</ele><time>2023-08-22T15:56:40Z</time></trkpt><trkpt lat="58.053627" lon="38.839802"><ele>99.6</ele><time>2023-08-22T15:56:42Z</time></trkpt><trkpt lat="58.053707" lon="38.839848"><ele>99.6</ele><time>2023-08-22T15:56:44Z</time></trkpt><trkpt lat="58.053775" lon="38.839897"><ele>99.1</ele><time>2023-08-22T15:56:46Z</time></trkpt><trkpt lat="58.053848" lon="38.839938"><ele>97.9</ele><time>2023-08-22T15:56:48Z</time></trkpt><trkpt lat="58.05392" lon="38.839988"><ele>96.8</ele><time>2023-08-22T15:56:50Z</time></trkpt><trkpt lat="58.053993" lon="38.840005"><ele>97.1</ele><time>2023-08-22T15:56:52Z</time></trkpt><trkpt lat="58.054067" lon="38.840027"><ele>96.5</ele><time>2023-08-22T15:56:54Z</time></trkpt><trkpt lat="58.054142" lon="38.840065"><ele>96.0</ele><time>2023-08-22T15:56:56Z</time></trkpt><trkpt lat="58.054217" lon="38.840057"><ele>96.2</ele><time>2023-08-22T15:56:58Z</time></trkpt><trkpt lat="58.054278" lon="38.83997"><ele>95.4</ele><time>2023-08-22T15:57:00Z</time></trkpt><trkpt lat="58.05432" lon="38.839835"><ele>94.6</ele><time>2023-08-22T15:57:02Z</time></trkpt><trkpt lat="58.054348" lon="38.839653"><ele>95.4</ele><time>2023-08-22T15:57:05Z</time></trkpt><trkpt lat="58.054403" lon="38.839495"><ele>94.8</ele><time>2023-08-22T15:57:07Z</time></trkpt><trkpt lat="58.05445" lon="38.839365"><ele>93.9</ele><time>2023-08-22T15:57:09Z</time></trkpt><trkpt lat="58.054498" lon="38.839222"><ele>93.8</ele><time>2023-08-22T15:57:11Z</time></trkpt><trkpt lat="58.054545" lon="38.839085"><ele>93.1</ele><time>2023-08-22T15:57:13Z</time></trkpt><trkpt lat="58.054588" lon="38.838948"><ele>91.4</ele><time>2023-08-22T15:57:15Z</time></trkpt><trkpt lat="58.054647" lon="38.838793"><ele>91.3</ele><time>2023-08-22T15:57:17Z</time></trkpt><trkpt lat="58.0547" lon="38.838622"><ele>90.8</ele><time>2023-08-22T15:57:19Z</time></trkpt><trkpt lat="58.054762" lon="38.83849"><ele>91.8</ele><time>2023-08-22T15:57:21Z</time></trkpt><trkpt lat="58.05483" lon="38.838325"><ele>92.4</ele><time>2023-08-22T15:57:23Z</time></trkpt><trkpt lat="58.05489" lon="38.838163"><ele>93.0</ele><time>2023-08-22T15:57:25Z</time></trkpt><trkpt lat="58.054958" lon="38.837987"><ele>93.2</ele><time>2023-08-22T15:57:27Z</time></trkpt><trkpt lat="58.055007" lon="38.837752"><ele>92.3</ele><time>2023-08-22T15:57:29Z</time></trkpt><trkpt lat="58.055045" lon="38.837627"><ele>91.9</ele><time>2023-08-22T15:57:30Z</time></trkpt><trkpt lat="58.05509" lon="38.837503"><ele>92.3</ele><time>2023-08-22T15:57:31Z</time></trkpt><trkpt lat="58.055155" lon="38.837295"><ele>93.0</ele><time>2023-08-22T15:57:33Z</time></trkpt><trkpt lat="58.055222" lon="38.837075"><ele>92.8</ele><time>2023-08-22T15:57:35Z</time></trkpt><trkpt lat="58.055272" lon="38.836965"><ele>92.8</ele><time>2023-08-22T15:57:36Z</time></trkpt><trkpt lat="58.055348" lon="38.836747"><ele>92.3</ele><time>2023-08-22T15:57:38Z</time></trkpt><trkpt lat="58.05541" lon="38.836528"><ele>91.9</ele><time>2023-08-22T15:57:40Z</time></trkpt><trkpt lat="58.055462" lon="38.836307"><ele>91.8</ele><time>2023-08-22T15:57:42Z</time></trkpt><trkpt lat="58.055528" lon="38.836133"><ele>92.6</ele><time>2023-08-22T15:57:44Z</time></trkpt><trkpt lat="58.0556" lon="38.835897"><ele>92.8</ele><time>2023-08-22T15:57:46Z</time></trkpt><trkpt lat="58.055648" lon="38.835687"><ele>92.9</ele><time>2023-08-22T15:57:48Z</time></trkpt><trkpt lat="58.05571" lon="38.835507"><ele>93.8</ele><time>2023-08-22T15:57:50Z</time></trkpt><trkpt lat="58.055798" lon="38.8354"><ele>94.3</ele><time>2023-08-22T15:57:52Z</time></trkpt><trkpt lat="58.05585" lon="38.835232"><ele>94.8</ele><time>2023-08-22T15:57:54Z</time></trkpt><trkpt lat="58.055898" lon="38.835067"><ele>94.9</ele><time>2023-08-22T15:57:56Z</time></trkpt><trkpt lat="58.055943" lon="38.834868"><ele>94.1</ele><time>2023-08-22T15:57:58Z</time></trkpt><trkpt lat="58.05599" lon="38.83467"><ele>93.5</ele><time>2023-08-22T15:58:00Z</time></trkpt><trkpt lat="58.056043" lon="38.834498"><ele>93.3</ele><time>2023-08-22T15:58:02Z</time></trkpt><trkpt lat="58.056108" lon="38.834337"><ele>94.6</ele><time>2023-08-22T15:58:04Z</time></trkpt><trkpt lat="58.05616" lon="38.834175"><ele>95.0</ele><time>2023-08-22T15:58:06Z</time></trkpt><trkpt lat="58.056198" lon="38.833978"><ele>93.8</ele><time>2023-08-22T15:58:08Z</time></trkpt><trkpt lat="58.056267" lon="38.833783"><ele>94.7</ele><time>2023-08-22T15:58:10Z</time></trkpt><trkpt lat="58.056308" lon="38.833595"><ele>93.3</ele><time>2023-08-22T15:58:12Z</time></trkpt><trkpt lat="58.056377" lon="38.833443"><ele>94.1</ele><time>2023-08-22T15:58:14Z</time></trkpt><trkpt lat="58.056447" lon="38.833287"><ele>92.8</ele><time>2023-08-22T15:58:16Z</time></trkpt><trkpt lat="58.056473" lon="38.83314"><ele>92.8</ele><time>2023-08-22T15:58:18Z</time></trkpt><trkpt lat="58.056533" lon="38.832987"><ele>92.4</ele><time>2023-08-22T15:58:20Z</time></trkpt><trkpt lat="58.056567" lon="38.83285"><ele>93.8</ele><time>2023-08-22T15:58:22Z</time></trkpt><trkpt lat="58.056615" lon="38.832725"><ele>93.6</ele><time>2023-08-22T15:58:24Z</time></trkpt><trkpt lat="58.056658" lon="38.832582"><ele>93.9</ele><time>2023-08-22T15:58:26Z</time></trkpt><trkpt lat="58.056693" lon="38.832435"><ele>94.1</ele><time>2023-08-22T15:58:28Z</time></trkpt><trkpt lat="58.056715" lon="38.832262"><ele>93.8</ele><time>2023-08-22T15:58:30Z</time></trkpt><trkpt lat="58.05675" lon="38.83207"><ele>95.0</ele><time>2023-08-22T15:58:32Z</time></trkpt><trkpt lat="58.056793" lon="38.831925"><ele>95.4</ele><time>2023-08-22T15:58:34Z</time></trkpt><trkpt lat="58.056852" lon="38.831753"><ele>95.8</ele><time>2023-08-22T15:58:36Z</time></trkpt><trkpt lat="58.056905" lon="38.831585"><ele>96.0</ele><time>2023-08-22T15:58:38Z</time></trkpt><trkpt lat="58.05696" lon="38.831413"><ele>97.1</ele><time>2023-08-22T15:58:40Z</time></trkpt><trkpt lat="58.057027" lon="38.83127"><ele>96.7</ele><time>2023-08-22T15:58:42Z</time></trkpt><trkpt lat="58.057115" lon="38.831188"><ele>96.2</ele><time>2023-08-22T15:58:44Z</time></trkpt><trkpt lat="58.057182" lon="38.83109"><ele>95.8</ele><time>2023-08-22T15:58:46Z</time></trkpt><trkpt lat="58.057273" lon="38.830998"><ele>94.9</ele><time>2023-08-22T15:58:48Z</time></trkpt><trkpt lat="58.057352" lon="38.8309"><ele>95.1</ele><time>2023-08-22T15:58:50Z</time></trkpt><trkpt lat="58.057432" lon="38.830775"><ele>94.6</ele><time>2023-08-22T15:58:52Z</time></trkpt><trkpt lat="58.057518" lon="38.830625"><ele>94.8</ele><time>2023-08-22T15:58:54Z</time></trkpt><trkpt lat="58.057587" lon="38.83053"><ele>95.1</ele><time>2023-08-22T15:58:56Z</time></trkpt><trkpt lat="58.057652" lon="38.83039"><ele>95.3</ele><time>2023-08-22T15:58:58Z</time></trkpt><trkpt lat="58.057732" lon="38.8303"><ele>94.7</ele><time>2023-08-22T15:59:00Z</time></trkpt><trkpt lat="58.057815" lon="38.83019"><ele>94.8</ele><time>2023-08-22T15:59:02Z</time></trkpt><trkpt lat="58.057902" lon="38.830052"><ele>96.2</ele><time>2023-08-22T15:59:04Z</time></trkpt><trkpt lat="58.05798" lon="38.829898"><ele>95.4</ele><time>2023-08-22T15:59:06Z</time></trkpt><trkpt lat="58.058075" lon="38.829697"><ele>95.1</ele><time>2023-08-22T15:59:08Z</time></trkpt><trkpt lat="58.058177" lon="38.829522"><ele>95.0</ele><time>2023-08-22T15:59:10Z</time></trkpt><trkpt lat="58.058275" lon="38.829385"><ele>94.7</ele><time>2023-08-22T15:59:12Z</time></trkpt><trkpt lat="58.058365" lon="38.829253"><ele>94.0</ele><time>2023-08-22T15:59:14Z</time></trkpt><trkpt lat="58.058475" lon="38.829133"><ele>93.7</ele><time>2023-08-22T15:59:16Z</time></trkpt><trkpt lat="58.058558" lon="38.828983"><ele>92.5</ele><time>2023-08-22T15:59:18Z</time></trkpt><trkpt lat="58.058632" lon="38.828797"><ele>92.9</ele><time>2023-08-22T15:59:20Z</time></trkpt><trkpt lat="58.05868" lon="38.828635"><ele>94.4</ele><time>2023-08-22T15:59:22Z</time></trkpt><trkpt lat="58.058728" lon="38.828478"><ele>94.9</ele><time>2023-08-22T15:59:24Z</time></trkpt><trkpt lat="58.058777" lon="38.82833"><ele>94.2</ele><time>2023-08-22T15:59:26Z</time></trkpt><trkpt lat="58.058815" lon="38.828185"><ele>95.0</ele><time>2023-08-22T15:59:28Z</time></trkpt><trkpt lat="58.058865" lon="38.828068"><ele>95.7</ele><time>2023-08-22T15:59:30Z</time></trkpt><trkpt lat="58.058913" lon="38.827913"><ele>96.4</ele><time>2023-08-22T15:59:33Z</time></trkpt><trkpt lat="58.058945" lon="38.827777"><ele>95.9</ele><time>2023-08-22T15:59:36Z</time></trkpt><trkpt lat="58.05899" lon="38.827645"><ele>96.3</ele><time>2023-08-22T15:59:39Z</time></trkpt><trkpt lat="58.059038" lon="38.82752"><ele>95.9</ele><time>2023-08-22T15:59:42Z</time></trkpt><trkpt lat="58.059078" lon="38.827407"><ele>96.3</ele><time>2023-08-22T15:59:46Z</time></trkpt><trkpt lat="58.059115" lon="38.827277"><ele>96.0</ele><time>2023-08-22T15:59:51Z</time></trkpt><trkpt lat="58.05915" lon="38.827135"><ele>95.7</ele><time>2023-08-22T15:59:56Z</time></trkpt><trkpt lat="58.059188" lon="38.827002"><ele>96.2</ele><time>2023-08-22T16:00:01Z</time></trkpt><trkpt lat="58.059223" lon="38.82688"><ele>96.0</ele><time>2023-08-22T16:00:06Z</time></trkpt><trkpt lat="58.059272" lon="38.826738"><ele>95.6</ele><time>2023-08-22T16:00:10Z</time></trkpt><trkpt lat="58.05932" lon="38.826602"><ele>95.4</ele><time>2023-08-22T16:00:14Z</time></trkpt><trkpt lat="58.059372" lon="38.826478"><ele>95.6</ele><time>2023-08-22T16:00:18Z</time></trkpt><trkpt lat="58.05942" lon="38.82634"><ele>95.6</ele><time>2023-08-22T16:00:21Z</time></trkpt><trkpt lat="58.059423" lon="38.826158"><ele>95.3</ele><time>2023-08-22T16:00:24Z</time></trkpt><trkpt lat="58.059407" lon="38.826003"><ele>95.8</ele><time>2023-08-22T16:00:27Z</time></trkpt><trkpt lat="58.059368" lon="38.82584"><ele>95.9</ele><time>2023-08-22T16:00:30Z</time></trkpt><trkpt lat="58.059343" lon="38.825655"><ele>96.5</ele><time>2023-08-22T16:00:33Z</time></trkpt><trkpt lat="58.059338" lon="38.825473"><ele>97.2</ele><time>2023-08-22T16:00:36Z</time></trkpt><trkpt lat="58.059313" lon="38.82534"><ele>97.5</ele><time>2023-08-22T16:00:38Z</time></trkpt><trkpt lat="58.059252" lon="38.825248"><ele>97.2</ele><time>2023-08-22T16:00:40Z</time></trkpt><trkpt lat="58.059188" lon="38.825168"><ele>97.8</ele><time>2023-08-22T16:00:42Z</time></trkpt><trkpt lat="58.059112" lon="38.825023"><ele>98.4</ele><time>2023-08-22T16:00:45Z</time></trkpt><trkpt lat="58.059063" lon="38.824905"><ele>97.7</ele><time>2023-08-22T16:00:47Z</time></trkpt><trkpt lat="58.059017" lon="38.82478"><ele>97.1</ele><time>2023-08-22T16:00:49Z</time></trkpt><trkpt lat="58.058982" lon="38.82465"><ele>96.9</ele><time>2023-08-22T16:00:51Z</time></trkpt><trkpt lat="58.058993" lon="38.824485"><ele>97.3</ele><time>2023-08-22T16:00:54Z</time></trkpt><trkpt lat="58.059082" lon="38.824363"><ele>97.4</ele><time>2023-08-22T16:00:57Z</time></trkpt><trkpt lat="58.05914" lon="38.82426"><ele>98.0</ele><time>2023-08-22T16:00:59Z</time></trkpt><trkpt lat="58.059203" lon="38.824142"><ele>97.9</ele><time>2023-08-22T16:01:01Z</time></trkpt><trkpt lat="58.059277" lon="38.824013"><ele>97.0</ele><time>2023-08-22T16:01:03Z</time></trkpt><trkpt lat="58.059343" lon="38.823865"><ele>97.2</ele><time>2023-08-22T16:01:05Z</time></trkpt><trkpt lat="58.059413" lon="38.823737"><ele>97.4</ele><time>2023-08-22T16:01:07Z</time></trkpt><trkpt lat="58.059475" lon="38.82361"><ele>97.8</ele><time>2023-08-22T16:01:09Z</time></trkpt><trkpt lat="58.059522" lon="38.823463"><ele>98.2</ele><time>2023-08-22T16:01:11Z</time></trkpt><trkpt lat="58.05956" lon="38.82332"><ele>98.6</ele><time>2023-08-22T16:01:13Z</time></trkpt><trkpt lat="58.059588" lon="38.823168"><ele>99.0</ele><time>2023-08-22T16:01:15Z</time></trkpt><trkpt lat="58.059602" lon="38.823015"><ele>98.9</ele><time>2023-08-22T16:01:17Z</time></trkpt><trkpt lat="58.059612" lon="38.822852"><ele>98.5</ele><time>2023-08-22T16:01:19Z</time></trkpt><trkpt lat="58.059627" lon="38.822678"><ele>99.1</ele><time>2023-08-22T16:01:21Z</time></trkpt><trkpt lat="58.059645" lon="38.822523"><ele>99.2</ele><time>2023-08-22T16:01:23Z</time></trkpt><trkpt lat="58.059643" lon="38.822355"><ele>99.0</ele><time>2023-08-22T16:01:25Z</time></trkpt><trkpt lat="58.059653" lon="38.822185"><ele>99.4</ele><time>2023-08-22T16:01:27Z</time></trkpt><trkpt lat="58.059657" lon="38.822033"><ele>99.8</ele><time>2023-08-22T16:01:29Z</time></trkpt><trkpt lat="58.059678" lon="38.821837"><ele>98.8</ele><time>2023-08-22T16:01:32Z</time></trkpt><trkpt lat="58.059692" lon="38.821667"><ele>99.2</ele><time>2023-08-22T16:01:34Z</time></trkpt><trkpt lat="58.059705" lon="38.82153"><ele>99.8</ele><time>2023-08-22T16:01:36Z</time></trkpt><trkpt lat="58.059733" lon="38.821343"><ele>99.0</ele><time>2023-08-22T16:01:39Z</time></trkpt><trkpt lat="58.059808" lon="38.82122"><ele>97.9</ele><time>2023-08-22T16:01:42Z</time></trkpt><trkpt lat="58.059862" lon="38.821128"><ele>98.6</ele><time>2023-08-22T16:01:45Z</time></trkpt><trkpt lat="58.059865" lon="38.820935"><ele>97.3</ele><time>2023-08-22T16:02:35Z</time></trkpt><trkpt lat="58.059822" lon="38.821045"><ele>98.1</ele><time>2023-08-22T16:03:59Z</time></trkpt><trkpt lat="58.059902" lon="38.82105"><ele>102.0</ele><time>2023-08-22T16:04:44Z</time></trkpt><trkpt lat="58.05985" lon="38.820943"><ele>103.0</ele><time>2023-08-22T16:04:50Z</time></trkpt><trkpt lat="58.059823" lon="38.820743"><ele>101.6</ele><time>2023-08-22T16:04:53Z</time></trkpt><trkpt lat="58.059813" lon="38.820598"><ele>102.1</ele><time>2023-08-22T16:04:55Z</time></trkpt><trkpt lat="58.059802" lon="38.820392"><ele>101.7</ele><time>2023-08-22T16:04:58Z</time></trkpt><trkpt lat="58.059812" lon="38.820225"><ele>101.6</ele><time>2023-08-22T16:05:00Z</time></trkpt><trkpt lat="58.059825" lon="38.82006"><ele>101.4</ele><time>2023-08-22T16:05:02Z</time></trkpt><trkpt lat="58.059847" lon="38.819897"><ele>101.4</ele><time>2023-08-22T16:05:04Z</time></trkpt><trkpt lat="58.059862" lon="38.819718"><ele>101.0</ele><time>2023-08-22T16:05:06Z</time></trkpt><trkpt lat="58.059883" lon="38.819543"><ele>100.8</ele><time>2023-08-22T16:05:08Z</time></trkpt><trkpt lat="58.059875" lon="38.819363"><ele>101.3</ele><time>2023-08-22T16:05:10Z</time></trkpt><trkpt lat="58.059897" lon="38.819172"><ele>101.1</ele><time>2023-08-22T16:05:12Z</time></trkpt><trkpt lat="58.059897" lon="38.818985"><ele>101.8</ele><time>2023-08-22T16:05:14Z</time></trkpt><trkpt lat="58.059915" lon="38.818785"><ele>102.3</ele><time>2023-08-22T16:05:16Z</time></trkpt><trkpt lat="58.059925" lon="38.818608"><ele>102.5</ele><time>2023-08-22T16:05:18Z</time></trkpt><trkpt lat="58.059953" lon="38.818427"><ele>101.4</ele><time>2023-08-22T16:05:20Z</time></trkpt><trkpt lat="58.059975" lon="38.818247"><ele>100.3</ele><time>2023-08-22T16:05:22Z</time></trkpt><trkpt lat="58.059978" lon="38.818053"><ele>99.7</ele><time>2023-08-22T16:05:24Z</time></trkpt><trkpt lat="58.059988" lon="38.817878"><ele>99.9</ele><time>2023-08-22T16:05:26Z</time></trkpt><trkpt lat="58.059993" lon="38.81769"><ele>99.8</ele><time>2023-08-22T16:05:28Z</time></trkpt><trkpt lat="58.060002" lon="38.817478"><ele>100.3</ele><time>2023-08-22T16:05:30Z</time></trkpt><trkpt lat="58.060007" lon="38.817277"><ele>100.2</ele><time>2023-08-22T16:05:32Z</time></trkpt><trkpt lat="58.059987" lon="38.817083"><ele>100.4</ele><time>2023-08-22T16:05:34Z</time></trkpt><trkpt lat="58.059995" lon="38.816865"><ele>100.4</ele><time>2023-08-22T16:05:36Z</time></trkpt><trkpt lat="58.060013" lon="38.816617"><ele>100.0</ele><time>2023-08-22T16:05:38Z</time></trkpt><trkpt lat="58.060027" lon="38.816363"><ele>100.3</ele><time>2023-08-22T16:05:40Z</time></trkpt><trkpt lat="58.060033" lon="38.816122"><ele>100.8</ele><time>2023-08-22T16:05:42Z</time></trkpt><trkpt lat="58.060047" lon="38.815908"><ele>101.4</ele><time>2023-08-22T16:05:44Z</time></trkpt><trkpt lat="58.060055" lon="38.815692"><ele>103.4</ele><time>2023-08-22T16:05:46Z</time></trkpt><trkpt lat="58.06006" lon="38.815487"><ele>104.7</ele><time>2023-08-22T16:05:48Z</time></trkpt><trkpt lat="58.060092" lon="38.815303"><ele>104.5</ele><time>2023-08-22T16:05:50Z</time></trkpt><trkpt lat="58.0601" lon="38.815138"><ele>104.3</ele><time>2023-08-22T16:05:52Z</time></trkpt><trkpt lat="58.060105" lon="38.81498"><ele>104.2</ele><time>2023-08-22T16:05:55Z</time></trkpt><trkpt lat="58.06011" lon="38.814843"><ele>104.3</ele><time>2023-08-22T16:05:57Z</time></trkpt><trkpt lat="58.060117" lon="38.814707"><ele>105.9</ele><time>2023-08-22T16:05:59Z</time></trkpt><trkpt lat="58.060122" lon="38.814517"><ele>106.5</ele><time>2023-08-22T16:06:01Z</time></trkpt><trkpt lat="58.060127" lon="38.814328"><ele>106.8</ele><time>2023-08-22T16:06:03Z</time></trkpt><trkpt lat="58.060135" lon="38.814162"><ele>106.5</ele><time>2023-08-22T16:06:05Z</time></trkpt><trkpt lat="58.060148" lon="38.814013"><ele>106.8</ele><time>2023-08-22T16:06:07Z</time></trkpt><trkpt lat="58.060138" lon="38.813872"><ele>107.1</ele><time>2023-08-22T16:06:09Z</time></trkpt><trkpt lat="58.060117" lon="38.813713"><ele>107.0</ele><time>2023-08-22T16:06:12Z</time></trkpt><trkpt lat="58.060048" lon="38.81366"><ele>107.7</ele><time>2023-08-22T16:06:14Z</time></trkpt><trkpt lat="58.059967" lon="38.813627"><ele>106.8</ele><time>2023-08-22T16:06:17Z</time></trkpt><trkpt lat="58.059945" lon="38.813427"><ele>105.7</ele><time>2023-08-22T16:06:20Z</time></trkpt><trkpt lat="58.059963" lon="38.813273"><ele>105.8</ele><time>2023-08-22T16:06:22Z</time></trkpt><trkpt lat="58.059985" lon="38.813093"><ele>105.2</ele><time>2023-08-22T16:06:25Z</time></trkpt><trkpt lat="58.06" lon="38.81295"><ele>105.8</ele><time>2023-08-22T16:06:28Z</time></trkpt><trkpt lat="58.060017" lon="38.812783"><ele>105.5</ele><time>2023-08-22T16:06:32Z</time></trkpt><trkpt lat="58.060035" lon="38.812638"><ele>105.8</ele><time>2023-08-22T16:06:36Z</time></trkpt><trkpt lat="58.060058" lon="38.812478"><ele>106.1</ele><time>2023-08-22T16:06:40Z</time></trkpt><trkpt lat="58.060083" lon="38.812315"><ele>105.9</ele><time>2023-08-22T16:06:44Z</time></trkpt><trkpt lat="58.060002" lon="38.812238"><ele>105.5</ele><time>2023-08-22T16:06:47Z</time></trkpt><trkpt lat="58.059907" lon="38.812223"><ele>105.2</ele><time>2023-08-22T16:06:50Z</time></trkpt><trkpt lat="58.059818" lon="38.812172"><ele>104.8</ele><time>2023-08-22T16:06:54Z</time></trkpt><trkpt lat="58.05975" lon="38.812103"><ele>105.0</ele><time>2023-08-22T16:06:57Z</time></trkpt><trkpt lat="58.059657" lon="38.812032"><ele>104.9</ele><time>2023-08-22T16:07:00Z</time></trkpt><trkpt lat="58.05956" lon="38.811995"><ele>105.3</ele><time>2023-08-22T16:07:03Z</time></trkpt><trkpt lat="58.059487" lon="38.811915"><ele>106.9</ele><time>2023-08-22T16:07:06Z</time></trkpt><trkpt lat="58.059397" lon="38.811847"><ele>107.7</ele><time>2023-08-22T16:07:10Z</time></trkpt><trkpt lat="58.059315" lon="38.81182"><ele>106.9</ele><time>2023-08-22T16:07:13Z</time></trkpt><trkpt lat="58.05924" lon="38.811777"><ele>106.0</ele><time>2023-08-22T16:07:16Z</time></trkpt><trkpt lat="58.05922" lon="38.811625"><ele>107.4</ele><time>2023-08-22T16:07:19Z</time></trkpt><trkpt lat="58.059232" lon="38.81146"><ele>108.1</ele><time>2023-08-22T16:07:22Z</time></trkpt><trkpt lat="58.059197" lon="38.811303"><ele>107.5</ele><time>2023-08-22T16:07:26Z</time></trkpt><trkpt lat="58.059095" lon="38.811277"><ele>106.2</ele><time>2023-08-22T16:07:29Z</time></trkpt><trkpt lat="58.058997" lon="38.811258"><ele>107.3</ele><time>2023-08-22T16:07:31Z</time></trkpt><trkpt lat="58.058905" lon="38.811237"><ele>106.7</ele><time>2023-08-22T16:07:33Z</time></trkpt><trkpt lat="58.058828" lon="38.811228"><ele>106.4</ele><time>2023-08-22T16:07:35Z</time></trkpt><trkpt lat="58.058747" lon="38.811228"><ele>105.9</ele><time>2023-08-22T16:07:39Z</time></trkpt><trkpt lat="58.058645" lon="38.811213"><ele>106.4</ele><time>2023-08-22T16:07:42Z</time></trkpt><trkpt lat="58.058542" lon="38.811188"><ele>107.3</ele><time>2023-08-22T16:07:45Z</time></trkpt><trkpt lat="58.058437" lon="38.811162"><ele>108.2</ele><time>2023-08-22T16:07:48Z</time></trkpt><trkpt lat="58.058365" lon="38.811145"><ele>108.4</ele><time>2023-08-22T16:07:50Z</time></trkpt><trkpt lat="58.058293" lon="38.811115"><ele>108.5</ele><time>2023-08-22T16:07:52Z</time></trkpt><trkpt lat="58.058228" lon="38.810943"><ele>108.7</ele><time>2023-08-22T16:07:55Z</time></trkpt><trkpt lat="58.058223" lon="38.810783"><ele>107.5</ele><time>2023-08-22T16:07:57Z</time></trkpt><trkpt lat="58.058235" lon="38.810623"><ele>108.0</ele><time>2023-08-22T16:07:59Z</time></trkpt><trkpt lat="58.058253" lon="38.810487"><ele>107.8</ele><time>2023-08-22T16:08:01Z</time></trkpt><trkpt lat="58.058317" lon="38.81036"><ele>107.6</ele><time>2023-08-22T16:08:04Z</time></trkpt><trkpt lat="58.058397" lon="38.810342"><ele>107.3</ele><time>2023-08-22T16:08:06Z</time></trkpt><trkpt lat="58.058472" lon="38.810288"><ele>106.4</ele><time>2023-08-22T16:08:08Z</time></trkpt><trkpt lat="58.058517" lon="38.81014"><ele>106.3</ele><time>2023-08-22T16:08:10Z</time></trkpt><trkpt lat="58.058528" lon="38.809965"><ele>106.0</ele><time>2023-08-22T16:08:12Z</time></trkpt><trkpt lat="58.058528" lon="38.809802"><ele>106.0</ele><time>2023-08-22T16:08:14Z</time></trkpt><trkpt lat="58.05852" lon="38.809635"><ele>106.5</ele><time>2023-08-22T16:08:16Z</time></trkpt><trkpt lat="58.05849" lon="38.809423"><ele>106.3</ele><time>2023-08-22T16:08:18Z</time></trkpt><trkpt lat="58.058495" lon="38.80925"><ele>106.1</ele><time>2023-08-22T16:08:20Z</time></trkpt><trkpt lat="58.058497" lon="38.809065"><ele>105.4</ele><time>2023-08-22T16:08:22Z</time></trkpt><trkpt lat="58.058508" lon="38.808885"><ele>105.6</ele><time>2023-08-22T16:08:24Z</time></trkpt><trkpt lat="58.058513" lon="38.808717"><ele>104.5</ele><time>2023-08-22T16:08:26Z</time></trkpt><trkpt lat="58.058512" lon="38.808573"><ele>104.1</ele><time>2023-08-22T16:08:28Z</time></trkpt><trkpt lat="58.058552" lon="38.808462"><ele>104.4</ele><time>2023-08-22T16:08:31Z</time></trkpt><trkpt lat="58.058557" lon="38.808297"><ele>104.6</ele><time>2023-08-22T16:08:35Z</time></trkpt><trkpt lat="58.05858" lon="38.80813"><ele>104.8</ele><time>2023-08-22T16:08:37Z</time></trkpt><trkpt lat="58.058608" lon="38.807943"><ele>105.2</ele><time>2023-08-22T16:08:39Z</time></trkpt><trkpt lat="58.05861" lon="38.807782"><ele>104.4</ele><time>2023-08-22T16:08:41Z</time></trkpt><trkpt lat="58.058678" lon="38.807732"><ele>103.3</ele><time>2023-08-22T16:08:51Z</time></trkpt></trkseg></trk></gpx>