<?xml version="1.0" encoding="UTF-8" standalone="no"?><gpx xmlns="http://www.topografix.com/GPX/1/1" xmlns:gpxtpx="http://www.garmin.com/xmlschemas/TrackPointExtension/v1" xmlns:xsi="http://www.w3.org/2001/XMLSchema-instance" creator="Sports Tracker" version="1.1" xsi:schemaLocation="http://www.topografix.com/GPX/1/1 http://www.topografix.com/GPX/1/1/gpx.xsd http://www.garmin.com/xmlschemas/TrackPointExtension/v1 http://www.garmin.com/xmlschemas/TrackPointExtensionv1.xsd"><metadata><name>23.04.2024 19:23</name><desc/><author><name>Александр</name></author></metadata><trk><name>23.04.2024 19:23</name><trkseg><trkpt lat="58.063375" lon="38.842915"><ele>107.5</ele><time>2024-04-23T16:23:12Z</time></trkpt><trkpt lat="58.06337" lon="38.842935"><ele>107.8</ele><time>2024-04-23T16:23:12Z</time></trkpt><trkpt lat="58.063332" lon="38.843055"><ele>108.5</ele><time>2024-04-23T16:23:18Z</time></trkpt><trkpt lat="58.063332" lon="38.843215"><ele>108.9</ele><time>2024-04-23T16:23:24Z</time></trkpt><trkpt lat="58.063322" lon="38.843352"><ele>108.1</ele><time>2024-04-23T16:23:29Z</time></trkpt><trkpt lat="58.06334" lon="38.843495"><ele>108.8</ele><time>2024-04-23T16:23:32Z</time></trkpt><trkpt lat="58.063345" lon="38.843635"><ele>108.9</ele><time>2024-04-23T16:23:36Z</time></trkpt><trkpt lat="58.063305" lon="38.843775"><ele>109.2</ele><time>2024-04-23T16:23:41Z</time></trkpt><trkpt lat="58.063235" lon="38.84393"><ele>110.6</ele><time>2024-04-23T16:23:44Z</time></trkpt><trkpt lat="58.063162" lon="38.84402"><ele>108.3</ele><time>2024-04-23T16:23:46Z</time></trkpt><trkpt lat="58.0631" lon="38.8441"><ele>109.4</ele><time>2024-04-23T16:23:48Z</time></trkpt><trkpt lat="58.063" lon="38.8442"><ele>109.5</ele><time>2024-04-23T16:23:51Z</time></trkpt><trkpt lat="58.06293" lon="38.844272"><ele>109.4</ele><time>2024-04-23T16:23:53Z</time></trkpt><trkpt lat="58.062845" lon="38.84437"><ele>109.1</ele><time>2024-04-23T16:23:56Z</time></trkpt><trkpt lat="58.062775" lon="38.84445"><ele>109.8</ele><time>2024-04-23T16:23:58Z</time></trkpt><trkpt lat="58.0627" lon="38.84452"><ele>109.8</ele><time>2024-04-23T16:24:00Z</time></trkpt><trkpt lat="58.062625" lon="38.844595"><ele>111.4</ele><time>2024-04-23T16:24:02Z</time></trkpt><trkpt lat="58.062557" lon="38.84467"><ele>109.8</ele><time>2024-04-23T16:24:04Z</time></trkpt><trkpt lat="58.062475" lon="38.84478"><ele>110.3</ele><time>2024-04-23T16:24:07Z</time></trkpt><trkpt lat="58.0624" lon="38.844857"><ele>111.0</ele><time>2024-04-23T16:24:09Z</time></trkpt><trkpt lat="58.062333" lon="38.84493"><ele>111.3</ele><time>2024-04-23T16:24:11Z</time></trkpt><trkpt lat="58.06227" lon="38.845005"><ele>110.5</ele><time>2024-04-23T16:24:13Z</time></trkpt><trkpt lat="58.062175" lon="38.845103"><ele>112.1</ele><time>2024-04-23T16:24:16Z</time></trkpt><trkpt lat="58.062115" lon="38.845185"><ele>113.1</ele><time>2024-04-23T16:24:18Z</time></trkpt><trkpt lat="58.06204" lon="38.845257"><ele>112.5</ele><time>2024-04-23T16:24:21Z</time></trkpt><trkpt lat="58.061965" lon="38.84528"><ele>112.3</ele><time>2024-04-23T16:24:25Z</time></trkpt><trkpt lat="58.061915" lon="38.84538"><ele>113.2</ele><time>2024-04-23T16:24:29Z</time></trkpt><trkpt lat="58.061845" lon="38.845455"><ele>113.5</ele><time>2024-04-23T16:24:33Z</time></trkpt><trkpt lat="58.06178" lon="38.84556"><ele>116.2</ele><time>2024-04-23T16:24:38Z</time></trkpt><trkpt lat="58.061695" lon="38.845623"><ele>115.7</ele><time>2024-04-23T16:24:43Z</time></trkpt><trkpt lat="58.061622" lon="38.845677"><ele>113.9</ele><time>2024-04-23T16:24:47Z</time></trkpt><trkpt lat="58.061557" lon="38.84577"><ele>113.2</ele><time>2024-04-23T16:24:50Z</time></trkpt><trkpt lat="58.061465" lon="38.845872"><ele>112.5</ele><time>2024-04-23T16:24:53Z</time></trkpt><trkpt lat="58.061375" lon="38.845967"><ele>113.3</ele><time>2024-04-23T16:24:56Z</time></trkpt><trkpt lat="58.06131" lon="38.84603"><ele>113.6</ele><time>2024-04-23T16:24:58Z</time></trkpt><trkpt lat="58.06124" lon="38.846112"><ele>113.8</ele><time>2024-04-23T16:25:00Z</time></trkpt><trkpt lat="58.06117" lon="38.84621"><ele>113.7</ele><time>2024-04-23T16:25:02Z</time></trkpt><trkpt lat="58.061085" lon="38.8463"><ele>114.6</ele><time>2024-04-23T16:25:05Z</time></trkpt><trkpt lat="58.061038" lon="38.84618"><ele>115.4</ele><time>2024-04-23T16:25:08Z</time></trkpt><trkpt lat="58.061045" lon="38.846012"><ele>115.0</ele><time>2024-04-23T16:25:10Z</time></trkpt><trkpt lat="58.061045" lon="38.845835"><ele>114.7</ele><time>2024-04-23T16:25:12Z</time></trkpt><trkpt lat="58.061038" lon="38.84567"><ele>113.8</ele><time>2024-04-23T16:25:15Z</time></trkpt><trkpt lat="58.060987" lon="38.84554"><ele>114.0</ele><time>2024-04-23T16:25:18Z</time></trkpt><trkpt lat="58.060905" lon="38.84547"><ele>113.3</ele><time>2024-04-23T16:25:21Z</time></trkpt><trkpt lat="58.060813" lon="38.845445"><ele>112.0</ele><time>2024-04-23T16:25:25Z</time></trkpt><trkpt lat="58.060742" lon="38.84553"><ele>112.4</ele><time>2024-04-23T16:25:28Z</time></trkpt><trkpt lat="58.060645" lon="38.845575"><ele>111.1</ele><time>2024-04-23T16:25:31Z</time></trkpt><trkpt lat="58.06053" lon="38.845615"><ele>109.4</ele><time>2024-04-23T16:25:33Z</time></trkpt><trkpt lat="58.060443" lon="38.845547"><ele>108.1</ele><time>2024-04-23T16:25:35Z</time></trkpt><trkpt lat="58.060375" lon="38.845412"><ele>106.6</ele><time>2024-04-23T16:25:38Z</time></trkpt><trkpt lat="58.060265" lon="38.84541"><ele>105.1</ele><time>2024-04-23T16:25:41Z</time></trkpt><trkpt lat="58.060207" lon="38.84556"><ele>105.8</ele><time>2024-04-23T16:25:44Z</time></trkpt><trkpt lat="58.06016" lon="38.845685"><ele>105.9</ele><time>2024-04-23T16:25:46Z</time></trkpt><trkpt lat="58.060115" lon="38.845815"><ele>106.2</ele><time>2024-04-23T16:25:48Z</time></trkpt><trkpt lat="58.06006" lon="38.845937"><ele>105.4</ele><time>2024-04-23T16:25:50Z</time></trkpt><trkpt lat="58.059995" lon="38.846065"><ele>105.4</ele><time>2024-04-23T16:25:52Z</time></trkpt><trkpt lat="58.05994" lon="38.84619"><ele>105.6</ele><time>2024-04-23T16:25:54Z</time></trkpt><trkpt lat="58.059885" lon="38.846295"><ele>106.1</ele><time>2024-04-23T16:25:56Z</time></trkpt><trkpt lat="58.059825" lon="38.846425"><ele>105.4</ele><time>2024-04-23T16:25:59Z</time></trkpt><trkpt lat="58.059775" lon="38.84655"><ele>107.0</ele><time>2024-04-23T16:26:02Z</time></trkpt><trkpt lat="58.059717" lon="38.84667"><ele>108.9</ele><time>2024-04-23T16:26:06Z</time></trkpt><trkpt lat="58.05967" lon="38.846777"><ele>107.9</ele><time>2024-04-23T16:26:09Z</time></trkpt><trkpt lat="58.05962" lon="38.846875"><ele>108.9</ele><time>2024-04-23T16:26:11Z</time></trkpt><trkpt lat="58.059565" lon="38.846985"><ele>107.8</ele><time>2024-04-23T16:26:13Z</time></trkpt><trkpt lat="58.059515" lon="38.847135"><ele>107.7</ele><time>2024-04-23T16:26:15Z</time></trkpt><trkpt lat="58.059455" lon="38.847237"><ele>106.4</ele><time>2024-04-23T16:26:17Z</time></trkpt><trkpt lat="58.059405" lon="38.847367"><ele>106.7</ele><time>2024-04-23T16:26:19Z</time></trkpt><trkpt lat="58.059357" lon="38.84749"><ele>106.0</ele><time>2024-04-23T16:26:21Z</time></trkpt><trkpt lat="58.05929" lon="38.847625"><ele>105.6</ele><time>2024-04-23T16:26:23Z</time></trkpt><trkpt lat="58.05925" lon="38.847745"><ele>104.2</ele><time>2024-04-23T16:26:25Z</time></trkpt><trkpt lat="58.05919" lon="38.847898"><ele>104.8</ele><time>2024-04-23T16:26:27Z</time></trkpt><trkpt lat="58.059142" lon="38.848017"><ele>105.3</ele><time>2024-04-23T16:26:29Z</time></trkpt><trkpt lat="58.059068" lon="38.848167"><ele>103.9</ele><time>2024-04-23T16:26:31Z</time></trkpt><trkpt lat="58.059002" lon="38.84832"><ele>103.1</ele><time>2024-04-23T16:26:33Z</time></trkpt><trkpt lat="58.058942" lon="38.848438"><ele>103.2</ele><time>2024-04-23T16:26:35Z</time></trkpt><trkpt lat="58.058882" lon="38.84854"><ele>103.2</ele><time>2024-04-23T16:26:37Z</time></trkpt><trkpt lat="58.058825" lon="38.848682"><ele>102.2</ele><time>2024-04-23T16:26:39Z</time></trkpt><trkpt lat="58.058765" lon="38.84883"><ele>102.6</ele><time>2024-04-23T16:26:41Z</time></trkpt><trkpt lat="58.05871" lon="38.848977"><ele>103.0</ele><time>2024-04-23T16:26:43Z</time></trkpt><trkpt lat="58.058662" lon="38.849112"><ele>102.7</ele><time>2024-04-23T16:26:45Z</time></trkpt><trkpt lat="58.05863" lon="38.849262"><ele>101.3</ele><time>2024-04-23T16:26:47Z</time></trkpt><trkpt lat="58.05858" lon="38.849365"><ele>102.5</ele><time>2024-04-23T16:26:49Z</time></trkpt><trkpt lat="58.058525" lon="38.849455"><ele>102.4</ele><time>2024-04-23T16:26:51Z</time></trkpt><trkpt lat="58.058457" lon="38.849555"><ele>102.8</ele><time>2024-04-23T16:26:53Z</time></trkpt><trkpt lat="58.058393" lon="38.849647"><ele>101.6</ele><time>2024-04-23T16:26:55Z</time></trkpt><trkpt lat="58.058335" lon="38.849737"><ele>101.7</ele><time>2024-04-23T16:26:57Z</time></trkpt><trkpt lat="58.058275" lon="38.84983"><ele>101.4</ele><time>2024-04-23T16:26:59Z</time></trkpt><trkpt lat="58.05819" lon="38.84992"><ele>101.0</ele><time>2024-04-23T16:27:01Z</time></trkpt><trkpt lat="58.05813" lon="38.850015"><ele>100.9</ele><time>2024-04-23T16:27:03Z</time></trkpt><trkpt lat="58.05807" lon="38.85013"><ele>99.1</ele><time>2024-04-23T16:27:05Z</time></trkpt><trkpt lat="58.058012" lon="38.850245"><ele>99.3</ele><time>2024-04-23T16:27:07Z</time></trkpt><trkpt lat="58.057977" lon="38.850385"><ele>99.0</ele><time>2024-04-23T16:27:09Z</time></trkpt><trkpt lat="58.05797" lon="38.850555"><ele>99.4</ele><time>2024-04-23T16:27:11Z</time></trkpt><trkpt lat="58.05797" lon="38.850755"><ele>100.5</ele><time>2024-04-23T16:27:13Z</time></trkpt><trkpt lat="58.057962" lon="38.85094"><ele>101.7</ele><time>2024-04-23T16:27:15Z</time></trkpt><trkpt lat="58.057935" lon="38.851072"><ele>102.7</ele><time>2024-04-23T16:27:17Z</time></trkpt><trkpt lat="58.057952" lon="38.851237"><ele>105.3</ele><time>2024-04-23T16:27:21Z</time></trkpt><trkpt lat="58.058022" lon="38.851308"><ele>106.4</ele><time>2024-04-23T16:27:24Z</time></trkpt><trkpt lat="58.058095" lon="38.851415"><ele>107.2</ele><time>2024-04-23T16:27:28Z</time></trkpt><trkpt lat="58.058167" lon="38.851525"><ele>108.3</ele><time>2024-04-23T16:27:32Z</time></trkpt><trkpt lat="58.058237" lon="38.851615"><ele>108.7</ele><time>2024-04-23T16:27:35Z</time></trkpt><trkpt lat="58.058315" lon="38.851697"><ele>108.6</ele><time>2024-04-23T16:27:38Z</time></trkpt><trkpt lat="58.058387" lon="38.851805"><ele>107.1</ele><time>2024-04-23T16:27:41Z</time></trkpt><trkpt lat="58.058463" lon="38.851927"><ele>107.3</ele><time>2024-04-23T16:27:44Z</time></trkpt><trkpt lat="58.058555" lon="38.85204"><ele>108.6</ele><time>2024-04-23T16:27:47Z</time></trkpt><trkpt lat="58.05864" lon="38.852155"><ele>108.6</ele><time>2024-04-23T16:27:50Z</time></trkpt><trkpt lat="58.0587" lon="38.85225"><ele>109.2</ele><time>2024-04-23T16:27:52Z</time></trkpt><trkpt lat="58.05875" lon="38.852355"><ele>108.1</ele><time>2024-04-23T16:27:54Z</time></trkpt><trkpt lat="58.0588" lon="38.85246"><ele>107.0</ele><time>2024-04-23T16:27:56Z</time></trkpt><trkpt lat="58.058855" lon="38.852555"><ele>107.3</ele><time>2024-04-23T16:27:58Z</time></trkpt><trkpt lat="58.058935" lon="38.852665"><ele>107.9</ele><time>2024-04-23T16:28:01Z</time></trkpt><trkpt lat="58.058967" lon="38.8528"><ele>108.4</ele><time>2024-04-23T16:28:04Z</time></trkpt><trkpt lat="58.058905" lon="38.85293"><ele>108.0</ele><time>2024-04-23T16:28:07Z</time></trkpt><trkpt lat="58.058842" lon="38.85303"><ele>108.5</ele><time>2024-04-23T16:28:09Z</time></trkpt><trkpt lat="58.05878" lon="38.85311"><ele>108.5</ele><time>2024-04-23T16:28:11Z</time></trkpt><trkpt lat="58.058715" lon="38.853215"><ele>109.2</ele><time>2024-04-23T16:28:13Z</time></trkpt><trkpt lat="58.058645" lon="38.853315"><ele>108.8</ele><time>2024-04-23T16:28:15Z</time></trkpt><trkpt lat="58.058577" lon="38.853412"><ele>109.4</ele><time>2024-04-23T16:28:17Z</time></trkpt><trkpt lat="58.058505" lon="38.853512"><ele>109.9</ele><time>2024-04-23T16:28:19Z</time></trkpt><trkpt lat="58.058425" lon="38.853625"><ele>108.6</ele><time>2024-04-23T16:28:21Z</time></trkpt><trkpt lat="58.058345" lon="38.853722"><ele>107.6</ele><time>2024-04-23T16:28:23Z</time></trkpt><trkpt lat="58.058265" lon="38.853822"><ele>105.9</ele><time>2024-04-23T16:28:25Z</time></trkpt><trkpt lat="58.058187" lon="38.85392"><ele>106.0</ele><time>2024-04-23T16:28:27Z</time></trkpt><trkpt lat="58.05811" lon="38.854025"><ele>105.2</ele><time>2024-04-23T16:28:29Z</time></trkpt><trkpt lat="58.058035" lon="38.85413"><ele>105.8</ele><time>2024-04-23T16:28:31Z</time></trkpt><trkpt lat="58.057955" lon="38.85424"><ele>105.6</ele><time>2024-04-23T16:28:33Z</time></trkpt><trkpt lat="58.05789" lon="38.854335"><ele>106.9</ele><time>2024-04-23T16:28:35Z</time></trkpt><trkpt lat="58.05781" lon="38.85445"><ele>107.4</ele><time>2024-04-23T16:28:37Z</time></trkpt><trkpt lat="58.05773" lon="38.854565"><ele>107.6</ele><time>2024-04-23T16:28:39Z</time></trkpt><trkpt lat="58.057655" lon="38.85467"><ele>107.1</ele><time>2024-04-23T16:28:41Z</time></trkpt><trkpt lat="58.057582" lon="38.854775"><ele>107.1</ele><time>2024-04-23T16:28:43Z</time></trkpt><trkpt lat="58.057512" lon="38.854868"><ele>107.5</ele><time>2024-04-23T16:28:45Z</time></trkpt><trkpt lat="58.057442" lon="38.854965"><ele>106.6</ele><time>2024-04-23T16:28:47Z</time></trkpt><trkpt lat="58.05738" lon="38.855057"><ele>105.6</ele><time>2024-04-23T16:28:49Z</time></trkpt><trkpt lat="58.05731" lon="38.85514"><ele>104.4</ele><time>2024-04-23T16:28:51Z</time></trkpt><trkpt lat="58.057235" lon="38.85526"><ele>105.0</ele><time>2024-04-23T16:28:54Z</time></trkpt><trkpt lat="58.057162" lon="38.855355"><ele>105.5</ele><time>2024-04-23T16:28:57Z</time></trkpt><trkpt lat="58.057085" lon="38.855473"><ele>106.3</ele><time>2024-04-23T16:29:00Z</time></trkpt><trkpt lat="58.057015" lon="38.85557"><ele>105.4</ele><time>2024-04-23T16:29:02Z</time></trkpt><trkpt lat="58.056945" lon="38.855662"><ele>106.3</ele><time>2024-04-23T16:29:04Z</time></trkpt><trkpt lat="58.05687" lon="38.85577"><ele>106.8</ele><time>2024-04-23T16:29:06Z</time></trkpt><trkpt lat="58.05679" lon="38.85588"><ele>106.5</ele><time>2024-04-23T16:29:08Z</time></trkpt><trkpt lat="58.05671" lon="38.855985"><ele>106.3</ele><time>2024-04-23T16:29:10Z</time></trkpt><trkpt lat="58.05663" lon="38.85609"><ele>107.1</ele><time>2024-04-23T16:29:12Z</time></trkpt><trkpt lat="58.05654" lon="38.856215"><ele>106.9</ele><time>2024-04-23T16:29:14Z</time></trkpt><trkpt lat="58.056455" lon="38.85634"><ele>106.2</ele><time>2024-04-23T16:29:16Z</time></trkpt><trkpt lat="58.05638" lon="38.856457"><ele>106.5</ele><time>2024-04-23T16:29:18Z</time></trkpt><trkpt lat="58.056307" lon="38.85657"><ele>107.1</ele><time>2024-04-23T16:29:20Z</time></trkpt><trkpt lat="58.05622" lon="38.856667"><ele>106.6</ele><time>2024-04-23T16:29:22Z</time></trkpt><trkpt lat="58.05614" lon="38.856775"><ele>107.1</ele><time>2024-04-23T16:29:24Z</time></trkpt><trkpt lat="58.05607" lon="38.856895"><ele>106.8</ele><time>2024-04-23T16:29:26Z</time></trkpt><trkpt lat="58.056015" lon="38.856997"><ele>107.8</ele><time>2024-04-23T16:29:28Z</time></trkpt><trkpt lat="58.055955" lon="38.857115"><ele>108.3</ele><time>2024-04-23T16:29:30Z</time></trkpt><trkpt lat="58.055887" lon="38.85724"><ele>108.6</ele><time>2024-04-23T16:29:32Z</time></trkpt><trkpt lat="58.055833" lon="38.857365"><ele>108.8</ele><time>2024-04-23T16:29:34Z</time></trkpt><trkpt lat="58.055787" lon="38.85752"><ele>109.5</ele><time>2024-04-23T16:29:36Z</time></trkpt><trkpt lat="58.055735" lon="38.85767"><ele>107.1</ele><time>2024-04-23T16:29:38Z</time></trkpt><trkpt lat="58.05569" lon="38.857795"><ele>106.3</ele><time>2024-04-23T16:29:40Z</time></trkpt><trkpt lat="58.055655" lon="38.857932"><ele>105.8</ele><time>2024-04-23T16:29:42Z</time></trkpt><trkpt lat="58.055607" lon="38.858075"><ele>105.5</ele><time>2024-04-23T16:29:44Z</time></trkpt><trkpt lat="58.05556" lon="38.858218"><ele>105.5</ele><time>2024-04-23T16:29:46Z</time></trkpt><trkpt lat="58.055515" lon="38.858385"><ele>105.8</ele><time>2024-04-23T16:29:48Z</time></trkpt><trkpt lat="58.05547" lon="38.85853"><ele>106.0</ele><time>2024-04-23T16:29:50Z</time></trkpt><trkpt lat="58.05543" lon="38.858675"><ele>105.4</ele><time>2024-04-23T16:29:52Z</time></trkpt><trkpt lat="58.05541" lon="38.85882"><ele>105.8</ele><time>2024-04-23T16:29:54Z</time></trkpt><trkpt lat="58.055382" lon="38.858955"><ele>107.0</ele><time>2024-04-23T16:29:56Z</time></trkpt><trkpt lat="58.055355" lon="38.85909"><ele>105.8</ele><time>2024-04-23T16:29:58Z</time></trkpt><trkpt lat="58.05533" lon="38.859227"><ele>106.2</ele><time>2024-04-23T16:30:00Z</time></trkpt><trkpt lat="58.0553" lon="38.859365"><ele>105.7</ele><time>2024-04-23T16:30:02Z</time></trkpt><trkpt lat="58.055287" lon="38.859498"><ele>106.7</ele><time>2024-04-23T16:30:04Z</time></trkpt><trkpt lat="58.055267" lon="38.859637"><ele>106.7</ele><time>2024-04-23T16:30:06Z</time></trkpt><trkpt lat="58.055235" lon="38.859785"><ele>106.3</ele><time>2024-04-23T16:30:08Z</time></trkpt><trkpt lat="58.055205" lon="38.859935"><ele>105.9</ele><time>2024-04-23T16:30:10Z</time></trkpt><trkpt lat="58.05518" lon="38.86009"><ele>106.2</ele><time>2024-04-23T16:30:12Z</time></trkpt><trkpt lat="58.055155" lon="38.86023"><ele>107.2</ele><time>2024-04-23T16:30:14Z</time></trkpt><trkpt lat="58.055122" lon="38.860425"><ele>106.9</ele><time>2024-04-23T16:30:17Z</time></trkpt><trkpt lat="58.055095" lon="38.860553"><ele>107.1</ele><time>2024-04-23T16:30:19Z</time></trkpt><trkpt lat="58.05507" lon="38.860695"><ele>107.2</ele><time>2024-04-23T16:30:21Z</time></trkpt><trkpt lat="58.055053" lon="38.860885"><ele>107.6</ele><time>2024-04-23T16:30:24Z</time></trkpt><trkpt lat="58.055062" lon="38.861035"><ele>107.3</ele><time>2024-04-23T16:30:26Z</time></trkpt><trkpt lat="58.05505" lon="38.86117"><ele>106.9</ele><time>2024-04-23T16:30:28Z</time></trkpt><trkpt lat="58.05502" lon="38.861297"><ele>106.8</ele><time>2024-04-23T16:30:30Z</time></trkpt><trkpt lat="58.05498" lon="38.861467"><ele>107.3</ele><time>2024-04-23T16:30:33Z</time></trkpt><trkpt lat="58.054955" lon="38.861612"><ele>106.6</ele><time>2024-04-23T16:30:36Z</time></trkpt><trkpt lat="58.05493" lon="38.861755"><ele>106.8</ele><time>2024-04-23T16:30:39Z</time></trkpt><trkpt lat="58.054903" lon="38.861905"><ele>107.1</ele><time>2024-04-23T16:30:42Z</time></trkpt><trkpt lat="58.054895" lon="38.86207"><ele>106.6</ele><time>2024-04-23T16:30:45Z</time></trkpt><trkpt lat="58.054903" lon="38.862217"><ele>104.2</ele><time>2024-04-23T16:30:48Z</time></trkpt><trkpt lat="58.054922" lon="38.86238"><ele>104.7</ele><time>2024-04-23T16:30:53Z</time></trkpt><trkpt lat="58.054925" lon="38.86257"><ele>104.7</ele><time>2024-04-23T16:30:56Z</time></trkpt><trkpt lat="58.054988" lon="38.862685"><ele>104.9</ele><time>2024-04-23T16:30:58Z</time></trkpt><trkpt lat="58.055058" lon="38.862797"><ele>105.2</ele><time>2024-04-23T16:31:00Z</time></trkpt><trkpt lat="58.055128" lon="38.86294"><ele>105.4</ele><time>2024-04-23T16:31:02Z</time></trkpt><trkpt lat="58.055213" lon="38.863105"><ele>105.9</ele><time>2024-04-23T16:31:04Z</time></trkpt><trkpt lat="58.05531" lon="38.863297"><ele>106.6</ele><time>2024-04-23T16:31:06Z</time></trkpt><trkpt lat="58.055395" lon="38.863505"><ele>107.2</ele><time>2024-04-23T16:31:08Z</time></trkpt><trkpt lat="58.05549" lon="38.86368"><ele>108.0</ele><time>2024-04-23T16:31:10Z</time></trkpt><trkpt lat="58.05558" lon="38.863835"><ele>108.5</ele><time>2024-04-23T16:31:12Z</time></trkpt><trkpt lat="58.055657" lon="38.864012"><ele>108.2</ele><time>2024-04-23T16:31:14Z</time></trkpt><trkpt lat="58.055717" lon="38.864212"><ele>108.7</ele><time>2024-04-23T16:31:16Z</time></trkpt><trkpt lat="58.05574" lon="38.864415"><ele>108.4</ele><time>2024-04-23T16:31:18Z</time></trkpt><trkpt lat="58.055715" lon="38.8646"><ele>107.1</ele><time>2024-04-23T16:31:20Z</time></trkpt><trkpt lat="58.055647" lon="38.86475"><ele>106.0</ele><time>2024-04-23T16:31:22Z</time></trkpt><trkpt lat="58.05556" lon="38.864795"><ele>106.5</ele><time>2024-04-23T16:31:24Z</time></trkpt><trkpt lat="58.05546" lon="38.86475"><ele>106.9</ele><time>2024-04-23T16:31:26Z</time></trkpt><trkpt lat="58.05536" lon="38.864672"><ele>106.9</ele><time>2024-04-23T16:31:28Z</time></trkpt><trkpt lat="58.05526" lon="38.86461"><ele>107.7</ele><time>2024-04-23T16:31:30Z</time></trkpt><trkpt lat="58.05517" lon="38.864555"><ele>107.2</ele><time>2024-04-23T16:31:32Z</time></trkpt><trkpt lat="58.055092" lon="38.864505"><ele>108.1</ele><time>2024-04-23T16:31:34Z</time></trkpt><trkpt lat="58.05501" lon="38.864427"><ele>108.7</ele><time>2024-04-23T16:31:36Z</time></trkpt><trkpt lat="58.054937" lon="38.86438"><ele>109.0</ele><time>2024-04-23T16:31:38Z</time></trkpt><trkpt lat="58.054875" lon="38.86434"><ele>108.8</ele><time>2024-04-23T16:31:45Z</time></trkpt><trkpt lat="58.054875" lon="38.864335"><ele>109.4</ele><time>2024-04-23T16:31:48Z</time></trkpt><trkpt lat="58.05478" lon="38.864292"><ele>109.4</ele><time>2024-04-23T16:32:17Z</time></trkpt><trkpt lat="58.054695" lon="38.864225"><ele>109.2</ele><time>2024-04-23T16:32:20Z</time></trkpt><trkpt lat="58.054603" lon="38.86418"><ele>109.5</ele><time>2024-04-23T16:32:23Z</time></trkpt><trkpt lat="58.054502" lon="38.86411"><ele>109.6</ele><time>2024-04-23T16:32:26Z</time></trkpt><trkpt lat="58.054425" lon="38.864055"><ele>109.9</ele><time>2024-04-23T16:32:28Z</time></trkpt><trkpt lat="58.054345" lon="38.864005"><ele>110.7</ele><time>2024-04-23T16:32:30Z</time></trkpt><trkpt lat="58.05426" lon="38.86395"><ele>110.9</ele><time>2024-04-23T16:32:32Z</time></trkpt><trkpt lat="58.054175" lon="38.863895"><ele>112.2</ele><time>2024-04-23T16:32:34Z</time></trkpt><trkpt lat="58.0541" lon="38.86384"><ele>112.3</ele><time>2024-04-23T16:32:36Z</time></trkpt><trkpt lat="58.054022" lon="38.86379"><ele>112.8</ele><time>2024-04-23T16:32:38Z</time></trkpt><trkpt lat="58.053942" lon="38.863742"><ele>112.7</ele><time>2024-04-23T16:32:40Z</time></trkpt><trkpt lat="58.053863" lon="38.86369"><ele>112.0</ele><time>2024-04-23T16:32:42Z</time></trkpt><trkpt lat="58.053778" lon="38.863645"><ele>112.3</ele><time>2024-04-23T16:32:44Z</time></trkpt><trkpt lat="58.053705" lon="38.863588"><ele>112.4</ele><time>2024-04-23T16:32:46Z</time></trkpt><trkpt lat="58.05363" lon="38.863535"><ele>112.8</ele><time>2024-04-23T16:32:48Z</time></trkpt><trkpt lat="58.053552" lon="38.863477"><ele>113.2</ele><time>2024-04-23T16:32:50Z</time></trkpt><trkpt lat="58.053475" lon="38.863425"><ele>113.3</ele><time>2024-04-23T16:32:52Z</time></trkpt><trkpt lat="58.053393" lon="38.86338"><ele>113.4</ele><time>2024-04-23T16:32:54Z</time></trkpt><trkpt lat="58.0533" lon="38.863325"><ele>113.7</ele><time>2024-04-23T16:32:57Z</time></trkpt><trkpt lat="58.053237" lon="38.863277"><ele>114.6</ele><time>2024-04-23T16:33:04Z</time></trkpt><trkpt lat="58.053235" lon="38.86327"><ele>114.7</ele><time>2024-04-23T16:33:07Z</time></trkpt><trkpt lat="58.053145" lon="38.86322"><ele>114.9</ele><time>2024-04-23T16:33:12Z</time></trkpt><trkpt lat="58.053045" lon="38.86315"><ele>115.0</ele><time>2024-04-23T16:33:15Z</time></trkpt><trkpt lat="58.05296" lon="38.863095"><ele>114.5</ele><time>2024-04-23T16:33:17Z</time></trkpt><trkpt lat="58.05285" lon="38.863025"><ele>114.6</ele><time>2024-04-23T16:33:19Z</time></trkpt><trkpt lat="58.052732" lon="38.862955"><ele>115.3</ele><time>2024-04-23T16:33:21Z</time></trkpt><trkpt lat="58.052638" lon="38.862885"><ele>115.5</ele><time>2024-04-23T16:33:23Z</time></trkpt><trkpt lat="58.052552" lon="38.862827"><ele>115.5</ele><time>2024-04-23T16:33:25Z</time></trkpt><trkpt lat="58.05247" lon="38.862785"><ele>115.4</ele><time>2024-04-23T16:33:27Z</time></trkpt><trkpt lat="58.05239" lon="38.86274"><ele>115.9</ele><time>2024-04-23T16:33:29Z</time></trkpt><trkpt lat="58.052307" lon="38.862677"><ele>116.4</ele><time>2024-04-23T16:33:31Z</time></trkpt><trkpt lat="58.05223" lon="38.862625"><ele>116.4</ele><time>2024-04-23T16:33:33Z</time></trkpt><trkpt lat="58.05215" lon="38.862567"><ele>116.5</ele><time>2024-04-23T16:33:35Z</time></trkpt><trkpt lat="58.052075" lon="38.86252"><ele>116.5</ele><time>2024-04-23T16:33:37Z</time></trkpt><trkpt lat="58.052" lon="38.862475"><ele>116.7</ele><time>2024-04-23T16:33:39Z</time></trkpt><trkpt lat="58.051925" lon="38.862425"><ele>116.8</ele><time>2024-04-23T16:33:41Z</time></trkpt><trkpt lat="58.05185" lon="38.862355"><ele>116.5</ele><time>2024-04-23T16:33:43Z</time></trkpt><trkpt lat="58.05177" lon="38.862305"><ele>116.1</ele><time>2024-04-23T16:33:45Z</time></trkpt><trkpt lat="58.05169" lon="38.862252"><ele>116.3</ele><time>2024-04-23T16:33:47Z</time></trkpt><trkpt lat="58.051617" lon="38.8622"><ele>116.7</ele><time>2024-04-23T16:33:49Z</time></trkpt><trkpt lat="58.05153" lon="38.862135"><ele>117.4</ele><time>2024-04-23T16:33:52Z</time></trkpt><trkpt lat="58.051435" lon="38.862072"><ele>118.0</ele><time>2024-04-23T16:33:55Z</time></trkpt><trkpt lat="58.05137" lon="38.862025"><ele>117.6</ele><time>2024-04-23T16:33:57Z</time></trkpt><trkpt lat="58.051295" lon="38.861975"><ele>117.8</ele><time>2024-04-23T16:33:59Z</time></trkpt><trkpt lat="58.051202" lon="38.861925"><ele>117.8</ele><time>2024-04-23T16:34:02Z</time></trkpt><trkpt lat="58.051122" lon="38.86186"><ele>117.4</ele><time>2024-04-23T16:34:05Z</time></trkpt><trkpt lat="58.051048" lon="38.861815"><ele>117.1</ele><time>2024-04-23T16:34:07Z</time></trkpt><trkpt lat="58.050972" lon="38.86177"><ele>117.5</ele><time>2024-04-23T16:34:09Z</time></trkpt><trkpt lat="58.05088" lon="38.861705"><ele>117.6</ele><time>2024-04-23T16:34:12Z</time></trkpt><trkpt lat="58.050795" lon="38.86165"><ele>117.0</ele><time>2024-04-23T16:34:15Z</time></trkpt><trkpt lat="58.050725" lon="38.861615"><ele>116.8</ele><time>2024-04-23T16:34:18Z</time></trkpt><trkpt lat="58.05065" lon="38.861585"><ele>117.1</ele><time>2024-04-23T16:34:21Z</time></trkpt><trkpt lat="58.05057" lon="38.861507"><ele>117.3</ele><time>2024-04-23T16:34:24Z</time></trkpt><trkpt lat="58.0505" lon="38.86145"><ele>117.1</ele><time>2024-04-23T16:34:27Z</time></trkpt><trkpt lat="58.050415" lon="38.86141"><ele>118.4</ele><time>2024-04-23T16:34:31Z</time></trkpt><trkpt lat="58.050325" lon="38.86134"><ele>117.8</ele><time>2024-04-23T16:34:35Z</time></trkpt><trkpt lat="58.05025" lon="38.86131"><ele>118.5</ele><time>2024-04-23T16:34:38Z</time></trkpt><trkpt lat="58.050165" lon="38.861235"><ele>118.5</ele><time>2024-04-23T16:34:42Z</time></trkpt><trkpt lat="58.050095" lon="38.86118"><ele>118.2</ele><time>2024-04-23T16:34:44Z</time></trkpt><trkpt lat="58.050015" lon="38.861145"><ele>118.7</ele><time>2024-04-23T16:34:46Z</time></trkpt><trkpt lat="58.049945" lon="38.8611"><ele>118.6</ele><time>2024-04-23T16:34:48Z</time></trkpt><trkpt lat="58.049865" lon="38.86103"><ele>118.1</ele><time>2024-04-23T16:34:50Z</time></trkpt><trkpt lat="58.049775" lon="38.860965"><ele>118.9</ele><time>2024-04-23T16:34:52Z</time></trkpt><trkpt lat="58.0497" lon="38.860915"><ele>118.7</ele><time>2024-04-23T16:34:54Z</time></trkpt><trkpt lat="58.049605" lon="38.860855"><ele>119.5</ele><time>2024-04-23T16:34:57Z</time></trkpt><trkpt lat="58.049505" lon="38.860805"><ele>118.6</ele><time>2024-04-23T16:34:59Z</time></trkpt><trkpt lat="58.049387" lon="38.86072"><ele>117.8</ele><time>2024-04-23T16:35:01Z</time></trkpt><trkpt lat="58.04927" lon="38.860633"><ele>117.1</ele><time>2024-04-23T16:35:03Z</time></trkpt><trkpt lat="58.049152" lon="38.86055"><ele>116.5</ele><time>2024-04-23T16:35:05Z</time></trkpt><trkpt lat="58.049035" lon="38.860477"><ele>116.2</ele><time>2024-04-23T16:35:07Z</time></trkpt><trkpt lat="58.048918" lon="38.860415"><ele>115.5</ele><time>2024-04-23T16:35:09Z</time></trkpt><trkpt lat="58.048805" lon="38.860335"><ele>115.1</ele><time>2024-04-23T16:35:11Z</time></trkpt><trkpt lat="58.048705" lon="38.86027"><ele>115.2</ele><time>2024-04-23T16:35:13Z</time></trkpt><trkpt lat="58.048622" lon="38.86023"><ele>115.2</ele><time>2024-04-23T16:35:15Z</time></trkpt><trkpt lat="58.048525" lon="38.86015"><ele>114.9</ele><time>2024-04-23T16:35:17Z</time></trkpt><trkpt lat="58.048425" lon="38.86009"><ele>114.3</ele><time>2024-04-23T16:35:19Z</time></trkpt><trkpt lat="58.048345" lon="38.860045"><ele>113.7</ele><time>2024-04-23T16:35:21Z</time></trkpt><trkpt lat="58.048245" lon="38.859963"><ele>113.4</ele><time>2024-04-23T16:35:23Z</time></trkpt><trkpt lat="58.048135" lon="38.859872"><ele>112.5</ele><time>2024-04-23T16:35:25Z</time></trkpt><trkpt lat="58.048025" lon="38.85978"><ele>111.4</ele><time>2024-04-23T16:35:27Z</time></trkpt><trkpt lat="58.047938" lon="38.85958"><ele>111.5</ele><time>2024-04-23T16:35:29Z</time></trkpt><trkpt lat="58.047927" lon="38.859357"><ele>111.3</ele><time>2024-04-23T16:35:31Z</time></trkpt><trkpt lat="58.04796" lon="38.859157"><ele>111.3</ele><time>2024-04-23T16:35:33Z</time></trkpt><trkpt lat="58.047995" lon="38.858977"><ele>111.6</ele><time>2024-04-23T16:35:35Z</time></trkpt><trkpt lat="58.04803" lon="38.858808"><ele>111.5</ele><time>2024-04-23T16:35:37Z</time></trkpt><trkpt lat="58.04807" lon="38.85869"><ele>111.6</ele><time>2024-04-23T16:35:39Z</time></trkpt><trkpt lat="58.048105" lon="38.85856"><ele>111.8</ele><time>2024-04-23T16:35:41Z</time></trkpt><trkpt lat="58.048135" lon="38.858425"><ele>111.7</ele><time>2024-04-23T16:35:43Z</time></trkpt><trkpt lat="58.04817" lon="38.858227"><ele>111.7</ele><time>2024-04-23T16:35:46Z</time></trkpt><trkpt lat="58.048185" lon="38.858085"><ele>111.3</ele><time>2024-04-23T16:35:48Z</time></trkpt><trkpt lat="58.0482" lon="38.857895"><ele>111.8</ele><time>2024-04-23T16:35:51Z</time></trkpt><trkpt lat="58.04822" lon="38.85773"><ele>113.5</ele><time>2024-04-23T16:35:54Z</time></trkpt><trkpt lat="58.04826" lon="38.857615"><ele>111.2</ele><time>2024-04-23T16:35:58Z</time></trkpt><trkpt lat="58.048275" lon="38.857442"><ele>110.2</ele><time>2024-04-23T16:36:03Z</time></trkpt><trkpt lat="58.048285" lon="38.857265"><ele>110.4</ele><time>2024-04-23T16:36:06Z</time></trkpt><trkpt lat="58.048275" lon="38.857105"><ele>109.7</ele><time>2024-04-23T16:36:09Z</time></trkpt><trkpt lat="58.048305" lon="38.85698"><ele>110.7</ele><time>2024-04-23T16:36:11Z</time></trkpt><trkpt lat="58.04833" lon="38.85685"><ele>111.8</ele><time>2024-04-23T16:36:13Z</time></trkpt><trkpt lat="58.04836" lon="38.85671"><ele>111.4</ele><time>2024-04-23T16:36:15Z</time></trkpt><trkpt lat="58.048395" lon="38.856538"><ele>112.2</ele><time>2024-04-23T16:36:18Z</time></trkpt><trkpt lat="58.04842" lon="38.856385"><ele>114.2</ele><time>2024-04-23T16:36:21Z</time></trkpt><trkpt lat="58.048425" lon="38.85623"><ele>114.6</ele><time>2024-04-23T16:36:23Z</time></trkpt><trkpt lat="58.04844" lon="38.85609"><ele>114.9</ele><time>2024-04-23T16:36:25Z</time></trkpt><trkpt lat="58.048445" lon="38.855922"><ele>114.3</ele><time>2024-04-23T16:36:27Z</time></trkpt><trkpt lat="58.048485" lon="38.85577"><ele>114.1</ele><time>2024-04-23T16:36:29Z</time></trkpt><trkpt lat="58.04853" lon="38.855575"><ele>113.3</ele><time>2024-04-23T16:36:31Z</time></trkpt><trkpt lat="58.04856" lon="38.855417"><ele>112.7</ele><time>2024-04-23T16:36:33Z</time></trkpt><trkpt lat="58.0486" lon="38.855247"><ele>112.6</ele><time>2024-04-23T16:36:35Z</time></trkpt><trkpt lat="58.048627" lon="38.855075"><ele>113.5</ele><time>2024-04-23T16:36:37Z</time></trkpt><trkpt lat="58.048652" lon="38.854905"><ele>114.2</ele><time>2024-04-23T16:36:39Z</time></trkpt><trkpt lat="58.04869" lon="38.85472"><ele>114.6</ele><time>2024-04-23T16:36:42Z</time></trkpt><trkpt lat="58.048705" lon="38.85457"><ele>115.5</ele><time>2024-04-23T16:36:44Z</time></trkpt><trkpt lat="58.048727" lon="38.8544"><ele>115.5</ele><time>2024-04-23T16:36:46Z</time></trkpt><trkpt lat="58.048755" lon="38.854247"><ele>115.6</ele><time>2024-04-23T16:36:48Z</time></trkpt><trkpt lat="58.048765" lon="38.854112"><ele>115.8</ele><time>2024-04-23T16:36:50Z</time></trkpt><trkpt lat="58.048795" lon="38.85394"><ele>115.9</ele><time>2024-04-23T16:36:53Z</time></trkpt><trkpt lat="58.048817" lon="38.853805"><ele>116.3</ele><time>2024-04-23T16:36:55Z</time></trkpt><trkpt lat="58.048838" lon="38.853655"><ele>116.5</ele><time>2024-04-23T16:36:57Z</time></trkpt><trkpt lat="58.04887" lon="38.853475"><ele>119.0</ele><time>2024-04-23T16:36:59Z</time></trkpt><trkpt lat="58.048905" lon="38.85332"><ele>119.5</ele><time>2024-04-23T16:37:01Z</time></trkpt><trkpt lat="58.04893" lon="38.853195"><ele>119.8</ele><time>2024-04-23T16:37:03Z</time></trkpt><trkpt lat="58.04897" lon="38.853015"><ele>120.4</ele><time>2024-04-23T16:37:06Z</time></trkpt><trkpt lat="58.048997" lon="38.852825"><ele>120.9</ele><time>2024-04-23T16:37:09Z</time></trkpt><trkpt lat="58.049037" lon="38.852707"><ele>118.1</ele><time>2024-04-23T16:37:12Z</time></trkpt><trkpt lat="58.049117" lon="38.852727"><ele>112.6</ele><time>2024-04-23T16:37:17Z</time></trkpt><trkpt lat="58.049175" lon="38.85261"><ele>113.0</ele><time>2024-04-23T16:37:23Z</time></trkpt><trkpt lat="58.049175" lon="38.85246"><ele>112.5</ele><time>2024-04-23T16:37:26Z</time></trkpt><trkpt lat="58.049165" lon="38.85228"><ele>111.5</ele><time>2024-04-23T16:37:29Z</time></trkpt><trkpt lat="58.049185" lon="38.8521"><ele>110.5</ele><time>2024-04-23T16:37:32Z</time></trkpt><trkpt lat="58.049205" lon="38.8519"><ele>109.9</ele><time>2024-04-23T16:37:35Z</time></trkpt><trkpt lat="58.04923" lon="38.851773"><ele>110.0</ele><time>2024-04-23T16:37:37Z</time></trkpt><trkpt lat="58.049265" lon="38.851622"><ele>110.7</ele><time>2024-04-23T16:37:40Z</time></trkpt><trkpt lat="58.049295" lon="38.85148"><ele>110.4</ele><time>2024-04-23T16:37:43Z</time></trkpt><trkpt lat="58.049325" lon="38.85133"><ele>110.0</ele><time>2024-04-23T16:37:46Z</time></trkpt><trkpt lat="58.04936" lon="38.851145"><ele>109.4</ele><time>2024-04-23T16:37:49Z</time></trkpt><trkpt lat="58.049382" lon="38.850995"><ele>109.6</ele><time>2024-04-23T16:37:51Z</time></trkpt><trkpt lat="58.04941" lon="38.850842"><ele>108.8</ele><time>2024-04-23T16:37:53Z</time></trkpt><trkpt lat="58.049425" lon="38.850657"><ele>111.7</ele><time>2024-04-23T16:37:55Z</time></trkpt><trkpt lat="58.049455" lon="38.85047"><ele>113.6</ele><time>2024-04-23T16:37:57Z</time></trkpt><trkpt lat="58.04949" lon="38.8503"><ele>114.2</ele><time>2024-04-23T16:37:59Z</time></trkpt><trkpt lat="58.04956" lon="38.850145"><ele>109.7</ele><time>2024-04-23T16:38:01Z</time></trkpt><trkpt lat="58.049595" lon="38.849985"><ele>110.0</ele><time>2024-04-23T16:38:03Z</time></trkpt><trkpt lat="58.049612" lon="38.849835"><ele>109.5</ele><time>2024-04-23T16:38:05Z</time></trkpt><trkpt lat="58.04963" lon="38.84968"><ele>109.3</ele><time>2024-04-23T16:38:07Z</time></trkpt><trkpt lat="58.049655" lon="38.849525"><ele>108.8</ele><time>2024-04-23T16:38:09Z</time></trkpt><trkpt lat="58.049675" lon="38.849375"><ele>108.6</ele><time>2024-04-23T16:38:11Z</time></trkpt><trkpt lat="58.0497" lon="38.849225"><ele>109.2</ele><time>2024-04-23T16:38:13Z</time></trkpt><trkpt lat="58.049725" lon="38.849085"><ele>109.2</ele><time>2024-04-23T16:38:15Z</time></trkpt><trkpt lat="58.049752" lon="38.84895"><ele>109.5</ele><time>2024-04-23T16:38:17Z</time></trkpt><trkpt lat="58.049785" lon="38.848815"><ele>110.0</ele><time>2024-04-23T16:38:19Z</time></trkpt><trkpt lat="58.049815" lon="38.848672"><ele>110.5</ele><time>2024-04-23T16:38:21Z</time></trkpt><trkpt lat="58.049837" lon="38.848522"><ele>110.6</ele><time>2024-04-23T16:38:23Z</time></trkpt><trkpt lat="58.049857" lon="38.848367"><ele>111.3</ele><time>2024-04-23T16:38:25Z</time></trkpt><trkpt lat="58.04988" lon="38.848225"><ele>111.6</ele><time>2024-04-23T16:38:28Z</time></trkpt><trkpt lat="58.04994" lon="38.848058"><ele>107.8</ele><time>2024-04-23T16:38:31Z</time></trkpt><trkpt lat="58.049977" lon="38.847902"><ele>108.6</ele><time>2024-04-23T16:38:33Z</time></trkpt><trkpt lat="58.049992" lon="38.847748"><ele>109.5</ele><time>2024-04-23T16:38:35Z</time></trkpt><trkpt lat="58.050025" lon="38.847585"><ele>109.5</ele><time>2024-04-23T16:38:37Z</time></trkpt><trkpt lat="58.05006" lon="38.847425"><ele>108.3</ele><time>2024-04-23T16:38:39Z</time></trkpt><trkpt lat="58.05008" lon="38.847265"><ele>108.3</ele><time>2024-04-23T16:38:41Z</time></trkpt><trkpt lat="58.05012" lon="38.847125"><ele>109.5</ele><time>2024-04-23T16:38:43Z</time></trkpt><trkpt lat="58.050145" lon="38.846975"><ele>110.0</ele><time>2024-04-23T16:38:45Z</time></trkpt><trkpt lat="58.050167" lon="38.846835"><ele>110.8</ele><time>2024-04-23T16:38:47Z</time></trkpt><trkpt lat="58.050195" lon="38.846697"><ele>110.7</ele><time>2024-04-23T16:38:49Z</time></trkpt><trkpt lat="58.050213" lon="38.84656"><ele>111.5</ele><time>2024-04-23T16:38:51Z</time></trkpt><trkpt lat="58.05025" lon="38.846435"><ele>109.2</ele><time>2024-04-23T16:38:53Z</time></trkpt><trkpt lat="58.050275" lon="38.846262"><ele>109.4</ele><time>2024-04-23T16:38:56Z</time></trkpt><trkpt lat="58.050295" lon="38.846122"><ele>110.4</ele><time>2024-04-23T16:38:59Z</time></trkpt><trkpt lat="58.050315" lon="38.846085"><ele>109.3</ele><time>2024-04-23T16:39:06Z</time></trkpt><trkpt lat="58.050315" lon="38.846085"><ele>109.4</ele><time>2024-04-23T16:39:07Z</time></trkpt><trkpt lat="58.05034" lon="38.845932"><ele>106.7</ele><time>2024-04-23T16:39:19Z</time></trkpt><trkpt lat="58.050365" lon="38.8458"><ele>106.9</ele><time>2024-04-23T16:39:21Z</time></trkpt><trkpt lat="58.050382" lon="38.845655"><ele>105.5</ele><time>2024-04-23T16:39:23Z</time></trkpt><trkpt lat="58.050412" lon="38.845455"><ele>106.9</ele><time>2024-04-23T16:39:25Z</time></trkpt><trkpt lat="58.05045" lon="38.845242"><ele>108.1</ele><time>2024-04-23T16:39:27Z</time></trkpt><trkpt lat="58.05049" lon="38.845033"><ele>108.6</ele><time>2024-04-23T16:39:29Z</time></trkpt><trkpt lat="58.050525" lon="38.844825"><ele>108.4</ele><time>2024-04-23T16:39:32Z</time></trkpt><trkpt lat="58.05056" lon="38.844695"><ele>109.0</ele><time>2024-04-23T16:39:34Z</time></trkpt><trkpt lat="58.05059" lon="38.84451"><ele>109.8</ele><time>2024-04-23T16:39:37Z</time></trkpt><trkpt lat="58.050615" lon="38.844335"><ele>110.0</ele><time>2024-04-23T16:39:39Z</time></trkpt><trkpt lat="58.05063" lon="38.844165"><ele>111.2</ele><time>2024-04-23T16:39:41Z</time></trkpt><trkpt lat="58.050667" lon="38.84403"><ele>111.1</ele><time>2024-04-23T16:39:43Z</time></trkpt><trkpt lat="58.05071" lon="38.84385"><ele>110.3</ele><time>2024-04-23T16:39:45Z</time></trkpt><trkpt lat="58.050752" lon="38.843645"><ele>109.1</ele><time>2024-04-23T16:39:47Z</time></trkpt><trkpt lat="58.050785" lon="38.843447"><ele>108.9</ele><time>2024-04-23T16:39:49Z</time></trkpt><trkpt lat="58.050818" lon="38.843252"><ele>108.6</ele><time>2024-04-23T16:39:51Z</time></trkpt><trkpt lat="58.050845" lon="38.843062"><ele>109.0</ele><time>2024-04-23T16:39:53Z</time></trkpt><trkpt lat="58.05088" lon="38.842895"><ele>108.6</ele><time>2024-04-23T16:39:55Z</time></trkpt><trkpt lat="58.050915" lon="38.842737"><ele>109.8</ele><time>2024-04-23T16:39:57Z</time></trkpt><trkpt lat="58.050942" lon="38.842565"><ele>109.9</ele><time>2024-04-23T16:39:59Z</time></trkpt><trkpt lat="58.05096" lon="38.84239"><ele>110.2</ele><time>2024-04-23T16:40:01Z</time></trkpt><trkpt lat="58.050985" lon="38.842205"><ele>110.7</ele><time>2024-04-23T16:40:03Z</time></trkpt><trkpt lat="58.051025" lon="38.842035"><ele>110.2</ele><time>2024-04-23T16:40:05Z</time></trkpt><trkpt lat="58.051075" lon="38.84186"><ele>108.9</ele><time>2024-04-23T16:40:07Z</time></trkpt><trkpt lat="58.051095" lon="38.84171"><ele>109.1</ele><time>2024-04-23T16:40:09Z</time></trkpt><trkpt lat="58.051125" lon="38.84156"><ele>108.1</ele><time>2024-04-23T16:40:12Z</time></trkpt><trkpt lat="58.051145" lon="38.841385"><ele>107.7</ele><time>2024-04-23T16:40:15Z</time></trkpt><trkpt lat="58.051167" lon="38.841248"><ele>108.7</ele><time>2024-04-23T16:40:17Z</time></trkpt><trkpt lat="58.051202" lon="38.841105"><ele>108.7</ele><time>2024-04-23T16:40:19Z</time></trkpt><trkpt lat="58.051235" lon="38.840965"><ele>109.0</ele><time>2024-04-23T16:40:21Z</time></trkpt><trkpt lat="58.051255" lon="38.840825"><ele>109.8</ele><time>2024-04-23T16:40:23Z</time></trkpt><trkpt lat="58.0513" lon="38.84062"><ele>109.5</ele><time>2024-04-23T16:40:26Z</time></trkpt><trkpt lat="58.051322" lon="38.840457"><ele>109.8</ele><time>2024-04-23T16:40:28Z</time></trkpt><trkpt lat="58.051355" lon="38.8403"><ele>110.1</ele><time>2024-04-23T16:40:30Z</time></trkpt><trkpt lat="58.05138" lon="38.840145"><ele>110.2</ele><time>2024-04-23T16:40:32Z</time></trkpt><trkpt lat="58.051415" lon="38.83998"><ele>110.6</ele><time>2024-04-23T16:40:34Z</time></trkpt><trkpt lat="58.051445" lon="38.839825"><ele>110.3</ele><time>2024-04-23T16:40:36Z</time></trkpt><trkpt lat="58.051485" lon="38.839685"><ele>110.3</ele><time>2024-04-23T16:40:38Z</time></trkpt><trkpt lat="58.051512" lon="38.83955"><ele>110.2</ele><time>2024-04-23T16:40:40Z</time></trkpt><trkpt lat="58.05153" lon="38.8394"><ele>110.8</ele><time>2024-04-23T16:40:42Z</time></trkpt><trkpt lat="58.051545" lon="38.839245"><ele>111.2</ele><time>2024-04-23T16:40:44Z</time></trkpt><trkpt lat="58.05159" lon="38.839065"><ele>110.7</ele><time>2024-04-23T16:40:47Z</time></trkpt><trkpt lat="58.05162" lon="38.83892"><ele>111.8</ele><time>2024-04-23T16:40:49Z</time></trkpt><trkpt lat="58.05163" lon="38.838752"><ele>112.3</ele><time>2024-04-23T16:40:51Z</time></trkpt><trkpt lat="58.051657" lon="38.8386"><ele>113.3</ele><time>2024-04-23T16:40:53Z</time></trkpt><trkpt lat="58.05168" lon="38.83846"><ele>114.4</ele><time>2024-04-23T16:40:55Z</time></trkpt><trkpt lat="58.05171" lon="38.838282"><ele>114.6</ele><time>2024-04-23T16:40:58Z</time></trkpt><trkpt lat="58.051717" lon="38.83813"><ele>115.2</ele><time>2024-04-23T16:41:01Z</time></trkpt><trkpt lat="58.05174" lon="38.838102"><ele>113.2</ele><time>2024-04-23T16:41:08Z</time></trkpt><trkpt lat="58.05174" lon="38.8381"><ele>113.1</ele><time>2024-04-23T16:41:09Z</time></trkpt><trkpt lat="58.051775" lon="38.83797"><ele>114.4</ele><time>2024-04-23T16:41:23Z</time></trkpt><trkpt lat="58.0518" lon="38.837835"><ele>114.0</ele><time>2024-04-23T16:41:25Z</time></trkpt><trkpt lat="58.05185" lon="38.83766"><ele>113.1</ele><time>2024-04-23T16:41:28Z</time></trkpt><trkpt lat="58.051875" lon="38.837525"><ele>111.6</ele><time>2024-04-23T16:41:30Z</time></trkpt><trkpt lat="58.051905" lon="38.83736"><ele>111.7</ele><time>2024-04-23T16:41:33Z</time></trkpt><trkpt lat="58.051925" lon="38.837227"><ele>110.4</ele><time>2024-04-23T16:41:36Z</time></trkpt><trkpt lat="58.051945" lon="38.83709"><ele>110.3</ele><time>2024-04-23T16:41:39Z</time></trkpt><trkpt lat="58.05198" lon="38.836957"><ele>110.2</ele><time>2024-04-23T16:41:43Z</time></trkpt><trkpt lat="58.05201" lon="38.83679"><ele>110.9</ele><time>2024-04-23T16:41:47Z</time></trkpt><trkpt lat="58.052042" lon="38.83666"><ele>109.7</ele><time>2024-04-23T16:41:51Z</time></trkpt><trkpt lat="58.052062" lon="38.83652"><ele>108.5</ele><time>2024-04-23T16:41:55Z</time></trkpt><trkpt lat="58.052085" lon="38.83635"><ele>109.8</ele><time>2024-04-23T16:41:59Z</time></trkpt><trkpt lat="58.052112" lon="38.836215"><ele>110.2</ele><time>2024-04-23T16:42:02Z</time></trkpt><trkpt lat="58.05214" lon="38.836072"><ele>109.8</ele><time>2024-04-23T16:42:05Z</time></trkpt><trkpt lat="58.05217" lon="38.83592"><ele>111.4</ele><time>2024-04-23T16:42:09Z</time></trkpt><trkpt lat="58.052192" lon="38.835767"><ele>113.2</ele><time>2024-04-23T16:42:13Z</time></trkpt><trkpt lat="58.052217" lon="38.835597"><ele>113.3</ele><time>2024-04-23T16:42:16Z</time></trkpt><trkpt lat="58.052245" lon="38.835472"><ele>113.0</ele><time>2024-04-23T16:42:18Z</time></trkpt><trkpt lat="58.052265" lon="38.83529"><ele>114.1</ele><time>2024-04-23T16:42:21Z</time></trkpt><trkpt lat="58.05229" lon="38.83509"><ele>115.8</ele><time>2024-04-23T16:42:24Z</time></trkpt><trkpt lat="58.052315" lon="38.834912"><ele>116.6</ele><time>2024-04-23T16:42:27Z</time></trkpt><trkpt lat="58.052355" lon="38.83475"><ele>115.2</ele><time>2024-04-23T16:42:31Z</time></trkpt><trkpt lat="58.05239" lon="38.834595"><ele>114.5</ele><time>2024-04-23T16:42:34Z</time></trkpt><trkpt lat="58.052435" lon="38.834405"><ele>114.7</ele><time>2024-04-23T16:42:37Z</time></trkpt><trkpt lat="58.052465" lon="38.83424"><ele>114.2</ele><time>2024-04-23T16:42:39Z</time></trkpt><trkpt lat="58.052495" lon="38.834075"><ele>114.4</ele><time>2024-04-23T16:42:41Z</time></trkpt><trkpt lat="58.05253" lon="38.83395"><ele>113.8</ele><time>2024-04-23T16:42:43Z</time></trkpt><trkpt lat="58.05256" lon="38.833825"><ele>113.4</ele><time>2024-04-23T16:42:45Z</time></trkpt><trkpt lat="58.05259" lon="38.833705"><ele>113.1</ele><time>2024-04-23T16:42:47Z</time></trkpt><trkpt lat="58.052615" lon="38.833545"><ele>112.6</ele><time>2024-04-23T16:42:50Z</time></trkpt><trkpt lat="58.05263" lon="38.8334"><ele>111.8</ele><time>2024-04-23T16:42:53Z</time></trkpt><trkpt lat="58.05265" lon="38.83323"><ele>112.3</ele><time>2024-04-23T16:42:57Z</time></trkpt><trkpt lat="58.052672" lon="38.833095"><ele>113.4</ele><time>2024-04-23T16:43:02Z</time></trkpt><trkpt lat="58.05267" lon="38.83303"><ele>115.5</ele><time>2024-04-23T16:43:09Z</time></trkpt><trkpt lat="58.05267" lon="38.833025"><ele>116.1</ele><time>2024-04-23T16:43:11Z</time></trkpt><trkpt lat="58.052675" lon="38.833005"><ele>123.1</ele><time>2024-04-23T16:43:44Z</time></trkpt><trkpt lat="58.052675" lon="38.833005"><ele>123.6</ele><time>2024-04-23T16:43:45Z</time></trkpt><trkpt lat="58.052697" lon="38.83286"><ele>121.2</ele><time>2024-04-23T16:43:59Z</time></trkpt><trkpt lat="58.052735" lon="38.832665"><ele>117.1</ele><time>2024-04-23T16:44:02Z</time></trkpt><trkpt lat="58.052777" lon="38.83254"><ele>115.7</ele><time>2024-04-23T16:44:04Z</time></trkpt><trkpt lat="58.052815" lon="38.8324"><ele>110.9</ele><time>2024-04-23T16:44:07Z</time></trkpt><trkpt lat="58.052872" lon="38.83224"><ele>110.3</ele><time>2024-04-23T16:44:10Z</time></trkpt><trkpt lat="58.052922" lon="38.832057"><ele>111.5</ele><time>2024-04-23T16:44:13Z</time></trkpt><trkpt lat="58.052947" lon="38.83191"><ele>111.9</ele><time>2024-04-23T16:44:15Z</time></trkpt><trkpt lat="58.05297" lon="38.831762"><ele>111.7</ele><time>2024-04-23T16:44:17Z</time></trkpt><trkpt lat="58.052985" lon="38.83159"><ele>112.5</ele><time>2024-04-23T16:44:19Z</time></trkpt><trkpt lat="58.05301" lon="38.831432"><ele>114.3</ele><time>2024-04-23T16:44:22Z</time></trkpt><trkpt lat="58.053057" lon="38.831285"><ele>112.8</ele><time>2024-04-23T16:44:25Z</time></trkpt><trkpt lat="58.053095" lon="38.831125"><ele>111.7</ele><time>2024-04-23T16:44:27Z</time></trkpt><trkpt lat="58.05312" lon="38.83094"><ele>110.2</ele><time>2024-04-23T16:44:29Z</time></trkpt><trkpt lat="58.053155" lon="38.830767"><ele>111.7</ele><time>2024-04-23T16:44:31Z</time></trkpt><trkpt lat="58.053185" lon="38.830615"><ele>112.6</ele><time>2024-04-23T16:44:33Z</time></trkpt><trkpt lat="58.053207" lon="38.830467"><ele>113.4</ele><time>2024-04-23T16:44:35Z</time></trkpt><trkpt lat="58.053227" lon="38.830317"><ele>113.6</ele><time>2024-04-23T16:44:37Z</time></trkpt><trkpt lat="58.053257" lon="38.830155"><ele>112.9</ele><time>2024-04-23T16:44:39Z</time></trkpt><trkpt lat="58.053285" lon="38.829995"><ele>112.6</ele><time>2024-04-23T16:44:41Z</time></trkpt><trkpt lat="58.05331" lon="38.82984"><ele>112.4</ele><time>2024-04-23T16:44:43Z</time></trkpt><trkpt lat="58.05334" lon="38.829687"><ele>113.0</ele><time>2024-04-23T16:44:45Z</time></trkpt><trkpt lat="58.05337" lon="38.82952"><ele>113.0</ele><time>2024-04-23T16:44:47Z</time></trkpt><trkpt lat="58.053402" lon="38.829355"><ele>113.5</ele><time>2024-04-23T16:44:49Z</time></trkpt><trkpt lat="58.05343" lon="38.829195"><ele>114.0</ele><time>2024-04-23T16:44:51Z</time></trkpt><trkpt lat="58.05346" lon="38.829033"><ele>115.1</ele><time>2024-04-23T16:44:53Z</time></trkpt><trkpt lat="58.053495" lon="38.828862"><ele>116.0</ele><time>2024-04-23T16:44:55Z</time></trkpt><trkpt lat="58.053537" lon="38.8287"><ele>116.7</ele><time>2024-04-23T16:44:57Z</time></trkpt><trkpt lat="58.05358" lon="38.828555"><ele>115.1</ele><time>2024-04-23T16:44:59Z</time></trkpt><trkpt lat="58.05361" lon="38.828395"><ele>115.1</ele><time>2024-04-23T16:45:01Z</time></trkpt><trkpt lat="58.053637" lon="38.828235"><ele>113.0</ele><time>2024-04-23T16:45:03Z</time></trkpt><trkpt lat="58.053665" lon="38.828095"><ele>112.7</ele><time>2024-04-23T16:45:05Z</time></trkpt><trkpt lat="58.053688" lon="38.827965"><ele>113.0</ele><time>2024-04-23T16:45:07Z</time></trkpt><trkpt lat="58.053715" lon="38.827822"><ele>112.9</ele><time>2024-04-23T16:45:09Z</time></trkpt><trkpt lat="58.05376" lon="38.827683"><ele>113.2</ele><time>2024-04-23T16:45:11Z</time></trkpt><trkpt lat="58.05379" lon="38.827545"><ele>112.6</ele><time>2024-04-23T16:45:13Z</time></trkpt><trkpt lat="58.05383" lon="38.827377"><ele>111.1</ele><time>2024-04-23T16:45:16Z</time></trkpt><trkpt lat="58.053845" lon="38.82724"><ele>111.0</ele><time>2024-04-23T16:45:18Z</time></trkpt><trkpt lat="58.05386" lon="38.827095"><ele>110.6</ele><time>2024-04-23T16:45:20Z</time></trkpt><trkpt lat="58.05389" lon="38.82693"><ele>112.7</ele><time>2024-04-23T16:45:23Z</time></trkpt><trkpt lat="58.053922" lon="38.826755"><ele>109.5</ele><time>2024-04-23T16:45:26Z</time></trkpt><trkpt lat="58.05393" lon="38.82667"><ele>110.0</ele><time>2024-04-23T16:45:33Z</time></trkpt><trkpt lat="58.05396" lon="38.826542"><ele>107.7</ele><time>2024-04-23T16:45:36Z</time></trkpt><trkpt lat="58.053987" lon="38.826375"><ele>106.8</ele><time>2024-04-23T16:45:39Z</time></trkpt><trkpt lat="58.054015" lon="38.826185"><ele>106.0</ele><time>2024-04-23T16:45:42Z</time></trkpt><trkpt lat="58.054055" lon="38.826"><ele>105.1</ele><time>2024-04-23T16:45:45Z</time></trkpt><trkpt lat="58.054073" lon="38.82586"><ele>106.2</ele><time>2024-04-23T16:45:47Z</time></trkpt><trkpt lat="58.0541" lon="38.82573"><ele>107.1</ele><time>2024-04-23T16:45:49Z</time></trkpt><trkpt lat="58.054135" lon="38.825535"><ele>107.9</ele><time>2024-04-23T16:45:52Z</time></trkpt><trkpt lat="58.054162" lon="38.825392"><ele>107.4</ele><time>2024-04-23T16:45:54Z</time></trkpt><trkpt lat="58.054195" lon="38.825215"><ele>110.3</ele><time>2024-04-23T16:45:57Z</time></trkpt><trkpt lat="58.05422" lon="38.82503"><ele>112.0</ele><time>2024-04-23T16:46:00Z</time></trkpt><trkpt lat="58.05424" lon="38.82488"><ele>112.8</ele><time>2024-04-23T16:46:02Z</time></trkpt><trkpt lat="58.054265" lon="38.824707"><ele>113.2</ele><time>2024-04-23T16:46:05Z</time></trkpt><trkpt lat="58.054285" lon="38.82454"><ele>115.1</ele><time>2024-04-23T16:46:08Z</time></trkpt><trkpt lat="58.054332" lon="38.824385"><ele>114.0</ele><time>2024-04-23T16:46:11Z</time></trkpt><trkpt lat="58.054355" lon="38.824252"><ele>111.4</ele><time>2024-04-23T16:46:14Z</time></trkpt><trkpt lat="58.054387" lon="38.824108"><ele>111.8</ele><time>2024-04-23T16:46:17Z</time></trkpt><trkpt lat="58.054435" lon="38.823975"><ele>111.9</ele><time>2024-04-23T16:46:20Z</time></trkpt><trkpt lat="58.054485" lon="38.8238"><ele>108.6</ele><time>2024-04-23T16:46:24Z</time></trkpt><trkpt lat="58.054505" lon="38.82361"><ele>109.6</ele><time>2024-04-23T16:46:27Z</time></trkpt><trkpt lat="58.054538" lon="38.82345"><ele>110.3</ele><time>2024-04-23T16:46:29Z</time></trkpt><trkpt lat="58.054555" lon="38.82331"><ele>110.1</ele><time>2024-04-23T16:46:31Z</time></trkpt><trkpt lat="58.054597" lon="38.82317"><ele>107.0</ele><time>2024-04-23T16:46:34Z</time></trkpt><trkpt lat="58.05464" lon="38.822972"><ele>107.9</ele><time>2024-04-23T16:46:37Z</time></trkpt><trkpt lat="58.054662" lon="38.822812"><ele>107.2</ele><time>2024-04-23T16:46:39Z</time></trkpt><trkpt lat="58.054692" lon="38.822657"><ele>107.6</ele><time>2024-04-23T16:46:41Z</time></trkpt><trkpt lat="58.054725" lon="38.82249"><ele>104.7</ele><time>2024-04-23T16:46:43Z</time></trkpt><trkpt lat="58.054755" lon="38.82232"><ele>105.0</ele><time>2024-04-23T16:46:45Z</time></trkpt><trkpt lat="58.054775" lon="38.822175"><ele>105.5</ele><time>2024-04-23T16:46:47Z</time></trkpt><trkpt lat="58.054857" lon="38.82208"><ele>106.1</ele><time>2024-04-23T16:46:50Z</time></trkpt><trkpt lat="58.05495" lon="38.82197"><ele>105.0</ele><time>2024-04-23T16:46:52Z</time></trkpt><trkpt lat="58.05503" lon="38.821882"><ele>108.3</ele><time>2024-04-23T16:46:55Z</time></trkpt><trkpt lat="58.05508" lon="38.82178"><ele>110.3</ele><time>2024-04-23T16:46:57Z</time></trkpt><trkpt lat="58.055107" lon="38.821615"><ele>111.8</ele><time>2024-04-23T16:47:01Z</time></trkpt><trkpt lat="58.055135" lon="38.82147"><ele>110.2</ele><time>2024-04-23T16:47:04Z</time></trkpt><trkpt lat="58.05516" lon="38.82128"><ele>110.0</ele><time>2024-04-23T16:47:07Z</time></trkpt><trkpt lat="58.05519" lon="38.821135"><ele>111.0</ele><time>2024-04-23T16:47:09Z</time></trkpt><trkpt lat="58.055225" lon="38.82095"><ele>110.5</ele><time>2024-04-23T16:47:12Z</time></trkpt><trkpt lat="58.055242" lon="38.82082"><ele>109.6</ele><time>2024-04-23T16:47:14Z</time></trkpt><trkpt lat="58.05529" lon="38.820665"><ele>109.2</ele><time>2024-04-23T16:47:17Z</time></trkpt><trkpt lat="58.05528" lon="38.820525"><ele>109.9</ele><time>2024-04-23T16:47:20Z</time></trkpt><trkpt lat="58.05531" lon="38.820375"><ele>111.4</ele><time>2024-04-23T16:47:23Z</time></trkpt><trkpt lat="58.055355" lon="38.82023"><ele>111.2</ele><time>2024-04-23T16:47:26Z</time></trkpt><trkpt lat="58.05541" lon="38.82011"><ele>111.0</ele><time>2024-04-23T16:47:29Z</time></trkpt><trkpt lat="58.055425" lon="38.81995"><ele>110.2</ele><time>2024-04-23T16:47:32Z</time></trkpt><trkpt lat="58.055455" lon="38.819775"><ele>112.6</ele><time>2024-04-23T16:47:35Z</time></trkpt><trkpt lat="58.055475" lon="38.819605"><ele>112.8</ele><time>2024-04-23T16:47:38Z</time></trkpt><trkpt lat="58.05548" lon="38.819442"><ele>112.9</ele><time>2024-04-23T16:47:41Z</time></trkpt><trkpt lat="58.05549" lon="38.81928"><ele>112.8</ele><time>2024-04-23T16:47:44Z</time></trkpt><trkpt lat="58.055518" lon="38.819152"><ele>113.0</ele><time>2024-04-23T16:47:46Z</time></trkpt><trkpt lat="58.055522" lon="38.818975"><ele>112.6</ele><time>2024-04-23T16:47:49Z</time></trkpt><trkpt lat="58.055535" lon="38.81883"><ele>112.8</ele><time>2024-04-23T16:47:51Z</time></trkpt><trkpt lat="58.055552" lon="38.818697"><ele>112.8</ele><time>2024-04-23T16:47:53Z</time></trkpt><trkpt lat="58.055592" lon="38.81855"><ele>112.3</ele><time>2024-04-23T16:47:56Z</time></trkpt><trkpt lat="58.05565" lon="38.818435"><ele>111.2</ele><time>2024-04-23T16:47:58Z</time></trkpt><trkpt lat="58.055705" lon="38.818305"><ele>110.2</ele><time>2024-04-23T16:48:01Z</time></trkpt><trkpt lat="58.055737" lon="38.818175"><ele>110.4</ele><time>2024-04-23T16:48:03Z</time></trkpt><trkpt lat="58.055777" lon="38.818057"><ele>109.7</ele><time>2024-04-23T16:48:05Z</time></trkpt><trkpt lat="58.055815" lon="38.81793"><ele>113.8</ele><time>2024-04-23T16:48:08Z</time></trkpt><trkpt lat="58.055865" lon="38.817805"><ele>111.9</ele><time>2024-04-23T16:48:11Z</time></trkpt><trkpt lat="58.055915" lon="38.817705"><ele>112.7</ele><time>2024-04-23T16:48:13Z</time></trkpt><trkpt lat="58.055985" lon="38.817592"><ele>111.3</ele><time>2024-04-23T16:48:16Z</time></trkpt><trkpt lat="58.056038" lon="38.817477"><ele>110.9</ele><time>2024-04-23T16:48:19Z</time></trkpt><trkpt lat="58.0561" lon="38.817335"><ele>112.0</ele><time>2024-04-23T16:48:22Z</time></trkpt><trkpt lat="58.056162" lon="38.817172"><ele>113.7</ele><time>2024-04-23T16:48:25Z</time></trkpt><trkpt lat="58.056205" lon="38.816988"><ele>113.9</ele><time>2024-04-23T16:48:28Z</time></trkpt><trkpt lat="58.056255" lon="38.81686"><ele>114.9</ele><time>2024-04-23T16:48:31Z</time></trkpt><trkpt lat="58.056335" lon="38.816795"><ele>115.2</ele><time>2024-04-23T16:48:35Z</time></trkpt><trkpt lat="58.05636" lon="38.81662"><ele>115.1</ele><time>2024-04-23T16:48:38Z</time></trkpt><trkpt lat="58.056392" lon="38.81648"><ele>114.9</ele><time>2024-04-23T16:48:41Z</time></trkpt><trkpt lat="58.056465" lon="38.816452"><ele>113.5</ele><time>2024-04-23T16:48:43Z</time></trkpt><trkpt lat="58.05656" lon="38.816465"><ele>112.6</ele><time>2024-04-23T16:48:46Z</time></trkpt><trkpt lat="58.056655" lon="38.816505"><ele>111.4</ele><time>2024-04-23T16:48:49Z</time></trkpt><trkpt lat="58.056745" lon="38.81655"><ele>111.0</ele><time>2024-04-23T16:48:52Z</time></trkpt><trkpt lat="58.056825" lon="38.81658"><ele>110.7</ele><time>2024-04-23T16:48:55Z</time></trkpt><trkpt lat="58.0569" lon="38.81659"><ele>110.7</ele><time>2024-04-23T16:48:57Z</time></trkpt><trkpt lat="58.057" lon="38.81659"><ele>111.2</ele><time>2024-04-23T16:49:00Z</time></trkpt><trkpt lat="58.057072" lon="38.816585"><ele>106.2</ele><time>2024-04-23T16:49:04Z</time></trkpt><trkpt lat="58.057175" lon="38.816608"><ele>101.2</ele><time>2024-04-23T16:49:07Z</time></trkpt><trkpt lat="58.057245" lon="38.81665"><ele>100.3</ele><time>2024-04-23T16:49:09Z</time></trkpt><trkpt lat="58.057317" lon="38.816695"><ele>100.7</ele><time>2024-04-23T16:49:11Z</time></trkpt><trkpt lat="58.057422" lon="38.816755"><ele>102.0</ele><time>2024-04-23T16:49:14Z</time></trkpt><trkpt lat="58.057512" lon="38.816763"><ele>104.8</ele><time>2024-04-23T16:49:16Z</time></trkpt><trkpt lat="58.057595" lon="38.816762"><ele>102.6</ele><time>2024-04-23T16:49:18Z</time></trkpt><trkpt lat="58.057712" lon="38.816775"><ele>100.5</ele><time>2024-04-23T16:49:21Z</time></trkpt><trkpt lat="58.0578" lon="38.81676"><ele>99.9</ele><time>2024-04-23T16:49:23Z</time></trkpt><trkpt lat="58.05788" lon="38.816775"><ele>101.3</ele><time>2024-04-23T16:49:25Z</time></trkpt><trkpt lat="58.05796" lon="38.816792"><ele>102.3</ele><time>2024-04-23T16:49:27Z</time></trkpt><trkpt lat="58.058115" lon="38.816847"><ele>105.6</ele><time>2024-04-23T16:49:29Z</time></trkpt><trkpt lat="58.0582" lon="38.81685"><ele>104.6</ele><time>2024-04-23T16:49:31Z</time></trkpt><trkpt lat="58.058305" lon="38.816848"><ele>105.2</ele><time>2024-04-23T16:49:34Z</time></trkpt><trkpt lat="58.0584" lon="38.816865"><ele>105.0</ele><time>2024-04-23T16:49:37Z</time></trkpt><trkpt lat="58.058497" lon="38.816907"><ele>104.8</ele><time>2024-04-23T16:49:40Z</time></trkpt><trkpt lat="58.058585" lon="38.816912"><ele>104.7</ele><time>2024-04-23T16:49:43Z</time></trkpt><trkpt lat="58.058667" lon="38.81692"><ele>106.1</ele><time>2024-04-23T16:49:46Z</time></trkpt><trkpt lat="58.05874" lon="38.816827"><ele>113.8</ele><time>2024-04-23T16:49:53Z</time></trkpt><trkpt lat="58.058795" lon="38.816815"><ele>117.3</ele><time>2024-04-23T16:50:00Z</time></trkpt></trkseg></trk></gpx>