<?xml version="1.0" encoding="UTF-8" standalone="no"?><gpx xmlns="http://www.topografix.com/GPX/1/1" xmlns:gpxtpx="http://www.garmin.com/xmlschemas/TrackPointExtension/v1" xmlns:xsi="http://www.w3.org/2001/XMLSchema-instance" creator="Sports Tracker" version="1.1" xsi:schemaLocation="http://www.topografix.com/GPX/1/1 http://www.topografix.com/GPX/1/1/gpx.xsd http://www.garmin.com/xmlschemas/TrackPointExtension/v1 http://www.garmin.com/xmlschemas/TrackPointExtensionv1.xsd"><metadata><name>26.03.2024 20:05</name><desc/><author><name>Александр</name></author></metadata><trk><name>26.03.2024 20:05</name><trkseg><trkpt lat="58.060395" lon="38.808035"><ele>115.6</ele><time>2024-03-26T17:05:07Z</time></trkpt><trkpt lat="58.060395" lon="38.808035"><ele>115.6</ele><time>2024-03-26T17:06:01Z</time></trkpt><trkpt lat="58.060363" lon="38.80819"><ele>111.7</ele><time>2024-03-26T17:06:04Z</time></trkpt><trkpt lat="58.060357" lon="38.808345"><ele>113.1</ele><time>2024-03-26T17:06:07Z</time></trkpt><trkpt lat="58.060347" lon="38.808485"><ele>112.7</ele><time>2024-03-26T17:06:10Z</time></trkpt><trkpt lat="58.06035" lon="38.80864"><ele>112.5</ele><time>2024-03-26T17:06:13Z</time></trkpt><trkpt lat="58.060335" lon="38.80892"><ele>109.1</ele><time>2024-03-26T17:06:19Z</time></trkpt><trkpt lat="58.06028" lon="38.809015"><ele>105.5</ele><time>2024-03-26T17:06:23Z</time></trkpt><trkpt lat="58.060265" lon="38.809175"><ele>105.6</ele><time>2024-03-26T17:06:26Z</time></trkpt><trkpt lat="58.06031" lon="38.809315"><ele>110.1</ele><time>2024-03-26T17:06:28Z</time></trkpt><trkpt lat="58.060305" lon="38.809475"><ele>109.8</ele><time>2024-03-26T17:06:31Z</time></trkpt><trkpt lat="58.060285" lon="38.809655"><ele>110.8</ele><time>2024-03-26T17:06:34Z</time></trkpt><trkpt lat="58.060265" lon="38.809815"><ele>110.1</ele><time>2024-03-26T17:06:37Z</time></trkpt><trkpt lat="58.06019" lon="38.809927"><ele>109.4</ele><time>2024-03-26T17:06:40Z</time></trkpt><trkpt lat="58.060142" lon="38.810065"><ele>108.1</ele><time>2024-03-26T17:06:46Z</time></trkpt><trkpt lat="58.060162" lon="38.81022"><ele>108.7</ele><time>2024-03-26T17:06:48Z</time></trkpt><trkpt lat="58.060175" lon="38.81037"><ele>109.9</ele><time>2024-03-26T17:06:50Z</time></trkpt><trkpt lat="58.06018" lon="38.810555"><ele>111.1</ele><time>2024-03-26T17:06:53Z</time></trkpt><trkpt lat="58.060185" lon="38.810705"><ele>112.1</ele><time>2024-03-26T17:06:56Z</time></trkpt><trkpt lat="58.06019" lon="38.810852"><ele>114.2</ele><time>2024-03-26T17:06:59Z</time></trkpt><trkpt lat="58.06018" lon="38.810992"><ele>114.4</ele><time>2024-03-26T17:07:02Z</time></trkpt><trkpt lat="58.06019" lon="38.811135"><ele>113.6</ele><time>2024-03-26T17:07:08Z</time></trkpt><trkpt lat="58.06019" lon="38.811222"><ele>116.1</ele><time>2024-03-26T17:07:15Z</time></trkpt><trkpt lat="58.060185" lon="38.81123"><ele>114.9</ele><time>2024-03-26T17:07:20Z</time></trkpt><trkpt lat="58.06018" lon="38.811215"><ele>115.5</ele><time>2024-03-26T17:07:30Z</time></trkpt><trkpt lat="58.06018" lon="38.811215"><ele>115.3</ele><time>2024-03-26T17:07:31Z</time></trkpt><trkpt lat="58.060223" lon="38.81133"><ele>114.4</ele><time>2024-03-26T17:07:51Z</time></trkpt><trkpt lat="58.060282" lon="38.81143"><ele>115.7</ele><time>2024-03-26T17:07:55Z</time></trkpt><trkpt lat="58.060305" lon="38.811595"><ele>117.0</ele><time>2024-03-26T17:08:00Z</time></trkpt><trkpt lat="58.060305" lon="38.811767"><ele>115.7</ele><time>2024-03-26T17:08:03Z</time></trkpt><trkpt lat="58.060325" lon="38.81194"><ele>112.8</ele><time>2024-03-26T17:08:07Z</time></trkpt><trkpt lat="58.060322" lon="38.812075"><ele>110.0</ele><time>2024-03-26T17:08:10Z</time></trkpt><trkpt lat="58.0603" lon="38.81223"><ele>108.9</ele><time>2024-03-26T17:08:13Z</time></trkpt><trkpt lat="58.06028" lon="38.81237"><ele>110.8</ele><time>2024-03-26T17:08:15Z</time></trkpt><trkpt lat="58.060272" lon="38.812545"><ele>111.9</ele><time>2024-03-26T17:08:18Z</time></trkpt><trkpt lat="58.060255" lon="38.81269"><ele>112.5</ele><time>2024-03-26T17:08:21Z</time></trkpt><trkpt lat="58.06025" lon="38.81283"><ele>112.8</ele><time>2024-03-26T17:08:24Z</time></trkpt><trkpt lat="58.060223" lon="38.81298"><ele>110.6</ele><time>2024-03-26T17:08:27Z</time></trkpt><trkpt lat="58.06024" lon="38.813175"><ele>113.0</ele><time>2024-03-26T17:08:30Z</time></trkpt><trkpt lat="58.06023" lon="38.813342"><ele>112.4</ele><time>2024-03-26T17:08:33Z</time></trkpt><trkpt lat="58.060218" lon="38.813507"><ele>111.2</ele><time>2024-03-26T17:08:36Z</time></trkpt><trkpt lat="58.060197" lon="38.813665"><ele>110.8</ele><time>2024-03-26T17:08:39Z</time></trkpt><trkpt lat="58.0602" lon="38.813845"><ele>107.1</ele><time>2024-03-26T17:08:43Z</time></trkpt><trkpt lat="58.060218" lon="38.814042"><ele>109.7</ele><time>2024-03-26T17:08:47Z</time></trkpt><trkpt lat="58.060205" lon="38.814177"><ele>109.4</ele><time>2024-03-26T17:08:50Z</time></trkpt><trkpt lat="58.06017" lon="38.814347"><ele>111.6</ele><time>2024-03-26T17:08:53Z</time></trkpt><trkpt lat="58.060142" lon="38.81451"><ele>112.5</ele><time>2024-03-26T17:08:56Z</time></trkpt><trkpt lat="58.060125" lon="38.814675"><ele>113.7</ele><time>2024-03-26T17:08:59Z</time></trkpt><trkpt lat="58.060133" lon="38.81482"><ele>114.2</ele><time>2024-03-26T17:09:02Z</time></trkpt><trkpt lat="58.06013" lon="38.814965"><ele>113.8</ele><time>2024-03-26T17:09:04Z</time></trkpt><trkpt lat="58.06012" lon="38.81511"><ele>113.6</ele><time>2024-03-26T17:09:06Z</time></trkpt><trkpt lat="58.0601" lon="38.815265"><ele>115.9</ele><time>2024-03-26T17:09:10Z</time></trkpt><trkpt lat="58.0601" lon="38.81541"><ele>112.6</ele><time>2024-03-26T17:09:13Z</time></trkpt><trkpt lat="58.060095" lon="38.81556"><ele>113.1</ele><time>2024-03-26T17:09:16Z</time></trkpt><trkpt lat="58.06009" lon="38.815705"><ele>112.9</ele><time>2024-03-26T17:09:19Z</time></trkpt><trkpt lat="58.060085" lon="38.81586"><ele>113.1</ele><time>2024-03-26T17:09:22Z</time></trkpt><trkpt lat="58.060065" lon="38.815995"><ele>112.1</ele><time>2024-03-26T17:09:25Z</time></trkpt><trkpt lat="58.060065" lon="38.816162"><ele>113.8</ele><time>2024-03-26T17:09:28Z</time></trkpt><trkpt lat="58.060047" lon="38.816345"><ele>112.7</ele><time>2024-03-26T17:09:31Z</time></trkpt><trkpt lat="58.060045" lon="38.816485"><ele>113.0</ele><time>2024-03-26T17:09:34Z</time></trkpt><trkpt lat="58.060035" lon="38.816635"><ele>113.8</ele><time>2024-03-26T17:09:37Z</time></trkpt><trkpt lat="58.060025" lon="38.81677"><ele>115.7</ele><time>2024-03-26T17:09:40Z</time></trkpt><trkpt lat="58.06001" lon="38.81692"><ele>114.2</ele><time>2024-03-26T17:09:43Z</time></trkpt><trkpt lat="58.060005" lon="38.817062"><ele>112.9</ele><time>2024-03-26T17:09:46Z</time></trkpt><trkpt lat="58.06" lon="38.81722"><ele>113.0</ele><time>2024-03-26T17:09:50Z</time></trkpt><trkpt lat="58.060025" lon="38.817405"><ele>113.0</ele><time>2024-03-26T17:09:53Z</time></trkpt><trkpt lat="58.060035" lon="38.81756"><ele>113.6</ele><time>2024-03-26T17:09:56Z</time></trkpt><trkpt lat="58.06" lon="38.81768"><ele>111.5</ele><time>2024-03-26T17:10:01Z</time></trkpt><trkpt lat="58.059975" lon="38.817845"><ele>110.7</ele><time>2024-03-26T17:10:05Z</time></trkpt><trkpt lat="58.059972" lon="38.818012"><ele>111.8</ele><time>2024-03-26T17:10:09Z</time></trkpt><trkpt lat="58.05997" lon="38.818187"><ele>113.7</ele><time>2024-03-26T17:10:13Z</time></trkpt><trkpt lat="58.05995" lon="38.818325"><ele>110.8</ele><time>2024-03-26T17:10:16Z</time></trkpt><trkpt lat="58.05992" lon="38.818495"><ele>111.8</ele><time>2024-03-26T17:10:20Z</time></trkpt><trkpt lat="58.059908" lon="38.81863"><ele>111.6</ele><time>2024-03-26T17:10:23Z</time></trkpt><trkpt lat="58.0599" lon="38.818797"><ele>109.6</ele><time>2024-03-26T17:10:26Z</time></trkpt><trkpt lat="58.059895" lon="38.81895"><ele>112.7</ele><time>2024-03-26T17:10:29Z</time></trkpt><trkpt lat="58.059875" lon="38.81909"><ele>112.3</ele><time>2024-03-26T17:10:32Z</time></trkpt><trkpt lat="58.059865" lon="38.81926"><ele>112.4</ele><time>2024-03-26T17:10:36Z</time></trkpt><trkpt lat="58.059855" lon="38.81944"><ele>111.4</ele><time>2024-03-26T17:10:40Z</time></trkpt><trkpt lat="58.059842" lon="38.819605"><ele>112.9</ele><time>2024-03-26T17:10:44Z</time></trkpt><trkpt lat="58.059845" lon="38.819757"><ele>113.6</ele><time>2024-03-26T17:10:47Z</time></trkpt><trkpt lat="58.059838" lon="38.819895"><ele>111.2</ele><time>2024-03-26T17:10:50Z</time></trkpt><trkpt lat="58.059832" lon="38.820032"><ele>113.2</ele><time>2024-03-26T17:10:53Z</time></trkpt><trkpt lat="58.059827" lon="38.820175"><ele>113.5</ele><time>2024-03-26T17:10:56Z</time></trkpt><trkpt lat="58.059835" lon="38.82032"><ele>114.1</ele><time>2024-03-26T17:10:59Z</time></trkpt><trkpt lat="58.05981" lon="38.8205"><ele>112.0</ele><time>2024-03-26T17:11:03Z</time></trkpt><trkpt lat="58.05979" lon="38.82065"><ele>111.7</ele><time>2024-03-26T17:11:06Z</time></trkpt><trkpt lat="58.059775" lon="38.8208"><ele>111.9</ele><time>2024-03-26T17:11:09Z</time></trkpt><trkpt lat="58.059775" lon="38.82095"><ele>114.9</ele><time>2024-03-26T17:11:12Z</time></trkpt><trkpt lat="58.059772" lon="38.821092"><ele>114.2</ele><time>2024-03-26T17:11:15Z</time></trkpt><trkpt lat="58.05977" lon="38.821255"><ele>110.6</ele><time>2024-03-26T17:11:19Z</time></trkpt><trkpt lat="58.05978" lon="38.821425"><ele>110.8</ele><time>2024-03-26T17:11:24Z</time></trkpt><trkpt lat="58.05977" lon="38.821575"><ele>111.6</ele><time>2024-03-26T17:11:27Z</time></trkpt><trkpt lat="58.05975" lon="38.821735"><ele>109.8</ele><time>2024-03-26T17:11:30Z</time></trkpt><trkpt lat="58.059735" lon="38.8219"><ele>110.6</ele><time>2024-03-26T17:11:33Z</time></trkpt><trkpt lat="58.05972" lon="38.822035"><ele>110.5</ele><time>2024-03-26T17:11:36Z</time></trkpt><trkpt lat="58.059707" lon="38.822177"><ele>109.3</ele><time>2024-03-26T17:11:39Z</time></trkpt><trkpt lat="58.059702" lon="38.822355"><ele>113.5</ele><time>2024-03-26T17:11:42Z</time></trkpt><trkpt lat="58.0597" lon="38.822517"><ele>113.7</ele><time>2024-03-26T17:11:45Z</time></trkpt><trkpt lat="58.0597" lon="38.82268"><ele>113.2</ele><time>2024-03-26T17:11:48Z</time></trkpt><trkpt lat="58.059687" lon="38.82283"><ele>112.9</ele><time>2024-03-26T17:11:51Z</time></trkpt><trkpt lat="58.059665" lon="38.82298"><ele>109.9</ele><time>2024-03-26T17:11:54Z</time></trkpt><trkpt lat="58.05964" lon="38.82311"><ele>109.1</ele><time>2024-03-26T17:11:57Z</time></trkpt><trkpt lat="58.05962" lon="38.823272"><ele>107.3</ele><time>2024-03-26T17:12:01Z</time></trkpt><trkpt lat="58.05959" lon="38.82343"><ele>106.6</ele><time>2024-03-26T17:12:04Z</time></trkpt><trkpt lat="58.059545" lon="38.82355"><ele>106.5</ele><time>2024-03-26T17:12:07Z</time></trkpt><trkpt lat="58.05949" lon="38.823645"><ele>105.1</ele><time>2024-03-26T17:12:10Z</time></trkpt><trkpt lat="58.059437" lon="38.823742"><ele>105.9</ele><time>2024-03-26T17:12:13Z</time></trkpt><trkpt lat="58.059377" lon="38.82385"><ele>105.8</ele><time>2024-03-26T17:12:16Z</time></trkpt><trkpt lat="58.05933" lon="38.823968"><ele>108.3</ele><time>2024-03-26T17:12:20Z</time></trkpt><trkpt lat="58.05927" lon="38.82408"><ele>108.5</ele><time>2024-03-26T17:12:23Z</time></trkpt><trkpt lat="58.059205" lon="38.824202"><ele>109.2</ele><time>2024-03-26T17:12:27Z</time></trkpt><trkpt lat="58.059147" lon="38.82429"><ele>109.5</ele><time>2024-03-26T17:12:30Z</time></trkpt><trkpt lat="58.059087" lon="38.824412"><ele>109.2</ele><time>2024-03-26T17:12:34Z</time></trkpt><trkpt lat="58.059025" lon="38.824487"><ele>107.8</ele><time>2024-03-26T17:12:38Z</time></trkpt><trkpt lat="58.058965" lon="38.824572"><ele>108.6</ele><time>2024-03-26T17:12:41Z</time></trkpt><trkpt lat="58.058915" lon="38.82467"><ele>107.1</ele><time>2024-03-26T17:12:44Z</time></trkpt><trkpt lat="58.058857" lon="38.82477"><ele>103.8</ele><time>2024-03-26T17:12:47Z</time></trkpt><trkpt lat="58.05881" lon="38.82489"><ele>103.4</ele><time>2024-03-26T17:12:51Z</time></trkpt><trkpt lat="58.05875" lon="38.82499"><ele>102.5</ele><time>2024-03-26T17:12:55Z</time></trkpt><trkpt lat="58.058695" lon="38.825105"><ele>102.2</ele><time>2024-03-26T17:12:59Z</time></trkpt><trkpt lat="58.058645" lon="38.825232"><ele>104.8</ele><time>2024-03-26T17:13:02Z</time></trkpt><trkpt lat="58.05861" lon="38.82535"><ele>105.9</ele><time>2024-03-26T17:13:04Z</time></trkpt><trkpt lat="58.058555" lon="38.825485"><ele>104.6</ele><time>2024-03-26T17:13:07Z</time></trkpt><trkpt lat="58.058512" lon="38.825632"><ele>103.7</ele><time>2024-03-26T17:13:11Z</time></trkpt><trkpt lat="58.058535" lon="38.82578"><ele>105.0</ele><time>2024-03-26T17:13:15Z</time></trkpt><trkpt lat="58.0585" lon="38.825923"><ele>105.9</ele><time>2024-03-26T17:13:17Z</time></trkpt><trkpt lat="58.058455" lon="38.8261"><ele>110.5</ele><time>2024-03-26T17:13:20Z</time></trkpt><trkpt lat="58.05842" lon="38.826233"><ele>109.3</ele><time>2024-03-26T17:13:23Z</time></trkpt><trkpt lat="58.05837" lon="38.82637"><ele>107.3</ele><time>2024-03-26T17:13:26Z</time></trkpt><trkpt lat="58.058305" lon="38.826527"><ele>108.2</ele><time>2024-03-26T17:13:29Z</time></trkpt><trkpt lat="58.058245" lon="38.82661"><ele>108.9</ele><time>2024-03-26T17:13:32Z</time></trkpt><trkpt lat="58.058162" lon="38.82666"><ele>107.6</ele><time>2024-03-26T17:13:36Z</time></trkpt><trkpt lat="58.05811" lon="38.826772"><ele>108.1</ele><time>2024-03-26T17:13:38Z</time></trkpt><trkpt lat="58.05809" lon="38.826915"><ele>107.4</ele><time>2024-03-26T17:13:41Z</time></trkpt><trkpt lat="58.058055" lon="38.827057"><ele>107.1</ele><time>2024-03-26T17:13:45Z</time></trkpt><trkpt lat="58.058025" lon="38.827185"><ele>107.5</ele><time>2024-03-26T17:13:49Z</time></trkpt><trkpt lat="58.05802" lon="38.827325"><ele>106.6</ele><time>2024-03-26T17:13:52Z</time></trkpt><trkpt lat="58.058012" lon="38.82749"><ele>107.7</ele><time>2024-03-26T17:13:56Z</time></trkpt><trkpt lat="58.058035" lon="38.82765"><ele>107.6</ele><time>2024-03-26T17:14:00Z</time></trkpt><trkpt lat="58.058047" lon="38.827802"><ele>108.5</ele><time>2024-03-26T17:14:03Z</time></trkpt><trkpt lat="58.058067" lon="38.827957"><ele>110.0</ele><time>2024-03-26T17:14:06Z</time></trkpt><trkpt lat="58.05808" lon="38.828112"><ele>110.0</ele><time>2024-03-26T17:14:09Z</time></trkpt><trkpt lat="58.058082" lon="38.828255"><ele>110.3</ele><time>2024-03-26T17:14:12Z</time></trkpt><trkpt lat="58.05808" lon="38.828395"><ele>110.3</ele><time>2024-03-26T17:14:16Z</time></trkpt><trkpt lat="58.058005" lon="38.82853"><ele>109.4</ele><time>2024-03-26T17:14:20Z</time></trkpt><trkpt lat="58.057955" lon="38.828675"><ele>110.4</ele><time>2024-03-26T17:14:21Z</time></trkpt><trkpt lat="58.05791" lon="38.828807"><ele>107.0</ele><time>2024-03-26T17:14:24Z</time></trkpt><trkpt lat="58.057855" lon="38.82892"><ele>104.9</ele><time>2024-03-26T17:14:29Z</time></trkpt><trkpt lat="58.05781" lon="38.829067"><ele>105.0</ele><time>2024-03-26T17:14:32Z</time></trkpt><trkpt lat="58.05776" lon="38.829192"><ele>107.0</ele><time>2024-03-26T17:14:36Z</time></trkpt><trkpt lat="58.057725" lon="38.829345"><ele>109.2</ele><time>2024-03-26T17:14:40Z</time></trkpt><trkpt lat="58.05769" lon="38.82951"><ele>109.9</ele><time>2024-03-26T17:14:44Z</time></trkpt><trkpt lat="58.05766" lon="38.829672"><ele>109.1</ele><time>2024-03-26T17:14:48Z</time></trkpt><trkpt lat="58.05766" lon="38.829815"><ele>108.7</ele><time>2024-03-26T17:14:51Z</time></trkpt><trkpt lat="58.057685" lon="38.82997"><ele>108.1</ele><time>2024-03-26T17:14:54Z</time></trkpt><trkpt lat="58.05771" lon="38.830115"><ele>107.0</ele><time>2024-03-26T17:14:57Z</time></trkpt><trkpt lat="58.057715" lon="38.830258"><ele>105.9</ele><time>2024-03-26T17:15:00Z</time></trkpt><trkpt lat="58.057715" lon="38.83042"><ele>107.2</ele><time>2024-03-26T17:15:03Z</time></trkpt><trkpt lat="58.057705" lon="38.830575"><ele>107.7</ele><time>2024-03-26T17:15:07Z</time></trkpt><trkpt lat="58.057685" lon="38.83074"><ele>107.9</ele><time>2024-03-26T17:15:10Z</time></trkpt><trkpt lat="58.0577" lon="38.830962"><ele>106.5</ele><time>2024-03-26T17:15:13Z</time></trkpt><trkpt lat="58.05757" lon="38.83086"><ele>105.4</ele><time>2024-03-26T17:15:16Z</time></trkpt><trkpt lat="58.05749" lon="38.83091"><ele>104.5</ele><time>2024-03-26T17:15:19Z</time></trkpt><trkpt lat="58.057402" lon="38.830962"><ele>103.7</ele><time>2024-03-26T17:15:23Z</time></trkpt><trkpt lat="58.057335" lon="38.831045"><ele>103.5</ele><time>2024-03-26T17:15:26Z</time></trkpt><trkpt lat="58.05727" lon="38.831125"><ele>104.3</ele><time>2024-03-26T17:15:29Z</time></trkpt><trkpt lat="58.057187" lon="38.831152"><ele>104.3</ele><time>2024-03-26T17:15:34Z</time></trkpt><trkpt lat="58.057125" lon="38.83124"><ele>104.6</ele><time>2024-03-26T17:15:37Z</time></trkpt><trkpt lat="58.057067" lon="38.831335"><ele>105.4</ele><time>2024-03-26T17:15:40Z</time></trkpt><trkpt lat="58.05701" lon="38.831435"><ele>106.0</ele><time>2024-03-26T17:15:43Z</time></trkpt><trkpt lat="58.056965" lon="38.831565"><ele>105.6</ele><time>2024-03-26T17:15:46Z</time></trkpt><trkpt lat="58.0569" lon="38.831665"><ele>104.7</ele><time>2024-03-26T17:15:50Z</time></trkpt><trkpt lat="58.05684" lon="38.831763"><ele>105.0</ele><time>2024-03-26T17:15:53Z</time></trkpt><trkpt lat="58.056825" lon="38.83191"><ele>104.5</ele><time>2024-03-26T17:15:56Z</time></trkpt><trkpt lat="58.05679" lon="38.832085"><ele>106.7</ele><time>2024-03-26T17:15:59Z</time></trkpt><trkpt lat="58.056755" lon="38.832245"><ele>106.6</ele><time>2024-03-26T17:16:02Z</time></trkpt><trkpt lat="58.056717" lon="38.83238"><ele>109.1</ele><time>2024-03-26T17:16:05Z</time></trkpt><trkpt lat="58.056655" lon="38.832495"><ele>108.9</ele><time>2024-03-26T17:16:08Z</time></trkpt><trkpt lat="58.056605" lon="38.832645"><ele>109.3</ele><time>2024-03-26T17:16:12Z</time></trkpt><trkpt lat="58.056567" lon="38.832782"><ele>108.8</ele><time>2024-03-26T17:16:16Z</time></trkpt><trkpt lat="58.056525" lon="38.832915"><ele>107.2</ele><time>2024-03-26T17:16:19Z</time></trkpt><trkpt lat="58.05649" lon="38.83305"><ele>107.1</ele><time>2024-03-26T17:16:22Z</time></trkpt><trkpt lat="58.05644" lon="38.83317"><ele>106.5</ele><time>2024-03-26T17:16:25Z</time></trkpt><trkpt lat="58.056385" lon="38.8333"><ele>106.9</ele><time>2024-03-26T17:16:29Z</time></trkpt><trkpt lat="58.056335" lon="38.833422"><ele>106.4</ele><time>2024-03-26T17:16:32Z</time></trkpt><trkpt lat="58.056295" lon="38.833575"><ele>106.5</ele><time>2024-03-26T17:16:35Z</time></trkpt><trkpt lat="58.056268" lon="38.833705"><ele>107.5</ele><time>2024-03-26T17:16:38Z</time></trkpt><trkpt lat="58.05622" lon="38.833845"><ele>106.4</ele><time>2024-03-26T17:16:41Z</time></trkpt><trkpt lat="58.05617" lon="38.834005"><ele>105.3</ele><time>2024-03-26T17:16:44Z</time></trkpt><trkpt lat="58.056128" lon="38.834127"><ele>105.8</ele><time>2024-03-26T17:16:47Z</time></trkpt><trkpt lat="58.056095" lon="38.834268"><ele>104.9</ele><time>2024-03-26T17:16:51Z</time></trkpt><trkpt lat="58.056052" lon="38.83442"><ele>104.9</ele><time>2024-03-26T17:16:55Z</time></trkpt><trkpt lat="58.05602" lon="38.834542"><ele>104.2</ele><time>2024-03-26T17:16:58Z</time></trkpt><trkpt lat="58.05598" lon="38.83469"><ele>102.9</ele><time>2024-03-26T17:17:02Z</time></trkpt><trkpt lat="58.055955" lon="38.834835"><ele>104.5</ele><time>2024-03-26T17:17:05Z</time></trkpt><trkpt lat="58.055888" lon="38.83498"><ele>105.9</ele><time>2024-03-26T17:17:09Z</time></trkpt><trkpt lat="58.055837" lon="38.83513"><ele>105.3</ele><time>2024-03-26T17:17:13Z</time></trkpt><trkpt lat="58.0558" lon="38.83527"><ele>105.1</ele><time>2024-03-26T17:17:16Z</time></trkpt><trkpt lat="58.055745" lon="38.83542"><ele>104.9</ele><time>2024-03-26T17:17:20Z</time></trkpt><trkpt lat="58.05572" lon="38.83556"><ele>104.6</ele><time>2024-03-26T17:17:23Z</time></trkpt><trkpt lat="58.055655" lon="38.835645"><ele>105.2</ele><time>2024-03-26T17:17:26Z</time></trkpt><trkpt lat="58.055625" lon="38.835785"><ele>104.7</ele><time>2024-03-26T17:17:29Z</time></trkpt><trkpt lat="58.055588" lon="38.835917"><ele>105.9</ele><time>2024-03-26T17:17:32Z</time></trkpt><trkpt lat="58.055555" lon="38.836055"><ele>106.2</ele><time>2024-03-26T17:17:35Z</time></trkpt><trkpt lat="58.055512" lon="38.836185"><ele>106.0</ele><time>2024-03-26T17:17:38Z</time></trkpt><trkpt lat="58.055482" lon="38.836345"><ele>106.2</ele><time>2024-03-26T17:17:41Z</time></trkpt><trkpt lat="58.05545" lon="38.836477"><ele>106.5</ele><time>2024-03-26T17:17:44Z</time></trkpt><trkpt lat="58.05541" lon="38.836595"><ele>106.8</ele><time>2024-03-26T17:17:47Z</time></trkpt><trkpt lat="58.05538" lon="38.83673"><ele>107.9</ele><time>2024-03-26T17:17:50Z</time></trkpt><trkpt lat="58.055345" lon="38.83686"><ele>108.6</ele><time>2024-03-26T17:17:53Z</time></trkpt><trkpt lat="58.0553" lon="38.836975"><ele>108.1</ele><time>2024-03-26T17:17:56Z</time></trkpt><trkpt lat="58.055255" lon="38.837105"><ele>107.2</ele><time>2024-03-26T17:17:59Z</time></trkpt><trkpt lat="58.055208" lon="38.837245"><ele>107.3</ele><time>2024-03-26T17:18:02Z</time></trkpt><trkpt lat="58.055155" lon="38.837385"><ele>108.4</ele><time>2024-03-26T17:18:05Z</time></trkpt><trkpt lat="58.0551" lon="38.837505"><ele>107.1</ele><time>2024-03-26T17:18:09Z</time></trkpt><trkpt lat="58.055057" lon="38.837625"><ele>108.1</ele><time>2024-03-26T17:18:12Z</time></trkpt><trkpt lat="58.055" lon="38.837758"><ele>108.3</ele><time>2024-03-26T17:18:16Z</time></trkpt><trkpt lat="58.054965" lon="38.83789"><ele>107.6</ele><time>2024-03-26T17:18:19Z</time></trkpt><trkpt lat="58.054925" lon="38.83802"><ele>106.5</ele><time>2024-03-26T17:18:22Z</time></trkpt><trkpt lat="58.05487" lon="38.838155"><ele>106.2</ele><time>2024-03-26T17:18:26Z</time></trkpt><trkpt lat="58.05484" lon="38.83829"><ele>106.5</ele><time>2024-03-26T17:18:29Z</time></trkpt><trkpt lat="58.0548" lon="38.838417"><ele>105.7</ele><time>2024-03-26T17:18:32Z</time></trkpt><trkpt lat="58.054755" lon="38.83856"><ele>105.2</ele><time>2024-03-26T17:18:36Z</time></trkpt><trkpt lat="58.05472" lon="38.838682"><ele>105.2</ele><time>2024-03-26T17:18:39Z</time></trkpt><trkpt lat="58.054677" lon="38.8388"><ele>105.6</ele><time>2024-03-26T17:18:42Z</time></trkpt><trkpt lat="58.05464" lon="38.83893"><ele>106.6</ele><time>2024-03-26T17:18:45Z</time></trkpt><trkpt lat="58.054605" lon="38.83906"><ele>107.0</ele><time>2024-03-26T17:18:48Z</time></trkpt><trkpt lat="58.054555" lon="38.83921"><ele>108.5</ele><time>2024-03-26T17:18:52Z</time></trkpt><trkpt lat="58.054505" lon="38.83935"><ele>109.7</ele><time>2024-03-26T17:18:56Z</time></trkpt><trkpt lat="58.05446" lon="38.839457"><ele>109.6</ele><time>2024-03-26T17:18:59Z</time></trkpt><trkpt lat="58.0544" lon="38.83957"><ele>107.0</ele><time>2024-03-26T17:19:03Z</time></trkpt><trkpt lat="58.054345" lon="38.839692"><ele>106.1</ele><time>2024-03-26T17:19:07Z</time></trkpt><trkpt lat="58.054287" lon="38.83978"><ele>106.8</ele><time>2024-03-26T17:19:10Z</time></trkpt><trkpt lat="58.054243" lon="38.83995"><ele>105.2</ele><time>2024-03-26T17:19:14Z</time></trkpt><trkpt lat="58.05421" lon="38.840065"><ele>103.3</ele><time>2024-03-26T17:19:17Z</time></trkpt><trkpt lat="58.054165" lon="38.840178"><ele>102.8</ele><time>2024-03-26T17:19:20Z</time></trkpt><trkpt lat="58.054127" lon="38.8403"><ele>104.5</ele><time>2024-03-26T17:19:23Z</time></trkpt><trkpt lat="58.054065" lon="38.84043"><ele>102.6</ele><time>2024-03-26T17:19:27Z</time></trkpt><trkpt lat="58.05402" lon="38.840545"><ele>102.6</ele><time>2024-03-26T17:19:30Z</time></trkpt><trkpt lat="58.05398" lon="38.84069"><ele>101.5</ele><time>2024-03-26T17:19:34Z</time></trkpt><trkpt lat="58.053945" lon="38.84081"><ele>102.4</ele><time>2024-03-26T17:19:37Z</time></trkpt><trkpt lat="58.0539" lon="38.840917"><ele>104.6</ele><time>2024-03-26T17:19:40Z</time></trkpt><trkpt lat="58.053862" lon="38.841045"><ele>107.4</ele><time>2024-03-26T17:19:44Z</time></trkpt><trkpt lat="58.053807" lon="38.841155"><ele>108.0</ele><time>2024-03-26T17:19:47Z</time></trkpt><trkpt lat="58.053763" lon="38.84129"><ele>106.7</ele><time>2024-03-26T17:19:50Z</time></trkpt><trkpt lat="58.053735" lon="38.84145"><ele>107.1</ele><time>2024-03-26T17:19:53Z</time></trkpt><trkpt lat="58.053697" lon="38.84159"><ele>107.6</ele><time>2024-03-26T17:19:56Z</time></trkpt><trkpt lat="58.053655" lon="38.841737"><ele>107.8</ele><time>2024-03-26T17:19:59Z</time></trkpt><trkpt lat="58.053595" lon="38.841853"><ele>105.6</ele><time>2024-03-26T17:20:02Z</time></trkpt><trkpt lat="58.053547" lon="38.842002"><ele>106.9</ele><time>2024-03-26T17:20:06Z</time></trkpt><trkpt lat="58.05352" lon="38.84213"><ele>108.1</ele><time>2024-03-26T17:20:09Z</time></trkpt><trkpt lat="58.05349" lon="38.842252"><ele>106.1</ele><time>2024-03-26T17:20:12Z</time></trkpt><trkpt lat="58.05344" lon="38.842355"><ele>106.6</ele><time>2024-03-26T17:20:15Z</time></trkpt><trkpt lat="58.0534" lon="38.84248"><ele>106.8</ele><time>2024-03-26T17:20:18Z</time></trkpt><trkpt lat="58.053355" lon="38.842592"><ele>105.7</ele><time>2024-03-26T17:20:21Z</time></trkpt><trkpt lat="58.053305" lon="38.84272"><ele>105.7</ele><time>2024-03-26T17:20:24Z</time></trkpt><trkpt lat="58.05327" lon="38.84288"><ele>105.3</ele><time>2024-03-26T17:20:28Z</time></trkpt><trkpt lat="58.053212" lon="38.843015"><ele>107.1</ele><time>2024-03-26T17:20:32Z</time></trkpt><trkpt lat="58.053162" lon="38.843145"><ele>107.5</ele><time>2024-03-26T17:20:36Z</time></trkpt><trkpt lat="58.053115" lon="38.843255"><ele>107.9</ele><time>2024-03-26T17:20:39Z</time></trkpt><trkpt lat="58.053095" lon="38.843425"><ele>106.0</ele><time>2024-03-26T17:20:43Z</time></trkpt><trkpt lat="58.053045" lon="38.84355"><ele>106.1</ele><time>2024-03-26T17:20:46Z</time></trkpt><trkpt lat="58.05299" lon="38.843662"><ele>104.9</ele><time>2024-03-26T17:20:49Z</time></trkpt><trkpt lat="58.052945" lon="38.843775"><ele>103.3</ele><time>2024-03-26T17:20:53Z</time></trkpt><trkpt lat="58.052905" lon="38.843888"><ele>103.3</ele><time>2024-03-26T17:20:56Z</time></trkpt><trkpt lat="58.052862" lon="38.844017"><ele>104.0</ele><time>2024-03-26T17:20:59Z</time></trkpt><trkpt lat="58.052815" lon="38.844147"><ele>104.5</ele><time>2024-03-26T17:21:02Z</time></trkpt><trkpt lat="58.05277" lon="38.84428"><ele>105.6</ele><time>2024-03-26T17:21:05Z</time></trkpt><trkpt lat="58.05275" lon="38.844427"><ele>104.1</ele><time>2024-03-26T17:21:08Z</time></trkpt><trkpt lat="58.0527" lon="38.84453"><ele>107.4</ele><time>2024-03-26T17:21:11Z</time></trkpt><trkpt lat="58.052645" lon="38.84463"><ele>105.9</ele><time>2024-03-26T17:21:14Z</time></trkpt><trkpt lat="58.0526" lon="38.844745"><ele>107.6</ele><time>2024-03-26T17:21:17Z</time></trkpt><trkpt lat="58.052552" lon="38.844885"><ele>107.9</ele><time>2024-03-26T17:21:21Z</time></trkpt><trkpt lat="58.05252" lon="38.845045"><ele>107.4</ele><time>2024-03-26T17:21:25Z</time></trkpt><trkpt lat="58.052475" lon="38.84516"><ele>109.1</ele><time>2024-03-26T17:21:29Z</time></trkpt><trkpt lat="58.05239" lon="38.845125"><ele>107.2</ele><time>2024-03-26T17:21:33Z</time></trkpt><trkpt lat="58.052315" lon="38.84506"><ele>107.7</ele><time>2024-03-26T17:21:36Z</time></trkpt><trkpt lat="58.052245" lon="38.844935"><ele>106.8</ele><time>2024-03-26T17:21:40Z</time></trkpt><trkpt lat="58.05221" lon="38.844772"><ele>106.8</ele><time>2024-03-26T17:21:44Z</time></trkpt><trkpt lat="58.05219" lon="38.844595"><ele>107.8</ele><time>2024-03-26T17:21:48Z</time></trkpt><trkpt lat="58.052237" lon="38.84449"><ele>107.6</ele><time>2024-03-26T17:21:54Z</time></trkpt><trkpt lat="58.05225" lon="38.844335"><ele>105.2</ele><time>2024-03-26T17:21:58Z</time></trkpt><trkpt lat="58.052245" lon="38.844182"><ele>104.2</ele><time>2024-03-26T17:22:01Z</time></trkpt><trkpt lat="58.052265" lon="38.844005"><ele>104.9</ele><time>2024-03-26T17:22:04Z</time></trkpt><trkpt lat="58.052265" lon="38.843807"><ele>106.1</ele><time>2024-03-26T17:22:07Z</time></trkpt><trkpt lat="58.052295" lon="38.84365"><ele>105.8</ele><time>2024-03-26T17:22:10Z</time></trkpt><trkpt lat="58.052355" lon="38.843502"><ele>106.7</ele><time>2024-03-26T17:22:13Z</time></trkpt><trkpt lat="58.052375" lon="38.843315"><ele>105.6</ele><time>2024-03-26T17:22:17Z</time></trkpt><trkpt lat="58.052397" lon="38.84316"><ele>105.7</ele><time>2024-03-26T17:22:21Z</time></trkpt><trkpt lat="58.052435" lon="38.843035"><ele>105.4</ele><time>2024-03-26T17:22:25Z</time></trkpt><trkpt lat="58.05246" lon="38.84286"><ele>107.1</ele><time>2024-03-26T17:22:29Z</time></trkpt><trkpt lat="58.052475" lon="38.84273"><ele>105.8</ele><time>2024-03-26T17:22:32Z</time></trkpt><trkpt lat="58.052455" lon="38.84256"><ele>105.5</ele><time>2024-03-26T17:22:37Z</time></trkpt><trkpt lat="58.052465" lon="38.842395"><ele>107.5</ele><time>2024-03-26T17:22:42Z</time></trkpt><trkpt lat="58.05251" lon="38.842245"><ele>106.4</ele><time>2024-03-26T17:22:47Z</time></trkpt><trkpt lat="58.052545" lon="38.842105"><ele>105.0</ele><time>2024-03-26T17:22:50Z</time></trkpt><trkpt lat="58.052553" lon="38.841935"><ele>105.9</ele><time>2024-03-26T17:22:53Z</time></trkpt><trkpt lat="58.052552" lon="38.841787"><ele>105.9</ele><time>2024-03-26T17:22:55Z</time></trkpt><trkpt lat="58.052562" lon="38.84164"><ele>107.5</ele><time>2024-03-26T17:22:58Z</time></trkpt><trkpt lat="58.052615" lon="38.84152"><ele>105.0</ele><time>2024-03-26T17:23:02Z</time></trkpt><trkpt lat="58.05266" lon="38.8414"><ele>104.8</ele><time>2024-03-26T17:23:05Z</time></trkpt><trkpt lat="58.05268" lon="38.841255"><ele>105.7</ele><time>2024-03-26T17:23:08Z</time></trkpt><trkpt lat="58.052712" lon="38.841095"><ele>104.7</ele><time>2024-03-26T17:23:11Z</time></trkpt><trkpt lat="58.052732" lon="38.840965"><ele>106.7</ele><time>2024-03-26T17:23:13Z</time></trkpt><trkpt lat="58.052777" lon="38.8408"><ele>104.8</ele><time>2024-03-26T17:23:17Z</time></trkpt><trkpt lat="58.052805" lon="38.84064"><ele>105.6</ele><time>2024-03-26T17:23:21Z</time></trkpt><trkpt lat="58.052845" lon="38.840512"><ele>105.3</ele><time>2024-03-26T17:23:25Z</time></trkpt><trkpt lat="58.052863" lon="38.840342"><ele>106.2</ele><time>2024-03-26T17:23:29Z</time></trkpt><trkpt lat="58.05289" lon="38.84021"><ele>104.6</ele><time>2024-03-26T17:23:32Z</time></trkpt><trkpt lat="58.052945" lon="38.840115"><ele>104.7</ele><time>2024-03-26T17:23:36Z</time></trkpt><trkpt lat="58.05299" lon="38.83996"><ele>104.4</ele><time>2024-03-26T17:23:40Z</time></trkpt><trkpt lat="58.053027" lon="38.839815"><ele>104.2</ele><time>2024-03-26T17:23:43Z</time></trkpt><trkpt lat="58.053057" lon="38.839677"><ele>104.8</ele><time>2024-03-26T17:23:46Z</time></trkpt><trkpt lat="58.05312" lon="38.839545"><ele>102.0</ele><time>2024-03-26T17:23:50Z</time></trkpt><trkpt lat="58.0532" lon="38.839487"><ele>103.3</ele><time>2024-03-26T17:23:53Z</time></trkpt><trkpt lat="58.05329" lon="38.839457"><ele>104.9</ele><time>2024-03-26T17:23:56Z</time></trkpt><trkpt lat="58.053365" lon="38.839445"><ele>104.8</ele><time>2024-03-26T17:23:58Z</time></trkpt><trkpt lat="58.05343" lon="38.839565"><ele>104.7</ele><time>2024-03-26T17:24:02Z</time></trkpt><trkpt lat="58.053475" lon="38.839707"><ele>105.7</ele><time>2024-03-26T17:24:05Z</time></trkpt><trkpt lat="58.053562" lon="38.839642"><ele>106.0</ele><time>2024-03-26T17:24:09Z</time></trkpt><trkpt lat="58.053642" lon="38.839665"><ele>106.9</ele><time>2024-03-26T17:24:12Z</time></trkpt><trkpt lat="58.053707" lon="38.83975"><ele>108.9</ele><time>2024-03-26T17:24:17Z</time></trkpt><trkpt lat="58.053785" lon="38.83982"><ele>107.0</ele><time>2024-03-26T17:24:20Z</time></trkpt><trkpt lat="58.053865" lon="38.839868"><ele>108.2</ele><time>2024-03-26T17:24:23Z</time></trkpt><trkpt lat="58.05395" lon="38.83993"><ele>109.0</ele><time>2024-03-26T17:24:26Z</time></trkpt><trkpt lat="58.053985" lon="38.840075"><ele>107.8</ele><time>2024-03-26T17:24:29Z</time></trkpt><trkpt lat="58.054072" lon="38.840155"><ele>109.6</ele><time>2024-03-26T17:24:34Z</time></trkpt><trkpt lat="58.05416" lon="38.840155"><ele>113.5</ele><time>2024-03-26T17:24:37Z</time></trkpt><trkpt lat="58.054228" lon="38.84007"><ele>111.0</ele><time>2024-03-26T17:24:40Z</time></trkpt><trkpt lat="58.054265" lon="38.839945"><ele>111.2</ele><time>2024-03-26T17:24:43Z</time></trkpt><trkpt lat="58.05431" lon="38.839787"><ele>109.2</ele><time>2024-03-26T17:24:47Z</time></trkpt><trkpt lat="58.054355" lon="38.839637"><ele>107.5</ele><time>2024-03-26T17:24:51Z</time></trkpt><trkpt lat="58.054392" lon="38.839515"><ele>107.5</ele><time>2024-03-26T17:24:54Z</time></trkpt><trkpt lat="58.054417" lon="38.839355"><ele>107.5</ele><time>2024-03-26T17:24:58Z</time></trkpt><trkpt lat="58.054468" lon="38.83925"><ele>106.6</ele><time>2024-03-26T17:25:01Z</time></trkpt><trkpt lat="58.054532" lon="38.83914"><ele>106.5</ele><time>2024-03-26T17:25:04Z</time></trkpt><trkpt lat="58.054565" lon="38.839005"><ele>104.7</ele><time>2024-03-26T17:25:07Z</time></trkpt><trkpt lat="58.054607" lon="38.838883"><ele>104.9</ele><time>2024-03-26T17:25:10Z</time></trkpt><trkpt lat="58.05466" lon="38.838765"><ele>102.5</ele><time>2024-03-26T17:25:13Z</time></trkpt><trkpt lat="58.054705" lon="38.83862"><ele>104.9</ele><time>2024-03-26T17:25:17Z</time></trkpt><trkpt lat="58.054747" lon="38.8385"><ele>103.6</ele><time>2024-03-26T17:25:20Z</time></trkpt><trkpt lat="58.05481" lon="38.838348"><ele>105.0</ele><time>2024-03-26T17:25:24Z</time></trkpt><trkpt lat="58.05487" lon="38.8382"><ele>107.3</ele><time>2024-03-26T17:25:28Z</time></trkpt><trkpt lat="58.0549" lon="38.83807"><ele>106.8</ele><time>2024-03-26T17:25:31Z</time></trkpt><trkpt lat="58.054955" lon="38.837942"><ele>106.4</ele><time>2024-03-26T17:25:34Z</time></trkpt><trkpt lat="58.055005" lon="38.83779"><ele>104.9</ele><time>2024-03-26T17:25:38Z</time></trkpt><trkpt lat="58.055045" lon="38.837635"><ele>105.6</ele><time>2024-03-26T17:25:41Z</time></trkpt><trkpt lat="58.055085" lon="38.83749"><ele>104.9</ele><time>2024-03-26T17:25:45Z</time></trkpt><trkpt lat="58.055155" lon="38.837405"><ele>106.7</ele><time>2024-03-26T17:25:49Z</time></trkpt><trkpt lat="58.05519" lon="38.837252"><ele>105.0</ele><time>2024-03-26T17:25:51Z</time></trkpt><trkpt lat="58.055205" lon="38.837087"><ele>105.2</ele><time>2024-03-26T17:25:53Z</time></trkpt><trkpt lat="58.05525" lon="38.836965"><ele>102.1</ele><time>2024-03-26T17:25:56Z</time></trkpt><trkpt lat="58.05529" lon="38.836842"><ele>102.7</ele><time>2024-03-26T17:25:59Z</time></trkpt><trkpt lat="58.05532" lon="38.83671"><ele>102.1</ele><time>2024-03-26T17:26:02Z</time></trkpt><trkpt lat="58.05535" lon="38.83659"><ele>102.3</ele><time>2024-03-26T17:26:06Z</time></trkpt><trkpt lat="58.05541" lon="38.836447"><ele>100.4</ele><time>2024-03-26T17:26:10Z</time></trkpt><trkpt lat="58.05545" lon="38.83625"><ele>102.0</ele><time>2024-03-26T17:26:13Z</time></trkpt><trkpt lat="58.055475" lon="38.836105"><ele>103.2</ele><time>2024-03-26T17:26:16Z</time></trkpt><trkpt lat="58.05554" lon="38.836005"><ele>104.7</ele><time>2024-03-26T17:26:19Z</time></trkpt><trkpt lat="58.055605" lon="38.83591"><ele>103.8</ele><time>2024-03-26T17:26:23Z</time></trkpt><trkpt lat="58.05562" lon="38.83577"><ele>104.0</ele><time>2024-03-26T17:26:27Z</time></trkpt><trkpt lat="58.055675" lon="38.835627"><ele>107.0</ele><time>2024-03-26T17:26:31Z</time></trkpt><trkpt lat="58.055715" lon="38.835465"><ele>104.1</ele><time>2024-03-26T17:26:35Z</time></trkpt><trkpt lat="58.055755" lon="38.83535"><ele>106.8</ele><time>2024-03-26T17:26:37Z</time></trkpt><trkpt lat="58.0558" lon="38.835225"><ele>106.9</ele><time>2024-03-26T17:26:40Z</time></trkpt><trkpt lat="58.055835" lon="38.83509"><ele>106.7</ele><time>2024-03-26T17:26:43Z</time></trkpt><trkpt lat="58.05587" lon="38.834957"><ele>107.4</ele><time>2024-03-26T17:26:46Z</time></trkpt><trkpt lat="58.05593" lon="38.834868"><ele>107.6</ele><time>2024-03-26T17:26:48Z</time></trkpt><trkpt lat="58.055945" lon="38.83473"><ele>107.0</ele><time>2024-03-26T17:26:52Z</time></trkpt><trkpt lat="58.05598" lon="38.834562"><ele>104.3</ele><time>2024-03-26T17:26:56Z</time></trkpt><trkpt lat="58.056015" lon="38.834415"><ele>103.7</ele><time>2024-03-26T17:27:00Z</time></trkpt><trkpt lat="58.056075" lon="38.834277"><ele>103.9</ele><time>2024-03-26T17:27:04Z</time></trkpt><trkpt lat="58.056125" lon="38.834155"><ele>104.0</ele><time>2024-03-26T17:27:07Z</time></trkpt><trkpt lat="58.056175" lon="38.834015"><ele>102.8</ele><time>2024-03-26T17:27:11Z</time></trkpt><trkpt lat="58.056227" lon="38.833887"><ele>103.1</ele><time>2024-03-26T17:27:15Z</time></trkpt><trkpt lat="58.056275" lon="38.833728"><ele>102.0</ele><time>2024-03-26T17:27:19Z</time></trkpt><trkpt lat="58.056307" lon="38.83357"><ele>102.7</ele><time>2024-03-26T17:27:22Z</time></trkpt><trkpt lat="58.056347" lon="38.833435"><ele>102.3</ele><time>2024-03-26T17:27:25Z</time></trkpt><trkpt lat="58.056382" lon="38.83332"><ele>101.1</ele><time>2024-03-26T17:27:28Z</time></trkpt><trkpt lat="58.05641" lon="38.833175"><ele>101.2</ele><time>2024-03-26T17:27:31Z</time></trkpt><trkpt lat="58.05646" lon="38.833037"><ele>100.6</ele><time>2024-03-26T17:27:35Z</time></trkpt><trkpt lat="58.056502" lon="38.832925"><ele>101.8</ele><time>2024-03-26T17:27:38Z</time></trkpt><trkpt lat="58.05655" lon="38.832775"><ele>100.3</ele><time>2024-03-26T17:27:42Z</time></trkpt><trkpt lat="58.056593" lon="38.83263"><ele>100.4</ele><time>2024-03-26T17:27:45Z</time></trkpt><trkpt lat="58.05664" lon="38.832477"><ele>102.4</ele><time>2024-03-26T17:27:49Z</time></trkpt><trkpt lat="58.056692" lon="38.832355"><ele>100.4</ele><time>2024-03-26T17:27:56Z</time></trkpt><trkpt lat="58.056765" lon="38.832225"><ele>99.3</ele><time>2024-03-26T17:28:02Z</time></trkpt><trkpt lat="58.056815" lon="38.832082"><ele>99.0</ele><time>2024-03-26T17:28:05Z</time></trkpt><trkpt lat="58.056872" lon="38.831935"><ele>102.0</ele><time>2024-03-26T17:28:07Z</time></trkpt><trkpt lat="58.056907" lon="38.8318"><ele>104.2</ele><time>2024-03-26T17:28:09Z</time></trkpt><trkpt lat="58.056958" lon="38.83165"><ele>102.5</ele><time>2024-03-26T17:28:12Z</time></trkpt><trkpt lat="58.056995" lon="38.831522"><ele>103.2</ele><time>2024-03-26T17:28:14Z</time></trkpt><trkpt lat="58.057032" lon="38.83134"><ele>102.4</ele><time>2024-03-26T17:28:17Z</time></trkpt><trkpt lat="58.057075" lon="38.831195"><ele>105.2</ele><time>2024-03-26T17:28:20Z</time></trkpt><trkpt lat="58.05715" lon="38.831095"><ele>105.0</ele><time>2024-03-26T17:28:24Z</time></trkpt><trkpt lat="58.05769" lon="38.830435"><ele>107.4</ele><time>2024-03-26T17:28:50Z</time></trkpt><trkpt lat="58.057685" lon="38.830297"><ele>105.0</ele><time>2024-03-26T17:28:52Z</time></trkpt><trkpt lat="58.057677" lon="38.830115"><ele>103.7</ele><time>2024-03-26T17:28:55Z</time></trkpt><trkpt lat="58.057685" lon="38.82997"><ele>102.7</ele><time>2024-03-26T17:28:58Z</time></trkpt><trkpt lat="58.057725" lon="38.829815"><ele>102.7</ele><time>2024-03-26T17:29:02Z</time></trkpt><trkpt lat="58.05777" lon="38.829705"><ele>101.4</ele><time>2024-03-26T17:29:06Z</time></trkpt><trkpt lat="58.057822" lon="38.82958"><ele>103.3</ele><time>2024-03-26T17:29:11Z</time></trkpt><trkpt lat="58.057855" lon="38.829427"><ele>104.6</ele><time>2024-03-26T17:29:14Z</time></trkpt><trkpt lat="58.05789" lon="38.82929"><ele>105.3</ele><time>2024-03-26T17:29:17Z</time></trkpt><trkpt lat="58.057932" lon="38.82917"><ele>104.2</ele><time>2024-03-26T17:29:20Z</time></trkpt><trkpt lat="58.057975" lon="38.829055"><ele>103.9</ele><time>2024-03-26T17:29:23Z</time></trkpt><trkpt lat="58.058013" lon="38.828925"><ele>102.5</ele><time>2024-03-26T17:29:26Z</time></trkpt><trkpt lat="58.058007" lon="38.82871"><ele>105.6</ele><time>2024-03-26T17:29:29Z</time></trkpt><trkpt lat="58.058075" lon="38.82861"><ele>105.8</ele><time>2024-03-26T17:29:34Z</time></trkpt><trkpt lat="58.05808" lon="38.828417"><ele>105.2</ele><time>2024-03-26T17:29:39Z</time></trkpt><trkpt lat="58.058065" lon="38.828277"><ele>107.3</ele><time>2024-03-26T17:29:42Z</time></trkpt><trkpt lat="58.058045" lon="38.8281"><ele>106.1</ele><time>2024-03-26T17:29:46Z</time></trkpt><trkpt lat="58.05804" lon="38.827925"><ele>105.7</ele><time>2024-03-26T17:29:50Z</time></trkpt><trkpt lat="58.05803" lon="38.82777"><ele>104.8</ele><time>2024-03-26T17:29:54Z</time></trkpt><trkpt lat="58.058012" lon="38.827637"><ele>106.0</ele><time>2024-03-26T17:29:57Z</time></trkpt><trkpt lat="58.058007" lon="38.827465"><ele>106.3</ele><time>2024-03-26T17:30:01Z</time></trkpt><trkpt lat="58.058012" lon="38.827295"><ele>106.8</ele><time>2024-03-26T17:30:05Z</time></trkpt><trkpt lat="58.05803" lon="38.827157"><ele>106.4</ele><time>2024-03-26T17:30:09Z</time></trkpt><trkpt lat="58.05806" lon="38.82701"><ele>105.1</ele><time>2024-03-26T17:30:13Z</time></trkpt><trkpt lat="58.05812" lon="38.826915"><ele>108.0</ele><time>2024-03-26T17:30:16Z</time></trkpt><trkpt lat="58.058162" lon="38.826765"><ele>106.1</ele><time>2024-03-26T17:30:20Z</time></trkpt><trkpt lat="58.058205" lon="38.826655"><ele>105.2</ele><time>2024-03-26T17:30:23Z</time></trkpt><trkpt lat="58.058232" lon="38.826465"><ele>104.8</ele><time>2024-03-26T17:30:26Z</time></trkpt><trkpt lat="58.058265" lon="38.82631"><ele>104.9</ele><time>2024-03-26T17:30:29Z</time></trkpt><trkpt lat="58.058305" lon="38.82618"><ele>106.1</ele><time>2024-03-26T17:30:32Z</time></trkpt><trkpt lat="58.05835" lon="38.826002"><ele>106.0</ele><time>2024-03-26T17:30:38Z</time></trkpt><trkpt lat="58.058405" lon="38.82588"><ele>105.5</ele><time>2024-03-26T17:30:41Z</time></trkpt><trkpt lat="58.058463" lon="38.825762"><ele>105.1</ele><time>2024-03-26T17:30:44Z</time></trkpt><trkpt lat="58.058517" lon="38.82564"><ele>104.9</ele><time>2024-03-26T17:30:47Z</time></trkpt><trkpt lat="58.05856" lon="38.825485"><ele>104.6</ele><time>2024-03-26T17:30:51Z</time></trkpt><trkpt lat="58.05861" lon="38.825318"><ele>107.1</ele><time>2024-03-26T17:30:55Z</time></trkpt><trkpt lat="58.05861" lon="38.825108"><ele>105.7</ele><time>2024-03-26T17:30:56Z</time></trkpt><trkpt lat="58.058655" lon="38.824955"><ele>108.2</ele><time>2024-03-26T17:31:00Z</time></trkpt><trkpt lat="58.058685" lon="38.824815"><ele>109.4</ele><time>2024-03-26T17:31:03Z</time></trkpt><trkpt lat="58.058745" lon="38.824727"><ele>108.0</ele><time>2024-03-26T17:31:06Z</time></trkpt><trkpt lat="58.0588" lon="38.82461"><ele>108.9</ele><time>2024-03-26T17:31:09Z</time></trkpt><trkpt lat="58.058857" lon="38.824475"><ele>110.3</ele><time>2024-03-26T17:31:14Z</time></trkpt><trkpt lat="58.0589" lon="38.82434"><ele>109.7</ele><time>2024-03-26T17:31:17Z</time></trkpt><trkpt lat="58.058952" lon="38.824245"><ele>108.6</ele><time>2024-03-26T17:31:19Z</time></trkpt><trkpt lat="58.059002" lon="38.824115"><ele>106.5</ele><time>2024-03-26T17:31:23Z</time></trkpt><trkpt lat="58.059062" lon="38.824025"><ele>109.2</ele><time>2024-03-26T17:31:26Z</time></trkpt><trkpt lat="58.059125" lon="38.823915"><ele>107.6</ele><time>2024-03-26T17:31:29Z</time></trkpt><trkpt lat="58.05918" lon="38.823812"><ele>109.4</ele><time>2024-03-26T17:31:32Z</time></trkpt><trkpt lat="58.059245" lon="38.82368"><ele>105.8</ele><time>2024-03-26T17:31:36Z</time></trkpt><trkpt lat="58.059295" lon="38.82358"><ele>106.7</ele><time>2024-03-26T17:31:39Z</time></trkpt><trkpt lat="58.059365" lon="38.823465"><ele>106.0</ele><time>2024-03-26T17:31:43Z</time></trkpt><trkpt lat="58.05943" lon="38.823348"><ele>107.7</ele><time>2024-03-26T17:31:47Z</time></trkpt><trkpt lat="58.059485" lon="38.823265"><ele>108.2</ele><time>2024-03-26T17:31:50Z</time></trkpt><trkpt lat="58.05954" lon="38.823155"><ele>111.3</ele><time>2024-03-26T17:31:53Z</time></trkpt><trkpt lat="58.059617" lon="38.82295"><ele>111.0</ele><time>2024-03-26T17:31:56Z</time></trkpt><trkpt lat="58.059617" lon="38.8228"><ele>110.4</ele><time>2024-03-26T17:32:01Z</time></trkpt><trkpt lat="58.059645" lon="38.822665"><ele>109.1</ele><time>2024-03-26T17:32:04Z</time></trkpt><trkpt lat="58.05965" lon="38.822505"><ele>106.1</ele><time>2024-03-26T17:32:08Z</time></trkpt><trkpt lat="58.059645" lon="38.822363"><ele>106.2</ele><time>2024-03-26T17:32:11Z</time></trkpt><trkpt lat="58.05963" lon="38.82222"><ele>107.6</ele><time>2024-03-26T17:32:14Z</time></trkpt><trkpt lat="58.059655" lon="38.82204"><ele>107.7</ele><time>2024-03-26T17:32:18Z</time></trkpt><trkpt lat="58.05968" lon="38.821885"><ele>110.5</ele><time>2024-03-26T17:32:20Z</time></trkpt><trkpt lat="58.05968" lon="38.821707"><ele>108.9</ele><time>2024-03-26T17:32:23Z</time></trkpt><trkpt lat="58.059687" lon="38.82156"><ele>109.6</ele><time>2024-03-26T17:32:26Z</time></trkpt><trkpt lat="58.05973" lon="38.821435"><ele>109.2</ele><time>2024-03-26T17:32:30Z</time></trkpt><trkpt lat="58.059757" lon="38.8213"><ele>108.7</ele><time>2024-03-26T17:32:34Z</time></trkpt><trkpt lat="58.059795" lon="38.82113"><ele>108.8</ele><time>2024-03-26T17:32:38Z</time></trkpt><trkpt lat="58.059795" lon="38.820995"><ele>109.0</ele><time>2024-03-26T17:32:40Z</time></trkpt><trkpt lat="58.059795" lon="38.820815"><ele>110.3</ele><time>2024-03-26T17:32:43Z</time></trkpt><trkpt lat="58.059795" lon="38.820662"><ele>109.8</ele><time>2024-03-26T17:32:47Z</time></trkpt><trkpt lat="58.059767" lon="38.82049"><ele>109.4</ele><time>2024-03-26T17:32:51Z</time></trkpt><trkpt lat="58.059767" lon="38.820345"><ele>108.6</ele><time>2024-03-26T17:32:54Z</time></trkpt><trkpt lat="58.059745" lon="38.820085"><ele>109.1</ele><time>2024-03-26T17:32:56Z</time></trkpt><trkpt lat="58.059805" lon="38.819985"><ele>110.1</ele><time>2024-03-26T17:33:00Z</time></trkpt><trkpt lat="58.059837" lon="38.81985"><ele>107.6</ele><time>2024-03-26T17:33:05Z</time></trkpt><trkpt lat="58.059838" lon="38.81967"><ele>109.7</ele><time>2024-03-26T17:33:07Z</time></trkpt><trkpt lat="58.059842" lon="38.81952"><ele>110.3</ele><time>2024-03-26T17:33:10Z</time></trkpt><trkpt lat="58.05986" lon="38.81936"><ele>110.4</ele><time>2024-03-26T17:33:13Z</time></trkpt><trkpt lat="58.059865" lon="38.81921"><ele>111.3</ele><time>2024-03-26T17:33:16Z</time></trkpt><trkpt lat="58.059865" lon="38.81904"><ele>111.3</ele><time>2024-03-26T17:33:19Z</time></trkpt><trkpt lat="58.05987" lon="38.818872"><ele>112.0</ele><time>2024-03-26T17:33:23Z</time></trkpt><trkpt lat="58.059862" lon="38.818733"><ele>112.9</ele><time>2024-03-26T17:33:26Z</time></trkpt><trkpt lat="58.05987" lon="38.8186"><ele>113.1</ele><time>2024-03-26T17:33:29Z</time></trkpt><trkpt lat="58.059875" lon="38.818465"><ele>112.7</ele><time>2024-03-26T17:33:32Z</time></trkpt><trkpt lat="58.059885" lon="38.81829"><ele>113.8</ele><time>2024-03-26T17:33:36Z</time></trkpt><trkpt lat="58.0599" lon="38.818155"><ele>112.9</ele><time>2024-03-26T17:33:39Z</time></trkpt><trkpt lat="58.05991" lon="38.817982"><ele>112.6</ele><time>2024-03-26T17:33:43Z</time></trkpt><trkpt lat="58.059927" lon="38.817842"><ele>111.5</ele><time>2024-03-26T17:33:46Z</time></trkpt><trkpt lat="58.059962" lon="38.81772"><ele>108.4</ele><time>2024-03-26T17:33:52Z</time></trkpt><trkpt lat="58.059975" lon="38.817765"><ele>109.5</ele><time>2024-03-26T17:33:59Z</time></trkpt><trkpt lat="58.059955" lon="38.817748"><ele>111.5</ele><time>2024-03-26T17:34:06Z</time></trkpt><trkpt lat="58.059952" lon="38.817735"><ele>111.8</ele><time>2024-03-26T17:34:12Z</time></trkpt></trkseg></trk></gpx>