<?xml version="1.0" encoding="UTF-8" standalone="no"?><gpx xmlns="http://www.topografix.com/GPX/1/1" xmlns:gpxtpx="http://www.garmin.com/xmlschemas/TrackPointExtension/v1" xmlns:xsi="http://www.w3.org/2001/XMLSchema-instance" creator="Sports Tracker" version="1.1" xsi:schemaLocation="http://www.topografix.com/GPX/1/1 http://www.topografix.com/GPX/1/1/gpx.xsd http://www.garmin.com/xmlschemas/TrackPointExtension/v1 http://www.garmin.com/xmlschemas/TrackPointExtensionv1.xsd"><metadata><name/><desc/><author><name>Александр</name></author></metadata><trk><name/><trkseg><trkpt lat="58.044503" lon="38.837893"><ele>101.0</ele><time>2023-11-03T15:00:00Z</time></trkpt><trkpt lat="58.044335" lon="38.838137"><ele>101.0</ele><time>2023-11-03T15:00:01Z</time></trkpt><trkpt lat="58.044273" lon="38.838015"><ele>101.0</ele><time>2023-11-03T15:00:08Z</time></trkpt><trkpt lat="58.044328" lon="38.837908"><ele>100.0</ele><time>2023-11-03T15:00:23Z</time></trkpt><trkpt lat="58.044402" lon="38.837862"><ele>101.0</ele><time>2023-11-03T15:00:31Z</time></trkpt><trkpt lat="58.044478" lon="38.83782"><ele>102.0</ele><time>2023-11-03T15:00:39Z</time></trkpt><trkpt lat="58.04455" lon="38.837765"><ele>102.0</ele><time>2023-11-03T15:00:47Z</time></trkpt><trkpt lat="58.04461" lon="38.837693"><ele>104.0</ele><time>2023-11-03T15:00:55Z</time></trkpt><trkpt lat="58.044687" lon="38.837743"><ele>104.0</ele><time>2023-11-03T15:01:03Z</time></trkpt><trkpt lat="58.044757" lon="38.83778"><ele>104.0</ele><time>2023-11-03T15:01:09Z</time></trkpt><trkpt lat="58.044837" lon="38.83782"><ele>104.0</ele><time>2023-11-03T15:01:16Z</time></trkpt><trkpt lat="58.04491" lon="38.837875"><ele>104.0</ele><time>2023-11-03T15:01:23Z</time></trkpt><trkpt lat="58.044973" lon="38.837942"><ele>105.0</ele><time>2023-11-03T15:01:29Z</time></trkpt><trkpt lat="58.045043" lon="38.837973"><ele>105.0</ele><time>2023-11-03T15:01:34Z</time></trkpt><trkpt lat="58.045128" lon="38.837998"><ele>104.0</ele><time>2023-11-03T15:01:40Z</time></trkpt><trkpt lat="58.045202" lon="38.83805"><ele>104.0</ele><time>2023-11-03T15:01:46Z</time></trkpt><trkpt lat="58.045273" lon="38.838077"><ele>104.0</ele><time>2023-11-03T15:01:52Z</time></trkpt><trkpt lat="58.045348" lon="38.838108"><ele>105.0</ele><time>2023-11-03T15:01:58Z</time></trkpt><trkpt lat="58.045417" lon="38.838178"><ele>100.0</ele><time>2023-11-03T15:02:29Z</time></trkpt><trkpt lat="58.045483" lon="38.838233"><ele>100.0</ele><time>2023-11-03T15:02:36Z</time></trkpt><trkpt lat="58.045562" lon="38.83827"><ele>100.0</ele><time>2023-11-03T15:02:43Z</time></trkpt><trkpt lat="58.045632" lon="38.838307"><ele>100.0</ele><time>2023-11-03T15:02:50Z</time></trkpt><trkpt lat="58.045705" lon="38.83837"><ele>100.0</ele><time>2023-11-03T15:02:56Z</time></trkpt><trkpt lat="58.045757" lon="38.838477"><ele>100.0</ele><time>2023-11-03T15:03:03Z</time></trkpt><trkpt lat="58.045837" lon="38.838537"><ele>101.0</ele><time>2023-11-03T15:03:15Z</time></trkpt><trkpt lat="58.045912" lon="38.83858"><ele>101.0</ele><time>2023-11-03T15:03:22Z</time></trkpt><trkpt lat="58.045983" lon="38.838608"><ele>101.0</ele><time>2023-11-03T15:03:33Z</time></trkpt><trkpt lat="58.046058" lon="38.83867"><ele>101.0</ele><time>2023-11-03T15:03:39Z</time></trkpt><trkpt lat="58.046142" lon="38.83868"><ele>101.0</ele><time>2023-11-03T15:03:44Z</time></trkpt><trkpt lat="58.046218" lon="38.838682"><ele>102.0</ele><time>2023-11-03T15:03:49Z</time></trkpt><trkpt lat="58.046285" lon="38.838768"><ele>103.0</ele><time>2023-11-03T15:03:55Z</time></trkpt><trkpt lat="58.046353" lon="38.838843"><ele>102.0</ele><time>2023-11-03T15:04:05Z</time></trkpt><trkpt lat="58.046427" lon="38.838852"><ele>102.0</ele><time>2023-11-03T15:04:09Z</time></trkpt><trkpt lat="58.046502" lon="38.838845"><ele>103.0</ele><time>2023-11-03T15:04:14Z</time></trkpt><trkpt lat="58.046578" lon="38.838878"><ele>103.0</ele><time>2023-11-03T15:04:20Z</time></trkpt><trkpt lat="58.046657" lon="38.838927"><ele>104.0</ele><time>2023-11-03T15:04:24Z</time></trkpt><trkpt lat="58.046732" lon="38.838953"><ele>104.0</ele><time>2023-11-03T15:04:28Z</time></trkpt><trkpt lat="58.046813" lon="38.838978"><ele>105.0</ele><time>2023-11-03T15:04:34Z</time></trkpt><trkpt lat="58.04688" lon="38.839032"><ele>105.0</ele><time>2023-11-03T15:04:40Z</time></trkpt><trkpt lat="58.046925" lon="38.839155"><ele>104.0</ele><time>2023-11-03T15:04:48Z</time></trkpt><trkpt lat="58.04699" lon="38.839223"><ele>103.0</ele><time>2023-11-03T15:04:56Z</time></trkpt><trkpt lat="58.047052" lon="38.839293"><ele>102.0</ele><time>2023-11-03T15:05:02Z</time></trkpt><trkpt lat="58.047117" lon="38.839382"><ele>102.0</ele><time>2023-11-03T15:05:08Z</time></trkpt><trkpt lat="58.047185" lon="38.839425"><ele>102.0</ele><time>2023-11-03T15:05:13Z</time></trkpt><trkpt lat="58.047262" lon="38.839447"><ele>102.0</ele><time>2023-11-03T15:05:18Z</time></trkpt><trkpt lat="58.047338" lon="38.839478"><ele>102.0</ele><time>2023-11-03T15:05:25Z</time></trkpt><trkpt lat="58.047412" lon="38.839532"><ele>102.0</ele><time>2023-11-03T15:05:32Z</time></trkpt><trkpt lat="58.047488" lon="38.83955"><ele>102.0</ele><time>2023-11-03T15:05:41Z</time></trkpt><trkpt lat="58.047567" lon="38.839587"><ele>102.0</ele><time>2023-11-03T15:05:47Z</time></trkpt><trkpt lat="58.047638" lon="38.839635"><ele>102.0</ele><time>2023-11-03T15:05:54Z</time></trkpt><trkpt lat="58.047712" lon="38.839662"><ele>102.0</ele><time>2023-11-03T15:06:01Z</time></trkpt><trkpt lat="58.047778" lon="38.839758"><ele>101.0</ele><time>2023-11-03T15:06:10Z</time></trkpt><trkpt lat="58.047857" lon="38.839767"><ele>100.0</ele><time>2023-11-03T15:06:16Z</time></trkpt><trkpt lat="58.047928" lon="38.839783"><ele>100.0</ele><time>2023-11-03T15:06:21Z</time></trkpt><trkpt lat="58.048002" lon="38.839803"><ele>100.0</ele><time>2023-11-03T15:06:29Z</time></trkpt><trkpt lat="58.048078" lon="38.839867"><ele>101.0</ele><time>2023-11-03T15:06:34Z</time></trkpt><trkpt lat="58.048152" lon="38.83993"><ele>100.0</ele><time>2023-11-03T15:06:40Z</time></trkpt><trkpt lat="58.04823" lon="38.839893"><ele>99.0</ele><time>2023-11-03T15:07:20Z</time></trkpt><trkpt lat="58.048308" lon="38.839833"><ele>98.0</ele><time>2023-11-03T15:07:26Z</time></trkpt><trkpt lat="58.048382" lon="38.839843"><ele>99.0</ele><time>2023-11-03T15:07:31Z</time></trkpt><trkpt lat="58.048458" lon="38.839855"><ele>100.0</ele><time>2023-11-03T15:07:37Z</time></trkpt><trkpt lat="58.048535" lon="38.839908"><ele>101.0</ele><time>2023-11-03T15:07:44Z</time></trkpt><trkpt lat="58.048598" lon="38.83998"><ele>101.0</ele><time>2023-11-03T15:07:52Z</time></trkpt><trkpt lat="58.048675" lon="38.840055"><ele>100.0</ele><time>2023-11-03T15:08:00Z</time></trkpt><trkpt lat="58.048748" lon="38.840125"><ele>99.0</ele><time>2023-11-03T15:08:07Z</time></trkpt><trkpt lat="58.048818" lon="38.840177"><ele>99.0</ele><time>2023-11-03T15:08:13Z</time></trkpt><trkpt lat="58.048887" lon="38.840258"><ele>100.0</ele><time>2023-11-03T15:08:19Z</time></trkpt><trkpt lat="58.04896" lon="38.840295"><ele>100.0</ele><time>2023-11-03T15:08:25Z</time></trkpt><trkpt lat="58.049027" lon="38.84036"><ele>100.0</ele><time>2023-11-03T15:08:32Z</time></trkpt><trkpt lat="58.049098" lon="38.84044"><ele>100.0</ele><time>2023-11-03T15:08:38Z</time></trkpt><trkpt lat="58.04917" lon="38.840425"><ele>101.0</ele><time>2023-11-03T15:08:43Z</time></trkpt><trkpt lat="58.049245" lon="38.840398"><ele>101.0</ele><time>2023-11-03T15:08:49Z</time></trkpt><trkpt lat="58.049317" lon="38.840462"><ele>101.0</ele><time>2023-11-03T15:08:54Z</time></trkpt><trkpt lat="58.04938" lon="38.840528"><ele>101.0</ele><time>2023-11-03T15:09:00Z</time></trkpt><trkpt lat="58.049458" lon="38.840557"><ele>100.0</ele><time>2023-11-03T15:09:07Z</time></trkpt><trkpt lat="58.049528" lon="38.840592"><ele>100.0</ele><time>2023-11-03T15:09:15Z</time></trkpt><trkpt lat="58.049592" lon="38.840665"><ele>100.0</ele><time>2023-11-03T15:09:21Z</time></trkpt><trkpt lat="58.04967" lon="38.840678"><ele>100.0</ele><time>2023-11-03T15:09:28Z</time></trkpt><trkpt lat="58.049743" lon="38.840707"><ele>100.0</ele><time>2023-11-03T15:09:34Z</time></trkpt><trkpt lat="58.049807" lon="38.84079"><ele>100.0</ele><time>2023-11-03T15:09:42Z</time></trkpt><trkpt lat="58.04987" lon="38.840872"><ele>100.0</ele><time>2023-11-03T15:09:46Z</time></trkpt><trkpt lat="58.04994" lon="38.840923"><ele>100.0</ele><time>2023-11-03T15:09:51Z</time></trkpt><trkpt lat="58.050007" lon="38.840993"><ele>99.0</ele><time>2023-11-03T15:09:56Z</time></trkpt><trkpt lat="58.050082" lon="38.841033"><ele>99.0</ele><time>2023-11-03T15:10:01Z</time></trkpt><trkpt lat="58.050152" lon="38.841102"><ele>100.0</ele><time>2023-11-03T15:10:06Z</time></trkpt><trkpt lat="58.050222" lon="38.841133"><ele>99.0</ele><time>2023-11-03T15:10:11Z</time></trkpt><trkpt lat="58.050305" lon="38.841113"><ele>100.0</ele><time>2023-11-03T15:10:18Z</time></trkpt><trkpt lat="58.050362" lon="38.841248"><ele>99.0</ele><time>2023-11-03T15:10:24Z</time></trkpt><trkpt lat="58.050402" lon="38.841368"><ele>99.0</ele><time>2023-11-03T15:10:28Z</time></trkpt><trkpt lat="58.050448" lon="38.841477"><ele>99.0</ele><time>2023-11-03T15:10:32Z</time></trkpt><trkpt lat="58.050523" lon="38.84152"><ele>100.0</ele><time>2023-11-03T15:10:38Z</time></trkpt><trkpt lat="58.050592" lon="38.841573"><ele>100.0</ele><time>2023-11-03T15:10:45Z</time></trkpt><trkpt lat="58.050675" lon="38.84156"><ele>100.0</ele><time>2023-11-03T15:10:52Z</time></trkpt><trkpt lat="58.050753" lon="38.841523"><ele>100.0</ele><time>2023-11-03T15:10:58Z</time></trkpt><trkpt lat="58.050835" lon="38.84155"><ele>100.0</ele><time>2023-11-03T15:11:04Z</time></trkpt><trkpt lat="58.050905" lon="38.841592"><ele>99.0</ele><time>2023-11-03T15:11:10Z</time></trkpt><trkpt lat="58.050988" lon="38.841558"><ele>99.0</ele><time>2023-11-03T15:11:16Z</time></trkpt><trkpt lat="58.051017" lon="38.841408"><ele>99.0</ele><time>2023-11-03T15:11:22Z</time></trkpt><trkpt lat="58.051035" lon="38.841253"><ele>99.0</ele><time>2023-11-03T15:11:28Z</time></trkpt><trkpt lat="58.051068" lon="38.841128"><ele>99.0</ele><time>2023-11-03T15:11:34Z</time></trkpt><trkpt lat="58.051103" lon="38.840997"><ele>99.0</ele><time>2023-11-03T15:11:40Z</time></trkpt><trkpt lat="58.051142" lon="38.840862"><ele>99.0</ele><time>2023-11-03T15:11:46Z</time></trkpt><trkpt lat="58.051167" lon="38.840718"><ele>100.0</ele><time>2023-11-03T15:11:53Z</time></trkpt><trkpt lat="58.05121" lon="38.840593"><ele>100.0</ele><time>2023-11-03T15:11:59Z</time></trkpt><trkpt lat="58.05124" lon="38.840452"><ele>100.0</ele><time>2023-11-03T15:12:06Z</time></trkpt><trkpt lat="58.051263" lon="38.840308"><ele>100.0</ele><time>2023-11-03T15:12:13Z</time></trkpt><trkpt lat="58.051285" lon="38.840162"><ele>99.0</ele><time>2023-11-03T15:12:21Z</time></trkpt><trkpt lat="58.051322" lon="38.840032"><ele>99.0</ele><time>2023-11-03T15:12:29Z</time></trkpt><trkpt lat="58.051358" lon="38.839897"><ele>99.0</ele><time>2023-11-03T15:12:36Z</time></trkpt><trkpt lat="58.051383" lon="38.83976"><ele>99.0</ele><time>2023-11-03T15:12:43Z</time></trkpt><trkpt lat="58.05142" lon="38.839627"><ele>99.0</ele><time>2023-11-03T15:12:50Z</time></trkpt><trkpt lat="58.051445" lon="38.83948"><ele>100.0</ele><time>2023-11-03T15:12:56Z</time></trkpt><trkpt lat="58.051458" lon="38.839338"><ele>99.0</ele><time>2023-11-03T15:13:02Z</time></trkpt><trkpt lat="58.051483" lon="38.839202"><ele>99.0</ele><time>2023-11-03T15:13:09Z</time></trkpt><trkpt lat="58.05152" lon="38.839068"><ele>99.0</ele><time>2023-11-03T15:13:17Z</time></trkpt><trkpt lat="58.051533" lon="38.838922"><ele>99.0</ele><time>2023-11-03T15:13:22Z</time></trkpt><trkpt lat="58.051573" lon="38.83879"><ele>100.0</ele><time>2023-11-03T15:13:28Z</time></trkpt><trkpt lat="58.051608" lon="38.83864"><ele>101.0</ele><time>2023-11-03T15:13:34Z</time></trkpt><trkpt lat="58.051625" lon="38.838485"><ele>100.0</ele><time>2023-11-03T15:13:40Z</time></trkpt><trkpt lat="58.051642" lon="38.838342"><ele>100.0</ele><time>2023-11-03T15:13:45Z</time></trkpt><trkpt lat="58.051685" lon="38.838187"><ele>100.0</ele><time>2023-11-03T15:13:51Z</time></trkpt><trkpt lat="58.051737" lon="38.838082"><ele>100.0</ele><time>2023-11-03T15:13:57Z</time></trkpt><trkpt lat="58.051797" lon="38.837982"><ele>101.0</ele><time>2023-11-03T15:14:02Z</time></trkpt><trkpt lat="58.051857" lon="38.837895"><ele>101.0</ele><time>2023-11-03T15:14:07Z</time></trkpt><trkpt lat="58.051903" lon="38.837787"><ele>101.0</ele><time>2023-11-03T15:14:12Z</time></trkpt><trkpt lat="58.051923" lon="38.837643"><ele>101.0</ele><time>2023-11-03T15:14:18Z</time></trkpt><trkpt lat="58.05194" lon="38.837503"><ele>100.0</ele><time>2023-11-03T15:14:24Z</time></trkpt><trkpt lat="58.051958" lon="38.83737"><ele>100.0</ele><time>2023-11-03T15:14:31Z</time></trkpt><trkpt lat="58.051977" lon="38.83723"><ele>99.0</ele><time>2023-11-03T15:14:39Z</time></trkpt><trkpt lat="58.052002" lon="38.837095"><ele>99.0</ele><time>2023-11-03T15:14:47Z</time></trkpt><trkpt lat="58.052027" lon="38.836953"><ele>99.0</ele><time>2023-11-03T15:14:54Z</time></trkpt><trkpt lat="58.052055" lon="38.836825"><ele>99.0</ele><time>2023-11-03T15:15:02Z</time></trkpt><trkpt lat="58.052093" lon="38.836697"><ele>99.0</ele><time>2023-11-03T15:15:09Z</time></trkpt><trkpt lat="58.052132" lon="38.836577"><ele>99.0</ele><time>2023-11-03T15:15:16Z</time></trkpt><trkpt lat="58.052152" lon="38.83643"><ele>99.0</ele><time>2023-11-03T15:15:23Z</time></trkpt><trkpt lat="58.052177" lon="38.836288"><ele>99.0</ele><time>2023-11-03T15:15:31Z</time></trkpt><trkpt lat="58.052193" lon="38.83615"><ele>99.0</ele><time>2023-11-03T15:15:38Z</time></trkpt><trkpt lat="58.052208" lon="38.836002"><ele>98.0</ele><time>2023-11-03T15:15:45Z</time></trkpt><trkpt lat="58.052235" lon="38.835853"><ele>97.0</ele><time>2023-11-03T15:15:52Z</time></trkpt><trkpt lat="58.05227" lon="38.83571"><ele>98.0</ele><time>2023-11-03T15:15:59Z</time></trkpt><trkpt lat="58.052307" lon="38.835573"><ele>97.0</ele><time>2023-11-03T15:16:06Z</time></trkpt><trkpt lat="58.052337" lon="38.83543"><ele>97.0</ele><time>2023-11-03T15:16:13Z</time></trkpt><trkpt lat="58.052367" lon="38.835292"><ele>97.0</ele><time>2023-11-03T15:16:20Z</time></trkpt><trkpt lat="58.0524" lon="38.835172"><ele>96.0</ele><time>2023-11-03T15:16:27Z</time></trkpt><trkpt lat="58.052417" lon="38.835025"><ele>96.0</ele><time>2023-11-03T15:16:33Z</time></trkpt><trkpt lat="58.052452" lon="38.834903"><ele>96.0</ele><time>2023-11-03T15:16:38Z</time></trkpt><trkpt lat="58.052462" lon="38.834767"><ele>97.0</ele><time>2023-11-03T15:16:43Z</time></trkpt><trkpt lat="58.05249" lon="38.834633"><ele>97.0</ele><time>2023-11-03T15:16:49Z</time></trkpt><trkpt lat="58.052522" lon="38.834495"><ele>98.0</ele><time>2023-11-03T15:16:55Z</time></trkpt><trkpt lat="58.052545" lon="38.834327"><ele>98.0</ele><time>2023-11-03T15:17:00Z</time></trkpt><trkpt lat="58.052552" lon="38.834178"><ele>98.0</ele><time>2023-11-03T15:17:04Z</time></trkpt><trkpt lat="58.052562" lon="38.83403"><ele>97.0</ele><time>2023-11-03T15:17:09Z</time></trkpt><trkpt lat="58.052592" lon="38.833892"><ele>97.0</ele><time>2023-11-03T15:17:15Z</time></trkpt><trkpt lat="58.052617" lon="38.83376"><ele>97.0</ele><time>2023-11-03T15:17:21Z</time></trkpt><trkpt lat="58.052657" lon="38.833628"><ele>98.0</ele><time>2023-11-03T15:17:28Z</time></trkpt><trkpt lat="58.05269" lon="38.833505"><ele>99.0</ele><time>2023-11-03T15:17:35Z</time></trkpt><trkpt lat="58.052703" lon="38.833367"><ele>99.0</ele><time>2023-11-03T15:17:41Z</time></trkpt><trkpt lat="58.05275" lon="38.833243"><ele>99.0</ele><time>2023-11-03T15:17:48Z</time></trkpt><trkpt lat="58.05279" lon="38.833115"><ele>99.0</ele><time>2023-11-03T15:17:55Z</time></trkpt><trkpt lat="58.05282" lon="38.83299"><ele>99.0</ele><time>2023-11-03T15:18:01Z</time></trkpt><trkpt lat="58.052837" lon="38.832838"><ele>100.0</ele><time>2023-11-03T15:18:07Z</time></trkpt><trkpt lat="58.052858" lon="38.832697"><ele>100.0</ele><time>2023-11-03T15:18:13Z</time></trkpt><trkpt lat="58.05287" lon="38.832547"><ele>99.0</ele><time>2023-11-03T15:18:19Z</time></trkpt><trkpt lat="58.052893" lon="38.832415"><ele>100.0</ele><time>2023-11-03T15:18:25Z</time></trkpt><trkpt lat="58.05292" lon="38.832275"><ele>99.0</ele><time>2023-11-03T15:18:31Z</time></trkpt><trkpt lat="58.052918" lon="38.832125"><ele>99.0</ele><time>2023-11-03T15:18:37Z</time></trkpt><trkpt lat="58.052958" lon="38.831987"><ele>99.0</ele><time>2023-11-03T15:18:44Z</time></trkpt><trkpt lat="58.052987" lon="38.83185"><ele>99.0</ele><time>2023-11-03T15:18:50Z</time></trkpt><trkpt lat="58.053022" lon="38.83173"><ele>99.0</ele><time>2023-11-03T15:18:56Z</time></trkpt><trkpt lat="58.053067" lon="38.831605"><ele>99.0</ele><time>2023-11-03T15:19:04Z</time></trkpt><trkpt lat="58.053105" lon="38.83148"><ele>100.0</ele><time>2023-11-03T15:19:11Z</time></trkpt><trkpt lat="58.053143" lon="38.831362"><ele>100.0</ele><time>2023-11-03T15:19:18Z</time></trkpt><trkpt lat="58.053165" lon="38.831227"><ele>100.0</ele><time>2023-11-03T15:19:24Z</time></trkpt><trkpt lat="58.053175" lon="38.831077"><ele>100.0</ele><time>2023-11-03T15:19:30Z</time></trkpt><trkpt lat="58.053185" lon="38.830935"><ele>100.0</ele><time>2023-11-03T15:19:36Z</time></trkpt><trkpt lat="58.053205" lon="38.830782"><ele>100.0</ele><time>2023-11-03T15:19:43Z</time></trkpt><trkpt lat="58.053237" lon="38.830657"><ele>100.0</ele><time>2023-11-03T15:19:50Z</time></trkpt><trkpt lat="58.053277" lon="38.830515"><ele>100.0</ele><time>2023-11-03T15:19:57Z</time></trkpt><trkpt lat="58.053212" lon="38.830405"><ele>100.0</ele><time>2023-11-03T15:20:06Z</time></trkpt><trkpt lat="58.053125" lon="38.830425"><ele>100.0</ele><time>2023-11-03T15:20:10Z</time></trkpt><trkpt lat="58.053055" lon="38.830468"><ele>100.0</ele><time>2023-11-03T15:20:14Z</time></trkpt><trkpt lat="58.052987" lon="38.830508"><ele>100.0</ele><time>2023-11-03T15:20:35Z</time></trkpt><trkpt lat="58.05295" lon="38.830385"><ele>100.0</ele><time>2023-11-03T15:20:55Z</time></trkpt><trkpt lat="58.05288" lon="38.830315"><ele>100.0</ele><time>2023-11-03T15:21:02Z</time></trkpt><trkpt lat="58.052812" lon="38.83027"><ele>99.0</ele><time>2023-11-03T15:21:08Z</time></trkpt><trkpt lat="58.052743" lon="38.830212"><ele>99.0</ele><time>2023-11-03T15:21:14Z</time></trkpt><trkpt lat="58.052668" lon="38.830188"><ele>99.0</ele><time>2023-11-03T15:21:21Z</time></trkpt><trkpt lat="58.052593" lon="38.83014"><ele>99.0</ele><time>2023-11-03T15:21:27Z</time></trkpt><trkpt lat="58.052522" lon="38.8301"><ele>99.0</ele><time>2023-11-03T15:21:32Z</time></trkpt><trkpt lat="58.052452" lon="38.830027"><ele>99.0</ele><time>2023-11-03T15:21:38Z</time></trkpt><trkpt lat="58.052378" lon="38.829958"><ele>99.0</ele><time>2023-11-03T15:21:43Z</time></trkpt><trkpt lat="58.052298" lon="38.82991"><ele>98.0</ele><time>2023-11-03T15:21:49Z</time></trkpt><trkpt lat="58.052215" lon="38.829875"><ele>98.0</ele><time>2023-11-03T15:21:55Z</time></trkpt><trkpt lat="58.052138" lon="38.829818"><ele>99.0</ele><time>2023-11-03T15:22:01Z</time></trkpt><trkpt lat="58.052067" lon="38.829752"><ele>99.0</ele><time>2023-11-03T15:22:08Z</time></trkpt><trkpt lat="58.051993" lon="38.829802"><ele>99.0</ele><time>2023-11-03T15:22:15Z</time></trkpt><trkpt lat="58.05192" lon="38.8298"><ele>99.0</ele><time>2023-11-03T15:22:20Z</time></trkpt><trkpt lat="58.051863" lon="38.829882"><ele>99.0</ele><time>2023-11-03T15:22:27Z</time></trkpt><trkpt lat="58.051847" lon="38.830027"><ele>99.0</ele><time>2023-11-03T15:22:34Z</time></trkpt><trkpt lat="58.051795" lon="38.830148"><ele>99.0</ele><time>2023-11-03T15:22:40Z</time></trkpt><trkpt lat="58.051772" lon="38.830277"><ele>99.0</ele><time>2023-11-03T15:22:47Z</time></trkpt><trkpt lat="58.051752" lon="38.830418"><ele>100.0</ele><time>2023-11-03T15:22:53Z</time></trkpt><trkpt lat="58.051715" lon="38.830553"><ele>100.0</ele><time>2023-11-03T15:22:59Z</time></trkpt><trkpt lat="58.051685" lon="38.83069"><ele>99.0</ele><time>2023-11-03T15:23:04Z</time></trkpt><trkpt lat="58.05166" lon="38.83083"><ele>99.0</ele><time>2023-11-03T15:23:10Z</time></trkpt><trkpt lat="58.05165" lon="38.830983"><ele>99.0</ele><time>2023-11-03T15:23:15Z</time></trkpt><trkpt lat="58.051635" lon="38.831135"><ele>99.0</ele><time>2023-11-03T15:23:20Z</time></trkpt><trkpt lat="58.051615" lon="38.831287"><ele>99.0</ele><time>2023-11-03T15:23:26Z</time></trkpt><trkpt lat="58.051585" lon="38.831427"><ele>99.0</ele><time>2023-11-03T15:23:32Z</time></trkpt><trkpt lat="58.051552" lon="38.831557"><ele>99.0</ele><time>2023-11-03T15:23:39Z</time></trkpt><trkpt lat="58.051527" lon="38.83171"><ele>99.0</ele><time>2023-11-03T15:23:45Z</time></trkpt><trkpt lat="58.051518" lon="38.831855"><ele>99.0</ele><time>2023-11-03T15:23:52Z</time></trkpt><trkpt lat="58.051482" lon="38.831975"><ele>99.0</ele><time>2023-11-03T15:23:59Z</time></trkpt><trkpt lat="58.05143" lon="38.832093"><ele>99.0</ele><time>2023-11-03T15:24:05Z</time></trkpt><trkpt lat="58.051425" lon="38.832233"><ele>100.0</ele><time>2023-11-03T15:24:12Z</time></trkpt><trkpt lat="58.051408" lon="38.83237"><ele>100.0</ele><time>2023-11-03T15:24:18Z</time></trkpt><trkpt lat="58.05139" lon="38.832502"><ele>100.0</ele><time>2023-11-03T15:24:23Z</time></trkpt><trkpt lat="58.051365" lon="38.832657"><ele>99.0</ele><time>2023-11-03T15:24:29Z</time></trkpt><trkpt lat="58.05133" lon="38.832787"><ele>99.0</ele><time>2023-11-03T15:24:35Z</time></trkpt><trkpt lat="58.051308" lon="38.832927"><ele>99.0</ele><time>2023-11-03T15:24:41Z</time></trkpt><trkpt lat="58.051257" lon="38.83302"><ele>100.0</ele><time>2023-11-03T15:24:47Z</time></trkpt><trkpt lat="58.05118" lon="38.832992"><ele>100.0</ele><time>2023-11-03T15:24:53Z</time></trkpt><trkpt lat="58.051123" lon="38.83291"><ele>100.0</ele><time>2023-11-03T15:25:01Z</time></trkpt><trkpt lat="58.050733" lon="38.8331"><ele>101.0</ele><time>2023-11-03T15:26:34Z</time></trkpt><trkpt lat="58.050975" lon="38.833192"><ele>101.0</ele><time>2023-11-03T15:26:49Z</time></trkpt><trkpt lat="58.051163" lon="38.833407"><ele>101.0</ele><time>2023-11-03T15:26:50Z</time></trkpt><trkpt lat="58.051162" lon="38.833268"><ele>101.0</ele><time>2023-11-03T15:26:57Z</time></trkpt><trkpt lat="58.05119" lon="38.833412"><ele>101.0</ele><time>2023-11-03T15:26:58Z</time></trkpt><trkpt lat="58.051092" lon="38.83322"><ele>101.0</ele><time>2023-11-03T15:27:05Z</time></trkpt><trkpt lat="58.050817" lon="38.83312"><ele>101.0</ele><time>2023-11-03T15:28:53Z</time></trkpt><trkpt lat="58.051008" lon="38.833175"><ele>101.0</ele><time>2023-11-03T15:29:01Z</time></trkpt><trkpt lat="58.050835" lon="38.833128"><ele>101.0</ele><time>2023-11-03T15:29:08Z</time></trkpt><trkpt lat="58.050947" lon="38.83316"><ele>101.0</ele><time>2023-11-03T15:29:26Z</time></trkpt><trkpt lat="58.051063" lon="38.833193"><ele>103.0</ele><time>2023-11-03T15:29:46Z</time></trkpt><trkpt lat="58.050823" lon="38.83313"><ele>101.0</ele><time>2023-11-03T15:34:58Z</time></trkpt><trkpt lat="58.050963" lon="38.833168"><ele>101.0</ele><time>2023-11-03T15:35:06Z</time></trkpt><trkpt lat="58.051098" lon="38.833202"><ele>101.0</ele><time>2023-11-03T15:35:13Z</time></trkpt><trkpt lat="58.05094" lon="38.833175"><ele>101.0</ele><time>2023-11-03T15:37:06Z</time></trkpt><trkpt lat="58.05115" lon="38.833397"><ele>101.0</ele><time>2023-11-03T15:37:07Z</time></trkpt><trkpt lat="58.050843" lon="38.833133"><ele>101.0</ele><time>2023-11-03T15:37:14Z</time></trkpt><trkpt lat="58.050992" lon="38.833142"><ele>101.0</ele><time>2023-11-03T15:37:21Z</time></trkpt><trkpt lat="58.050812" lon="38.833112"><ele>101.0</ele><time>2023-11-03T15:37:22Z</time></trkpt><trkpt lat="58.051027" lon="38.833177"><ele>101.0</ele><time>2023-11-03T15:37:29Z</time></trkpt><trkpt lat="58.05111" lon="38.833205"><ele>101.0</ele><time>2023-11-03T15:37:36Z</time></trkpt><trkpt lat="58.051182" lon="38.83317"><ele>100.0</ele><time>2023-11-03T15:39:01Z</time></trkpt><trkpt lat="58.051262" lon="38.833168"><ele>101.0</ele><time>2023-11-03T15:39:09Z</time></trkpt><trkpt lat="58.051293" lon="38.833042"><ele>102.0</ele><time>2023-11-03T15:39:14Z</time></trkpt><trkpt lat="58.051293" lon="38.832903"><ele>101.0</ele><time>2023-11-03T15:39:19Z</time></trkpt><trkpt lat="58.051303" lon="38.832755"><ele>101.0</ele><time>2023-11-03T15:39:27Z</time></trkpt><trkpt lat="58.05134" lon="38.832628"><ele>101.0</ele><time>2023-11-03T15:39:34Z</time></trkpt><trkpt lat="58.051368" lon="38.832495"><ele>100.0</ele><time>2023-11-03T15:39:41Z</time></trkpt><trkpt lat="58.051407" lon="38.832368"><ele>100.0</ele><time>2023-11-03T15:39:47Z</time></trkpt><trkpt lat="58.051427" lon="38.832232"><ele>99.0</ele><time>2023-11-03T15:39:54Z</time></trkpt><trkpt lat="58.051452" lon="38.832092"><ele>100.0</ele><time>2023-11-03T15:40:01Z</time></trkpt><trkpt lat="58.051473" lon="38.831963"><ele>100.0</ele><time>2023-11-03T15:40:07Z</time></trkpt><trkpt lat="58.051487" lon="38.831813"><ele>100.0</ele><time>2023-11-03T15:40:14Z</time></trkpt><trkpt lat="58.051508" lon="38.831665"><ele>100.0</ele><time>2023-11-03T15:40:24Z</time></trkpt><trkpt lat="58.051538" lon="38.831528"><ele>99.0</ele><time>2023-11-03T15:40:30Z</time></trkpt><trkpt lat="58.051563" lon="38.83138"><ele>100.0</ele><time>2023-11-03T15:40:37Z</time></trkpt><trkpt lat="58.05159" lon="38.831252"><ele>99.0</ele><time>2023-11-03T15:40:44Z</time></trkpt><trkpt lat="58.051618" lon="38.831122"><ele>99.0</ele><time>2023-11-03T15:40:51Z</time></trkpt><trkpt lat="58.051637" lon="38.83099"><ele>99.0</ele><time>2023-11-03T15:40:57Z</time></trkpt><trkpt lat="58.051665" lon="38.830847"><ele>99.0</ele><time>2023-11-03T15:41:04Z</time></trkpt><trkpt lat="58.051698" lon="38.830712"><ele>99.0</ele><time>2023-11-03T15:41:11Z</time></trkpt><trkpt lat="58.051723" lon="38.830573"><ele>99.0</ele><time>2023-11-03T15:41:18Z</time></trkpt><trkpt lat="58.051745" lon="38.830435"><ele>98.0</ele><time>2023-11-03T15:41:24Z</time></trkpt><trkpt lat="58.051773" lon="38.830295"><ele>98.0</ele><time>2023-11-03T15:41:30Z</time></trkpt><trkpt lat="58.051795" lon="38.830157"><ele>98.0</ele><time>2023-11-03T15:41:36Z</time></trkpt><trkpt lat="58.051815" lon="38.829998"><ele>98.0</ele><time>2023-11-03T15:41:42Z</time></trkpt><trkpt lat="58.051833" lon="38.82986"><ele>98.0</ele><time>2023-11-03T15:41:47Z</time></trkpt><trkpt lat="58.0519" lon="38.829808"><ele>98.0</ele><time>2023-11-03T15:41:53Z</time></trkpt><trkpt lat="58.051973" lon="38.829835"><ele>98.0</ele><time>2023-11-03T15:41:59Z</time></trkpt><trkpt lat="58.052038" lon="38.829775"><ele>98.0</ele><time>2023-11-03T15:42:05Z</time></trkpt><trkpt lat="58.052085" lon="38.829643"><ele>98.0</ele><time>2023-11-03T15:42:11Z</time></trkpt><trkpt lat="58.05209" lon="38.829503"><ele>98.0</ele><time>2023-11-03T15:42:16Z</time></trkpt><trkpt lat="58.052107" lon="38.829357"><ele>98.0</ele><time>2023-11-03T15:42:22Z</time></trkpt><trkpt lat="58.05214" lon="38.829233"><ele>97.0</ele><time>2023-11-03T15:42:28Z</time></trkpt><trkpt lat="58.052177" lon="38.829113"><ele>98.0</ele><time>2023-11-03T15:42:34Z</time></trkpt><trkpt lat="58.052203" lon="38.828987"><ele>97.0</ele><time>2023-11-03T15:42:40Z</time></trkpt><trkpt lat="58.052223" lon="38.828837"><ele>97.0</ele><time>2023-11-03T15:42:46Z</time></trkpt><trkpt lat="58.052278" lon="38.828727"><ele>98.0</ele><time>2023-11-03T15:42:52Z</time></trkpt><trkpt lat="58.052345" lon="38.82865"><ele>97.0</ele><time>2023-11-03T15:42:58Z</time></trkpt><trkpt lat="58.052412" lon="38.82855"><ele>97.0</ele><time>2023-11-03T15:43:04Z</time></trkpt><trkpt lat="58.052482" lon="38.828503"><ele>97.0</ele><time>2023-11-03T15:43:12Z</time></trkpt><trkpt lat="58.052563" lon="38.82846"><ele>98.0</ele><time>2023-11-03T15:43:17Z</time></trkpt><trkpt lat="58.052633" lon="38.82839"><ele>97.0</ele><time>2023-11-03T15:43:23Z</time></trkpt><trkpt lat="58.052668" lon="38.828263"><ele>96.0</ele><time>2023-11-03T15:43:28Z</time></trkpt><trkpt lat="58.05271" lon="38.828152"><ele>96.0</ele><time>2023-11-03T15:43:35Z</time></trkpt><trkpt lat="58.052757" lon="38.82803"><ele>96.0</ele><time>2023-11-03T15:43:42Z</time></trkpt><trkpt lat="58.052793" lon="38.827903"><ele>96.0</ele><time>2023-11-03T15:43:49Z</time></trkpt><trkpt lat="58.052822" lon="38.827767"><ele>97.0</ele><time>2023-11-03T15:46:27Z</time></trkpt><trkpt lat="58.052842" lon="38.827618"><ele>98.0</ele><time>2023-11-03T15:46:34Z</time></trkpt><trkpt lat="58.052905" lon="38.827533"><ele>98.0</ele><time>2023-11-03T15:46:41Z</time></trkpt><trkpt lat="58.052985" lon="38.827505"><ele>98.0</ele><time>2023-11-03T15:46:48Z</time></trkpt><trkpt lat="58.053062" lon="38.827443"><ele>98.0</ele><time>2023-11-03T15:46:55Z</time></trkpt><trkpt lat="58.053127" lon="38.827362"><ele>98.0</ele><time>2023-11-03T15:47:02Z</time></trkpt><trkpt lat="58.053187" lon="38.827255"><ele>97.0</ele><time>2023-11-03T15:47:09Z</time></trkpt><trkpt lat="58.053263" lon="38.827203"><ele>97.0</ele><time>2023-11-03T15:47:15Z</time></trkpt><trkpt lat="58.053343" lon="38.827163"><ele>97.0</ele><time>2023-11-03T15:47:22Z</time></trkpt><trkpt lat="58.053417" lon="38.827112"><ele>97.0</ele><time>2023-11-03T15:47:28Z</time></trkpt><trkpt lat="58.053487" lon="38.827015"><ele>97.0</ele><time>2023-11-03T15:47:34Z</time></trkpt><trkpt lat="58.053538" lon="38.826897"><ele>97.0</ele><time>2023-11-03T15:47:39Z</time></trkpt><trkpt lat="58.053603" lon="38.826793"><ele>97.0</ele><time>2023-11-03T15:47:45Z</time></trkpt><trkpt lat="58.053668" lon="38.82669"><ele>97.0</ele><time>2023-11-03T15:47:51Z</time></trkpt><trkpt lat="58.053692" lon="38.826548"><ele>97.0</ele><time>2023-11-03T15:47:56Z</time></trkpt><trkpt lat="58.05371" lon="38.8264"><ele>98.0</ele><time>2023-11-03T15:48:01Z</time></trkpt><trkpt lat="58.053738" lon="38.826258"><ele>98.0</ele><time>2023-11-03T15:48:07Z</time></trkpt><trkpt lat="58.053793" lon="38.826168"><ele>98.0</ele><time>2023-11-03T15:48:14Z</time></trkpt><trkpt lat="58.053805" lon="38.826025"><ele>98.0</ele><time>2023-11-03T15:48:21Z</time></trkpt><trkpt lat="58.053845" lon="38.82588"><ele>99.0</ele><time>2023-11-03T15:48:29Z</time></trkpt><trkpt lat="58.053895" lon="38.825772"><ele>99.0</ele><time>2023-11-03T15:48:37Z</time></trkpt><trkpt lat="58.053942" lon="38.825638"><ele>99.0</ele><time>2023-11-03T15:48:44Z</time></trkpt><trkpt lat="58.05398" lon="38.825512"><ele>99.0</ele><time>2023-11-03T15:48:52Z</time></trkpt><trkpt lat="58.054023" lon="38.825392"><ele>99.0</ele><time>2023-11-03T15:48:59Z</time></trkpt><trkpt lat="58.054082" lon="38.825302"><ele>99.0</ele><time>2023-11-03T15:49:05Z</time></trkpt><trkpt lat="58.054105" lon="38.825157"><ele>99.0</ele><time>2023-11-03T15:49:11Z</time></trkpt><trkpt lat="58.054142" lon="38.82503"><ele>100.0</ele><time>2023-11-03T15:49:18Z</time></trkpt><trkpt lat="58.054152" lon="38.824892"><ele>100.0</ele><time>2023-11-03T15:49:23Z</time></trkpt><trkpt lat="58.054148" lon="38.824748"><ele>100.0</ele><time>2023-11-03T15:49:26Z</time></trkpt><trkpt lat="58.054148" lon="38.82461"><ele>100.0</ele><time>2023-11-03T15:49:30Z</time></trkpt><trkpt lat="58.054177" lon="38.824462"><ele>99.0</ele><time>2023-11-03T15:49:39Z</time></trkpt><trkpt lat="58.054158" lon="38.82433"><ele>99.0</ele><time>2023-11-03T15:49:44Z</time></trkpt><trkpt lat="58.054147" lon="38.82419"><ele>98.0</ele><time>2023-11-03T15:49:50Z</time></trkpt><trkpt lat="58.054123" lon="38.824042"><ele>97.0</ele><time>2023-11-03T15:49:56Z</time></trkpt><trkpt lat="58.054128" lon="38.823888"><ele>97.0</ele><time>2023-11-03T15:50:03Z</time></trkpt><trkpt lat="58.054173" lon="38.823757"><ele>96.0</ele><time>2023-11-03T15:50:08Z</time></trkpt><trkpt lat="58.054223" lon="38.823627"><ele>97.0</ele><time>2023-11-03T15:50:12Z</time></trkpt><trkpt lat="58.054268" lon="38.82352"><ele>97.0</ele><time>2023-11-03T15:50:17Z</time></trkpt><trkpt lat="58.054323" lon="38.823425"><ele>97.0</ele><time>2023-11-03T15:50:24Z</time></trkpt><trkpt lat="58.054375" lon="38.823305"><ele>97.0</ele><time>2023-11-03T15:50:30Z</time></trkpt><trkpt lat="58.054392" lon="38.82317"><ele>98.0</ele><time>2023-11-03T15:50:36Z</time></trkpt><trkpt lat="58.054402" lon="38.823018"><ele>98.0</ele><time>2023-11-03T15:50:42Z</time></trkpt><trkpt lat="58.054418" lon="38.82287"><ele>98.0</ele><time>2023-11-03T15:50:48Z</time></trkpt><trkpt lat="58.05444" lon="38.822723"><ele>98.0</ele><time>2023-11-03T15:50:54Z</time></trkpt><trkpt lat="58.054462" lon="38.822588"><ele>98.0</ele><time>2023-11-03T15:51:00Z</time></trkpt><trkpt lat="58.0545" lon="38.82247"><ele>98.0</ele><time>2023-11-03T15:51:06Z</time></trkpt><trkpt lat="58.054532" lon="38.822347"><ele>98.0</ele><time>2023-11-03T15:51:12Z</time></trkpt><trkpt lat="58.054552" lon="38.82221"><ele>98.0</ele><time>2023-11-03T15:51:18Z</time></trkpt><trkpt lat="58.054573" lon="38.822075"><ele>98.0</ele><time>2023-11-03T15:51:24Z</time></trkpt><trkpt lat="58.054597" lon="38.821932"><ele>97.0</ele><time>2023-11-03T15:51:30Z</time></trkpt><trkpt lat="58.05462" lon="38.821802"><ele>97.0</ele><time>2023-11-03T15:51:36Z</time></trkpt><trkpt lat="58.054638" lon="38.821658"><ele>97.0</ele><time>2023-11-03T15:51:42Z</time></trkpt><trkpt lat="58.054647" lon="38.82152"><ele>97.0</ele><time>2023-11-03T15:51:47Z</time></trkpt><trkpt lat="58.054628" lon="38.82138"><ele>96.0</ele><time>2023-11-03T15:51:53Z</time></trkpt><trkpt lat="58.054658" lon="38.821235"><ele>96.0</ele><time>2023-11-03T15:51:59Z</time></trkpt><trkpt lat="58.054672" lon="38.82109"><ele>96.0</ele><time>2023-11-03T15:52:05Z</time></trkpt><trkpt lat="58.054682" lon="38.820945"><ele>97.0</ele><time>2023-11-03T15:52:11Z</time></trkpt><trkpt lat="58.054678" lon="38.820787"><ele>97.0</ele><time>2023-11-03T15:52:17Z</time></trkpt><trkpt lat="58.054688" lon="38.820643"><ele>97.0</ele><time>2023-11-03T15:52:24Z</time></trkpt><trkpt lat="58.054697" lon="38.820497"><ele>98.0</ele><time>2023-11-03T15:52:30Z</time></trkpt><trkpt lat="58.054712" lon="38.820363"><ele>98.0</ele><time>2023-11-03T15:52:36Z</time></trkpt><trkpt lat="58.054722" lon="38.820228"><ele>98.0</ele><time>2023-11-03T15:52:42Z</time></trkpt><trkpt lat="58.05474" lon="38.820095"><ele>98.0</ele><time>2023-11-03T15:52:49Z</time></trkpt><trkpt lat="58.054763" lon="38.819962"><ele>98.0</ele><time>2023-11-03T15:52:55Z</time></trkpt><trkpt lat="58.054775" lon="38.819817"><ele>98.0</ele><time>2023-11-03T15:53:01Z</time></trkpt><trkpt lat="58.054783" lon="38.819677"><ele>98.0</ele><time>2023-11-03T15:53:07Z</time></trkpt><trkpt lat="58.05479" lon="38.819525"><ele>98.0</ele><time>2023-11-03T15:53:14Z</time></trkpt><trkpt lat="58.054787" lon="38.819387"><ele>98.0</ele><time>2023-11-03T15:53:21Z</time></trkpt><trkpt lat="58.054793" lon="38.819248"><ele>98.0</ele><time>2023-11-03T15:53:28Z</time></trkpt><trkpt lat="58.054793" lon="38.81909"><ele>98.0</ele><time>2023-11-03T15:53:35Z</time></trkpt><trkpt lat="58.054787" lon="38.818937"><ele>98.0</ele><time>2023-11-03T15:53:41Z</time></trkpt><trkpt lat="58.054802" lon="38.818797"><ele>98.0</ele><time>2023-11-03T15:53:47Z</time></trkpt><trkpt lat="58.054813" lon="38.818637"><ele>99.0</ele><time>2023-11-03T15:53:53Z</time></trkpt><trkpt lat="58.05483" lon="38.818483"><ele>99.0</ele><time>2023-11-03T15:53:59Z</time></trkpt><trkpt lat="58.054837" lon="38.81834"><ele>99.0</ele><time>2023-11-03T15:54:05Z</time></trkpt><trkpt lat="58.054843" lon="38.818185"><ele>99.0</ele><time>2023-11-03T15:54:12Z</time></trkpt><trkpt lat="58.054845" lon="38.818037"><ele>100.0</ele><time>2023-11-03T15:54:18Z</time></trkpt><trkpt lat="58.054862" lon="38.817903"><ele>100.0</ele><time>2023-11-03T15:54:24Z</time></trkpt><trkpt lat="58.054883" lon="38.817753"><ele>100.0</ele><time>2023-11-03T15:54:31Z</time></trkpt><trkpt lat="58.054888" lon="38.817613"><ele>100.0</ele><time>2023-11-03T15:54:38Z</time></trkpt><trkpt lat="58.054915" lon="38.817472"><ele>100.0</ele><time>2023-11-03T15:54:47Z</time></trkpt><trkpt lat="58.054925" lon="38.817333"><ele>100.0</ele><time>2023-11-03T15:54:57Z</time></trkpt><trkpt lat="58.054918" lon="38.8172"><ele>100.0</ele><time>2023-11-03T15:55:02Z</time></trkpt><trkpt lat="58.054917" lon="38.817053"><ele>100.0</ele><time>2023-11-03T15:55:09Z</time></trkpt><trkpt lat="58.054922" lon="38.816913"><ele>101.0</ele><time>2023-11-03T15:55:15Z</time></trkpt><trkpt lat="58.054928" lon="38.816772"><ele>102.0</ele><time>2023-11-03T15:55:21Z</time></trkpt><trkpt lat="58.05494" lon="38.816618"><ele>102.0</ele><time>2023-11-03T15:55:28Z</time></trkpt><trkpt lat="58.054967" lon="38.816475"><ele>101.0</ele><time>2023-11-03T15:55:35Z</time></trkpt><trkpt lat="58.054988" lon="38.816328"><ele>101.0</ele><time>2023-11-03T15:55:40Z</time></trkpt><trkpt lat="58.055023" lon="38.816207"><ele>101.0</ele><time>2023-11-03T15:55:45Z</time></trkpt><trkpt lat="58.055107" lon="38.816195"><ele>100.0</ele><time>2023-11-03T15:55:51Z</time></trkpt><trkpt lat="58.05518" lon="38.816208"><ele>101.0</ele><time>2023-11-03T15:55:56Z</time></trkpt><trkpt lat="58.055257" lon="38.81619"><ele>101.0</ele><time>2023-11-03T15:56:02Z</time></trkpt><trkpt lat="58.055305" lon="38.816062"><ele>101.0</ele><time>2023-11-03T15:56:08Z</time></trkpt><trkpt lat="58.055332" lon="38.815925"><ele>101.0</ele><time>2023-11-03T15:56:14Z</time></trkpt><trkpt lat="58.055382" lon="38.815813"><ele>101.0</ele><time>2023-11-03T15:56:20Z</time></trkpt><trkpt lat="58.05543" lon="38.81571"><ele>101.0</ele><time>2023-11-03T15:56:26Z</time></trkpt><trkpt lat="58.055472" lon="38.815588"><ele>101.0</ele><time>2023-11-03T15:56:32Z</time></trkpt><trkpt lat="58.05552" lon="38.815482"><ele>102.0</ele><time>2023-11-03T15:56:38Z</time></trkpt><trkpt lat="58.055565" lon="38.815372"><ele>102.0</ele><time>2023-11-03T15:56:44Z</time></trkpt><trkpt lat="58.055617" lon="38.815272"><ele>102.0</ele><time>2023-11-03T15:56:50Z</time></trkpt><trkpt lat="58.055663" lon="38.81516"><ele>102.0</ele><time>2023-11-03T15:56:56Z</time></trkpt><trkpt lat="58.055718" lon="38.815045"><ele>101.0</ele><time>2023-11-03T15:57:03Z</time></trkpt><trkpt lat="58.055783" lon="38.814957"><ele>101.0</ele><time>2023-11-03T15:57:09Z</time></trkpt><trkpt lat="58.05585" lon="38.814865"><ele>101.0</ele><time>2023-11-03T15:57:15Z</time></trkpt><trkpt lat="58.055873" lon="38.814735"><ele>101.0</ele><time>2023-11-03T15:57:20Z</time></trkpt><trkpt lat="58.055905" lon="38.81459"><ele>101.0</ele><time>2023-11-03T15:57:26Z</time></trkpt><trkpt lat="58.055957" lon="38.814478"><ele>101.0</ele><time>2023-11-03T15:57:31Z</time></trkpt><trkpt lat="58.056008" lon="38.814377"><ele>101.0</ele><time>2023-11-03T15:57:36Z</time></trkpt><trkpt lat="58.056072" lon="38.814277"><ele>101.0</ele><time>2023-11-03T15:57:43Z</time></trkpt><trkpt lat="58.056123" lon="38.814177"><ele>100.0</ele><time>2023-11-03T15:57:49Z</time></trkpt><trkpt lat="58.056167" lon="38.814042"><ele>101.0</ele><time>2023-11-03T15:57:55Z</time></trkpt><trkpt lat="58.056213" lon="38.813935"><ele>101.0</ele><time>2023-11-03T15:58:01Z</time></trkpt><trkpt lat="58.056267" lon="38.813815"><ele>102.0</ele><time>2023-11-03T15:58:08Z</time></trkpt><trkpt lat="58.056312" lon="38.813705"><ele>102.0</ele><time>2023-11-03T15:58:14Z</time></trkpt><trkpt lat="58.05638" lon="38.813637"><ele>102.0</ele><time>2023-11-03T15:58:20Z</time></trkpt><trkpt lat="58.05646" lon="38.81365"><ele>102.0</ele><time>2023-11-03T15:58:28Z</time></trkpt><trkpt lat="58.056527" lon="38.81357"><ele>102.0</ele><time>2023-11-03T15:58:36Z</time></trkpt><trkpt lat="58.056547" lon="38.813423"><ele>102.0</ele><time>2023-11-03T15:58:42Z</time></trkpt><trkpt lat="58.056543" lon="38.813275"><ele>102.0</ele><time>2023-11-03T15:58:47Z</time></trkpt><trkpt lat="58.056567" lon="38.813133"><ele>102.0</ele><time>2023-11-03T15:58:54Z</time></trkpt><trkpt lat="58.056572" lon="38.812967"><ele>102.0</ele><time>2023-11-03T15:59:01Z</time></trkpt><trkpt lat="58.056553" lon="38.812823"><ele>101.0</ele><time>2023-11-03T15:59:07Z</time></trkpt><trkpt lat="58.056568" lon="38.81268"><ele>101.0</ele><time>2023-11-03T15:59:14Z</time></trkpt><trkpt lat="58.0566" lon="38.812547"><ele>101.0</ele><time>2023-11-03T15:59:20Z</time></trkpt><trkpt lat="58.056607" lon="38.812405"><ele>101.0</ele><time>2023-11-03T15:59:26Z</time></trkpt><trkpt lat="58.056633" lon="38.81227"><ele>100.0</ele><time>2023-11-03T15:59:34Z</time></trkpt><trkpt lat="58.056647" lon="38.812123"><ele>99.0</ele><time>2023-11-03T15:59:42Z</time></trkpt><trkpt lat="58.056655" lon="38.811975"><ele>99.0</ele><time>2023-11-03T15:59:49Z</time></trkpt><trkpt lat="58.05667" lon="38.811832"><ele>99.0</ele><time>2023-11-03T15:59:56Z</time></trkpt><trkpt lat="58.056697" lon="38.811698"><ele>99.0</ele><time>2023-11-03T16:00:02Z</time></trkpt><trkpt lat="58.056738" lon="38.81157"><ele>100.0</ele><time>2023-11-03T16:00:09Z</time></trkpt><trkpt lat="58.056735" lon="38.811422"><ele>99.0</ele><time>2023-11-03T16:00:17Z</time></trkpt><trkpt lat="58.056723" lon="38.811275"><ele>100.0</ele><time>2023-11-03T16:00:22Z</time></trkpt><trkpt lat="58.056728" lon="38.811127"><ele>100.0</ele><time>2023-11-03T16:00:28Z</time></trkpt><trkpt lat="58.056725" lon="38.810983"><ele>100.0</ele><time>2023-11-03T16:00:34Z</time></trkpt><trkpt lat="58.056737" lon="38.810828"><ele>100.0</ele><time>2023-11-03T16:00:40Z</time></trkpt><trkpt lat="58.056745" lon="38.810685"><ele>99.0</ele><time>2023-11-03T16:00:46Z</time></trkpt><trkpt lat="58.056757" lon="38.810542"><ele>99.0</ele><time>2023-11-03T16:00:50Z</time></trkpt><trkpt lat="58.056777" lon="38.81039"><ele>99.0</ele><time>2023-11-03T16:00:56Z</time></trkpt><trkpt lat="58.056787" lon="38.810232"><ele>99.0</ele><time>2023-11-03T16:01:03Z</time></trkpt><trkpt lat="58.056782" lon="38.810088"><ele>99.0</ele><time>2023-11-03T16:01:10Z</time></trkpt><trkpt lat="58.056807" lon="38.80995"><ele>100.0</ele><time>2023-11-03T16:01:22Z</time></trkpt><trkpt lat="58.056817" lon="38.809813"><ele>99.0</ele><time>2023-11-03T16:01:29Z</time></trkpt><trkpt lat="58.056847" lon="38.809685"><ele>100.0</ele><time>2023-11-03T16:01:36Z</time></trkpt><trkpt lat="58.05689" lon="38.809573"><ele>101.0</ele><time>2023-11-03T16:01:43Z</time></trkpt><trkpt lat="58.056953" lon="38.80948"><ele>101.0</ele><time>2023-11-03T16:01:51Z</time></trkpt><trkpt lat="58.057012" lon="38.809367"><ele>101.0</ele><time>2023-11-03T16:01:58Z</time></trkpt><trkpt lat="58.057048" lon="38.809232"><ele>101.0</ele><time>2023-11-03T16:02:04Z</time></trkpt><trkpt lat="58.057103" lon="38.80912"><ele>102.0</ele><time>2023-11-03T16:02:13Z</time></trkpt><trkpt lat="58.05716" lon="38.809035"><ele>102.0</ele><time>2023-11-03T16:02:17Z</time></trkpt><trkpt lat="58.057238" lon="38.808975"><ele>101.0</ele><time>2023-11-03T16:02:22Z</time></trkpt><trkpt lat="58.057318" lon="38.808932"><ele>101.0</ele><time>2023-11-03T16:02:27Z</time></trkpt><trkpt lat="58.057395" lon="38.808917"><ele>101.0</ele><time>2023-11-03T16:02:34Z</time></trkpt><trkpt lat="58.057462" lon="38.808852"><ele>101.0</ele><time>2023-11-03T16:02:41Z</time></trkpt><trkpt lat="58.05753" lon="38.80878"><ele>101.0</ele><time>2023-11-03T16:02:47Z</time></trkpt><trkpt lat="58.057607" lon="38.808725"><ele>101.0</ele><time>2023-11-03T16:02:55Z</time></trkpt><trkpt lat="58.057682" lon="38.808733"><ele>100.0</ele><time>2023-11-03T16:03:01Z</time></trkpt><trkpt lat="58.057765" lon="38.808753"><ele>101.0</ele><time>2023-11-03T16:03:08Z</time></trkpt><trkpt lat="58.057838" lon="38.808705"><ele>100.0</ele><time>2023-11-03T16:03:15Z</time></trkpt><trkpt lat="58.057907" lon="38.80876"><ele>100.0</ele><time>2023-11-03T16:03:20Z</time></trkpt><trkpt lat="58.05798" lon="38.80872"><ele>100.0</ele><time>2023-11-03T16:03:26Z</time></trkpt><trkpt lat="58.058067" lon="38.808763"><ele>100.0</ele><time>2023-11-03T16:03:33Z</time></trkpt><trkpt lat="58.05813" lon="38.808858"><ele>100.0</ele><time>2023-11-03T16:03:40Z</time></trkpt><trkpt lat="58.05818" lon="38.808963"><ele>101.0</ele><time>2023-11-03T16:03:45Z</time></trkpt><trkpt lat="58.058253" lon="38.808987"><ele>103.0</ele><time>2023-11-03T16:03:52Z</time></trkpt><trkpt lat="58.058337" lon="38.808935"><ele>103.0</ele><time>2023-11-03T16:04:00Z</time></trkpt><trkpt lat="58.058418" lon="38.808907"><ele>103.0</ele><time>2023-11-03T16:04:04Z</time></trkpt><trkpt lat="58.058482" lon="38.808823"><ele>102.0</ele><time>2023-11-03T16:04:08Z</time></trkpt><trkpt lat="58.05852" lon="38.808672"><ele>101.0</ele><time>2023-11-03T16:04:13Z</time></trkpt><trkpt lat="58.058535" lon="38.808517"><ele>101.0</ele><time>2023-11-03T16:04:18Z</time></trkpt><trkpt lat="58.058578" lon="38.808407"><ele>102.0</ele><time>2023-11-03T16:04:23Z</time></trkpt><trkpt lat="58.058612" lon="38.808282"><ele>102.0</ele><time>2023-11-03T16:04:29Z</time></trkpt><trkpt lat="58.05864" lon="38.808143"><ele>101.0</ele><time>2023-11-03T16:04:36Z</time></trkpt><trkpt lat="58.058653" lon="38.807995"><ele>101.0</ele><time>2023-11-03T16:04:43Z</time></trkpt><trkpt lat="58.058667" lon="38.807855"><ele>101.0</ele><time>2023-11-03T16:04:49Z</time></trkpt><trkpt lat="58.058692" lon="38.807727"><ele>101.0</ele><time>2023-11-03T16:04:55Z</time></trkpt><trkpt lat="58.05862" lon="38.807637"><ele>105.0</ele><time>2023-11-03T16:17:28Z</time></trkpt><trkpt lat="58.058688" lon="38.80772"><ele>105.0</ele><time>2023-11-03T16:17:35Z</time></trkpt><trkpt lat="58.058688" lon="38.80731"><ele>105.0</ele><time>2023-11-03T16:17:51Z</time></trkpt><trkpt lat="58.058668" lon="38.807447"><ele>105.0</ele><time>2023-11-03T16:17:57Z</time></trkpt><trkpt lat="58.058635" lon="38.807322"><ele>104.0</ele><time>2023-11-03T16:18:06Z</time></trkpt><trkpt lat="58.058652" lon="38.807177"><ele>103.0</ele><time>2023-11-03T16:18:14Z</time></trkpt><trkpt lat="58.058655" lon="38.807027"><ele>102.0</ele><time>2023-11-03T16:18:20Z</time></trkpt><trkpt lat="58.058647" lon="38.80688"><ele>103.0</ele><time>2023-11-03T16:18:26Z</time></trkpt><trkpt lat="58.058658" lon="38.80674"><ele>103.0</ele><time>2023-11-03T16:18:31Z</time></trkpt><trkpt lat="58.058665" lon="38.806602"><ele>102.0</ele><time>2023-11-03T16:18:37Z</time></trkpt><trkpt lat="58.058675" lon="38.806465"><ele>101.0</ele><time>2023-11-03T16:18:43Z</time></trkpt><trkpt lat="58.058693" lon="38.806332"><ele>101.0</ele><time>2023-11-03T16:18:48Z</time></trkpt><trkpt lat="58.058697" lon="38.806182"><ele>101.0</ele><time>2023-11-03T16:18:53Z</time></trkpt><trkpt lat="58.05869" lon="38.806043"><ele>100.0</ele><time>2023-11-03T16:18:58Z</time></trkpt><trkpt lat="58.05872" lon="38.805888"><ele>100.0</ele><time>2023-11-03T16:19:04Z</time></trkpt><trkpt lat="58.058742" lon="38.805757"><ele>100.0</ele><time>2023-11-03T16:19:09Z</time></trkpt><trkpt lat="58.05868" lon="38.805683"><ele>99.0</ele><time>2023-11-03T16:19:14Z</time></trkpt><trkpt lat="58.05875" lon="38.805722"><ele>100.0</ele><time>2023-11-03T16:19:25Z</time></trkpt><trkpt lat="58.058767" lon="38.805855"><ele>100.0</ele><time>2023-11-03T16:19:30Z</time></trkpt><trkpt lat="58.058775" lon="38.806015"><ele>100.0</ele><time>2023-11-03T16:19:36Z</time></trkpt><trkpt lat="58.058768" lon="38.806173"><ele>100.0</ele><time>2023-11-03T16:19:41Z</time></trkpt><trkpt lat="58.058778" lon="38.80631"><ele>100.0</ele><time>2023-11-03T16:19:46Z</time></trkpt><trkpt lat="58.058802" lon="38.806458"><ele>99.0</ele><time>2023-11-03T16:19:54Z</time></trkpt><trkpt lat="58.05878" lon="38.8066"><ele>100.0</ele><time>2023-11-03T16:20:01Z</time></trkpt><trkpt lat="58.058767" lon="38.806752"><ele>100.0</ele><time>2023-11-03T16:20:07Z</time></trkpt><trkpt lat="58.058737" lon="38.806878"><ele>101.0</ele><time>2023-11-03T16:20:12Z</time></trkpt><trkpt lat="58.058727" lon="38.807023"><ele>101.0</ele><time>2023-11-03T16:20:18Z</time></trkpt><trkpt lat="58.058727" lon="38.807182"><ele>101.0</ele><time>2023-11-03T16:20:24Z</time></trkpt><trkpt lat="58.058708" lon="38.807327"><ele>100.0</ele><time>2023-11-03T16:20:31Z</time></trkpt><trkpt lat="58.058705" lon="38.807467"><ele>100.0</ele><time>2023-11-03T16:20:36Z</time></trkpt><trkpt lat="58.058678" lon="38.807598"><ele>101.0</ele><time>2023-11-03T16:20:41Z</time></trkpt><trkpt lat="58.058658" lon="38.807467"><ele>105.0</ele><time>2023-11-03T16:20:58Z</time></trkpt><trkpt lat="58.058803" lon="38.807645"><ele>106.0</ele><time>2023-11-03T16:21:41Z</time></trkpt><trkpt lat="58.058697" lon="38.807622"><ele>105.0</ele><time>2023-11-03T16:22:03Z</time></trkpt><trkpt lat="58.058713" lon="38.807477"><ele>105.0</ele><time>2023-11-03T16:22:47Z</time></trkpt><trkpt lat="58.058728" lon="38.807647"><ele>105.0</ele><time>2023-11-03T16:22:48Z</time></trkpt></trkseg></trk></gpx>