<?xml version="1.0" encoding="UTF-8" standalone="no"?><gpx xmlns="http://www.topografix.com/GPX/1/1" xmlns:gpxtpx="http://www.garmin.com/xmlschemas/TrackPointExtension/v1" xmlns:xsi="http://www.w3.org/2001/XMLSchema-instance" creator="Sports Tracker" version="1.1" xsi:schemaLocation="http://www.topografix.com/GPX/1/1 http://www.topografix.com/GPX/1/1/gpx.xsd http://www.garmin.com/xmlschemas/TrackPointExtension/v1 http://www.garmin.com/xmlschemas/TrackPointExtensionv1.xsd"><metadata><name>14.01.2024 20:52</name><desc/><author><name>Александр</name></author></metadata><trk><name>14.01.2024 20:52</name><trkseg><trkpt lat="58.05859" lon="38.807433"><ele>126.4</ele><time>2024-01-14T17:52:06Z</time></trkpt><trkpt lat="58.05859" lon="38.807433"><ele>126.4</ele><time>2024-01-14T17:53:32Z</time></trkpt><trkpt lat="58.05869" lon="38.80739"><ele>124.2</ele><time>2024-01-14T17:53:35Z</time></trkpt><trkpt lat="58.058765" lon="38.807442"><ele>118.8</ele><time>2024-01-14T17:53:42Z</time></trkpt><trkpt lat="58.05884" lon="38.807517"><ele>116.9</ele><time>2024-01-14T17:53:48Z</time></trkpt><trkpt lat="58.05891" lon="38.807422"><ele>118.6</ele><time>2024-01-14T17:53:50Z</time></trkpt><trkpt lat="58.05897" lon="38.807445"><ele>117.6</ele><time>2024-01-14T17:53:57Z</time></trkpt><trkpt lat="58.059055" lon="38.807455"><ele>121.3</ele><time>2024-01-14T17:54:02Z</time></trkpt><trkpt lat="58.059068" lon="38.807295"><ele>118.3</ele><time>2024-01-14T17:54:09Z</time></trkpt><trkpt lat="58.05903" lon="38.807185"><ele>119.0</ele><time>2024-01-14T17:54:13Z</time></trkpt><trkpt lat="58.059095" lon="38.807145"><ele>118.3</ele><time>2024-01-14T17:54:18Z</time></trkpt><trkpt lat="58.059167" lon="38.807225"><ele>119.8</ele><time>2024-01-14T17:54:22Z</time></trkpt><trkpt lat="58.059247" lon="38.80727"><ele>119.9</ele><time>2024-01-14T17:54:27Z</time></trkpt><trkpt lat="58.05933" lon="38.807288"><ele>119.1</ele><time>2024-01-14T17:54:34Z</time></trkpt><trkpt lat="58.05941" lon="38.80731"><ele>121.4</ele><time>2024-01-14T17:54:41Z</time></trkpt><trkpt lat="58.05949" lon="38.807335"><ele>121.9</ele><time>2024-01-14T17:54:48Z</time></trkpt><trkpt lat="58.059572" lon="38.80734"><ele>120.9</ele><time>2024-01-14T17:54:54Z</time></trkpt><trkpt lat="58.05962" lon="38.807355"><ele>120.3</ele><time>2024-01-14T17:55:01Z</time></trkpt><trkpt lat="58.059695" lon="38.80739"><ele>120.4</ele><time>2024-01-14T17:55:07Z</time></trkpt><trkpt lat="58.059772" lon="38.807385"><ele>117.1</ele><time>2024-01-14T17:55:13Z</time></trkpt><trkpt lat="58.059843" lon="38.807425"><ele>117.1</ele><time>2024-01-14T17:55:19Z</time></trkpt><trkpt lat="58.059922" lon="38.807448"><ele>116.4</ele><time>2024-01-14T17:55:25Z</time></trkpt><trkpt lat="58.059995" lon="38.807432"><ele>116.4</ele><time>2024-01-14T17:55:30Z</time></trkpt><trkpt lat="58.060068" lon="38.807433"><ele>119.2</ele><time>2024-01-14T17:55:34Z</time></trkpt><trkpt lat="58.060145" lon="38.80746"><ele>120.6</ele><time>2024-01-14T17:55:39Z</time></trkpt><trkpt lat="58.06023" lon="38.80749"><ele>119.1</ele><time>2024-01-14T17:55:45Z</time></trkpt><trkpt lat="58.060302" lon="38.80749"><ele>119.9</ele><time>2024-01-14T17:55:51Z</time></trkpt><trkpt lat="58.060385" lon="38.807475"><ele>121.9</ele><time>2024-01-14T17:55:57Z</time></trkpt><trkpt lat="58.060455" lon="38.807517"><ele>124.3</ele><time>2024-01-14T17:56:03Z</time></trkpt><trkpt lat="58.060465" lon="38.80751"><ele>125.7</ele><time>2024-01-14T17:56:10Z</time></trkpt><trkpt lat="58.060467" lon="38.80751"><ele>125.9</ele><time>2024-01-14T17:56:11Z</time></trkpt><trkpt lat="58.060515" lon="38.80751"><ele>127.0</ele><time>2024-01-14T17:56:19Z</time></trkpt><trkpt lat="58.060588" lon="38.807535"><ele>126.5</ele><time>2024-01-14T17:56:24Z</time></trkpt><trkpt lat="58.06066" lon="38.807605"><ele>125.3</ele><time>2024-01-14T17:56:30Z</time></trkpt><trkpt lat="58.060735" lon="38.807545"><ele>125.1</ele><time>2024-01-14T17:56:35Z</time></trkpt><trkpt lat="58.06082" lon="38.80758"><ele>127.2</ele><time>2024-01-14T17:56:40Z</time></trkpt><trkpt lat="58.060877" lon="38.807658"><ele>128.3</ele><time>2024-01-14T17:56:45Z</time></trkpt><trkpt lat="58.060945" lon="38.807645"><ele>125.8</ele><time>2024-01-14T17:56:52Z</time></trkpt><trkpt lat="58.06102" lon="38.807642"><ele>122.0</ele><time>2024-01-14T17:56:57Z</time></trkpt><trkpt lat="58.061087" lon="38.807752"><ele>121.8</ele><time>2024-01-14T17:57:02Z</time></trkpt><trkpt lat="58.06115" lon="38.807865"><ele>120.8</ele><time>2024-01-14T17:57:07Z</time></trkpt><trkpt lat="58.061182" lon="38.807987"><ele>122.5</ele><time>2024-01-14T17:57:12Z</time></trkpt><trkpt lat="58.061255" lon="38.807922"><ele>122.5</ele><time>2024-01-14T17:57:17Z</time></trkpt><trkpt lat="58.061325" lon="38.808"><ele>122.4</ele><time>2024-01-14T17:57:23Z</time></trkpt><trkpt lat="58.061385" lon="38.808102"><ele>121.0</ele><time>2024-01-14T17:57:29Z</time></trkpt><trkpt lat="58.06147" lon="38.808115"><ele>124.2</ele><time>2024-01-14T17:57:34Z</time></trkpt><trkpt lat="58.061545" lon="38.80809"><ele>123.1</ele><time>2024-01-14T17:57:39Z</time></trkpt><trkpt lat="58.06162" lon="38.80806"><ele>116.9</ele><time>2024-01-14T17:57:45Z</time></trkpt><trkpt lat="58.061695" lon="38.808045"><ele>119.3</ele><time>2024-01-14T17:57:52Z</time></trkpt><trkpt lat="58.061775" lon="38.80806"><ele>116.6</ele><time>2024-01-14T17:57:58Z</time></trkpt><trkpt lat="58.06185" lon="38.808095"><ele>110.4</ele><time>2024-01-14T17:58:05Z</time></trkpt><trkpt lat="58.061925" lon="38.808087"><ele>112.0</ele><time>2024-01-14T17:58:10Z</time></trkpt><trkpt lat="58.062015" lon="38.808075"><ele>111.8</ele><time>2024-01-14T17:58:16Z</time></trkpt><trkpt lat="58.06209" lon="38.8081"><ele>113.1</ele><time>2024-01-14T17:58:23Z</time></trkpt><trkpt lat="58.062185" lon="38.8081"><ele>114.4</ele><time>2024-01-14T17:58:29Z</time></trkpt><trkpt lat="58.062257" lon="38.808117"><ele>112.8</ele><time>2024-01-14T17:58:34Z</time></trkpt><trkpt lat="58.062332" lon="38.80815"><ele>115.9</ele><time>2024-01-14T17:58:40Z</time></trkpt><trkpt lat="58.06236" lon="38.80815"><ele>114.8</ele><time>2024-01-14T17:58:47Z</time></trkpt><trkpt lat="58.062435" lon="38.80819"><ele>119.2</ele><time>2024-01-14T17:58:51Z</time></trkpt><trkpt lat="58.062512" lon="38.808215"><ele>118.7</ele><time>2024-01-14T17:58:56Z</time></trkpt><trkpt lat="58.06259" lon="38.808225"><ele>117.8</ele><time>2024-01-14T17:59:01Z</time></trkpt><trkpt lat="58.062665" lon="38.80828"><ele>118.7</ele><time>2024-01-14T17:59:07Z</time></trkpt><trkpt lat="58.062745" lon="38.808285"><ele>118.9</ele><time>2024-01-14T17:59:13Z</time></trkpt><trkpt lat="58.06282" lon="38.808295"><ele>117.9</ele><time>2024-01-14T17:59:19Z</time></trkpt><trkpt lat="58.06288" lon="38.808255"><ele>114.7</ele><time>2024-01-14T17:59:26Z</time></trkpt><trkpt lat="58.062955" lon="38.808295"><ele>116.3</ele><time>2024-01-14T17:59:32Z</time></trkpt><trkpt lat="58.06303" lon="38.808305"><ele>119.5</ele><time>2024-01-14T17:59:37Z</time></trkpt><trkpt lat="58.063112" lon="38.808327"><ele>119.9</ele><time>2024-01-14T17:59:43Z</time></trkpt><trkpt lat="58.063195" lon="38.808335"><ele>121.4</ele><time>2024-01-14T17:59:48Z</time></trkpt><trkpt lat="58.063265" lon="38.808385"><ele>120.8</ele><time>2024-01-14T17:59:53Z</time></trkpt><trkpt lat="58.063337" lon="38.808417"><ele>121.7</ele><time>2024-01-14T17:59:58Z</time></trkpt><trkpt lat="58.06342" lon="38.80844"><ele>123.6</ele><time>2024-01-14T18:00:04Z</time></trkpt><trkpt lat="58.0635" lon="38.808445"><ele>123.4</ele><time>2024-01-14T18:00:10Z</time></trkpt><trkpt lat="58.063575" lon="38.808475"><ele>127.4</ele><time>2024-01-14T18:00:16Z</time></trkpt><trkpt lat="58.063647" lon="38.808507"><ele>125.8</ele><time>2024-01-14T18:00:22Z</time></trkpt><trkpt lat="58.063702" lon="38.808615"><ele>125.0</ele><time>2024-01-14T18:00:29Z</time></trkpt><trkpt lat="58.063717" lon="38.808685"><ele>122.7</ele><time>2024-01-14T18:00:36Z</time></trkpt><trkpt lat="58.063707" lon="38.808747"><ele>121.8</ele><time>2024-01-14T18:00:43Z</time></trkpt><trkpt lat="58.06375" lon="38.808785"><ele>118.5</ele><time>2024-01-14T18:00:50Z</time></trkpt><trkpt lat="58.063815" lon="38.808862"><ele>118.3</ele><time>2024-01-14T18:00:56Z</time></trkpt><trkpt lat="58.063887" lon="38.808842"><ele>116.0</ele><time>2024-01-14T18:01:00Z</time></trkpt><trkpt lat="58.063945" lon="38.80894"><ele>114.8</ele><time>2024-01-14T18:01:05Z</time></trkpt><trkpt lat="58.063985" lon="38.80906"><ele>115.5</ele><time>2024-01-14T18:01:09Z</time></trkpt><trkpt lat="58.06397" lon="38.809177"><ele>114.2</ele><time>2024-01-14T18:01:16Z</time></trkpt><trkpt lat="58.064005" lon="38.8093"><ele>114.3</ele><time>2024-01-14T18:01:22Z</time></trkpt><trkpt lat="58.063915" lon="38.80924"><ele>114.9</ele><time>2024-01-14T18:01:27Z</time></trkpt><trkpt lat="58.063972" lon="38.809145"><ele>116.6</ele><time>2024-01-14T18:01:30Z</time></trkpt><trkpt lat="58.064085" lon="38.80919"><ele>117.2</ele><time>2024-01-14T18:01:32Z</time></trkpt><trkpt lat="58.064155" lon="38.809245"><ele>120.1</ele><time>2024-01-14T18:01:34Z</time></trkpt><trkpt lat="58.064237" lon="38.809327"><ele>124.7</ele><time>2024-01-14T18:01:37Z</time></trkpt><trkpt lat="58.0643" lon="38.809417"><ele>124.0</ele><time>2024-01-14T18:01:41Z</time></trkpt><trkpt lat="58.064325" lon="38.809487"><ele>126.3</ele><time>2024-01-14T18:01:48Z</time></trkpt><trkpt lat="58.06441" lon="38.809527"><ele>127.7</ele><time>2024-01-14T18:01:54Z</time></trkpt><trkpt lat="58.06448" lon="38.809565"><ele>127.5</ele><time>2024-01-14T18:01:59Z</time></trkpt><trkpt lat="58.064555" lon="38.8096"><ele>128.6</ele><time>2024-01-14T18:02:05Z</time></trkpt><trkpt lat="58.064635" lon="38.809607"><ele>130.8</ele><time>2024-01-14T18:02:11Z</time></trkpt><trkpt lat="58.06472" lon="38.809605"><ele>129.1</ele><time>2024-01-14T18:02:17Z</time></trkpt><trkpt lat="58.06479" lon="38.809655"><ele>128.8</ele><time>2024-01-14T18:02:23Z</time></trkpt><trkpt lat="58.064865" lon="38.80968"><ele>128.4</ele><time>2024-01-14T18:02:30Z</time></trkpt><trkpt lat="58.064942" lon="38.80969"><ele>127.7</ele><time>2024-01-14T18:02:36Z</time></trkpt><trkpt lat="58.065025" lon="38.809713"><ele>124.2</ele><time>2024-01-14T18:02:43Z</time></trkpt><trkpt lat="58.065105" lon="38.80974"><ele>122.8</ele><time>2024-01-14T18:02:49Z</time></trkpt><trkpt lat="58.065132" lon="38.809845"><ele>120.1</ele><time>2024-01-14T18:02:56Z</time></trkpt><trkpt lat="58.065205" lon="38.809915"><ele>117.6</ele><time>2024-01-14T18:03:01Z</time></trkpt><trkpt lat="58.06527" lon="38.809987"><ele>116.9</ele><time>2024-01-14T18:03:05Z</time></trkpt><trkpt lat="58.065325" lon="38.81007"><ele>116.2</ele><time>2024-01-14T18:03:09Z</time></trkpt><trkpt lat="58.06539" lon="38.81016"><ele>115.5</ele><time>2024-01-14T18:03:16Z</time></trkpt><trkpt lat="58.065415" lon="38.81029"><ele>114.3</ele><time>2024-01-14T18:03:23Z</time></trkpt><trkpt lat="58.065437" lon="38.810412"><ele>112.8</ele><time>2024-01-14T18:03:30Z</time></trkpt><trkpt lat="58.065458" lon="38.81043"><ele>112.5</ele><time>2024-01-14T18:03:37Z</time></trkpt><trkpt lat="58.065512" lon="38.81053"><ele>110.1</ele><time>2024-01-14T18:03:43Z</time></trkpt><trkpt lat="58.065535" lon="38.81059"><ele>109.4</ele><time>2024-01-14T18:03:50Z</time></trkpt><trkpt lat="58.06558" lon="38.81068"><ele>109.1</ele><time>2024-01-14T18:03:57Z</time></trkpt><trkpt lat="58.06562" lon="38.81078"><ele>108.5</ele><time>2024-01-14T18:04:04Z</time></trkpt><trkpt lat="58.065645" lon="38.81089"><ele>108.7</ele><time>2024-01-14T18:04:11Z</time></trkpt><trkpt lat="58.065627" lon="38.81096"><ele>108.3</ele><time>2024-01-14T18:04:18Z</time></trkpt><trkpt lat="58.06563" lon="38.81098"><ele>108.8</ele><time>2024-01-14T18:04:24Z</time></trkpt><trkpt lat="58.065625" lon="38.81099"><ele>109.4</ele><time>2024-01-14T18:04:32Z</time></trkpt><trkpt lat="58.065625" lon="38.81099"><ele>109.5</ele><time>2024-01-14T18:04:33Z</time></trkpt><trkpt lat="58.06563" lon="38.810842"><ele>111.2</ele><time>2024-01-14T18:04:46Z</time></trkpt><trkpt lat="58.065632" lon="38.810745"><ele>109.4</ele><time>2024-01-14T18:04:53Z</time></trkpt><trkpt lat="58.06566" lon="38.81067"><ele>109.5</ele><time>2024-01-14T18:05:00Z</time></trkpt><trkpt lat="58.065705" lon="38.810557"><ele>110.3</ele><time>2024-01-14T18:05:07Z</time></trkpt><trkpt lat="58.065735" lon="38.810435"><ele>112.6</ele><time>2024-01-14T18:05:14Z</time></trkpt><trkpt lat="58.065753" lon="38.810342"><ele>110.6</ele><time>2024-01-14T18:05:21Z</time></trkpt><trkpt lat="58.06575" lon="38.810325"><ele>110.7</ele><time>2024-01-14T18:05:25Z</time></trkpt><trkpt lat="58.065787" lon="38.81027"><ele>108.9</ele><time>2024-01-14T18:05:32Z</time></trkpt><trkpt lat="58.06578" lon="38.81014"><ele>109.2</ele><time>2024-01-14T18:05:39Z</time></trkpt><trkpt lat="58.065775" lon="38.81009"><ele>108.7</ele><time>2024-01-14T18:05:46Z</time></trkpt><trkpt lat="58.065785" lon="38.809955"><ele>108.8</ele><time>2024-01-14T18:05:50Z</time></trkpt><trkpt lat="58.065857" lon="38.810002"><ele>111.7</ele><time>2024-01-14T18:05:56Z</time></trkpt><trkpt lat="58.06583" lon="38.809865"><ele>110.2</ele><time>2024-01-14T18:06:02Z</time></trkpt><trkpt lat="58.065837" lon="38.80972"><ele>111.2</ele><time>2024-01-14T18:06:09Z</time></trkpt><trkpt lat="58.06587" lon="38.80967"><ele>107.6</ele><time>2024-01-14T18:06:16Z</time></trkpt><trkpt lat="58.065893" lon="38.809565"><ele>104.1</ele><time>2024-01-14T18:06:23Z</time></trkpt><trkpt lat="58.065917" lon="38.80948"><ele>99.6</ele><time>2024-01-14T18:06:30Z</time></trkpt><trkpt lat="58.06595" lon="38.809345"><ele>96.3</ele><time>2024-01-14T18:06:36Z</time></trkpt><trkpt lat="58.065935" lon="38.809285"><ele>94.0</ele><time>2024-01-14T18:06:43Z</time></trkpt><trkpt lat="58.06594" lon="38.809325"><ele>93.7</ele><time>2024-01-14T18:06:50Z</time></trkpt><trkpt lat="58.065955" lon="38.809178"><ele>95.0</ele><time>2024-01-14T18:06:56Z</time></trkpt><trkpt lat="58.066" lon="38.809075"><ele>92.4</ele><time>2024-01-14T18:07:03Z</time></trkpt><trkpt lat="58.066045" lon="38.808995"><ele>93.3</ele><time>2024-01-14T18:07:10Z</time></trkpt><trkpt lat="58.066055" lon="38.808872"><ele>95.8</ele><time>2024-01-14T18:07:17Z</time></trkpt><trkpt lat="58.06603" lon="38.808805"><ele>99.9</ele><time>2024-01-14T18:07:24Z</time></trkpt><trkpt lat="58.066037" lon="38.808805"><ele>101.1</ele><time>2024-01-14T18:07:30Z</time></trkpt><trkpt lat="58.065995" lon="38.808723"><ele>101.6</ele><time>2024-01-14T18:07:41Z</time></trkpt><trkpt lat="58.065942" lon="38.8087"><ele>104.1</ele><time>2024-01-14T18:07:48Z</time></trkpt><trkpt lat="58.065925" lon="38.80872"><ele>105.6</ele><time>2024-01-14T18:07:55Z</time></trkpt><trkpt lat="58.06592" lon="38.808715"><ele>105.9</ele><time>2024-01-14T18:07:57Z</time></trkpt><trkpt lat="58.065885" lon="38.808765"><ele>106.1</ele><time>2024-01-14T18:08:04Z</time></trkpt><trkpt lat="58.06585" lon="38.80884"><ele>106.7</ele><time>2024-01-14T18:08:11Z</time></trkpt><trkpt lat="58.065835" lon="38.808875"><ele>108.3</ele><time>2024-01-14T18:08:18Z</time></trkpt><trkpt lat="58.06581" lon="38.80899"><ele>108.9</ele><time>2024-01-14T18:08:25Z</time></trkpt><trkpt lat="58.065782" lon="38.80913"><ele>110.0</ele><time>2024-01-14T18:08:32Z</time></trkpt><trkpt lat="58.065745" lon="38.809257"><ele>109.0</ele><time>2024-01-14T18:08:39Z</time></trkpt><trkpt lat="58.065715" lon="38.809385"><ele>108.7</ele><time>2024-01-14T18:08:46Z</time></trkpt><trkpt lat="58.0657" lon="38.80953"><ele>109.5</ele><time>2024-01-14T18:08:53Z</time></trkpt><trkpt lat="58.06568" lon="38.809675"><ele>108.0</ele><time>2024-01-14T18:08:59Z</time></trkpt><trkpt lat="58.06566" lon="38.809795"><ele>108.1</ele><time>2024-01-14T18:09:06Z</time></trkpt><trkpt lat="58.065625" lon="38.80993"><ele>107.6</ele><time>2024-01-14T18:09:13Z</time></trkpt><trkpt lat="58.065585" lon="38.81007"><ele>106.9</ele><time>2024-01-14T18:09:20Z</time></trkpt><trkpt lat="58.065547" lon="38.8102"><ele>109.0</ele><time>2024-01-14T18:09:27Z</time></trkpt><trkpt lat="58.06549" lon="38.810235"><ele>110.1</ele><time>2024-01-14T18:09:34Z</time></trkpt><trkpt lat="58.065432" lon="38.810245"><ele>111.4</ele><time>2024-01-14T18:09:41Z</time></trkpt><trkpt lat="58.065372" lon="38.8102"><ele>111.7</ele><time>2024-01-14T18:09:48Z</time></trkpt><trkpt lat="58.06532" lon="38.810117"><ele>109.7</ele><time>2024-01-14T18:09:55Z</time></trkpt><trkpt lat="58.065275" lon="38.810005"><ele>108.7</ele><time>2024-01-14T18:10:00Z</time></trkpt><trkpt lat="58.065218" lon="38.810122"><ele>111.1</ele><time>2024-01-14T18:10:05Z</time></trkpt><trkpt lat="58.065165" lon="38.810225"><ele>111.3</ele><time>2024-01-14T18:10:10Z</time></trkpt><trkpt lat="58.06511" lon="38.81033"><ele>115.8</ele><time>2024-01-14T18:10:16Z</time></trkpt><trkpt lat="58.065035" lon="38.810407"><ele>115.2</ele><time>2024-01-14T18:10:22Z</time></trkpt><trkpt lat="58.064985" lon="38.810422"><ele>113.7</ele><time>2024-01-14T18:10:29Z</time></trkpt><trkpt lat="58.064972" lon="38.81053"><ele>113.0</ele><time>2024-01-14T18:10:36Z</time></trkpt><trkpt lat="58.064925" lon="38.81064"><ele>114.2</ele><time>2024-01-14T18:10:43Z</time></trkpt><trkpt lat="58.06486" lon="38.81075"><ele>114.5</ele><time>2024-01-14T18:10:47Z</time></trkpt><trkpt lat="58.06478" lon="38.81094"><ele>116.2</ele><time>2024-01-14T18:10:49Z</time></trkpt><trkpt lat="58.064835" lon="38.81069"><ele>112.7</ele><time>2024-01-14T18:10:51Z</time></trkpt><trkpt lat="58.064872" lon="38.810837"><ele>113.3</ele><time>2024-01-14T18:10:54Z</time></trkpt><trkpt lat="58.06486" lon="38.810938"><ele>116.2</ele><time>2024-01-14T18:11:01Z</time></trkpt><trkpt lat="58.06483" lon="38.811035"><ele>116.3</ele><time>2024-01-14T18:11:08Z</time></trkpt><trkpt lat="58.06482" lon="38.811192"><ele>118.0</ele><time>2024-01-14T18:11:13Z</time></trkpt><trkpt lat="58.0648" lon="38.811342"><ele>117.0</ele><time>2024-01-14T18:11:20Z</time></trkpt><trkpt lat="58.0648" lon="38.81147"><ele>118.6</ele><time>2024-01-14T18:11:27Z</time></trkpt><trkpt lat="58.064787" lon="38.81161"><ele>121.0</ele><time>2024-01-14T18:11:32Z</time></trkpt><trkpt lat="58.06476" lon="38.811715"><ele>116.2</ele><time>2024-01-14T18:11:39Z</time></trkpt><trkpt lat="58.06473" lon="38.81185"><ele>114.3</ele><time>2024-01-14T18:11:46Z</time></trkpt><trkpt lat="58.0647" lon="38.81197"><ele>114.6</ele><time>2024-01-14T18:11:53Z</time></trkpt><trkpt lat="58.064655" lon="38.81209"><ele>114.2</ele><time>2024-01-14T18:11:58Z</time></trkpt><trkpt lat="58.064595" lon="38.812145"><ele>111.8</ele><time>2024-01-14T18:12:05Z</time></trkpt><trkpt lat="58.06452" lon="38.81218"><ele>113.2</ele><time>2024-01-14T18:12:12Z</time></trkpt><trkpt lat="58.064452" lon="38.812205"><ele>113.4</ele><time>2024-01-14T18:12:19Z</time></trkpt><trkpt lat="58.06438" lon="38.812167"><ele>112.2</ele><time>2024-01-14T18:12:26Z</time></trkpt><trkpt lat="58.06431" lon="38.812155"><ele>113.9</ele><time>2024-01-14T18:12:33Z</time></trkpt><trkpt lat="58.06423" lon="38.812205"><ele>114.5</ele><time>2024-01-14T18:12:40Z</time></trkpt><trkpt lat="58.064155" lon="38.812235"><ele>112.8</ele><time>2024-01-14T18:12:47Z</time></trkpt><trkpt lat="58.064078" lon="38.812225"><ele>110.0</ele><time>2024-01-14T18:12:54Z</time></trkpt><trkpt lat="58.064008" lon="38.812145"><ele>112.7</ele><time>2024-01-14T18:13:01Z</time></trkpt><trkpt lat="58.06393" lon="38.812127"><ele>113.2</ele><time>2024-01-14T18:13:07Z</time></trkpt><trkpt lat="58.063852" lon="38.81211"><ele>114.3</ele><time>2024-01-14T18:13:14Z</time></trkpt><trkpt lat="58.063772" lon="38.812105"><ele>114.6</ele><time>2024-01-14T18:13:20Z</time></trkpt><trkpt lat="58.063695" lon="38.812047"><ele>114.1</ele><time>2024-01-14T18:13:26Z</time></trkpt><trkpt lat="58.063625" lon="38.812015"><ele>116.1</ele><time>2024-01-14T18:13:31Z</time></trkpt><trkpt lat="58.06355" lon="38.811955"><ele>116.2</ele><time>2024-01-14T18:13:38Z</time></trkpt><trkpt lat="58.06348" lon="38.811885"><ele>113.6</ele><time>2024-01-14T18:13:45Z</time></trkpt><trkpt lat="58.063403" lon="38.811867"><ele>113.1</ele><time>2024-01-14T18:13:52Z</time></trkpt><trkpt lat="58.06333" lon="38.811897"><ele>115.1</ele><time>2024-01-14T18:13:57Z</time></trkpt><trkpt lat="58.063255" lon="38.81187"><ele>114.8</ele><time>2024-01-14T18:14:03Z</time></trkpt><trkpt lat="58.06318" lon="38.811872"><ele>114.0</ele><time>2024-01-14T18:14:09Z</time></trkpt><trkpt lat="58.0631" lon="38.811855"><ele>114.2</ele><time>2024-01-14T18:14:15Z</time></trkpt><trkpt lat="58.063025" lon="38.811838"><ele>114.5</ele><time>2024-01-14T18:14:21Z</time></trkpt><trkpt lat="58.062952" lon="38.811847"><ele>115.1</ele><time>2024-01-14T18:14:27Z</time></trkpt><trkpt lat="58.06288" lon="38.811792"><ele>115.2</ele><time>2024-01-14T18:14:33Z</time></trkpt><trkpt lat="58.06281" lon="38.811822"><ele>114.6</ele><time>2024-01-14T18:14:38Z</time></trkpt><trkpt lat="58.062735" lon="38.811855"><ele>113.4</ele><time>2024-01-14T18:14:44Z</time></trkpt><trkpt lat="58.062662" lon="38.81182"><ele>113.9</ele><time>2024-01-14T18:14:50Z</time></trkpt><trkpt lat="58.062582" lon="38.811815"><ele>116.7</ele><time>2024-01-14T18:14:56Z</time></trkpt><trkpt lat="58.062505" lon="38.811795"><ele>114.4</ele><time>2024-01-14T18:15:02Z</time></trkpt><trkpt lat="58.062435" lon="38.811765"><ele>113.2</ele><time>2024-01-14T18:15:09Z</time></trkpt><trkpt lat="58.06236" lon="38.811735"><ele>112.9</ele><time>2024-01-14T18:15:16Z</time></trkpt><trkpt lat="58.06229" lon="38.81171"><ele>111.3</ele><time>2024-01-14T18:15:22Z</time></trkpt><trkpt lat="58.062212" lon="38.811725"><ele>112.3</ele><time>2024-01-14T18:15:28Z</time></trkpt><trkpt lat="58.062145" lon="38.81172"><ele>112.7</ele><time>2024-01-14T18:15:35Z</time></trkpt><trkpt lat="58.062072" lon="38.81169"><ele>113.1</ele><time>2024-01-14T18:15:40Z</time></trkpt><trkpt lat="58.061997" lon="38.811677"><ele>115.2</ele><time>2024-01-14T18:15:45Z</time></trkpt><trkpt lat="58.061945" lon="38.8116"><ele>109.4</ele><time>2024-01-14T18:15:52Z</time></trkpt><trkpt lat="58.061977" lon="38.81145"><ele>107.7</ele><time>2024-01-14T18:15:57Z</time></trkpt><trkpt lat="58.06191" lon="38.811395"><ele>109.1</ele><time>2024-01-14T18:16:03Z</time></trkpt><trkpt lat="58.06184" lon="38.811442"><ele>111.4</ele><time>2024-01-14T18:16:06Z</time></trkpt><trkpt lat="58.06177" lon="38.81152"><ele>114.3</ele><time>2024-01-14T18:16:10Z</time></trkpt><trkpt lat="58.0617" lon="38.811575"><ele>111.8</ele><time>2024-01-14T18:16:15Z</time></trkpt><trkpt lat="58.061622" lon="38.811555"><ele>113.9</ele><time>2024-01-14T18:16:21Z</time></trkpt><trkpt lat="58.061545" lon="38.8115"><ele>115.9</ele><time>2024-01-14T18:16:28Z</time></trkpt><trkpt lat="58.061465" lon="38.811465"><ele>118.4</ele><time>2024-01-14T18:16:35Z</time></trkpt><trkpt lat="58.06139" lon="38.81143"><ele>115.9</ele><time>2024-01-14T18:16:42Z</time></trkpt><trkpt lat="58.06131" lon="38.811405"><ele>114.1</ele><time>2024-01-14T18:16:49Z</time></trkpt><trkpt lat="58.061235" lon="38.811435"><ele>115.2</ele><time>2024-01-14T18:16:55Z</time></trkpt><trkpt lat="58.06116" lon="38.81143"><ele>115.5</ele><time>2024-01-14T18:17:01Z</time></trkpt><trkpt lat="58.061095" lon="38.81145"><ele>114.5</ele><time>2024-01-14T18:17:08Z</time></trkpt><trkpt lat="58.061015" lon="38.811435"><ele>116.7</ele><time>2024-01-14T18:17:14Z</time></trkpt><trkpt lat="58.060945" lon="38.811495"><ele>115.7</ele><time>2024-01-14T18:17:18Z</time></trkpt><trkpt lat="58.060885" lon="38.81143"><ele>115.8</ele><time>2024-01-14T18:17:25Z</time></trkpt><trkpt lat="58.060812" lon="38.811385"><ele>116.5</ele><time>2024-01-14T18:17:32Z</time></trkpt><trkpt lat="58.060735" lon="38.81135"><ele>117.4</ele><time>2024-01-14T18:17:38Z</time></trkpt><trkpt lat="58.060657" lon="38.81137"><ele>117.2</ele><time>2024-01-14T18:17:44Z</time></trkpt><trkpt lat="58.060587" lon="38.811395"><ele>116.8</ele><time>2024-01-14T18:17:51Z</time></trkpt><trkpt lat="58.060525" lon="38.81133"><ele>117.6</ele><time>2024-01-14T18:17:58Z</time></trkpt><trkpt lat="58.06046" lon="38.811307"><ele>117.0</ele><time>2024-01-14T18:18:05Z</time></trkpt><trkpt lat="58.060395" lon="38.811297"><ele>116.3</ele><time>2024-01-14T18:18:12Z</time></trkpt><trkpt lat="58.060332" lon="38.811297"><ele>114.8</ele><time>2024-01-14T18:18:19Z</time></trkpt><trkpt lat="58.060275" lon="38.811285"><ele>115.1</ele><time>2024-01-14T18:18:26Z</time></trkpt><trkpt lat="58.060208" lon="38.811275"><ele>115.2</ele><time>2024-01-14T18:18:33Z</time></trkpt><trkpt lat="58.060137" lon="38.811265"><ele>115.5</ele><time>2024-01-14T18:18:39Z</time></trkpt><trkpt lat="58.060067" lon="38.811252"><ele>115.4</ele><time>2024-01-14T18:18:45Z</time></trkpt><trkpt lat="58.059995" lon="38.811205"><ele>115.5</ele><time>2024-01-14T18:18:51Z</time></trkpt><trkpt lat="58.05992" lon="38.811185"><ele>116.4</ele><time>2024-01-14T18:18:57Z</time></trkpt><trkpt lat="58.05985" lon="38.811147"><ele>117.7</ele><time>2024-01-14T18:19:03Z</time></trkpt><trkpt lat="58.059792" lon="38.811162"><ele>117.4</ele><time>2024-01-14T18:19:10Z</time></trkpt><trkpt lat="58.05973" lon="38.811072"><ele>117.9</ele><time>2024-01-14T18:19:15Z</time></trkpt><trkpt lat="58.05965" lon="38.81109"><ele>117.2</ele><time>2024-01-14T18:19:22Z</time></trkpt><trkpt lat="58.05958" lon="38.81111"><ele>118.0</ele><time>2024-01-14T18:19:28Z</time></trkpt><trkpt lat="58.059525" lon="38.811047"><ele>115.9</ele><time>2024-01-14T18:19:35Z</time></trkpt><trkpt lat="58.059512" lon="38.81089"><ele>115.8</ele><time>2024-01-14T18:19:38Z</time></trkpt><trkpt lat="58.05943" lon="38.810992"><ele>115.5</ele><time>2024-01-14T18:19:44Z</time></trkpt><trkpt lat="58.059365" lon="38.811077"><ele>115.9</ele><time>2024-01-14T18:19:48Z</time></trkpt><trkpt lat="58.059285" lon="38.81107"><ele>116.5</ele><time>2024-01-14T18:19:54Z</time></trkpt><trkpt lat="58.059215" lon="38.811035"><ele>115.8</ele><time>2024-01-14T18:20:01Z</time></trkpt><trkpt lat="58.059152" lon="38.81099"><ele>115.0</ele><time>2024-01-14T18:20:08Z</time></trkpt><trkpt lat="58.05908" lon="38.811042"><ele>116.6</ele><time>2024-01-14T18:20:14Z</time></trkpt><trkpt lat="58.059012" lon="38.810965"><ele>121.3</ele><time>2024-01-14T18:20:21Z</time></trkpt><trkpt lat="58.058935" lon="38.81092"><ele>118.3</ele><time>2024-01-14T18:20:27Z</time></trkpt><trkpt lat="58.058852" lon="38.8109"><ele>117.2</ele><time>2024-01-14T18:20:33Z</time></trkpt><trkpt lat="58.058767" lon="38.81087"><ele>117.5</ele><time>2024-01-14T18:20:39Z</time></trkpt><trkpt lat="58.05869" lon="38.81091"><ele>115.7</ele><time>2024-01-14T18:20:45Z</time></trkpt><trkpt lat="58.05868" lon="38.810765"><ele>114.7</ele><time>2024-01-14T18:20:51Z</time></trkpt><trkpt lat="58.058698" lon="38.810625"><ele>114.6</ele><time>2024-01-14T18:20:57Z</time></trkpt><trkpt lat="58.058645" lon="38.810505"><ele>115.4</ele><time>2024-01-14T18:20:59Z</time></trkpt><trkpt lat="58.0586" lon="38.8104"><ele>115.4</ele><time>2024-01-14T18:21:01Z</time></trkpt><trkpt lat="58.058697" lon="38.81024"><ele>116.1</ele><time>2024-01-14T18:21:05Z</time></trkpt><trkpt lat="58.058675" lon="38.81028"><ele>115.0</ele><time>2024-01-14T18:21:12Z</time></trkpt><trkpt lat="58.058617" lon="38.81017"><ele>114.0</ele><time>2024-01-14T18:21:14Z</time></trkpt><trkpt lat="58.058632" lon="38.81003"><ele>117.3</ele><time>2024-01-14T18:21:19Z</time></trkpt><trkpt lat="58.058675" lon="38.809905"><ele>117.6</ele><time>2024-01-14T18:21:24Z</time></trkpt><trkpt lat="58.058618" lon="38.80982"><ele>118.9</ele><time>2024-01-14T18:21:31Z</time></trkpt><trkpt lat="58.05859" lon="38.809805"><ele>119.7</ele><time>2024-01-14T18:21:38Z</time></trkpt><trkpt lat="58.058525" lon="38.809685"><ele>117.0</ele><time>2024-01-14T18:21:43Z</time></trkpt><trkpt lat="58.058485" lon="38.809557"><ele>115.8</ele><time>2024-01-14T18:21:47Z</time></trkpt><trkpt lat="58.058547" lon="38.80948"><ele>113.7</ele><time>2024-01-14T18:21:50Z</time></trkpt><trkpt lat="58.058535" lon="38.80932"><ele>113.3</ele><time>2024-01-14T18:21:57Z</time></trkpt><trkpt lat="58.058502" lon="38.809187"><ele>111.5</ele><time>2024-01-14T18:22:00Z</time></trkpt><trkpt lat="58.058562" lon="38.809107"><ele>107.2</ele><time>2024-01-14T18:22:07Z</time></trkpt><trkpt lat="58.058617" lon="38.80901"><ele>110.0</ele><time>2024-01-14T18:22:14Z</time></trkpt><trkpt lat="58.0586" lon="38.808872"><ele>111.7</ele><time>2024-01-14T18:22:18Z</time></trkpt><trkpt lat="58.05861" lon="38.808725"><ele>109.9</ele><time>2024-01-14T18:22:25Z</time></trkpt><trkpt lat="58.058618" lon="38.80856"><ele>108.3</ele><time>2024-01-14T18:22:31Z</time></trkpt><trkpt lat="58.05861" lon="38.808405"><ele>104.3</ele><time>2024-01-14T18:22:36Z</time></trkpt><trkpt lat="58.0586" lon="38.808255"><ele>105.5</ele><time>2024-01-14T18:22:41Z</time></trkpt><trkpt lat="58.058675" lon="38.808235"><ele>104.9</ele><time>2024-01-14T18:22:45Z</time></trkpt><trkpt lat="58.058687" lon="38.808092"><ele>108.0</ele><time>2024-01-14T18:22:52Z</time></trkpt><trkpt lat="58.058695" lon="38.807935"><ele>108.1</ele><time>2024-01-14T18:22:59Z</time></trkpt><trkpt lat="58.05872" lon="38.807785"><ele>108.0</ele><time>2024-01-14T18:23:05Z</time></trkpt><trkpt lat="58.058765" lon="38.80771"><ele>106.9</ele><time>2024-01-14T18:23:12Z</time></trkpt><trkpt lat="58.058755" lon="38.807695"><ele>107.8</ele><time>2024-01-14T18:23:19Z</time></trkpt><trkpt lat="58.058752" lon="38.807695"><ele>107.8</ele><time>2024-01-14T18:23:23Z</time></trkpt></trkseg></trk></gpx>