<?xml version="1.0" encoding="UTF-8" standalone="no"?><gpx xmlns="http://www.topografix.com/GPX/1/1" xmlns:gpxtpx="http://www.garmin.com/xmlschemas/TrackPointExtension/v1" xmlns:xsi="http://www.w3.org/2001/XMLSchema-instance" creator="Sports Tracker" version="1.1" xsi:schemaLocation="http://www.topografix.com/GPX/1/1 http://www.topografix.com/GPX/1/1/gpx.xsd http://www.garmin.com/xmlschemas/TrackPointExtension/v1 http://www.garmin.com/xmlschemas/TrackPointExtensionv1.xsd"><metadata><name>20.10.2024 15:07</name><desc/><author><name>Александр</name></author></metadata><trk><name>20.10.2024 15:07</name><trkseg><trkpt lat="58.044845" lon="38.837747"><ele>113.4</ele><time>2024-10-20T12:07:08Z</time></trkpt><trkpt lat="58.044845" lon="38.83775"><ele>113.7</ele><time>2024-10-20T12:07:08Z</time></trkpt><trkpt lat="58.044905" lon="38.8378"><ele>111.3</ele><time>2024-10-20T12:07:15Z</time></trkpt><trkpt lat="58.044952" lon="38.837882"><ele>109.3</ele><time>2024-10-20T12:07:22Z</time></trkpt><trkpt lat="58.04501" lon="38.837935"><ele>109.0</ele><time>2024-10-20T12:07:30Z</time></trkpt><trkpt lat="58.04508" lon="38.83797"><ele>108.9</ele><time>2024-10-20T12:07:36Z</time></trkpt><trkpt lat="58.045127" lon="38.83805"><ele>103.7</ele><time>2024-10-20T12:07:44Z</time></trkpt><trkpt lat="58.045205" lon="38.838067"><ele>101.4</ele><time>2024-10-20T12:07:50Z</time></trkpt><trkpt lat="58.045285" lon="38.838115"><ele>101.2</ele><time>2024-10-20T12:07:57Z</time></trkpt><trkpt lat="58.045357" lon="38.83817"><ele>102.7</ele><time>2024-10-20T12:08:03Z</time></trkpt><trkpt lat="58.045432" lon="38.838215"><ele>104.4</ele><time>2024-10-20T12:08:09Z</time></trkpt><trkpt lat="58.045512" lon="38.838265"><ele>99.2</ele><time>2024-10-20T12:08:16Z</time></trkpt><trkpt lat="58.04558" lon="38.838305"><ele>98.2</ele><time>2024-10-20T12:08:22Z</time></trkpt><trkpt lat="58.045655" lon="38.83836"><ele>95.1</ele><time>2024-10-20T12:08:29Z</time></trkpt><trkpt lat="58.04573" lon="38.838427"><ele>94.0</ele><time>2024-10-20T12:08:36Z</time></trkpt><trkpt lat="58.0458" lon="38.8385"><ele>95.0</ele><time>2024-10-20T12:08:43Z</time></trkpt><trkpt lat="58.045875" lon="38.838565"><ele>97.4</ele><time>2024-10-20T12:08:51Z</time></trkpt><trkpt lat="58.04595" lon="38.83862"><ele>98.9</ele><time>2024-10-20T12:08:58Z</time></trkpt><trkpt lat="58.046022" lon="38.838685"><ele>101.3</ele><time>2024-10-20T12:09:04Z</time></trkpt><trkpt lat="58.046102" lon="38.83872"><ele>104.7</ele><time>2024-10-20T12:09:11Z</time></trkpt><trkpt lat="58.04618" lon="38.838743"><ele>103.8</ele><time>2024-10-20T12:09:18Z</time></trkpt><trkpt lat="58.04626" lon="38.838772"><ele>105.1</ele><time>2024-10-20T12:09:24Z</time></trkpt><trkpt lat="58.04634" lon="38.838812"><ele>104.5</ele><time>2024-10-20T12:09:30Z</time></trkpt><trkpt lat="58.046417" lon="38.838882"><ele>105.6</ele><time>2024-10-20T12:09:37Z</time></trkpt><trkpt lat="58.046495" lon="38.83892"><ele>105.9</ele><time>2024-10-20T12:09:43Z</time></trkpt><trkpt lat="58.046562" lon="38.838985"><ele>104.9</ele><time>2024-10-20T12:09:49Z</time></trkpt><trkpt lat="58.04664" lon="38.839047"><ele>102.5</ele><time>2024-10-20T12:09:57Z</time></trkpt><trkpt lat="58.046717" lon="38.83909"><ele>101.8</ele><time>2024-10-20T12:10:03Z</time></trkpt><trkpt lat="58.046767" lon="38.83899"><ele>102.5</ele><time>2024-10-20T12:10:09Z</time></trkpt><trkpt lat="58.04681" lon="38.838877"><ele>103.0</ele><time>2024-10-20T12:10:15Z</time></trkpt><trkpt lat="58.04685" lon="38.838755"><ele>104.0</ele><time>2024-10-20T12:10:22Z</time></trkpt><trkpt lat="58.046877" lon="38.83861"><ele>102.2</ele><time>2024-10-20T12:10:29Z</time></trkpt><trkpt lat="58.04691" lon="38.83847"><ele>104.4</ele><time>2024-10-20T12:10:36Z</time></trkpt><trkpt lat="58.046935" lon="38.838327"><ele>105.8</ele><time>2024-10-20T12:10:41Z</time></trkpt><trkpt lat="58.04695" lon="38.838175"><ele>105.9</ele><time>2024-10-20T12:10:47Z</time></trkpt><trkpt lat="58.046975" lon="38.838045"><ele>105.5</ele><time>2024-10-20T12:10:53Z</time></trkpt><trkpt lat="58.04701" lon="38.837925"><ele>104.6</ele><time>2024-10-20T12:10:59Z</time></trkpt><trkpt lat="58.047035" lon="38.8378"><ele>105.1</ele><time>2024-10-20T12:11:05Z</time></trkpt><trkpt lat="58.047065" lon="38.83766"><ele>105.9</ele><time>2024-10-20T12:11:11Z</time></trkpt><trkpt lat="58.0471" lon="38.837535"><ele>104.6</ele><time>2024-10-20T12:11:17Z</time></trkpt><trkpt lat="58.047127" lon="38.837407"><ele>107.0</ele><time>2024-10-20T12:11:23Z</time></trkpt><trkpt lat="58.047155" lon="38.837272"><ele>108.5</ele><time>2024-10-20T12:11:29Z</time></trkpt><trkpt lat="58.04719" lon="38.837137"><ele>104.7</ele><time>2024-10-20T12:11:35Z</time></trkpt><trkpt lat="58.04722" lon="38.836997"><ele>107.2</ele><time>2024-10-20T12:11:42Z</time></trkpt><trkpt lat="58.047285" lon="38.83692"><ele>108.2</ele><time>2024-10-20T12:11:49Z</time></trkpt><trkpt lat="58.047365" lon="38.83687"><ele>106.9</ele><time>2024-10-20T12:11:56Z</time></trkpt><trkpt lat="58.04744" lon="38.836815"><ele>107.6</ele><time>2024-10-20T12:12:03Z</time></trkpt><trkpt lat="58.04751" lon="38.836755"><ele>108.1</ele><time>2024-10-20T12:12:09Z</time></trkpt><trkpt lat="58.047575" lon="38.836692"><ele>101.7</ele><time>2024-10-20T12:12:14Z</time></trkpt><trkpt lat="58.04764" lon="38.83663"><ele>103.6</ele><time>2024-10-20T12:12:20Z</time></trkpt><trkpt lat="58.047708" lon="38.83656"><ele>106.8</ele><time>2024-10-20T12:12:26Z</time></trkpt><trkpt lat="58.047778" lon="38.836515"><ele>105.8</ele><time>2024-10-20T12:12:33Z</time></trkpt><trkpt lat="58.047832" lon="38.8365"><ele>104.9</ele><time>2024-10-20T12:12:40Z</time></trkpt><trkpt lat="58.047895" lon="38.83653"><ele>106.0</ele><time>2024-10-20T12:12:47Z</time></trkpt><trkpt lat="58.04797" lon="38.836595"><ele>106.5</ele><time>2024-10-20T12:12:54Z</time></trkpt><trkpt lat="58.048045" lon="38.8366"><ele>103.7</ele><time>2024-10-20T12:13:00Z</time></trkpt><trkpt lat="58.04812" lon="38.836567"><ele>104.1</ele><time>2024-10-20T12:13:05Z</time></trkpt><trkpt lat="58.04819" lon="38.836537"><ele>105.1</ele><time>2024-10-20T12:13:10Z</time></trkpt><trkpt lat="58.048265" lon="38.83649"><ele>102.4</ele><time>2024-10-20T12:13:16Z</time></trkpt><trkpt lat="58.048345" lon="38.836447"><ele>104.9</ele><time>2024-10-20T12:13:22Z</time></trkpt><trkpt lat="58.048415" lon="38.83639"><ele>104.0</ele><time>2024-10-20T12:13:28Z</time></trkpt><trkpt lat="58.048475" lon="38.836417"><ele>106.6</ele><time>2024-10-20T12:13:35Z</time></trkpt><trkpt lat="58.04855" lon="38.836467"><ele>107.5</ele><time>2024-10-20T12:13:41Z</time></trkpt><trkpt lat="58.048625" lon="38.836485"><ele>106.9</ele><time>2024-10-20T12:13:47Z</time></trkpt><trkpt lat="58.048692" lon="38.8364"><ele>109.2</ele><time>2024-10-20T12:13:53Z</time></trkpt><trkpt lat="58.048755" lon="38.836305"><ele>108.7</ele><time>2024-10-20T12:13:59Z</time></trkpt><trkpt lat="58.048822" lon="38.836235"><ele>109.4</ele><time>2024-10-20T12:14:05Z</time></trkpt><trkpt lat="58.048895" lon="38.83619"><ele>109.5</ele><time>2024-10-20T12:14:12Z</time></trkpt><trkpt lat="58.04892" lon="38.83619"><ele>110.8</ele><time>2024-10-20T12:14:19Z</time></trkpt><trkpt lat="58.04892" lon="38.83619"><ele>110.7</ele><time>2024-10-20T12:14:24Z</time></trkpt><trkpt lat="58.048992" lon="38.83615"><ele>108.2</ele><time>2024-10-20T12:15:14Z</time></trkpt><trkpt lat="58.049075" lon="38.836125"><ele>106.9</ele><time>2024-10-20T12:15:20Z</time></trkpt><trkpt lat="58.049137" lon="38.836045"><ele>106.0</ele><time>2024-10-20T12:15:26Z</time></trkpt><trkpt lat="58.049195" lon="38.835955"><ele>106.0</ele><time>2024-10-20T12:15:32Z</time></trkpt><trkpt lat="58.04924" lon="38.83583"><ele>107.1</ele><time>2024-10-20T12:15:38Z</time></trkpt><trkpt lat="58.049265" lon="38.835685"><ele>107.4</ele><time>2024-10-20T12:15:44Z</time></trkpt><trkpt lat="58.049292" lon="38.835547"><ele>107.3</ele><time>2024-10-20T12:15:50Z</time></trkpt><trkpt lat="58.04932" lon="38.8354"><ele>106.2</ele><time>2024-10-20T12:15:57Z</time></trkpt><trkpt lat="58.04935" lon="38.835262"><ele>106.0</ele><time>2024-10-20T12:16:03Z</time></trkpt><trkpt lat="58.049385" lon="38.835135"><ele>105.2</ele><time>2024-10-20T12:16:09Z</time></trkpt><trkpt lat="58.049417" lon="38.83501"><ele>105.8</ele><time>2024-10-20T12:16:15Z</time></trkpt><trkpt lat="58.04944" lon="38.834867"><ele>105.5</ele><time>2024-10-20T12:16:21Z</time></trkpt><trkpt lat="58.049462" lon="38.834725"><ele>105.0</ele><time>2024-10-20T12:16:28Z</time></trkpt><trkpt lat="58.049485" lon="38.834575"><ele>105.1</ele><time>2024-10-20T12:16:33Z</time></trkpt><trkpt lat="58.049527" lon="38.834465"><ele>105.5</ele><time>2024-10-20T12:16:39Z</time></trkpt><trkpt lat="58.04956" lon="38.834335"><ele>104.3</ele><time>2024-10-20T12:16:45Z</time></trkpt><trkpt lat="58.04958" lon="38.834187"><ele>105.3</ele><time>2024-10-20T12:16:51Z</time></trkpt><trkpt lat="58.049602" lon="38.834055"><ele>106.7</ele><time>2024-10-20T12:16:56Z</time></trkpt><trkpt lat="58.04965" lon="38.833945"><ele>105.9</ele><time>2024-10-20T12:17:03Z</time></trkpt><trkpt lat="58.04969" lon="38.833802"><ele>107.5</ele><time>2024-10-20T12:17:08Z</time></trkpt><trkpt lat="58.04974" lon="38.833675"><ele>110.9</ele><time>2024-10-20T12:17:15Z</time></trkpt><trkpt lat="58.04978" lon="38.833545"><ele>113.2</ele><time>2024-10-20T12:17:20Z</time></trkpt><trkpt lat="58.0498" lon="38.8334"><ele>110.6</ele><time>2024-10-20T12:17:26Z</time></trkpt><trkpt lat="58.049822" lon="38.83326"><ele>108.5</ele><time>2024-10-20T12:17:32Z</time></trkpt><trkpt lat="58.049833" lon="38.83312"><ele>107.7</ele><time>2024-10-20T12:17:38Z</time></trkpt><trkpt lat="58.04985" lon="38.832967"><ele>108.3</ele><time>2024-10-20T12:17:44Z</time></trkpt><trkpt lat="58.04985" lon="38.832818"><ele>108.2</ele><time>2024-10-20T12:17:50Z</time></trkpt><trkpt lat="58.04985" lon="38.83267"><ele>108.9</ele><time>2024-10-20T12:17:56Z</time></trkpt><trkpt lat="58.04986" lon="38.832532"><ele>109.5</ele><time>2024-10-20T12:18:01Z</time></trkpt><trkpt lat="58.04987" lon="38.832395"><ele>108.4</ele><time>2024-10-20T12:18:06Z</time></trkpt><trkpt lat="58.049895" lon="38.832255"><ele>107.5</ele><time>2024-10-20T12:18:12Z</time></trkpt><trkpt lat="58.049915" lon="38.832105"><ele>107.5</ele><time>2024-10-20T12:18:18Z</time></trkpt><trkpt lat="58.04994" lon="38.831967"><ele>107.5</ele><time>2024-10-20T12:18:24Z</time></trkpt><trkpt lat="58.049975" lon="38.83183"><ele>107.5</ele><time>2024-10-20T12:18:30Z</time></trkpt><trkpt lat="58.049995" lon="38.831693"><ele>105.9</ele><time>2024-10-20T12:18:36Z</time></trkpt><trkpt lat="58.05003" lon="38.83157"><ele>105.6</ele><time>2024-10-20T12:18:41Z</time></trkpt><trkpt lat="58.050055" lon="38.83144"><ele>105.6</ele><time>2024-10-20T12:18:47Z</time></trkpt><trkpt lat="58.050075" lon="38.831307"><ele>107.2</ele><time>2024-10-20T12:18:53Z</time></trkpt><trkpt lat="58.0501" lon="38.83118"><ele>105.4</ele><time>2024-10-20T12:18:59Z</time></trkpt><trkpt lat="58.05012" lon="38.83102"><ele>106.0</ele><time>2024-10-20T12:19:05Z</time></trkpt><trkpt lat="58.050145" lon="38.83088"><ele>106.4</ele><time>2024-10-20T12:19:11Z</time></trkpt><trkpt lat="58.05016" lon="38.830735"><ele>106.4</ele><time>2024-10-20T12:19:17Z</time></trkpt><trkpt lat="58.050187" lon="38.830605"><ele>106.5</ele><time>2024-10-20T12:19:23Z</time></trkpt><trkpt lat="58.050212" lon="38.830472"><ele>106.9</ele><time>2024-10-20T12:19:29Z</time></trkpt><trkpt lat="58.05024" lon="38.830337"><ele>105.3</ele><time>2024-10-20T12:19:35Z</time></trkpt><trkpt lat="58.05027" lon="38.8302"><ele>104.8</ele><time>2024-10-20T12:19:42Z</time></trkpt><trkpt lat="58.050287" lon="38.830065"><ele>103.1</ele><time>2024-10-20T12:19:49Z</time></trkpt><trkpt lat="58.050315" lon="38.82994"><ele>104.1</ele><time>2024-10-20T12:19:55Z</time></trkpt><trkpt lat="58.050342" lon="38.82979"><ele>104.3</ele><time>2024-10-20T12:20:02Z</time></trkpt><trkpt lat="58.050367" lon="38.829653"><ele>104.5</ele><time>2024-10-20T12:20:09Z</time></trkpt><trkpt lat="58.05038" lon="38.82952"><ele>106.1</ele><time>2024-10-20T12:20:15Z</time></trkpt><trkpt lat="58.0504" lon="38.82939"><ele>106.0</ele><time>2024-10-20T12:20:21Z</time></trkpt><trkpt lat="58.050437" lon="38.829258"><ele>106.3</ele><time>2024-10-20T12:20:27Z</time></trkpt><trkpt lat="58.050455" lon="38.829127"><ele>106.9</ele><time>2024-10-20T12:20:33Z</time></trkpt><trkpt lat="58.050477" lon="38.828997"><ele>107.0</ele><time>2024-10-20T12:20:39Z</time></trkpt><trkpt lat="58.050497" lon="38.828865"><ele>107.1</ele><time>2024-10-20T12:20:45Z</time></trkpt><trkpt lat="58.050527" lon="38.828727"><ele>107.4</ele><time>2024-10-20T12:20:51Z</time></trkpt><trkpt lat="58.05056" lon="38.8286"><ele>106.9</ele><time>2024-10-20T12:20:57Z</time></trkpt><trkpt lat="58.050605" lon="38.828482"><ele>106.0</ele><time>2024-10-20T12:21:03Z</time></trkpt><trkpt lat="58.050685" lon="38.828495"><ele>104.6</ele><time>2024-10-20T12:21:09Z</time></trkpt><trkpt lat="58.050765" lon="38.828495"><ele>102.9</ele><time>2024-10-20T12:21:15Z</time></trkpt><trkpt lat="58.05084" lon="38.828485"><ele>102.1</ele><time>2024-10-20T12:21:21Z</time></trkpt><trkpt lat="58.05092" lon="38.82846"><ele>103.1</ele><time>2024-10-20T12:21:27Z</time></trkpt><trkpt lat="58.051" lon="38.82845"><ele>102.8</ele><time>2024-10-20T12:21:33Z</time></trkpt><trkpt lat="58.05107" lon="38.828455"><ele>103.1</ele><time>2024-10-20T12:21:38Z</time></trkpt><trkpt lat="58.05115" lon="38.82845"><ele>106.2</ele><time>2024-10-20T12:21:44Z</time></trkpt><trkpt lat="58.051222" lon="38.828417"><ele>104.9</ele><time>2024-10-20T12:21:49Z</time></trkpt><trkpt lat="58.051305" lon="38.82841"><ele>106.2</ele><time>2024-10-20T12:21:55Z</time></trkpt><trkpt lat="58.051385" lon="38.828392"><ele>106.5</ele><time>2024-10-20T12:22:01Z</time></trkpt><trkpt lat="58.051457" lon="38.8284"><ele>104.9</ele><time>2024-10-20T12:22:06Z</time></trkpt><trkpt lat="58.051532" lon="38.828395"><ele>106.5</ele><time>2024-10-20T12:22:12Z</time></trkpt><trkpt lat="58.051605" lon="38.828407"><ele>108.0</ele><time>2024-10-20T12:22:18Z</time></trkpt><trkpt lat="58.051685" lon="38.828435"><ele>106.3</ele><time>2024-10-20T12:22:23Z</time></trkpt><trkpt lat="58.051755" lon="38.828465"><ele>105.6</ele><time>2024-10-20T12:22:29Z</time></trkpt><trkpt lat="58.05184" lon="38.828465"><ele>106.9</ele><time>2024-10-20T12:22:35Z</time></trkpt><trkpt lat="58.05191" lon="38.828525"><ele>106.2</ele><time>2024-10-20T12:22:41Z</time></trkpt><trkpt lat="58.05198" lon="38.8286"><ele>105.5</ele><time>2024-10-20T12:22:48Z</time></trkpt><trkpt lat="58.052055" lon="38.828582"><ele>104.7</ele><time>2024-10-20T12:22:54Z</time></trkpt><trkpt lat="58.052098" lon="38.82847"><ele>102.8</ele><time>2024-10-20T12:23:00Z</time></trkpt><trkpt lat="58.052125" lon="38.828322"><ele>103.1</ele><time>2024-10-20T12:23:07Z</time></trkpt><trkpt lat="58.052145" lon="38.82817"><ele>100.7</ele><time>2024-10-20T12:23:14Z</time></trkpt><trkpt lat="58.052165" lon="38.828035"><ele>100.6</ele><time>2024-10-20T12:23:21Z</time></trkpt><trkpt lat="58.05218" lon="38.8279"><ele>101.4</ele><time>2024-10-20T12:23:26Z</time></trkpt><trkpt lat="58.052205" lon="38.82777"><ele>102.1</ele><time>2024-10-20T12:23:32Z</time></trkpt><trkpt lat="58.052225" lon="38.82764"><ele>99.6</ele><time>2024-10-20T12:23:39Z</time></trkpt><trkpt lat="58.052245" lon="38.827495"><ele>99.4</ele><time>2024-10-20T12:23:46Z</time></trkpt><trkpt lat="58.052262" lon="38.82735"><ele>99.4</ele><time>2024-10-20T12:23:51Z</time></trkpt><trkpt lat="58.052282" lon="38.827197"><ele>98.4</ele><time>2024-10-20T12:23:58Z</time></trkpt><trkpt lat="58.052315" lon="38.827062"><ele>97.7</ele><time>2024-10-20T12:24:04Z</time></trkpt><trkpt lat="58.052335" lon="38.826915"><ele>98.9</ele><time>2024-10-20T12:24:11Z</time></trkpt><trkpt lat="58.052365" lon="38.826775"><ele>98.1</ele><time>2024-10-20T12:24:17Z</time></trkpt><trkpt lat="58.052385" lon="38.82663"><ele>98.8</ele><time>2024-10-20T12:24:23Z</time></trkpt><trkpt lat="58.052405" lon="38.826485"><ele>101.0</ele><time>2024-10-20T12:24:29Z</time></trkpt><trkpt lat="58.05244" lon="38.82636"><ele>102.2</ele><time>2024-10-20T12:24:35Z</time></trkpt><trkpt lat="58.052475" lon="38.826222"><ele>103.4</ele><time>2024-10-20T12:24:42Z</time></trkpt><trkpt lat="58.05249" lon="38.826067"><ele>100.2</ele><time>2024-10-20T12:24:47Z</time></trkpt><trkpt lat="58.05252" lon="38.825922"><ele>99.5</ele><time>2024-10-20T12:24:53Z</time></trkpt><trkpt lat="58.052553" lon="38.82578"><ele>102.5</ele><time>2024-10-20T12:24:59Z</time></trkpt><trkpt lat="58.052592" lon="38.82565"><ele>102.4</ele><time>2024-10-20T12:25:05Z</time></trkpt><trkpt lat="58.052625" lon="38.825505"><ele>101.3</ele><time>2024-10-20T12:25:11Z</time></trkpt><trkpt lat="58.052638" lon="38.825367"><ele>104.2</ele><time>2024-10-20T12:25:17Z</time></trkpt><trkpt lat="58.05268" lon="38.825235"><ele>103.4</ele><time>2024-10-20T12:25:23Z</time></trkpt><trkpt lat="58.052707" lon="38.825092"><ele>101.0</ele><time>2024-10-20T12:25:29Z</time></trkpt><trkpt lat="58.052745" lon="38.82496"><ele>102.3</ele><time>2024-10-20T12:25:35Z</time></trkpt><trkpt lat="58.052772" lon="38.82482"><ele>102.6</ele><time>2024-10-20T12:25:41Z</time></trkpt><trkpt lat="58.0528" lon="38.824685"><ele>102.1</ele><time>2024-10-20T12:25:47Z</time></trkpt><trkpt lat="58.052825" lon="38.824555"><ele>98.6</ele><time>2024-10-20T12:25:53Z</time></trkpt><trkpt lat="58.052835" lon="38.824405"><ele>102.1</ele><time>2024-10-20T12:25:59Z</time></trkpt><trkpt lat="58.052855" lon="38.824263"><ele>101.2</ele><time>2024-10-20T12:26:05Z</time></trkpt><trkpt lat="58.05287" lon="38.824115"><ele>101.8</ele><time>2024-10-20T12:26:11Z</time></trkpt><trkpt lat="58.05289" lon="38.82398"><ele>103.2</ele><time>2024-10-20T12:26:17Z</time></trkpt><trkpt lat="58.052915" lon="38.823835"><ele>103.2</ele><time>2024-10-20T12:26:23Z</time></trkpt><trkpt lat="58.052932" lon="38.8237"><ele>104.1</ele><time>2024-10-20T12:26:29Z</time></trkpt><trkpt lat="58.052965" lon="38.823565"><ele>103.6</ele><time>2024-10-20T12:26:35Z</time></trkpt><trkpt lat="58.052985" lon="38.823427"><ele>105.1</ele><time>2024-10-20T12:26:41Z</time></trkpt><trkpt lat="58.053015" lon="38.823305"><ele>106.0</ele><time>2024-10-20T12:26:47Z</time></trkpt><trkpt lat="58.05304" lon="38.82317"><ele>104.8</ele><time>2024-10-20T12:26:53Z</time></trkpt><trkpt lat="58.053055" lon="38.823025"><ele>104.2</ele><time>2024-10-20T12:26:59Z</time></trkpt><trkpt lat="58.053095" lon="38.822887"><ele>104.4</ele><time>2024-10-20T12:27:06Z</time></trkpt><trkpt lat="58.05312" lon="38.822755"><ele>103.3</ele><time>2024-10-20T12:27:13Z</time></trkpt><trkpt lat="58.053145" lon="38.82261"><ele>104.1</ele><time>2024-10-20T12:27:19Z</time></trkpt><trkpt lat="58.053185" lon="38.822475"><ele>102.7</ele><time>2024-10-20T12:27:27Z</time></trkpt><trkpt lat="58.053235" lon="38.82237"><ele>103.2</ele><time>2024-10-20T12:27:32Z</time></trkpt><trkpt lat="58.05329" lon="38.822265"><ele>103.0</ele><time>2024-10-20T12:27:38Z</time></trkpt><trkpt lat="58.05335" lon="38.822155"><ele>103.9</ele><time>2024-10-20T12:27:45Z</time></trkpt><trkpt lat="58.0534" lon="38.822045"><ele>102.8</ele><time>2024-10-20T12:27:51Z</time></trkpt><trkpt lat="58.053437" lon="38.821905"><ele>103.2</ele><time>2024-10-20T12:27:58Z</time></trkpt><trkpt lat="58.053455" lon="38.821762"><ele>102.9</ele><time>2024-10-20T12:28:04Z</time></trkpt><trkpt lat="58.053467" lon="38.821622"><ele>101.4</ele><time>2024-10-20T12:28:10Z</time></trkpt><trkpt lat="58.053485" lon="38.821467"><ele>99.4</ele><time>2024-10-20T12:28:17Z</time></trkpt><trkpt lat="58.053495" lon="38.821308"><ele>98.0</ele><time>2024-10-20T12:28:23Z</time></trkpt><trkpt lat="58.0535" lon="38.821168"><ele>98.6</ele><time>2024-10-20T12:28:29Z</time></trkpt><trkpt lat="58.053577" lon="38.821115"><ele>99.6</ele><time>2024-10-20T12:28:37Z</time></trkpt><trkpt lat="58.05366" lon="38.821082"><ele>100.9</ele><time>2024-10-20T12:28:43Z</time></trkpt><trkpt lat="58.05373" lon="38.82104"><ele>101.7</ele><time>2024-10-20T12:28:47Z</time></trkpt><trkpt lat="58.053805" lon="38.820995"><ele>101.6</ele><time>2024-10-20T12:28:53Z</time></trkpt><trkpt lat="58.053885" lon="38.820935"><ele>103.1</ele><time>2024-10-20T12:28:59Z</time></trkpt><trkpt lat="58.05395" lon="38.82087"><ele>104.4</ele><time>2024-10-20T12:29:04Z</time></trkpt><trkpt lat="58.054022" lon="38.820795"><ele>107.0</ele><time>2024-10-20T12:29:10Z</time></trkpt><trkpt lat="58.054092" lon="38.820732"><ele>107.4</ele><time>2024-10-20T12:29:17Z</time></trkpt><trkpt lat="58.05416" lon="38.820652"><ele>107.4</ele><time>2024-10-20T12:29:23Z</time></trkpt><trkpt lat="58.054227" lon="38.8206"><ele>106.5</ele><time>2024-10-20T12:29:29Z</time></trkpt><trkpt lat="58.054292" lon="38.820525"><ele>105.6</ele><time>2024-10-20T12:29:35Z</time></trkpt><trkpt lat="58.05434" lon="38.820393"><ele>101.5</ele><time>2024-10-20T12:29:41Z</time></trkpt><trkpt lat="58.054352" lon="38.820252"><ele>101.4</ele><time>2024-10-20T12:29:47Z</time></trkpt><trkpt lat="58.05436" lon="38.820107"><ele>102.5</ele><time>2024-10-20T12:29:53Z</time></trkpt><trkpt lat="58.054365" lon="38.81997"><ele>102.0</ele><time>2024-10-20T12:29:59Z</time></trkpt><trkpt lat="58.054365" lon="38.819832"><ele>102.2</ele><time>2024-10-20T12:30:05Z</time></trkpt><trkpt lat="58.05436" lon="38.819665"><ele>105.9</ele><time>2024-10-20T12:30:12Z</time></trkpt><trkpt lat="58.05437" lon="38.819525"><ele>103.9</ele><time>2024-10-20T12:30:18Z</time></trkpt><trkpt lat="58.054375" lon="38.819397"><ele>105.0</ele><time>2024-10-20T12:30:25Z</time></trkpt><trkpt lat="58.054375" lon="38.819265"><ele>105.2</ele><time>2024-10-20T12:30:32Z</time></trkpt><trkpt lat="58.054385" lon="38.819122"><ele>103.6</ele><time>2024-10-20T12:30:39Z</time></trkpt><trkpt lat="58.054395" lon="38.818982"><ele>102.4</ele><time>2024-10-20T12:30:46Z</time></trkpt><trkpt lat="58.054395" lon="38.818842"><ele>103.2</ele><time>2024-10-20T12:30:53Z</time></trkpt><trkpt lat="58.054405" lon="38.81871"><ele>103.8</ele><time>2024-10-20T12:31:00Z</time></trkpt><trkpt lat="58.05441" lon="38.818572"><ele>103.3</ele><time>2024-10-20T12:31:07Z</time></trkpt><trkpt lat="58.054425" lon="38.818418"><ele>103.5</ele><time>2024-10-20T12:31:15Z</time></trkpt><trkpt lat="58.054425" lon="38.818262"><ele>102.6</ele><time>2024-10-20T12:31:21Z</time></trkpt><trkpt lat="58.054435" lon="38.818125"><ele>100.2</ele><time>2024-10-20T12:31:27Z</time></trkpt><trkpt lat="58.054445" lon="38.817985"><ele>101.6</ele><time>2024-10-20T12:31:33Z</time></trkpt><trkpt lat="58.054465" lon="38.817842"><ele>101.4</ele><time>2024-10-20T12:31:39Z</time></trkpt><trkpt lat="58.054515" lon="38.81773"><ele>100.3</ele><time>2024-10-20T12:31:46Z</time></trkpt><trkpt lat="58.054595" lon="38.817675"><ele>100.6</ele><time>2024-10-20T12:31:53Z</time></trkpt><trkpt lat="58.05465" lon="38.81756"><ele>99.3</ele><time>2024-10-20T12:31:59Z</time></trkpt><trkpt lat="58.0547" lon="38.817445"><ele>100.4</ele><time>2024-10-20T12:32:05Z</time></trkpt><trkpt lat="58.054758" lon="38.817335"><ele>100.4</ele><time>2024-10-20T12:32:11Z</time></trkpt><trkpt lat="58.054805" lon="38.817222"><ele>102.2</ele><time>2024-10-20T12:32:17Z</time></trkpt><trkpt lat="58.054848" lon="38.817115"><ele>101.9</ele><time>2024-10-20T12:32:23Z</time></trkpt><trkpt lat="58.054892" lon="38.816982"><ele>102.3</ele><time>2024-10-20T12:32:31Z</time></trkpt><trkpt lat="58.05493" lon="38.816855"><ele>103.6</ele><time>2024-10-20T12:32:37Z</time></trkpt><trkpt lat="58.054947" lon="38.8167"><ele>102.9</ele><time>2024-10-20T12:32:44Z</time></trkpt><trkpt lat="58.05496" lon="38.81656"><ele>103.0</ele><time>2024-10-20T12:32:50Z</time></trkpt><trkpt lat="58.054975" lon="38.816425"><ele>103.3</ele><time>2024-10-20T12:32:56Z</time></trkpt><trkpt lat="58.055005" lon="38.816295"><ele>103.4</ele><time>2024-10-20T12:33:02Z</time></trkpt><trkpt lat="58.055075" lon="38.816237"><ele>102.7</ele><time>2024-10-20T12:33:08Z</time></trkpt><trkpt lat="58.05516" lon="38.816245"><ele>103.2</ele><time>2024-10-20T12:33:15Z</time></trkpt><trkpt lat="58.055235" lon="38.816235"><ele>103.3</ele><time>2024-10-20T12:33:20Z</time></trkpt><trkpt lat="58.05529" lon="38.81614"><ele>103.1</ele><time>2024-10-20T12:33:26Z</time></trkpt><trkpt lat="58.055327" lon="38.816007"><ele>104.0</ele><time>2024-10-20T12:33:32Z</time></trkpt><trkpt lat="58.05537" lon="38.815885"><ele>101.5</ele><time>2024-10-20T12:33:38Z</time></trkpt><trkpt lat="58.055415" lon="38.815777"><ele>100.8</ele><time>2024-10-20T12:33:44Z</time></trkpt><trkpt lat="58.055465" lon="38.815647"><ele>100.3</ele><time>2024-10-20T12:33:52Z</time></trkpt><trkpt lat="58.055512" lon="38.81554"><ele>100.7</ele><time>2024-10-20T12:33:58Z</time></trkpt><trkpt lat="58.055565" lon="38.81544"><ele>101.6</ele><time>2024-10-20T12:34:03Z</time></trkpt><trkpt lat="58.055615" lon="38.815325"><ele>102.3</ele><time>2024-10-20T12:34:10Z</time></trkpt><trkpt lat="58.055663" lon="38.815202"><ele>101.6</ele><time>2024-10-20T12:34:17Z</time></trkpt><trkpt lat="58.055715" lon="38.815095"><ele>102.1</ele><time>2024-10-20T12:34:24Z</time></trkpt><trkpt lat="58.055775" lon="38.815012"><ele>103.4</ele><time>2024-10-20T12:34:29Z</time></trkpt><trkpt lat="58.055835" lon="38.814932"><ele>104.2</ele><time>2024-10-20T12:34:35Z</time></trkpt><trkpt lat="58.055875" lon="38.814797"><ele>104.0</ele><time>2024-10-20T12:34:41Z</time></trkpt><trkpt lat="58.05592" lon="38.814685"><ele>104.1</ele><time>2024-10-20T12:34:47Z</time></trkpt><trkpt lat="58.055967" lon="38.814568"><ele>105.7</ele><time>2024-10-20T12:34:53Z</time></trkpt><trkpt lat="58.056015" lon="38.81446"><ele>106.0</ele><time>2024-10-20T12:34:59Z</time></trkpt><trkpt lat="58.05607" lon="38.81436"><ele>108.9</ele><time>2024-10-20T12:35:05Z</time></trkpt><trkpt lat="58.056123" lon="38.814255"><ele>108.4</ele><time>2024-10-20T12:35:12Z</time></trkpt><trkpt lat="58.05617" lon="38.814142"><ele>108.1</ele><time>2024-10-20T12:35:17Z</time></trkpt><trkpt lat="58.056213" lon="38.814012"><ele>108.5</ele><time>2024-10-20T12:35:24Z</time></trkpt><trkpt lat="58.05626" lon="38.813892"><ele>105.7</ele><time>2024-10-20T12:35:30Z</time></trkpt><trkpt lat="58.056312" lon="38.813797"><ele>106.9</ele><time>2024-10-20T12:35:37Z</time></trkpt><trkpt lat="58.056375" lon="38.813695"><ele>107.2</ele><time>2024-10-20T12:35:43Z</time></trkpt><trkpt lat="58.056447" lon="38.81368"><ele>103.7</ele><time>2024-10-20T12:35:49Z</time></trkpt><trkpt lat="58.056527" lon="38.813645"><ele>105.6</ele><time>2024-10-20T12:35:55Z</time></trkpt><trkpt lat="58.056597" lon="38.81359"><ele>106.1</ele><time>2024-10-20T12:36:00Z</time></trkpt><trkpt lat="58.05668" lon="38.81356"><ele>108.0</ele><time>2024-10-20T12:36:06Z</time></trkpt><trkpt lat="58.05675" lon="38.813517"><ele>108.2</ele><time>2024-10-20T12:36:12Z</time></trkpt><trkpt lat="58.056815" lon="38.813445"><ele>104.8</ele><time>2024-10-20T12:36:19Z</time></trkpt><trkpt lat="58.056872" lon="38.813367"><ele>102.7</ele><time>2024-10-20T12:36:25Z</time></trkpt><trkpt lat="58.056945" lon="38.813285"><ele>101.0</ele><time>2024-10-20T12:36:31Z</time></trkpt><trkpt lat="58.057015" lon="38.81321"><ele>100.0</ele><time>2024-10-20T12:36:38Z</time></trkpt><trkpt lat="58.05708" lon="38.813122"><ele>97.4</ele><time>2024-10-20T12:36:44Z</time></trkpt><trkpt lat="58.05713" lon="38.81301"><ele>103.6</ele><time>2024-10-20T12:36:50Z</time></trkpt><trkpt lat="58.05714" lon="38.812872"><ele>104.6</ele><time>2024-10-20T12:36:56Z</time></trkpt><trkpt lat="58.057135" lon="38.81272"><ele>105.5</ele><time>2024-10-20T12:37:03Z</time></trkpt><trkpt lat="58.05713" lon="38.812575"><ele>105.8</ele><time>2024-10-20T12:37:09Z</time></trkpt><trkpt lat="58.057097" lon="38.81243"><ele>107.8</ele><time>2024-10-20T12:37:15Z</time></trkpt><trkpt lat="58.05712" lon="38.812292"><ele>107.5</ele><time>2024-10-20T12:37:21Z</time></trkpt><trkpt lat="58.05714" lon="38.812147"><ele>106.6</ele><time>2024-10-20T12:37:28Z</time></trkpt><trkpt lat="58.057155" lon="38.812"><ele>106.7</ele><time>2024-10-20T12:37:34Z</time></trkpt><trkpt lat="58.05717" lon="38.81185"><ele>105.7</ele><time>2024-10-20T12:37:40Z</time></trkpt><trkpt lat="58.057165" lon="38.811705"><ele>107.4</ele><time>2024-10-20T12:37:46Z</time></trkpt><trkpt lat="58.057182" lon="38.81157"><ele>107.1</ele><time>2024-10-20T12:37:52Z</time></trkpt><trkpt lat="58.057207" lon="38.81142"><ele>107.1</ele><time>2024-10-20T12:37:59Z</time></trkpt><trkpt lat="58.05722" lon="38.81126"><ele>106.9</ele><time>2024-10-20T12:38:06Z</time></trkpt><trkpt lat="58.057225" lon="38.81112"><ele>108.3</ele><time>2024-10-20T12:38:12Z</time></trkpt><trkpt lat="58.05724" lon="38.81098"><ele>111.8</ele><time>2024-10-20T12:38:18Z</time></trkpt><trkpt lat="58.05731" lon="38.81093"><ele>110.7</ele><time>2024-10-20T12:38:24Z</time></trkpt><trkpt lat="58.057385" lon="38.81091"><ele>107.0</ele><time>2024-10-20T12:38:29Z</time></trkpt><trkpt lat="58.057455" lon="38.810847"><ele>103.8</ele><time>2024-10-20T12:38:35Z</time></trkpt><trkpt lat="58.057505" lon="38.810735"><ele>105.4</ele><time>2024-10-20T12:38:41Z</time></trkpt><trkpt lat="58.057535" lon="38.81061"><ele>102.8</ele><time>2024-10-20T12:38:47Z</time></trkpt><trkpt lat="58.05758" lon="38.810505"><ele>103.7</ele><time>2024-10-20T12:38:52Z</time></trkpt><trkpt lat="58.057627" lon="38.810397"><ele>106.3</ele><time>2024-10-20T12:38:57Z</time></trkpt><trkpt lat="58.057682" lon="38.810285"><ele>106.3</ele><time>2024-10-20T12:39:03Z</time></trkpt><trkpt lat="58.057755" lon="38.810305"><ele>103.3</ele><time>2024-10-20T12:39:09Z</time></trkpt><trkpt lat="58.057835" lon="38.81035"><ele>102.1</ele><time>2024-10-20T12:39:15Z</time></trkpt><trkpt lat="58.05791" lon="38.810375"><ele>104.8</ele><time>2024-10-20T12:39:21Z</time></trkpt><trkpt lat="58.057985" lon="38.810425"><ele>102.5</ele><time>2024-10-20T12:39:27Z</time></trkpt><trkpt lat="58.058065" lon="38.810445"><ele>103.4</ele><time>2024-10-20T12:39:34Z</time></trkpt><trkpt lat="58.05814" lon="38.81046"><ele>106.0</ele><time>2024-10-20T12:39:40Z</time></trkpt><trkpt lat="58.0582" lon="38.81035"><ele>106.5</ele><time>2024-10-20T12:39:46Z</time></trkpt><trkpt lat="58.05823" lon="38.8102"><ele>107.1</ele><time>2024-10-20T12:39:51Z</time></trkpt><trkpt lat="58.058305" lon="38.810135"><ele>108.0</ele><time>2024-10-20T12:39:57Z</time></trkpt><trkpt lat="58.05837" lon="38.81007"><ele>105.9</ele><time>2024-10-20T12:40:03Z</time></trkpt><trkpt lat="58.058407" lon="38.809938"><ele>105.4</ele><time>2024-10-20T12:40:09Z</time></trkpt><trkpt lat="58.058472" lon="38.80986"><ele>106.4</ele><time>2024-10-20T12:40:15Z</time></trkpt><trkpt lat="58.058495" lon="38.809712"><ele>106.0</ele><time>2024-10-20T12:40:21Z</time></trkpt><trkpt lat="58.058505" lon="38.80957"><ele>105.4</ele><time>2024-10-20T12:40:27Z</time></trkpt><trkpt lat="58.058535" lon="38.80942"><ele>106.6</ele><time>2024-10-20T12:40:33Z</time></trkpt><trkpt lat="58.058547" lon="38.809285"><ele>107.1</ele><time>2024-10-20T12:40:39Z</time></trkpt><trkpt lat="58.058562" lon="38.809145"><ele>105.8</ele><time>2024-10-20T12:40:45Z</time></trkpt><trkpt lat="58.05857" lon="38.809007"><ele>105.0</ele><time>2024-10-20T12:40:51Z</time></trkpt><trkpt lat="58.05858" lon="38.80887"><ele>106.4</ele><time>2024-10-20T12:40:57Z</time></trkpt><trkpt lat="58.058595" lon="38.808722"><ele>106.5</ele><time>2024-10-20T12:41:03Z</time></trkpt><trkpt lat="58.05859" lon="38.808568"><ele>106.0</ele><time>2024-10-20T12:41:09Z</time></trkpt><trkpt lat="58.058605" lon="38.808418"><ele>105.3</ele><time>2024-10-20T12:41:15Z</time></trkpt><trkpt lat="58.058625" lon="38.808275"><ele>109.6</ele><time>2024-10-20T12:41:21Z</time></trkpt><trkpt lat="58.058635" lon="38.808132"><ele>108.2</ele><time>2024-10-20T12:41:27Z</time></trkpt><trkpt lat="58.058645" lon="38.807983"><ele>108.1</ele><time>2024-10-20T12:41:33Z</time></trkpt><trkpt lat="58.05866" lon="38.807832"><ele>107.3</ele><time>2024-10-20T12:41:39Z</time></trkpt><trkpt lat="58.058672" lon="38.807685"><ele>106.6</ele><time>2024-10-20T12:41:45Z</time></trkpt><trkpt lat="58.058755" lon="38.807695"><ele>104.3</ele><time>2024-10-20T12:41:52Z</time></trkpt><trkpt lat="58.058815" lon="38.807705"><ele>104.3</ele><time>2024-10-20T12:41:59Z</time></trkpt><trkpt lat="58.0589" lon="38.807757"><ele>106.4</ele><time>2024-10-20T12:42:06Z</time></trkpt><trkpt lat="58.05902" lon="38.807775"><ele>114.7</ele><time>2024-10-20T12:42:18Z</time></trkpt><trkpt lat="58.05905" lon="38.80764"><ele>116.6</ele><time>2024-10-20T12:42:21Z</time></trkpt></trkseg></trk></gpx>