<?xml version="1.0" encoding="UTF-8" standalone="no"?><gpx xmlns="http://www.topografix.com/GPX/1/1" xmlns:gpxtpx="http://www.garmin.com/xmlschemas/TrackPointExtension/v1" xmlns:xsi="http://www.w3.org/2001/XMLSchema-instance" creator="Sports Tracker" version="1.1" xsi:schemaLocation="http://www.topografix.com/GPX/1/1 http://www.topografix.com/GPX/1/1/gpx.xsd http://www.garmin.com/xmlschemas/TrackPointExtension/v1 http://www.garmin.com/xmlschemas/TrackPointExtensionv1.xsd"><metadata><name>22.02.2026 09:31</name><desc/><author><name>Александр</name></author></metadata><trk><name>22.02.2026 09:31</name><trkseg><trkpt lat="57.896665" lon="38.51357"><ele>137.4</ele><time>2026-02-22T06:31:39Z</time></trkpt><trkpt lat="57.896665" lon="38.51357"><ele>137.4</ele><time>2026-02-22T06:31:39Z</time></trkpt><trkpt lat="57.89667" lon="38.51357"><ele>137.2</ele><time>2026-02-22T06:31:46Z</time></trkpt><trkpt lat="57.89668" lon="38.51359"><ele>136.4</ele><time>2026-02-22T06:32:42Z</time></trkpt><trkpt lat="57.89668" lon="38.51359"><ele>136.2</ele><time>2026-02-22T06:32:43Z</time></trkpt><trkpt lat="57.896675" lon="38.5136"><ele>136.8</ele><time>2026-02-22T06:32:55Z</time></trkpt><trkpt lat="57.896675" lon="38.5136"><ele>136.8</ele><time>2026-02-22T06:32:56Z</time></trkpt><trkpt lat="57.89671" lon="38.51373"><ele>137.6</ele><time>2026-02-22T06:33:36Z</time></trkpt><trkpt lat="57.896755" lon="38.513855"><ele>139.3</ele><time>2026-02-22T06:33:38Z</time></trkpt><trkpt lat="57.89681" lon="38.513965"><ele>138.4</ele><time>2026-02-22T06:33:40Z</time></trkpt><trkpt lat="57.896853" lon="38.514085"><ele>136.7</ele><time>2026-02-22T06:33:42Z</time></trkpt><trkpt lat="57.89692" lon="38.514175"><ele>136.2</ele><time>2026-02-22T06:33:44Z</time></trkpt><trkpt lat="57.896995" lon="38.514065"><ele>135.9</ele><time>2026-02-22T06:33:46Z</time></trkpt><trkpt lat="57.896995" lon="38.513895"><ele>134.2</ele><time>2026-02-22T06:33:49Z</time></trkpt><trkpt lat="57.896955" lon="38.513715"><ele>133.3</ele><time>2026-02-22T06:33:52Z</time></trkpt><trkpt lat="57.89691" lon="38.513592"><ele>132.2</ele><time>2026-02-22T06:33:54Z</time></trkpt><trkpt lat="57.896845" lon="38.513455"><ele>131.4</ele><time>2026-02-22T06:33:57Z</time></trkpt><trkpt lat="57.89677" lon="38.51331"><ele>131.8</ele><time>2026-02-22T06:34:00Z</time></trkpt><trkpt lat="57.896718" lon="38.51321"><ele>131.0</ele><time>2026-02-22T06:34:02Z</time></trkpt><trkpt lat="57.89668" lon="38.51309"><ele>130.5</ele><time>2026-02-22T06:34:04Z</time></trkpt><trkpt lat="57.89664" lon="38.512968"><ele>131.2</ele><time>2026-02-22T06:34:06Z</time></trkpt><trkpt lat="57.89662" lon="38.51279"><ele>132.7</ele><time>2026-02-22T06:34:09Z</time></trkpt><trkpt lat="57.89668" lon="38.512625"><ele>132.5</ele><time>2026-02-22T06:34:12Z</time></trkpt><trkpt lat="57.89675" lon="38.51257"><ele>134.0</ele><time>2026-02-22T06:34:14Z</time></trkpt><trkpt lat="57.896845" lon="38.512565"><ele>132.8</ele><time>2026-02-22T06:34:17Z</time></trkpt><trkpt lat="57.896922" lon="38.51266"><ele>131.5</ele><time>2026-02-22T06:34:20Z</time></trkpt><trkpt lat="57.897005" lon="38.512785"><ele>132.3</ele><time>2026-02-22T06:34:23Z</time></trkpt><trkpt lat="57.89706" lon="38.51289"><ele>132.9</ele><time>2026-02-22T06:34:25Z</time></trkpt><trkpt lat="57.897105" lon="38.51305"><ele>134.0</ele><time>2026-02-22T06:34:28Z</time></trkpt><trkpt lat="57.89714" lon="38.513235"><ele>133.2</ele><time>2026-02-22T06:34:31Z</time></trkpt><trkpt lat="57.897195" lon="38.5134"><ele>132.9</ele><time>2026-02-22T06:34:34Z</time></trkpt><trkpt lat="57.89727" lon="38.513503"><ele>131.0</ele><time>2026-02-22T06:34:37Z</time></trkpt><trkpt lat="57.897355" lon="38.51357"><ele>131.4</ele><time>2026-02-22T06:34:40Z</time></trkpt><trkpt lat="57.89743" lon="38.51354"><ele>130.5</ele><time>2026-02-22T06:34:43Z</time></trkpt><trkpt lat="57.897435" lon="38.51338"><ele>130.9</ele><time>2026-02-22T06:34:47Z</time></trkpt><trkpt lat="57.897415" lon="38.51324"><ele>130.4</ele><time>2026-02-22T06:34:50Z</time></trkpt><trkpt lat="57.89745" lon="38.513075"><ele>131.2</ele><time>2026-02-22T06:34:53Z</time></trkpt><trkpt lat="57.89753" lon="38.512995"><ele>131.1</ele><time>2026-02-22T06:34:56Z</time></trkpt><trkpt lat="57.89761" lon="38.512968"><ele>130.6</ele><time>2026-02-22T06:34:59Z</time></trkpt><trkpt lat="57.897683" lon="38.51304"><ele>129.3</ele><time>2026-02-22T06:35:03Z</time></trkpt><trkpt lat="57.89774" lon="38.51318"><ele>129.3</ele><time>2026-02-22T06:35:06Z</time></trkpt><trkpt lat="57.897765" lon="38.51332"><ele>131.2</ele><time>2026-02-22T06:35:09Z</time></trkpt><trkpt lat="57.89779" lon="38.51348"><ele>131.3</ele><time>2026-02-22T06:35:12Z</time></trkpt><trkpt lat="57.89782" lon="38.51362"><ele>131.3</ele><time>2026-02-22T06:35:15Z</time></trkpt><trkpt lat="57.89785" lon="38.513785"><ele>131.7</ele><time>2026-02-22T06:35:18Z</time></trkpt><trkpt lat="57.897855" lon="38.513935"><ele>132.4</ele><time>2026-02-22T06:35:21Z</time></trkpt><trkpt lat="57.897855" lon="38.51409"><ele>132.5</ele><time>2026-02-22T06:35:24Z</time></trkpt><trkpt lat="57.897857" lon="38.51426"><ele>130.9</ele><time>2026-02-22T06:35:27Z</time></trkpt><trkpt lat="57.89788" lon="38.514445"><ele>131.0</ele><time>2026-02-22T06:35:30Z</time></trkpt><trkpt lat="57.897865" lon="38.51461"><ele>131.5</ele><time>2026-02-22T06:35:33Z</time></trkpt><trkpt lat="57.89779" lon="38.51467"><ele>132.7</ele><time>2026-02-22T06:35:36Z</time></trkpt><trkpt lat="57.897715" lon="38.51462"><ele>131.3</ele><time>2026-02-22T06:35:39Z</time></trkpt><trkpt lat="57.89764" lon="38.51455"><ele>131.4</ele><time>2026-02-22T06:35:42Z</time></trkpt><trkpt lat="57.897555" lon="38.514485"><ele>133.1</ele><time>2026-02-22T06:35:45Z</time></trkpt><trkpt lat="57.897458" lon="38.514407"><ele>133.3</ele><time>2026-02-22T06:35:48Z</time></trkpt><trkpt lat="57.89737" lon="38.51433"><ele>132.1</ele><time>2026-02-22T06:35:51Z</time></trkpt><trkpt lat="57.89728" lon="38.514275"><ele>131.2</ele><time>2026-02-22T06:35:54Z</time></trkpt><trkpt lat="57.8972" lon="38.51424"><ele>131.2</ele><time>2026-02-22T06:35:57Z</time></trkpt><trkpt lat="57.89712" lon="38.51422"><ele>133.0</ele><time>2026-02-22T06:36:00Z</time></trkpt><trkpt lat="57.89705" lon="38.514265"><ele>133.3</ele><time>2026-02-22T06:36:03Z</time></trkpt><trkpt lat="57.89698" lon="38.514365"><ele>134.8</ele><time>2026-02-22T06:36:07Z</time></trkpt><trkpt lat="57.89692" lon="38.51446"><ele>134.5</ele><time>2026-02-22T06:36:10Z</time></trkpt><trkpt lat="57.89685" lon="38.514575"><ele>134.8</ele><time>2026-02-22T06:36:13Z</time></trkpt><trkpt lat="57.89677" lon="38.514655"><ele>135.5</ele><time>2026-02-22T06:36:16Z</time></trkpt><trkpt lat="57.89669" lon="38.514647"><ele>133.8</ele><time>2026-02-22T06:36:19Z</time></trkpt><trkpt lat="57.89662" lon="38.514595"><ele>132.5</ele><time>2026-02-22T06:36:22Z</time></trkpt><trkpt lat="57.89656" lon="38.51448"><ele>132.5</ele><time>2026-02-22T06:36:25Z</time></trkpt><trkpt lat="57.89652" lon="38.514345"><ele>132.4</ele><time>2026-02-22T06:36:28Z</time></trkpt><trkpt lat="57.896485" lon="38.514197"><ele>132.5</ele><time>2026-02-22T06:36:31Z</time></trkpt><trkpt lat="57.89644" lon="38.514065"><ele>132.2</ele><time>2026-02-22T06:36:34Z</time></trkpt><trkpt lat="57.896385" lon="38.51395"><ele>130.1</ele><time>2026-02-22T06:36:37Z</time></trkpt><trkpt lat="57.896338" lon="38.51391"><ele>132.7</ele><time>2026-02-22T06:36:44Z</time></trkpt><trkpt lat="57.89633" lon="38.5139"><ele>133.2</ele><time>2026-02-22T06:36:51Z</time></trkpt><trkpt lat="57.89633" lon="38.5139"><ele>133.2</ele><time>2026-02-22T06:36:53Z</time></trkpt><trkpt lat="57.896318" lon="38.51383"><ele>132.3</ele><time>2026-02-22T06:37:43Z</time></trkpt><trkpt lat="57.89633" lon="38.513695"><ele>135.9</ele><time>2026-02-22T06:37:46Z</time></trkpt><trkpt lat="57.89638" lon="38.51353"><ele>134.7</ele><time>2026-02-22T06:37:49Z</time></trkpt><trkpt lat="57.89646" lon="38.51341"><ele>133.5</ele><time>2026-02-22T06:37:52Z</time></trkpt><trkpt lat="57.89654" lon="38.513405"><ele>135.3</ele><time>2026-02-22T06:37:55Z</time></trkpt><trkpt lat="57.896605" lon="38.513535"><ele>134.5</ele><time>2026-02-22T06:37:58Z</time></trkpt><trkpt lat="57.89658" lon="38.513725"><ele>134.6</ele><time>2026-02-22T06:38:01Z</time></trkpt><trkpt lat="57.8965" lon="38.513845"><ele>135.1</ele><time>2026-02-22T06:38:04Z</time></trkpt><trkpt lat="57.896402" lon="38.513875"><ele>135.9</ele><time>2026-02-22T06:38:07Z</time></trkpt><trkpt lat="57.89635" lon="38.513705"><ele>135.1</ele><time>2026-02-22T06:38:10Z</time></trkpt><trkpt lat="57.8964" lon="38.513525"><ele>135.1</ele><time>2026-02-22T06:38:13Z</time></trkpt><trkpt lat="57.89646" lon="38.51345"><ele>134.7</ele><time>2026-02-22T06:38:15Z</time></trkpt><trkpt lat="57.896543" lon="38.51343"><ele>134.9</ele><time>2026-02-22T06:38:18Z</time></trkpt><trkpt lat="57.89661" lon="38.513525"><ele>135.1</ele><time>2026-02-22T06:38:21Z</time></trkpt><trkpt lat="57.89658" lon="38.513705"><ele>135.4</ele><time>2026-02-22T06:38:24Z</time></trkpt><trkpt lat="57.896525" lon="38.513785"><ele>135.3</ele><time>2026-02-22T06:38:26Z</time></trkpt><trkpt lat="57.896435" lon="38.51387"><ele>135.6</ele><time>2026-02-22T06:38:29Z</time></trkpt><trkpt lat="57.896355" lon="38.51378"><ele>136.2</ele><time>2026-02-22T06:38:32Z</time></trkpt><trkpt lat="57.89635" lon="38.513615"><ele>134.8</ele><time>2026-02-22T06:38:35Z</time></trkpt><trkpt lat="57.896403" lon="38.51349"><ele>134.5</ele><time>2026-02-22T06:38:38Z</time></trkpt><trkpt lat="57.896472" lon="38.513437"><ele>134.4</ele><time>2026-02-22T06:38:41Z</time></trkpt><trkpt lat="57.896555" lon="38.513475"><ele>134.6</ele><time>2026-02-22T06:38:44Z</time></trkpt><trkpt lat="57.896605" lon="38.513605"><ele>133.2</ele><time>2026-02-22T06:38:48Z</time></trkpt><trkpt lat="57.89656" lon="38.513745"><ele>134.1</ele><time>2026-02-22T06:38:51Z</time></trkpt><trkpt lat="57.89649" lon="38.513845"><ele>133.9</ele><time>2026-02-22T06:38:54Z</time></trkpt><trkpt lat="57.8964" lon="38.513855"><ele>132.9</ele><time>2026-02-22T06:38:58Z</time></trkpt><trkpt lat="57.896335" lon="38.513765"><ele>131.5</ele><time>2026-02-22T06:39:01Z</time></trkpt><trkpt lat="57.896265" lon="38.51367"><ele>133.2</ele><time>2026-02-22T06:39:04Z</time></trkpt><trkpt lat="57.89621" lon="38.51356"><ele>132.6</ele><time>2026-02-22T06:39:07Z</time></trkpt><trkpt lat="57.89619" lon="38.51343"><ele>133.3</ele><time>2026-02-22T06:39:10Z</time></trkpt><trkpt lat="57.89621" lon="38.513282"><ele>132.9</ele><time>2026-02-22T06:39:13Z</time></trkpt><trkpt lat="57.89626" lon="38.51318"><ele>132.1</ele><time>2026-02-22T06:39:15Z</time></trkpt><trkpt lat="57.89636" lon="38.513123"><ele>133.9</ele><time>2026-02-22T06:39:18Z</time></trkpt><trkpt lat="57.896445" lon="38.51319"><ele>134.3</ele><time>2026-02-22T06:39:21Z</time></trkpt><trkpt lat="57.89651" lon="38.513295"><ele>136.3</ele><time>2026-02-22T06:39:24Z</time></trkpt><trkpt lat="57.896562" lon="38.513405"><ele>136.9</ele><time>2026-02-22T06:39:27Z</time></trkpt><trkpt lat="57.896627" lon="38.513555"><ele>135.1</ele><time>2026-02-22T06:39:30Z</time></trkpt><trkpt lat="57.896698" lon="38.5137"><ele>135.8</ele><time>2026-02-22T06:39:33Z</time></trkpt><trkpt lat="57.89675" lon="38.5138"><ele>136.0</ele><time>2026-02-22T06:39:35Z</time></trkpt><trkpt lat="57.896815" lon="38.513952"><ele>134.9</ele><time>2026-02-22T06:39:38Z</time></trkpt><trkpt lat="57.89687" lon="38.51409"><ele>134.6</ele><time>2026-02-22T06:39:41Z</time></trkpt><trkpt lat="57.896942" lon="38.514135"><ele>134.6</ele><time>2026-02-22T06:39:44Z</time></trkpt><trkpt lat="57.896995" lon="38.514005"><ele>133.3</ele><time>2026-02-22T06:39:47Z</time></trkpt><trkpt lat="57.896975" lon="38.51385"><ele>135.1</ele><time>2026-02-22T06:39:50Z</time></trkpt><trkpt lat="57.896935" lon="38.513728"><ele>134.2</ele><time>2026-02-22T06:39:53Z</time></trkpt><trkpt lat="57.896885" lon="38.513615"><ele>135.0</ele><time>2026-02-22T06:39:56Z</time></trkpt><trkpt lat="57.896835" lon="38.51348"><ele>133.3</ele><time>2026-02-22T06:40:00Z</time></trkpt><trkpt lat="57.89678" lon="38.513345"><ele>132.4</ele><time>2026-02-22T06:40:03Z</time></trkpt><trkpt lat="57.896725" lon="38.51323"><ele>131.4</ele><time>2026-02-22T06:40:07Z</time></trkpt><trkpt lat="57.896665" lon="38.513095"><ele>130.7</ele><time>2026-02-22T06:40:10Z</time></trkpt><trkpt lat="57.89662" lon="38.51298"><ele>130.4</ele><time>2026-02-22T06:40:13Z</time></trkpt><trkpt lat="57.89662" lon="38.5128"><ele>129.4</ele><time>2026-02-22T06:40:18Z</time></trkpt><trkpt lat="57.89668" lon="38.512645"><ele>129.1</ele><time>2026-02-22T06:40:21Z</time></trkpt><trkpt lat="57.89677" lon="38.512565"><ele>129.7</ele><time>2026-02-22T06:40:24Z</time></trkpt><trkpt lat="57.896857" lon="38.512575"><ele>131.6</ele><time>2026-02-22T06:40:27Z</time></trkpt><trkpt lat="57.896943" lon="38.51266"><ele>132.0</ele><time>2026-02-22T06:40:30Z</time></trkpt><trkpt lat="57.897035" lon="38.51278"><ele>131.3</ele><time>2026-02-22T06:40:33Z</time></trkpt><trkpt lat="57.89711" lon="38.512898"><ele>131.6</ele><time>2026-02-22T06:40:36Z</time></trkpt><trkpt lat="57.897145" lon="38.513055"><ele>131.0</ele><time>2026-02-22T06:40:39Z</time></trkpt><trkpt lat="57.897163" lon="38.513245"><ele>132.4</ele><time>2026-02-22T06:40:42Z</time></trkpt><trkpt lat="57.89721" lon="38.5134"><ele>130.2</ele><time>2026-02-22T06:40:45Z</time></trkpt><trkpt lat="57.897275" lon="38.513503"><ele>130.5</ele><time>2026-02-22T06:40:48Z</time></trkpt><trkpt lat="57.89737" lon="38.513585"><ele>131.9</ele><time>2026-02-22T06:40:51Z</time></trkpt><trkpt lat="57.897435" lon="38.513535"><ele>132.9</ele><time>2026-02-22T06:40:54Z</time></trkpt><trkpt lat="57.89742" lon="38.51339"><ele>134.3</ele><time>2026-02-22T06:40:57Z</time></trkpt><trkpt lat="57.897405" lon="38.513255"><ele>132.7</ele><time>2026-02-22T06:41:00Z</time></trkpt><trkpt lat="57.897445" lon="38.5131"><ele>133.1</ele><time>2026-02-22T06:41:03Z</time></trkpt><trkpt lat="57.89753" lon="38.513"><ele>133.4</ele><time>2026-02-22T06:41:06Z</time></trkpt><trkpt lat="57.897617" lon="38.51296"><ele>134.2</ele><time>2026-02-22T06:41:09Z</time></trkpt><trkpt lat="57.8977" lon="38.513"><ele>135.1</ele><time>2026-02-22T06:41:12Z</time></trkpt><trkpt lat="57.897755" lon="38.51311"><ele>135.7</ele><time>2026-02-22T06:41:15Z</time></trkpt><trkpt lat="57.897785" lon="38.513255"><ele>134.8</ele><time>2026-02-22T06:41:18Z</time></trkpt><trkpt lat="57.8978" lon="38.513405"><ele>134.0</ele><time>2026-02-22T06:41:21Z</time></trkpt><trkpt lat="57.897825" lon="38.51356"><ele>133.7</ele><time>2026-02-22T06:41:24Z</time></trkpt><trkpt lat="57.897837" lon="38.513725"><ele>133.5</ele><time>2026-02-22T06:41:27Z</time></trkpt><trkpt lat="57.89785" lon="38.513887"><ele>133.6</ele><time>2026-02-22T06:41:30Z</time></trkpt><trkpt lat="57.897838" lon="38.51406"><ele>135.5</ele><time>2026-02-22T06:41:33Z</time></trkpt><trkpt lat="57.897835" lon="38.51422"><ele>135.2</ele><time>2026-02-22T06:41:36Z</time></trkpt><trkpt lat="57.89785" lon="38.51436"><ele>133.6</ele><time>2026-02-22T06:41:39Z</time></trkpt><trkpt lat="57.897855" lon="38.514515"><ele>133.4</ele><time>2026-02-22T06:41:42Z</time></trkpt><trkpt lat="57.89783" lon="38.514665"><ele>136.7</ele><time>2026-02-22T06:41:45Z</time></trkpt><trkpt lat="57.897755" lon="38.514665"><ele>136.0</ele><time>2026-02-22T06:41:48Z</time></trkpt><trkpt lat="57.897687" lon="38.51457"><ele>136.3</ele><time>2026-02-22T06:41:51Z</time></trkpt><trkpt lat="57.897617" lon="38.514485"><ele>134.0</ele><time>2026-02-22T06:41:54Z</time></trkpt><trkpt lat="57.89753" lon="38.514407"><ele>133.7</ele><time>2026-02-22T06:41:57Z</time></trkpt><trkpt lat="57.897445" lon="38.51436"><ele>133.6</ele><time>2026-02-22T06:42:00Z</time></trkpt><trkpt lat="57.897375" lon="38.51431"><ele>133.9</ele><time>2026-02-22T06:42:03Z</time></trkpt><trkpt lat="57.8973" lon="38.514265"><ele>134.5</ele><time>2026-02-22T06:42:06Z</time></trkpt><trkpt lat="57.89723" lon="38.514235"><ele>134.5</ele><time>2026-02-22T06:42:09Z</time></trkpt><trkpt lat="57.89716" lon="38.51423"><ele>132.8</ele><time>2026-02-22T06:42:12Z</time></trkpt><trkpt lat="57.897095" lon="38.51429"><ele>135.5</ele><time>2026-02-22T06:42:15Z</time></trkpt><trkpt lat="57.89702" lon="38.51439"><ele>135.3</ele><time>2026-02-22T06:42:19Z</time></trkpt><trkpt lat="57.89694" lon="38.514475"><ele>134.7</ele><time>2026-02-22T06:42:22Z</time></trkpt><trkpt lat="57.896855" lon="38.51459"><ele>134.1</ele><time>2026-02-22T06:42:25Z</time></trkpt><trkpt lat="57.89678" lon="38.51466"><ele>134.7</ele><time>2026-02-22T06:42:28Z</time></trkpt><trkpt lat="57.896695" lon="38.51466"><ele>133.3</ele><time>2026-02-22T06:42:31Z</time></trkpt><trkpt lat="57.89662" lon="38.51461"><ele>131.0</ele><time>2026-02-22T06:42:34Z</time></trkpt><trkpt lat="57.896555" lon="38.51452"><ele>130.1</ele><time>2026-02-22T06:42:37Z</time></trkpt><trkpt lat="57.896515" lon="38.51439"><ele>129.1</ele><time>2026-02-22T06:42:40Z</time></trkpt><trkpt lat="57.896475" lon="38.514245"><ele>130.4</ele><time>2026-02-22T06:42:43Z</time></trkpt><trkpt lat="57.89643" lon="38.514108"><ele>130.8</ele><time>2026-02-22T06:42:46Z</time></trkpt><trkpt lat="57.896385" lon="38.51401"><ele>130.3</ele><time>2026-02-22T06:42:49Z</time></trkpt><trkpt lat="57.896375" lon="38.514005"><ele>131.3</ele><time>2026-02-22T06:42:56Z</time></trkpt><trkpt lat="57.89637" lon="38.51401"><ele>132.3</ele><time>2026-02-22T06:43:05Z</time></trkpt><trkpt lat="57.89637" lon="38.51401"><ele>132.3</ele><time>2026-02-22T06:43:06Z</time></trkpt><trkpt lat="57.896365" lon="38.514015"><ele>133.3</ele><time>2026-02-22T06:43:43Z</time></trkpt><trkpt lat="57.896365" lon="38.51401"><ele>133.7</ele><time>2026-02-22T06:43:44Z</time></trkpt><trkpt lat="57.896335" lon="38.51388"><ele>134.6</ele><time>2026-02-22T06:43:49Z</time></trkpt><trkpt lat="57.896315" lon="38.513745"><ele>134.4</ele><time>2026-02-22T06:43:52Z</time></trkpt><trkpt lat="57.896337" lon="38.513592"><ele>133.0</ele><time>2026-02-22T06:43:55Z</time></trkpt><trkpt lat="57.8964" lon="38.51348"><ele>132.8</ele><time>2026-02-22T06:43:58Z</time></trkpt><trkpt lat="57.896485" lon="38.51342"><ele>134.6</ele><time>2026-02-22T06:44:01Z</time></trkpt><trkpt lat="57.896575" lon="38.51349"><ele>135.3</ele><time>2026-02-22T06:44:04Z</time></trkpt><trkpt lat="57.896595" lon="38.51366"><ele>134.9</ele><time>2026-02-22T06:44:07Z</time></trkpt><trkpt lat="57.896545" lon="38.513765"><ele>134.8</ele><time>2026-02-22T06:44:09Z</time></trkpt><trkpt lat="57.896465" lon="38.513865"><ele>135.0</ele><time>2026-02-22T06:44:12Z</time></trkpt><trkpt lat="57.89638" lon="38.51387"><ele>134.7</ele><time>2026-02-22T06:44:15Z</time></trkpt><trkpt lat="57.89632" lon="38.51376"><ele>134.6</ele><time>2026-02-22T06:44:18Z</time></trkpt><trkpt lat="57.89635" lon="38.51359"><ele>133.7</ele><time>2026-02-22T06:44:21Z</time></trkpt><trkpt lat="57.896402" lon="38.51349"><ele>134.5</ele><time>2026-02-22T06:44:23Z</time></trkpt><trkpt lat="57.896472" lon="38.51343"><ele>135.4</ele><time>2026-02-22T06:44:25Z</time></trkpt><trkpt lat="57.89656" lon="38.51347"><ele>133.7</ele><time>2026-02-22T06:44:28Z</time></trkpt><trkpt lat="57.8966" lon="38.513605"><ele>133.7</ele><time>2026-02-22T06:44:31Z</time></trkpt><trkpt lat="57.89657" lon="38.513728"><ele>133.5</ele><time>2026-02-22T06:44:34Z</time></trkpt><trkpt lat="57.896485" lon="38.513835"><ele>132.9</ele><time>2026-02-22T06:44:37Z</time></trkpt><trkpt lat="57.8964" lon="38.513865"><ele>133.0</ele><time>2026-02-22T06:44:40Z</time></trkpt><trkpt lat="57.896345" lon="38.51376"><ele>133.7</ele><time>2026-02-22T06:44:43Z</time></trkpt><trkpt lat="57.89636" lon="38.513592"><ele>133.4</ele><time>2026-02-22T06:44:46Z</time></trkpt><trkpt lat="57.89642" lon="38.51349"><ele>134.0</ele><time>2026-02-22T06:44:49Z</time></trkpt><trkpt lat="57.8965" lon="38.51342"><ele>134.4</ele><time>2026-02-22T06:44:52Z</time></trkpt><trkpt lat="57.896563" lon="38.513485"><ele>135.1</ele><time>2026-02-22T06:44:54Z</time></trkpt><trkpt lat="57.896605" lon="38.51361"><ele>134.3</ele><time>2026-02-22T06:44:57Z</time></trkpt><trkpt lat="57.896545" lon="38.51374"><ele>133.1</ele><time>2026-02-22T06:45:00Z</time></trkpt><trkpt lat="57.89649" lon="38.513825"><ele>133.2</ele><time>2026-02-22T06:45:03Z</time></trkpt><trkpt lat="57.896403" lon="38.513883"><ele>133.1</ele><time>2026-02-22T06:45:07Z</time></trkpt><trkpt lat="57.896335" lon="38.513825"><ele>133.9</ele><time>2026-02-22T06:45:10Z</time></trkpt><trkpt lat="57.896265" lon="38.51374"><ele>134.3</ele><time>2026-02-22T06:45:13Z</time></trkpt><trkpt lat="57.89619" lon="38.513625"><ele>133.6</ele><time>2026-02-22T06:45:16Z</time></trkpt><trkpt lat="57.89615" lon="38.51346"><ele>134.3</ele><time>2026-02-22T06:45:19Z</time></trkpt><trkpt lat="57.896175" lon="38.51327"><ele>134.3</ele><time>2026-02-22T06:45:22Z</time></trkpt><trkpt lat="57.896225" lon="38.51317"><ele>134.7</ele><time>2026-02-22T06:45:24Z</time></trkpt><trkpt lat="57.896318" lon="38.51311"><ele>134.3</ele><time>2026-02-22T06:45:27Z</time></trkpt><trkpt lat="57.896415" lon="38.51315"><ele>135.6</ele><time>2026-02-22T06:45:30Z</time></trkpt><trkpt lat="57.896485" lon="38.51323"><ele>135.0</ele><time>2026-02-22T06:45:33Z</time></trkpt><trkpt lat="57.896542" lon="38.51334"><ele>134.9</ele><time>2026-02-22T06:45:36Z</time></trkpt><trkpt lat="57.896595" lon="38.513455"><ele>134.3</ele><time>2026-02-22T06:45:39Z</time></trkpt><trkpt lat="57.896647" lon="38.51359"><ele>134.7</ele><time>2026-02-22T06:45:42Z</time></trkpt><trkpt lat="57.896725" lon="38.51374"><ele>135.4</ele><time>2026-02-22T06:45:45Z</time></trkpt><trkpt lat="57.896795" lon="38.513888"><ele>136.2</ele><time>2026-02-22T06:45:48Z</time></trkpt><trkpt lat="57.89685" lon="38.51404"><ele>135.4</ele><time>2026-02-22T06:45:51Z</time></trkpt><trkpt lat="57.896915" lon="38.514135"><ele>133.8</ele><time>2026-02-22T06:45:54Z</time></trkpt><trkpt lat="57.896995" lon="38.514055"><ele>133.3</ele><time>2026-02-22T06:45:58Z</time></trkpt><trkpt lat="57.896995" lon="38.513905"><ele>132.8</ele><time>2026-02-22T06:46:01Z</time></trkpt><trkpt lat="57.89696" lon="38.51377"><ele>132.8</ele><time>2026-02-22T06:46:04Z</time></trkpt><trkpt lat="57.896915" lon="38.513645"><ele>133.8</ele><time>2026-02-22T06:46:08Z</time></trkpt><trkpt lat="57.896865" lon="38.513525"><ele>133.4</ele><time>2026-02-22T06:46:12Z</time></trkpt><trkpt lat="57.89681" lon="38.5134"><ele>131.3</ele><time>2026-02-22T06:46:16Z</time></trkpt><trkpt lat="57.896755" lon="38.51327"><ele>128.9</ele><time>2026-02-22T06:46:20Z</time></trkpt><trkpt lat="57.89671" lon="38.513155"><ele>127.7</ele><time>2026-02-22T06:46:23Z</time></trkpt><trkpt lat="57.896665" lon="38.51304"><ele>127.4</ele><time>2026-02-22T06:46:26Z</time></trkpt><trkpt lat="57.896628" lon="38.51291"><ele>128.8</ele><time>2026-02-22T06:46:29Z</time></trkpt><trkpt lat="57.896645" lon="38.51274"><ele>128.9</ele><time>2026-02-22T06:46:32Z</time></trkpt><trkpt lat="57.896717" lon="38.51263"><ele>129.1</ele><time>2026-02-22T06:46:35Z</time></trkpt><trkpt lat="57.8968" lon="38.512605"><ele>129.1</ele><time>2026-02-22T06:46:38Z</time></trkpt><trkpt lat="57.896885" lon="38.512645"><ele>129.4</ele><time>2026-02-22T06:46:41Z</time></trkpt><trkpt lat="57.896955" lon="38.51274"><ele>129.5</ele><time>2026-02-22T06:46:44Z</time></trkpt><trkpt lat="57.897025" lon="38.512832"><ele>129.5</ele><time>2026-02-22T06:46:47Z</time></trkpt><trkpt lat="57.897078" lon="38.51296"><ele>130.0</ele><time>2026-02-22T06:46:50Z</time></trkpt><trkpt lat="57.89711" lon="38.5131"><ele>130.0</ele><time>2026-02-22T06:46:53Z</time></trkpt><trkpt lat="57.89714" lon="38.513235"><ele>132.3</ele><time>2026-02-22T06:46:56Z</time></trkpt><trkpt lat="57.89718" lon="38.51335"><ele>131.9</ele><time>2026-02-22T06:46:59Z</time></trkpt><trkpt lat="57.897235" lon="38.51346"><ele>133.0</ele><time>2026-02-22T06:47:02Z</time></trkpt><trkpt lat="57.8973" lon="38.51354"><ele>133.6</ele><time>2026-02-22T06:47:05Z</time></trkpt><trkpt lat="57.897375" lon="38.51359"><ele>134.5</ele><time>2026-02-22T06:47:08Z</time></trkpt><trkpt lat="57.89745" lon="38.51353"><ele>133.4</ele><time>2026-02-22T06:47:12Z</time></trkpt><trkpt lat="57.89743" lon="38.513367"><ele>134.1</ele><time>2026-02-22T06:47:16Z</time></trkpt><trkpt lat="57.89743" lon="38.513185"><ele>132.2</ele><time>2026-02-22T06:47:20Z</time></trkpt><trkpt lat="57.897475" lon="38.51307"><ele>132.8</ele><time>2026-02-22T06:47:22Z</time></trkpt><trkpt lat="57.89754" lon="38.513005"><ele>133.1</ele><time>2026-02-22T06:47:24Z</time></trkpt><trkpt lat="57.897625" lon="38.51298"><ele>134.3</ele><time>2026-02-22T06:47:27Z</time></trkpt><trkpt lat="57.8977" lon="38.513015"><ele>135.1</ele><time>2026-02-22T06:47:30Z</time></trkpt><trkpt lat="57.897765" lon="38.51311"><ele>134.6</ele><time>2026-02-22T06:47:33Z</time></trkpt><trkpt lat="57.897795" lon="38.51325"><ele>134.5</ele><time>2026-02-22T06:47:36Z</time></trkpt><trkpt lat="57.8978" lon="38.51339"><ele>134.0</ele><time>2026-02-22T06:47:39Z</time></trkpt><trkpt lat="57.897825" lon="38.51353"><ele>133.3</ele><time>2026-02-22T06:47:42Z</time></trkpt><trkpt lat="57.897855" lon="38.51369"><ele>135.0</ele><time>2026-02-22T06:47:45Z</time></trkpt><trkpt lat="57.89787" lon="38.513845"><ele>135.5</ele><time>2026-02-22T06:47:48Z</time></trkpt><trkpt lat="57.897865" lon="38.514005"><ele>136.5</ele><time>2026-02-22T06:47:51Z</time></trkpt><trkpt lat="57.89784" lon="38.51419"><ele>136.3</ele><time>2026-02-22T06:47:54Z</time></trkpt><trkpt lat="57.897857" lon="38.51438"><ele>135.1</ele><time>2026-02-22T06:47:57Z</time></trkpt><trkpt lat="57.89788" lon="38.514575"><ele>136.4</ele><time>2026-02-22T06:48:00Z</time></trkpt><trkpt lat="57.897805" lon="38.51468"><ele>137.3</ele><time>2026-02-22T06:48:03Z</time></trkpt><trkpt lat="57.89771" lon="38.51462"><ele>136.2</ele><time>2026-02-22T06:48:06Z</time></trkpt><trkpt lat="57.897625" lon="38.51455"><ele>135.5</ele><time>2026-02-22T06:48:09Z</time></trkpt><trkpt lat="57.89754" lon="38.514475"><ele>135.7</ele><time>2026-02-22T06:48:12Z</time></trkpt><trkpt lat="57.897455" lon="38.514405"><ele>134.8</ele><time>2026-02-22T06:48:15Z</time></trkpt><trkpt lat="57.897375" lon="38.514352"><ele>133.6</ele><time>2026-02-22T06:48:19Z</time></trkpt><trkpt lat="57.89729" lon="38.51428"><ele>130.1</ele><time>2026-02-22T06:48:23Z</time></trkpt><trkpt lat="57.897215" lon="38.514245"><ele>129.8</ele><time>2026-02-22T06:48:26Z</time></trkpt><trkpt lat="57.89713" lon="38.51426"><ele>130.3</ele><time>2026-02-22T06:48:29Z</time></trkpt><trkpt lat="57.89705" lon="38.51433"><ele>132.8</ele><time>2026-02-22T06:48:32Z</time></trkpt><trkpt lat="57.89698" lon="38.514405"><ele>132.7</ele><time>2026-02-22T06:48:35Z</time></trkpt><trkpt lat="57.89691" lon="38.514515"><ele>131.9</ele><time>2026-02-22T06:48:38Z</time></trkpt><trkpt lat="57.89684" lon="38.5146"><ele>133.1</ele><time>2026-02-22T06:48:41Z</time></trkpt><trkpt lat="57.896765" lon="38.51466"><ele>132.5</ele><time>2026-02-22T06:48:44Z</time></trkpt><trkpt lat="57.896685" lon="38.514645"><ele>130.8</ele><time>2026-02-22T06:48:47Z</time></trkpt><trkpt lat="57.896615" lon="38.514575"><ele>131.3</ele><time>2026-02-22T06:48:50Z</time></trkpt><trkpt lat="57.89656" lon="38.51446"><ele>132.1</ele><time>2026-02-22T06:48:53Z</time></trkpt><trkpt lat="57.89652" lon="38.514325"><ele>131.6</ele><time>2026-02-22T06:48:56Z</time></trkpt><trkpt lat="57.896485" lon="38.514175"><ele>130.5</ele><time>2026-02-22T06:48:59Z</time></trkpt><trkpt lat="57.89645" lon="38.514025"><ele>130.7</ele><time>2026-02-22T06:49:02Z</time></trkpt><trkpt lat="57.89639" lon="38.513915"><ele>131.5</ele><time>2026-02-22T06:49:05Z</time></trkpt><trkpt lat="57.89633" lon="38.513802"><ele>131.9</ele><time>2026-02-22T06:49:08Z</time></trkpt><trkpt lat="57.896275" lon="38.513705"><ele>131.3</ele><time>2026-02-22T06:49:11Z</time></trkpt><trkpt lat="57.89622" lon="38.513605"><ele>132.1</ele><time>2026-02-22T06:49:14Z</time></trkpt><trkpt lat="57.89619" lon="38.513445"><ele>131.9</ele><time>2026-02-22T06:49:17Z</time></trkpt><trkpt lat="57.89621" lon="38.51328"><ele>132.1</ele><time>2026-02-22T06:49:20Z</time></trkpt><trkpt lat="57.896275" lon="38.513165"><ele>131.8</ele><time>2026-02-22T06:49:23Z</time></trkpt><trkpt lat="57.89635" lon="38.51312"><ele>133.6</ele><time>2026-02-22T06:49:26Z</time></trkpt><trkpt lat="57.89644" lon="38.513165"><ele>135.1</ele><time>2026-02-22T06:49:29Z</time></trkpt><trkpt lat="57.896505" lon="38.513245"><ele>135.8</ele><time>2026-02-22T06:49:32Z</time></trkpt><trkpt lat="57.89656" lon="38.513347"><ele>137.3</ele><time>2026-02-22T06:49:35Z</time></trkpt><trkpt lat="57.89661" lon="38.51348"><ele>136.5</ele><time>2026-02-22T06:49:38Z</time></trkpt><trkpt lat="57.896665" lon="38.51362"><ele>135.5</ele><time>2026-02-22T06:49:41Z</time></trkpt><trkpt lat="57.89673" lon="38.51371"><ele>135.4</ele><time>2026-02-22T06:49:44Z</time></trkpt><trkpt lat="57.89676" lon="38.513705"><ele>136.4</ele><time>2026-02-22T06:49:51Z</time></trkpt><trkpt lat="57.896795" lon="38.51386"><ele>137.5</ele><time>2026-02-22T06:49:56Z</time></trkpt><trkpt lat="57.89684" lon="38.514"><ele>138.2</ele><time>2026-02-22T06:49:59Z</time></trkpt><trkpt lat="57.89689" lon="38.51412"><ele>137.2</ele><time>2026-02-22T06:50:02Z</time></trkpt><trkpt lat="57.896975" lon="38.51414"><ele>135.5</ele><time>2026-02-22T06:50:06Z</time></trkpt><trkpt lat="57.89701" lon="38.51398"><ele>135.4</ele><time>2026-02-22T06:50:10Z</time></trkpt><trkpt lat="57.896995" lon="38.51384"><ele>134.0</ele><time>2026-02-22T06:50:13Z</time></trkpt><trkpt lat="57.896942" lon="38.513715"><ele>132.6</ele><time>2026-02-22T06:50:17Z</time></trkpt><trkpt lat="57.896885" lon="38.51362"><ele>131.5</ele><time>2026-02-22T06:50:21Z</time></trkpt></trkseg></trk></gpx>