<?xml version="1.0" encoding="UTF-8" standalone="no"?><gpx xmlns="http://www.topografix.com/GPX/1/1" xmlns:gpxtpx="http://www.garmin.com/xmlschemas/TrackPointExtension/v1" xmlns:xsi="http://www.w3.org/2001/XMLSchema-instance" creator="Sports Tracker" version="1.1" xsi:schemaLocation="http://www.topografix.com/GPX/1/1 http://www.topografix.com/GPX/1/1/gpx.xsd http://www.garmin.com/xmlschemas/TrackPointExtension/v1 http://www.garmin.com/xmlschemas/TrackPointExtensionv1.xsd"><metadata><name>04.12.2024 12:55</name><desc/><author><name>Александр</name></author></metadata><trk><name>04.12.2024 12:55</name><trkseg><trkpt lat="58.053815" lon="38.839555"><ele>94.3</ele><time>2024-12-04T09:55:04Z</time></trkpt><trkpt lat="58.053815" lon="38.839555"><ele>94.3</ele><time>2024-12-04T09:55:04Z</time></trkpt><trkpt lat="58.053935" lon="38.839432"><ele>106.8</ele><time>2024-12-04T09:55:07Z</time></trkpt><trkpt lat="58.053975" lon="38.83929"><ele>106.5</ele><time>2024-12-04T09:55:10Z</time></trkpt><trkpt lat="58.054003" lon="38.839165"><ele>107.3</ele><time>2024-12-04T09:55:12Z</time></trkpt><trkpt lat="58.054055" lon="38.83903"><ele>105.1</ele><time>2024-12-04T09:55:15Z</time></trkpt><trkpt lat="58.054095" lon="38.838875"><ele>105.3</ele><time>2024-12-04T09:55:18Z</time></trkpt><trkpt lat="58.05413" lon="38.83875"><ele>105.8</ele><time>2024-12-04T09:55:21Z</time></trkpt><trkpt lat="58.054185" lon="38.838615"><ele>104.6</ele><time>2024-12-04T09:55:24Z</time></trkpt><trkpt lat="58.054247" lon="38.838467"><ele>107.0</ele><time>2024-12-04T09:55:27Z</time></trkpt><trkpt lat="58.054298" lon="38.838302"><ele>106.4</ele><time>2024-12-04T09:55:30Z</time></trkpt><trkpt lat="58.05436" lon="38.838135"><ele>107.4</ele><time>2024-12-04T09:55:33Z</time></trkpt><trkpt lat="58.05441" lon="38.837965"><ele>108.1</ele><time>2024-12-04T09:55:36Z</time></trkpt><trkpt lat="58.054448" lon="38.83785"><ele>107.0</ele><time>2024-12-04T09:55:38Z</time></trkpt><trkpt lat="58.054497" lon="38.837695"><ele>106.1</ele><time>2024-12-04T09:55:41Z</time></trkpt><trkpt lat="58.054537" lon="38.83754"><ele>104.8</ele><time>2024-12-04T09:55:44Z</time></trkpt><trkpt lat="58.054585" lon="38.83739"><ele>105.0</ele><time>2024-12-04T09:55:47Z</time></trkpt><trkpt lat="58.054637" lon="38.837222"><ele>103.8</ele><time>2024-12-04T09:55:50Z</time></trkpt><trkpt lat="58.054673" lon="38.837045"><ele>103.7</ele><time>2024-12-04T09:55:53Z</time></trkpt><trkpt lat="58.05471" lon="38.836927"><ele>101.9</ele><time>2024-12-04T09:55:55Z</time></trkpt><trkpt lat="58.054747" lon="38.83681"><ele>99.7</ele><time>2024-12-04T09:55:57Z</time></trkpt><trkpt lat="58.0548" lon="38.83666"><ele>99.5</ele><time>2024-12-04T09:56:00Z</time></trkpt><trkpt lat="58.054855" lon="38.836497"><ele>99.8</ele><time>2024-12-04T09:56:03Z</time></trkpt><trkpt lat="58.0549" lon="38.83637"><ele>99.4</ele><time>2024-12-04T09:56:05Z</time></trkpt><trkpt lat="58.054955" lon="38.836222"><ele>99.6</ele><time>2024-12-04T09:56:08Z</time></trkpt><trkpt lat="58.054995" lon="38.83609"><ele>102.5</ele><time>2024-12-04T09:56:11Z</time></trkpt><trkpt lat="58.055037" lon="38.835935"><ele>103.1</ele><time>2024-12-04T09:56:14Z</time></trkpt><trkpt lat="58.055082" lon="38.835805"><ele>101.4</ele><time>2024-12-04T09:56:17Z</time></trkpt><trkpt lat="58.05512" lon="38.835625"><ele>99.2</ele><time>2024-12-04T09:56:20Z</time></trkpt><trkpt lat="58.055165" lon="38.83547"><ele>102.8</ele><time>2024-12-04T09:56:23Z</time></trkpt><trkpt lat="58.05522" lon="38.83531"><ele>100.2</ele><time>2024-12-04T09:56:26Z</time></trkpt><trkpt lat="58.055255" lon="38.835185"><ele>99.9</ele><time>2024-12-04T09:56:28Z</time></trkpt><trkpt lat="58.0553" lon="38.835035"><ele>100.4</ele><time>2024-12-04T09:56:31Z</time></trkpt><trkpt lat="58.05534" lon="38.8349"><ele>100.1</ele><time>2024-12-04T09:56:34Z</time></trkpt><trkpt lat="58.055377" lon="38.834785"><ele>100.5</ele><time>2024-12-04T09:56:36Z</time></trkpt><trkpt lat="58.055415" lon="38.83462"><ele>99.5</ele><time>2024-12-04T09:56:39Z</time></trkpt><trkpt lat="58.055485" lon="38.834515"><ele>99.3</ele><time>2024-12-04T09:56:42Z</time></trkpt><trkpt lat="58.055575" lon="38.83456"><ele>97.3</ele><time>2024-12-04T09:56:45Z</time></trkpt><trkpt lat="58.055675" lon="38.834625"><ele>95.3</ele><time>2024-12-04T09:56:48Z</time></trkpt><trkpt lat="58.055775" lon="38.834685"><ele>96.9</ele><time>2024-12-04T09:56:51Z</time></trkpt><trkpt lat="58.05586" lon="38.83476"><ele>95.2</ele><time>2024-12-04T09:56:54Z</time></trkpt><trkpt lat="58.05594" lon="38.834865"><ele>97.0</ele><time>2024-12-04T09:56:57Z</time></trkpt><trkpt lat="58.055925" lon="38.83504"><ele>96.6</ele><time>2024-12-04T09:57:00Z</time></trkpt><trkpt lat="58.05587" lon="38.835195"><ele>97.0</ele><time>2024-12-04T09:57:03Z</time></trkpt><trkpt lat="58.055825" lon="38.83533"><ele>98.4</ele><time>2024-12-04T09:57:06Z</time></trkpt><trkpt lat="58.055772" lon="38.83547"><ele>99.3</ele><time>2024-12-04T09:57:09Z</time></trkpt><trkpt lat="58.055727" lon="38.835628"><ele>101.0</ele><time>2024-12-04T09:57:12Z</time></trkpt><trkpt lat="58.05568" lon="38.83578"><ele>101.8</ele><time>2024-12-04T09:57:15Z</time></trkpt><trkpt lat="58.05563" lon="38.835937"><ele>101.9</ele><time>2024-12-04T09:57:18Z</time></trkpt><trkpt lat="58.055575" lon="38.836095"><ele>101.3</ele><time>2024-12-04T09:57:21Z</time></trkpt><trkpt lat="58.055522" lon="38.836245"><ele>101.7</ele><time>2024-12-04T09:57:24Z</time></trkpt><trkpt lat="58.055485" lon="38.836392"><ele>103.0</ele><time>2024-12-04T09:57:27Z</time></trkpt><trkpt lat="58.055452" lon="38.83653"><ele>101.9</ele><time>2024-12-04T09:57:30Z</time></trkpt><trkpt lat="58.055415" lon="38.836687"><ele>101.6</ele><time>2024-12-04T09:57:33Z</time></trkpt><trkpt lat="58.055375" lon="38.836835"><ele>99.7</ele><time>2024-12-04T09:57:36Z</time></trkpt><trkpt lat="58.055325" lon="38.83699"><ele>100.2</ele><time>2024-12-04T09:57:39Z</time></trkpt><trkpt lat="58.055275" lon="38.837137"><ele>100.0</ele><time>2024-12-04T09:57:42Z</time></trkpt><trkpt lat="58.055227" lon="38.837287"><ele>100.2</ele><time>2024-12-04T09:57:45Z</time></trkpt><trkpt lat="58.05518" lon="38.837442"><ele>98.9</ele><time>2024-12-04T09:57:48Z</time></trkpt><trkpt lat="58.055125" lon="38.837597"><ele>97.8</ele><time>2024-12-04T09:57:51Z</time></trkpt><trkpt lat="58.055073" lon="38.83775"><ele>97.6</ele><time>2024-12-04T09:57:54Z</time></trkpt><trkpt lat="58.055025" lon="38.837905"><ele>95.6</ele><time>2024-12-04T09:57:57Z</time></trkpt><trkpt lat="58.054967" lon="38.83807"><ele>96.7</ele><time>2024-12-04T09:58:00Z</time></trkpt><trkpt lat="58.054927" lon="38.83819"><ele>96.2</ele><time>2024-12-04T09:58:02Z</time></trkpt><trkpt lat="58.054875" lon="38.838347"><ele>96.6</ele><time>2024-12-04T09:58:05Z</time></trkpt><trkpt lat="58.054827" lon="38.838503"><ele>95.8</ele><time>2024-12-04T09:58:08Z</time></trkpt><trkpt lat="58.054785" lon="38.838622"><ele>98.0</ele><time>2024-12-04T09:58:10Z</time></trkpt><trkpt lat="58.05473" lon="38.838792"><ele>98.4</ele><time>2024-12-04T09:58:13Z</time></trkpt><trkpt lat="58.054685" lon="38.838905"><ele>99.3</ele><time>2024-12-04T09:58:15Z</time></trkpt><trkpt lat="58.05463" lon="38.83906"><ele>99.4</ele><time>2024-12-04T09:58:18Z</time></trkpt><trkpt lat="58.05458" lon="38.839225"><ele>99.0</ele><time>2024-12-04T09:58:21Z</time></trkpt><trkpt lat="58.054523" lon="38.839387"><ele>99.4</ele><time>2024-12-04T09:58:24Z</time></trkpt><trkpt lat="58.054475" lon="38.83954"><ele>99.7</ele><time>2024-12-04T09:58:27Z</time></trkpt><trkpt lat="58.054422" lon="38.839712"><ele>99.3</ele><time>2024-12-04T09:58:30Z</time></trkpt><trkpt lat="58.05437" lon="38.839867"><ele>99.4</ele><time>2024-12-04T09:58:33Z</time></trkpt><trkpt lat="58.054285" lon="38.83993"><ele>99.5</ele><time>2024-12-04T09:58:36Z</time></trkpt><trkpt lat="58.0542" lon="38.839895"><ele>99.3</ele><time>2024-12-04T09:58:39Z</time></trkpt><trkpt lat="58.054125" lon="38.839825"><ele>99.4</ele><time>2024-12-04T09:58:42Z</time></trkpt><trkpt lat="58.054045" lon="38.839755"><ele>100.1</ele><time>2024-12-04T09:58:45Z</time></trkpt><trkpt lat="58.053965" lon="38.839662"><ele>100.3</ele><time>2024-12-04T09:58:49Z</time></trkpt><trkpt lat="58.05395" lon="38.839485"><ele>101.7</ele><time>2024-12-04T09:58:53Z</time></trkpt><trkpt lat="58.053982" lon="38.839342"><ele>102.2</ele><time>2024-12-04T09:58:56Z</time></trkpt><trkpt lat="58.054015" lon="38.839212"><ele>101.0</ele><time>2024-12-04T09:58:59Z</time></trkpt><trkpt lat="58.054045" lon="38.83906"><ele>101.1</ele><time>2024-12-04T09:59:02Z</time></trkpt><trkpt lat="58.05409" lon="38.838895"><ele>102.0</ele><time>2024-12-04T09:59:05Z</time></trkpt><trkpt lat="58.05414" lon="38.838743"><ele>101.1</ele><time>2024-12-04T09:59:08Z</time></trkpt><trkpt lat="58.05419" lon="38.83861"><ele>103.0</ele><time>2024-12-04T09:59:11Z</time></trkpt><trkpt lat="58.05424" lon="38.838503"><ele>103.9</ele><time>2024-12-04T09:59:14Z</time></trkpt><trkpt lat="58.05428" lon="38.83839"><ele>104.1</ele><time>2024-12-04T09:59:17Z</time></trkpt><trkpt lat="58.054337" lon="38.838255"><ele>103.3</ele><time>2024-12-04T09:59:20Z</time></trkpt><trkpt lat="58.054377" lon="38.838117"><ele>102.7</ele><time>2024-12-04T09:59:23Z</time></trkpt><trkpt lat="58.054415" lon="38.837995"><ele>102.6</ele><time>2024-12-04T09:59:25Z</time></trkpt><trkpt lat="58.054462" lon="38.837835"><ele>101.5</ele><time>2024-12-04T09:59:28Z</time></trkpt><trkpt lat="58.05451" lon="38.837672"><ele>102.5</ele><time>2024-12-04T09:59:31Z</time></trkpt><trkpt lat="58.054555" lon="38.837525"><ele>103.1</ele><time>2024-12-04T09:59:34Z</time></trkpt><trkpt lat="58.054602" lon="38.83739"><ele>101.4</ele><time>2024-12-04T09:59:37Z</time></trkpt><trkpt lat="58.054642" lon="38.837245"><ele>101.7</ele><time>2024-12-04T09:59:40Z</time></trkpt><trkpt lat="58.054677" lon="38.8371"><ele>102.2</ele><time>2024-12-04T09:59:43Z</time></trkpt><trkpt lat="58.054727" lon="38.836965"><ele>103.7</ele><time>2024-12-04T09:59:46Z</time></trkpt><trkpt lat="58.054772" lon="38.83686"><ele>104.1</ele><time>2024-12-04T09:59:48Z</time></trkpt><trkpt lat="58.05481" lon="38.83672"><ele>103.8</ele><time>2024-12-04T09:59:51Z</time></trkpt><trkpt lat="58.054847" lon="38.836555"><ele>103.0</ele><time>2024-12-04T09:59:54Z</time></trkpt><trkpt lat="58.054887" lon="38.83643"><ele>102.7</ele><time>2024-12-04T09:59:57Z</time></trkpt><trkpt lat="58.05493" lon="38.836305"><ele>103.7</ele><time>2024-12-04T10:00:00Z</time></trkpt><trkpt lat="58.054975" lon="38.836153"><ele>103.1</ele><time>2024-12-04T10:00:03Z</time></trkpt><trkpt lat="58.055" lon="38.836025"><ele>104.1</ele><time>2024-12-04T10:00:05Z</time></trkpt><trkpt lat="58.055045" lon="38.8359"><ele>104.6</ele><time>2024-12-04T10:00:08Z</time></trkpt><trkpt lat="58.055085" lon="38.83576"><ele>104.4</ele><time>2024-12-04T10:00:11Z</time></trkpt><trkpt lat="58.055132" lon="38.835605"><ele>102.6</ele><time>2024-12-04T10:00:14Z</time></trkpt><trkpt lat="58.055177" lon="38.835462"><ele>103.5</ele><time>2024-12-04T10:00:17Z</time></trkpt><trkpt lat="58.055213" lon="38.835323"><ele>103.6</ele><time>2024-12-04T10:00:20Z</time></trkpt><trkpt lat="58.05525" lon="38.835195"><ele>102.4</ele><time>2024-12-04T10:00:23Z</time></trkpt><trkpt lat="58.055282" lon="38.83507"><ele>102.4</ele><time>2024-12-04T10:00:26Z</time></trkpt><trkpt lat="58.05533" lon="38.83493"><ele>103.0</ele><time>2024-12-04T10:00:29Z</time></trkpt><trkpt lat="58.05538" lon="38.834775"><ele>102.2</ele><time>2024-12-04T10:00:32Z</time></trkpt><trkpt lat="58.05542" lon="38.834625"><ele>103.6</ele><time>2024-12-04T10:00:35Z</time></trkpt><trkpt lat="58.055482" lon="38.834545"><ele>102.4</ele><time>2024-12-04T10:00:38Z</time></trkpt><trkpt lat="58.055555" lon="38.83458"><ele>99.9</ele><time>2024-12-04T10:00:41Z</time></trkpt><trkpt lat="58.05563" lon="38.834625"><ele>99.8</ele><time>2024-12-04T10:00:44Z</time></trkpt><trkpt lat="58.055705" lon="38.834675"><ele>98.4</ele><time>2024-12-04T10:00:47Z</time></trkpt><trkpt lat="58.05579" lon="38.834745"><ele>97.9</ele><time>2024-12-04T10:00:50Z</time></trkpt><trkpt lat="58.05587" lon="38.834825"><ele>97.3</ele><time>2024-12-04T10:00:53Z</time></trkpt><trkpt lat="58.05593" lon="38.834905"><ele>98.1</ele><time>2024-12-04T10:00:56Z</time></trkpt><trkpt lat="58.055892" lon="38.835035"><ele>97.1</ele><time>2024-12-04T10:01:00Z</time></trkpt><trkpt lat="58.05585" lon="38.83519"><ele>95.0</ele><time>2024-12-04T10:01:04Z</time></trkpt><trkpt lat="58.055813" lon="38.83531"><ele>94.8</ele><time>2024-12-04T10:01:07Z</time></trkpt><trkpt lat="58.055775" lon="38.835435"><ele>98.2</ele><time>2024-12-04T10:01:09Z</time></trkpt><trkpt lat="58.055725" lon="38.83561"><ele>100.1</ele><time>2024-12-04T10:01:12Z</time></trkpt><trkpt lat="58.055675" lon="38.83577"><ele>100.4</ele><time>2024-12-04T10:01:15Z</time></trkpt><trkpt lat="58.05563" lon="38.835925"><ele>100.9</ele><time>2024-12-04T10:01:18Z</time></trkpt><trkpt lat="58.055582" lon="38.83607"><ele>102.5</ele><time>2024-12-04T10:01:20Z</time></trkpt><trkpt lat="58.055545" lon="38.836185"><ele>102.8</ele><time>2024-12-04T10:01:22Z</time></trkpt><trkpt lat="58.05549" lon="38.836352"><ele>103.7</ele><time>2024-12-04T10:01:25Z</time></trkpt><trkpt lat="58.055438" lon="38.836517"><ele>104.8</ele><time>2024-12-04T10:01:28Z</time></trkpt><trkpt lat="58.055392" lon="38.83668"><ele>103.7</ele><time>2024-12-04T10:01:31Z</time></trkpt><trkpt lat="58.055355" lon="38.836838"><ele>102.7</ele><time>2024-12-04T10:01:34Z</time></trkpt><trkpt lat="58.055305" lon="38.836995"><ele>104.3</ele><time>2024-12-04T10:01:37Z</time></trkpt><trkpt lat="58.05525" lon="38.837152"><ele>105.1</ele><time>2024-12-04T10:01:40Z</time></trkpt><trkpt lat="58.05519" lon="38.83731"><ele>106.7</ele><time>2024-12-04T10:01:43Z</time></trkpt><trkpt lat="58.055135" lon="38.837465"><ele>106.6</ele><time>2024-12-04T10:01:46Z</time></trkpt><trkpt lat="58.055085" lon="38.8376"><ele>105.1</ele><time>2024-12-04T10:01:49Z</time></trkpt><trkpt lat="58.055037" lon="38.83774"><ele>104.7</ele><time>2024-12-04T10:01:52Z</time></trkpt><trkpt lat="58.054995" lon="38.83787"><ele>103.2</ele><time>2024-12-04T10:01:55Z</time></trkpt><trkpt lat="58.054945" lon="38.838005"><ele>102.1</ele><time>2024-12-04T10:01:58Z</time></trkpt><trkpt lat="58.054895" lon="38.83815"><ele>101.8</ele><time>2024-12-04T10:02:01Z</time></trkpt><trkpt lat="58.054847" lon="38.838305"><ele>102.3</ele><time>2024-12-04T10:02:04Z</time></trkpt><trkpt lat="58.054805" lon="38.83846"><ele>101.2</ele><time>2024-12-04T10:02:07Z</time></trkpt><trkpt lat="58.054748" lon="38.8386"><ele>101.7</ele><time>2024-12-04T10:02:10Z</time></trkpt><trkpt lat="58.05471" lon="38.838755"><ele>101.9</ele><time>2024-12-04T10:02:13Z</time></trkpt><trkpt lat="58.05466" lon="38.83891"><ele>103.0</ele><time>2024-12-04T10:02:16Z</time></trkpt><trkpt lat="58.054615" lon="38.839057"><ele>102.9</ele><time>2024-12-04T10:02:19Z</time></trkpt><trkpt lat="58.054567" lon="38.8392"><ele>101.5</ele><time>2024-12-04T10:02:22Z</time></trkpt><trkpt lat="58.05452" lon="38.839337"><ele>101.1</ele><time>2024-12-04T10:02:25Z</time></trkpt><trkpt lat="58.054472" lon="38.839487"><ele>100.8</ele><time>2024-12-04T10:02:28Z</time></trkpt><trkpt lat="58.054425" lon="38.839637"><ele>99.8</ele><time>2024-12-04T10:02:31Z</time></trkpt><trkpt lat="58.054375" lon="38.839775"><ele>99.5</ele><time>2024-12-04T10:02:34Z</time></trkpt><trkpt lat="58.054335" lon="38.839885"><ele>99.4</ele><time>2024-12-04T10:02:37Z</time></trkpt><trkpt lat="58.05424" lon="38.839845"><ele>99.7</ele><time>2024-12-04T10:02:41Z</time></trkpt><trkpt lat="58.05417" lon="38.839785"><ele>100.3</ele><time>2024-12-04T10:02:44Z</time></trkpt><trkpt lat="58.0541" lon="38.839735"><ele>100.5</ele><time>2024-12-04T10:02:47Z</time></trkpt><trkpt lat="58.054025" lon="38.839657"><ele>100.6</ele><time>2024-12-04T10:02:50Z</time></trkpt><trkpt lat="58.05396" lon="38.83959"><ele>101.3</ele><time>2024-12-04T10:02:53Z</time></trkpt><trkpt lat="58.053985" lon="38.839425"><ele>99.8</ele><time>2024-12-04T10:02:57Z</time></trkpt><trkpt lat="58.05403" lon="38.839275"><ele>102.9</ele><time>2024-12-04T10:03:01Z</time></trkpt><trkpt lat="58.05406" lon="38.839145"><ele>104.0</ele><time>2024-12-04T10:03:04Z</time></trkpt><trkpt lat="58.054092" lon="38.83901"><ele>104.0</ele><time>2024-12-04T10:03:07Z</time></trkpt><trkpt lat="58.054125" lon="38.838882"><ele>103.3</ele><time>2024-12-04T10:03:10Z</time></trkpt><trkpt lat="58.054167" lon="38.83874"><ele>103.2</ele><time>2024-12-04T10:03:13Z</time></trkpt><trkpt lat="58.054215" lon="38.83861"><ele>104.8</ele><time>2024-12-04T10:03:16Z</time></trkpt><trkpt lat="58.054252" lon="38.838465"><ele>104.6</ele><time>2024-12-04T10:03:19Z</time></trkpt><trkpt lat="58.05429" lon="38.83833"><ele>105.7</ele><time>2024-12-04T10:03:22Z</time></trkpt><trkpt lat="58.054335" lon="38.838195"><ele>107.6</ele><time>2024-12-04T10:03:25Z</time></trkpt><trkpt lat="58.054382" lon="38.838045"><ele>105.7</ele><time>2024-12-04T10:03:28Z</time></trkpt><trkpt lat="58.05443" lon="38.837897"><ele>105.5</ele><time>2024-12-04T10:03:31Z</time></trkpt><trkpt lat="58.054467" lon="38.837742"><ele>105.1</ele><time>2024-12-04T10:03:34Z</time></trkpt><trkpt lat="58.05451" lon="38.837597"><ele>105.2</ele><time>2024-12-04T10:03:37Z</time></trkpt><trkpt lat="58.054545" lon="38.837455"><ele>104.7</ele><time>2024-12-04T10:03:40Z</time></trkpt><trkpt lat="58.05459" lon="38.837315"><ele>105.0</ele><time>2024-12-04T10:03:43Z</time></trkpt><trkpt lat="58.05464" lon="38.837177"><ele>105.1</ele><time>2024-12-04T10:03:46Z</time></trkpt><trkpt lat="58.054685" lon="38.83704"><ele>105.4</ele><time>2024-12-04T10:03:49Z</time></trkpt><trkpt lat="58.054735" lon="38.836897"><ele>106.5</ele><time>2024-12-04T10:03:52Z</time></trkpt><trkpt lat="58.054777" lon="38.83679"><ele>106.7</ele><time>2024-12-04T10:03:54Z</time></trkpt><trkpt lat="58.054827" lon="38.836635"><ele>106.7</ele><time>2024-12-04T10:03:57Z</time></trkpt><trkpt lat="58.05487" lon="38.836487"><ele>106.8</ele><time>2024-12-04T10:04:00Z</time></trkpt><trkpt lat="58.054913" lon="38.836335"><ele>105.5</ele><time>2024-12-04T10:04:03Z</time></trkpt><trkpt lat="58.054967" lon="38.836195"><ele>106.7</ele><time>2024-12-04T10:04:06Z</time></trkpt><trkpt lat="58.055005" lon="38.836055"><ele>106.2</ele><time>2024-12-04T10:04:09Z</time></trkpt><trkpt lat="58.05505" lon="38.83589"><ele>107.6</ele><time>2024-12-04T10:04:12Z</time></trkpt><trkpt lat="58.055095" lon="38.835735"><ele>106.5</ele><time>2024-12-04T10:04:15Z</time></trkpt><trkpt lat="58.055137" lon="38.835575"><ele>106.6</ele><time>2024-12-04T10:04:18Z</time></trkpt><trkpt lat="58.05518" lon="38.835445"><ele>104.2</ele><time>2024-12-04T10:04:21Z</time></trkpt><trkpt lat="58.05522" lon="38.835295"><ele>103.1</ele><time>2024-12-04T10:04:24Z</time></trkpt><trkpt lat="58.055265" lon="38.835135"><ele>102.1</ele><time>2024-12-04T10:04:27Z</time></trkpt><trkpt lat="58.05531" lon="38.834995"><ele>105.1</ele><time>2024-12-04T10:04:30Z</time></trkpt><trkpt lat="58.055355" lon="38.834845"><ele>105.1</ele><time>2024-12-04T10:04:33Z</time></trkpt><trkpt lat="58.05539" lon="38.834707"><ele>105.3</ele><time>2024-12-04T10:04:36Z</time></trkpt><trkpt lat="58.055438" lon="38.83459"><ele>105.6</ele><time>2024-12-04T10:04:39Z</time></trkpt><trkpt lat="58.05552" lon="38.83459"><ele>98.9</ele><time>2024-12-04T10:04:43Z</time></trkpt><trkpt lat="58.0556" lon="38.834625"><ele>97.3</ele><time>2024-12-04T10:04:46Z</time></trkpt><trkpt lat="58.055682" lon="38.83467"><ele>96.8</ele><time>2024-12-04T10:04:49Z</time></trkpt><trkpt lat="58.05576" lon="38.834725"><ele>97.0</ele><time>2024-12-04T10:04:52Z</time></trkpt><trkpt lat="58.055845" lon="38.834795"><ele>96.8</ele><time>2024-12-04T10:04:55Z</time></trkpt><trkpt lat="58.055915" lon="38.834882"><ele>95.9</ele><time>2024-12-04T10:04:58Z</time></trkpt><trkpt lat="58.055907" lon="38.83502"><ele>96.3</ele><time>2024-12-04T10:05:01Z</time></trkpt><trkpt lat="58.055865" lon="38.835168"><ele>94.9</ele><time>2024-12-04T10:05:05Z</time></trkpt><trkpt lat="58.055815" lon="38.83533"><ele>95.9</ele><time>2024-12-04T10:05:09Z</time></trkpt><trkpt lat="58.055775" lon="38.83546"><ele>96.6</ele><time>2024-12-04T10:05:12Z</time></trkpt><trkpt lat="58.05574" lon="38.83558"><ele>97.2</ele><time>2024-12-04T10:05:15Z</time></trkpt><trkpt lat="58.055697" lon="38.835702"><ele>98.2</ele><time>2024-12-04T10:05:18Z</time></trkpt><trkpt lat="58.055655" lon="38.83584"><ele>97.3</ele><time>2024-12-04T10:05:21Z</time></trkpt><trkpt lat="58.055605" lon="38.83597"><ele>95.6</ele><time>2024-12-04T10:05:24Z</time></trkpt><trkpt lat="58.055565" lon="38.83612"><ele>95.9</ele><time>2024-12-04T10:05:27Z</time></trkpt><trkpt lat="58.055515" lon="38.83626"><ele>96.1</ele><time>2024-12-04T10:05:30Z</time></trkpt><trkpt lat="58.05547" lon="38.83639"><ele>96.0</ele><time>2024-12-04T10:05:33Z</time></trkpt><trkpt lat="58.05543" lon="38.836545"><ele>96.7</ele><time>2024-12-04T10:05:36Z</time></trkpt><trkpt lat="58.05538" lon="38.836705"><ele>97.4</ele><time>2024-12-04T10:05:39Z</time></trkpt><trkpt lat="58.05533" lon="38.83686"><ele>96.7</ele><time>2024-12-04T10:05:42Z</time></trkpt><trkpt lat="58.055272" lon="38.837015"><ele>95.7</ele><time>2024-12-04T10:05:45Z</time></trkpt><trkpt lat="58.055228" lon="38.83713"><ele>95.0</ele><time>2024-12-04T10:05:47Z</time></trkpt><trkpt lat="58.05518" lon="38.837285"><ele>94.8</ele><time>2024-12-04T10:05:50Z</time></trkpt><trkpt lat="58.055142" lon="38.837412"><ele>94.7</ele><time>2024-12-04T10:05:52Z</time></trkpt><trkpt lat="58.05509" lon="38.83757"><ele>93.9</ele><time>2024-12-04T10:05:55Z</time></trkpt><trkpt lat="58.05504" lon="38.837735"><ele>94.5</ele><time>2024-12-04T10:05:58Z</time></trkpt><trkpt lat="58.054985" lon="38.837897"><ele>96.0</ele><time>2024-12-04T10:06:01Z</time></trkpt><trkpt lat="58.05493" lon="38.838072"><ele>95.5</ele><time>2024-12-04T10:06:04Z</time></trkpt><trkpt lat="58.05488" lon="38.838245"><ele>94.9</ele><time>2024-12-04T10:06:07Z</time></trkpt><trkpt lat="58.054832" lon="38.838415"><ele>94.5</ele><time>2024-12-04T10:06:10Z</time></trkpt><trkpt lat="58.054795" lon="38.838535"><ele>94.9</ele><time>2024-12-04T10:06:12Z</time></trkpt><trkpt lat="58.05474" lon="38.838697"><ele>95.9</ele><time>2024-12-04T10:06:15Z</time></trkpt><trkpt lat="58.054685" lon="38.838855"><ele>95.7</ele><time>2024-12-04T10:06:18Z</time></trkpt><trkpt lat="58.05463" lon="38.839025"><ele>98.3</ele><time>2024-12-04T10:06:21Z</time></trkpt><trkpt lat="58.054567" lon="38.83918"><ele>97.9</ele><time>2024-12-04T10:06:24Z</time></trkpt><trkpt lat="58.05451" lon="38.839342"><ele>98.5</ele><time>2024-12-04T10:06:27Z</time></trkpt><trkpt lat="58.054453" lon="38.83951"><ele>97.8</ele><time>2024-12-04T10:06:30Z</time></trkpt><trkpt lat="58.0544" lon="38.839662"><ele>98.2</ele><time>2024-12-04T10:06:33Z</time></trkpt><trkpt lat="58.054345" lon="38.839817"><ele>98.6</ele><time>2024-12-04T10:06:36Z</time></trkpt><trkpt lat="58.05427" lon="38.839855"><ele>99.0</ele><time>2024-12-04T10:06:39Z</time></trkpt><trkpt lat="58.054195" lon="38.839785"><ele>99.6</ele><time>2024-12-04T10:06:42Z</time></trkpt><trkpt lat="58.054112" lon="38.839725"><ele>100.5</ele><time>2024-12-04T10:06:45Z</time></trkpt><trkpt lat="58.054042" lon="38.839657"><ele>99.4</ele><time>2024-12-04T10:06:48Z</time></trkpt><trkpt lat="58.053975" lon="38.8396"><ele>100.2</ele><time>2024-12-04T10:06:51Z</time></trkpt><trkpt lat="58.05395" lon="38.839472"><ele>101.6</ele><time>2024-12-04T10:06:55Z</time></trkpt><trkpt lat="58.05399" lon="38.839355"><ele>102.2</ele><time>2024-12-04T10:06:58Z</time></trkpt><trkpt lat="58.05403" lon="38.839235"><ele>101.9</ele><time>2024-12-04T10:07:01Z</time></trkpt><trkpt lat="58.05407" lon="38.83907"><ele>101.2</ele><time>2024-12-04T10:07:04Z</time></trkpt><trkpt lat="58.0541" lon="38.838935"><ele>100.9</ele><time>2024-12-04T10:07:07Z</time></trkpt><trkpt lat="58.05413" lon="38.83879"><ele>99.7</ele><time>2024-12-04T10:07:10Z</time></trkpt><trkpt lat="58.054185" lon="38.838642"><ele>101.3</ele><time>2024-12-04T10:07:13Z</time></trkpt><trkpt lat="58.054227" lon="38.83849"><ele>100.5</ele><time>2024-12-04T10:07:16Z</time></trkpt><trkpt lat="58.054262" lon="38.838347"><ele>99.5</ele><time>2024-12-04T10:07:19Z</time></trkpt><trkpt lat="58.054315" lon="38.838185"><ele>101.0</ele><time>2024-12-04T10:07:22Z</time></trkpt><trkpt lat="58.054355" lon="38.83804"><ele>100.3</ele><time>2024-12-04T10:07:25Z</time></trkpt><trkpt lat="58.054395" lon="38.837893"><ele>99.0</ele><time>2024-12-04T10:07:28Z</time></trkpt><trkpt lat="58.05444" lon="38.83773"><ele>98.6</ele><time>2024-12-04T10:07:31Z</time></trkpt><trkpt lat="58.054468" lon="38.837603"><ele>97.6</ele><time>2024-12-04T10:07:33Z</time></trkpt><trkpt lat="58.054515" lon="38.83744"><ele>96.2</ele><time>2024-12-04T10:07:36Z</time></trkpt><trkpt lat="58.05457" lon="38.83728"><ele>96.0</ele><time>2024-12-04T10:07:39Z</time></trkpt><trkpt lat="58.054615" lon="38.83713"><ele>95.1</ele><time>2024-12-04T10:07:42Z</time></trkpt><trkpt lat="58.05466" lon="38.836982"><ele>96.7</ele><time>2024-12-04T10:07:45Z</time></trkpt><trkpt lat="58.054725" lon="38.836822"><ele>100.1</ele><time>2024-12-04T10:07:48Z</time></trkpt><trkpt lat="58.05477" lon="38.83671"><ele>101.0</ele><time>2024-12-04T10:07:50Z</time></trkpt><trkpt lat="58.05482" lon="38.836545"><ele>101.0</ele><time>2024-12-04T10:07:53Z</time></trkpt><trkpt lat="58.05487" lon="38.836397"><ele>101.5</ele><time>2024-12-04T10:07:56Z</time></trkpt><trkpt lat="58.054935" lon="38.83628"><ele>102.9</ele><time>2024-12-04T10:07:59Z</time></trkpt><trkpt lat="58.054957" lon="38.836152"><ele>102.2</ele><time>2024-12-04T10:08:03Z</time></trkpt><trkpt lat="58.054987" lon="38.836012"><ele>100.4</ele><time>2024-12-04T10:08:06Z</time></trkpt><trkpt lat="58.055035" lon="38.835875"><ele>101.5</ele><time>2024-12-04T10:08:09Z</time></trkpt><trkpt lat="58.05508" lon="38.83574"><ele>100.7</ele><time>2024-12-04T10:08:13Z</time></trkpt><trkpt lat="58.055128" lon="38.835605"><ele>100.7</ele><time>2024-12-04T10:08:16Z</time></trkpt><trkpt lat="58.055165" lon="38.835487"><ele>101.8</ele><time>2024-12-04T10:08:18Z</time></trkpt><trkpt lat="58.055207" lon="38.835295"><ele>101.9</ele><time>2024-12-04T10:08:21Z</time></trkpt><trkpt lat="58.05525" lon="38.835125"><ele>100.9</ele><time>2024-12-04T10:08:24Z</time></trkpt><trkpt lat="58.055305" lon="38.834982"><ele>101.4</ele><time>2024-12-04T10:08:27Z</time></trkpt><trkpt lat="58.055345" lon="38.83483"><ele>101.7</ele><time>2024-12-04T10:08:30Z</time></trkpt><trkpt lat="58.055387" lon="38.83469"><ele>100.9</ele><time>2024-12-04T10:08:33Z</time></trkpt><trkpt lat="58.055465" lon="38.83461"><ele>99.5</ele><time>2024-12-04T10:08:37Z</time></trkpt><trkpt lat="58.055545" lon="38.83466"><ele>97.0</ele><time>2024-12-04T10:08:40Z</time></trkpt><trkpt lat="58.055635" lon="38.834712"><ele>95.4</ele><time>2024-12-04T10:08:43Z</time></trkpt><trkpt lat="58.055705" lon="38.834755"><ele>95.0</ele><time>2024-12-04T10:08:45Z</time></trkpt><trkpt lat="58.055805" lon="38.83481"><ele>95.3</ele><time>2024-12-04T10:08:48Z</time></trkpt><trkpt lat="58.055895" lon="38.83487"><ele>97.7</ele><time>2024-12-04T10:08:51Z</time></trkpt><trkpt lat="58.055915" lon="38.835022"><ele>99.9</ele><time>2024-12-04T10:08:55Z</time></trkpt><trkpt lat="58.055875" lon="38.83514"><ele>101.1</ele><time>2024-12-04T10:08:58Z</time></trkpt><trkpt lat="58.055825" lon="38.835302"><ele>102.5</ele><time>2024-12-04T10:09:01Z</time></trkpt><trkpt lat="58.05577" lon="38.83545"><ele>102.8</ele><time>2024-12-04T10:09:04Z</time></trkpt><trkpt lat="58.055712" lon="38.835595"><ele>103.9</ele><time>2024-12-04T10:09:07Z</time></trkpt><trkpt lat="58.05567" lon="38.835747"><ele>104.9</ele><time>2024-12-04T10:09:10Z</time></trkpt><trkpt lat="58.055615" lon="38.835892"><ele>102.4</ele><time>2024-12-04T10:09:13Z</time></trkpt><trkpt lat="58.055565" lon="38.83605"><ele>102.9</ele><time>2024-12-04T10:09:16Z</time></trkpt><trkpt lat="58.055515" lon="38.8362"><ele>103.7</ele><time>2024-12-04T10:09:19Z</time></trkpt><trkpt lat="58.05547" lon="38.83635"><ele>101.1</ele><time>2024-12-04T10:09:22Z</time></trkpt><trkpt lat="58.055417" lon="38.8365"><ele>101.1</ele><time>2024-12-04T10:09:25Z</time></trkpt><trkpt lat="58.05538" lon="38.83666"><ele>99.7</ele><time>2024-12-04T10:09:28Z</time></trkpt><trkpt lat="58.055335" lon="38.836812"><ele>99.8</ele><time>2024-12-04T10:09:31Z</time></trkpt><trkpt lat="58.055287" lon="38.83696"><ele>98.7</ele><time>2024-12-04T10:09:34Z</time></trkpt><trkpt lat="58.05524" lon="38.837115"><ele>97.6</ele><time>2024-12-04T10:09:37Z</time></trkpt><trkpt lat="58.055192" lon="38.837252"><ele>96.2</ele><time>2024-12-04T10:09:40Z</time></trkpt><trkpt lat="58.055137" lon="38.837407"><ele>96.7</ele><time>2024-12-04T10:09:43Z</time></trkpt><trkpt lat="58.055085" lon="38.83757"><ele>96.3</ele><time>2024-12-04T10:09:46Z</time></trkpt><trkpt lat="58.055035" lon="38.837735"><ele>96.5</ele><time>2024-12-04T10:09:49Z</time></trkpt><trkpt lat="58.054987" lon="38.83789"><ele>97.9</ele><time>2024-12-04T10:09:52Z</time></trkpt><trkpt lat="58.05494" lon="38.838053"><ele>97.1</ele><time>2024-12-04T10:09:55Z</time></trkpt><trkpt lat="58.054887" lon="38.83822"><ele>96.9</ele><time>2024-12-04T10:09:58Z</time></trkpt><trkpt lat="58.05483" lon="38.83837"><ele>96.7</ele><time>2024-12-04T10:10:01Z</time></trkpt><trkpt lat="58.054777" lon="38.838525"><ele>96.7</ele><time>2024-12-04T10:10:04Z</time></trkpt><trkpt lat="58.054725" lon="38.838682"><ele>98.3</ele><time>2024-12-04T10:10:07Z</time></trkpt><trkpt lat="58.05467" lon="38.838842"><ele>98.1</ele><time>2024-12-04T10:10:10Z</time></trkpt><trkpt lat="58.054615" lon="38.839"><ele>96.8</ele><time>2024-12-04T10:10:13Z</time></trkpt><trkpt lat="58.054562" lon="38.83917"><ele>96.7</ele><time>2024-12-04T10:10:16Z</time></trkpt><trkpt lat="58.05451" lon="38.83933"><ele>96.9</ele><time>2024-12-04T10:10:19Z</time></trkpt><trkpt lat="58.054453" lon="38.83947"><ele>96.7</ele><time>2024-12-04T10:10:22Z</time></trkpt><trkpt lat="58.054402" lon="38.839615"><ele>97.3</ele><time>2024-12-04T10:10:25Z</time></trkpt><trkpt lat="58.05435" lon="38.839765"><ele>97.6</ele><time>2024-12-04T10:10:28Z</time></trkpt><trkpt lat="58.054285" lon="38.839865"><ele>99.9</ele><time>2024-12-04T10:10:31Z</time></trkpt><trkpt lat="58.054217" lon="38.839815"><ele>102.6</ele><time>2024-12-04T10:10:34Z</time></trkpt><trkpt lat="58.054147" lon="38.83976"><ele>102.9</ele><time>2024-12-04T10:10:37Z</time></trkpt><trkpt lat="58.054077" lon="38.839713"><ele>102.6</ele><time>2024-12-04T10:10:40Z</time></trkpt><trkpt lat="58.053995" lon="38.83967"><ele>101.0</ele><time>2024-12-04T10:10:44Z</time></trkpt><trkpt lat="58.053965" lon="38.83954"><ele>100.8</ele><time>2024-12-04T10:10:48Z</time></trkpt><trkpt lat="58.053997" lon="38.839415"><ele>102.6</ele><time>2024-12-04T10:10:51Z</time></trkpt><trkpt lat="58.05403" lon="38.83926"><ele>104.6</ele><time>2024-12-04T10:10:54Z</time></trkpt><trkpt lat="58.054065" lon="38.839108"><ele>105.7</ele><time>2024-12-04T10:10:57Z</time></trkpt><trkpt lat="58.054105" lon="38.83898"><ele>105.2</ele><time>2024-12-04T10:11:00Z</time></trkpt><trkpt lat="58.05414" lon="38.83884"><ele>104.9</ele><time>2024-12-04T10:11:03Z</time></trkpt><trkpt lat="58.05418" lon="38.83869"><ele>104.4</ele><time>2024-12-04T10:11:06Z</time></trkpt><trkpt lat="58.054223" lon="38.838575"><ele>103.9</ele><time>2024-12-04T10:11:08Z</time></trkpt><trkpt lat="58.05426" lon="38.838447"><ele>105.3</ele><time>2024-12-04T10:11:10Z</time></trkpt><trkpt lat="58.05431" lon="38.838295"><ele>103.2</ele><time>2024-12-04T10:11:13Z</time></trkpt><trkpt lat="58.05435" lon="38.838138"><ele>102.9</ele><time>2024-12-04T10:11:16Z</time></trkpt><trkpt lat="58.054395" lon="38.837992"><ele>102.2</ele><time>2024-12-04T10:11:19Z</time></trkpt><trkpt lat="58.05443" lon="38.837845"><ele>102.0</ele><time>2024-12-04T10:11:22Z</time></trkpt><trkpt lat="58.05448" lon="38.8377"><ele>100.4</ele><time>2024-12-04T10:11:25Z</time></trkpt><trkpt lat="58.054522" lon="38.83755"><ele>99.1</ele><time>2024-12-04T10:11:28Z</time></trkpt><trkpt lat="58.05457" lon="38.8374"><ele>99.1</ele><time>2024-12-04T10:11:31Z</time></trkpt><trkpt lat="58.054615" lon="38.83726"><ele>98.9</ele><time>2024-12-04T10:11:34Z</time></trkpt><trkpt lat="58.054645" lon="38.837115"><ele>98.4</ele><time>2024-12-04T10:11:37Z</time></trkpt><trkpt lat="58.05469" lon="38.836975"><ele>99.7</ele><time>2024-12-04T10:11:40Z</time></trkpt><trkpt lat="58.054735" lon="38.836825"><ele>99.0</ele><time>2024-12-04T10:11:43Z</time></trkpt><trkpt lat="58.054777" lon="38.836695"><ele>100.0</ele><time>2024-12-04T10:11:46Z</time></trkpt><trkpt lat="58.054825" lon="38.836548"><ele>99.6</ele><time>2024-12-04T10:11:49Z</time></trkpt><trkpt lat="58.054875" lon="38.83641"><ele>100.1</ele><time>2024-12-04T10:11:52Z</time></trkpt><trkpt lat="58.05493" lon="38.836265"><ele>101.1</ele><time>2024-12-04T10:11:55Z</time></trkpt><trkpt lat="58.054983" lon="38.83611"><ele>100.2</ele><time>2024-12-04T10:11:58Z</time></trkpt><trkpt lat="58.055015" lon="38.83598"><ele>100.4</ele><time>2024-12-04T10:12:01Z</time></trkpt><trkpt lat="58.055057" lon="38.835857"><ele>102.9</ele><time>2024-12-04T10:12:04Z</time></trkpt><trkpt lat="58.055095" lon="38.83574"><ele>101.5</ele><time>2024-12-04T10:12:07Z</time></trkpt><trkpt lat="58.055143" lon="38.83559"><ele>102.8</ele><time>2024-12-04T10:12:11Z</time></trkpt><trkpt lat="58.055182" lon="38.83547"><ele>103.0</ele><time>2024-12-04T10:12:14Z</time></trkpt><trkpt lat="58.055213" lon="38.835322"><ele>103.0</ele><time>2024-12-04T10:12:17Z</time></trkpt><trkpt lat="58.05525" lon="38.8352"><ele>101.8</ele><time>2024-12-04T10:12:20Z</time></trkpt><trkpt lat="58.055293" lon="38.83505"><ele>101.6</ele><time>2024-12-04T10:12:23Z</time></trkpt><trkpt lat="58.055335" lon="38.834905"><ele>101.8</ele><time>2024-12-04T10:12:26Z</time></trkpt><trkpt lat="58.05539" lon="38.834745"><ele>102.0</ele><time>2024-12-04T10:12:29Z</time></trkpt><trkpt lat="58.055445" lon="38.834625"><ele>100.6</ele><time>2024-12-04T10:12:32Z</time></trkpt><trkpt lat="58.055545" lon="38.834642"><ele>99.8</ele><time>2024-12-04T10:12:36Z</time></trkpt><trkpt lat="58.05563" lon="38.83469"><ele>98.7</ele><time>2024-12-04T10:12:39Z</time></trkpt><trkpt lat="58.05571" lon="38.834745"><ele>98.6</ele><time>2024-12-04T10:12:42Z</time></trkpt><trkpt lat="58.0558" lon="38.834797"><ele>100.2</ele><time>2024-12-04T10:12:45Z</time></trkpt><trkpt lat="58.055892" lon="38.834865"><ele>99.3</ele><time>2024-12-04T10:12:48Z</time></trkpt><trkpt lat="58.055935" lon="38.834995"><ele>99.8</ele><time>2024-12-04T10:12:52Z</time></trkpt><trkpt lat="58.055897" lon="38.835155"><ele>100.5</ele><time>2024-12-04T10:12:56Z</time></trkpt><trkpt lat="58.05585" lon="38.835285"><ele>100.8</ele><time>2024-12-04T10:12:59Z</time></trkpt><trkpt lat="58.0558" lon="38.835425"><ele>99.2</ele><time>2024-12-04T10:13:02Z</time></trkpt><trkpt lat="58.055742" lon="38.835562"><ele>98.9</ele><time>2024-12-04T10:13:05Z</time></trkpt><trkpt lat="58.05569" lon="38.835703"><ele>98.3</ele><time>2024-12-04T10:13:08Z</time></trkpt><trkpt lat="58.055645" lon="38.835857"><ele>98.4</ele><time>2024-12-04T10:13:11Z</time></trkpt><trkpt lat="58.055588" lon="38.83603"><ele>99.2</ele><time>2024-12-04T10:13:14Z</time></trkpt><trkpt lat="58.055545" lon="38.83618"><ele>98.5</ele><time>2024-12-04T10:13:17Z</time></trkpt><trkpt lat="58.05549" lon="38.836335"><ele>99.0</ele><time>2024-12-04T10:13:20Z</time></trkpt><trkpt lat="58.055445" lon="38.836495"><ele>98.3</ele><time>2024-12-04T10:13:23Z</time></trkpt><trkpt lat="58.055402" lon="38.83667"><ele>98.2</ele><time>2024-12-04T10:13:26Z</time></trkpt><trkpt lat="58.055355" lon="38.836825"><ele>98.2</ele><time>2024-12-04T10:13:29Z</time></trkpt><trkpt lat="58.05531" lon="38.83698"><ele>97.9</ele><time>2024-12-04T10:13:32Z</time></trkpt><trkpt lat="58.055255" lon="38.837125"><ele>96.7</ele><time>2024-12-04T10:13:35Z</time></trkpt><trkpt lat="58.0552" lon="38.837265"><ele>95.8</ele><time>2024-12-04T10:13:38Z</time></trkpt><trkpt lat="58.055155" lon="38.837425"><ele>94.6</ele><time>2024-12-04T10:13:41Z</time></trkpt><trkpt lat="58.055105" lon="38.837585"><ele>93.5</ele><time>2024-12-04T10:13:44Z</time></trkpt><trkpt lat="58.05505" lon="38.837752"><ele>93.4</ele><time>2024-12-04T10:13:47Z</time></trkpt><trkpt lat="58.055" lon="38.837922"><ele>94.8</ele><time>2024-12-04T10:13:50Z</time></trkpt><trkpt lat="58.05494" lon="38.83809"><ele>94.9</ele><time>2024-12-04T10:13:53Z</time></trkpt><trkpt lat="58.054882" lon="38.83825"><ele>95.1</ele><time>2024-12-04T10:13:56Z</time></trkpt><trkpt lat="58.054822" lon="38.838415"><ele>95.7</ele><time>2024-12-04T10:13:59Z</time></trkpt><trkpt lat="58.054762" lon="38.838575"><ele>95.8</ele><time>2024-12-04T10:14:02Z</time></trkpt><trkpt lat="58.054715" lon="38.838735"><ele>96.9</ele><time>2024-12-04T10:14:05Z</time></trkpt><trkpt lat="58.05466" lon="38.83889"><ele>98.2</ele><time>2024-12-04T10:14:08Z</time></trkpt><trkpt lat="58.054597" lon="38.83905"><ele>98.5</ele><time>2024-12-04T10:14:11Z</time></trkpt><trkpt lat="58.05455" lon="38.83921"><ele>97.4</ele><time>2024-12-04T10:14:14Z</time></trkpt><trkpt lat="58.0545" lon="38.839365"><ele>97.4</ele><time>2024-12-04T10:14:17Z</time></trkpt><trkpt lat="58.054452" lon="38.83952"><ele>99.0</ele><time>2024-12-04T10:14:20Z</time></trkpt><trkpt lat="58.054395" lon="38.839665"><ele>99.7</ele><time>2024-12-04T10:14:23Z</time></trkpt><trkpt lat="58.054345" lon="38.83982"><ele>98.9</ele><time>2024-12-04T10:14:26Z</time></trkpt><trkpt lat="58.05426" lon="38.839855"><ele>98.9</ele><time>2024-12-04T10:14:30Z</time></trkpt><trkpt lat="58.05419" lon="38.839805"><ele>99.5</ele><time>2024-12-04T10:14:33Z</time></trkpt><trkpt lat="58.054112" lon="38.839745"><ele>100.5</ele><time>2024-12-04T10:14:36Z</time></trkpt><trkpt lat="58.05404" lon="38.839675"><ele>101.7</ele><time>2024-12-04T10:14:39Z</time></trkpt><trkpt lat="58.053967" lon="38.839615"><ele>101.4</ele><time>2024-12-04T10:14:42Z</time></trkpt><trkpt lat="58.05394" lon="38.839482"><ele>99.7</ele><time>2024-12-04T10:14:46Z</time></trkpt><trkpt lat="58.053975" lon="38.839352"><ele>99.2</ele><time>2024-12-04T10:14:49Z</time></trkpt><trkpt lat="58.054022" lon="38.8392"><ele>97.2</ele><time>2024-12-04T10:14:53Z</time></trkpt><trkpt lat="58.054068" lon="38.839065"><ele>96.2</ele><time>2024-12-04T10:14:56Z</time></trkpt><trkpt lat="58.054115" lon="38.83892"><ele>96.6</ele><time>2024-12-04T10:14:59Z</time></trkpt><trkpt lat="58.05417" lon="38.83874"><ele>95.9</ele><time>2024-12-04T10:15:02Z</time></trkpt><trkpt lat="58.054222" lon="38.838587"><ele>96.5</ele><time>2024-12-04T10:15:05Z</time></trkpt><trkpt lat="58.054275" lon="38.838445"><ele>96.4</ele><time>2024-12-04T10:15:08Z</time></trkpt><trkpt lat="58.054325" lon="38.838305"><ele>96.9</ele><time>2024-12-04T10:15:11Z</time></trkpt><trkpt lat="58.05437" lon="38.838122"><ele>96.9</ele><time>2024-12-04T10:15:14Z</time></trkpt><trkpt lat="58.054417" lon="38.837955"><ele>96.7</ele><time>2024-12-04T10:15:17Z</time></trkpt><trkpt lat="58.05446" lon="38.837782"><ele>96.6</ele><time>2024-12-04T10:15:20Z</time></trkpt><trkpt lat="58.054505" lon="38.837595"><ele>96.7</ele><time>2024-12-04T10:15:23Z</time></trkpt><trkpt lat="58.05454" lon="38.837475"><ele>96.1</ele><time>2024-12-04T10:15:25Z</time></trkpt><trkpt lat="58.0546" lon="38.83731"><ele>96.4</ele><time>2024-12-04T10:15:28Z</time></trkpt><trkpt lat="58.05464" lon="38.83719"><ele>96.1</ele><time>2024-12-04T10:15:30Z</time></trkpt><trkpt lat="58.054685" lon="38.83702"><ele>94.2</ele><time>2024-12-04T10:15:33Z</time></trkpt><trkpt lat="58.054735" lon="38.83686"><ele>95.6</ele><time>2024-12-04T10:15:36Z</time></trkpt><trkpt lat="58.054787" lon="38.836703"><ele>95.6</ele><time>2024-12-04T10:15:39Z</time></trkpt><trkpt lat="58.054827" lon="38.83654"><ele>95.8</ele><time>2024-12-04T10:15:42Z</time></trkpt><trkpt lat="58.05489" lon="38.836405"><ele>98.5</ele><time>2024-12-04T10:15:45Z</time></trkpt><trkpt lat="58.054945" lon="38.836315"><ele>98.7</ele><time>2024-12-04T10:15:48Z</time></trkpt><trkpt lat="58.055025" lon="38.83632"><ele>97.1</ele><time>2024-12-04T10:15:51Z</time></trkpt><trkpt lat="58.055105" lon="38.836365"><ele>94.9</ele><time>2024-12-04T10:15:54Z</time></trkpt><trkpt lat="58.055195" lon="38.83643"><ele>94.7</ele><time>2024-12-04T10:15:57Z</time></trkpt><trkpt lat="58.055277" lon="38.836495"><ele>93.9</ele><time>2024-12-04T10:16:00Z</time></trkpt><trkpt lat="58.05536" lon="38.836547"><ele>95.3</ele><time>2024-12-04T10:16:03Z</time></trkpt><trkpt lat="58.055392" lon="38.836687"><ele>96.2</ele><time>2024-12-04T10:16:07Z</time></trkpt><trkpt lat="58.05536" lon="38.83682"><ele>97.5</ele><time>2024-12-04T10:16:10Z</time></trkpt><trkpt lat="58.05533" lon="38.836985"><ele>98.8</ele><time>2024-12-04T10:16:13Z</time></trkpt><trkpt lat="58.055277" lon="38.837125"><ele>97.3</ele><time>2024-12-04T10:16:16Z</time></trkpt><trkpt lat="58.055227" lon="38.837255"><ele>96.6</ele><time>2024-12-04T10:16:19Z</time></trkpt><trkpt lat="58.05518" lon="38.837375"><ele>97.5</ele><time>2024-12-04T10:16:21Z</time></trkpt><trkpt lat="58.05512" lon="38.837535"><ele>95.4</ele><time>2024-12-04T10:16:24Z</time></trkpt><trkpt lat="58.055082" lon="38.83766"><ele>96.2</ele><time>2024-12-04T10:16:26Z</time></trkpt><trkpt lat="58.05504" lon="38.837775"><ele>96.1</ele><time>2024-12-04T10:16:28Z</time></trkpt><trkpt lat="58.054982" lon="38.837935"><ele>94.6</ele><time>2024-12-04T10:16:31Z</time></trkpt><trkpt lat="58.054942" lon="38.838052"><ele>95.0</ele><time>2024-12-04T10:16:33Z</time></trkpt><trkpt lat="58.054902" lon="38.838175"><ele>96.6</ele><time>2024-12-04T10:16:35Z</time></trkpt><trkpt lat="58.054865" lon="38.83829"><ele>95.9</ele><time>2024-12-04T10:16:37Z</time></trkpt><trkpt lat="58.054815" lon="38.838465"><ele>96.8</ele><time>2024-12-04T10:16:40Z</time></trkpt><trkpt lat="58.054772" lon="38.838575"><ele>96.0</ele><time>2024-12-04T10:16:42Z</time></trkpt><trkpt lat="58.05473" lon="38.83869"><ele>95.5</ele><time>2024-12-04T10:16:44Z</time></trkpt><trkpt lat="58.054687" lon="38.838802"><ele>95.7</ele><time>2024-12-04T10:16:46Z</time></trkpt><trkpt lat="58.05464" lon="38.838935"><ele>97.0</ele><time>2024-12-04T10:16:48Z</time></trkpt><trkpt lat="58.054595" lon="38.83905"><ele>95.8</ele><time>2024-12-04T10:16:50Z</time></trkpt><trkpt lat="58.054555" lon="38.83917"><ele>95.1</ele><time>2024-12-04T10:16:52Z</time></trkpt><trkpt lat="58.054515" lon="38.839285"><ele>96.8</ele><time>2024-12-04T10:16:54Z</time></trkpt><trkpt lat="58.054475" lon="38.839417"><ele>97.5</ele><time>2024-12-04T10:16:56Z</time></trkpt><trkpt lat="58.054435" lon="38.83954"><ele>98.5</ele><time>2024-12-04T10:16:58Z</time></trkpt><trkpt lat="58.054375" lon="38.839702"><ele>98.9</ele><time>2024-12-04T10:17:01Z</time></trkpt><trkpt lat="58.054315" lon="38.839857"><ele>97.7</ele><time>2024-12-04T10:17:04Z</time></trkpt><trkpt lat="58.054235" lon="38.839877"><ele>97.5</ele><time>2024-12-04T10:17:07Z</time></trkpt><trkpt lat="58.05416" lon="38.839815"><ele>98.2</ele><time>2024-12-04T10:17:10Z</time></trkpt><trkpt lat="58.054085" lon="38.83975"><ele>98.3</ele><time>2024-12-04T10:17:13Z</time></trkpt><trkpt lat="58.054015" lon="38.839697"><ele>96.7</ele><time>2024-12-04T10:17:17Z</time></trkpt><trkpt lat="58.053957" lon="38.839612"><ele>97.5</ele><time>2024-12-04T10:17:22Z</time></trkpt><trkpt lat="58.05391" lon="38.839492"><ele>101.9</ele><time>2024-12-04T10:17:28Z</time></trkpt><trkpt lat="58.053925" lon="38.83934"><ele>101.1</ele><time>2024-12-04T10:17:35Z</time></trkpt><trkpt lat="58.053985" lon="38.839345"><ele>105.2</ele><time>2024-12-04T10:17:42Z</time></trkpt><trkpt lat="58.05397" lon="38.83934"><ele>103.6</ele><time>2024-12-04T10:17:49Z</time></trkpt><trkpt lat="58.05393" lon="38.83946"><ele>103.6</ele><time>2024-12-04T10:17:56Z</time></trkpt></trkseg></trk></gpx>