<?xml version="1.0" encoding="UTF-8" standalone="no"?><gpx xmlns="http://www.topografix.com/GPX/1/1" xmlns:gpxtpx="http://www.garmin.com/xmlschemas/TrackPointExtension/v1" xmlns:xsi="http://www.w3.org/2001/XMLSchema-instance" creator="Sports Tracker" version="1.1" xsi:schemaLocation="http://www.topografix.com/GPX/1/1 http://www.topografix.com/GPX/1/1/gpx.xsd http://www.garmin.com/xmlschemas/TrackPointExtension/v1 http://www.garmin.com/xmlschemas/TrackPointExtensionv1.xsd"><metadata><name/><desc/><author><name>Александр</name></author></metadata><trk><name/><trkseg><trkpt lat="58.05862" lon="38.817517"><ele>103.6</ele><time>2022-12-01T13:57:14Z</time></trkpt><trkpt lat="58.058683" lon="38.817445"><ele>103.2</ele><time>2022-12-01T13:57:22Z</time></trkpt><trkpt lat="58.058687" lon="38.817295"><ele>103.6</ele><time>2022-12-01T13:57:27Z</time></trkpt><trkpt lat="58.058662" lon="38.817145"><ele>103.8</ele><time>2022-12-01T13:57:30Z</time></trkpt><trkpt lat="58.058718" lon="38.817252"><ele>104.3</ele><time>2022-12-01T13:57:45Z</time></trkpt><trkpt lat="58.058655" lon="38.817127"><ele>104.3</ele><time>2022-12-01T13:58:13Z</time></trkpt><trkpt lat="58.058573" lon="38.816663"><ele>105.4</ele><time>2022-12-01T13:58:55Z</time></trkpt><trkpt lat="58.05863" lon="38.816968"><ele>106.4</ele><time>2022-12-01T13:59:08Z</time></trkpt><trkpt lat="58.058687" lon="38.816883"><ele>105.0</ele><time>2022-12-01T13:59:12Z</time></trkpt><trkpt lat="58.058712" lon="38.817013"><ele>103.0</ele><time>2022-12-01T13:59:18Z</time></trkpt><trkpt lat="58.058707" lon="38.817175"><ele>101.5</ele><time>2022-12-01T13:59:21Z</time></trkpt><trkpt lat="58.05879" lon="38.817312"><ele>102.1</ele><time>2022-12-01T13:59:24Z</time></trkpt><trkpt lat="58.058858" lon="38.817378"><ele>102.2</ele><time>2022-12-01T13:59:26Z</time></trkpt><trkpt lat="58.058928" lon="38.81744"><ele>101.9</ele><time>2022-12-01T13:59:28Z</time></trkpt><trkpt lat="58.058995" lon="38.817502"><ele>101.8</ele><time>2022-12-01T13:59:31Z</time></trkpt><trkpt lat="58.059073" lon="38.817543"><ele>101.5</ele><time>2022-12-01T13:59:34Z</time></trkpt><trkpt lat="58.05915" lon="38.817578"><ele>101.2</ele><time>2022-12-01T13:59:36Z</time></trkpt><trkpt lat="58.059222" lon="38.817638"><ele>101.0</ele><time>2022-12-01T13:59:38Z</time></trkpt><trkpt lat="58.059295" lon="38.817665"><ele>100.6</ele><time>2022-12-01T13:59:40Z</time></trkpt><trkpt lat="58.059378" lon="38.817652"><ele>100.1</ele><time>2022-12-01T13:59:42Z</time></trkpt><trkpt lat="58.059463" lon="38.81763"><ele>99.9</ele><time>2022-12-01T13:59:44Z</time></trkpt><trkpt lat="58.059535" lon="38.817597"><ele>99.6</ele><time>2022-12-01T13:59:46Z</time></trkpt><trkpt lat="58.059617" lon="38.817575"><ele>99.8</ele><time>2022-12-01T13:59:48Z</time></trkpt><trkpt lat="58.059692" lon="38.817527"><ele>99.6</ele><time>2022-12-01T13:59:50Z</time></trkpt><trkpt lat="58.059752" lon="38.817613"><ele>99.6</ele><time>2022-12-01T13:59:52Z</time></trkpt><trkpt lat="58.059805" lon="38.817707"><ele>98.8</ele><time>2022-12-01T13:59:54Z</time></trkpt><trkpt lat="58.05989" lon="38.817735"><ele>98.7</ele><time>2022-12-01T13:59:56Z</time></trkpt><trkpt lat="58.059982" lon="38.817773"><ele>98.5</ele><time>2022-12-01T13:59:59Z</time></trkpt><trkpt lat="58.060003" lon="38.817952"><ele>98.5</ele><time>2022-12-01T14:00:02Z</time></trkpt><trkpt lat="58.059957" lon="38.818173"><ele>98.5</ele><time>2022-12-01T14:00:04Z</time></trkpt><trkpt lat="58.059957" lon="38.818397"><ele>98.9</ele><time>2022-12-01T14:00:06Z</time></trkpt><trkpt lat="58.059938" lon="38.81862"><ele>98.8</ele><time>2022-12-01T14:00:08Z</time></trkpt><trkpt lat="58.05993" lon="38.818825"><ele>98.9</ele><time>2022-12-01T14:00:10Z</time></trkpt><trkpt lat="58.059905" lon="38.819018"><ele>98.6</ele><time>2022-12-01T14:00:12Z</time></trkpt><trkpt lat="58.059888" lon="38.819228"><ele>98.0</ele><time>2022-12-01T14:00:14Z</time></trkpt><trkpt lat="58.059875" lon="38.819465"><ele>97.8</ele><time>2022-12-01T14:00:16Z</time></trkpt><trkpt lat="58.05986" lon="38.819715"><ele>97.7</ele><time>2022-12-01T14:00:18Z</time></trkpt><trkpt lat="58.059842" lon="38.819972"><ele>97.7</ele><time>2022-12-01T14:00:20Z</time></trkpt><trkpt lat="58.059825" lon="38.820242"><ele>98.1</ele><time>2022-12-01T14:00:22Z</time></trkpt><trkpt lat="58.059817" lon="38.82038"><ele>98.2</ele><time>2022-12-01T14:00:23Z</time></trkpt><trkpt lat="58.059803" lon="38.820638"><ele>98.2</ele><time>2022-12-01T14:00:25Z</time></trkpt><trkpt lat="58.059782" lon="38.82089"><ele>98.5</ele><time>2022-12-01T14:00:27Z</time></trkpt><trkpt lat="58.059773" lon="38.821132"><ele>98.0</ele><time>2022-12-01T14:00:29Z</time></trkpt><trkpt lat="58.059777" lon="38.821285"><ele>97.9</ele><time>2022-12-01T14:00:33Z</time></trkpt><trkpt lat="58.059765" lon="38.821428"><ele>97.9</ele><time>2022-12-01T14:00:41Z</time></trkpt><trkpt lat="58.059748" lon="38.821602"><ele>97.9</ele><time>2022-12-01T14:00:44Z</time></trkpt><trkpt lat="58.059737" lon="38.82178"><ele>97.8</ele><time>2022-12-01T14:00:46Z</time></trkpt><trkpt lat="58.059735" lon="38.821972"><ele>98.0</ele><time>2022-12-01T14:00:48Z</time></trkpt><trkpt lat="58.059725" lon="38.822182"><ele>97.1</ele><time>2022-12-01T14:00:50Z</time></trkpt><trkpt lat="58.05971" lon="38.822375"><ele>96.5</ele><time>2022-12-01T14:00:52Z</time></trkpt><trkpt lat="58.059697" lon="38.822565"><ele>96.3</ele><time>2022-12-01T14:00:54Z</time></trkpt><trkpt lat="58.059707" lon="38.822738"><ele>96.5</ele><time>2022-12-01T14:00:56Z</time></trkpt><trkpt lat="58.0597" lon="38.822893"><ele>95.4</ele><time>2022-12-01T14:00:58Z</time></trkpt><trkpt lat="58.059693" lon="38.823032"><ele>95.1</ele><time>2022-12-01T14:01:00Z</time></trkpt><trkpt lat="58.059663" lon="38.823195"><ele>96.1</ele><time>2022-12-01T14:01:03Z</time></trkpt><trkpt lat="58.059628" lon="38.823338"><ele>95.1</ele><time>2022-12-01T14:01:05Z</time></trkpt><trkpt lat="58.059583" lon="38.823472"><ele>95.2</ele><time>2022-12-01T14:01:07Z</time></trkpt><trkpt lat="58.059527" lon="38.823632"><ele>94.8</ele><time>2022-12-01T14:01:09Z</time></trkpt><trkpt lat="58.05949" lon="38.823748"><ele>94.5</ele><time>2022-12-01T14:01:11Z</time></trkpt><trkpt lat="58.059415" lon="38.823858"><ele>94.2</ele><time>2022-12-01T14:01:13Z</time></trkpt><trkpt lat="58.059367" lon="38.82397"><ele>94.0</ele><time>2022-12-01T14:01:15Z</time></trkpt><trkpt lat="58.059282" lon="38.824102"><ele>93.8</ele><time>2022-12-01T14:01:18Z</time></trkpt><trkpt lat="58.059217" lon="38.824207"><ele>92.5</ele><time>2022-12-01T14:01:20Z</time></trkpt><trkpt lat="58.05915" lon="38.82432"><ele>92.0</ele><time>2022-12-01T14:01:22Z</time></trkpt><trkpt lat="58.059087" lon="38.82444"><ele>92.0</ele><time>2022-12-01T14:01:24Z</time></trkpt><trkpt lat="58.059022" lon="38.824568"><ele>92.2</ele><time>2022-12-01T14:01:26Z</time></trkpt><trkpt lat="58.058957" lon="38.824703"><ele>92.8</ele><time>2022-12-01T14:01:28Z</time></trkpt><trkpt lat="58.058897" lon="38.824828"><ele>93.4</ele><time>2022-12-01T14:01:30Z</time></trkpt><trkpt lat="58.058843" lon="38.824925"><ele>93.6</ele><time>2022-12-01T14:01:32Z</time></trkpt><trkpt lat="58.05881" lon="38.825045"><ele>93.9</ele><time>2022-12-01T14:01:35Z</time></trkpt><trkpt lat="58.058792" lon="38.825208"><ele>93.7</ele><time>2022-12-01T14:01:38Z</time></trkpt><trkpt lat="58.058832" lon="38.825355"><ele>94.4</ele><time>2022-12-01T14:01:41Z</time></trkpt><trkpt lat="58.058897" lon="38.82542"><ele>95.0</ele><time>2022-12-01T14:01:43Z</time></trkpt><trkpt lat="58.058962" lon="38.82549"><ele>94.9</ele><time>2022-12-01T14:01:45Z</time></trkpt><trkpt lat="58.05903" lon="38.825565"><ele>94.6</ele><time>2022-12-01T14:01:47Z</time></trkpt><trkpt lat="58.059102" lon="38.82566"><ele>94.4</ele><time>2022-12-01T14:01:49Z</time></trkpt><trkpt lat="58.059177" lon="38.825753"><ele>93.8</ele><time>2022-12-01T14:01:51Z</time></trkpt><trkpt lat="58.059247" lon="38.825857"><ele>93.7</ele><time>2022-12-01T14:01:53Z</time></trkpt><trkpt lat="58.05933" lon="38.825948"><ele>93.9</ele><time>2022-12-01T14:01:55Z</time></trkpt><trkpt lat="58.059395" lon="38.826037"><ele>93.6</ele><time>2022-12-01T14:01:57Z</time></trkpt><trkpt lat="58.059443" lon="38.826148"><ele>93.6</ele><time>2022-12-01T14:01:59Z</time></trkpt><trkpt lat="58.059478" lon="38.826298"><ele>93.7</ele><time>2022-12-01T14:02:02Z</time></trkpt><trkpt lat="58.059442" lon="38.826468"><ele>94.1</ele><time>2022-12-01T14:02:06Z</time></trkpt><trkpt lat="58.059383" lon="38.826605"><ele>94.6</ele><time>2022-12-01T14:02:09Z</time></trkpt><trkpt lat="58.05932" lon="38.826767"><ele>95.1</ele><time>2022-12-01T14:02:12Z</time></trkpt><trkpt lat="58.059247" lon="38.82691"><ele>96.0</ele><time>2022-12-01T14:02:14Z</time></trkpt><trkpt lat="58.059182" lon="38.827058"><ele>95.2</ele><time>2022-12-01T14:02:16Z</time></trkpt><trkpt lat="58.059125" lon="38.827233"><ele>96.5</ele><time>2022-12-01T14:02:18Z</time></trkpt><trkpt lat="58.05909" lon="38.827372"><ele>97.2</ele><time>2022-12-01T14:02:20Z</time></trkpt><trkpt lat="58.059013" lon="38.827545"><ele>98.4</ele><time>2022-12-01T14:02:22Z</time></trkpt><trkpt lat="58.058957" lon="38.827703"><ele>99.6</ele><time>2022-12-01T14:02:24Z</time></trkpt><trkpt lat="58.058918" lon="38.827835"><ele>99.6</ele><time>2022-12-01T14:02:26Z</time></trkpt><trkpt lat="58.05887" lon="38.82799"><ele>99.7</ele><time>2022-12-01T14:02:29Z</time></trkpt><trkpt lat="58.058828" lon="38.828143"><ele>98.5</ele><time>2022-12-01T14:02:32Z</time></trkpt><trkpt lat="58.05879" lon="38.828262"><ele>98.0</ele><time>2022-12-01T14:02:34Z</time></trkpt><trkpt lat="58.058733" lon="38.828422"><ele>96.8</ele><time>2022-12-01T14:02:37Z</time></trkpt><trkpt lat="58.058692" lon="38.828557"><ele>96.3</ele><time>2022-12-01T14:02:39Z</time></trkpt><trkpt lat="58.058652" lon="38.82869"><ele>96.2</ele><time>2022-12-01T14:02:41Z</time></trkpt><trkpt lat="58.058615" lon="38.82882"><ele>96.4</ele><time>2022-12-01T14:02:43Z</time></trkpt><trkpt lat="58.058562" lon="38.828965"><ele>96.6</ele><time>2022-12-01T14:02:45Z</time></trkpt><trkpt lat="58.058473" lon="38.829102"><ele>96.3</ele><time>2022-12-01T14:02:47Z</time></trkpt><trkpt lat="58.058382" lon="38.82922"><ele>95.6</ele><time>2022-12-01T14:02:49Z</time></trkpt><trkpt lat="58.058312" lon="38.829318"><ele>94.5</ele><time>2022-12-01T14:02:51Z</time></trkpt><trkpt lat="58.05828" lon="38.829445"><ele>93.2</ele><time>2022-12-01T14:02:53Z</time></trkpt><trkpt lat="58.0582" lon="38.829587"><ele>91.7</ele><time>2022-12-01T14:02:55Z</time></trkpt><trkpt lat="58.058125" lon="38.829728"><ele>91.3</ele><time>2022-12-01T14:02:57Z</time></trkpt><trkpt lat="58.058057" lon="38.829878"><ele>90.0</ele><time>2022-12-01T14:02:59Z</time></trkpt><trkpt lat="58.057977" lon="38.830018"><ele>89.6</ele><time>2022-12-01T14:03:01Z</time></trkpt><trkpt lat="58.057898" lon="38.830125"><ele>90.0</ele><time>2022-12-01T14:03:03Z</time></trkpt><trkpt lat="58.057825" lon="38.830212"><ele>89.6</ele><time>2022-12-01T14:03:05Z</time></trkpt><trkpt lat="58.057753" lon="38.830335"><ele>90.5</ele><time>2022-12-01T14:03:07Z</time></trkpt><trkpt lat="58.057668" lon="38.83044"><ele>90.4</ele><time>2022-12-01T14:03:09Z</time></trkpt><trkpt lat="58.057617" lon="38.830587"><ele>90.3</ele><time>2022-12-01T14:03:11Z</time></trkpt><trkpt lat="58.057543" lon="38.830748"><ele>90.2</ele><time>2022-12-01T14:03:13Z</time></trkpt><trkpt lat="58.057472" lon="38.830873"><ele>90.1</ele><time>2022-12-01T14:03:15Z</time></trkpt><trkpt lat="58.057398" lon="38.83098"><ele>90.4</ele><time>2022-12-01T14:03:17Z</time></trkpt><trkpt lat="58.057325" lon="38.831067"><ele>89.5</ele><time>2022-12-01T14:03:19Z</time></trkpt><trkpt lat="58.057247" lon="38.831167"><ele>89.3</ele><time>2022-12-01T14:03:21Z</time></trkpt><trkpt lat="58.057155" lon="38.831243"><ele>89.7</ele><time>2022-12-01T14:03:23Z</time></trkpt><trkpt lat="58.057088" lon="38.831315"><ele>89.9</ele><time>2022-12-01T14:03:25Z</time></trkpt><trkpt lat="58.057027" lon="38.83148"><ele>89.3</ele><time>2022-12-01T14:03:28Z</time></trkpt><trkpt lat="58.05699" lon="38.831602"><ele>89.1</ele><time>2022-12-01T14:03:30Z</time></trkpt><trkpt lat="58.056927" lon="38.831755"><ele>89.6</ele><time>2022-12-01T14:03:33Z</time></trkpt><trkpt lat="58.056893" lon="38.83188"><ele>90.2</ele><time>2022-12-01T14:03:35Z</time></trkpt><trkpt lat="58.056855" lon="38.832013"><ele>90.3</ele><time>2022-12-01T14:03:37Z</time></trkpt><trkpt lat="58.056807" lon="38.832143"><ele>90.7</ele><time>2022-12-01T14:03:39Z</time></trkpt><trkpt lat="58.056763" lon="38.832273"><ele>91.6</ele><time>2022-12-01T14:03:41Z</time></trkpt><trkpt lat="58.056712" lon="38.832412"><ele>92.5</ele><time>2022-12-01T14:03:43Z</time></trkpt><trkpt lat="58.056665" lon="38.832562"><ele>92.7</ele><time>2022-12-01T14:03:45Z</time></trkpt><trkpt lat="58.05662" lon="38.832705"><ele>91.9</ele><time>2022-12-01T14:03:47Z</time></trkpt><trkpt lat="58.056583" lon="38.832853"><ele>91.5</ele><time>2022-12-01T14:03:49Z</time></trkpt><trkpt lat="58.056532" lon="38.833015"><ele>91.1</ele><time>2022-12-01T14:03:51Z</time></trkpt><trkpt lat="58.056487" lon="38.833168"><ele>91.6</ele><time>2022-12-01T14:03:53Z</time></trkpt><trkpt lat="58.056445" lon="38.833287"><ele>92.1</ele><time>2022-12-01T14:03:55Z</time></trkpt><trkpt lat="58.056398" lon="38.833423"><ele>91.3</ele><time>2022-12-01T14:03:57Z</time></trkpt><trkpt lat="58.056357" lon="38.833537"><ele>90.5</ele><time>2022-12-01T14:03:59Z</time></trkpt><trkpt lat="58.056307" lon="38.833667"><ele>90.6</ele><time>2022-12-01T14:04:01Z</time></trkpt><trkpt lat="58.056268" lon="38.833788"><ele>91.0</ele><time>2022-12-01T14:04:03Z</time></trkpt><trkpt lat="58.056227" lon="38.833903"><ele>91.1</ele><time>2022-12-01T14:04:05Z</time></trkpt><trkpt lat="58.05619" lon="38.834033"><ele>91.1</ele><time>2022-12-01T14:04:07Z</time></trkpt><trkpt lat="58.056148" lon="38.834163"><ele>91.1</ele><time>2022-12-01T14:04:09Z</time></trkpt><trkpt lat="58.056107" lon="38.834297"><ele>91.6</ele><time>2022-12-01T14:04:11Z</time></trkpt><trkpt lat="58.056063" lon="38.834438"><ele>91.8</ele><time>2022-12-01T14:04:13Z</time></trkpt><trkpt lat="58.056013" lon="38.83458"><ele>90.8</ele><time>2022-12-01T14:04:15Z</time></trkpt><trkpt lat="58.055972" lon="38.834708"><ele>91.2</ele><time>2022-12-01T14:04:17Z</time></trkpt><trkpt lat="58.055933" lon="38.834832"><ele>91.5</ele><time>2022-12-01T14:04:19Z</time></trkpt><trkpt lat="58.055902" lon="38.834953"><ele>91.8</ele><time>2022-12-01T14:04:21Z</time></trkpt><trkpt lat="58.05587" lon="38.835077"><ele>91.2</ele><time>2022-12-01T14:04:23Z</time></trkpt><trkpt lat="58.055835" lon="38.835198"><ele>91.7</ele><time>2022-12-01T14:04:25Z</time></trkpt><trkpt lat="58.05578" lon="38.835373"><ele>91.9</ele><time>2022-12-01T14:04:28Z</time></trkpt><trkpt lat="58.055745" lon="38.835495"><ele>92.4</ele><time>2022-12-01T14:04:30Z</time></trkpt><trkpt lat="58.055703" lon="38.835617"><ele>91.8</ele><time>2022-12-01T14:04:32Z</time></trkpt><trkpt lat="58.055655" lon="38.83573"><ele>90.9</ele><time>2022-12-01T14:04:34Z</time></trkpt><trkpt lat="58.05561" lon="38.835857"><ele>90.4</ele><time>2022-12-01T14:04:36Z</time></trkpt><trkpt lat="58.055568" lon="38.835992"><ele>90.9</ele><time>2022-12-01T14:04:38Z</time></trkpt><trkpt lat="58.055528" lon="38.836118"><ele>91.4</ele><time>2022-12-01T14:04:40Z</time></trkpt><trkpt lat="58.055493" lon="38.83624"><ele>91.0</ele><time>2022-12-01T14:04:42Z</time></trkpt><trkpt lat="58.055452" lon="38.836367"><ele>90.0</ele><time>2022-12-01T14:04:44Z</time></trkpt><trkpt lat="58.055407" lon="38.8365"><ele>88.6</ele><time>2022-12-01T14:04:46Z</time></trkpt><trkpt lat="58.05537" lon="38.836628"><ele>88.9</ele><time>2022-12-01T14:04:48Z</time></trkpt><trkpt lat="58.055325" lon="38.836757"><ele>88.9</ele><time>2022-12-01T14:04:50Z</time></trkpt><trkpt lat="58.055275" lon="38.836917"><ele>89.1</ele><time>2022-12-01T14:04:52Z</time></trkpt><trkpt lat="58.055223" lon="38.837057"><ele>88.7</ele><time>2022-12-01T14:04:54Z</time></trkpt><trkpt lat="58.05518" lon="38.837205"><ele>89.0</ele><time>2022-12-01T14:04:56Z</time></trkpt><trkpt lat="58.05513" lon="38.837363"><ele>89.5</ele><time>2022-12-01T14:04:58Z</time></trkpt><trkpt lat="58.055087" lon="38.837523"><ele>89.5</ele><time>2022-12-01T14:05:00Z</time></trkpt><trkpt lat="58.055043" lon="38.837687"><ele>90.0</ele><time>2022-12-01T14:05:02Z</time></trkpt><trkpt lat="58.05499" lon="38.837795"><ele>89.6</ele><time>2022-12-01T14:05:04Z</time></trkpt><trkpt lat="58.054943" lon="38.837928"><ele>89.1</ele><time>2022-12-01T14:05:06Z</time></trkpt><trkpt lat="58.054908" lon="38.838052"><ele>90.6</ele><time>2022-12-01T14:05:08Z</time></trkpt><trkpt lat="58.054867" lon="38.838222"><ele>90.2</ele><time>2022-12-01T14:05:11Z</time></trkpt><trkpt lat="58.054832" lon="38.838342"><ele>90.6</ele><time>2022-12-01T14:05:13Z</time></trkpt><trkpt lat="58.054793" lon="38.838458"><ele>91.2</ele><time>2022-12-01T14:05:15Z</time></trkpt><trkpt lat="58.054745" lon="38.838617"><ele>91.9</ele><time>2022-12-01T14:05:18Z</time></trkpt><trkpt lat="58.054698" lon="38.83878"><ele>92.4</ele><time>2022-12-01T14:05:21Z</time></trkpt><trkpt lat="58.054657" lon="38.838898"><ele>92.2</ele><time>2022-12-01T14:05:23Z</time></trkpt><trkpt lat="58.054615" lon="38.83901"><ele>91.9</ele><time>2022-12-01T14:05:25Z</time></trkpt><trkpt lat="58.054575" lon="38.839123"><ele>91.5</ele><time>2022-12-01T14:05:27Z</time></trkpt><trkpt lat="58.054537" lon="38.839238"><ele>91.5</ele><time>2022-12-01T14:05:29Z</time></trkpt><trkpt lat="58.054475" lon="38.8394"><ele>91.9</ele><time>2022-12-01T14:05:32Z</time></trkpt><trkpt lat="58.054418" lon="38.83957"><ele>93.0</ele><time>2022-12-01T14:05:35Z</time></trkpt><trkpt lat="58.05438" lon="38.839697"><ele>93.4</ele><time>2022-12-01T14:05:37Z</time></trkpt><trkpt lat="58.05434" lon="38.839815"><ele>93.7</ele><time>2022-12-01T14:05:39Z</time></trkpt><trkpt lat="58.054287" lon="38.839977"><ele>92.9</ele><time>2022-12-01T14:05:42Z</time></trkpt><trkpt lat="58.054237" lon="38.840137"><ele>92.1</ele><time>2022-12-01T14:05:45Z</time></trkpt><trkpt lat="58.054178" lon="38.840312"><ele>91.9</ele><time>2022-12-01T14:05:48Z</time></trkpt><trkpt lat="58.054138" lon="38.84044"><ele>92.4</ele><time>2022-12-01T14:05:50Z</time></trkpt><trkpt lat="58.054092" lon="38.840597"><ele>93.8</ele><time>2022-12-01T14:05:52Z</time></trkpt><trkpt lat="58.054025" lon="38.840763"><ele>93.7</ele><time>2022-12-01T14:05:54Z</time></trkpt><trkpt lat="58.053977" lon="38.840923"><ele>93.9</ele><time>2022-12-01T14:05:56Z</time></trkpt><trkpt lat="58.053932" lon="38.841043"><ele>93.6</ele><time>2022-12-01T14:05:57Z</time></trkpt><trkpt lat="58.053873" lon="38.841227"><ele>92.7</ele><time>2022-12-01T14:05:59Z</time></trkpt><trkpt lat="58.05382" lon="38.841395"><ele>93.0</ele><time>2022-12-01T14:06:01Z</time></trkpt><trkpt lat="58.05374" lon="38.841548"><ele>92.0</ele><time>2022-12-01T14:06:03Z</time></trkpt><trkpt lat="58.053707" lon="38.841668"><ele>93.0</ele><time>2022-12-01T14:06:05Z</time></trkpt><trkpt lat="58.053663" lon="38.841812"><ele>93.9</ele><time>2022-12-01T14:06:07Z</time></trkpt><trkpt lat="58.053622" lon="38.841943"><ele>93.8</ele><time>2022-12-01T14:06:09Z</time></trkpt><trkpt lat="58.053583" lon="38.842065"><ele>92.0</ele><time>2022-12-01T14:06:11Z</time></trkpt><trkpt lat="58.053538" lon="38.84222"><ele>91.9</ele><time>2022-12-01T14:06:13Z</time></trkpt><trkpt lat="58.053468" lon="38.84236"><ele>90.8</ele><time>2022-12-01T14:06:15Z</time></trkpt><trkpt lat="58.053413" lon="38.842485"><ele>91.3</ele><time>2022-12-01T14:06:17Z</time></trkpt><trkpt lat="58.053355" lon="38.842648"><ele>90.5</ele><time>2022-12-01T14:06:19Z</time></trkpt><trkpt lat="58.053297" lon="38.842812"><ele>90.2</ele><time>2022-12-01T14:06:21Z</time></trkpt><trkpt lat="58.053238" lon="38.842977"><ele>89.7</ele><time>2022-12-01T14:06:23Z</time></trkpt><trkpt lat="58.053182" lon="38.843133"><ele>90.0</ele><time>2022-12-01T14:06:25Z</time></trkpt><trkpt lat="58.053138" lon="38.843263"><ele>90.1</ele><time>2022-12-01T14:06:27Z</time></trkpt><trkpt lat="58.053075" lon="38.843417"><ele>90.3</ele><time>2022-12-01T14:06:30Z</time></trkpt><trkpt lat="58.05306" lon="38.84356"><ele>89.0</ele><time>2022-12-01T14:06:33Z</time></trkpt><trkpt lat="58.052995" lon="38.84371"><ele>87.8</ele><time>2022-12-01T14:06:36Z</time></trkpt><trkpt lat="58.05293" lon="38.843863"><ele>88.1</ele><time>2022-12-01T14:06:39Z</time></trkpt><trkpt lat="58.052883" lon="38.843978"><ele>89.0</ele><time>2022-12-01T14:06:41Z</time></trkpt><trkpt lat="58.05284" lon="38.844102"><ele>88.5</ele><time>2022-12-01T14:06:43Z</time></trkpt><trkpt lat="58.052792" lon="38.844212"><ele>88.2</ele><time>2022-12-01T14:06:45Z</time></trkpt><trkpt lat="58.052728" lon="38.844278"><ele>88.7</ele><time>2022-12-01T14:06:47Z</time></trkpt><trkpt lat="58.052643" lon="38.844288"><ele>89.7</ele><time>2022-12-01T14:06:50Z</time></trkpt><trkpt lat="58.052568" lon="38.8443"><ele>90.5</ele><time>2022-12-01T14:06:53Z</time></trkpt><trkpt lat="58.052483" lon="38.844317"><ele>91.8</ele><time>2022-12-01T14:06:56Z</time></trkpt><trkpt lat="58.052403" lon="38.84435"><ele>92.7</ele><time>2022-12-01T14:06:59Z</time></trkpt><trkpt lat="58.05232" lon="38.844407"><ele>92.7</ele><time>2022-12-01T14:07:02Z</time></trkpt><trkpt lat="58.05223" lon="38.84446"><ele>92.9</ele><time>2022-12-01T14:07:05Z</time></trkpt><trkpt lat="58.052162" lon="38.84451"><ele>93.3</ele><time>2022-12-01T14:07:08Z</time></trkpt><trkpt lat="58.05207" lon="38.844552"><ele>92.9</ele><time>2022-12-01T14:07:12Z</time></trkpt><trkpt lat="58.05198" lon="38.84461"><ele>93.6</ele><time>2022-12-01T14:07:16Z</time></trkpt><trkpt lat="58.051897" lon="38.844647"><ele>94.6</ele><time>2022-12-01T14:07:19Z</time></trkpt><trkpt lat="58.051818" lon="38.844665"><ele>95.0</ele><time>2022-12-01T14:07:22Z</time></trkpt><trkpt lat="58.051727" lon="38.844667"><ele>94.6</ele><time>2022-12-01T14:07:25Z</time></trkpt><trkpt lat="58.051657" lon="38.844733"><ele>94.6</ele><time>2022-12-01T14:07:28Z</time></trkpt><trkpt lat="58.051618" lon="38.844868"><ele>95.3</ele><time>2022-12-01T14:07:31Z</time></trkpt><trkpt lat="58.051605" lon="38.845045"><ele>93.8</ele><time>2022-12-01T14:07:35Z</time></trkpt><trkpt lat="58.05158" lon="38.845185"><ele>92.4</ele><time>2022-12-01T14:07:38Z</time></trkpt><trkpt lat="58.051552" lon="38.84533"><ele>91.6</ele><time>2022-12-01T14:07:41Z</time></trkpt><trkpt lat="58.051512" lon="38.845477"><ele>92.0</ele><time>2022-12-01T14:07:44Z</time></trkpt><trkpt lat="58.05148" lon="38.845642"><ele>92.0</ele><time>2022-12-01T14:07:47Z</time></trkpt><trkpt lat="58.051448" lon="38.845813"><ele>92.0</ele><time>2022-12-01T14:07:50Z</time></trkpt><trkpt lat="58.051412" lon="38.84598"><ele>93.3</ele><time>2022-12-01T14:07:53Z</time></trkpt><trkpt lat="58.051377" lon="38.846153"><ele>93.5</ele><time>2022-12-01T14:07:56Z</time></trkpt><trkpt lat="58.05135" lon="38.846332"><ele>92.5</ele><time>2022-12-01T14:07:59Z</time></trkpt><trkpt lat="58.051325" lon="38.846487"><ele>91.1</ele><time>2022-12-01T14:08:02Z</time></trkpt><trkpt lat="58.051302" lon="38.846647"><ele>91.4</ele><time>2022-12-01T14:08:06Z</time></trkpt><trkpt lat="58.051213" lon="38.846608"><ele>95.1</ele><time>2022-12-01T14:08:22Z</time></trkpt><trkpt lat="58.051128" lon="38.846523"><ele>95.9</ele><time>2022-12-01T14:08:25Z</time></trkpt><trkpt lat="58.051047" lon="38.846495"><ele>96.1</ele><time>2022-12-01T14:08:28Z</time></trkpt><trkpt lat="58.050972" lon="38.846465"><ele>96.3</ele><time>2022-12-01T14:08:31Z</time></trkpt><trkpt lat="58.050885" lon="38.846415"><ele>96.8</ele><time>2022-12-01T14:08:34Z</time></trkpt><trkpt lat="58.050795" lon="38.84636"><ele>97.3</ele><time>2022-12-01T14:08:37Z</time></trkpt><trkpt lat="58.050725" lon="38.846313"><ele>97.5</ele><time>2022-12-01T14:08:39Z</time></trkpt><trkpt lat="58.050655" lon="38.846272"><ele>97.7</ele><time>2022-12-01T14:08:41Z</time></trkpt><trkpt lat="58.05058" lon="38.846215"><ele>98.1</ele><time>2022-12-01T14:08:43Z</time></trkpt><trkpt lat="58.050503" lon="38.846152"><ele>98.2</ele><time>2022-12-01T14:08:45Z</time></trkpt><trkpt lat="58.050435" lon="38.846098"><ele>98.4</ele><time>2022-12-01T14:08:47Z</time></trkpt><trkpt lat="58.050353" lon="38.846073"><ele>98.6</ele><time>2022-12-01T14:08:50Z</time></trkpt><trkpt lat="58.05028" lon="38.84608"><ele>99.4</ele><time>2022-12-01T14:08:56Z</time></trkpt><trkpt lat="58.050193" lon="38.846"><ele>99.0</ele><time>2022-12-01T14:09:42Z</time></trkpt><trkpt lat="58.050122" lon="38.845933"><ele>98.3</ele><time>2022-12-01T14:09:45Z</time></trkpt><trkpt lat="58.050035" lon="38.845867"><ele>98.7</ele><time>2022-12-01T14:09:48Z</time></trkpt><trkpt lat="58.04995" lon="38.845808"><ele>98.9</ele><time>2022-12-01T14:09:51Z</time></trkpt><trkpt lat="58.049873" lon="38.845792"><ele>98.3</ele><time>2022-12-01T14:09:54Z</time></trkpt><trkpt lat="58.049795" lon="38.845732"><ele>98.4</ele><time>2022-12-01T14:09:57Z</time></trkpt><trkpt lat="58.049728" lon="38.845675"><ele>98.1</ele><time>2022-12-01T14:09:59Z</time></trkpt><trkpt lat="58.049643" lon="38.845652"><ele>98.2</ele><time>2022-12-01T14:10:02Z</time></trkpt><trkpt lat="58.049553" lon="38.845595"><ele>98.5</ele><time>2022-12-01T14:10:05Z</time></trkpt><trkpt lat="58.049463" lon="38.84554"><ele>98.4</ele><time>2022-12-01T14:10:08Z</time></trkpt><trkpt lat="58.049395" lon="38.845473"><ele>98.9</ele><time>2022-12-01T14:10:11Z</time></trkpt><trkpt lat="58.049302" lon="38.845415"><ele>100.2</ele><time>2022-12-01T14:10:15Z</time></trkpt><trkpt lat="58.049223" lon="38.8454"><ele>100.3</ele><time>2022-12-01T14:10:18Z</time></trkpt><trkpt lat="58.049143" lon="38.845392"><ele>98.4</ele><time>2022-12-01T14:10:23Z</time></trkpt><trkpt lat="58.049135" lon="38.84531"><ele>101.4</ele><time>2022-12-01T16:11:12Z</time></trkpt><trkpt lat="58.049367" lon="38.845093"><ele>101.4</ele><time>2022-12-01T16:11:15Z</time></trkpt><trkpt lat="58.049192" lon="38.84524"><ele>104.2</ele><time>2022-12-01T16:11:19Z</time></trkpt><trkpt lat="58.04926" lon="38.84533"><ele>99.4</ele><time>2022-12-01T16:11:27Z</time></trkpt><trkpt lat="58.049345" lon="38.845387"><ele>99.8</ele><time>2022-12-01T16:11:30Z</time></trkpt><trkpt lat="58.049418" lon="38.845447"><ele>100.9</ele><time>2022-12-01T16:11:33Z</time></trkpt><trkpt lat="58.049512" lon="38.845497"><ele>102.3</ele><time>2022-12-01T16:11:37Z</time></trkpt><trkpt lat="58.04958" lon="38.845537"><ele>101.7</ele><time>2022-12-01T16:11:40Z</time></trkpt><trkpt lat="58.049662" lon="38.845595"><ele>101.8</ele><time>2022-12-01T16:11:44Z</time></trkpt><trkpt lat="58.049743" lon="38.845642"><ele>101.1</ele><time>2022-12-01T16:11:47Z</time></trkpt><trkpt lat="58.049827" lon="38.845687"><ele>101.3</ele><time>2022-12-01T16:11:51Z</time></trkpt><trkpt lat="58.049905" lon="38.845747"><ele>101.4</ele><time>2022-12-01T16:11:54Z</time></trkpt><trkpt lat="58.049983" lon="38.845803"><ele>101.3</ele><time>2022-12-01T16:11:57Z</time></trkpt><trkpt lat="58.050053" lon="38.845835"><ele>101.1</ele><time>2022-12-01T16:12:00Z</time></trkpt><trkpt lat="58.050125" lon="38.845895"><ele>101.2</ele><time>2022-12-01T16:12:03Z</time></trkpt><trkpt lat="58.050197" lon="38.845942"><ele>101.0</ele><time>2022-12-01T16:12:06Z</time></trkpt><trkpt lat="58.050272" lon="38.845958"><ele>100.9</ele><time>2022-12-01T16:12:11Z</time></trkpt><trkpt lat="58.050327" lon="38.846048"><ele>101.6</ele><time>2022-12-01T16:12:43Z</time></trkpt><trkpt lat="58.050415" lon="38.84608"><ele>101.5</ele><time>2022-12-01T16:12:46Z</time></trkpt><trkpt lat="58.050507" lon="38.846118"><ele>101.8</ele><time>2022-12-01T16:12:50Z</time></trkpt><trkpt lat="58.050577" lon="38.84616"><ele>102.2</ele><time>2022-12-01T16:12:53Z</time></trkpt><trkpt lat="58.050647" lon="38.846203"><ele>102.4</ele><time>2022-12-01T16:12:56Z</time></trkpt><trkpt lat="58.050732" lon="38.846248"><ele>102.7</ele><time>2022-12-01T16:12:59Z</time></trkpt><trkpt lat="58.050828" lon="38.8463"><ele>103.0</ele><time>2022-12-01T16:13:02Z</time></trkpt><trkpt lat="58.050933" lon="38.846345"><ele>102.2</ele><time>2022-12-01T16:13:05Z</time></trkpt><trkpt lat="58.051018" lon="38.84637"><ele>101.7</ele><time>2022-12-01T16:13:08Z</time></trkpt><trkpt lat="58.051112" lon="38.846448"><ele>101.1</ele><time>2022-12-01T16:13:11Z</time></trkpt><trkpt lat="58.051172" lon="38.846538"><ele>100.1</ele><time>2022-12-01T16:13:36Z</time></trkpt><trkpt lat="58.051262" lon="38.846547"><ele>99.7</ele><time>2022-12-01T16:13:39Z</time></trkpt><trkpt lat="58.051337" lon="38.846498"><ele>99.6</ele><time>2022-12-01T16:13:42Z</time></trkpt><trkpt lat="58.051367" lon="38.846345"><ele>98.8</ele><time>2022-12-01T16:13:46Z</time></trkpt><trkpt lat="58.051385" lon="38.846212"><ele>98.6</ele><time>2022-12-01T16:13:49Z</time></trkpt><trkpt lat="58.051413" lon="38.846048"><ele>99.3</ele><time>2022-12-01T16:13:52Z</time></trkpt><trkpt lat="58.051443" lon="38.845865"><ele>99.1</ele><time>2022-12-01T16:13:55Z</time></trkpt><trkpt lat="58.051478" lon="38.84569"><ele>99.0</ele><time>2022-12-01T16:13:58Z</time></trkpt><trkpt lat="58.05151" lon="38.845497"><ele>99.8</ele><time>2022-12-01T16:14:01Z</time></trkpt><trkpt lat="58.05154" lon="38.845353"><ele>99.9</ele><time>2022-12-01T16:14:03Z</time></trkpt><trkpt lat="58.051573" lon="38.8452"><ele>99.8</ele><time>2022-12-01T16:14:05Z</time></trkpt><trkpt lat="58.05159" lon="38.845037"><ele>99.4</ele><time>2022-12-01T16:14:07Z</time></trkpt><trkpt lat="58.051625" lon="38.844858"><ele>98.9</ele><time>2022-12-01T16:14:09Z</time></trkpt><trkpt lat="58.05167" lon="38.844688"><ele>98.6</ele><time>2022-12-01T16:14:12Z</time></trkpt><trkpt lat="58.051778" lon="38.84463"><ele>98.7</ele><time>2022-12-01T16:14:15Z</time></trkpt><trkpt lat="58.051875" lon="38.844642"><ele>98.4</ele><time>2022-12-01T16:14:18Z</time></trkpt><trkpt lat="58.051962" lon="38.844585"><ele>98.1</ele><time>2022-12-01T16:14:20Z</time></trkpt><trkpt lat="58.05207" lon="38.844538"><ele>98.8</ele><time>2022-12-01T16:14:22Z</time></trkpt><trkpt lat="58.052192" lon="38.844482"><ele>98.5</ele><time>2022-12-01T16:14:24Z</time></trkpt><trkpt lat="58.05231" lon="38.844432"><ele>97.8</ele><time>2022-12-01T16:14:26Z</time></trkpt><trkpt lat="58.052405" lon="38.84439"><ele>96.7</ele><time>2022-12-01T16:14:28Z</time></trkpt><trkpt lat="58.052518" lon="38.844353"><ele>95.4</ele><time>2022-12-01T16:14:31Z</time></trkpt><trkpt lat="58.052627" lon="38.844283"><ele>95.6</ele><time>2022-12-01T16:14:33Z</time></trkpt><trkpt lat="58.052732" lon="38.844252"><ele>94.0</ele><time>2022-12-01T16:14:36Z</time></trkpt><trkpt lat="58.052802" lon="38.844165"><ele>92.5</ele><time>2022-12-01T16:14:38Z</time></trkpt><trkpt lat="58.052847" lon="38.84403"><ele>91.4</ele><time>2022-12-01T16:14:40Z</time></trkpt><trkpt lat="58.052898" lon="38.84384"><ele>90.6</ele><time>2022-12-01T16:14:42Z</time></trkpt><trkpt lat="58.052963" lon="38.84365"><ele>89.9</ele><time>2022-12-01T16:14:44Z</time></trkpt><trkpt lat="58.053038" lon="38.84347"><ele>90.0</ele><time>2022-12-01T16:14:46Z</time></trkpt><trkpt lat="58.053118" lon="38.843248"><ele>89.7</ele><time>2022-12-01T16:14:48Z</time></trkpt><trkpt lat="58.053183" lon="38.84302"><ele>89.7</ele><time>2022-12-01T16:14:50Z</time></trkpt><trkpt lat="58.053225" lon="38.842898"><ele>90.0</ele><time>2022-12-01T16:14:51Z</time></trkpt><trkpt lat="58.053293" lon="38.842675"><ele>89.7</ele><time>2022-12-01T16:14:53Z</time></trkpt><trkpt lat="58.053368" lon="38.842457"><ele>88.8</ele><time>2022-12-01T16:14:55Z</time></trkpt><trkpt lat="58.053402" lon="38.842333"><ele>88.9</ele><time>2022-12-01T16:14:56Z</time></trkpt><trkpt lat="58.05345" lon="38.842215"><ele>88.4</ele><time>2022-12-01T16:14:57Z</time></trkpt><trkpt lat="58.053518" lon="38.841995"><ele>89.7</ele><time>2022-12-01T16:14:59Z</time></trkpt><trkpt lat="58.05359" lon="38.841787"><ele>88.8</ele><time>2022-12-01T16:15:01Z</time></trkpt><trkpt lat="58.053663" lon="38.8416"><ele>88.8</ele><time>2022-12-01T16:15:03Z</time></trkpt><trkpt lat="58.053732" lon="38.841415"><ele>90.1</ele><time>2022-12-01T16:15:05Z</time></trkpt><trkpt lat="58.053777" lon="38.841207"><ele>91.0</ele><time>2022-12-01T16:15:07Z</time></trkpt><trkpt lat="58.053853" lon="38.841078"><ele>91.6</ele><time>2022-12-01T16:15:09Z</time></trkpt><trkpt lat="58.053907" lon="38.840922"><ele>91.5</ele><time>2022-12-01T16:15:11Z</time></trkpt><trkpt lat="58.053953" lon="38.840785"><ele>90.5</ele><time>2022-12-01T16:15:13Z</time></trkpt><trkpt lat="58.054005" lon="38.840625"><ele>90.8</ele><time>2022-12-01T16:15:15Z</time></trkpt><trkpt lat="58.054077" lon="38.840458"><ele>91.6</ele><time>2022-12-01T16:15:17Z</time></trkpt><trkpt lat="58.05414" lon="38.840302"><ele>91.8</ele><time>2022-12-01T16:15:19Z</time></trkpt><trkpt lat="58.054168" lon="38.840138"><ele>91.5</ele><time>2022-12-01T16:15:21Z</time></trkpt><trkpt lat="58.05421" lon="38.84001"><ele>89.5</ele><time>2022-12-01T16:15:23Z</time></trkpt><trkpt lat="58.054255" lon="38.839872"><ele>88.5</ele><time>2022-12-01T16:15:26Z</time></trkpt><trkpt lat="58.05431" lon="38.839733"><ele>89.3</ele><time>2022-12-01T16:15:29Z</time></trkpt><trkpt lat="58.054363" lon="38.839602"><ele>89.5</ele><time>2022-12-01T16:15:32Z</time></trkpt><trkpt lat="58.054417" lon="38.839463"><ele>89.8</ele><time>2022-12-01T16:15:35Z</time></trkpt><trkpt lat="58.054473" lon="38.839297"><ele>90.0</ele><time>2022-12-01T16:15:38Z</time></trkpt><trkpt lat="58.054512" lon="38.839172"><ele>89.8</ele><time>2022-12-01T16:15:40Z</time></trkpt><trkpt lat="58.05455" lon="38.839053"><ele>89.7</ele><time>2022-12-01T16:15:42Z</time></trkpt><trkpt lat="58.054588" lon="38.838938"><ele>89.5</ele><time>2022-12-01T16:15:44Z</time></trkpt><trkpt lat="58.054635" lon="38.838825"><ele>90.1</ele><time>2022-12-01T16:15:46Z</time></trkpt><trkpt lat="58.054705" lon="38.83867"><ele>90.4</ele><time>2022-12-01T16:15:49Z</time></trkpt><trkpt lat="58.054777" lon="38.838525"><ele>91.2</ele><time>2022-12-01T16:15:52Z</time></trkpt><trkpt lat="58.05482" lon="38.83841"><ele>91.6</ele><time>2022-12-01T16:15:54Z</time></trkpt><trkpt lat="58.05486" lon="38.838292"><ele>91.0</ele><time>2022-12-01T16:15:56Z</time></trkpt><trkpt lat="58.054905" lon="38.838175"><ele>90.8</ele><time>2022-12-01T16:15:59Z</time></trkpt><trkpt lat="58.054958" lon="38.838267"><ele>89.2</ele><time>2022-12-01T16:16:07Z</time></trkpt><trkpt lat="58.054882" lon="38.838297"><ele>89.0</ele><time>2022-12-01T16:17:47Z</time></trkpt><trkpt lat="58.054948" lon="38.838243"><ele>93.6</ele><time>2022-12-01T16:23:07Z</time></trkpt><trkpt lat="58.054897" lon="38.83814"><ele>91.3</ele><time>2022-12-01T16:29:49Z</time></trkpt><trkpt lat="58.05494" lon="38.83801"><ele>91.8</ele><time>2022-12-01T16:29:54Z</time></trkpt><trkpt lat="58.054987" lon="38.837897"><ele>91.6</ele><time>2022-12-01T16:29:57Z</time></trkpt><trkpt lat="58.055035" lon="38.837743"><ele>91.2</ele><time>2022-12-01T16:30:00Z</time></trkpt><trkpt lat="58.055085" lon="38.837578"><ele>91.9</ele><time>2022-12-01T16:30:03Z</time></trkpt><trkpt lat="58.055125" lon="38.83746"><ele>92.0</ele><time>2022-12-01T16:30:05Z</time></trkpt><trkpt lat="58.055168" lon="38.83734"><ele>92.5</ele><time>2022-12-01T16:30:07Z</time></trkpt><trkpt lat="58.055208" lon="38.837223"><ele>92.3</ele><time>2022-12-01T16:30:09Z</time></trkpt><trkpt lat="58.055273" lon="38.837075"><ele>92.0</ele><time>2022-12-01T16:30:12Z</time></trkpt><trkpt lat="58.055318" lon="38.836915"><ele>92.0</ele><time>2022-12-01T16:30:15Z</time></trkpt><trkpt lat="58.05537" lon="38.836763"><ele>90.7</ele><time>2022-12-01T16:30:18Z</time></trkpt><trkpt lat="58.055435" lon="38.836608"><ele>90.8</ele><time>2022-12-01T16:30:21Z</time></trkpt><trkpt lat="58.05547" lon="38.836482"><ele>91.5</ele><time>2022-12-01T16:30:23Z</time></trkpt><trkpt lat="58.05552" lon="38.836317"><ele>90.7</ele><time>2022-12-01T16:30:26Z</time></trkpt><trkpt lat="58.05556" lon="38.836192"><ele>91.5</ele><time>2022-12-01T16:30:28Z</time></trkpt><trkpt lat="58.055607" lon="38.836048"><ele>92.4</ele><time>2022-12-01T16:30:30Z</time></trkpt><trkpt lat="58.055652" lon="38.8359"><ele>93.0</ele><time>2022-12-01T16:30:32Z</time></trkpt><trkpt lat="58.055698" lon="38.835773"><ele>93.3</ele><time>2022-12-01T16:30:34Z</time></trkpt><trkpt lat="58.055742" lon="38.835635"><ele>93.3</ele><time>2022-12-01T16:30:36Z</time></trkpt><trkpt lat="58.055783" lon="38.83549"><ele>93.6</ele><time>2022-12-01T16:30:38Z</time></trkpt><trkpt lat="58.055828" lon="38.835348"><ele>94.0</ele><time>2022-12-01T16:30:40Z</time></trkpt><trkpt lat="58.055882" lon="38.835203"><ele>94.5</ele><time>2022-12-01T16:30:42Z</time></trkpt><trkpt lat="58.055932" lon="38.835063"><ele>94.6</ele><time>2022-12-01T16:30:44Z</time></trkpt><trkpt lat="58.05597" lon="38.834923"><ele>95.0</ele><time>2022-12-01T16:30:46Z</time></trkpt><trkpt lat="58.056005" lon="38.834778"><ele>94.5</ele><time>2022-12-01T16:30:48Z</time></trkpt><trkpt lat="58.056047" lon="38.834622"><ele>94.6</ele><time>2022-12-01T16:30:50Z</time></trkpt><trkpt lat="58.056097" lon="38.834462"><ele>94.1</ele><time>2022-12-01T16:30:52Z</time></trkpt><trkpt lat="58.05614" lon="38.83432"><ele>94.6</ele><time>2022-12-01T16:30:54Z</time></trkpt><trkpt lat="58.05619" lon="38.834165"><ele>94.6</ele><time>2022-12-01T16:30:56Z</time></trkpt><trkpt lat="58.05625" lon="38.834062"><ele>94.6</ele><time>2022-12-01T16:30:58Z</time></trkpt><trkpt lat="58.056315" lon="38.833947"><ele>94.3</ele><time>2022-12-01T16:31:00Z</time></trkpt><trkpt lat="58.05636" lon="38.833787"><ele>93.2</ele><time>2022-12-01T16:31:02Z</time></trkpt><trkpt lat="58.056393" lon="38.833638"><ele>92.9</ele><time>2022-12-01T16:31:04Z</time></trkpt><trkpt lat="58.056438" lon="38.833493"><ele>92.5</ele><time>2022-12-01T16:31:06Z</time></trkpt><trkpt lat="58.056512" lon="38.833427"><ele>94.7</ele><time>2022-12-01T16:31:08Z</time></trkpt><trkpt lat="58.05657" lon="38.833302"><ele>94.2</ele><time>2022-12-01T16:31:10Z</time></trkpt><trkpt lat="58.056603" lon="38.833177"><ele>94.1</ele><time>2022-12-01T16:31:12Z</time></trkpt><trkpt lat="58.056607" lon="38.832985"><ele>92.8</ele><time>2022-12-01T16:31:14Z</time></trkpt><trkpt lat="58.056648" lon="38.83283"><ele>93.1</ele><time>2022-12-01T16:31:17Z</time></trkpt><trkpt lat="58.056698" lon="38.832692"><ele>93.6</ele><time>2022-12-01T16:31:20Z</time></trkpt><trkpt lat="58.056758" lon="38.832542"><ele>94.6</ele><time>2022-12-01T16:31:23Z</time></trkpt><trkpt lat="58.056797" lon="38.832425"><ele>95.1</ele><time>2022-12-01T16:31:25Z</time></trkpt><trkpt lat="58.056835" lon="38.832308"><ele>95.7</ele><time>2022-12-01T16:31:27Z</time></trkpt><trkpt lat="58.056873" lon="38.832188"><ele>95.7</ele><time>2022-12-01T16:31:29Z</time></trkpt><trkpt lat="58.05691" lon="38.832065"><ele>96.1</ele><time>2022-12-01T16:31:31Z</time></trkpt><trkpt lat="58.056963" lon="38.831903"><ele>94.3</ele><time>2022-12-01T16:31:34Z</time></trkpt><trkpt lat="58.057018" lon="38.83173"><ele>93.3</ele><time>2022-12-01T16:31:37Z</time></trkpt><trkpt lat="58.057057" lon="38.831607"><ele>93.9</ele><time>2022-12-01T16:31:39Z</time></trkpt><trkpt lat="58.057093" lon="38.831483"><ele>94.7</ele><time>2022-12-01T16:31:41Z</time></trkpt><trkpt lat="58.057143" lon="38.831338"><ele>93.9</ele><time>2022-12-01T16:31:44Z</time></trkpt><trkpt lat="58.057205" lon="38.83126"><ele>93.5</ele><time>2022-12-01T16:31:47Z</time></trkpt><trkpt lat="58.057277" lon="38.831183"><ele>93.7</ele><time>2022-12-01T16:31:50Z</time></trkpt><trkpt lat="58.057362" lon="38.831088"><ele>93.9</ele><time>2022-12-01T16:31:53Z</time></trkpt><trkpt lat="58.05745" lon="38.830987"><ele>94.0</ele><time>2022-12-01T16:31:56Z</time></trkpt><trkpt lat="58.057517" lon="38.830908"><ele>95.0</ele><time>2022-12-01T16:31:58Z</time></trkpt><trkpt lat="58.057597" lon="38.830783"><ele>94.7</ele><time>2022-12-01T16:32:01Z</time></trkpt><trkpt lat="58.057672" lon="38.830628"><ele>94.0</ele><time>2022-12-01T16:32:05Z</time></trkpt><trkpt lat="58.057713" lon="38.83048"><ele>93.0</ele><time>2022-12-01T16:32:08Z</time></trkpt><trkpt lat="58.057767" lon="38.830375"><ele>93.5</ele><time>2022-12-01T16:32:11Z</time></trkpt><trkpt lat="58.057843" lon="38.83029"><ele>94.3</ele><time>2022-12-01T16:32:14Z</time></trkpt><trkpt lat="58.057918" lon="38.830188"><ele>94.7</ele><time>2022-12-01T16:32:17Z</time></trkpt><trkpt lat="58.057985" lon="38.830073"><ele>94.0</ele><time>2022-12-01T16:32:20Z</time></trkpt><trkpt lat="58.058058" lon="38.829958"><ele>93.7</ele><time>2022-12-01T16:32:23Z</time></trkpt><trkpt lat="58.058133" lon="38.829845"><ele>92.6</ele><time>2022-12-01T16:32:26Z</time></trkpt><trkpt lat="58.058208" lon="38.829725"><ele>93.0</ele><time>2022-12-01T16:32:29Z</time></trkpt><trkpt lat="58.058285" lon="38.829538"><ele>93.1</ele><time>2022-12-01T16:32:32Z</time></trkpt><trkpt lat="58.058358" lon="38.829418"><ele>92.5</ele><time>2022-12-01T16:32:34Z</time></trkpt><trkpt lat="58.058433" lon="38.829302"><ele>92.7</ele><time>2022-12-01T16:32:36Z</time></trkpt><trkpt lat="58.058508" lon="38.829223"><ele>93.2</ele><time>2022-12-01T16:32:38Z</time></trkpt><trkpt lat="58.058578" lon="38.829142"><ele>92.7</ele><time>2022-12-01T16:32:40Z</time></trkpt><trkpt lat="58.05863" lon="38.829025"><ele>92.1</ele><time>2022-12-01T16:32:42Z</time></trkpt><trkpt lat="58.058708" lon="38.828908"><ele>92.9</ele><time>2022-12-01T16:32:45Z</time></trkpt><trkpt lat="58.058742" lon="38.828765"><ele>94.1</ele><time>2022-12-01T16:32:48Z</time></trkpt><trkpt lat="58.058778" lon="38.828647"><ele>94.6</ele><time>2022-12-01T16:32:51Z</time></trkpt><trkpt lat="58.058815" lon="38.828503"><ele>94.2</ele><time>2022-12-01T16:32:54Z</time></trkpt><trkpt lat="58.058848" lon="38.828358"><ele>93.8</ele><time>2022-12-01T16:32:57Z</time></trkpt><trkpt lat="58.058885" lon="38.828212"><ele>94.5</ele><time>2022-12-01T16:33:00Z</time></trkpt><trkpt lat="58.058927" lon="38.828083"><ele>94.9</ele><time>2022-12-01T16:33:03Z</time></trkpt><trkpt lat="58.058972" lon="38.827912"><ele>95.4</ele><time>2022-12-01T16:33:06Z</time></trkpt><trkpt lat="58.059022" lon="38.827767"><ele>96.7</ele><time>2022-12-01T16:33:09Z</time></trkpt><trkpt lat="58.059073" lon="38.827612"><ele>97.1</ele><time>2022-12-01T16:33:12Z</time></trkpt><trkpt lat="58.05912" lon="38.827427"><ele>97.2</ele><time>2022-12-01T16:33:15Z</time></trkpt><trkpt lat="58.05916" lon="38.8273"><ele>97.7</ele><time>2022-12-01T16:33:17Z</time></trkpt><trkpt lat="58.059223" lon="38.827147"><ele>97.4</ele><time>2022-12-01T16:33:20Z</time></trkpt><trkpt lat="58.059268" lon="38.827035"><ele>98.0</ele><time>2022-12-01T16:33:22Z</time></trkpt><trkpt lat="58.059315" lon="38.826927"><ele>98.4</ele><time>2022-12-01T16:33:24Z</time></trkpt><trkpt lat="58.059358" lon="38.82681"><ele>97.8</ele><time>2022-12-01T16:33:26Z</time></trkpt><trkpt lat="58.059403" lon="38.826698"><ele>97.9</ele><time>2022-12-01T16:33:28Z</time></trkpt><trkpt lat="58.05945" lon="38.826592"><ele>97.5</ele><time>2022-12-01T16:33:30Z</time></trkpt><trkpt lat="58.059503" lon="38.82649"><ele>97.0</ele><time>2022-12-01T16:33:32Z</time></trkpt><trkpt lat="58.059552" lon="38.826333"><ele>97.3</ele><time>2022-12-01T16:33:35Z</time></trkpt><trkpt lat="58.059545" lon="38.82615"><ele>97.5</ele><time>2022-12-01T16:33:38Z</time></trkpt><trkpt lat="58.059527" lon="38.82595"><ele>96.6</ele><time>2022-12-01T16:33:41Z</time></trkpt><trkpt lat="58.059512" lon="38.825762"><ele>97.6</ele><time>2022-12-01T16:33:44Z</time></trkpt><trkpt lat="58.05947" lon="38.825598"><ele>97.7</ele><time>2022-12-01T16:33:47Z</time></trkpt><trkpt lat="58.05941" lon="38.825442"><ele>97.9</ele><time>2022-12-01T16:33:50Z</time></trkpt><trkpt lat="58.059338" lon="38.825282"><ele>96.6</ele><time>2022-12-01T16:33:53Z</time></trkpt><trkpt lat="58.059283" lon="38.825167"><ele>96.9</ele><time>2022-12-01T16:33:55Z</time></trkpt><trkpt lat="58.059227" lon="38.825053"><ele>96.1</ele><time>2022-12-01T16:33:57Z</time></trkpt><trkpt lat="58.059175" lon="38.824937"><ele>96.1</ele><time>2022-12-01T16:33:59Z</time></trkpt><trkpt lat="58.059112" lon="38.824787"><ele>95.5</ele><time>2022-12-01T16:34:02Z</time></trkpt><trkpt lat="58.059072" lon="38.824643"><ele>95.6</ele><time>2022-12-01T16:34:05Z</time></trkpt><trkpt lat="58.05907" lon="38.824483"><ele>95.7</ele><time>2022-12-01T16:34:08Z</time></trkpt><trkpt lat="58.059135" lon="38.824367"><ele>95.9</ele><time>2022-12-01T16:34:11Z</time></trkpt><trkpt lat="58.059217" lon="38.824263"><ele>96.2</ele><time>2022-12-01T16:34:14Z</time></trkpt><trkpt lat="58.059277" lon="38.824187"><ele>96.8</ele><time>2022-12-01T16:34:16Z</time></trkpt><trkpt lat="58.059333" lon="38.824083"><ele>96.9</ele><time>2022-12-01T16:34:18Z</time></trkpt><trkpt lat="58.059397" lon="38.823962"><ele>97.3</ele><time>2022-12-01T16:34:20Z</time></trkpt><trkpt lat="58.059452" lon="38.823833"><ele>97.0</ele><time>2022-12-01T16:34:22Z</time></trkpt><trkpt lat="58.0595" lon="38.823717"><ele>96.9</ele><time>2022-12-01T16:34:24Z</time></trkpt><trkpt lat="58.05955" lon="38.823552"><ele>97.7</ele><time>2022-12-01T16:34:26Z</time></trkpt><trkpt lat="58.05962" lon="38.823373"><ele>98.6</ele><time>2022-12-01T16:34:28Z</time></trkpt><trkpt lat="58.059663" lon="38.823192"><ele>99.1</ele><time>2022-12-01T16:34:30Z</time></trkpt><trkpt lat="58.059682" lon="38.823013"><ele>99.5</ele><time>2022-12-01T16:34:32Z</time></trkpt><trkpt lat="58.059698" lon="38.82284"><ele>100.1</ele><time>2022-12-01T16:34:34Z</time></trkpt><trkpt lat="58.059715" lon="38.822703"><ele>99.9</ele><time>2022-12-01T16:34:36Z</time></trkpt><trkpt lat="58.059733" lon="38.822525"><ele>99.9</ele><time>2022-12-01T16:34:39Z</time></trkpt><trkpt lat="58.05973" lon="38.82236"><ele>98.9</ele><time>2022-12-01T16:34:42Z</time></trkpt><trkpt lat="58.059743" lon="38.822197"><ele>98.2</ele><time>2022-12-01T16:34:45Z</time></trkpt><trkpt lat="58.059758" lon="38.822017"><ele>98.3</ele><time>2022-12-01T16:34:48Z</time></trkpt><trkpt lat="58.05978" lon="38.821827"><ele>98.5</ele><time>2022-12-01T16:34:51Z</time></trkpt><trkpt lat="58.059792" lon="38.821682"><ele>99.0</ele><time>2022-12-01T16:34:54Z</time></trkpt><trkpt lat="58.059807" lon="38.821518"><ele>99.2</ele><time>2022-12-01T16:34:58Z</time></trkpt><trkpt lat="58.059788" lon="38.821368"><ele>97.6</ele><time>2022-12-01T16:35:32Z</time></trkpt><trkpt lat="58.059725" lon="38.821272"><ele>98.2</ele><time>2022-12-01T16:35:36Z</time></trkpt><trkpt lat="58.059643" lon="38.82123"><ele>98.8</ele><time>2022-12-01T16:35:39Z</time></trkpt><trkpt lat="58.059575" lon="38.82114"><ele>98.7</ele><time>2022-12-01T16:35:42Z</time></trkpt><trkpt lat="58.05957" lon="38.820993"><ele>98.9</ele><time>2022-12-01T16:35:45Z</time></trkpt><trkpt lat="58.05959" lon="38.820842"><ele>98.8</ele><time>2022-12-01T16:35:48Z</time></trkpt><trkpt lat="58.059595" lon="38.820658"><ele>98.5</ele><time>2022-12-01T16:35:52Z</time></trkpt><trkpt lat="58.059608" lon="38.8205"><ele>98.5</ele><time>2022-12-01T16:35:55Z</time></trkpt><trkpt lat="58.059625" lon="38.820335"><ele>99.1</ele><time>2022-12-01T16:35:58Z</time></trkpt><trkpt lat="58.059638" lon="38.820155"><ele>99.7</ele><time>2022-12-01T16:36:01Z</time></trkpt><trkpt lat="58.059645" lon="38.819967"><ele>100.2</ele><time>2022-12-01T16:36:03Z</time></trkpt><trkpt lat="58.05966" lon="38.81978"><ele>100.1</ele><time>2022-12-01T16:36:06Z</time></trkpt><trkpt lat="58.059673" lon="38.819587"><ele>100.2</ele><time>2022-12-01T16:36:09Z</time></trkpt><trkpt lat="58.059692" lon="38.819392"><ele>100.4</ele><time>2022-12-01T16:36:12Z</time></trkpt><trkpt lat="58.059708" lon="38.819188"><ele>100.9</ele><time>2022-12-01T16:36:15Z</time></trkpt><trkpt lat="58.05972" lon="38.819042"><ele>101.2</ele><time>2022-12-01T16:36:17Z</time></trkpt><trkpt lat="58.059728" lon="38.818898"><ele>101.2</ele><time>2022-12-01T16:36:19Z</time></trkpt><trkpt lat="58.059733" lon="38.818712"><ele>101.3</ele><time>2022-12-01T16:36:22Z</time></trkpt><trkpt lat="58.059743" lon="38.818525"><ele>101.0</ele><time>2022-12-01T16:36:25Z</time></trkpt><trkpt lat="58.059747" lon="38.818333"><ele>101.3</ele><time>2022-12-01T16:36:28Z</time></trkpt><trkpt lat="58.059757" lon="38.818137"><ele>101.2</ele><time>2022-12-01T16:36:31Z</time></trkpt><trkpt lat="58.059768" lon="38.817937"><ele>100.8</ele><time>2022-12-01T16:36:34Z</time></trkpt><trkpt lat="58.059782" lon="38.81774"><ele>101.0</ele><time>2022-12-01T16:36:37Z</time></trkpt><trkpt lat="58.059795" lon="38.817553"><ele>100.8</ele><time>2022-12-01T16:36:40Z</time></trkpt><trkpt lat="58.059723" lon="38.817442"><ele>101.2</ele><time>2022-12-01T16:36:44Z</time></trkpt><trkpt lat="58.059633" lon="38.817428"><ele>102.2</ele><time>2022-12-01T16:36:47Z</time></trkpt><trkpt lat="58.059535" lon="38.817433"><ele>102.0</ele><time>2022-12-01T16:36:50Z</time></trkpt><trkpt lat="58.05943" lon="38.817428"><ele>102.1</ele><time>2022-12-01T16:36:54Z</time></trkpt><trkpt lat="58.059332" lon="38.817425"><ele>102.9</ele><time>2022-12-01T16:36:57Z</time></trkpt><trkpt lat="58.059228" lon="38.817448"><ele>103.2</ele><time>2022-12-01T16:37:00Z</time></trkpt><trkpt lat="58.059137" lon="38.817458"><ele>103.5</ele><time>2022-12-01T16:37:03Z</time></trkpt><trkpt lat="58.059065" lon="38.817557"><ele>103.7</ele><time>2022-12-01T16:37:07Z</time></trkpt><trkpt lat="58.059002" lon="38.817662"><ele>104.3</ele><time>2022-12-01T16:37:11Z</time></trkpt><trkpt lat="58.058912" lon="38.817567"><ele>104.3</ele><time>2022-12-01T16:37:14Z</time></trkpt><trkpt lat="58.058865" lon="38.817453"><ele>104.1</ele><time>2022-12-01T16:37:16Z</time></trkpt><trkpt lat="58.058828" lon="38.817328"><ele>104.0</ele><time>2022-12-01T16:37:18Z</time></trkpt><trkpt lat="58.058793" lon="38.817198"><ele>104.5</ele><time>2022-12-01T16:37:20Z</time></trkpt><trkpt lat="58.058753" lon="38.817083"><ele>103.5</ele><time>2022-12-01T16:37:22Z</time></trkpt><trkpt lat="58.05872" lon="38.816932"><ele>103.4</ele><time>2022-12-01T16:37:25Z</time></trkpt><trkpt lat="58.058723" lon="38.816793"><ele>103.7</ele><time>2022-12-01T16:37:28Z</time></trkpt><trkpt lat="58.058778" lon="38.816692"><ele>104.3</ele><time>2022-12-01T16:37:48Z</time></trkpt><trkpt lat="58.0588" lon="38.816843"><ele>105.0</ele><time>2022-12-01T16:38:04Z</time></trkpt></trkseg></trk></gpx>