<?xml version="1.0" encoding="UTF-8" standalone="no"?><gpx xmlns="http://www.topografix.com/GPX/1/1" xmlns:gpxtpx="http://www.garmin.com/xmlschemas/TrackPointExtension/v1" xmlns:xsi="http://www.w3.org/2001/XMLSchema-instance" creator="Sports Tracker" version="1.1" xsi:schemaLocation="http://www.topografix.com/GPX/1/1 http://www.topografix.com/GPX/1/1/gpx.xsd http://www.garmin.com/xmlschemas/TrackPointExtension/v1 http://www.garmin.com/xmlschemas/TrackPointExtensionv1.xsd"><metadata><name/><desc/><author><name>Александр</name></author></metadata><trk><name/><trkseg><trkpt lat="58.058588" lon="38.816953"><ele>98.5</ele><time>2023-08-17T07:48:59Z</time></trkpt><trkpt lat="58.058368" lon="38.81674"><ele>98.5</ele><time>2023-08-17T07:49:01Z</time></trkpt><trkpt lat="58.058433" lon="38.816618"><ele>98.5</ele><time>2023-08-17T07:49:16Z</time></trkpt><trkpt lat="58.059042" lon="38.81732"><ele>98.5</ele><time>2023-08-17T07:49:40Z</time></trkpt><trkpt lat="58.059162" lon="38.817657"><ele>98.5</ele><time>2023-08-17T07:49:41Z</time></trkpt><trkpt lat="58.058945" lon="38.816982"><ele>104.8</ele><time>2023-08-17T07:49:42Z</time></trkpt><trkpt lat="58.058818" lon="38.817138"><ele>113.8</ele><time>2023-08-17T07:49:47Z</time></trkpt><trkpt lat="58.058782" lon="38.817318"><ele>113.3</ele><time>2023-08-17T07:49:50Z</time></trkpt><trkpt lat="58.058785" lon="38.81749"><ele>108.0</ele><time>2023-08-17T07:49:52Z</time></trkpt><trkpt lat="58.058785" lon="38.81765"><ele>110.5</ele><time>2023-08-17T07:49:54Z</time></trkpt><trkpt lat="58.058773" lon="38.817813"><ele>115.9</ele><time>2023-08-17T07:49:56Z</time></trkpt><trkpt lat="58.058768" lon="38.817978"><ele>118.5</ele><time>2023-08-17T07:49:58Z</time></trkpt><trkpt lat="58.058763" lon="38.81814"><ele>118.4</ele><time>2023-08-17T07:50:00Z</time></trkpt><trkpt lat="58.058763" lon="38.818285"><ele>119.3</ele><time>2023-08-17T07:50:02Z</time></trkpt><trkpt lat="58.058733" lon="38.818477"><ele>121.0</ele><time>2023-08-17T07:50:04Z</time></trkpt><trkpt lat="58.058713" lon="38.818623"><ele>115.2</ele><time>2023-08-17T07:50:06Z</time></trkpt><trkpt lat="58.058692" lon="38.818797"><ele>112.7</ele><time>2023-08-17T07:50:08Z</time></trkpt><trkpt lat="58.05867" lon="38.818942"><ele>113.1</ele><time>2023-08-17T07:50:10Z</time></trkpt><trkpt lat="58.058648" lon="38.819103"><ele>114.4</ele><time>2023-08-17T07:50:12Z</time></trkpt><trkpt lat="58.058665" lon="38.819302"><ele>110.1</ele><time>2023-08-17T07:50:15Z</time></trkpt><trkpt lat="58.058665" lon="38.819445"><ele>109.2</ele><time>2023-08-17T07:50:17Z</time></trkpt><trkpt lat="58.058657" lon="38.819587"><ele>110.5</ele><time>2023-08-17T07:50:19Z</time></trkpt><trkpt lat="58.058647" lon="38.819723"><ele>111.1</ele><time>2023-08-17T07:50:21Z</time></trkpt><trkpt lat="58.058633" lon="38.819875"><ele>111.5</ele><time>2023-08-17T07:50:23Z</time></trkpt><trkpt lat="58.058612" lon="38.82004"><ele>111.4</ele><time>2023-08-17T07:50:25Z</time></trkpt><trkpt lat="58.058607" lon="38.820183"><ele>112.4</ele><time>2023-08-17T07:50:27Z</time></trkpt><trkpt lat="58.058617" lon="38.82032"><ele>112.5</ele><time>2023-08-17T07:50:29Z</time></trkpt><trkpt lat="58.05864" lon="38.82045"><ele>115.0</ele><time>2023-08-17T07:50:31Z</time></trkpt><trkpt lat="58.058623" lon="38.820612"><ele>116.0</ele><time>2023-08-17T07:50:34Z</time></trkpt><trkpt lat="58.058543" lon="38.820695"><ele>111.1</ele><time>2023-08-17T07:50:37Z</time></trkpt><trkpt lat="58.058457" lon="38.820712"><ele>111.1</ele><time>2023-08-17T07:50:40Z</time></trkpt><trkpt lat="58.058373" lon="38.820725"><ele>111.6</ele><time>2023-08-17T07:50:43Z</time></trkpt><trkpt lat="58.058263" lon="38.820773"><ele>111.8</ele><time>2023-08-17T07:50:46Z</time></trkpt><trkpt lat="58.058167" lon="38.820787"><ele>110.5</ele><time>2023-08-17T07:50:48Z</time></trkpt><trkpt lat="58.058017" lon="38.820775"><ele>109.7</ele><time>2023-08-17T07:50:50Z</time></trkpt><trkpt lat="58.057895" lon="38.820755"><ele>109.5</ele><time>2023-08-17T07:50:52Z</time></trkpt><trkpt lat="58.057768" lon="38.820712"><ele>108.9</ele><time>2023-08-17T07:50:54Z</time></trkpt><trkpt lat="58.057655" lon="38.820697"><ele>107.8</ele><time>2023-08-17T07:50:56Z</time></trkpt><trkpt lat="58.057545" lon="38.820637"><ele>110.0</ele><time>2023-08-17T07:50:58Z</time></trkpt><trkpt lat="58.057448" lon="38.820627"><ele>109.7</ele><time>2023-08-17T07:51:00Z</time></trkpt><trkpt lat="58.057363" lon="38.820598"><ele>109.5</ele><time>2023-08-17T07:51:02Z</time></trkpt><trkpt lat="58.057267" lon="38.820602"><ele>108.9</ele><time>2023-08-17T07:51:05Z</time></trkpt><trkpt lat="58.05717" lon="38.82058"><ele>107.7</ele><time>2023-08-17T07:51:08Z</time></trkpt><trkpt lat="58.057092" lon="38.820562"><ele>108.2</ele><time>2023-08-17T07:51:10Z</time></trkpt><trkpt lat="58.05701" lon="38.820542"><ele>107.5</ele><time>2023-08-17T07:51:12Z</time></trkpt><trkpt lat="58.056927" lon="38.820525"><ele>107.6</ele><time>2023-08-17T07:51:14Z</time></trkpt><trkpt lat="58.056852" lon="38.820517"><ele>107.9</ele><time>2023-08-17T07:51:16Z</time></trkpt><trkpt lat="58.056777" lon="38.820508"><ele>108.8</ele><time>2023-08-17T07:51:19Z</time></trkpt><trkpt lat="58.056755" lon="38.820658"><ele>110.9</ele><time>2023-08-17T07:51:23Z</time></trkpt><trkpt lat="58.056722" lon="38.820838"><ele>112.2</ele><time>2023-08-17T07:51:26Z</time></trkpt><trkpt lat="58.056657" lon="38.820965"><ele>112.6</ele><time>2023-08-17T07:51:29Z</time></trkpt><trkpt lat="58.056578" lon="38.82096"><ele>112.6</ele><time>2023-08-17T07:51:31Z</time></trkpt><trkpt lat="58.056448" lon="38.820878"><ele>110.0</ele><time>2023-08-17T07:51:33Z</time></trkpt><trkpt lat="58.05634" lon="38.820882"><ele>110.4</ele><time>2023-08-17T07:51:35Z</time></trkpt><trkpt lat="58.056237" lon="38.820858"><ele>110.5</ele><time>2023-08-17T07:51:37Z</time></trkpt><trkpt lat="58.05615" lon="38.820845"><ele>110.6</ele><time>2023-08-17T07:51:39Z</time></trkpt><trkpt lat="58.056073" lon="38.820828"><ele>109.6</ele><time>2023-08-17T07:51:41Z</time></trkpt><trkpt lat="58.055963" lon="38.820837"><ele>108.8</ele><time>2023-08-17T07:51:44Z</time></trkpt><trkpt lat="58.055875" lon="38.820877"><ele>105.9</ele><time>2023-08-17T07:51:46Z</time></trkpt><trkpt lat="58.055763" lon="38.820853"><ele>106.4</ele><time>2023-08-17T07:51:49Z</time></trkpt><trkpt lat="58.055685" lon="38.820825"><ele>106.1</ele><time>2023-08-17T07:51:51Z</time></trkpt><trkpt lat="58.055602" lon="38.820802"><ele>106.8</ele><time>2023-08-17T07:51:53Z</time></trkpt><trkpt lat="58.055515" lon="38.820775"><ele>106.5</ele><time>2023-08-17T07:51:55Z</time></trkpt><trkpt lat="58.05543" lon="38.820772"><ele>105.8</ele><time>2023-08-17T07:51:57Z</time></trkpt><trkpt lat="58.055355" lon="38.82078"><ele>107.3</ele><time>2023-08-17T07:51:59Z</time></trkpt><trkpt lat="58.055268" lon="38.820885"><ele>105.8</ele><time>2023-08-17T07:52:02Z</time></trkpt><trkpt lat="58.05524" lon="38.821028"><ele>105.7</ele><time>2023-08-17T07:52:04Z</time></trkpt><trkpt lat="58.055272" lon="38.821175"><ele>105.1</ele><time>2023-08-17T07:52:05Z</time></trkpt><trkpt lat="58.05526" lon="38.82134"><ele>104.7</ele><time>2023-08-17T07:52:07Z</time></trkpt><trkpt lat="58.055253" lon="38.821523"><ele>105.1</ele><time>2023-08-17T07:52:09Z</time></trkpt><trkpt lat="58.055233" lon="38.821732"><ele>107.3</ele><time>2023-08-17T07:52:12Z</time></trkpt><trkpt lat="58.055203" lon="38.821888"><ele>105.2</ele><time>2023-08-17T07:52:14Z</time></trkpt><trkpt lat="58.055135" lon="38.821973"><ele>103.9</ele><time>2023-08-17T07:52:17Z</time></trkpt><trkpt lat="58.055018" lon="38.821947"><ele>106.1</ele><time>2023-08-17T07:52:19Z</time></trkpt><trkpt lat="58.05492" lon="38.821997"><ele>102.6</ele><time>2023-08-17T07:52:21Z</time></trkpt><trkpt lat="58.054862" lon="38.822148"><ele>101.2</ele><time>2023-08-17T07:52:23Z</time></trkpt><trkpt lat="58.054837" lon="38.8223"><ele>103.4</ele><time>2023-08-17T07:52:25Z</time></trkpt><trkpt lat="58.054792" lon="38.822488"><ele>103.8</ele><time>2023-08-17T07:52:27Z</time></trkpt><trkpt lat="58.054763" lon="38.82267"><ele>106.0</ele><time>2023-08-17T07:52:29Z</time></trkpt><trkpt lat="58.054725" lon="38.822833"><ele>106.8</ele><time>2023-08-17T07:52:31Z</time></trkpt><trkpt lat="58.05468" lon="38.823007"><ele>106.3</ele><time>2023-08-17T07:52:33Z</time></trkpt><trkpt lat="58.054655" lon="38.82316"><ele>105.5</ele><time>2023-08-17T07:52:35Z</time></trkpt><trkpt lat="58.054657" lon="38.823332"><ele>106.4</ele><time>2023-08-17T07:52:37Z</time></trkpt><trkpt lat="58.054627" lon="38.823465"><ele>107.1</ele><time>2023-08-17T07:52:39Z</time></trkpt><trkpt lat="58.054575" lon="38.823602"><ele>106.7</ele><time>2023-08-17T07:52:41Z</time></trkpt><trkpt lat="58.054548" lon="38.823755"><ele>106.8</ele><time>2023-08-17T07:52:44Z</time></trkpt><trkpt lat="58.054503" lon="38.823948"><ele>106.6</ele><time>2023-08-17T07:52:47Z</time></trkpt><trkpt lat="58.05446" lon="38.824142"><ele>106.7</ele><time>2023-08-17T07:52:49Z</time></trkpt><trkpt lat="58.054427" lon="38.824358"><ele>108.0</ele><time>2023-08-17T07:52:51Z</time></trkpt><trkpt lat="58.054397" lon="38.824567"><ele>108.9</ele><time>2023-08-17T07:52:53Z</time></trkpt><trkpt lat="58.054353" lon="38.824762"><ele>109.0</ele><time>2023-08-17T07:52:55Z</time></trkpt><trkpt lat="58.054343" lon="38.82495"><ele>109.3</ele><time>2023-08-17T07:52:57Z</time></trkpt><trkpt lat="58.05431" lon="38.825127"><ele>108.3</ele><time>2023-08-17T07:52:59Z</time></trkpt><trkpt lat="58.05427" lon="38.825312"><ele>106.9</ele><time>2023-08-17T07:53:01Z</time></trkpt><trkpt lat="58.054245" lon="38.82551"><ele>106.7</ele><time>2023-08-17T07:53:03Z</time></trkpt><trkpt lat="58.054222" lon="38.825663"><ele>107.9</ele><time>2023-08-17T07:53:05Z</time></trkpt><trkpt lat="58.054202" lon="38.825852"><ele>110.2</ele><time>2023-08-17T07:53:07Z</time></trkpt><trkpt lat="58.054178" lon="38.826027"><ele>112.4</ele><time>2023-08-17T07:53:09Z</time></trkpt><trkpt lat="58.054145" lon="38.826208"><ele>111.9</ele><time>2023-08-17T07:53:11Z</time></trkpt><trkpt lat="58.054118" lon="38.826378"><ele>113.2</ele><time>2023-08-17T07:53:14Z</time></trkpt><trkpt lat="58.05409" lon="38.826545"><ele>113.1</ele><time>2023-08-17T07:53:52Z</time></trkpt><trkpt lat="58.054043" lon="38.826713"><ele>114.1</ele><time>2023-08-17T07:53:55Z</time></trkpt><trkpt lat="58.054" lon="38.826857"><ele>114.5</ele><time>2023-08-17T07:53:57Z</time></trkpt><trkpt lat="58.053948" lon="38.827032"><ele>113.5</ele><time>2023-08-17T07:53:59Z</time></trkpt><trkpt lat="58.053898" lon="38.827233"><ele>112.9</ele><time>2023-08-17T07:54:01Z</time></trkpt><trkpt lat="58.053867" lon="38.82744"><ele>113.2</ele><time>2023-08-17T07:54:03Z</time></trkpt><trkpt lat="58.053815" lon="38.827642"><ele>113.6</ele><time>2023-08-17T07:54:05Z</time></trkpt><trkpt lat="58.053762" lon="38.82781"><ele>112.6</ele><time>2023-08-17T07:54:07Z</time></trkpt><trkpt lat="58.053755" lon="38.827975"><ele>112.7</ele><time>2023-08-17T07:54:09Z</time></trkpt><trkpt lat="58.05375" lon="38.828112"><ele>112.7</ele><time>2023-08-17T07:54:11Z</time></trkpt><trkpt lat="58.053722" lon="38.828257"><ele>112.6</ele><time>2023-08-17T07:54:13Z</time></trkpt><trkpt lat="58.0537" lon="38.82841"><ele>114.6</ele><time>2023-08-17T07:54:15Z</time></trkpt><trkpt lat="58.053685" lon="38.82858"><ele>114.4</ele><time>2023-08-17T07:54:17Z</time></trkpt><trkpt lat="58.053662" lon="38.828732"><ele>114.5</ele><time>2023-08-17T07:54:19Z</time></trkpt><trkpt lat="58.053635" lon="38.828862"><ele>113.7</ele><time>2023-08-17T07:54:21Z</time></trkpt><trkpt lat="58.053613" lon="38.829035"><ele>115.7</ele><time>2023-08-17T07:54:24Z</time></trkpt><trkpt lat="58.053603" lon="38.829177"><ele>117.4</ele><time>2023-08-17T07:54:27Z</time></trkpt><trkpt lat="58.05358" lon="38.829318"><ele>117.8</ele><time>2023-08-17T07:54:30Z</time></trkpt><trkpt lat="58.053547" lon="38.829505"><ele>116.2</ele><time>2023-08-17T07:54:33Z</time></trkpt><trkpt lat="58.05353" lon="38.829665"><ele>117.6</ele><time>2023-08-17T07:54:36Z</time></trkpt><trkpt lat="58.0535" lon="38.829798"><ele>118.0</ele><time>2023-08-17T07:54:39Z</time></trkpt><trkpt lat="58.053478" lon="38.829933"><ele>118.1</ele><time>2023-08-17T07:54:42Z</time></trkpt><trkpt lat="58.053468" lon="38.830068"><ele>120.6</ele><time>2023-08-17T07:54:45Z</time></trkpt><trkpt lat="58.053445" lon="38.830203"><ele>122.0</ele><time>2023-08-17T07:54:49Z</time></trkpt><trkpt lat="58.053393" lon="38.83031"><ele>116.3</ele><time>2023-08-17T07:54:55Z</time></trkpt><trkpt lat="58.053363" lon="38.83044"><ele>115.0</ele><time>2023-08-17T07:54:58Z</time></trkpt><trkpt lat="58.053328" lon="38.830572"><ele>114.9</ele><time>2023-08-17T07:55:00Z</time></trkpt><trkpt lat="58.05328" lon="38.830727"><ele>113.4</ele><time>2023-08-17T07:55:02Z</time></trkpt><trkpt lat="58.05324" lon="38.830897"><ele>113.8</ele><time>2023-08-17T07:55:04Z</time></trkpt><trkpt lat="58.053203" lon="38.831057"><ele>113.9</ele><time>2023-08-17T07:55:06Z</time></trkpt><trkpt lat="58.053168" lon="38.831203"><ele>113.3</ele><time>2023-08-17T07:55:08Z</time></trkpt><trkpt lat="58.053143" lon="38.831338"><ele>113.4</ele><time>2023-08-17T07:55:10Z</time></trkpt><trkpt lat="58.053108" lon="38.831523"><ele>112.9</ele><time>2023-08-17T07:55:13Z</time></trkpt><trkpt lat="58.053065" lon="38.831695"><ele>111.9</ele><time>2023-08-17T07:55:16Z</time></trkpt><trkpt lat="58.053022" lon="38.831855"><ele>109.3</ele><time>2023-08-17T07:55:19Z</time></trkpt><trkpt lat="58.052995" lon="38.832008"><ele>108.7</ele><time>2023-08-17T07:55:22Z</time></trkpt><trkpt lat="58.05299" lon="38.832185"><ele>108.6</ele><time>2023-08-17T07:55:25Z</time></trkpt><trkpt lat="58.05297" lon="38.832318"><ele>108.7</ele><time>2023-08-17T07:55:27Z</time></trkpt><trkpt lat="58.05293" lon="38.832485"><ele>108.2</ele><time>2023-08-17T07:55:30Z</time></trkpt><trkpt lat="58.05289" lon="38.832675"><ele>108.1</ele><time>2023-08-17T07:55:33Z</time></trkpt><trkpt lat="58.052853" lon="38.832823"><ele>108.5</ele><time>2023-08-17T07:55:35Z</time></trkpt><trkpt lat="58.052822" lon="38.832968"><ele>109.4</ele><time>2023-08-17T07:55:37Z</time></trkpt><trkpt lat="58.052795" lon="38.833113"><ele>109.7</ele><time>2023-08-17T07:55:39Z</time></trkpt><trkpt lat="58.052768" lon="38.833252"><ele>110.0</ele><time>2023-08-17T07:55:41Z</time></trkpt><trkpt lat="58.052737" lon="38.833405"><ele>110.0</ele><time>2023-08-17T07:55:43Z</time></trkpt><trkpt lat="58.05271" lon="38.83362"><ele>109.7</ele><time>2023-08-17T07:55:45Z</time></trkpt><trkpt lat="58.05266" lon="38.833827"><ele>107.8</ele><time>2023-08-17T07:55:47Z</time></trkpt><trkpt lat="58.052622" lon="38.833947"><ele>106.8</ele><time>2023-08-17T07:55:49Z</time></trkpt><trkpt lat="58.052632" lon="38.834108"><ele>107.4</ele><time>2023-08-17T07:55:52Z</time></trkpt><trkpt lat="58.05261" lon="38.834248"><ele>109.5</ele><time>2023-08-17T07:55:55Z</time></trkpt><trkpt lat="58.052575" lon="38.834377"><ele>112.3</ele><time>2023-08-17T07:55:59Z</time></trkpt><trkpt lat="58.052503" lon="38.834363"><ele>107.7</ele><time>2023-08-17T07:56:45Z</time></trkpt><trkpt lat="58.052438" lon="38.8343"><ele>107.6</ele><time>2023-08-17T07:56:47Z</time></trkpt><trkpt lat="58.052348" lon="38.834257"><ele>107.6</ele><time>2023-08-17T07:56:49Z</time></trkpt><trkpt lat="58.052272" lon="38.83424"><ele>106.8</ele><time>2023-08-17T07:56:51Z</time></trkpt><trkpt lat="58.05219" lon="38.834233"><ele>105.7</ele><time>2023-08-17T07:56:53Z</time></trkpt><trkpt lat="58.0521" lon="38.834178"><ele>106.6</ele><time>2023-08-17T07:56:55Z</time></trkpt><trkpt lat="58.052017" lon="38.834082"><ele>106.6</ele><time>2023-08-17T07:56:57Z</time></trkpt><trkpt lat="58.051947" lon="38.83398"><ele>106.3</ele><time>2023-08-17T07:56:59Z</time></trkpt><trkpt lat="58.051878" lon="38.833898"><ele>106.5</ele><time>2023-08-17T07:57:01Z</time></trkpt><trkpt lat="58.051795" lon="38.833843"><ele>107.1</ele><time>2023-08-17T07:57:03Z</time></trkpt><trkpt lat="58.051718" lon="38.833803"><ele>108.4</ele><time>2023-08-17T07:57:05Z</time></trkpt><trkpt lat="58.051647" lon="38.833767"><ele>109.2</ele><time>2023-08-17T07:57:07Z</time></trkpt><trkpt lat="58.051573" lon="38.83374"><ele>110.6</ele><time>2023-08-17T07:57:10Z</time></trkpt><trkpt lat="58.0515" lon="38.833672"><ele>112.8</ele><time>2023-08-17T07:57:14Z</time></trkpt><trkpt lat="58.05143" lon="38.83362"><ele>116.3</ele><time>2023-08-17T07:57:18Z</time></trkpt><trkpt lat="58.051347" lon="38.833635"><ele>115.0</ele><time>2023-08-17T07:57:21Z</time></trkpt><trkpt lat="58.051258" lon="38.833643"><ele>113.2</ele><time>2023-08-17T07:57:23Z</time></trkpt><trkpt lat="58.051158" lon="38.833715"><ele>114.3</ele><time>2023-08-17T07:57:26Z</time></trkpt><trkpt lat="58.051087" lon="38.83376"><ele>114.5</ele><time>2023-08-17T07:57:28Z</time></trkpt><trkpt lat="58.050997" lon="38.833717"><ele>114.3</ele><time>2023-08-17T07:57:31Z</time></trkpt><trkpt lat="58.050908" lon="38.833588"><ele>115.5</ele><time>2023-08-17T07:57:35Z</time></trkpt><trkpt lat="58.050823" lon="38.83351"><ele>116.2</ele><time>2023-08-17T07:57:37Z</time></trkpt><trkpt lat="58.05072" lon="38.833455"><ele>111.6</ele><time>2023-08-17T07:57:39Z</time></trkpt><trkpt lat="58.050643" lon="38.833438"><ele>110.9</ele><time>2023-08-17T07:57:41Z</time></trkpt><trkpt lat="58.050557" lon="38.833348"><ele>115.0</ele><time>2023-08-17T07:57:47Z</time></trkpt><trkpt lat="58.050465" lon="38.833253"><ele>115.3</ele><time>2023-08-17T07:57:50Z</time></trkpt><trkpt lat="58.050395" lon="38.833188"><ele>116.3</ele><time>2023-08-17T07:57:52Z</time></trkpt><trkpt lat="58.050323" lon="38.833145"><ele>115.9</ele><time>2023-08-17T07:57:54Z</time></trkpt><trkpt lat="58.050252" lon="38.833118"><ele>113.6</ele><time>2023-08-17T07:57:56Z</time></trkpt><trkpt lat="58.050158" lon="38.833077"><ele>111.8</ele><time>2023-08-17T07:57:59Z</time></trkpt><trkpt lat="58.050078" lon="38.833047"><ele>110.0</ele><time>2023-08-17T07:58:02Z</time></trkpt><trkpt lat="58.049968" lon="38.833005"><ele>108.3</ele><time>2023-08-17T07:58:05Z</time></trkpt><trkpt lat="58.0499" lon="38.832938"><ele>105.6</ele><time>2023-08-17T07:58:07Z</time></trkpt><trkpt lat="58.04984" lon="38.832858"><ele>107.7</ele><time>2023-08-17T07:58:10Z</time></trkpt><trkpt lat="58.049805" lon="38.832737"><ele>103.5</ele><time>2023-08-17T07:58:24Z</time></trkpt><trkpt lat="58.049743" lon="38.83263"><ele>104.8</ele><time>2023-08-17T07:58:27Z</time></trkpt><trkpt lat="58.049675" lon="38.832557"><ele>105.8</ele><time>2023-08-17T07:58:29Z</time></trkpt><trkpt lat="58.049578" lon="38.832535"><ele>104.4</ele><time>2023-08-17T07:58:32Z</time></trkpt><trkpt lat="58.049512" lon="38.832477"><ele>105.3</ele><time>2023-08-17T07:58:35Z</time></trkpt><trkpt lat="58.049407" lon="38.832473"><ele>105.5</ele><time>2023-08-17T07:58:38Z</time></trkpt><trkpt lat="58.049318" lon="38.832413"><ele>106.2</ele><time>2023-08-17T07:58:40Z</time></trkpt><trkpt lat="58.049247" lon="38.832372"><ele>106.0</ele><time>2023-08-17T07:58:42Z</time></trkpt><trkpt lat="58.049175" lon="38.832345"><ele>107.6</ele><time>2023-08-17T07:58:44Z</time></trkpt><trkpt lat="58.04909" lon="38.832323"><ele>108.8</ele><time>2023-08-17T07:58:46Z</time></trkpt><trkpt lat="58.049003" lon="38.832302"><ele>110.8</ele><time>2023-08-17T07:58:49Z</time></trkpt><trkpt lat="58.048912" lon="38.832288"><ele>110.6</ele><time>2023-08-17T07:58:52Z</time></trkpt><trkpt lat="58.048835" lon="38.832227"><ele>112.3</ele><time>2023-08-17T07:58:56Z</time></trkpt><trkpt lat="58.048748" lon="38.832193"><ele>115.3</ele><time>2023-08-17T07:59:00Z</time></trkpt><trkpt lat="58.048675" lon="38.832132"><ele>115.7</ele><time>2023-08-17T07:59:03Z</time></trkpt><trkpt lat="58.048572" lon="38.832108"><ele>107.0</ele><time>2023-08-17T07:59:07Z</time></trkpt><trkpt lat="58.048497" lon="38.83207"><ele>104.2</ele><time>2023-08-17T07:59:10Z</time></trkpt><trkpt lat="58.04843" lon="38.83199"><ele>105.2</ele><time>2023-08-17T07:59:13Z</time></trkpt><trkpt lat="58.048427" lon="38.831838"><ele>106.0</ele><time>2023-08-17T07:59:16Z</time></trkpt><trkpt lat="58.04843" lon="38.831677"><ele>105.2</ele><time>2023-08-17T07:59:19Z</time></trkpt><trkpt lat="58.048402" lon="38.831527"><ele>107.0</ele><time>2023-08-17T07:59:23Z</time></trkpt><trkpt lat="58.048335" lon="38.831442"><ele>104.9</ele><time>2023-08-17T07:59:27Z</time></trkpt><trkpt lat="58.048258" lon="38.831452"><ele>101.3</ele><time>2023-08-17T07:59:32Z</time></trkpt><trkpt lat="58.048228" lon="38.831607"><ele>102.8</ele><time>2023-08-17T07:59:35Z</time></trkpt><trkpt lat="58.048218" lon="38.831745"><ele>104.1</ele><time>2023-08-17T07:59:37Z</time></trkpt><trkpt lat="58.048192" lon="38.831892"><ele>106.2</ele><time>2023-08-17T07:59:40Z</time></trkpt><trkpt lat="58.04817" lon="38.832037"><ele>107.1</ele><time>2023-08-17T07:59:43Z</time></trkpt><trkpt lat="58.048148" lon="38.832198"><ele>106.7</ele><time>2023-08-17T07:59:46Z</time></trkpt><trkpt lat="58.048137" lon="38.832335"><ele>107.6</ele><time>2023-08-17T07:59:49Z</time></trkpt><trkpt lat="58.048078" lon="38.832445"><ele>109.3</ele><time>2023-08-17T07:59:53Z</time></trkpt><trkpt lat="58.048002" lon="38.832418"><ele>108.7</ele><time>2023-08-17T07:59:55Z</time></trkpt><trkpt lat="58.047925" lon="38.832375"><ele>107.9</ele><time>2023-08-17T07:59:57Z</time></trkpt><trkpt lat="58.047852" lon="38.832347"><ele>107.7</ele><time>2023-08-17T07:59:59Z</time></trkpt><trkpt lat="58.047775" lon="38.832313"><ele>107.7</ele><time>2023-08-17T08:00:01Z</time></trkpt><trkpt lat="58.047688" lon="38.832265"><ele>109.4</ele><time>2023-08-17T08:00:03Z</time></trkpt><trkpt lat="58.047597" lon="38.832232"><ele>110.2</ele><time>2023-08-17T08:00:05Z</time></trkpt><trkpt lat="58.047515" lon="38.83222"><ele>111.0</ele><time>2023-08-17T08:00:07Z</time></trkpt><trkpt lat="58.047445" lon="38.83217"><ele>109.5</ele><time>2023-08-17T08:00:09Z</time></trkpt><trkpt lat="58.047372" lon="38.832115"><ele>109.0</ele><time>2023-08-17T08:00:11Z</time></trkpt><trkpt lat="58.047288" lon="38.83203"><ele>107.3</ele><time>2023-08-17T08:00:14Z</time></trkpt><trkpt lat="58.047222" lon="38.831937"><ele>107.3</ele><time>2023-08-17T08:00:17Z</time></trkpt><trkpt lat="58.047163" lon="38.831823"><ele>107.4</ele><time>2023-08-17T08:00:20Z</time></trkpt><trkpt lat="58.047128" lon="38.831972"><ele>109.2</ele><time>2023-08-17T08:00:26Z</time></trkpt><trkpt lat="58.047127" lon="38.832175"><ele>110.7</ele><time>2023-08-17T08:00:29Z</time></trkpt><trkpt lat="58.0471" lon="38.83236"><ele>111.5</ele><time>2023-08-17T08:00:32Z</time></trkpt><trkpt lat="58.047068" lon="38.832517"><ele>111.5</ele><time>2023-08-17T08:00:35Z</time></trkpt><trkpt lat="58.047065" lon="38.832702"><ele>111.0</ele><time>2023-08-17T08:00:38Z</time></trkpt><trkpt lat="58.047048" lon="38.83287"><ele>113.3</ele><time>2023-08-17T08:00:41Z</time></trkpt><trkpt lat="58.047037" lon="38.833053"><ele>114.1</ele><time>2023-08-17T08:00:44Z</time></trkpt><trkpt lat="58.047027" lon="38.833225"><ele>115.4</ele><time>2023-08-17T08:00:47Z</time></trkpt><trkpt lat="58.047038" lon="38.833407"><ele>116.5</ele><time>2023-08-17T08:00:50Z</time></trkpt><trkpt lat="58.046992" lon="38.833565"><ele>115.9</ele><time>2023-08-17T08:00:53Z</time></trkpt><trkpt lat="58.046925" lon="38.833728"><ele>113.5</ele><time>2023-08-17T08:00:56Z</time></trkpt><trkpt lat="58.046865" lon="38.833843"><ele>110.7</ele><time>2023-08-17T08:00:59Z</time></trkpt><trkpt lat="58.04678" lon="38.833865"><ele>110.4</ele><time>2023-08-17T08:01:02Z</time></trkpt><trkpt lat="58.0467" lon="38.833837"><ele>110.8</ele><time>2023-08-17T08:01:05Z</time></trkpt><trkpt lat="58.046632" lon="38.83375"><ele>106.7</ele><time>2023-08-17T08:01:22Z</time></trkpt><trkpt lat="58.046522" lon="38.834268"><ele>104.5</ele><time>2023-08-17T08:55:33Z</time></trkpt><trkpt lat="58.046592" lon="38.833897"><ele>125.0</ele><time>2023-08-17T08:55:44Z</time></trkpt><trkpt lat="58.046663" lon="38.833853"><ele>119.9</ele><time>2023-08-17T08:55:48Z</time></trkpt><trkpt lat="58.046718" lon="38.833742"><ele>118.2</ele><time>2023-08-17T08:55:54Z</time></trkpt><trkpt lat="58.046757" lon="38.833587"><ele>118.7</ele><time>2023-08-17T08:55:58Z</time></trkpt><trkpt lat="58.046802" lon="38.83345"><ele>115.7</ele><time>2023-08-17T08:56:02Z</time></trkpt><trkpt lat="58.046853" lon="38.833322"><ele>112.1</ele><time>2023-08-17T08:56:07Z</time></trkpt><trkpt lat="58.046875" lon="38.833192"><ele>113.0</ele><time>2023-08-17T08:56:11Z</time></trkpt><trkpt lat="58.046893" lon="38.833053"><ele>112.9</ele><time>2023-08-17T08:56:15Z</time></trkpt><trkpt lat="58.046925" lon="38.83289"><ele>112.4</ele><time>2023-08-17T08:56:20Z</time></trkpt><trkpt lat="58.046953" lon="38.832757"><ele>113.2</ele><time>2023-08-17T08:56:25Z</time></trkpt><trkpt lat="58.046983" lon="38.832615"><ele>114.2</ele><time>2023-08-17T08:56:31Z</time></trkpt><trkpt lat="58.047002" lon="38.832475"><ele>114.5</ele><time>2023-08-17T08:56:36Z</time></trkpt><trkpt lat="58.046963" lon="38.83235"><ele>114.4</ele><time>2023-08-17T08:59:23Z</time></trkpt><trkpt lat="58.047007" lon="38.83219"><ele>114.6</ele><time>2023-08-17T08:59:27Z</time></trkpt><trkpt lat="58.047042" lon="38.83202"><ele>114.4</ele><time>2023-08-17T08:59:30Z</time></trkpt><trkpt lat="58.047082" lon="38.831843"><ele>112.9</ele><time>2023-08-17T08:59:33Z</time></trkpt><trkpt lat="58.047113" lon="38.831692"><ele>109.6</ele><time>2023-08-17T08:59:36Z</time></trkpt><trkpt lat="58.04716" lon="38.831535"><ele>104.9</ele><time>2023-08-17T08:59:40Z</time></trkpt><trkpt lat="58.047198" lon="38.831415"><ele>104.6</ele><time>2023-08-17T08:59:43Z</time></trkpt><trkpt lat="58.04724" lon="38.831302"><ele>105.3</ele><time>2023-08-17T08:59:46Z</time></trkpt><trkpt lat="58.047307" lon="38.831242"><ele>104.2</ele><time>2023-08-17T08:59:51Z</time></trkpt><trkpt lat="58.047345" lon="38.831072"><ele>104.1</ele><time>2023-08-17T08:59:55Z</time></trkpt><trkpt lat="58.047403" lon="38.83095"><ele>103.0</ele><time>2023-08-17T08:59:59Z</time></trkpt><trkpt lat="58.04751" lon="38.831"><ele>102.4</ele><time>2023-08-17T09:00:02Z</time></trkpt><trkpt lat="58.047607" lon="38.831052"><ele>102.1</ele><time>2023-08-17T09:00:04Z</time></trkpt><trkpt lat="58.047705" lon="38.831095"><ele>101.6</ele><time>2023-08-17T09:00:06Z</time></trkpt><trkpt lat="58.047793" lon="38.831153"><ele>102.1</ele><time>2023-08-17T09:00:08Z</time></trkpt><trkpt lat="58.047882" lon="38.831212"><ele>102.1</ele><time>2023-08-17T09:00:10Z</time></trkpt><trkpt lat="58.047963" lon="38.831262"><ele>102.3</ele><time>2023-08-17T09:00:12Z</time></trkpt><trkpt lat="58.048045" lon="38.831313"><ele>102.3</ele><time>2023-08-17T09:00:14Z</time></trkpt><trkpt lat="58.048122" lon="38.831362"><ele>102.5</ele><time>2023-08-17T09:00:16Z</time></trkpt><trkpt lat="58.048222" lon="38.831352"><ele>102.6</ele><time>2023-08-17T09:00:19Z</time></trkpt><trkpt lat="58.048298" lon="38.831298"><ele>101.8</ele><time>2023-08-17T09:00:22Z</time></trkpt><trkpt lat="58.048357" lon="38.831205"><ele>101.5</ele><time>2023-08-17T09:00:26Z</time></trkpt><trkpt lat="58.048428" lon="38.83125"><ele>102.1</ele><time>2023-08-17T09:00:30Z</time></trkpt><trkpt lat="58.048503" lon="38.831312"><ele>105.1</ele><time>2023-08-17T09:00:33Z</time></trkpt><trkpt lat="58.048597" lon="38.831377"><ele>104.9</ele><time>2023-08-17T09:00:36Z</time></trkpt><trkpt lat="58.048693" lon="38.831412"><ele>105.5</ele><time>2023-08-17T09:00:39Z</time></trkpt><trkpt lat="58.048778" lon="38.831372"><ele>105.5</ele><time>2023-08-17T09:00:43Z</time></trkpt><trkpt lat="58.04886" lon="38.831478"><ele>104.5</ele><time>2023-08-17T09:00:48Z</time></trkpt><trkpt lat="58.048948" lon="38.83159"><ele>105.3</ele><time>2023-08-17T09:00:51Z</time></trkpt><trkpt lat="58.049007" lon="38.831672"><ele>106.3</ele><time>2023-08-17T09:00:53Z</time></trkpt><trkpt lat="58.049077" lon="38.831782"><ele>107.1</ele><time>2023-08-17T09:00:56Z</time></trkpt><trkpt lat="58.049135" lon="38.831883"><ele>107.9</ele><time>2023-08-17T09:00:59Z</time></trkpt><trkpt lat="58.049207" lon="38.831968"><ele>108.4</ele><time>2023-08-17T09:01:02Z</time></trkpt><trkpt lat="58.049293" lon="38.832047"><ele>107.7</ele><time>2023-08-17T09:01:05Z</time></trkpt><trkpt lat="58.049383" lon="38.832112"><ele>106.3</ele><time>2023-08-17T09:01:08Z</time></trkpt><trkpt lat="58.049465" lon="38.832205"><ele>105.5</ele><time>2023-08-17T09:01:11Z</time></trkpt><trkpt lat="58.049515" lon="38.832312"><ele>105.5</ele><time>2023-08-17T09:01:14Z</time></trkpt><trkpt lat="58.049605" lon="38.832382"><ele>104.9</ele><time>2023-08-17T09:01:37Z</time></trkpt><trkpt lat="58.049677" lon="38.832427"><ele>104.9</ele><time>2023-08-17T09:01:39Z</time></trkpt><trkpt lat="58.049742" lon="38.832487"><ele>104.9</ele><time>2023-08-17T09:01:41Z</time></trkpt><trkpt lat="58.049815" lon="38.832623"><ele>105.5</ele><time>2023-08-17T09:01:44Z</time></trkpt><trkpt lat="58.049873" lon="38.832738"><ele>105.4</ele><time>2023-08-17T09:01:46Z</time></trkpt><trkpt lat="58.049945" lon="38.832815"><ele>105.5</ele><time>2023-08-17T09:01:48Z</time></trkpt><trkpt lat="58.050042" lon="38.832872"><ele>107.2</ele><time>2023-08-17T09:01:51Z</time></trkpt><trkpt lat="58.050145" lon="38.832922"><ele>107.0</ele><time>2023-08-17T09:01:54Z</time></trkpt><trkpt lat="58.050223" lon="38.832983"><ele>109.1</ele><time>2023-08-17T09:01:57Z</time></trkpt><trkpt lat="58.050305" lon="38.83303"><ele>109.4</ele><time>2023-08-17T09:02:01Z</time></trkpt><trkpt lat="58.050377" lon="38.833078"><ele>108.7</ele><time>2023-08-17T09:02:05Z</time></trkpt><trkpt lat="58.050417" lon="38.833208"><ele>108.8</ele><time>2023-08-17T09:02:10Z</time></trkpt><trkpt lat="58.050513" lon="38.833272"><ele>109.7</ele><time>2023-08-17T09:02:14Z</time></trkpt><trkpt lat="58.050585" lon="38.833305"><ele>110.4</ele><time>2023-08-17T09:02:16Z</time></trkpt><trkpt lat="58.050683" lon="38.833355"><ele>110.6</ele><time>2023-08-17T09:02:19Z</time></trkpt><trkpt lat="58.05078" lon="38.83343"><ele>109.7</ele><time>2023-08-17T09:02:22Z</time></trkpt><trkpt lat="58.050877" lon="38.833487"><ele>107.4</ele><time>2023-08-17T09:02:25Z</time></trkpt><trkpt lat="58.05097" lon="38.833522"><ele>106.8</ele><time>2023-08-17T09:02:28Z</time></trkpt><trkpt lat="58.051043" lon="38.833535"><ele>106.2</ele><time>2023-08-17T09:02:31Z</time></trkpt><trkpt lat="58.05114" lon="38.833527"><ele>105.7</ele><time>2023-08-17T09:02:36Z</time></trkpt><trkpt lat="58.051218" lon="38.833495"><ele>110.9</ele><time>2023-08-17T09:02:40Z</time></trkpt><trkpt lat="58.051297" lon="38.833555"><ele>117.9</ele><time>2023-08-17T09:02:47Z</time></trkpt><trkpt lat="58.051372" lon="38.833595"><ele>117.7</ele><time>2023-08-17T09:02:51Z</time></trkpt><trkpt lat="58.051448" lon="38.833633"><ele>116.7</ele><time>2023-08-17T09:02:56Z</time></trkpt><trkpt lat="58.05153" lon="38.8337"><ele>115.7</ele><time>2023-08-17T09:03:01Z</time></trkpt><trkpt lat="58.051615" lon="38.83373"><ele>112.5</ele><time>2023-08-17T09:03:04Z</time></trkpt><trkpt lat="58.051695" lon="38.833803"><ele>111.5</ele><time>2023-08-17T09:03:06Z</time></trkpt><trkpt lat="58.051762" lon="38.833907"><ele>111.5</ele><time>2023-08-17T09:03:07Z</time></trkpt><trkpt lat="58.051877" lon="38.833992"><ele>110.9</ele><time>2023-08-17T09:03:09Z</time></trkpt><trkpt lat="58.051965" lon="38.834072"><ele>109.7</ele><time>2023-08-17T09:03:11Z</time></trkpt><trkpt lat="58.05204" lon="38.834138"><ele>108.6</ele><time>2023-08-17T09:03:13Z</time></trkpt><trkpt lat="58.052117" lon="38.834195"><ele>106.1</ele><time>2023-08-17T09:03:15Z</time></trkpt><trkpt lat="58.052203" lon="38.83416"><ele>104.3</ele><time>2023-08-17T09:03:19Z</time></trkpt><trkpt lat="58.052303" lon="38.834167"><ele>104.0</ele><time>2023-08-17T09:04:05Z</time></trkpt><trkpt lat="58.052377" lon="38.834222"><ele>104.6</ele><time>2023-08-17T09:04:07Z</time></trkpt><trkpt lat="58.05244" lon="38.834297"><ele>104.9</ele><time>2023-08-17T09:04:10Z</time></trkpt><trkpt lat="58.052528" lon="38.834338"><ele>105.1</ele><time>2023-08-17T09:04:13Z</time></trkpt><trkpt lat="58.052627" lon="38.834377"><ele>105.0</ele><time>2023-08-17T09:04:16Z</time></trkpt><trkpt lat="58.052715" lon="38.834432"><ele>105.2</ele><time>2023-08-17T09:04:19Z</time></trkpt><trkpt lat="58.05281" lon="38.834492"><ele>104.9</ele><time>2023-08-17T09:04:22Z</time></trkpt><trkpt lat="58.052883" lon="38.83453"><ele>108.5</ele><time>2023-08-17T09:04:25Z</time></trkpt><trkpt lat="58.052982" lon="38.834578"><ele>109.5</ele><time>2023-08-17T09:04:28Z</time></trkpt><trkpt lat="58.053077" lon="38.834658"><ele>111.1</ele><time>2023-08-17T09:04:31Z</time></trkpt><trkpt lat="58.053158" lon="38.834727"><ele>111.8</ele><time>2023-08-17T09:04:34Z</time></trkpt><trkpt lat="58.053243" lon="38.834768"><ele>111.7</ele><time>2023-08-17T09:04:37Z</time></trkpt><trkpt lat="58.05332" lon="38.834808"><ele>114.2</ele><time>2023-08-17T09:04:40Z</time></trkpt><trkpt lat="58.053402" lon="38.834847"><ele>114.3</ele><time>2023-08-17T09:04:43Z</time></trkpt><trkpt lat="58.053492" lon="38.834903"><ele>112.8</ele><time>2023-08-17T09:04:46Z</time></trkpt><trkpt lat="58.053585" lon="38.834982"><ele>111.8</ele><time>2023-08-17T09:04:49Z</time></trkpt><trkpt lat="58.053678" lon="38.835048"><ele>114.0</ele><time>2023-08-17T09:04:52Z</time></trkpt><trkpt lat="58.053778" lon="38.835122"><ele>114.2</ele><time>2023-08-17T09:04:55Z</time></trkpt><trkpt lat="58.05387" lon="38.835173"><ele>114.0</ele><time>2023-08-17T09:04:58Z</time></trkpt><trkpt lat="58.053958" lon="38.83523"><ele>111.9</ele><time>2023-08-17T09:05:01Z</time></trkpt><trkpt lat="58.05404" lon="38.8353"><ele>111.3</ele><time>2023-08-17T09:05:04Z</time></trkpt><trkpt lat="58.054132" lon="38.835365"><ele>111.0</ele><time>2023-08-17T09:05:07Z</time></trkpt><trkpt lat="58.054227" lon="38.835432"><ele>111.9</ele><time>2023-08-17T09:05:10Z</time></trkpt><trkpt lat="58.054307" lon="38.835483"><ele>108.2</ele><time>2023-08-17T09:05:13Z</time></trkpt><trkpt lat="58.054395" lon="38.835555"><ele>104.6</ele><time>2023-08-17T09:05:16Z</time></trkpt><trkpt lat="58.054473" lon="38.835632"><ele>104.8</ele><time>2023-08-17T09:05:18Z</time></trkpt><trkpt lat="58.05455" lon="38.835712"><ele>104.7</ele><time>2023-08-17T09:05:20Z</time></trkpt><trkpt lat="58.054628" lon="38.835788"><ele>105.1</ele><time>2023-08-17T09:05:22Z</time></trkpt><trkpt lat="58.054698" lon="38.835868"><ele>104.2</ele><time>2023-08-17T09:05:24Z</time></trkpt><trkpt lat="58.05479" lon="38.835958"><ele>101.5</ele><time>2023-08-17T09:05:27Z</time></trkpt><trkpt lat="58.054865" lon="38.836037"><ele>103.0</ele><time>2023-08-17T09:05:30Z</time></trkpt><trkpt lat="58.054937" lon="38.836117"><ele>102.3</ele><time>2023-08-17T09:05:33Z</time></trkpt><trkpt lat="58.055008" lon="38.836183"><ele>101.3</ele><time>2023-08-17T09:05:36Z</time></trkpt><trkpt lat="58.055093" lon="38.836263"><ele>104.6</ele><time>2023-08-17T09:05:40Z</time></trkpt><trkpt lat="58.055165" lon="38.836337"><ele>103.7</ele><time>2023-08-17T09:05:43Z</time></trkpt><trkpt lat="58.055232" lon="38.836405"><ele>103.0</ele><time>2023-08-17T09:05:46Z</time></trkpt><trkpt lat="58.055313" lon="38.836407"><ele>103.4</ele><time>2023-08-17T09:06:00Z</time></trkpt><trkpt lat="58.055375" lon="38.836335"><ele>98.8</ele><time>2023-08-17T09:06:02Z</time></trkpt><trkpt lat="58.055425" lon="38.836218"><ele>97.9</ele><time>2023-08-17T09:06:04Z</time></trkpt><trkpt lat="58.055475" lon="38.836093"><ele>95.4</ele><time>2023-08-17T09:06:06Z</time></trkpt><trkpt lat="58.055528" lon="38.835962"><ele>95.0</ele><time>2023-08-17T09:06:08Z</time></trkpt><trkpt lat="58.055582" lon="38.835837"><ele>94.4</ele><time>2023-08-17T09:06:10Z</time></trkpt><trkpt lat="58.055628" lon="38.835698"><ele>95.2</ele><time>2023-08-17T09:06:12Z</time></trkpt><trkpt lat="58.055685" lon="38.835513"><ele>94.5</ele><time>2023-08-17T09:06:14Z</time></trkpt><trkpt lat="58.055755" lon="38.835313"><ele>93.2</ele><time>2023-08-17T09:06:16Z</time></trkpt><trkpt lat="58.0558" lon="38.835195"><ele>92.5</ele><time>2023-08-17T09:06:17Z</time></trkpt><trkpt lat="58.055845" lon="38.835077"><ele>92.4</ele><time>2023-08-17T09:06:18Z</time></trkpt><trkpt lat="58.055885" lon="38.834957"><ele>92.6</ele><time>2023-08-17T09:06:19Z</time></trkpt><trkpt lat="58.055958" lon="38.834733"><ele>92.4</ele><time>2023-08-17T09:06:21Z</time></trkpt><trkpt lat="58.056028" lon="38.834528"><ele>92.2</ele><time>2023-08-17T09:06:23Z</time></trkpt><trkpt lat="58.05609" lon="38.834327"><ele>92.4</ele><time>2023-08-17T09:06:25Z</time></trkpt><trkpt lat="58.056147" lon="38.834125"><ele>92.5</ele><time>2023-08-17T09:06:27Z</time></trkpt><trkpt lat="58.056218" lon="38.833955"><ele>92.3</ele><time>2023-08-17T09:06:29Z</time></trkpt><trkpt lat="58.056275" lon="38.833768"><ele>92.6</ele><time>2023-08-17T09:06:31Z</time></trkpt><trkpt lat="58.056332" lon="38.83359"><ele>93.1</ele><time>2023-08-17T09:06:33Z</time></trkpt><trkpt lat="58.05639" lon="38.833402"><ele>92.9</ele><time>2023-08-17T09:06:35Z</time></trkpt><trkpt lat="58.056453" lon="38.83322"><ele>92.9</ele><time>2023-08-17T09:06:37Z</time></trkpt><trkpt lat="58.05651" lon="38.833025"><ele>92.8</ele><time>2023-08-17T09:06:39Z</time></trkpt><trkpt lat="58.056567" lon="38.832842"><ele>92.3</ele><time>2023-08-17T09:06:41Z</time></trkpt><trkpt lat="58.05661" lon="38.83265"><ele>92.6</ele><time>2023-08-17T09:06:43Z</time></trkpt><trkpt lat="58.056668" lon="38.832493"><ele>92.4</ele><time>2023-08-17T09:06:45Z</time></trkpt><trkpt lat="58.056708" lon="38.832345"><ele>92.2</ele><time>2023-08-17T09:06:47Z</time></trkpt><trkpt lat="58.056753" lon="38.832202"><ele>93.1</ele><time>2023-08-17T09:06:49Z</time></trkpt><trkpt lat="58.05681" lon="38.832038"><ele>93.7</ele><time>2023-08-17T09:06:51Z</time></trkpt><trkpt lat="58.056865" lon="38.831877"><ele>93.6</ele><time>2023-08-17T09:06:53Z</time></trkpt><trkpt lat="58.056928" lon="38.83167"><ele>93.2</ele><time>2023-08-17T09:06:55Z</time></trkpt><trkpt lat="58.056995" lon="38.831462"><ele>93.3</ele><time>2023-08-17T09:06:57Z</time></trkpt><trkpt lat="58.057093" lon="38.831272"><ele>93.3</ele><time>2023-08-17T09:06:59Z</time></trkpt><trkpt lat="58.057217" lon="38.831143"><ele>93.7</ele><time>2023-08-17T09:07:01Z</time></trkpt><trkpt lat="58.057333" lon="38.831008"><ele>93.4</ele><time>2023-08-17T09:07:03Z</time></trkpt><trkpt lat="58.057438" lon="38.830842"><ele>93.6</ele><time>2023-08-17T09:07:05Z</time></trkpt><trkpt lat="58.057523" lon="38.830688"><ele>93.7</ele><time>2023-08-17T09:07:07Z</time></trkpt><trkpt lat="58.057608" lon="38.830523"><ele>93.0</ele><time>2023-08-17T09:07:09Z</time></trkpt><trkpt lat="58.057685" lon="38.830407"><ele>92.9</ele><time>2023-08-17T09:07:11Z</time></trkpt><trkpt lat="58.05777" lon="38.830282"><ele>93.0</ele><time>2023-08-17T09:07:13Z</time></trkpt><trkpt lat="58.057875" lon="38.830148"><ele>90.6</ele><time>2023-08-17T09:07:15Z</time></trkpt><trkpt lat="58.057958" lon="38.830018"><ele>91.6</ele><time>2023-08-17T09:07:17Z</time></trkpt><trkpt lat="58.058032" lon="38.829867"><ele>92.0</ele><time>2023-08-17T09:07:19Z</time></trkpt><trkpt lat="58.058138" lon="38.829705"><ele>90.4</ele><time>2023-08-17T09:07:21Z</time></trkpt><trkpt lat="58.058247" lon="38.82954"><ele>88.2</ele><time>2023-08-17T09:07:23Z</time></trkpt><trkpt lat="58.05834" lon="38.829382"><ele>90.0</ele><time>2023-08-17T09:07:25Z</time></trkpt><trkpt lat="58.058438" lon="38.829218"><ele>91.1</ele><time>2023-08-17T09:07:27Z</time></trkpt><trkpt lat="58.058535" lon="38.829087"><ele>90.8</ele><time>2023-08-17T09:07:29Z</time></trkpt><trkpt lat="58.05862" lon="38.828917"><ele>90.8</ele><time>2023-08-17T09:07:31Z</time></trkpt><trkpt lat="58.058665" lon="38.828738"><ele>90.7</ele><time>2023-08-17T09:07:33Z</time></trkpt><trkpt lat="58.058722" lon="38.828575"><ele>90.9</ele><time>2023-08-17T09:07:35Z</time></trkpt><trkpt lat="58.058767" lon="38.82842"><ele>91.4</ele><time>2023-08-17T09:07:37Z</time></trkpt><trkpt lat="58.058802" lon="38.828263"><ele>90.2</ele><time>2023-08-17T09:07:39Z</time></trkpt><trkpt lat="58.05885" lon="38.828115"><ele>89.5</ele><time>2023-08-17T09:07:41Z</time></trkpt><trkpt lat="58.058917" lon="38.827945"><ele>87.7</ele><time>2023-08-17T09:07:43Z</time></trkpt><trkpt lat="58.058985" lon="38.827742"><ele>89.7</ele><time>2023-08-17T09:07:45Z</time></trkpt><trkpt lat="58.059048" lon="38.827552"><ele>90.5</ele><time>2023-08-17T09:07:47Z</time></trkpt><trkpt lat="58.05912" lon="38.82736"><ele>91.1</ele><time>2023-08-17T09:07:49Z</time></trkpt><trkpt lat="58.059162" lon="38.827207"><ele>89.8</ele><time>2023-08-17T09:07:51Z</time></trkpt><trkpt lat="58.059193" lon="38.82704"><ele>89.1</ele><time>2023-08-17T09:07:53Z</time></trkpt><trkpt lat="58.059252" lon="38.826887"><ele>89.8</ele><time>2023-08-17T09:07:55Z</time></trkpt><trkpt lat="58.059308" lon="38.826732"><ele>90.2</ele><time>2023-08-17T09:07:57Z</time></trkpt><trkpt lat="58.059372" lon="38.826597"><ele>92.1</ele><time>2023-08-17T09:07:59Z</time></trkpt><trkpt lat="58.059445" lon="38.826468"><ele>94.3</ele><time>2023-08-17T09:08:01Z</time></trkpt><trkpt lat="58.059483" lon="38.826322"><ele>93.9</ele><time>2023-08-17T09:08:03Z</time></trkpt><trkpt lat="58.059467" lon="38.82615"><ele>91.6</ele><time>2023-08-17T09:08:06Z</time></trkpt><trkpt lat="58.059427" lon="38.826015"><ele>91.7</ele><time>2023-08-17T09:08:09Z</time></trkpt><trkpt lat="58.05941" lon="38.82585"><ele>87.9</ele><time>2023-08-17T09:08:13Z</time></trkpt><trkpt lat="58.059407" lon="38.825655"><ele>89.1</ele><time>2023-08-17T09:08:16Z</time></trkpt><trkpt lat="58.059387" lon="38.825502"><ele>89.2</ele><time>2023-08-17T09:08:18Z</time></trkpt><trkpt lat="58.059368" lon="38.825312"><ele>89.6</ele><time>2023-08-17T09:08:20Z</time></trkpt><trkpt lat="58.05932" lon="38.825143"><ele>89.3</ele><time>2023-08-17T09:08:22Z</time></trkpt><trkpt lat="58.059268" lon="38.825002"><ele>90.5</ele><time>2023-08-17T09:08:24Z</time></trkpt><trkpt lat="58.059213" lon="38.824887"><ele>91.0</ele><time>2023-08-17T09:08:26Z</time></trkpt><trkpt lat="58.059163" lon="38.824778"><ele>92.0</ele><time>2023-08-17T09:08:28Z</time></trkpt><trkpt lat="58.059115" lon="38.824618"><ele>93.7</ele><time>2023-08-17T09:08:31Z</time></trkpt><trkpt lat="58.059122" lon="38.824478"><ele>94.8</ele><time>2023-08-17T09:08:33Z</time></trkpt><trkpt lat="58.059142" lon="38.824347"><ele>95.0</ele><time>2023-08-17T09:08:35Z</time></trkpt><trkpt lat="58.059203" lon="38.824213"><ele>95.3</ele><time>2023-08-17T09:08:37Z</time></trkpt><trkpt lat="58.059282" lon="38.824043"><ele>96.5</ele><time>2023-08-17T09:08:39Z</time></trkpt><trkpt lat="58.059362" lon="38.823882"><ele>97.6</ele><time>2023-08-17T09:08:41Z</time></trkpt><trkpt lat="58.059435" lon="38.823727"><ele>97.4</ele><time>2023-08-17T09:08:43Z</time></trkpt><trkpt lat="58.059503" lon="38.823592"><ele>97.5</ele><time>2023-08-17T09:08:45Z</time></trkpt><trkpt lat="58.059548" lon="38.823445"><ele>97.3</ele><time>2023-08-17T09:08:47Z</time></trkpt><trkpt lat="58.059588" lon="38.823273"><ele>97.3</ele><time>2023-08-17T09:08:49Z</time></trkpt><trkpt lat="58.059618" lon="38.82311"><ele>98.3</ele><time>2023-08-17T09:08:51Z</time></trkpt><trkpt lat="58.059638" lon="38.822957"><ele>98.6</ele><time>2023-08-17T09:08:53Z</time></trkpt><trkpt lat="58.059638" lon="38.822817"><ele>98.0</ele><time>2023-08-17T09:08:55Z</time></trkpt><trkpt lat="58.059653" lon="38.822665"><ele>99.5</ele><time>2023-08-17T09:08:57Z</time></trkpt><trkpt lat="58.059675" lon="38.82252"><ele>99.2</ele><time>2023-08-17T09:08:59Z</time></trkpt><trkpt lat="58.05968" lon="38.822382"><ele>99.5</ele><time>2023-08-17T09:09:02Z</time></trkpt><trkpt lat="58.059692" lon="38.822197"><ele>99.2</ele><time>2023-08-17T09:09:05Z</time></trkpt><trkpt lat="58.059702" lon="38.822053"><ele>99.5</ele><time>2023-08-17T09:09:07Z</time></trkpt><trkpt lat="58.05972" lon="38.821873"><ele>100.5</ele><time>2023-08-17T09:09:09Z</time></trkpt><trkpt lat="58.059732" lon="38.821688"><ele>101.7</ele><time>2023-08-17T09:09:11Z</time></trkpt><trkpt lat="58.059752" lon="38.82151"><ele>101.9</ele><time>2023-08-17T09:09:13Z</time></trkpt><trkpt lat="58.059763" lon="38.821353"><ele>103.1</ele><time>2023-08-17T09:09:15Z</time></trkpt><trkpt lat="58.05976" lon="38.821195"><ele>103.2</ele><time>2023-08-17T09:09:17Z</time></trkpt><trkpt lat="58.059778" lon="38.821"><ele>103.8</ele><time>2023-08-17T09:09:19Z</time></trkpt><trkpt lat="58.059787" lon="38.820808"><ele>103.4</ele><time>2023-08-17T09:09:21Z</time></trkpt><trkpt lat="58.059803" lon="38.82063"><ele>102.4</ele><time>2023-08-17T09:09:23Z</time></trkpt><trkpt lat="58.059822" lon="38.820458"><ele>103.1</ele><time>2023-08-17T09:09:25Z</time></trkpt><trkpt lat="58.059845" lon="38.820262"><ele>104.6</ele><time>2023-08-17T09:09:27Z</time></trkpt><trkpt lat="58.059845" lon="38.820042"><ele>102.7</ele><time>2023-08-17T09:09:29Z</time></trkpt><trkpt lat="58.059855" lon="38.819843"><ele>102.2</ele><time>2023-08-17T09:09:31Z</time></trkpt><trkpt lat="58.059858" lon="38.819625"><ele>99.7</ele><time>2023-08-17T09:09:33Z</time></trkpt><trkpt lat="58.05987" lon="38.81948"><ele>98.4</ele><time>2023-08-17T09:09:34Z</time></trkpt><trkpt lat="58.05988" lon="38.81922"><ele>98.2</ele><time>2023-08-17T09:09:36Z</time></trkpt><trkpt lat="58.059892" lon="38.819085"><ele>97.4</ele><time>2023-08-17T09:09:37Z</time></trkpt><trkpt lat="58.059907" lon="38.818825"><ele>98.4</ele><time>2023-08-17T09:09:39Z</time></trkpt><trkpt lat="58.05992" lon="38.818575"><ele>98.7</ele><time>2023-08-17T09:09:41Z</time></trkpt><trkpt lat="58.059943" lon="38.818365"><ele>100.2</ele><time>2023-08-17T09:09:43Z</time></trkpt><trkpt lat="58.059957" lon="38.818173"><ele>100.4</ele><time>2023-08-17T09:09:45Z</time></trkpt><trkpt lat="58.05997" lon="38.818027"><ele>100.5</ele><time>2023-08-17T09:09:47Z</time></trkpt><trkpt lat="58.059975" lon="38.81781"><ele>101.1</ele><time>2023-08-17T09:09:50Z</time></trkpt><trkpt lat="58.05998" lon="38.817647"><ele>101.2</ele><time>2023-08-17T09:09:52Z</time></trkpt><trkpt lat="58.059997" lon="38.817475"><ele>100.8</ele><time>2023-08-17T09:09:54Z</time></trkpt><trkpt lat="58.060017" lon="38.817293"><ele>100.8</ele><time>2023-08-17T09:09:56Z</time></trkpt><trkpt lat="58.060002" lon="38.817093"><ele>101.0</ele><time>2023-08-17T09:09:58Z</time></trkpt><trkpt lat="58.060015" lon="38.81692"><ele>101.0</ele><time>2023-08-17T09:10:00Z</time></trkpt><trkpt lat="58.060028" lon="38.816745"><ele>101.4</ele><time>2023-08-17T09:10:02Z</time></trkpt><trkpt lat="58.060043" lon="38.816547"><ele>101.5</ele><time>2023-08-17T09:10:04Z</time></trkpt><trkpt lat="58.060045" lon="38.816395"><ele>101.7</ele><time>2023-08-17T09:10:06Z</time></trkpt><trkpt lat="58.060048" lon="38.816218"><ele>101.7</ele><time>2023-08-17T09:10:08Z</time></trkpt><trkpt lat="58.06006" lon="38.816035"><ele>100.7</ele><time>2023-08-17T09:10:09Z</time></trkpt><trkpt lat="58.060072" lon="38.815822"><ele>100.3</ele><time>2023-08-17T09:10:11Z</time></trkpt><trkpt lat="58.060085" lon="38.815615"><ele>100.4</ele><time>2023-08-17T09:10:13Z</time></trkpt><trkpt lat="58.060093" lon="38.81545"><ele>100.9</ele><time>2023-08-17T09:10:15Z</time></trkpt><trkpt lat="58.06011" lon="38.815295"><ele>100.3</ele><time>2023-08-17T09:10:17Z</time></trkpt><trkpt lat="58.060107" lon="38.815082"><ele>100.8</ele><time>2023-08-17T09:10:20Z</time></trkpt><trkpt lat="58.060117" lon="38.814887"><ele>101.1</ele><time>2023-08-17T09:10:23Z</time></trkpt><trkpt lat="58.060132" lon="38.814713"><ele>103.5</ele><time>2023-08-17T09:10:26Z</time></trkpt><trkpt lat="58.06013" lon="38.814562"><ele>104.3</ele><time>2023-08-17T09:10:28Z</time></trkpt><trkpt lat="58.060162" lon="38.814385"><ele>103.8</ele><time>2023-08-17T09:10:30Z</time></trkpt><trkpt lat="58.060163" lon="38.814243"><ele>102.6</ele><time>2023-08-17T09:10:32Z</time></trkpt><trkpt lat="58.060173" lon="38.814092"><ele>100.1</ele><time>2023-08-17T09:10:35Z</time></trkpt><trkpt lat="58.06017" lon="38.813955"><ele>101.6</ele><time>2023-08-17T09:10:37Z</time></trkpt><trkpt lat="58.06018" lon="38.813783"><ele>101.8</ele><time>2023-08-17T09:10:39Z</time></trkpt><trkpt lat="58.060167" lon="38.81359"><ele>98.5</ele><time>2023-08-17T09:10:42Z</time></trkpt><trkpt lat="58.060173" lon="38.813437"><ele>99.4</ele><time>2023-08-17T09:10:44Z</time></trkpt><trkpt lat="58.060183" lon="38.813292"><ele>101.6</ele><time>2023-08-17T09:10:46Z</time></trkpt><trkpt lat="58.060188" lon="38.813152"><ele>102.2</ele><time>2023-08-17T09:10:48Z</time></trkpt><trkpt lat="58.060203" lon="38.812985"><ele>101.7</ele><time>2023-08-17T09:10:50Z</time></trkpt><trkpt lat="58.060217" lon="38.81284"><ele>102.4</ele><time>2023-08-17T09:10:52Z</time></trkpt><trkpt lat="58.06022" lon="38.812703"><ele>100.9</ele><time>2023-08-17T09:10:54Z</time></trkpt><trkpt lat="58.060223" lon="38.812532"><ele>100.9</ele><time>2023-08-17T09:10:57Z</time></trkpt><trkpt lat="58.060227" lon="38.812332"><ele>99.0</ele><time>2023-08-17T09:11:00Z</time></trkpt><trkpt lat="58.060228" lon="38.812183"><ele>98.3</ele><time>2023-08-17T09:11:02Z</time></trkpt><trkpt lat="58.060233" lon="38.811988"><ele>97.8</ele><time>2023-08-17T09:11:05Z</time></trkpt><trkpt lat="58.060252" lon="38.811833"><ele>96.5</ele><time>2023-08-17T09:11:08Z</time></trkpt><trkpt lat="58.06027" lon="38.811677"><ele>96.5</ele><time>2023-08-17T09:11:12Z</time></trkpt><trkpt lat="58.060293" lon="38.811518"><ele>98.0</ele><time>2023-08-17T09:11:18Z</time></trkpt><trkpt lat="58.060313" lon="38.81132"><ele>98.5</ele><time>2023-08-17T09:11:21Z</time></trkpt><trkpt lat="58.060335" lon="38.811133"><ele>97.5</ele><time>2023-08-17T09:11:23Z</time></trkpt><trkpt lat="58.06035" lon="38.810948"><ele>98.7</ele><time>2023-08-17T09:11:25Z</time></trkpt><trkpt lat="58.060358" lon="38.810737"><ele>97.9</ele><time>2023-08-17T09:11:27Z</time></trkpt><trkpt lat="58.060367" lon="38.810585"><ele>98.4</ele><time>2023-08-17T09:11:29Z</time></trkpt><trkpt lat="58.060385" lon="38.810403"><ele>99.3</ele><time>2023-08-17T09:11:31Z</time></trkpt><trkpt lat="58.060395" lon="38.810213"><ele>97.3</ele><time>2023-08-17T09:11:34Z</time></trkpt><trkpt lat="58.060415" lon="38.810055"><ele>97.4</ele><time>2023-08-17T09:11:36Z</time></trkpt><trkpt lat="58.060413" lon="38.809917"><ele>98.9</ele><time>2023-08-17T09:11:38Z</time></trkpt><trkpt lat="58.060405" lon="38.80967"><ele>99.0</ele><time>2023-08-17T09:11:41Z</time></trkpt><trkpt lat="58.060415" lon="38.80952"><ele>99.1</ele><time>2023-08-17T09:11:43Z</time></trkpt><trkpt lat="58.060417" lon="38.809357"><ele>99.8</ele><time>2023-08-17T09:11:45Z</time></trkpt><trkpt lat="58.060415" lon="38.809212"><ele>99.3</ele><time>2023-08-17T09:11:47Z</time></trkpt><trkpt lat="58.060423" lon="38.809025"><ele>97.9</ele><time>2023-08-17T09:11:49Z</time></trkpt><trkpt lat="58.060457" lon="38.808858"><ele>94.7</ele><time>2023-08-17T09:11:51Z</time></trkpt><trkpt lat="58.060472" lon="38.808678"><ele>96.0</ele><time>2023-08-17T09:11:53Z</time></trkpt><trkpt lat="58.06048" lon="38.80852"><ele>97.0</ele><time>2023-08-17T09:11:55Z</time></trkpt><trkpt lat="58.060495" lon="38.808363"><ele>97.5</ele><time>2023-08-17T09:11:57Z</time></trkpt><trkpt lat="58.060497" lon="38.808228"><ele>98.0</ele><time>2023-08-17T09:11:59Z</time></trkpt><trkpt lat="58.060503" lon="38.808073"><ele>99.8</ele><time>2023-08-17T09:12:02Z</time></trkpt><trkpt lat="58.060515" lon="38.807917"><ele>99.3</ele><time>2023-08-17T09:12:06Z</time></trkpt><trkpt lat="58.060442" lon="38.807883"><ele>99.6</ele><time>2023-08-17T09:12:26Z</time></trkpt><trkpt lat="58.060357" lon="38.807872"><ele>100.2</ele><time>2023-08-17T09:12:29Z</time></trkpt><trkpt lat="58.060255" lon="38.807883"><ele>102.4</ele><time>2023-08-17T09:12:32Z</time></trkpt><trkpt lat="58.060183" lon="38.807868"><ele>104.0</ele><time>2023-08-17T09:12:34Z</time></trkpt><trkpt lat="58.060088" lon="38.807842"><ele>103.6</ele><time>2023-08-17T09:12:36Z</time></trkpt><trkpt lat="58.059993" lon="38.8078"><ele>104.7</ele><time>2023-08-17T09:12:38Z</time></trkpt><trkpt lat="58.059887" lon="38.807745"><ele>103.4</ele><time>2023-08-17T09:12:40Z</time></trkpt><trkpt lat="58.059802" lon="38.807715"><ele>102.3</ele><time>2023-08-17T09:12:41Z</time></trkpt><trkpt lat="58.059698" lon="38.807715"><ele>102.7</ele><time>2023-08-17T09:12:43Z</time></trkpt><trkpt lat="58.05958" lon="38.80769"><ele>101.9</ele><time>2023-08-17T09:12:45Z</time></trkpt><trkpt lat="58.059463" lon="38.807653"><ele>101.7</ele><time>2023-08-17T09:12:47Z</time></trkpt><trkpt lat="58.059387" lon="38.807643"><ele>102.1</ele><time>2023-08-17T09:12:48Z</time></trkpt><trkpt lat="58.059312" lon="38.807592"><ele>99.8</ele><time>2023-08-17T09:12:50Z</time></trkpt><trkpt lat="58.059223" lon="38.807588"><ele>103.5</ele><time>2023-08-17T09:12:53Z</time></trkpt><trkpt lat="58.059115" lon="38.80756"><ele>106.0</ele><time>2023-08-17T09:12:56Z</time></trkpt><trkpt lat="58.059038" lon="38.807555"><ele>106.8</ele><time>2023-08-17T09:12:59Z</time></trkpt><trkpt lat="58.05896" lon="38.807527"><ele>106.7</ele><time>2023-08-17T09:13:02Z</time></trkpt><trkpt lat="58.058877" lon="38.807525"><ele>106.9</ele><time>2023-08-17T09:13:05Z</time></trkpt><trkpt lat="58.058777" lon="38.807518"><ele>108.5</ele><time>2023-08-17T09:13:09Z</time></trkpt><trkpt lat="58.058698" lon="38.807587"><ele>102.7</ele><time>2023-08-17T09:13:12Z</time></trkpt><trkpt lat="58.058612" lon="38.807712"><ele>100.1</ele><time>2023-08-17T09:13:30Z</time></trkpt><trkpt lat="58.058748" lon="38.807757"><ele>99.9</ele><time>2023-08-17T09:14:22Z</time></trkpt></trkseg></trk></gpx>