<?xml version="1.0" encoding="UTF-8" standalone="no"?><gpx xmlns="http://www.topografix.com/GPX/1/1" xmlns:gpxtpx="http://www.garmin.com/xmlschemas/TrackPointExtension/v1" xmlns:xsi="http://www.w3.org/2001/XMLSchema-instance" creator="Sports Tracker" version="1.1" xsi:schemaLocation="http://www.topografix.com/GPX/1/1 http://www.topografix.com/GPX/1/1/gpx.xsd http://www.garmin.com/xmlschemas/TrackPointExtension/v1 http://www.garmin.com/xmlschemas/TrackPointExtensionv1.xsd"><metadata><name/><desc/><author><name>Александр</name></author></metadata><trk><name/><trkseg><trkpt lat="58.040937" lon="39.119388"><ele>110.8</ele><time>2023-02-04T15:18:03Z</time></trkpt><trkpt lat="58.041025" lon="39.119505"><ele>109.9</ele><time>2023-02-04T15:18:06Z</time></trkpt><trkpt lat="58.041103" lon="39.119583"><ele>109.5</ele><time>2023-02-04T15:18:08Z</time></trkpt><trkpt lat="58.041213" lon="39.11966"><ele>109.7</ele><time>2023-02-04T15:18:10Z</time></trkpt><trkpt lat="58.041327" lon="39.119722"><ele>110.4</ele><time>2023-02-04T15:18:12Z</time></trkpt><trkpt lat="58.041432" lon="39.11982"><ele>110.6</ele><time>2023-02-04T15:18:14Z</time></trkpt><trkpt lat="58.041537" lon="39.119933"><ele>109.9</ele><time>2023-02-04T15:18:16Z</time></trkpt><trkpt lat="58.041605" lon="39.119988"><ele>109.2</ele><time>2023-02-04T15:18:18Z</time></trkpt><trkpt lat="58.04167" lon="39.120135"><ele>109.0</ele><time>2023-02-04T15:18:20Z</time></trkpt><trkpt lat="58.041767" lon="39.1202"><ele>108.7</ele><time>2023-02-04T15:18:22Z</time></trkpt><trkpt lat="58.041847" lon="39.120228"><ele>109.5</ele><time>2023-02-04T15:18:24Z</time></trkpt><trkpt lat="58.041928" lon="39.120325"><ele>108.9</ele><time>2023-02-04T15:18:26Z</time></trkpt><trkpt lat="58.041985" lon="39.120423"><ele>108.2</ele><time>2023-02-04T15:18:28Z</time></trkpt><trkpt lat="58.042068" lon="39.120585"><ele>106.5</ele><time>2023-02-04T15:18:31Z</time></trkpt><trkpt lat="58.042133" lon="39.120735"><ele>106.1</ele><time>2023-02-04T15:18:33Z</time></trkpt><trkpt lat="58.042218" lon="39.120738"><ele>106.4</ele><time>2023-02-04T15:18:34Z</time></trkpt><trkpt lat="58.042343" lon="39.120803"><ele>106.6</ele><time>2023-02-04T15:18:36Z</time></trkpt><trkpt lat="58.042448" lon="39.120763"><ele>105.6</ele><time>2023-02-04T15:18:37Z</time></trkpt><trkpt lat="58.042565" lon="39.120727"><ele>105.0</ele><time>2023-02-04T15:18:39Z</time></trkpt><trkpt lat="58.0427" lon="39.120693"><ele>104.5</ele><time>2023-02-04T15:18:41Z</time></trkpt><trkpt lat="58.042797" lon="39.120695"><ele>103.1</ele><time>2023-02-04T15:18:43Z</time></trkpt><trkpt lat="58.042893" lon="39.120677"><ele>102.1</ele><time>2023-02-04T15:18:45Z</time></trkpt><trkpt lat="58.042977" lon="39.120705"><ele>101.5</ele><time>2023-02-04T15:18:47Z</time></trkpt><trkpt lat="58.043073" lon="39.120752"><ele>100.8</ele><time>2023-02-04T15:18:49Z</time></trkpt><trkpt lat="58.043153" lon="39.120858"><ele>100.8</ele><time>2023-02-04T15:18:51Z</time></trkpt><trkpt lat="58.043235" lon="39.12098"><ele>100.5</ele><time>2023-02-04T15:18:54Z</time></trkpt><trkpt lat="58.043307" lon="39.121093"><ele>101.0</ele><time>2023-02-04T15:18:57Z</time></trkpt><trkpt lat="58.043368" lon="39.121203"><ele>99.5</ele><time>2023-02-04T15:19:00Z</time></trkpt><trkpt lat="58.043428" lon="39.12129"><ele>101.1</ele><time>2023-02-04T15:19:03Z</time></trkpt><trkpt lat="58.0435" lon="39.121375"><ele>100.7</ele><time>2023-02-04T15:19:06Z</time></trkpt><trkpt lat="58.043557" lon="39.12147"><ele>101.3</ele><time>2023-02-04T15:19:09Z</time></trkpt><trkpt lat="58.043608" lon="39.12159"><ele>102.1</ele><time>2023-02-04T15:19:13Z</time></trkpt><trkpt lat="58.043653" lon="39.121735"><ele>103.5</ele><time>2023-02-04T15:19:17Z</time></trkpt><trkpt lat="58.043713" lon="39.121852"><ele>103.6</ele><time>2023-02-04T15:19:34Z</time></trkpt><trkpt lat="58.04381" lon="39.121913"><ele>103.0</ele><time>2023-02-04T15:19:38Z</time></trkpt><trkpt lat="58.043892" lon="39.121953"><ele>103.2</ele><time>2023-02-04T15:19:40Z</time></trkpt><trkpt lat="58.043977" lon="39.12199"><ele>103.3</ele><time>2023-02-04T15:19:42Z</time></trkpt><trkpt lat="58.04406" lon="39.122023"><ele>103.4</ele><time>2023-02-04T15:19:44Z</time></trkpt><trkpt lat="58.044157" lon="39.122078"><ele>104.0</ele><time>2023-02-04T15:19:47Z</time></trkpt><trkpt lat="58.044232" lon="39.122095"><ele>104.3</ele><time>2023-02-04T15:19:50Z</time></trkpt><trkpt lat="58.044307" lon="39.122088"><ele>103.8</ele><time>2023-02-04T15:19:52Z</time></trkpt><trkpt lat="58.044398" lon="39.122087"><ele>103.9</ele><time>2023-02-04T15:19:54Z</time></trkpt><trkpt lat="58.044495" lon="39.122055"><ele>103.1</ele><time>2023-02-04T15:19:56Z</time></trkpt><trkpt lat="58.04457" lon="39.122038"><ele>102.6</ele><time>2023-02-04T15:19:58Z</time></trkpt><trkpt lat="58.044663" lon="39.12202"><ele>103.4</ele><time>2023-02-04T15:20:01Z</time></trkpt><trkpt lat="58.04474" lon="39.122022"><ele>101.4</ele><time>2023-02-04T15:20:04Z</time></trkpt><trkpt lat="58.044822" lon="39.122005"><ele>102.2</ele><time>2023-02-04T15:20:06Z</time></trkpt><trkpt lat="58.044923" lon="39.121947"><ele>101.5</ele><time>2023-02-04T15:20:08Z</time></trkpt><trkpt lat="58.045042" lon="39.121937"><ele>102.1</ele><time>2023-02-04T15:20:10Z</time></trkpt><trkpt lat="58.045153" lon="39.121938"><ele>104.8</ele><time>2023-02-04T15:20:12Z</time></trkpt><trkpt lat="58.045232" lon="39.121985"><ele>104.0</ele><time>2023-02-04T15:20:14Z</time></trkpt><trkpt lat="58.045317" lon="39.122042"><ele>104.5</ele><time>2023-02-04T15:20:16Z</time></trkpt><trkpt lat="58.045393" lon="39.122092"><ele>104.0</ele><time>2023-02-04T15:20:18Z</time></trkpt><trkpt lat="58.0455" lon="39.122152"><ele>104.3</ele><time>2023-02-04T15:20:21Z</time></trkpt><trkpt lat="58.045598" lon="39.122192"><ele>103.3</ele><time>2023-02-04T15:20:24Z</time></trkpt><trkpt lat="58.045683" lon="39.122262"><ele>102.7</ele><time>2023-02-04T15:20:27Z</time></trkpt><trkpt lat="58.04574" lon="39.122402"><ele>102.1</ele><time>2023-02-04T15:20:30Z</time></trkpt><trkpt lat="58.045785" lon="39.122547"><ele>102.9</ele><time>2023-02-04T15:20:33Z</time></trkpt><trkpt lat="58.045845" lon="39.122678"><ele>104.3</ele><time>2023-02-04T15:20:36Z</time></trkpt><trkpt lat="58.045895" lon="39.12282"><ele>101.3</ele><time>2023-02-04T15:20:39Z</time></trkpt><trkpt lat="58.045947" lon="39.122973"><ele>99.8</ele><time>2023-02-04T15:20:42Z</time></trkpt><trkpt lat="58.04598" lon="39.123162"><ele>100.3</ele><time>2023-02-04T15:20:45Z</time></trkpt><trkpt lat="58.045988" lon="39.123318"><ele>100.1</ele><time>2023-02-04T15:20:47Z</time></trkpt><trkpt lat="58.04598" lon="39.123455"><ele>99.7</ele><time>2023-02-04T15:20:49Z</time></trkpt><trkpt lat="58.045957" lon="39.123605"><ele>99.6</ele><time>2023-02-04T15:20:52Z</time></trkpt><trkpt lat="58.045923" lon="39.12373"><ele>99.5</ele><time>2023-02-04T15:20:55Z</time></trkpt><trkpt lat="58.045887" lon="39.12385"><ele>100.2</ele><time>2023-02-04T15:20:59Z</time></trkpt><trkpt lat="58.045847" lon="39.123983"><ele>102.2</ele><time>2023-02-04T15:21:03Z</time></trkpt><trkpt lat="58.045802" lon="39.124092"><ele>102.1</ele><time>2023-02-04T15:21:07Z</time></trkpt><trkpt lat="58.045752" lon="39.124197"><ele>104.8</ele><time>2023-02-04T15:21:14Z</time></trkpt><trkpt lat="58.045702" lon="39.12431"><ele>106.6</ele><time>2023-02-04T15:21:21Z</time></trkpt><trkpt lat="58.045648" lon="39.12443"><ele>108.0</ele><time>2023-02-04T15:21:28Z</time></trkpt><trkpt lat="58.045595" lon="39.124525"><ele>108.0</ele><time>2023-02-04T15:21:34Z</time></trkpt><trkpt lat="58.045527" lon="39.124617"><ele>107.5</ele><time>2023-02-04T15:21:40Z</time></trkpt><trkpt lat="58.045463" lon="39.1247"><ele>105.3</ele><time>2023-02-04T15:21:47Z</time></trkpt><trkpt lat="58.045407" lon="39.124788"><ele>106.6</ele><time>2023-02-04T15:21:53Z</time></trkpt><trkpt lat="58.045338" lon="39.124872"><ele>108.6</ele><time>2023-02-04T15:21:59Z</time></trkpt><trkpt lat="58.045283" lon="39.124988"><ele>108.5</ele><time>2023-02-04T15:22:05Z</time></trkpt><trkpt lat="58.045232" lon="39.125107"><ele>108.9</ele><time>2023-02-04T15:22:13Z</time></trkpt><trkpt lat="58.04519" lon="39.12522"><ele>108.7</ele><time>2023-02-04T15:22:18Z</time></trkpt><trkpt lat="58.045128" lon="39.125315"><ele>109.9</ele><time>2023-02-04T15:22:24Z</time></trkpt><trkpt lat="58.045062" lon="39.1254"><ele>112.4</ele><time>2023-02-04T15:22:30Z</time></trkpt><trkpt lat="58.04501" lon="39.125515"><ele>116.7</ele><time>2023-02-04T15:22:35Z</time></trkpt><trkpt lat="58.044955" lon="39.125632"><ele>120.9</ele><time>2023-02-04T15:22:41Z</time></trkpt><trkpt lat="58.044912" lon="39.125748"><ele>122.0</ele><time>2023-02-04T15:22:47Z</time></trkpt><trkpt lat="58.044848" lon="39.125818"><ele>122.7</ele><time>2023-02-04T15:22:53Z</time></trkpt><trkpt lat="58.04478" lon="39.125898"><ele>124.1</ele><time>2023-02-04T15:22:59Z</time></trkpt><trkpt lat="58.044698" lon="39.12599"><ele>125.1</ele><time>2023-02-04T15:23:03Z</time></trkpt><trkpt lat="58.044625" lon="39.126062"><ele>125.3</ele><time>2023-02-04T15:23:07Z</time></trkpt><trkpt lat="58.044548" lon="39.126132"><ele>125.3</ele><time>2023-02-04T15:23:10Z</time></trkpt><trkpt lat="58.044478" lon="39.126225"><ele>124.2</ele><time>2023-02-04T15:23:14Z</time></trkpt><trkpt lat="58.044437" lon="39.126352"><ele>123.3</ele><time>2023-02-04T15:23:19Z</time></trkpt><trkpt lat="58.044407" lon="39.126485"><ele>123.7</ele><time>2023-02-04T15:23:23Z</time></trkpt><trkpt lat="58.044387" lon="39.126622"><ele>123.8</ele><time>2023-02-04T15:23:27Z</time></trkpt><trkpt lat="58.044365" lon="39.126753"><ele>124.1</ele><time>2023-02-04T15:23:31Z</time></trkpt><trkpt lat="58.044347" lon="39.126883"><ele>124.0</ele><time>2023-02-04T15:23:35Z</time></trkpt><trkpt lat="58.044337" lon="39.127022"><ele>124.6</ele><time>2023-02-04T15:23:39Z</time></trkpt><trkpt lat="58.044362" lon="39.127187"><ele>124.4</ele><time>2023-02-04T15:23:44Z</time></trkpt><trkpt lat="58.044412" lon="39.12731"><ele>125.0</ele><time>2023-02-04T15:23:48Z</time></trkpt><trkpt lat="58.044477" lon="39.127435"><ele>125.8</ele><time>2023-02-04T15:23:53Z</time></trkpt><trkpt lat="58.044515" lon="39.127565"><ele>125.9</ele><time>2023-02-04T15:23:56Z</time></trkpt><trkpt lat="58.044542" lon="39.127737"><ele>125.9</ele><time>2023-02-04T15:23:59Z</time></trkpt><trkpt lat="58.044563" lon="39.12788"><ele>125.6</ele><time>2023-02-04T15:24:02Z</time></trkpt><trkpt lat="58.044602" lon="39.128025"><ele>125.4</ele><time>2023-02-04T15:24:05Z</time></trkpt><trkpt lat="58.044653" lon="39.128157"><ele>124.1</ele><time>2023-02-04T15:24:08Z</time></trkpt><trkpt lat="58.044717" lon="39.128302"><ele>123.9</ele><time>2023-02-04T15:24:11Z</time></trkpt><trkpt lat="58.04476" lon="39.128413"><ele>124.3</ele><time>2023-02-04T15:24:14Z</time></trkpt><trkpt lat="58.044788" lon="39.128537"><ele>125.6</ele><time>2023-02-04T15:24:20Z</time></trkpt><trkpt lat="58.044797" lon="39.128675"><ele>126.2</ele><time>2023-02-04T15:24:47Z</time></trkpt><trkpt lat="58.044848" lon="39.1288"><ele>127.1</ele><time>2023-02-04T15:24:58Z</time></trkpt><trkpt lat="58.0449" lon="39.128912"><ele>126.7</ele><time>2023-02-04T15:25:00Z</time></trkpt><trkpt lat="58.044987" lon="39.129097"><ele>126.3</ele><time>2023-02-04T15:25:02Z</time></trkpt><trkpt lat="58.04505" lon="39.129205"><ele>126.3</ele><time>2023-02-04T15:25:03Z</time></trkpt><trkpt lat="58.045123" lon="39.129313"><ele>126.2</ele><time>2023-02-04T15:25:04Z</time></trkpt><trkpt lat="58.04524" lon="39.129395"><ele>126.0</ele><time>2023-02-04T15:25:05Z</time></trkpt><trkpt lat="58.045323" lon="39.129495"><ele>125.8</ele><time>2023-02-04T15:25:06Z</time></trkpt><trkpt lat="58.045423" lon="39.129627"><ele>125.2</ele><time>2023-02-04T15:25:07Z</time></trkpt><trkpt lat="58.045512" lon="39.129773"><ele>124.2</ele><time>2023-02-04T15:25:08Z</time></trkpt><trkpt lat="58.0456" lon="39.129913"><ele>123.7</ele><time>2023-02-04T15:25:09Z</time></trkpt><trkpt lat="58.045687" lon="39.13005"><ele>122.8</ele><time>2023-02-04T15:25:10Z</time></trkpt><trkpt lat="58.045777" lon="39.130195"><ele>122.2</ele><time>2023-02-04T15:25:11Z</time></trkpt><trkpt lat="58.04584" lon="39.13034"><ele>121.4</ele><time>2023-02-04T15:25:12Z</time></trkpt><trkpt lat="58.045905" lon="39.130525"><ele>120.0</ele><time>2023-02-04T15:25:13Z</time></trkpt><trkpt lat="58.045957" lon="39.130685"><ele>119.4</ele><time>2023-02-04T15:25:14Z</time></trkpt><trkpt lat="58.046017" lon="39.13083"><ele>118.7</ele><time>2023-02-04T15:25:15Z</time></trkpt><trkpt lat="58.046073" lon="39.13097"><ele>116.6</ele><time>2023-02-04T15:25:16Z</time></trkpt><trkpt lat="58.046122" lon="39.131078"><ele>115.9</ele><time>2023-02-04T15:25:17Z</time></trkpt><trkpt lat="58.046213" lon="39.13125"><ele>115.4</ele><time>2023-02-04T15:25:19Z</time></trkpt><trkpt lat="58.046292" lon="39.13134"><ele>114.3</ele><time>2023-02-04T15:25:22Z</time></trkpt><trkpt lat="58.046372" lon="39.131428"><ele>114.6</ele><time>2023-02-04T15:25:24Z</time></trkpt><trkpt lat="58.04644" lon="39.131512"><ele>113.8</ele><time>2023-02-04T15:25:26Z</time></trkpt><trkpt lat="58.046512" lon="39.13157"><ele>113.7</ele><time>2023-02-04T15:25:29Z</time></trkpt><trkpt lat="58.046597" lon="39.131623"><ele>111.8</ele><time>2023-02-04T15:25:32Z</time></trkpt><trkpt lat="58.046667" lon="39.131687"><ele>111.4</ele><time>2023-02-04T15:25:34Z</time></trkpt><trkpt lat="58.046732" lon="39.13175"><ele>109.6</ele><time>2023-02-04T15:25:36Z</time></trkpt><trkpt lat="58.046808" lon="39.131872"><ele>107.8</ele><time>2023-02-04T15:25:39Z</time></trkpt><trkpt lat="58.046883" lon="39.132017"><ele>107.1</ele><time>2023-02-04T15:25:42Z</time></trkpt><trkpt lat="58.046947" lon="39.132145"><ele>106.1</ele><time>2023-02-04T15:25:45Z</time></trkpt><trkpt lat="58.046997" lon="39.132248"><ele>105.6</ele><time>2023-02-04T15:25:48Z</time></trkpt><trkpt lat="58.047053" lon="39.13237"><ele>107.5</ele><time>2023-02-04T15:25:52Z</time></trkpt><trkpt lat="58.047092" lon="39.132493"><ele>110.9</ele><time>2023-02-04T15:25:57Z</time></trkpt><trkpt lat="58.047133" lon="39.132615"><ele>112.0</ele><time>2023-02-04T15:26:02Z</time></trkpt><trkpt lat="58.047185" lon="39.132715"><ele>111.7</ele><time>2023-02-04T15:26:09Z</time></trkpt><trkpt lat="58.047225" lon="39.13283"><ele>114.8</ele><time>2023-02-04T15:26:26Z</time></trkpt><trkpt lat="58.047257" lon="39.132977"><ele>115.0</ele><time>2023-02-04T15:26:33Z</time></trkpt><trkpt lat="58.047265" lon="39.133128"><ele>114.5</ele><time>2023-02-04T15:26:37Z</time></trkpt><trkpt lat="58.04723" lon="39.13326"><ele>114.6</ele><time>2023-02-04T15:26:43Z</time></trkpt><trkpt lat="58.047203" lon="39.133395"><ele>114.6</ele><time>2023-02-04T15:26:49Z</time></trkpt><trkpt lat="58.047158" lon="39.133503"><ele>115.7</ele><time>2023-02-04T15:26:55Z</time></trkpt><trkpt lat="58.047118" lon="39.133625"><ele>115.0</ele><time>2023-02-04T15:27:01Z</time></trkpt><trkpt lat="58.047082" lon="39.133755"><ele>114.2</ele><time>2023-02-04T15:27:07Z</time></trkpt><trkpt lat="58.047037" lon="39.133868"><ele>114.9</ele><time>2023-02-04T15:27:13Z</time></trkpt><trkpt lat="58.046998" lon="39.133983"><ele>117.3</ele><time>2023-02-04T15:27:21Z</time></trkpt><trkpt lat="58.046947" lon="39.134088"><ele>116.5</ele><time>2023-02-04T15:27:28Z</time></trkpt><trkpt lat="58.046902" lon="39.134218"><ele>117.9</ele><time>2023-02-04T15:27:35Z</time></trkpt><trkpt lat="58.046867" lon="39.13436"><ele>118.5</ele><time>2023-02-04T15:27:41Z</time></trkpt><trkpt lat="58.046835" lon="39.134498"><ele>118.4</ele><time>2023-02-04T15:27:47Z</time></trkpt><trkpt lat="58.046815" lon="39.134638"><ele>118.3</ele><time>2023-02-04T15:27:53Z</time></trkpt><trkpt lat="58.046825" lon="39.134773"><ele>118.1</ele><time>2023-02-04T15:27:57Z</time></trkpt><trkpt lat="58.046805" lon="39.134932"><ele>118.7</ele><time>2023-02-04T15:28:05Z</time></trkpt><trkpt lat="58.046782" lon="39.135063"><ele>119.7</ele><time>2023-02-04T15:28:10Z</time></trkpt><trkpt lat="58.046762" lon="39.1352"><ele>119.4</ele><time>2023-02-04T15:28:15Z</time></trkpt><trkpt lat="58.046762" lon="39.13536"><ele>119.7</ele><time>2023-02-04T15:28:20Z</time></trkpt><trkpt lat="58.04676" lon="39.135513"><ele>121.1</ele><time>2023-02-04T15:28:25Z</time></trkpt><trkpt lat="58.046775" lon="39.135673"><ele>121.2</ele><time>2023-02-04T15:28:29Z</time></trkpt><trkpt lat="58.04679" lon="39.135837"><ele>121.5</ele><time>2023-02-04T15:28:34Z</time></trkpt><trkpt lat="58.046797" lon="39.135988"><ele>122.1</ele><time>2023-02-04T15:28:38Z</time></trkpt><trkpt lat="58.046822" lon="39.136128"><ele>121.6</ele><time>2023-02-04T15:28:41Z</time></trkpt><trkpt lat="58.046848" lon="39.136283"><ele>121.2</ele><time>2023-02-04T15:28:45Z</time></trkpt><trkpt lat="58.046892" lon="39.136408"><ele>120.1</ele><time>2023-02-04T15:28:49Z</time></trkpt><trkpt lat="58.046943" lon="39.136553"><ele>120.1</ele><time>2023-02-04T15:28:53Z</time></trkpt><trkpt lat="58.046997" lon="39.13668"><ele>120.6</ele><time>2023-02-04T15:28:57Z</time></trkpt><trkpt lat="58.047047" lon="39.136793"><ele>121.4</ele><time>2023-02-04T15:29:02Z</time></trkpt><trkpt lat="58.04709" lon="39.136908"><ele>121.2</ele><time>2023-02-04T15:29:05Z</time></trkpt><trkpt lat="58.047137" lon="39.137062"><ele>120.8</ele><time>2023-02-04T15:29:08Z</time></trkpt><trkpt lat="58.047182" lon="39.137207"><ele>121.3</ele><time>2023-02-04T15:29:11Z</time></trkpt><trkpt lat="58.047225" lon="39.137353"><ele>121.1</ele><time>2023-02-04T15:29:14Z</time></trkpt><trkpt lat="58.04727" lon="39.137522"><ele>121.0</ele><time>2023-02-04T15:29:17Z</time></trkpt><trkpt lat="58.047317" lon="39.137657"><ele>121.5</ele><time>2023-02-04T15:29:19Z</time></trkpt><trkpt lat="58.047348" lon="39.13778"><ele>122.2</ele><time>2023-02-04T15:29:22Z</time></trkpt><trkpt lat="58.047378" lon="39.137903"><ele>121.7</ele><time>2023-02-04T15:29:25Z</time></trkpt><trkpt lat="58.047442" lon="39.13802"><ele>123.0</ele><time>2023-02-04T15:29:32Z</time></trkpt><trkpt lat="58.047498" lon="39.138125"><ele>123.7</ele><time>2023-02-04T15:29:37Z</time></trkpt><trkpt lat="58.047513" lon="39.138263"><ele>124.7</ele><time>2023-02-04T15:29:44Z</time></trkpt><trkpt lat="58.047533" lon="39.138397"><ele>126.6</ele><time>2023-02-04T15:29:54Z</time></trkpt><trkpt lat="58.047602" lon="39.138448"><ele>131.5</ele><time>2023-02-04T15:30:37Z</time></trkpt><trkpt lat="58.047683" lon="39.138523"><ele>132.4</ele><time>2023-02-04T15:30:58Z</time></trkpt><trkpt lat="58.04775" lon="39.13858"><ele>132.4</ele><time>2023-02-04T15:31:01Z</time></trkpt><trkpt lat="58.047838" lon="39.138668"><ele>132.2</ele><time>2023-02-04T15:31:04Z</time></trkpt><trkpt lat="58.047908" lon="39.138747"><ele>131.8</ele><time>2023-02-04T15:31:06Z</time></trkpt><trkpt lat="58.048" lon="39.138867"><ele>131.2</ele><time>2023-02-04T15:31:09Z</time></trkpt><trkpt lat="58.048072" lon="39.138982"><ele>132.5</ele><time>2023-02-04T15:31:11Z</time></trkpt><trkpt lat="58.04815" lon="39.139085"><ele>133.4</ele><time>2023-02-04T15:31:13Z</time></trkpt><trkpt lat="58.048228" lon="39.139165"><ele>133.2</ele><time>2023-02-04T15:31:15Z</time></trkpt><trkpt lat="58.048317" lon="39.139242"><ele>132.0</ele><time>2023-02-04T15:31:18Z</time></trkpt><trkpt lat="58.048388" lon="39.139285"><ele>130.8</ele><time>2023-02-04T15:31:21Z</time></trkpt><trkpt lat="58.04846" lon="39.139337"><ele>129.7</ele><time>2023-02-04T15:31:24Z</time></trkpt><trkpt lat="58.04853" lon="39.139398"><ele>130.0</ele><time>2023-02-04T15:31:27Z</time></trkpt><trkpt lat="58.048598" lon="39.139448"><ele>129.7</ele><time>2023-02-04T15:31:30Z</time></trkpt><trkpt lat="58.048668" lon="39.139507"><ele>129.2</ele><time>2023-02-04T15:31:32Z</time></trkpt><trkpt lat="58.048735" lon="39.139575"><ele>129.8</ele><time>2023-02-04T15:31:34Z</time></trkpt><trkpt lat="58.0488" lon="39.139662"><ele>129.0</ele><time>2023-02-04T15:31:36Z</time></trkpt><trkpt lat="58.04889" lon="39.139768"><ele>127.4</ele><time>2023-02-04T15:31:39Z</time></trkpt><trkpt lat="58.048953" lon="39.139853"><ele>128.0</ele><time>2023-02-04T15:31:41Z</time></trkpt><trkpt lat="58.049012" lon="39.139943"><ele>127.5</ele><time>2023-02-04T15:31:43Z</time></trkpt><trkpt lat="58.049077" lon="39.140108"><ele>126.8</ele><time>2023-02-04T15:31:46Z</time></trkpt><trkpt lat="58.049127" lon="39.140225"><ele>127.8</ele><time>2023-02-04T15:31:48Z</time></trkpt><trkpt lat="58.04918" lon="39.14038"><ele>126.5</ele><time>2023-02-04T15:31:51Z</time></trkpt><trkpt lat="58.049222" lon="39.14053"><ele>126.9</ele><time>2023-02-04T15:31:54Z</time></trkpt><trkpt lat="58.049265" lon="39.140695"><ele>127.4</ele><time>2023-02-04T15:31:57Z</time></trkpt><trkpt lat="58.049302" lon="39.140835"><ele>128.0</ele><time>2023-02-04T15:32:00Z</time></trkpt><trkpt lat="58.049347" lon="39.140967"><ele>128.4</ele><time>2023-02-04T15:32:03Z</time></trkpt><trkpt lat="58.049395" lon="39.141112"><ele>128.9</ele><time>2023-02-04T15:32:06Z</time></trkpt><trkpt lat="58.049448" lon="39.141282"><ele>129.6</ele><time>2023-02-04T15:32:09Z</time></trkpt><trkpt lat="58.049507" lon="39.14144"><ele>129.1</ele><time>2023-02-04T15:32:12Z</time></trkpt><trkpt lat="58.049577" lon="39.141573"><ele>129.3</ele><time>2023-02-04T15:32:15Z</time></trkpt><trkpt lat="58.049637" lon="39.141687"><ele>131.8</ele><time>2023-02-04T15:32:18Z</time></trkpt><trkpt lat="58.049655" lon="39.14183"><ele>136.0</ele><time>2023-02-04T15:32:30Z</time></trkpt><trkpt lat="58.04973" lon="39.141827"><ele>135.7</ele><time>2023-02-04T15:32:42Z</time></trkpt><trkpt lat="58.049798" lon="39.141743"><ele>137.0</ele><time>2023-02-04T15:32:47Z</time></trkpt><trkpt lat="58.049883" lon="39.14171"><ele>136.9</ele><time>2023-02-04T15:32:50Z</time></trkpt><trkpt lat="58.049965" lon="39.141677"><ele>138.3</ele><time>2023-02-04T15:32:54Z</time></trkpt><trkpt lat="58.050023" lon="39.141593"><ele>140.0</ele><time>2023-02-04T15:33:01Z</time></trkpt><trkpt lat="58.050077" lon="39.141468"><ele>140.8</ele><time>2023-02-04T15:33:06Z</time></trkpt><trkpt lat="58.050137" lon="39.141315"><ele>140.3</ele><time>2023-02-04T15:33:10Z</time></trkpt><trkpt lat="58.050187" lon="39.141152"><ele>139.7</ele><time>2023-02-04T15:33:13Z</time></trkpt><trkpt lat="58.050237" lon="39.141047"><ele>139.5</ele><time>2023-02-04T15:33:16Z</time></trkpt><trkpt lat="58.050295" lon="39.140915"><ele>139.0</ele><time>2023-02-04T15:33:20Z</time></trkpt><trkpt lat="58.050345" lon="39.140797"><ele>139.2</ele><time>2023-02-04T15:33:23Z</time></trkpt><trkpt lat="58.050433" lon="39.140773"><ele>139.6</ele><time>2023-02-04T15:33:26Z</time></trkpt><trkpt lat="58.050517" lon="39.140823"><ele>139.8</ele><time>2023-02-04T15:33:29Z</time></trkpt><trkpt lat="58.050578" lon="39.140897"><ele>140.9</ele><time>2023-02-04T15:33:33Z</time></trkpt><trkpt lat="58.050678" lon="39.140922"><ele>140.7</ele><time>2023-02-04T15:33:37Z</time></trkpt><trkpt lat="58.050722" lon="39.14108"><ele>140.3</ele><time>2023-02-04T15:33:41Z</time></trkpt><trkpt lat="58.050763" lon="39.141208"><ele>140.0</ele><time>2023-02-04T15:33:47Z</time></trkpt><trkpt lat="58.050802" lon="39.14136"><ele>139.5</ele><time>2023-02-04T15:33:52Z</time></trkpt><trkpt lat="58.050832" lon="39.14149"><ele>139.1</ele><time>2023-02-04T15:33:57Z</time></trkpt><trkpt lat="58.050878" lon="39.141608"><ele>139.1</ele><time>2023-02-04T15:34:01Z</time></trkpt><trkpt lat="58.050923" lon="39.14175"><ele>138.8</ele><time>2023-02-04T15:34:06Z</time></trkpt><trkpt lat="58.050963" lon="39.141895"><ele>137.8</ele><time>2023-02-04T15:34:12Z</time></trkpt><trkpt lat="58.051008" lon="39.142027"><ele>136.7</ele><time>2023-02-04T15:34:17Z</time></trkpt><trkpt lat="58.051042" lon="39.142163"><ele>137.3</ele><time>2023-02-04T15:34:21Z</time></trkpt><trkpt lat="58.051097" lon="39.142278"><ele>137.2</ele><time>2023-02-04T15:34:26Z</time></trkpt><trkpt lat="58.051158" lon="39.14239"><ele>137.0</ele><time>2023-02-04T15:34:29Z</time></trkpt><trkpt lat="58.051222" lon="39.142468"><ele>136.5</ele><time>2023-02-04T15:34:33Z</time></trkpt><trkpt lat="58.051292" lon="39.142563"><ele>136.5</ele><time>2023-02-04T15:34:37Z</time></trkpt><trkpt lat="58.051355" lon="39.142655"><ele>136.2</ele><time>2023-02-04T15:34:40Z</time></trkpt><trkpt lat="58.051413" lon="39.142758"><ele>136.6</ele><time>2023-02-04T15:34:44Z</time></trkpt><trkpt lat="58.051453" lon="39.142885"><ele>136.8</ele><time>2023-02-04T15:34:48Z</time></trkpt><trkpt lat="58.051522" lon="39.143045"><ele>136.2</ele><time>2023-02-04T15:34:51Z</time></trkpt><trkpt lat="58.05158" lon="39.143133"><ele>135.5</ele><time>2023-02-04T15:34:53Z</time></trkpt><trkpt lat="58.051648" lon="39.143212"><ele>134.6</ele><time>2023-02-04T15:34:55Z</time></trkpt><trkpt lat="58.051708" lon="39.143315"><ele>134.3</ele><time>2023-02-04T15:34:57Z</time></trkpt><trkpt lat="58.051783" lon="39.143402"><ele>134.3</ele><time>2023-02-04T15:34:59Z</time></trkpt><trkpt lat="58.051857" lon="39.143485"><ele>134.2</ele><time>2023-02-04T15:35:01Z</time></trkpt><trkpt lat="58.051933" lon="39.143582"><ele>133.5</ele><time>2023-02-04T15:35:03Z</time></trkpt><trkpt lat="58.052017" lon="39.14366"><ele>133.2</ele><time>2023-02-04T15:35:06Z</time></trkpt><trkpt lat="58.05209" lon="39.143687"><ele>133.3</ele><time>2023-02-04T15:35:08Z</time></trkpt><trkpt lat="58.052187" lon="39.1437"><ele>133.3</ele><time>2023-02-04T15:35:10Z</time></trkpt><trkpt lat="58.052317" lon="39.143743"><ele>133.0</ele><time>2023-02-04T15:35:12Z</time></trkpt><trkpt lat="58.05242" lon="39.143828"><ele>132.8</ele><time>2023-02-04T15:35:13Z</time></trkpt><trkpt lat="58.052493" lon="39.143952"><ele>132.7</ele><time>2023-02-04T15:35:14Z</time></trkpt><trkpt lat="58.05254" lon="39.144075"><ele>131.5</ele><time>2023-02-04T15:35:16Z</time></trkpt><trkpt lat="58.052592" lon="39.144185"><ele>131.5</ele><time>2023-02-04T15:35:19Z</time></trkpt><trkpt lat="58.052633" lon="39.14432"><ele>132.9</ele><time>2023-02-04T15:35:22Z</time></trkpt><trkpt lat="58.052695" lon="39.144402"><ele>131.9</ele><time>2023-02-04T15:35:25Z</time></trkpt><trkpt lat="58.05276" lon="39.144485"><ele>131.7</ele><time>2023-02-04T15:35:28Z</time></trkpt><trkpt lat="58.05283" lon="39.144558"><ele>132.1</ele><time>2023-02-04T15:35:33Z</time></trkpt><trkpt lat="58.052902" lon="39.14463"><ele>131.8</ele><time>2023-02-04T15:35:38Z</time></trkpt><trkpt lat="58.052972" lon="39.144705"><ele>130.6</ele><time>2023-02-04T15:35:42Z</time></trkpt><trkpt lat="58.053035" lon="39.144817"><ele>131.8</ele><time>2023-02-04T15:35:45Z</time></trkpt><trkpt lat="58.05306" lon="39.144977"><ele>131.5</ele><time>2023-02-04T15:35:49Z</time></trkpt><trkpt lat="58.05309" lon="39.145128"><ele>131.0</ele><time>2023-02-04T15:35:53Z</time></trkpt><trkpt lat="58.053093" lon="39.145298"><ele>130.6</ele><time>2023-02-04T15:35:58Z</time></trkpt><trkpt lat="58.053082" lon="39.14545"><ele>131.1</ele><time>2023-02-04T15:36:01Z</time></trkpt><trkpt lat="58.053052" lon="39.145617"><ele>131.7</ele><time>2023-02-04T15:36:04Z</time></trkpt><trkpt lat="58.053012" lon="39.145782"><ele>131.5</ele><time>2023-02-04T15:36:07Z</time></trkpt><trkpt lat="58.05297" lon="39.145928"><ele>132.2</ele><time>2023-02-04T15:36:10Z</time></trkpt><trkpt lat="58.052923" lon="39.146075"><ele>134.7</ele><time>2023-02-04T15:36:13Z</time></trkpt><trkpt lat="58.052865" lon="39.146228"><ele>135.8</ele><time>2023-02-04T15:36:16Z</time></trkpt><trkpt lat="58.05281" lon="39.146367"><ele>136.5</ele><time>2023-02-04T15:36:19Z</time></trkpt><trkpt lat="58.05271" lon="39.146445"><ele>136.8</ele><time>2023-02-04T15:36:22Z</time></trkpt><trkpt lat="58.052632" lon="39.146493"><ele>136.5</ele><time>2023-02-04T15:36:24Z</time></trkpt><trkpt lat="58.05255" lon="39.146535"><ele>136.5</ele><time>2023-02-04T15:36:26Z</time></trkpt><trkpt lat="58.052467" lon="39.146563"><ele>135.9</ele><time>2023-02-04T15:36:28Z</time></trkpt><trkpt lat="58.052393" lon="39.146573"><ele>135.4</ele><time>2023-02-04T15:36:30Z</time></trkpt><trkpt lat="58.05231" lon="39.146603"><ele>134.1</ele><time>2023-02-04T15:36:32Z</time></trkpt><trkpt lat="58.052228" lon="39.146648"><ele>133.9</ele><time>2023-02-04T15:36:34Z</time></trkpt><trkpt lat="58.052133" lon="39.146723"><ele>134.9</ele><time>2023-02-04T15:36:36Z</time></trkpt><trkpt lat="58.052047" lon="39.146812"><ele>134.5</ele><time>2023-02-04T15:36:38Z</time></trkpt><trkpt lat="58.05197" lon="39.146828"><ele>133.9</ele><time>2023-02-04T15:36:40Z</time></trkpt><trkpt lat="58.051873" lon="39.146845"><ele>133.8</ele><time>2023-02-04T15:36:44Z</time></trkpt><trkpt lat="58.05179" lon="39.146937"><ele>133.6</ele><time>2023-02-04T15:36:46Z</time></trkpt><trkpt lat="58.051722" lon="39.147005"><ele>132.7</ele><time>2023-02-04T15:36:48Z</time></trkpt><trkpt lat="58.051657" lon="39.147078"><ele>132.0</ele><time>2023-02-04T15:36:50Z</time></trkpt><trkpt lat="58.051565" lon="39.147117"><ele>130.8</ele><time>2023-02-04T15:36:53Z</time></trkpt><trkpt lat="58.051482" lon="39.147137"><ele>131.4</ele><time>2023-02-04T15:36:56Z</time></trkpt><trkpt lat="58.051397" lon="39.147135"><ele>131.4</ele><time>2023-02-04T15:37:00Z</time></trkpt><trkpt lat="58.051303" lon="39.14714"><ele>131.6</ele><time>2023-02-04T15:37:04Z</time></trkpt><trkpt lat="58.051203" lon="39.147152"><ele>131.9</ele><time>2023-02-04T15:37:08Z</time></trkpt><trkpt lat="58.05111" lon="39.147203"><ele>131.0</ele><time>2023-02-04T15:37:12Z</time></trkpt><trkpt lat="58.05104" lon="39.1473"><ele>131.0</ele><time>2023-02-04T15:37:16Z</time></trkpt><trkpt lat="58.05098" lon="39.147393"><ele>131.6</ele><time>2023-02-04T15:37:19Z</time></trkpt><trkpt lat="58.050927" lon="39.147483"><ele>131.9</ele><time>2023-02-04T15:37:28Z</time></trkpt><trkpt lat="58.05087" lon="39.147585"><ele>131.8</ele><time>2023-02-04T15:37:36Z</time></trkpt><trkpt lat="58.050822" lon="39.147717"><ele>131.1</ele><time>2023-02-04T15:37:41Z</time></trkpt><trkpt lat="58.050812" lon="39.147862"><ele>131.6</ele><time>2023-02-04T15:37:44Z</time></trkpt><trkpt lat="58.050833" lon="39.148022"><ele>131.6</ele><time>2023-02-04T15:37:49Z</time></trkpt><trkpt lat="58.050803" lon="39.148168"><ele>131.7</ele><time>2023-02-04T15:37:52Z</time></trkpt><trkpt lat="58.05078" lon="39.148342"><ele>132.0</ele><time>2023-02-04T15:37:56Z</time></trkpt><trkpt lat="58.050747" lon="39.148488"><ele>132.0</ele><time>2023-02-04T15:37:59Z</time></trkpt><trkpt lat="58.050715" lon="39.148642"><ele>131.9</ele><time>2023-02-04T15:38:02Z</time></trkpt><trkpt lat="58.050692" lon="39.14881"><ele>132.4</ele><time>2023-02-04T15:38:05Z</time></trkpt><trkpt lat="58.05067" lon="39.149003"><ele>131.8</ele><time>2023-02-04T15:38:08Z</time></trkpt><trkpt lat="58.050652" lon="39.149187"><ele>131.9</ele><time>2023-02-04T15:38:11Z</time></trkpt><trkpt lat="58.05063" lon="39.14933"><ele>131.3</ele><time>2023-02-04T15:38:13Z</time></trkpt><trkpt lat="58.05062" lon="39.14947"><ele>131.5</ele><time>2023-02-04T15:38:15Z</time></trkpt><trkpt lat="58.050617" lon="39.149655"><ele>130.9</ele><time>2023-02-04T15:38:18Z</time></trkpt><trkpt lat="58.050602" lon="39.149863"><ele>131.2</ele><time>2023-02-04T15:38:21Z</time></trkpt><trkpt lat="58.050582" lon="39.149995"><ele>131.3</ele><time>2023-02-04T15:38:23Z</time></trkpt><trkpt lat="58.050552" lon="39.150165"><ele>130.9</ele><time>2023-02-04T15:38:26Z</time></trkpt><trkpt lat="58.05053" lon="39.150313"><ele>132.1</ele><time>2023-02-04T15:38:29Z</time></trkpt><trkpt lat="58.050507" lon="39.150462"><ele>131.5</ele><time>2023-02-04T15:38:32Z</time></trkpt><trkpt lat="58.050475" lon="39.150628"><ele>130.2</ele><time>2023-02-04T15:38:35Z</time></trkpt><trkpt lat="58.050453" lon="39.150762"><ele>128.8</ele><time>2023-02-04T15:38:37Z</time></trkpt><trkpt lat="58.050435" lon="39.15091"><ele>128.6</ele><time>2023-02-04T15:38:39Z</time></trkpt><trkpt lat="58.050412" lon="39.15104"><ele>130.1</ele><time>2023-02-04T15:38:41Z</time></trkpt><trkpt lat="58.050378" lon="39.151232"><ele>130.3</ele><time>2023-02-04T15:38:44Z</time></trkpt><trkpt lat="58.050338" lon="39.151398"><ele>129.7</ele><time>2023-02-04T15:38:47Z</time></trkpt><trkpt lat="58.0503" lon="39.151577"><ele>127.5</ele><time>2023-02-04T15:38:50Z</time></trkpt><trkpt lat="58.05026" lon="39.151745"><ele>125.9</ele><time>2023-02-04T15:38:53Z</time></trkpt><trkpt lat="58.050233" lon="39.15192"><ele>124.9</ele><time>2023-02-04T15:38:56Z</time></trkpt><trkpt lat="58.050197" lon="39.152108"><ele>125.1</ele><time>2023-02-04T15:38:59Z</time></trkpt><trkpt lat="58.050163" lon="39.152245"><ele>123.7</ele><time>2023-02-04T15:39:01Z</time></trkpt><trkpt lat="58.05013" lon="39.152392"><ele>122.6</ele><time>2023-02-04T15:39:03Z</time></trkpt><trkpt lat="58.05009" lon="39.152528"><ele>123.4</ele><time>2023-02-04T15:39:05Z</time></trkpt><trkpt lat="58.050047" lon="39.152642"><ele>123.4</ele><time>2023-02-04T15:39:07Z</time></trkpt><trkpt lat="58.049987" lon="39.1528"><ele>124.9</ele><time>2023-02-04T15:39:10Z</time></trkpt><trkpt lat="58.049918" lon="39.152943"><ele>126.1</ele><time>2023-02-04T15:39:13Z</time></trkpt><trkpt lat="58.049838" lon="39.153072"><ele>127.2</ele><time>2023-02-04T15:39:16Z</time></trkpt><trkpt lat="58.049775" lon="39.153178"><ele>128.1</ele><time>2023-02-04T15:39:18Z</time></trkpt><trkpt lat="58.049715" lon="39.153287"><ele>127.3</ele><time>2023-02-04T15:39:20Z</time></trkpt><trkpt lat="58.049658" lon="39.153383"><ele>127.5</ele><time>2023-02-04T15:39:22Z</time></trkpt><trkpt lat="58.049592" lon="39.153455"><ele>129.5</ele><time>2023-02-04T15:39:24Z</time></trkpt><trkpt lat="58.049517" lon="39.153503"><ele>130.6</ele><time>2023-02-04T15:39:26Z</time></trkpt><trkpt lat="58.049447" lon="39.153543"><ele>130.9</ele><time>2023-02-04T15:39:28Z</time></trkpt><trkpt lat="58.049375" lon="39.15359"><ele>130.9</ele><time>2023-02-04T15:39:30Z</time></trkpt><trkpt lat="58.049297" lon="39.15365"><ele>131.0</ele><time>2023-02-04T15:39:32Z</time></trkpt><trkpt lat="58.049227" lon="39.153712"><ele>130.4</ele><time>2023-02-04T15:39:34Z</time></trkpt><trkpt lat="58.049158" lon="39.15377"><ele>129.1</ele><time>2023-02-04T15:39:36Z</time></trkpt><trkpt lat="58.049093" lon="39.153832"><ele>130.1</ele><time>2023-02-04T15:39:38Z</time></trkpt><trkpt lat="58.049028" lon="39.1539"><ele>130.2</ele><time>2023-02-04T15:39:39Z</time></trkpt><trkpt lat="58.048962" lon="39.153978"><ele>128.6</ele><time>2023-02-04T15:39:41Z</time></trkpt><trkpt lat="58.048885" lon="39.15408"><ele>129.1</ele><time>2023-02-04T15:39:43Z</time></trkpt><trkpt lat="58.048803" lon="39.154165"><ele>129.3</ele><time>2023-02-04T15:39:45Z</time></trkpt><trkpt lat="58.048738" lon="39.154272"><ele>129.3</ele><time>2023-02-04T15:39:47Z</time></trkpt><trkpt lat="58.048692" lon="39.154405"><ele>130.1</ele><time>2023-02-04T15:39:49Z</time></trkpt><trkpt lat="58.048657" lon="39.154547"><ele>129.7</ele><time>2023-02-04T15:39:51Z</time></trkpt><trkpt lat="58.048623" lon="39.154703"><ele>129.8</ele><time>2023-02-04T15:39:54Z</time></trkpt><trkpt lat="58.0486" lon="39.154843"><ele>130.2</ele><time>2023-02-04T15:39:57Z</time></trkpt><trkpt lat="58.048583" lon="39.154983"><ele>131.5</ele><time>2023-02-04T15:40:00Z</time></trkpt><trkpt lat="58.048562" lon="39.155143"><ele>131.0</ele><time>2023-02-04T15:40:04Z</time></trkpt><trkpt lat="58.04854" lon="39.155298"><ele>130.5</ele><time>2023-02-04T15:40:07Z</time></trkpt><trkpt lat="58.048517" lon="39.155447"><ele>130.7</ele><time>2023-02-04T15:40:10Z</time></trkpt><trkpt lat="58.048497" lon="39.155608"><ele>130.2</ele><time>2023-02-04T15:40:13Z</time></trkpt><trkpt lat="58.048475" lon="39.155763"><ele>130.2</ele><time>2023-02-04T15:40:16Z</time></trkpt><trkpt lat="58.048447" lon="39.155897"><ele>130.3</ele><time>2023-02-04T15:40:19Z</time></trkpt><trkpt lat="58.048413" lon="39.156062"><ele>130.4</ele><time>2023-02-04T15:40:22Z</time></trkpt><trkpt lat="58.048388" lon="39.156193"><ele>129.9</ele><time>2023-02-04T15:40:25Z</time></trkpt><trkpt lat="58.048355" lon="39.156368"><ele>129.4</ele><time>2023-02-04T15:40:28Z</time></trkpt><trkpt lat="58.048335" lon="39.156523"><ele>128.5</ele><time>2023-02-04T15:40:37Z</time></trkpt><trkpt lat="58.048313" lon="39.156685"><ele>128.3</ele><time>2023-02-04T15:40:54Z</time></trkpt><trkpt lat="58.048303" lon="39.15682"><ele>128.9</ele><time>2023-02-04T15:41:00Z</time></trkpt><trkpt lat="58.048287" lon="39.156985"><ele>129.1</ele><time>2023-02-04T15:41:03Z</time></trkpt><trkpt lat="58.048273" lon="39.15716"><ele>128.9</ele><time>2023-02-04T15:41:06Z</time></trkpt><trkpt lat="58.048267" lon="39.15732"><ele>128.2</ele><time>2023-02-04T15:41:10Z</time></trkpt><trkpt lat="58.048247" lon="39.157482"><ele>128.9</ele><time>2023-02-04T15:41:14Z</time></trkpt><trkpt lat="58.048227" lon="39.157617"><ele>128.2</ele><time>2023-02-04T15:41:17Z</time></trkpt><trkpt lat="58.048197" lon="39.157803"><ele>128.4</ele><time>2023-02-04T15:41:20Z</time></trkpt><trkpt lat="58.04816" lon="39.157965"><ele>128.6</ele><time>2023-02-04T15:41:23Z</time></trkpt><trkpt lat="58.048138" lon="39.158098"><ele>128.5</ele><time>2023-02-04T15:41:25Z</time></trkpt><trkpt lat="58.048127" lon="39.158257"><ele>127.6</ele><time>2023-02-04T15:41:27Z</time></trkpt><trkpt lat="58.048153" lon="39.158455"><ele>127.0</ele><time>2023-02-04T15:41:30Z</time></trkpt><trkpt lat="58.048185" lon="39.15859"><ele>127.4</ele><time>2023-02-04T15:41:32Z</time></trkpt><trkpt lat="58.048243" lon="39.158745"><ele>128.2</ele><time>2023-02-04T15:41:35Z</time></trkpt><trkpt lat="58.048292" lon="39.158847"><ele>129.4</ele><time>2023-02-04T15:41:37Z</time></trkpt><trkpt lat="58.048352" lon="39.159002"><ele>130.0</ele><time>2023-02-04T15:41:40Z</time></trkpt><trkpt lat="58.048393" lon="39.159112"><ele>130.3</ele><time>2023-02-04T15:41:42Z</time></trkpt><trkpt lat="58.048462" lon="39.159265"><ele>130.0</ele><time>2023-02-04T15:41:45Z</time></trkpt><trkpt lat="58.048527" lon="39.159413"><ele>131.2</ele><time>2023-02-04T15:41:48Z</time></trkpt><trkpt lat="58.04859" lon="39.159547"><ele>130.1</ele><time>2023-02-04T15:41:51Z</time></trkpt><trkpt lat="58.04865" lon="39.159697"><ele>129.8</ele><time>2023-02-04T15:41:54Z</time></trkpt><trkpt lat="58.048697" lon="39.159825"><ele>130.3</ele><time>2023-02-04T15:41:57Z</time></trkpt><trkpt lat="58.048752" lon="39.159963"><ele>130.9</ele><time>2023-02-04T15:42:00Z</time></trkpt><trkpt lat="58.048802" lon="39.160117"><ele>130.8</ele><time>2023-02-04T15:42:03Z</time></trkpt><trkpt lat="58.048845" lon="39.160233"><ele>129.8</ele><time>2023-02-04T15:42:06Z</time></trkpt><trkpt lat="58.048897" lon="39.160362"><ele>128.6</ele><time>2023-02-04T15:42:09Z</time></trkpt><trkpt lat="58.048928" lon="39.160493"><ele>127.6</ele><time>2023-02-04T15:42:12Z</time></trkpt><trkpt lat="58.04893" lon="39.160668"><ele>127.2</ele><time>2023-02-04T15:42:16Z</time></trkpt><trkpt lat="58.04892" lon="39.160825"><ele>126.5</ele><time>2023-02-04T15:42:20Z</time></trkpt><trkpt lat="58.048883" lon="39.160975"><ele>125.3</ele><time>2023-02-04T15:42:24Z</time></trkpt><trkpt lat="58.048847" lon="39.16112"><ele>125.6</ele><time>2023-02-04T15:42:28Z</time></trkpt><trkpt lat="58.048813" lon="39.161243"><ele>126.2</ele><time>2023-02-04T15:42:31Z</time></trkpt><trkpt lat="58.048765" lon="39.161397"><ele>127.3</ele><time>2023-02-04T15:42:34Z</time></trkpt><trkpt lat="58.048703" lon="39.161568"><ele>128.0</ele><time>2023-02-04T15:42:37Z</time></trkpt><trkpt lat="58.04865" lon="39.161693"><ele>128.1</ele><time>2023-02-04T15:42:39Z</time></trkpt><trkpt lat="58.048572" lon="39.161848"><ele>129.6</ele><time>2023-02-04T15:42:41Z</time></trkpt><trkpt lat="58.048507" lon="39.161958"><ele>132.1</ele><time>2023-02-04T15:42:43Z</time></trkpt><trkpt lat="58.04842" lon="39.162052"><ele>131.8</ele><time>2023-02-04T15:42:45Z</time></trkpt><trkpt lat="58.048372" lon="39.162157"><ele>132.2</ele><time>2023-02-04T15:42:47Z</time></trkpt><trkpt lat="58.048327" lon="39.162298"><ele>134.6</ele><time>2023-02-04T15:42:49Z</time></trkpt><trkpt lat="58.048253" lon="39.162328"><ele>132.7</ele><time>2023-02-04T15:43:14Z</time></trkpt><trkpt lat="58.048163" lon="39.162405"><ele>132.2</ele><time>2023-02-04T15:43:18Z</time></trkpt><trkpt lat="58.048058" lon="39.162422"><ele>130.0</ele><time>2023-02-04T15:43:21Z</time></trkpt><trkpt lat="58.04795" lon="39.162348"><ele>129.3</ele><time>2023-02-04T15:43:23Z</time></trkpt><trkpt lat="58.047887" lon="39.162252"><ele>128.6</ele><time>2023-02-04T15:43:25Z</time></trkpt><trkpt lat="58.047823" lon="39.162147"><ele>128.0</ele><time>2023-02-04T15:43:27Z</time></trkpt><trkpt lat="58.047747" lon="39.162052"><ele>131.6</ele><time>2023-02-04T15:43:29Z</time></trkpt><trkpt lat="58.047675" lon="39.161938"><ele>130.9</ele><time>2023-02-04T15:43:31Z</time></trkpt><trkpt lat="58.047625" lon="39.161832"><ele>129.4</ele><time>2023-02-04T15:43:33Z</time></trkpt><trkpt lat="58.047568" lon="39.161718"><ele>128.9</ele><time>2023-02-04T15:43:35Z</time></trkpt><trkpt lat="58.047525" lon="39.161598"><ele>129.2</ele><time>2023-02-04T15:43:37Z</time></trkpt><trkpt lat="58.047477" lon="39.16147"><ele>128.6</ele><time>2023-02-04T15:43:39Z</time></trkpt><trkpt lat="58.047427" lon="39.161343"><ele>127.8</ele><time>2023-02-04T15:43:41Z</time></trkpt><trkpt lat="58.04737" lon="39.161218"><ele>128.4</ele><time>2023-02-04T15:43:43Z</time></trkpt><trkpt lat="58.047323" lon="39.161115"><ele>127.6</ele><time>2023-02-04T15:43:45Z</time></trkpt><trkpt lat="58.04726" lon="39.160952"><ele>127.5</ele><time>2023-02-04T15:43:48Z</time></trkpt><trkpt lat="58.047205" lon="39.160847"><ele>128.1</ele><time>2023-02-04T15:43:50Z</time></trkpt><trkpt lat="58.047137" lon="39.160758"><ele>128.7</ele><time>2023-02-04T15:43:52Z</time></trkpt><trkpt lat="58.047072" lon="39.160647"><ele>128.9</ele><time>2023-02-04T15:43:54Z</time></trkpt><trkpt lat="58.047017" lon="39.160535"><ele>128.1</ele><time>2023-02-04T15:43:56Z</time></trkpt><trkpt lat="58.046947" lon="39.160382"><ele>129.3</ele><time>2023-02-04T15:43:59Z</time></trkpt><trkpt lat="58.04689" lon="39.160265"><ele>130.2</ele><time>2023-02-04T15:44:01Z</time></trkpt><trkpt lat="58.046825" lon="39.16016"><ele>130.1</ele><time>2023-02-04T15:44:03Z</time></trkpt><trkpt lat="58.046758" lon="39.16006"><ele>131.7</ele><time>2023-02-04T15:44:05Z</time></trkpt><trkpt lat="58.046702" lon="39.159958"><ele>131.7</ele><time>2023-02-04T15:44:07Z</time></trkpt><trkpt lat="58.046628" lon="39.159815"><ele>132.6</ele><time>2023-02-04T15:44:10Z</time></trkpt><trkpt lat="58.046572" lon="39.159708"><ele>133.2</ele><time>2023-02-04T15:44:12Z</time></trkpt><trkpt lat="58.046532" lon="39.159528"><ele>131.0</ele><time>2023-02-04T15:44:15Z</time></trkpt><trkpt lat="58.046517" lon="39.159355"><ele>131.9</ele><time>2023-02-04T15:44:18Z</time></trkpt><trkpt lat="58.046515" lon="39.159187"><ele>132.2</ele><time>2023-02-04T15:44:21Z</time></trkpt><trkpt lat="58.046507" lon="39.158997"><ele>133.7</ele><time>2023-02-04T15:44:24Z</time></trkpt><trkpt lat="58.046503" lon="39.158813"><ele>131.7</ele><time>2023-02-04T15:44:28Z</time></trkpt><trkpt lat="58.046518" lon="39.15864"><ele>134.2</ele><time>2023-02-04T15:44:31Z</time></trkpt><trkpt lat="58.046532" lon="39.158485"><ele>133.9</ele><time>2023-02-04T15:44:34Z</time></trkpt><trkpt lat="58.046552" lon="39.158345"><ele>132.9</ele><time>2023-02-04T15:44:38Z</time></trkpt><trkpt lat="58.04657" lon="39.1582"><ele>132.3</ele><time>2023-02-04T15:44:41Z</time></trkpt><trkpt lat="58.046578" lon="39.158013"><ele>133.0</ele><time>2023-02-04T15:44:44Z</time></trkpt><trkpt lat="58.046588" lon="39.157868"><ele>132.6</ele><time>2023-02-04T15:44:47Z</time></trkpt><trkpt lat="58.0466" lon="39.157713"><ele>133.5</ele><time>2023-02-04T15:44:50Z</time></trkpt><trkpt lat="58.046607" lon="39.157542"><ele>133.2</ele><time>2023-02-04T15:44:53Z</time></trkpt><trkpt lat="58.046602" lon="39.157387"><ele>133.9</ele><time>2023-02-04T15:44:56Z</time></trkpt><trkpt lat="58.046563" lon="39.157212"><ele>134.0</ele><time>2023-02-04T15:44:59Z</time></trkpt><trkpt lat="58.046523" lon="39.157048"><ele>133.2</ele><time>2023-02-04T15:45:01Z</time></trkpt><trkpt lat="58.046482" lon="39.156887"><ele>133.2</ele><time>2023-02-04T15:45:03Z</time></trkpt><trkpt lat="58.046432" lon="39.156743"><ele>133.9</ele><time>2023-02-04T15:45:05Z</time></trkpt><trkpt lat="58.04638" lon="39.1566"><ele>134.0</ele><time>2023-02-04T15:45:07Z</time></trkpt><trkpt lat="58.046342" lon="39.156468"><ele>133.8</ele><time>2023-02-04T15:45:09Z</time></trkpt><trkpt lat="58.046292" lon="39.156337"><ele>134.4</ele><time>2023-02-04T15:45:11Z</time></trkpt><trkpt lat="58.046237" lon="39.156237"><ele>133.2</ele><time>2023-02-04T15:45:13Z</time></trkpt><trkpt lat="58.046158" lon="39.156123"><ele>132.9</ele><time>2023-02-04T15:45:16Z</time></trkpt><trkpt lat="58.046068" lon="39.15608"><ele>132.8</ele><time>2023-02-04T15:45:19Z</time></trkpt><trkpt lat="58.045983" lon="39.156105"><ele>130.6</ele><time>2023-02-04T15:45:22Z</time></trkpt><trkpt lat="58.045903" lon="39.156115"><ele>131.1</ele><time>2023-02-04T15:45:25Z</time></trkpt><trkpt lat="58.045803" lon="39.156103"><ele>130.8</ele><time>2023-02-04T15:45:28Z</time></trkpt><trkpt lat="58.045728" lon="39.156088"><ele>130.7</ele><time>2023-02-04T15:45:30Z</time></trkpt><trkpt lat="58.045625" lon="39.156055"><ele>130.2</ele><time>2023-02-04T15:45:33Z</time></trkpt><trkpt lat="58.045525" lon="39.156002"><ele>129.1</ele><time>2023-02-04T15:45:36Z</time></trkpt><trkpt lat="58.045457" lon="39.15594"><ele>129.0</ele><time>2023-02-04T15:45:38Z</time></trkpt><trkpt lat="58.045382" lon="39.155842"><ele>128.8</ele><time>2023-02-04T15:45:40Z</time></trkpt><trkpt lat="58.045298" lon="39.15572"><ele>128.4</ele><time>2023-02-04T15:45:42Z</time></trkpt><trkpt lat="58.04526" lon="39.155555"><ele>128.1</ele><time>2023-02-04T15:45:44Z</time></trkpt><trkpt lat="58.045212" lon="39.155382"><ele>127.3</ele><time>2023-02-04T15:45:46Z</time></trkpt><trkpt lat="58.045155" lon="39.155265"><ele>128.0</ele><time>2023-02-04T15:45:48Z</time></trkpt><trkpt lat="58.045137" lon="39.155107"><ele>129.3</ele><time>2023-02-04T15:45:50Z</time></trkpt><trkpt lat="58.045137" lon="39.154927"><ele>128.9</ele><time>2023-02-04T15:45:52Z</time></trkpt><trkpt lat="58.045195" lon="39.154825"><ele>129.9</ele><time>2023-02-04T15:45:55Z</time></trkpt><trkpt lat="58.045267" lon="39.154745"><ele>128.0</ele><time>2023-02-04T15:46:00Z</time></trkpt><trkpt lat="58.045355" lon="39.154707"><ele>126.6</ele><time>2023-02-04T15:46:04Z</time></trkpt><trkpt lat="58.045423" lon="39.154645"><ele>126.6</ele><time>2023-02-04T15:46:07Z</time></trkpt><trkpt lat="58.045498" lon="39.154565"><ele>127.2</ele><time>2023-02-04T15:46:10Z</time></trkpt><trkpt lat="58.045565" lon="39.154508"><ele>128.6</ele><time>2023-02-04T15:46:14Z</time></trkpt><trkpt lat="58.045627" lon="39.154425"><ele>135.5</ele><time>2023-02-04T15:46:55Z</time></trkpt><trkpt lat="58.0457" lon="39.15441"><ele>140.7</ele><time>2023-02-04T15:47:48Z</time></trkpt><trkpt lat="58.045783" lon="39.154378"><ele>138.6</ele><time>2023-02-04T15:47:53Z</time></trkpt><trkpt lat="58.04587" lon="39.154352"><ele>138.5</ele><time>2023-02-04T15:47:56Z</time></trkpt><trkpt lat="58.045945" lon="39.154322"><ele>138.1</ele><time>2023-02-04T15:47:58Z</time></trkpt><trkpt lat="58.046038" lon="39.154283"><ele>139.8</ele><time>2023-02-04T15:48:00Z</time></trkpt><trkpt lat="58.04612" lon="39.154233"><ele>139.5</ele><time>2023-02-04T15:48:02Z</time></trkpt><trkpt lat="58.046223" lon="39.154177"><ele>140.0</ele><time>2023-02-04T15:48:04Z</time></trkpt><trkpt lat="58.046295" lon="39.154068"><ele>139.2</ele><time>2023-02-04T15:48:06Z</time></trkpt><trkpt lat="58.046293" lon="39.153755"><ele>137.8</ele><time>2023-02-04T15:48:08Z</time></trkpt><trkpt lat="58.046275" lon="39.153487"><ele>136.7</ele><time>2023-02-04T15:48:10Z</time></trkpt><trkpt lat="58.046267" lon="39.15333"><ele>136.1</ele><time>2023-02-04T15:48:12Z</time></trkpt><trkpt lat="58.046282" lon="39.153175"><ele>134.6</ele><time>2023-02-04T15:48:14Z</time></trkpt><trkpt lat="58.046287" lon="39.152955"><ele>134.9</ele><time>2023-02-04T15:48:16Z</time></trkpt><trkpt lat="58.046277" lon="39.152752"><ele>136.3</ele><time>2023-02-04T15:48:18Z</time></trkpt><trkpt lat="58.046245" lon="39.152598"><ele>134.7</ele><time>2023-02-04T15:48:20Z</time></trkpt><trkpt lat="58.046228" lon="39.152432"><ele>136.7</ele><time>2023-02-04T15:48:22Z</time></trkpt><trkpt lat="58.046225" lon="39.152242"><ele>135.7</ele><time>2023-02-04T15:48:25Z</time></trkpt><trkpt lat="58.046232" lon="39.152083"><ele>132.4</ele><time>2023-02-04T15:48:27Z</time></trkpt><trkpt lat="58.046235" lon="39.151897"><ele>132.5</ele><time>2023-02-04T15:48:30Z</time></trkpt><trkpt lat="58.046238" lon="39.151703"><ele>132.5</ele><time>2023-02-04T15:48:33Z</time></trkpt><trkpt lat="58.046238" lon="39.15151"><ele>132.2</ele><time>2023-02-04T15:48:36Z</time></trkpt><trkpt lat="58.04623" lon="39.151372"><ele>131.7</ele><time>2023-02-04T15:48:38Z</time></trkpt><trkpt lat="58.046213" lon="39.151208"><ele>131.9</ele><time>2023-02-04T15:48:40Z</time></trkpt><trkpt lat="58.046197" lon="39.151065"><ele>130.8</ele><time>2023-02-04T15:48:42Z</time></trkpt><trkpt lat="58.046163" lon="39.150887"><ele>129.5</ele><time>2023-02-04T15:48:45Z</time></trkpt><trkpt lat="58.046118" lon="39.150712"><ele>127.8</ele><time>2023-02-04T15:48:48Z</time></trkpt><trkpt lat="58.046083" lon="39.150587"><ele>127.9</ele><time>2023-02-04T15:48:50Z</time></trkpt><trkpt lat="58.046033" lon="39.150428"><ele>128.7</ele><time>2023-02-04T15:48:53Z</time></trkpt><trkpt lat="58.045985" lon="39.150272"><ele>128.2</ele><time>2023-02-04T15:48:56Z</time></trkpt><trkpt lat="58.045923" lon="39.150115"><ele>129.6</ele><time>2023-02-04T15:48:59Z</time></trkpt><trkpt lat="58.045868" lon="39.149968"><ele>130.8</ele><time>2023-02-04T15:49:01Z</time></trkpt><trkpt lat="58.045823" lon="39.149827"><ele>130.7</ele><time>2023-02-04T15:49:03Z</time></trkpt><trkpt lat="58.045792" lon="39.149698"><ele>129.5</ele><time>2023-02-04T15:49:05Z</time></trkpt><trkpt lat="58.045743" lon="39.149558"><ele>130.4</ele><time>2023-02-04T15:49:07Z</time></trkpt><trkpt lat="58.045693" lon="39.149432"><ele>131.0</ele><time>2023-02-04T15:49:09Z</time></trkpt><trkpt lat="58.045652" lon="39.1493"><ele>130.4</ele><time>2023-02-04T15:49:11Z</time></trkpt><trkpt lat="58.045605" lon="39.149147"><ele>131.4</ele><time>2023-02-04T15:49:14Z</time></trkpt><trkpt lat="58.04556" lon="39.14904"><ele>133.5</ele><time>2023-02-04T15:49:40Z</time></trkpt><trkpt lat="58.045587" lon="39.148913"><ele>134.1</ele><time>2023-02-04T15:49:46Z</time></trkpt><trkpt lat="58.04557" lon="39.148712"><ele>134.1</ele><time>2023-02-04T15:49:49Z</time></trkpt><trkpt lat="58.045588" lon="39.148527"><ele>134.4</ele><time>2023-02-04T15:49:52Z</time></trkpt><trkpt lat="58.045623" lon="39.148383"><ele>133.3</ele><time>2023-02-04T15:49:55Z</time></trkpt><trkpt lat="58.045643" lon="39.148253"><ele>132.9</ele><time>2023-02-04T15:49:57Z</time></trkpt><trkpt lat="58.045662" lon="39.148102"><ele>133.2</ele><time>2023-02-04T15:49:59Z</time></trkpt><trkpt lat="58.045667" lon="39.147947"><ele>132.5</ele><time>2023-02-04T15:50:02Z</time></trkpt><trkpt lat="58.045597" lon="39.147832"><ele>131.9</ele><time>2023-02-04T15:50:06Z</time></trkpt><trkpt lat="58.045527" lon="39.14772"><ele>131.2</ele><time>2023-02-04T15:50:09Z</time></trkpt><trkpt lat="58.045485" lon="39.14759"><ele>131.2</ele><time>2023-02-04T15:50:12Z</time></trkpt><trkpt lat="58.045453" lon="39.147465"><ele>131.2</ele><time>2023-02-04T15:50:15Z</time></trkpt><trkpt lat="58.045418" lon="39.147343"><ele>130.3</ele><time>2023-02-04T15:50:18Z</time></trkpt><trkpt lat="58.045378" lon="39.147212"><ele>129.2</ele><time>2023-02-04T15:50:23Z</time></trkpt><trkpt lat="58.045323" lon="39.147095"><ele>131.0</ele><time>2023-02-04T15:50:28Z</time></trkpt><trkpt lat="58.04527" lon="39.146987"><ele>130.3</ele><time>2023-02-04T15:50:31Z</time></trkpt><trkpt lat="58.045198" lon="39.146838"><ele>131.1</ele><time>2023-02-04T15:50:34Z</time></trkpt><trkpt lat="58.045152" lon="39.14673"><ele>131.1</ele><time>2023-02-04T15:50:36Z</time></trkpt><trkpt lat="58.045105" lon="39.146617"><ele>131.3</ele><time>2023-02-04T15:50:38Z</time></trkpt><trkpt lat="58.045048" lon="39.146453"><ele>131.0</ele><time>2023-02-04T15:50:41Z</time></trkpt><trkpt lat="58.044997" lon="39.1463"><ele>131.4</ele><time>2023-02-04T15:50:44Z</time></trkpt><trkpt lat="58.044952" lon="39.146175"><ele>131.6</ele><time>2023-02-04T15:50:47Z</time></trkpt><trkpt lat="58.04491" lon="39.146055"><ele>132.2</ele><time>2023-02-04T15:50:50Z</time></trkpt><trkpt lat="58.04486" lon="39.145913"><ele>133.1</ele><time>2023-02-04T15:50:53Z</time></trkpt><trkpt lat="58.04482" lon="39.145798"><ele>131.8</ele><time>2023-02-04T15:50:56Z</time></trkpt><trkpt lat="58.044778" lon="39.145665"><ele>131.5</ele><time>2023-02-04T15:50:59Z</time></trkpt><trkpt lat="58.044743" lon="39.14554"><ele>130.6</ele><time>2023-02-04T15:51:02Z</time></trkpt><trkpt lat="58.044698" lon="39.145393"><ele>130.2</ele><time>2023-02-04T15:51:06Z</time></trkpt><trkpt lat="58.044662" lon="39.145272"><ele>130.3</ele><time>2023-02-04T15:51:09Z</time></trkpt><trkpt lat="58.044622" lon="39.145158"><ele>130.1</ele><time>2023-02-04T15:51:12Z</time></trkpt><trkpt lat="58.044578" lon="39.14504"><ele>130.4</ele><time>2023-02-04T15:51:15Z</time></trkpt><trkpt lat="58.044528" lon="39.144935"><ele>130.6</ele><time>2023-02-04T15:51:18Z</time></trkpt><trkpt lat="58.044483" lon="39.144818"><ele>130.3</ele><time>2023-02-04T15:51:20Z</time></trkpt><trkpt lat="58.04443" lon="39.144662"><ele>130.5</ele><time>2023-02-04T15:51:23Z</time></trkpt><trkpt lat="58.044373" lon="39.144528"><ele>130.7</ele><time>2023-02-04T15:51:26Z</time></trkpt><trkpt lat="58.044335" lon="39.14439"><ele>131.3</ele><time>2023-02-04T15:51:29Z</time></trkpt><trkpt lat="58.044298" lon="39.144225"><ele>131.1</ele><time>2023-02-04T15:51:33Z</time></trkpt><trkpt lat="58.044265" lon="39.144095"><ele>131.4</ele><time>2023-02-04T15:51:36Z</time></trkpt><trkpt lat="58.044237" lon="39.143932"><ele>131.4</ele><time>2023-02-04T15:51:40Z</time></trkpt><trkpt lat="58.044197" lon="39.143797"><ele>131.0</ele><time>2023-02-04T15:51:43Z</time></trkpt><trkpt lat="58.044165" lon="39.143618"><ele>131.4</ele><time>2023-02-04T15:51:46Z</time></trkpt><trkpt lat="58.044153" lon="39.143442"><ele>131.0</ele><time>2023-02-04T15:51:49Z</time></trkpt><trkpt lat="58.044158" lon="39.14329"><ele>131.1</ele><time>2023-02-04T15:51:52Z</time></trkpt><trkpt lat="58.044173" lon="39.143152"><ele>131.0</ele><time>2023-02-04T15:51:55Z</time></trkpt><trkpt lat="58.044197" lon="39.142963"><ele>131.4</ele><time>2023-02-04T15:51:58Z</time></trkpt><trkpt lat="58.04418" lon="39.142803"><ele>131.4</ele><time>2023-02-04T15:52:00Z</time></trkpt><trkpt lat="58.04417" lon="39.14265"><ele>131.1</ele><time>2023-02-04T15:52:04Z</time></trkpt><trkpt lat="58.044162" lon="39.142502"><ele>131.6</ele><time>2023-02-04T15:52:08Z</time></trkpt><trkpt lat="58.044142" lon="39.142345"><ele>132.2</ele><time>2023-02-04T15:52:13Z</time></trkpt><trkpt lat="58.044127" lon="39.142202"><ele>131.6</ele><time>2023-02-04T15:52:21Z</time></trkpt><trkpt lat="58.044068" lon="39.142088"><ele>130.6</ele><time>2023-02-04T15:52:34Z</time></trkpt><trkpt lat="58.044042" lon="39.141952"><ele>130.7</ele><time>2023-02-04T15:52:39Z</time></trkpt><trkpt lat="58.044033" lon="39.141807"><ele>130.5</ele><time>2023-02-04T15:52:45Z</time></trkpt><trkpt lat="58.044028" lon="39.141665"><ele>131.0</ele><time>2023-02-04T15:52:49Z</time></trkpt><trkpt lat="58.044045" lon="39.141517"><ele>129.9</ele><time>2023-02-04T15:52:54Z</time></trkpt><trkpt lat="58.044037" lon="39.141347"><ele>130.7</ele><time>2023-02-04T15:53:01Z</time></trkpt><trkpt lat="58.044018" lon="39.141167"><ele>130.5</ele><time>2023-02-04T15:53:05Z</time></trkpt><trkpt lat="58.044012" lon="39.141025"><ele>130.9</ele><time>2023-02-04T15:53:08Z</time></trkpt><trkpt lat="58.043998" lon="39.140885"><ele>130.5</ele><time>2023-02-04T15:53:11Z</time></trkpt><trkpt lat="58.043975" lon="39.140725"><ele>130.6</ele><time>2023-02-04T15:53:14Z</time></trkpt><trkpt lat="58.043933" lon="39.14057"><ele>130.2</ele><time>2023-02-04T15:53:17Z</time></trkpt><trkpt lat="58.043885" lon="39.140435"><ele>129.9</ele><time>2023-02-04T15:53:20Z</time></trkpt><trkpt lat="58.04383" lon="39.140305"><ele>129.9</ele><time>2023-02-04T15:53:23Z</time></trkpt><trkpt lat="58.043783" lon="39.140198"><ele>129.8</ele><time>2023-02-04T15:53:26Z</time></trkpt><trkpt lat="58.04373" lon="39.140082"><ele>129.8</ele><time>2023-02-04T15:53:29Z</time></trkpt><trkpt lat="58.043682" lon="39.139962"><ele>130.1</ele><time>2023-02-04T15:53:33Z</time></trkpt><trkpt lat="58.043623" lon="39.13986"><ele>130.1</ele><time>2023-02-04T15:53:36Z</time></trkpt><trkpt lat="58.043552" lon="39.139755"><ele>130.1</ele><time>2023-02-04T15:53:39Z</time></trkpt><trkpt lat="58.04349" lon="39.13965"><ele>130.2</ele><time>2023-02-04T15:53:42Z</time></trkpt><trkpt lat="58.043417" lon="39.139507"><ele>129.9</ele><time>2023-02-04T15:53:45Z</time></trkpt><trkpt lat="58.043363" lon="39.139413"><ele>130.0</ele><time>2023-02-04T15:53:47Z</time></trkpt><trkpt lat="58.043298" lon="39.139292"><ele>129.8</ele><time>2023-02-04T15:53:50Z</time></trkpt><trkpt lat="58.043225" lon="39.1392"><ele>129.9</ele><time>2023-02-04T15:53:54Z</time></trkpt><trkpt lat="58.043187" lon="39.139078"><ele>129.7</ele><time>2023-02-04T15:53:59Z</time></trkpt><trkpt lat="58.043232" lon="39.139187"><ele>132.7</ele><time>2023-02-04T15:55:20Z</time></trkpt><trkpt lat="58.04319" lon="39.139025"><ele>128.0</ele><time>2023-02-04T15:55:31Z</time></trkpt><trkpt lat="58.04314" lon="39.138895"><ele>128.3</ele><time>2023-02-04T15:55:33Z</time></trkpt><trkpt lat="58.043085" lon="39.138767"><ele>127.5</ele><time>2023-02-04T15:55:35Z</time></trkpt><trkpt lat="58.043018" lon="39.13865"><ele>127.9</ele><time>2023-02-04T15:55:37Z</time></trkpt><trkpt lat="58.042947" lon="39.138537"><ele>127.6</ele><time>2023-02-04T15:55:39Z</time></trkpt><trkpt lat="58.042867" lon="39.138407"><ele>127.8</ele><time>2023-02-04T15:55:41Z</time></trkpt><trkpt lat="58.042777" lon="39.138262"><ele>127.6</ele><time>2023-02-04T15:55:43Z</time></trkpt><trkpt lat="58.042682" lon="39.138123"><ele>127.6</ele><time>2023-02-04T15:55:45Z</time></trkpt><trkpt lat="58.042605" lon="39.137997"><ele>127.3</ele><time>2023-02-04T15:55:47Z</time></trkpt><trkpt lat="58.042537" lon="39.137863"><ele>127.5</ele><time>2023-02-04T15:55:49Z</time></trkpt><trkpt lat="58.04246" lon="39.137768"><ele>127.3</ele><time>2023-02-04T15:55:51Z</time></trkpt><trkpt lat="58.042385" lon="39.137632"><ele>127.5</ele><time>2023-02-04T15:55:53Z</time></trkpt><trkpt lat="58.042302" lon="39.13757"><ele>126.4</ele><time>2023-02-04T15:55:55Z</time></trkpt><trkpt lat="58.042217" lon="39.137485"><ele>126.9</ele><time>2023-02-04T15:55:57Z</time></trkpt><trkpt lat="58.042125" lon="39.13736"><ele>126.9</ele><time>2023-02-04T15:55:59Z</time></trkpt><trkpt lat="58.042053" lon="39.137263"><ele>126.1</ele><time>2023-02-04T15:56:01Z</time></trkpt><trkpt lat="58.041972" lon="39.137178"><ele>126.1</ele><time>2023-02-04T15:56:03Z</time></trkpt><trkpt lat="58.041872" lon="39.137062"><ele>126.1</ele><time>2023-02-04T15:56:06Z</time></trkpt><trkpt lat="58.041808" lon="39.136993"><ele>127.2</ele><time>2023-02-04T15:56:08Z</time></trkpt><trkpt lat="58.041723" lon="39.136867"><ele>127.5</ele><time>2023-02-04T15:56:11Z</time></trkpt><trkpt lat="58.041657" lon="39.136747"><ele>127.4</ele><time>2023-02-04T15:56:14Z</time></trkpt><trkpt lat="58.041578" lon="39.136637"><ele>126.9</ele><time>2023-02-04T15:56:17Z</time></trkpt><trkpt lat="58.041522" lon="39.13655"><ele>127.4</ele><time>2023-02-04T15:56:19Z</time></trkpt><trkpt lat="58.041435" lon="39.136435"><ele>128.1</ele><time>2023-02-04T15:56:22Z</time></trkpt><trkpt lat="58.041352" lon="39.13632"><ele>130.7</ele><time>2023-02-04T15:56:25Z</time></trkpt><trkpt lat="58.041273" lon="39.136208"><ele>130.9</ele><time>2023-02-04T15:56:28Z</time></trkpt><trkpt lat="58.041205" lon="39.136057"><ele>130.8</ele><time>2023-02-04T15:56:31Z</time></trkpt><trkpt lat="58.041148" lon="39.135893"><ele>130.8</ele><time>2023-02-04T15:56:34Z</time></trkpt><trkpt lat="58.041092" lon="39.135755"><ele>131.2</ele><time>2023-02-04T15:56:37Z</time></trkpt><trkpt lat="58.041033" lon="39.135622"><ele>132.7</ele><time>2023-02-04T15:56:40Z</time></trkpt><trkpt lat="58.040963" lon="39.135493"><ele>131.4</ele><time>2023-02-04T15:56:43Z</time></trkpt><trkpt lat="58.040892" lon="39.135398"><ele>133.4</ele><time>2023-02-04T15:56:46Z</time></trkpt><trkpt lat="58.040822" lon="39.135332"><ele>134.2</ele><time>2023-02-04T15:56:48Z</time></trkpt><trkpt lat="58.040745" lon="39.135258"><ele>134.6</ele><time>2023-02-04T15:56:50Z</time></trkpt><trkpt lat="58.04067" lon="39.135192"><ele>134.5</ele><time>2023-02-04T15:56:52Z</time></trkpt><trkpt lat="58.040587" lon="39.135117"><ele>133.6</ele><time>2023-02-04T15:56:54Z</time></trkpt><trkpt lat="58.040515" lon="39.13505"><ele>133.7</ele><time>2023-02-04T15:56:56Z</time></trkpt><trkpt lat="58.040448" lon="39.134983"><ele>133.8</ele><time>2023-02-04T15:56:58Z</time></trkpt><trkpt lat="58.040362" lon="39.134908"><ele>132.7</ele><time>2023-02-04T15:57:01Z</time></trkpt><trkpt lat="58.040283" lon="39.134815"><ele>133.1</ele><time>2023-02-04T15:57:04Z</time></trkpt><trkpt lat="58.040203" lon="39.134713"><ele>131.0</ele><time>2023-02-04T15:57:07Z</time></trkpt><trkpt lat="58.040132" lon="39.13465"><ele>131.2</ele><time>2023-02-04T15:57:09Z</time></trkpt><trkpt lat="58.04003" lon="39.134577"><ele>131.4</ele><time>2023-02-04T15:57:10Z</time></trkpt><trkpt lat="58.039945" lon="39.13446"><ele>130.4</ele><time>2023-02-04T15:57:13Z</time></trkpt><trkpt lat="58.03986" lon="39.134415"><ele>129.7</ele><time>2023-02-04T15:57:16Z</time></trkpt><trkpt lat="58.039778" lon="39.134368"><ele>129.6</ele><time>2023-02-04T15:57:18Z</time></trkpt><trkpt lat="58.039698" lon="39.134352"><ele>128.4</ele><time>2023-02-04T15:57:20Z</time></trkpt><trkpt lat="58.039618" lon="39.134338"><ele>128.3</ele><time>2023-02-04T15:57:22Z</time></trkpt><trkpt lat="58.039537" lon="39.134342"><ele>128.8</ele><time>2023-02-04T15:57:24Z</time></trkpt><trkpt lat="58.039463" lon="39.134352"><ele>129.0</ele><time>2023-02-04T15:57:26Z</time></trkpt><trkpt lat="58.03936" lon="39.134363"><ele>129.5</ele><time>2023-02-04T15:57:29Z</time></trkpt><trkpt lat="58.039253" lon="39.134355"><ele>130.2</ele><time>2023-02-04T15:57:32Z</time></trkpt><trkpt lat="58.039172" lon="39.134333"><ele>129.6</ele><time>2023-02-04T15:57:34Z</time></trkpt><trkpt lat="58.039078" lon="39.134317"><ele>131.1</ele><time>2023-02-04T15:57:36Z</time></trkpt><trkpt lat="58.038998" lon="39.1343"><ele>131.0</ele><time>2023-02-04T15:57:38Z</time></trkpt><trkpt lat="58.038902" lon="39.134237"><ele>130.6</ele><time>2023-02-04T15:57:41Z</time></trkpt><trkpt lat="58.03883" lon="39.13418"><ele>129.7</ele><time>2023-02-04T15:57:43Z</time></trkpt><trkpt lat="58.038748" lon="39.134142"><ele>129.3</ele><time>2023-02-04T15:57:45Z</time></trkpt><trkpt lat="58.038647" lon="39.134123"><ele>129.5</ele><time>2023-02-04T15:57:47Z</time></trkpt><trkpt lat="58.038552" lon="39.134118"><ele>129.4</ele><time>2023-02-04T15:57:49Z</time></trkpt><trkpt lat="58.03845" lon="39.134118"><ele>128.1</ele><time>2023-02-04T15:57:51Z</time></trkpt><trkpt lat="58.038348" lon="39.134127"><ele>128.3</ele><time>2023-02-04T15:57:53Z</time></trkpt><trkpt lat="58.038248" lon="39.134133"><ele>127.4</ele><time>2023-02-04T15:57:55Z</time></trkpt><trkpt lat="58.038175" lon="39.13413"><ele>126.3</ele><time>2023-02-04T15:57:57Z</time></trkpt><trkpt lat="58.038073" lon="39.134133"><ele>126.0</ele><time>2023-02-04T15:58:00Z</time></trkpt><trkpt lat="58.037967" lon="39.134163"><ele>127.0</ele><time>2023-02-04T15:58:03Z</time></trkpt><trkpt lat="58.037888" lon="39.134183"><ele>127.5</ele><time>2023-02-04T15:58:05Z</time></trkpt><trkpt lat="58.037798" lon="39.134208"><ele>127.3</ele><time>2023-02-04T15:58:07Z</time></trkpt><trkpt lat="58.037718" lon="39.13423"><ele>127.4</ele><time>2023-02-04T15:58:09Z</time></trkpt><trkpt lat="58.03763" lon="39.134255"><ele>128.8</ele><time>2023-02-04T15:58:11Z</time></trkpt><trkpt lat="58.037543" lon="39.134275"><ele>127.6</ele><time>2023-02-04T15:58:13Z</time></trkpt><trkpt lat="58.037463" lon="39.13429"><ele>127.0</ele><time>2023-02-04T15:58:15Z</time></trkpt><trkpt lat="58.037377" lon="39.13431"><ele>128.4</ele><time>2023-02-04T15:58:17Z</time></trkpt><trkpt lat="58.037268" lon="39.13433"><ele>128.5</ele><time>2023-02-04T15:58:20Z</time></trkpt><trkpt lat="58.037192" lon="39.134343"><ele>128.5</ele><time>2023-02-04T15:58:22Z</time></trkpt><trkpt lat="58.037117" lon="39.13436"><ele>127.9</ele><time>2023-02-04T15:58:24Z</time></trkpt><trkpt lat="58.037032" lon="39.134373"><ele>128.8</ele><time>2023-02-04T15:58:26Z</time></trkpt><trkpt lat="58.036948" lon="39.13438"><ele>129.4</ele><time>2023-02-04T15:58:28Z</time></trkpt><trkpt lat="58.036863" lon="39.134378"><ele>129.5</ele><time>2023-02-04T15:58:30Z</time></trkpt><trkpt lat="58.036768" lon="39.134367"><ele>130.5</ele><time>2023-02-04T15:58:32Z</time></trkpt><trkpt lat="58.036678" lon="39.134387"><ele>130.8</ele><time>2023-02-04T15:58:34Z</time></trkpt><trkpt lat="58.036592" lon="39.134412"><ele>130.7</ele><time>2023-02-04T15:58:36Z</time></trkpt><trkpt lat="58.036512" lon="39.134423"><ele>131.0</ele><time>2023-02-04T15:58:38Z</time></trkpt><trkpt lat="58.036438" lon="39.134433"><ele>131.6</ele><time>2023-02-04T15:58:40Z</time></trkpt><trkpt lat="58.036357" lon="39.134453"><ele>131.9</ele><time>2023-02-04T15:58:42Z</time></trkpt><trkpt lat="58.036282" lon="39.134477"><ele>131.4</ele><time>2023-02-04T15:58:44Z</time></trkpt><trkpt lat="58.036212" lon="39.134512"><ele>131.6</ele><time>2023-02-04T15:58:46Z</time></trkpt><trkpt lat="58.036112" lon="39.134558"><ele>131.7</ele><time>2023-02-04T15:58:49Z</time></trkpt><trkpt lat="58.036033" lon="39.134578"><ele>130.9</ele><time>2023-02-04T15:58:51Z</time></trkpt><trkpt lat="58.035945" lon="39.134588"><ele>130.0</ele><time>2023-02-04T15:58:53Z</time></trkpt><trkpt lat="58.035855" lon="39.134597"><ele>129.4</ele><time>2023-02-04T15:58:55Z</time></trkpt><trkpt lat="58.035778" lon="39.134617"><ele>129.5</ele><time>2023-02-04T15:58:57Z</time></trkpt><trkpt lat="58.035702" lon="39.13463"><ele>130.6</ele><time>2023-02-04T15:58:59Z</time></trkpt><trkpt lat="58.035622" lon="39.134637"><ele>132.4</ele><time>2023-02-04T15:59:01Z</time></trkpt><trkpt lat="58.035543" lon="39.134637"><ele>134.0</ele><time>2023-02-04T15:59:03Z</time></trkpt><trkpt lat="58.035462" lon="39.134635"><ele>132.8</ele><time>2023-02-04T15:59:05Z</time></trkpt><trkpt lat="58.035382" lon="39.134633"><ele>132.7</ele><time>2023-02-04T15:59:07Z</time></trkpt><trkpt lat="58.035303" lon="39.134623"><ele>133.7</ele><time>2023-02-04T15:59:09Z</time></trkpt><trkpt lat="58.035195" lon="39.134617"><ele>131.6</ele><time>2023-02-04T15:59:12Z</time></trkpt><trkpt lat="58.035105" lon="39.13462"><ele>129.3</ele><time>2023-02-04T15:59:14Z</time></trkpt><trkpt lat="58.035028" lon="39.134607"><ele>127.9</ele><time>2023-02-04T15:59:16Z</time></trkpt><trkpt lat="58.034955" lon="39.13458"><ele>127.1</ele><time>2023-02-04T15:59:18Z</time></trkpt><trkpt lat="58.034872" lon="39.134538"><ele>128.0</ele><time>2023-02-04T15:59:20Z</time></trkpt><trkpt lat="58.034817" lon="39.134402"><ele>123.5</ele><time>2023-02-04T15:59:23Z</time></trkpt><trkpt lat="58.034812" lon="39.134242"><ele>123.6</ele><time>2023-02-04T15:59:26Z</time></trkpt><trkpt lat="58.034832" lon="39.134073"><ele>124.5</ele><time>2023-02-04T15:59:29Z</time></trkpt><trkpt lat="58.034847" lon="39.133913"><ele>124.0</ele><time>2023-02-04T15:59:33Z</time></trkpt><trkpt lat="58.034922" lon="39.133788"><ele>124.9</ele><time>2023-02-04T15:59:37Z</time></trkpt><trkpt lat="58.03496" lon="39.133652"><ele>127.8</ele><time>2023-02-04T15:59:40Z</time></trkpt><trkpt lat="58.034988" lon="39.133472"><ele>128.0</ele><time>2023-02-04T15:59:43Z</time></trkpt><trkpt lat="58.035003" lon="39.133293"><ele>128.9</ele><time>2023-02-04T15:59:45Z</time></trkpt><trkpt lat="58.035023" lon="39.133145"><ele>129.5</ele><time>2023-02-04T15:59:47Z</time></trkpt><trkpt lat="58.03505" lon="39.132982"><ele>130.6</ele><time>2023-02-04T15:59:50Z</time></trkpt><trkpt lat="58.03507" lon="39.132847"><ele>129.6</ele><time>2023-02-04T15:59:53Z</time></trkpt><trkpt lat="58.035118" lon="39.132698"><ele>130.2</ele><time>2023-02-04T15:59:56Z</time></trkpt><trkpt lat="58.035157" lon="39.132528"><ele>131.1</ele><time>2023-02-04T15:59:59Z</time></trkpt><trkpt lat="58.035177" lon="39.13236"><ele>132.4</ele><time>2023-02-04T16:00:02Z</time></trkpt><trkpt lat="58.035195" lon="39.132167"><ele>130.9</ele><time>2023-02-04T16:00:05Z</time></trkpt><trkpt lat="58.035235" lon="39.132013"><ele>130.6</ele><time>2023-02-04T16:00:08Z</time></trkpt><trkpt lat="58.035292" lon="39.13187"><ele>131.4</ele><time>2023-02-04T16:00:11Z</time></trkpt><trkpt lat="58.035335" lon="39.13175"><ele>131.5</ele><time>2023-02-04T16:00:13Z</time></trkpt><trkpt lat="58.035398" lon="39.1316"><ele>131.2</ele><time>2023-02-04T16:00:16Z</time></trkpt><trkpt lat="58.035455" lon="39.13142"><ele>130.6</ele><time>2023-02-04T16:00:19Z</time></trkpt><trkpt lat="58.035503" lon="39.131247"><ele>129.7</ele><time>2023-02-04T16:00:22Z</time></trkpt><trkpt lat="58.035542" lon="39.13112"><ele>129.8</ele><time>2023-02-04T16:00:24Z</time></trkpt><trkpt lat="58.035582" lon="39.130952"><ele>130.6</ele><time>2023-02-04T16:00:27Z</time></trkpt><trkpt lat="58.035605" lon="39.130822"><ele>130.4</ele><time>2023-02-04T16:00:29Z</time></trkpt><trkpt lat="58.035628" lon="39.130663"><ele>131.5</ele><time>2023-02-04T16:00:31Z</time></trkpt><trkpt lat="58.035662" lon="39.130492"><ele>131.3</ele><time>2023-02-04T16:00:33Z</time></trkpt><trkpt lat="58.035683" lon="39.130318"><ele>131.7</ele><time>2023-02-04T16:00:35Z</time></trkpt><trkpt lat="58.035683" lon="39.13014"><ele>132.2</ele><time>2023-02-04T16:00:37Z</time></trkpt><trkpt lat="58.03569" lon="39.129962"><ele>131.7</ele><time>2023-02-04T16:00:39Z</time></trkpt><trkpt lat="58.035705" lon="39.129813"><ele>130.8</ele><time>2023-02-04T16:00:41Z</time></trkpt><trkpt lat="58.03575" lon="39.129628"><ele>129.0</ele><time>2023-02-04T16:00:44Z</time></trkpt><trkpt lat="58.035793" lon="39.129458"><ele>128.6</ele><time>2023-02-04T16:00:47Z</time></trkpt><trkpt lat="58.035827" lon="39.129268"><ele>130.1</ele><time>2023-02-04T16:00:50Z</time></trkpt><trkpt lat="58.035855" lon="39.129125"><ele>130.4</ele><time>2023-02-04T16:00:52Z</time></trkpt><trkpt lat="58.035878" lon="39.12897"><ele>129.2</ele><time>2023-02-04T16:00:54Z</time></trkpt><trkpt lat="58.035905" lon="39.12881"><ele>128.3</ele><time>2023-02-04T16:00:56Z</time></trkpt><trkpt lat="58.035943" lon="39.128623"><ele>130.7</ele><time>2023-02-04T16:00:58Z</time></trkpt><trkpt lat="58.035968" lon="39.128445"><ele>132.4</ele><time>2023-02-04T16:01:00Z</time></trkpt><trkpt lat="58.03598" lon="39.128265"><ele>132.4</ele><time>2023-02-04T16:01:02Z</time></trkpt><trkpt lat="58.036002" lon="39.128122"><ele>132.6</ele><time>2023-02-04T16:01:04Z</time></trkpt><trkpt lat="58.036032" lon="39.127985"><ele>133.8</ele><time>2023-02-04T16:01:07Z</time></trkpt><trkpt lat="58.036112" lon="39.127915"><ele>134.8</ele><time>2023-02-04T16:01:11Z</time></trkpt><trkpt lat="58.036197" lon="39.127888"><ele>136.2</ele><time>2023-02-04T16:01:14Z</time></trkpt><trkpt lat="58.036258" lon="39.12778"><ele>136.4</ele><time>2023-02-04T16:01:21Z</time></trkpt><trkpt lat="58.036317" lon="39.127648"><ele>136.2</ele><time>2023-02-04T16:01:25Z</time></trkpt><trkpt lat="58.0364" lon="39.127662"><ele>133.6</ele><time>2023-02-04T16:01:44Z</time></trkpt><trkpt lat="58.036485" lon="39.12773"><ele>135.6</ele><time>2023-02-04T16:01:52Z</time></trkpt><trkpt lat="58.036557" lon="39.127725"><ele>135.2</ele><time>2023-02-04T16:01:56Z</time></trkpt><trkpt lat="58.036635" lon="39.127597"><ele>134.3</ele><time>2023-02-04T16:01:59Z</time></trkpt><trkpt lat="58.036687" lon="39.127495"><ele>134.1</ele><time>2023-02-04T16:02:01Z</time></trkpt><trkpt lat="58.036737" lon="39.127363"><ele>133.3</ele><time>2023-02-04T16:02:03Z</time></trkpt><trkpt lat="58.036787" lon="39.127233"><ele>133.7</ele><time>2023-02-04T16:02:05Z</time></trkpt><trkpt lat="58.036837" lon="39.12712"><ele>134.1</ele><time>2023-02-04T16:02:08Z</time></trkpt><trkpt lat="58.03688" lon="39.12699"><ele>133.4</ele><time>2023-02-04T16:02:10Z</time></trkpt><trkpt lat="58.036932" lon="39.12685"><ele>133.7</ele><time>2023-02-04T16:02:12Z</time></trkpt><trkpt lat="58.03702" lon="39.126752"><ele>133.4</ele><time>2023-02-04T16:02:13Z</time></trkpt><trkpt lat="58.037062" lon="39.126622"><ele>134.2</ele><time>2023-02-04T16:02:15Z</time></trkpt><trkpt lat="58.037123" lon="39.126478"><ele>134.3</ele><time>2023-02-04T16:02:17Z</time></trkpt><trkpt lat="58.037162" lon="39.126355"><ele>135.1</ele><time>2023-02-04T16:02:19Z</time></trkpt><trkpt lat="58.037207" lon="39.12619"><ele>134.5</ele><time>2023-02-04T16:02:21Z</time></trkpt><trkpt lat="58.03727" lon="39.126042"><ele>134.1</ele><time>2023-02-04T16:02:23Z</time></trkpt><trkpt lat="58.037308" lon="39.125918"><ele>133.5</ele><time>2023-02-04T16:02:25Z</time></trkpt><trkpt lat="58.037368" lon="39.125762"><ele>133.6</ele><time>2023-02-04T16:02:28Z</time></trkpt><trkpt lat="58.03742" lon="39.125623"><ele>134.4</ele><time>2023-02-04T16:02:30Z</time></trkpt><trkpt lat="58.037472" lon="39.125475"><ele>133.1</ele><time>2023-02-04T16:02:32Z</time></trkpt><trkpt lat="58.037523" lon="39.125322"><ele>133.7</ele><time>2023-02-04T16:02:34Z</time></trkpt><trkpt lat="58.037562" lon="39.125177"><ele>133.2</ele><time>2023-02-04T16:02:35Z</time></trkpt><trkpt lat="58.037608" lon="39.125018"><ele>132.6</ele><time>2023-02-04T16:02:37Z</time></trkpt><trkpt lat="58.03764" lon="39.124878"><ele>131.6</ele><time>2023-02-04T16:02:38Z</time></trkpt><trkpt lat="58.03768" lon="39.124698"><ele>130.6</ele><time>2023-02-04T16:02:40Z</time></trkpt><trkpt lat="58.037733" lon="39.124498"><ele>131.7</ele><time>2023-02-04T16:02:42Z</time></trkpt><trkpt lat="58.037777" lon="39.124368"><ele>130.8</ele><time>2023-02-04T16:02:44Z</time></trkpt><trkpt lat="58.037815" lon="39.12419"><ele>130.4</ele><time>2023-02-04T16:02:46Z</time></trkpt><trkpt lat="58.037832" lon="39.124027"><ele>129.0</ele><time>2023-02-04T16:02:49Z</time></trkpt><trkpt lat="58.037838" lon="39.123845"><ele>128.9</ele><time>2023-02-04T16:02:51Z</time></trkpt><trkpt lat="58.037815" lon="39.12366"><ele>127.5</ele><time>2023-02-04T16:02:54Z</time></trkpt><trkpt lat="58.03778" lon="39.123488"><ele>126.8</ele><time>2023-02-04T16:02:57Z</time></trkpt><trkpt lat="58.037733" lon="39.123335"><ele>126.3</ele><time>2023-02-04T16:03:00Z</time></trkpt><trkpt lat="58.037675" lon="39.123185"><ele>124.5</ele><time>2023-02-04T16:03:03Z</time></trkpt><trkpt lat="58.037632" lon="39.123072"><ele>123.8</ele><time>2023-02-04T16:03:05Z</time></trkpt><trkpt lat="58.037577" lon="39.122898"><ele>123.4</ele><time>2023-02-04T16:03:08Z</time></trkpt><trkpt lat="58.037543" lon="39.122767"><ele>122.3</ele><time>2023-02-04T16:03:10Z</time></trkpt><trkpt lat="58.037502" lon="39.122582"><ele>122.3</ele><time>2023-02-04T16:03:13Z</time></trkpt><trkpt lat="58.037465" lon="39.122405"><ele>123.4</ele><time>2023-02-04T16:03:16Z</time></trkpt><trkpt lat="58.03743" lon="39.122232"><ele>122.5</ele><time>2023-02-04T16:03:19Z</time></trkpt><trkpt lat="58.037397" lon="39.122103"><ele>121.2</ele><time>2023-02-04T16:03:21Z</time></trkpt><trkpt lat="58.03735" lon="39.121992"><ele>121.0</ele><time>2023-02-04T16:03:23Z</time></trkpt><trkpt lat="58.03729" lon="39.121908"><ele>123.0</ele><time>2023-02-04T16:03:25Z</time></trkpt><trkpt lat="58.037188" lon="39.121877"><ele>122.9</ele><time>2023-02-04T16:03:28Z</time></trkpt><trkpt lat="58.037085" lon="39.121873"><ele>123.5</ele><time>2023-02-04T16:03:31Z</time></trkpt><trkpt lat="58.03701" lon="39.121868"><ele>123.8</ele><time>2023-02-04T16:03:33Z</time></trkpt><trkpt lat="58.036932" lon="39.121862"><ele>124.7</ele><time>2023-02-04T16:03:35Z</time></trkpt><trkpt lat="58.036848" lon="39.121843"><ele>124.0</ele><time>2023-02-04T16:03:37Z</time></trkpt><trkpt lat="58.03677" lon="39.121822"><ele>122.4</ele><time>2023-02-04T16:03:39Z</time></trkpt><trkpt lat="58.036687" lon="39.12181"><ele>122.2</ele><time>2023-02-04T16:03:41Z</time></trkpt><trkpt lat="58.036613" lon="39.121812"><ele>122.5</ele><time>2023-02-04T16:03:43Z</time></trkpt><trkpt lat="58.036538" lon="39.121785"><ele>123.6</ele><time>2023-02-04T16:03:46Z</time></trkpt><trkpt lat="58.036458" lon="39.121693"><ele>122.3</ele><time>2023-02-04T16:03:49Z</time></trkpt><trkpt lat="58.036368" lon="39.121588"><ele>122.4</ele><time>2023-02-04T16:03:52Z</time></trkpt><trkpt lat="58.036305" lon="39.121513"><ele>122.4</ele><time>2023-02-04T16:03:54Z</time></trkpt><trkpt lat="58.036225" lon="39.121402"><ele>122.8</ele><time>2023-02-04T16:03:57Z</time></trkpt><trkpt lat="58.036163" lon="39.121332"><ele>124.1</ele><time>2023-02-04T16:03:59Z</time></trkpt><trkpt lat="58.036097" lon="39.121258"><ele>123.6</ele><time>2023-02-04T16:04:01Z</time></trkpt><trkpt lat="58.036042" lon="39.12116"><ele>123.4</ele><time>2023-02-04T16:04:02Z</time></trkpt><trkpt lat="58.035943" lon="39.121062"><ele>121.4</ele><time>2023-02-04T16:04:04Z</time></trkpt><trkpt lat="58.035888" lon="39.120958"><ele>122.3</ele><time>2023-02-04T16:04:05Z</time></trkpt><trkpt lat="58.03582" lon="39.120865"><ele>121.8</ele><time>2023-02-04T16:04:06Z</time></trkpt><trkpt lat="58.035713" lon="39.120702"><ele>122.1</ele><time>2023-02-04T16:04:08Z</time></trkpt><trkpt lat="58.035642" lon="39.120592"><ele>123.2</ele><time>2023-02-04T16:04:09Z</time></trkpt><trkpt lat="58.035562" lon="39.120455"><ele>123.7</ele><time>2023-02-04T16:04:10Z</time></trkpt><trkpt lat="58.035485" lon="39.120358"><ele>123.6</ele><time>2023-02-04T16:04:11Z</time></trkpt><trkpt lat="58.035385" lon="39.120208"><ele>121.6</ele><time>2023-02-04T16:04:12Z</time></trkpt><trkpt lat="58.035282" lon="39.120065"><ele>120.2</ele><time>2023-02-04T16:04:13Z</time></trkpt><trkpt lat="58.035167" lon="39.119957"><ele>119.6</ele><time>2023-02-04T16:04:14Z</time></trkpt><trkpt lat="58.035058" lon="39.119778"><ele>118.0</ele><time>2023-02-04T16:04:15Z</time></trkpt><trkpt lat="58.034942" lon="39.119673"><ele>117.2</ele><time>2023-02-04T16:04:16Z</time></trkpt><trkpt lat="58.03483" lon="39.119525"><ele>117.1</ele><time>2023-02-04T16:04:17Z</time></trkpt><trkpt lat="58.034713" lon="39.119497"><ele>116.2</ele><time>2023-02-04T16:04:18Z</time></trkpt><trkpt lat="58.034603" lon="39.119323"><ele>116.6</ele><time>2023-02-04T16:04:19Z</time></trkpt><trkpt lat="58.034495" lon="39.119237"><ele>115.8</ele><time>2023-02-04T16:04:20Z</time></trkpt><trkpt lat="58.034392" lon="39.119157"><ele>115.1</ele><time>2023-02-04T16:04:21Z</time></trkpt><trkpt lat="58.03429" lon="39.119073"><ele>113.5</ele><time>2023-02-04T16:04:22Z</time></trkpt><trkpt lat="58.034198" lon="39.11899"><ele>113.8</ele><time>2023-02-04T16:04:23Z</time></trkpt><trkpt lat="58.034102" lon="39.1189"><ele>113.2</ele><time>2023-02-04T16:04:24Z</time></trkpt><trkpt lat="58.034018" lon="39.118817"><ele>114.0</ele><time>2023-02-04T16:04:25Z</time></trkpt><trkpt lat="58.033942" lon="39.118733"><ele>111.9</ele><time>2023-02-04T16:04:26Z</time></trkpt><trkpt lat="58.033842" lon="39.118538"><ele>109.8</ele><time>2023-02-04T16:04:28Z</time></trkpt><trkpt lat="58.033783" lon="39.118348"><ele>107.4</ele><time>2023-02-04T16:04:30Z</time></trkpt><trkpt lat="58.033793" lon="39.118153"><ele>107.0</ele><time>2023-02-04T16:04:32Z</time></trkpt><trkpt lat="58.033807" lon="39.118007"><ele>105.9</ele><time>2023-02-04T16:04:35Z</time></trkpt><trkpt lat="58.03385" lon="39.117777"><ele>106.2</ele><time>2023-02-04T16:04:39Z</time></trkpt><trkpt lat="58.033897" lon="39.117575"><ele>104.7</ele><time>2023-02-04T16:04:41Z</time></trkpt><trkpt lat="58.033978" lon="39.11735"><ele>103.5</ele><time>2023-02-04T16:04:43Z</time></trkpt><trkpt lat="58.034052" lon="39.117347"><ele>102.7</ele><time>2023-02-04T16:04:45Z</time></trkpt><trkpt lat="58.034132" lon="39.117265"><ele>101.5</ele><time>2023-02-04T16:04:47Z</time></trkpt><trkpt lat="58.034208" lon="39.117218"><ele>100.9</ele><time>2023-02-04T16:04:49Z</time></trkpt><trkpt lat="58.034308" lon="39.117173"><ele>99.6</ele><time>2023-02-04T16:04:52Z</time></trkpt><trkpt lat="58.034378" lon="39.117118"><ele>100.3</ele><time>2023-02-04T16:04:55Z</time></trkpt><trkpt lat="58.034467" lon="39.11702"><ele>100.9</ele><time>2023-02-04T16:04:58Z</time></trkpt><trkpt lat="58.0346" lon="39.116995"><ele>99.4</ele><time>2023-02-04T16:05:00Z</time></trkpt><trkpt lat="58.034653" lon="39.117127"><ele>99.0</ele><time>2023-02-04T16:05:02Z</time></trkpt><trkpt lat="58.034722" lon="39.117173"><ele>98.5</ele><time>2023-02-04T16:05:03Z</time></trkpt><trkpt lat="58.0348" lon="39.117197"><ele>97.2</ele><time>2023-02-04T16:05:05Z</time></trkpt><trkpt lat="58.03489" lon="39.117228"><ele>95.9</ele><time>2023-02-04T16:05:07Z</time></trkpt><trkpt lat="58.034992" lon="39.117263"><ele>94.9</ele><time>2023-02-04T16:05:09Z</time></trkpt><trkpt lat="58.035135" lon="39.11737"><ele>95.1</ele><time>2023-02-04T16:05:11Z</time></trkpt><trkpt lat="58.03526" lon="39.117527"><ele>93.0</ele><time>2023-02-04T16:05:13Z</time></trkpt><trkpt lat="58.035345" lon="39.117652"><ele>92.3</ele><time>2023-02-04T16:05:15Z</time></trkpt><trkpt lat="58.035422" lon="39.117782"><ele>91.9</ele><time>2023-02-04T16:05:17Z</time></trkpt><trkpt lat="58.03548" lon="39.11791"><ele>92.2</ele><time>2023-02-04T16:05:19Z</time></trkpt><trkpt lat="58.035543" lon="39.118033"><ele>91.3</ele><time>2023-02-04T16:05:21Z</time></trkpt><trkpt lat="58.035607" lon="39.118143"><ele>90.1</ele><time>2023-02-04T16:05:23Z</time></trkpt><trkpt lat="58.035678" lon="39.118222"><ele>90.3</ele><time>2023-02-04T16:05:25Z</time></trkpt><trkpt lat="58.035755" lon="39.118332"><ele>89.1</ele><time>2023-02-04T16:05:27Z</time></trkpt><trkpt lat="58.035835" lon="39.118445"><ele>89.3</ele><time>2023-02-04T16:05:29Z</time></trkpt><trkpt lat="58.0359" lon="39.118518"><ele>90.1</ele><time>2023-02-04T16:05:31Z</time></trkpt><trkpt lat="58.035968" lon="39.118605"><ele>90.8</ele><time>2023-02-04T16:05:33Z</time></trkpt><trkpt lat="58.036027" lon="39.118698"><ele>91.3</ele><time>2023-02-04T16:05:35Z</time></trkpt><trkpt lat="58.036105" lon="39.118793"><ele>91.8</ele><time>2023-02-04T16:05:37Z</time></trkpt><trkpt lat="58.036192" lon="39.11888"><ele>90.7</ele><time>2023-02-04T16:05:39Z</time></trkpt><trkpt lat="58.036248" lon="39.118967"><ele>91.7</ele><time>2023-02-04T16:05:41Z</time></trkpt><trkpt lat="58.03632" lon="39.11906"><ele>93.3</ele><time>2023-02-04T16:05:44Z</time></trkpt><trkpt lat="58.03639" lon="39.119162"><ele>93.8</ele><time>2023-02-04T16:05:47Z</time></trkpt><trkpt lat="58.036477" lon="39.119218"><ele>96.1</ele><time>2023-02-04T16:05:51Z</time></trkpt><trkpt lat="58.036557" lon="39.119217"><ele>95.2</ele><time>2023-02-04T16:05:54Z</time></trkpt><trkpt lat="58.036652" lon="39.119178"><ele>94.8</ele><time>2023-02-04T16:05:57Z</time></trkpt><trkpt lat="58.036755" lon="39.119133"><ele>95.3</ele><time>2023-02-04T16:06:00Z</time></trkpt><trkpt lat="58.036855" lon="39.11912"><ele>94.3</ele><time>2023-02-04T16:06:03Z</time></trkpt><trkpt lat="58.036932" lon="39.119083"><ele>96.2</ele><time>2023-02-04T16:06:06Z</time></trkpt><trkpt lat="58.037025" lon="39.119057"><ele>95.9</ele><time>2023-02-04T16:06:10Z</time></trkpt><trkpt lat="58.037098" lon="39.119018"><ele>98.3</ele><time>2023-02-04T16:06:13Z</time></trkpt><trkpt lat="58.037185" lon="39.118968"><ele>100.0</ele><time>2023-02-04T16:06:17Z</time></trkpt><trkpt lat="58.037218" lon="39.118792"><ele>100.8</ele><time>2023-02-04T16:06:34Z</time></trkpt><trkpt lat="58.037283" lon="39.118598"><ele>100.9</ele><time>2023-02-04T16:06:37Z</time></trkpt><trkpt lat="58.037325" lon="39.118428"><ele>101.3</ele><time>2023-02-04T16:06:39Z</time></trkpt><trkpt lat="58.037377" lon="39.118232"><ele>100.9</ele><time>2023-02-04T16:06:41Z</time></trkpt><trkpt lat="58.037432" lon="39.118038"><ele>99.5</ele><time>2023-02-04T16:06:43Z</time></trkpt><trkpt lat="58.037477" lon="39.117878"><ele>100.2</ele><time>2023-02-04T16:06:45Z</time></trkpt><trkpt lat="58.03759" lon="39.117802"><ele>98.6</ele><time>2023-02-04T16:06:47Z</time></trkpt><trkpt lat="58.037655" lon="39.117693"><ele>98.7</ele><time>2023-02-04T16:06:50Z</time></trkpt><trkpt lat="58.037742" lon="39.117553"><ele>98.4</ele><time>2023-02-04T16:06:52Z</time></trkpt><trkpt lat="58.037823" lon="39.117457"><ele>97.7</ele><time>2023-02-04T16:06:54Z</time></trkpt><trkpt lat="58.037913" lon="39.117363"><ele>98.7</ele><time>2023-02-04T16:06:56Z</time></trkpt><trkpt lat="58.037978" lon="39.117272"><ele>97.0</ele><time>2023-02-04T16:06:58Z</time></trkpt><trkpt lat="58.038047" lon="39.117187"><ele>97.4</ele><time>2023-02-04T16:07:00Z</time></trkpt><trkpt lat="58.038122" lon="39.117075"><ele>98.7</ele><time>2023-02-04T16:07:02Z</time></trkpt><trkpt lat="58.038192" lon="39.117005"><ele>98.8</ele><time>2023-02-04T16:07:04Z</time></trkpt><trkpt lat="58.038262" lon="39.116922"><ele>100.1</ele><time>2023-02-04T16:07:06Z</time></trkpt><trkpt lat="58.03833" lon="39.116842"><ele>100.1</ele><time>2023-02-04T16:07:08Z</time></trkpt><trkpt lat="58.038418" lon="39.116738"><ele>100.4</ele><time>2023-02-04T16:07:11Z</time></trkpt><trkpt lat="58.038485" lon="39.116657"><ele>100.8</ele><time>2023-02-04T16:07:14Z</time></trkpt><trkpt lat="58.0385" lon="39.116543"><ele>95.3</ele><time>2023-02-04T16:08:57Z</time></trkpt><trkpt lat="58.038437" lon="39.116635"><ele>97.0</ele><time>2023-02-04T16:10:02Z</time></trkpt></trkseg></trk></gpx>