<?xml version="1.0" encoding="UTF-8" standalone="no"?><gpx xmlns="http://www.topografix.com/GPX/1/1" xmlns:gpxtpx="http://www.garmin.com/xmlschemas/TrackPointExtension/v1" xmlns:xsi="http://www.w3.org/2001/XMLSchema-instance" creator="Sports Tracker" version="1.1" xsi:schemaLocation="http://www.topografix.com/GPX/1/1 http://www.topografix.com/GPX/1/1/gpx.xsd http://www.garmin.com/xmlschemas/TrackPointExtension/v1 http://www.garmin.com/xmlschemas/TrackPointExtensionv1.xsd"><metadata><name>05.01.2024 16:12</name><desc/><author><name>Александр</name></author></metadata><trk><name>05.01.2024 16:12</name><trkseg><trkpt lat="58.057895" lon="38.810645"><ele>108.4</ele><time>2024-01-05T13:12:58Z</time></trkpt><trkpt lat="58.057895" lon="38.810645"><ele>108.4</ele><time>2024-01-05T13:16:13Z</time></trkpt><trkpt lat="58.05781" lon="38.810625"><ele>111.1</ele><time>2024-01-05T13:16:18Z</time></trkpt><trkpt lat="58.05773" lon="38.810575"><ele>110.5</ele><time>2024-01-05T13:16:24Z</time></trkpt><trkpt lat="58.05767" lon="38.8105"><ele>108.3</ele><time>2024-01-05T13:16:29Z</time></trkpt><trkpt lat="58.057595" lon="38.81051"><ele>108.3</ele><time>2024-01-05T13:16:34Z</time></trkpt><trkpt lat="58.05752" lon="38.810485"><ele>106.9</ele><time>2024-01-05T13:16:40Z</time></trkpt><trkpt lat="58.05745" lon="38.81048"><ele>107.0</ele><time>2024-01-05T13:16:45Z</time></trkpt><trkpt lat="58.057375" lon="38.810465"><ele>107.9</ele><time>2024-01-05T13:16:50Z</time></trkpt><trkpt lat="58.057305" lon="38.81044"><ele>108.4</ele><time>2024-01-05T13:16:56Z</time></trkpt><trkpt lat="58.05723" lon="38.81045"><ele>108.8</ele><time>2024-01-05T13:17:02Z</time></trkpt><trkpt lat="58.057145" lon="38.810465"><ele>109.3</ele><time>2024-01-05T13:17:09Z</time></trkpt><trkpt lat="58.057027" lon="38.810465"><ele>110.1</ele><time>2024-01-05T13:17:19Z</time></trkpt><trkpt lat="58.05695" lon="38.810473"><ele>110.6</ele><time>2024-01-05T13:17:26Z</time></trkpt><trkpt lat="58.056905" lon="38.81058"><ele>111.1</ele><time>2024-01-05T13:17:33Z</time></trkpt><trkpt lat="58.056825" lon="38.810697"><ele>122.0</ele><time>2024-01-05T13:17:36Z</time></trkpt><trkpt lat="58.056745" lon="38.81074"><ele>115.7</ele><time>2024-01-05T13:17:39Z</time></trkpt><trkpt lat="58.05666" lon="38.810745"><ele>111.6</ele><time>2024-01-05T13:17:43Z</time></trkpt><trkpt lat="58.056578" lon="38.810765"><ele>107.1</ele><time>2024-01-05T13:17:48Z</time></trkpt><trkpt lat="58.056515" lon="38.81071"><ele>109.9</ele><time>2024-01-05T13:17:54Z</time></trkpt><trkpt lat="58.056422" lon="38.81073"><ele>111.9</ele><time>2024-01-05T13:18:00Z</time></trkpt><trkpt lat="58.056355" lon="38.810805"><ele>113.3</ele><time>2024-01-05T13:18:04Z</time></trkpt><trkpt lat="58.056278" lon="38.810845"><ele>113.9</ele><time>2024-01-05T13:18:09Z</time></trkpt><trkpt lat="58.056205" lon="38.810815"><ele>112.4</ele><time>2024-01-05T13:18:14Z</time></trkpt><trkpt lat="58.056127" lon="38.81078"><ele>111.4</ele><time>2024-01-05T13:18:19Z</time></trkpt><trkpt lat="58.056055" lon="38.81084"><ele>111.2</ele><time>2024-01-05T13:18:24Z</time></trkpt><trkpt lat="58.056005" lon="38.81096"><ele>112.8</ele><time>2024-01-05T13:18:28Z</time></trkpt><trkpt lat="58.055967" lon="38.811095"><ele>111.0</ele><time>2024-01-05T13:18:33Z</time></trkpt><trkpt lat="58.055985" lon="38.81124"><ele>111.2</ele><time>2024-01-05T13:18:40Z</time></trkpt><trkpt lat="58.055972" lon="38.811385"><ele>109.4</ele><time>2024-01-05T13:18:44Z</time></trkpt><trkpt lat="58.05596" lon="38.811555"><ele>109.3</ele><time>2024-01-05T13:18:49Z</time></trkpt><trkpt lat="58.055925" lon="38.81167"><ele>109.2</ele><time>2024-01-05T13:18:53Z</time></trkpt><trkpt lat="58.055915" lon="38.811805"><ele>108.9</ele><time>2024-01-05T13:18:57Z</time></trkpt><trkpt lat="58.055903" lon="38.811965"><ele>108.8</ele><time>2024-01-05T13:19:02Z</time></trkpt><trkpt lat="58.055895" lon="38.8121"><ele>107.0</ele><time>2024-01-05T13:19:07Z</time></trkpt><trkpt lat="58.055885" lon="38.81225"><ele>108.5</ele><time>2024-01-05T13:19:12Z</time></trkpt><trkpt lat="58.055845" lon="38.812395"><ele>106.7</ele><time>2024-01-05T13:19:17Z</time></trkpt><trkpt lat="58.055845" lon="38.812535"><ele>107.3</ele><time>2024-01-05T13:19:22Z</time></trkpt><trkpt lat="58.055845" lon="38.8127"><ele>109.1</ele><time>2024-01-05T13:19:28Z</time></trkpt><trkpt lat="58.05585" lon="38.812845"><ele>109.9</ele><time>2024-01-05T13:19:32Z</time></trkpt><trkpt lat="58.055855" lon="38.81299"><ele>109.0</ele><time>2024-01-05T13:19:37Z</time></trkpt><trkpt lat="58.05585" lon="38.813145"><ele>109.1</ele><time>2024-01-05T13:19:42Z</time></trkpt><trkpt lat="58.05585" lon="38.81329"><ele>108.8</ele><time>2024-01-05T13:19:46Z</time></trkpt><trkpt lat="58.05583" lon="38.813445"><ele>108.0</ele><time>2024-01-05T13:19:51Z</time></trkpt><trkpt lat="58.055815" lon="38.81361"><ele>108.2</ele><time>2024-01-05T13:19:56Z</time></trkpt><trkpt lat="58.055815" lon="38.81376"><ele>110.3</ele><time>2024-01-05T13:20:00Z</time></trkpt><trkpt lat="58.055805" lon="38.81392"><ele>111.0</ele><time>2024-01-05T13:20:05Z</time></trkpt><trkpt lat="58.055795" lon="38.81408"><ele>110.4</ele><time>2024-01-05T13:20:10Z</time></trkpt><trkpt lat="58.05579" lon="38.814245"><ele>110.8</ele><time>2024-01-05T13:20:15Z</time></trkpt><trkpt lat="58.05579" lon="38.814395"><ele>108.0</ele><time>2024-01-05T13:20:20Z</time></trkpt><trkpt lat="58.055805" lon="38.81456"><ele>110.4</ele><time>2024-01-05T13:20:25Z</time></trkpt><trkpt lat="58.055755" lon="38.81467"><ele>108.4</ele><time>2024-01-05T13:20:29Z</time></trkpt><trkpt lat="58.055735" lon="38.814825"><ele>107.3</ele><time>2024-01-05T13:20:35Z</time></trkpt><trkpt lat="58.055725" lon="38.81499"><ele>107.4</ele><time>2024-01-05T13:20:40Z</time></trkpt><trkpt lat="58.055695" lon="38.815145"><ele>109.7</ele><time>2024-01-05T13:20:45Z</time></trkpt><trkpt lat="58.05563" lon="38.81525"><ele>108.5</ele><time>2024-01-05T13:20:49Z</time></trkpt><trkpt lat="58.055585" lon="38.81538"><ele>105.9</ele><time>2024-01-05T13:20:55Z</time></trkpt><trkpt lat="58.055525" lon="38.815495"><ele>106.5</ele><time>2024-01-05T13:21:01Z</time></trkpt><trkpt lat="58.05548" lon="38.815605"><ele>105.7</ele><time>2024-01-05T13:21:06Z</time></trkpt><trkpt lat="58.055432" lon="38.815705"><ele>108.0</ele><time>2024-01-05T13:21:10Z</time></trkpt><trkpt lat="58.05538" lon="38.81581"><ele>106.6</ele><time>2024-01-05T13:21:15Z</time></trkpt><trkpt lat="58.05532" lon="38.8159"><ele>108.6</ele><time>2024-01-05T13:21:20Z</time></trkpt><trkpt lat="58.055297" lon="38.816035"><ele>107.6</ele><time>2024-01-05T13:21:24Z</time></trkpt><trkpt lat="58.05528" lon="38.81618"><ele>106.7</ele><time>2024-01-05T13:21:28Z</time></trkpt><trkpt lat="58.05525" lon="38.816305"><ele>110.2</ele><time>2024-01-05T13:21:33Z</time></trkpt><trkpt lat="58.05516" lon="38.816295"><ele>115.0</ele><time>2024-01-05T13:21:36Z</time></trkpt><trkpt lat="58.05519" lon="38.81626"><ele>112.3</ele><time>2024-01-05T13:21:43Z</time></trkpt><trkpt lat="58.05519" lon="38.816255"><ele>112.3</ele><time>2024-01-05T13:21:45Z</time></trkpt><trkpt lat="58.055212" lon="38.816285"><ele>110.9</ele><time>2024-01-05T13:21:55Z</time></trkpt><trkpt lat="58.05514" lon="38.816265"><ele>108.4</ele><time>2024-01-05T13:22:02Z</time></trkpt><trkpt lat="58.05507" lon="38.81626"><ele>108.9</ele><time>2024-01-05T13:22:07Z</time></trkpt><trkpt lat="58.054995" lon="38.816265"><ele>110.0</ele><time>2024-01-05T13:22:12Z</time></trkpt><trkpt lat="58.05496" lon="38.8164"><ele>108.7</ele><time>2024-01-05T13:22:18Z</time></trkpt><trkpt lat="58.054945" lon="38.816535"><ele>108.9</ele><time>2024-01-05T13:22:23Z</time></trkpt><trkpt lat="58.05493" lon="38.816677"><ele>107.7</ele><time>2024-01-05T13:22:29Z</time></trkpt><trkpt lat="58.054925" lon="38.816845"><ele>109.2</ele><time>2024-01-05T13:22:35Z</time></trkpt><trkpt lat="58.054885" lon="38.816965"><ele>108.5</ele><time>2024-01-05T13:22:40Z</time></trkpt><trkpt lat="58.05483" lon="38.81707"><ele>107.7</ele><time>2024-01-05T13:22:45Z</time></trkpt><trkpt lat="58.054785" lon="38.81719"><ele>105.9</ele><time>2024-01-05T13:22:50Z</time></trkpt><trkpt lat="58.054735" lon="38.817315"><ele>103.1</ele><time>2024-01-05T13:22:56Z</time></trkpt><trkpt lat="58.054677" lon="38.81743"><ele>105.1</ele><time>2024-01-05T13:23:01Z</time></trkpt><trkpt lat="58.054635" lon="38.817555"><ele>105.7</ele><time>2024-01-05T13:23:06Z</time></trkpt><trkpt lat="58.054585" lon="38.81766"><ele>106.3</ele><time>2024-01-05T13:23:11Z</time></trkpt><trkpt lat="58.054515" lon="38.81776"><ele>106.4</ele><time>2024-01-05T13:23:16Z</time></trkpt><trkpt lat="58.054447" lon="38.817815"><ele>105.9</ele><time>2024-01-05T13:23:21Z</time></trkpt><trkpt lat="58.054383" lon="38.817903"><ele>105.4</ele><time>2024-01-05T13:23:26Z</time></trkpt><trkpt lat="58.05434" lon="38.81803"><ele>103.1</ele><time>2024-01-05T13:23:31Z</time></trkpt><trkpt lat="58.05435" lon="38.818175"><ele>104.1</ele><time>2024-01-05T13:23:34Z</time></trkpt><trkpt lat="58.054375" lon="38.81832"><ele>105.2</ele><time>2024-01-05T13:23:37Z</time></trkpt><trkpt lat="58.054385" lon="38.81849"><ele>106.2</ele><time>2024-01-05T13:23:41Z</time></trkpt><trkpt lat="58.054395" lon="38.81864"><ele>106.0</ele><time>2024-01-05T13:23:45Z</time></trkpt><trkpt lat="58.054395" lon="38.818775"><ele>106.3</ele><time>2024-01-05T13:23:49Z</time></trkpt><trkpt lat="58.054345" lon="38.81891"><ele>104.3</ele><time>2024-01-05T13:23:54Z</time></trkpt><trkpt lat="58.054297" lon="38.819027"><ele>106.2</ele><time>2024-01-05T13:23:58Z</time></trkpt><trkpt lat="58.054265" lon="38.81916"><ele>107.7</ele><time>2024-01-05T13:24:02Z</time></trkpt><trkpt lat="58.05422" lon="38.819265"><ele>107.5</ele><time>2024-01-05T13:24:06Z</time></trkpt><trkpt lat="58.05415" lon="38.81932"><ele>107.7</ele><time>2024-01-05T13:24:10Z</time></trkpt><trkpt lat="58.054087" lon="38.819435"><ele>109.7</ele><time>2024-01-05T13:24:15Z</time></trkpt><trkpt lat="58.054055" lon="38.81955"><ele>112.4</ele><time>2024-01-05T13:24:19Z</time></trkpt><trkpt lat="58.054003" lon="38.819675"><ele>110.0</ele><time>2024-01-05T13:24:24Z</time></trkpt><trkpt lat="58.05394" lon="38.819775"><ele>109.3</ele><time>2024-01-05T13:24:29Z</time></trkpt><trkpt lat="58.053875" lon="38.819873"><ele>108.9</ele><time>2024-01-05T13:24:34Z</time></trkpt><trkpt lat="58.05384" lon="38.82"><ele>110.4</ele><time>2024-01-05T13:24:39Z</time></trkpt><trkpt lat="58.053825" lon="38.820145"><ele>110.6</ele><time>2024-01-05T13:24:44Z</time></trkpt><trkpt lat="58.05379" lon="38.820265"><ele>112.8</ele><time>2024-01-05T13:24:49Z</time></trkpt><trkpt lat="58.05375" lon="38.820415"><ele>113.3</ele><time>2024-01-05T13:24:54Z</time></trkpt><trkpt lat="58.05372" lon="38.820547"><ele>109.7</ele><time>2024-01-05T13:24:59Z</time></trkpt><trkpt lat="58.053705" lon="38.82069"><ele>111.2</ele><time>2024-01-05T13:25:04Z</time></trkpt><trkpt lat="58.05367" lon="38.82084"><ele>109.7</ele><time>2024-01-05T13:25:09Z</time></trkpt><trkpt lat="58.053615" lon="38.820943"><ele>109.4</ele><time>2024-01-05T13:25:13Z</time></trkpt><trkpt lat="58.053575" lon="38.82109"><ele>107.3</ele><time>2024-01-05T13:25:18Z</time></trkpt><trkpt lat="58.053535" lon="38.821222"><ele>109.4</ele><time>2024-01-05T13:25:23Z</time></trkpt><trkpt lat="58.053505" lon="38.821365"><ele>110.5</ele><time>2024-01-05T13:25:28Z</time></trkpt><trkpt lat="58.053475" lon="38.821505"><ele>110.4</ele><time>2024-01-05T13:25:33Z</time></trkpt><trkpt lat="58.053475" lon="38.82165"><ele>108.7</ele><time>2024-01-05T13:25:38Z</time></trkpt><trkpt lat="58.053475" lon="38.821805"><ele>107.4</ele><time>2024-01-05T13:25:43Z</time></trkpt><trkpt lat="58.05345" lon="38.821955"><ele>108.6</ele><time>2024-01-05T13:25:48Z</time></trkpt><trkpt lat="58.053405" lon="38.82209"><ele>104.4</ele><time>2024-01-05T13:25:53Z</time></trkpt><trkpt lat="58.053345" lon="38.82219"><ele>104.2</ele><time>2024-01-05T13:25:58Z</time></trkpt><trkpt lat="58.05329" lon="38.822305"><ele>105.8</ele><time>2024-01-05T13:26:03Z</time></trkpt><trkpt lat="58.05325" lon="38.82242"><ele>108.1</ele><time>2024-01-05T13:26:07Z</time></trkpt><trkpt lat="58.053175" lon="38.82251"><ele>103.2</ele><time>2024-01-05T13:26:13Z</time></trkpt><trkpt lat="58.05311" lon="38.822575"><ele>103.3</ele><time>2024-01-05T13:26:18Z</time></trkpt><trkpt lat="58.05305" lon="38.822672"><ele>106.3</ele><time>2024-01-05T13:26:23Z</time></trkpt><trkpt lat="58.052985" lon="38.822757"><ele>108.1</ele><time>2024-01-05T13:26:28Z</time></trkpt><trkpt lat="58.052905" lon="38.822825"><ele>109.3</ele><time>2024-01-05T13:26:33Z</time></trkpt><trkpt lat="58.052835" lon="38.822913"><ele>107.5</ele><time>2024-01-05T13:26:38Z</time></trkpt><trkpt lat="58.05276" lon="38.823"><ele>104.7</ele><time>2024-01-05T13:26:44Z</time></trkpt><trkpt lat="58.052695" lon="38.82309"><ele>103.5</ele><time>2024-01-05T13:26:49Z</time></trkpt><trkpt lat="58.05262" lon="38.823175"><ele>103.2</ele><time>2024-01-05T13:26:54Z</time></trkpt><trkpt lat="58.05256" lon="38.823265"><ele>103.4</ele><time>2024-01-05T13:26:59Z</time></trkpt><trkpt lat="58.052505" lon="38.823355"><ele>105.3</ele><time>2024-01-05T13:27:04Z</time></trkpt><trkpt lat="58.052435" lon="38.823445"><ele>105.5</ele><time>2024-01-05T13:27:09Z</time></trkpt><trkpt lat="58.05236" lon="38.82351"><ele>106.2</ele><time>2024-01-05T13:27:14Z</time></trkpt><trkpt lat="58.052285" lon="38.823535"><ele>106.9</ele><time>2024-01-05T13:27:19Z</time></trkpt><trkpt lat="58.0522" lon="38.82354"><ele>107.0</ele><time>2024-01-05T13:27:24Z</time></trkpt><trkpt lat="58.052125" lon="38.823565"><ele>107.1</ele><time>2024-01-05T13:27:29Z</time></trkpt><trkpt lat="58.052065" lon="38.823675"><ele>106.3</ele><time>2024-01-05T13:27:34Z</time></trkpt><trkpt lat="58.052032" lon="38.82382"><ele>106.6</ele><time>2024-01-05T13:27:39Z</time></trkpt><trkpt lat="58.05199" lon="38.823952"><ele>109.4</ele><time>2024-01-05T13:27:45Z</time></trkpt><trkpt lat="58.051925" lon="38.824055"><ele>107.8</ele><time>2024-01-05T13:27:50Z</time></trkpt><trkpt lat="58.051865" lon="38.824145"><ele>104.6</ele><time>2024-01-05T13:27:55Z</time></trkpt><trkpt lat="58.05179" lon="38.82419"><ele>106.0</ele><time>2024-01-05T13:28:00Z</time></trkpt><trkpt lat="58.05171" lon="38.824262"><ele>106.1</ele><time>2024-01-05T13:28:05Z</time></trkpt><trkpt lat="58.051645" lon="38.824345"><ele>107.3</ele><time>2024-01-05T13:28:10Z</time></trkpt><trkpt lat="58.051575" lon="38.82444"><ele>106.0</ele><time>2024-01-05T13:28:15Z</time></trkpt><trkpt lat="58.051505" lon="38.824488"><ele>105.5</ele><time>2024-01-05T13:28:19Z</time></trkpt><trkpt lat="58.051428" lon="38.824575"><ele>104.8</ele><time>2024-01-05T13:28:24Z</time></trkpt><trkpt lat="58.05137" lon="38.824665"><ele>105.5</ele><time>2024-01-05T13:28:29Z</time></trkpt><trkpt lat="58.051288" lon="38.824705"><ele>105.4</ele><time>2024-01-05T13:28:34Z</time></trkpt><trkpt lat="58.05122" lon="38.82466"><ele>106.1</ele><time>2024-01-05T13:28:38Z</time></trkpt><trkpt lat="58.05114" lon="38.824605"><ele>106.3</ele><time>2024-01-05T13:28:43Z</time></trkpt><trkpt lat="58.051065" lon="38.82468"><ele>105.2</ele><time>2024-01-05T13:28:49Z</time></trkpt><trkpt lat="58.051085" lon="38.82475"><ele>109.9</ele><time>2024-01-05T13:28:57Z</time></trkpt><trkpt lat="58.051105" lon="38.824712"><ele>110.8</ele><time>2024-01-05T13:29:04Z</time></trkpt><trkpt lat="58.051105" lon="38.824708"><ele>110.8</ele><time>2024-01-05T13:29:07Z</time></trkpt><trkpt lat="58.05107" lon="38.82483"><ele>110.0</ele><time>2024-01-05T13:29:15Z</time></trkpt><trkpt lat="58.051043" lon="38.82497"><ele>110.0</ele><time>2024-01-05T13:29:21Z</time></trkpt><trkpt lat="58.051025" lon="38.825107"><ele>111.2</ele><time>2024-01-05T13:29:26Z</time></trkpt><trkpt lat="58.051" lon="38.825255"><ele>109.6</ele><time>2024-01-05T13:29:31Z</time></trkpt><trkpt lat="58.05097" lon="38.82539"><ele>110.4</ele><time>2024-01-05T13:29:37Z</time></trkpt><trkpt lat="58.050925" lon="38.82551"><ele>106.5</ele><time>2024-01-05T13:29:42Z</time></trkpt><trkpt lat="58.050905" lon="38.82565"><ele>107.2</ele><time>2024-01-05T13:29:47Z</time></trkpt><trkpt lat="58.050885" lon="38.82579"><ele>107.9</ele><time>2024-01-05T13:29:52Z</time></trkpt><trkpt lat="58.05085" lon="38.825945"><ele>106.4</ele><time>2024-01-05T13:29:57Z</time></trkpt><trkpt lat="58.050808" lon="38.82607"><ele>105.1</ele><time>2024-01-05T13:30:01Z</time></trkpt><trkpt lat="58.050775" lon="38.82622"><ele>104.0</ele><time>2024-01-05T13:30:06Z</time></trkpt><trkpt lat="58.05076" lon="38.82637"><ele>106.4</ele><time>2024-01-05T13:30:12Z</time></trkpt><trkpt lat="58.050725" lon="38.826505"><ele>104.4</ele><time>2024-01-05T13:30:17Z</time></trkpt><trkpt lat="58.050705" lon="38.82665"><ele>105.9</ele><time>2024-01-05T13:30:22Z</time></trkpt><trkpt lat="58.05068" lon="38.82678"><ele>104.0</ele><time>2024-01-05T13:30:27Z</time></trkpt><trkpt lat="58.05065" lon="38.826922"><ele>106.1</ele><time>2024-01-05T13:30:32Z</time></trkpt><trkpt lat="58.050625" lon="38.827075"><ele>107.3</ele><time>2024-01-05T13:30:37Z</time></trkpt><trkpt lat="58.05059" lon="38.827215"><ele>107.5</ele><time>2024-01-05T13:30:42Z</time></trkpt><trkpt lat="58.05056" lon="38.827368"><ele>106.3</ele><time>2024-01-05T13:30:47Z</time></trkpt><trkpt lat="58.050512" lon="38.82751"><ele>102.3</ele><time>2024-01-05T13:30:52Z</time></trkpt><trkpt lat="58.050485" lon="38.827655"><ele>104.1</ele><time>2024-01-05T13:30:57Z</time></trkpt><trkpt lat="58.050465" lon="38.8278"><ele>103.6</ele><time>2024-01-05T13:31:02Z</time></trkpt><trkpt lat="58.050438" lon="38.827935"><ele>105.0</ele><time>2024-01-05T13:31:07Z</time></trkpt><trkpt lat="58.05042" lon="38.82807"><ele>109.1</ele><time>2024-01-05T13:31:12Z</time></trkpt><trkpt lat="58.0504" lon="38.828225"><ele>108.8</ele><time>2024-01-05T13:31:17Z</time></trkpt><trkpt lat="58.05035" lon="38.828353"><ele>107.2</ele><time>2024-01-05T13:31:22Z</time></trkpt><trkpt lat="58.050303" lon="38.82846"><ele>108.6</ele><time>2024-01-05T13:31:27Z</time></trkpt><trkpt lat="58.050282" lon="38.828578"><ele>109.4</ele><time>2024-01-05T13:31:34Z</time></trkpt><trkpt lat="58.05024" lon="38.828705"><ele>107.3</ele><time>2024-01-05T13:31:39Z</time></trkpt><trkpt lat="58.050175" lon="38.82878"><ele>107.5</ele><time>2024-01-05T13:31:44Z</time></trkpt><trkpt lat="58.05013" lon="38.828915"><ele>105.8</ele><time>2024-01-05T13:31:50Z</time></trkpt><trkpt lat="58.05011" lon="38.829045"><ele>104.4</ele><time>2024-01-05T13:31:55Z</time></trkpt><trkpt lat="58.050095" lon="38.829205"><ele>105.7</ele><time>2024-01-05T13:32:01Z</time></trkpt><trkpt lat="58.05007" lon="38.82936"><ele>105.0</ele><time>2024-01-05T13:32:06Z</time></trkpt><trkpt lat="58.050057" lon="38.82952"><ele>106.7</ele><time>2024-01-05T13:32:11Z</time></trkpt><trkpt lat="58.050025" lon="38.829665"><ele>106.1</ele><time>2024-01-05T13:32:16Z</time></trkpt><trkpt lat="58.05" lon="38.829808"><ele>105.5</ele><time>2024-01-05T13:32:21Z</time></trkpt><trkpt lat="58.049975" lon="38.829955"><ele>105.2</ele><time>2024-01-05T13:32:26Z</time></trkpt><trkpt lat="58.049935" lon="38.830095"><ele>103.4</ele><time>2024-01-05T13:32:31Z</time></trkpt><trkpt lat="58.049905" lon="38.830243"><ele>105.0</ele><time>2024-01-05T13:32:36Z</time></trkpt><trkpt lat="58.049895" lon="38.830405"><ele>105.2</ele><time>2024-01-05T13:32:41Z</time></trkpt><trkpt lat="58.049865" lon="38.83053"><ele>105.8</ele><time>2024-01-05T13:32:46Z</time></trkpt><trkpt lat="58.049833" lon="38.83069"><ele>106.1</ele><time>2024-01-05T13:32:51Z</time></trkpt><trkpt lat="58.04981" lon="38.83083"><ele>107.4</ele><time>2024-01-05T13:32:56Z</time></trkpt><trkpt lat="58.04977" lon="38.83098"><ele>104.4</ele><time>2024-01-05T13:33:01Z</time></trkpt><trkpt lat="58.04973" lon="38.83112"><ele>106.7</ele><time>2024-01-05T13:33:06Z</time></trkpt><trkpt lat="58.049695" lon="38.831242"><ele>108.2</ele><time>2024-01-05T13:33:11Z</time></trkpt><trkpt lat="58.04968" lon="38.831398"><ele>106.9</ele><time>2024-01-05T13:33:17Z</time></trkpt><trkpt lat="58.049665" lon="38.831545"><ele>106.6</ele><time>2024-01-05T13:33:22Z</time></trkpt><trkpt lat="58.049625" lon="38.831675"><ele>110.9</ele><time>2024-01-05T13:33:27Z</time></trkpt><trkpt lat="58.04959" lon="38.831795"><ele>109.9</ele><time>2024-01-05T13:33:32Z</time></trkpt><trkpt lat="58.04954" lon="38.831925"><ele>108.0</ele><time>2024-01-05T13:33:37Z</time></trkpt><trkpt lat="58.04947" lon="38.831995"><ele>107.5</ele><time>2024-01-05T13:33:42Z</time></trkpt><trkpt lat="58.049395" lon="38.831965"><ele>105.7</ele><time>2024-01-05T13:33:46Z</time></trkpt><trkpt lat="58.049315" lon="38.8319"><ele>105.8</ele><time>2024-01-05T13:33:51Z</time></trkpt><trkpt lat="58.04923" lon="38.831845"><ele>105.5</ele><time>2024-01-05T13:33:56Z</time></trkpt><trkpt lat="58.04916" lon="38.8318"><ele>108.6</ele><time>2024-01-05T13:34:01Z</time></trkpt><trkpt lat="58.049078" lon="38.83178"><ele>106.6</ele><time>2024-01-05T13:34:06Z</time></trkpt><trkpt lat="58.049003" lon="38.831735"><ele>107.0</ele><time>2024-01-05T13:34:11Z</time></trkpt><trkpt lat="58.048935" lon="38.8317"><ele>109.2</ele><time>2024-01-05T13:34:16Z</time></trkpt><trkpt lat="58.048865" lon="38.83165"><ele>111.5</ele><time>2024-01-05T13:34:20Z</time></trkpt><trkpt lat="58.048795" lon="38.831565"><ele>105.7</ele><time>2024-01-05T13:34:25Z</time></trkpt><trkpt lat="58.048745" lon="38.831452"><ele>109.5</ele><time>2024-01-05T13:34:30Z</time></trkpt><trkpt lat="58.048745" lon="38.831305"><ele>109.4</ele><time>2024-01-05T13:34:35Z</time></trkpt><trkpt lat="58.048815" lon="38.831265"><ele>111.5</ele><time>2024-01-05T13:34:38Z</time></trkpt><trkpt lat="58.048845" lon="38.831125"><ele>108.3</ele><time>2024-01-05T13:34:42Z</time></trkpt><trkpt lat="58.048885" lon="38.831"><ele>108.2</ele><time>2024-01-05T13:34:50Z</time></trkpt><trkpt lat="58.048845" lon="38.830875"><ele>108.2</ele><time>2024-01-05T13:34:53Z</time></trkpt><trkpt lat="58.048815" lon="38.830745"><ele>108.2</ele><time>2024-01-05T13:34:58Z</time></trkpt><trkpt lat="58.048705" lon="38.831445"><ele>103.4</ele><time>2024-01-05T13:38:53Z</time></trkpt><trkpt lat="58.048745" lon="38.831445"><ele>110.6</ele><time>2024-01-05T13:39:01Z</time></trkpt><trkpt lat="58.048815" lon="38.83149"><ele>104.1</ele><time>2024-01-05T13:39:06Z</time></trkpt><trkpt lat="58.04888" lon="38.83158"><ele>105.8</ele><time>2024-01-05T13:39:12Z</time></trkpt><trkpt lat="58.048955" lon="38.83162"><ele>106.2</ele><time>2024-01-05T13:39:16Z</time></trkpt><trkpt lat="58.04904" lon="38.831585"><ele>107.6</ele><time>2024-01-05T13:39:20Z</time></trkpt><trkpt lat="58.049115" lon="38.83157"><ele>106.0</ele><time>2024-01-05T13:39:27Z</time></trkpt><trkpt lat="58.04917" lon="38.831665"><ele>108.2</ele><time>2024-01-05T13:39:32Z</time></trkpt><trkpt lat="58.04924" lon="38.83167"><ele>109.1</ele><time>2024-01-05T13:39:37Z</time></trkpt><trkpt lat="58.049315" lon="38.83167"><ele>104.2</ele><time>2024-01-05T13:39:43Z</time></trkpt><trkpt lat="58.049395" lon="38.83167"><ele>101.5</ele><time>2024-01-05T13:39:50Z</time></trkpt><trkpt lat="58.04945" lon="38.83177"><ele>107.2</ele><time>2024-01-05T13:39:53Z</time></trkpt><trkpt lat="58.0495" lon="38.831885"><ele>109.3</ele><time>2024-01-05T13:39:57Z</time></trkpt><trkpt lat="58.049555" lon="38.832003"><ele>113.4</ele><time>2024-01-05T13:40:01Z</time></trkpt><trkpt lat="58.049612" lon="38.832115"><ele>115.7</ele><time>2024-01-05T13:40:05Z</time></trkpt><trkpt lat="58.049655" lon="38.832225"><ele>113.4</ele><time>2024-01-05T13:40:09Z</time></trkpt><trkpt lat="58.049705" lon="38.83234"><ele>113.7</ele><time>2024-01-05T13:40:13Z</time></trkpt><trkpt lat="58.049745" lon="38.83246"><ele>115.8</ele><time>2024-01-05T13:40:17Z</time></trkpt><trkpt lat="58.049795" lon="38.832565"><ele>113.9</ele><time>2024-01-05T13:40:22Z</time></trkpt><trkpt lat="58.049865" lon="38.83267"><ele>111.4</ele><time>2024-01-05T13:40:28Z</time></trkpt><trkpt lat="58.049935" lon="38.83274"><ele>109.8</ele><time>2024-01-05T13:40:33Z</time></trkpt><trkpt lat="58.05002" lon="38.83276"><ele>110.4</ele><time>2024-01-05T13:40:37Z</time></trkpt><trkpt lat="58.05009" lon="38.83279"><ele>112.3</ele><time>2024-01-05T13:40:41Z</time></trkpt><trkpt lat="58.050155" lon="38.83288"><ele>115.5</ele><time>2024-01-05T13:40:46Z</time></trkpt><trkpt lat="58.050225" lon="38.83297"><ele>115.9</ele><time>2024-01-05T13:40:51Z</time></trkpt><trkpt lat="58.050302" lon="38.833025"><ele>116.3</ele><time>2024-01-05T13:40:56Z</time></trkpt><trkpt lat="58.050385" lon="38.83305"><ele>114.1</ele><time>2024-01-05T13:41:01Z</time></trkpt><trkpt lat="58.050465" lon="38.833075"><ele>116.1</ele><time>2024-01-05T13:41:06Z</time></trkpt><trkpt lat="58.05052" lon="38.833205"><ele>116.6</ele><time>2024-01-05T13:41:11Z</time></trkpt><trkpt lat="58.05056" lon="38.833345"><ele>115.9</ele><time>2024-01-05T13:41:16Z</time></trkpt><trkpt lat="58.05055" lon="38.833505"><ele>112.5</ele><time>2024-01-05T13:41:21Z</time></trkpt><trkpt lat="58.05051" lon="38.833657"><ele>111.2</ele><time>2024-01-05T13:41:26Z</time></trkpt><trkpt lat="58.05049" lon="38.833795"><ele>109.7</ele><time>2024-01-05T13:41:32Z</time></trkpt><trkpt lat="58.050455" lon="38.833915"><ele>108.1</ele><time>2024-01-05T13:41:38Z</time></trkpt><trkpt lat="58.05054" lon="38.833335"><ele>127.0</ele><time>2024-01-05T13:56:05Z</time></trkpt><trkpt lat="58.050625" lon="38.833353"><ele>126.3</ele><time>2024-01-05T13:56:07Z</time></trkpt><trkpt lat="58.050705" lon="38.8334"><ele>119.5</ele><time>2024-01-05T13:56:14Z</time></trkpt><trkpt lat="58.050785" lon="38.83335"><ele>122.2</ele><time>2024-01-05T13:56:18Z</time></trkpt><trkpt lat="58.050805" lon="38.8335"><ele>120.1</ele><time>2024-01-05T13:56:23Z</time></trkpt><trkpt lat="58.05089" lon="38.833495"><ele>119.3</ele><time>2024-01-05T13:56:29Z</time></trkpt><trkpt lat="58.05096" lon="38.83345"><ele>116.2</ele><time>2024-01-05T13:56:33Z</time></trkpt><trkpt lat="58.051043" lon="38.83348"><ele>116.2</ele><time>2024-01-05T13:56:37Z</time></trkpt><trkpt lat="58.051117" lon="38.83352"><ele>116.5</ele><time>2024-01-05T13:56:41Z</time></trkpt><trkpt lat="58.051195" lon="38.833508"><ele>116.6</ele><time>2024-01-05T13:56:45Z</time></trkpt><trkpt lat="58.051225" lon="38.83355"><ele>114.0</ele><time>2024-01-05T13:56:52Z</time></trkpt><trkpt lat="58.051288" lon="38.83361"><ele>115.3</ele><time>2024-01-05T13:56:59Z</time></trkpt><trkpt lat="58.051365" lon="38.8336"><ele>118.0</ele><time>2024-01-05T13:57:03Z</time></trkpt><trkpt lat="58.05144" lon="38.83364"><ele>119.3</ele><time>2024-01-05T13:57:09Z</time></trkpt><trkpt lat="58.05152" lon="38.83368"><ele>113.6</ele><time>2024-01-05T13:57:15Z</time></trkpt><trkpt lat="58.051575" lon="38.833755"><ele>111.2</ele><time>2024-01-05T13:57:22Z</time></trkpt><trkpt lat="58.051647" lon="38.8338"><ele>113.0</ele><time>2024-01-05T13:57:27Z</time></trkpt><trkpt lat="58.05172" lon="38.833855"><ele>111.7</ele><time>2024-01-05T13:57:32Z</time></trkpt><trkpt lat="58.051793" lon="38.833905"><ele>112.3</ele><time>2024-01-05T13:57:37Z</time></trkpt><trkpt lat="58.05187" lon="38.83394"><ele>112.3</ele><time>2024-01-05T13:57:42Z</time></trkpt><trkpt lat="58.051955" lon="38.83393"><ele>110.7</ele><time>2024-01-05T13:57:47Z</time></trkpt><trkpt lat="58.05202" lon="38.83398"><ele>108.9</ele><time>2024-01-05T13:57:52Z</time></trkpt><trkpt lat="58.05209" lon="38.834043"><ele>114.6</ele><time>2024-01-05T13:57:57Z</time></trkpt><trkpt lat="58.052155" lon="38.83411"><ele>114.8</ele><time>2024-01-05T13:58:02Z</time></trkpt><trkpt lat="58.052225" lon="38.834165"><ele>118.3</ele><time>2024-01-05T13:58:06Z</time></trkpt><trkpt lat="58.052305" lon="38.83422"><ele>113.4</ele><time>2024-01-05T13:58:12Z</time></trkpt><trkpt lat="58.052343" lon="38.834105"><ele>113.1</ele><time>2024-01-05T13:58:16Z</time></trkpt><trkpt lat="58.052335" lon="38.83395"><ele>111.3</ele><time>2024-01-05T13:58:20Z</time></trkpt><trkpt lat="58.052338" lon="38.833815"><ele>116.4</ele><time>2024-01-05T13:58:24Z</time></trkpt><trkpt lat="58.05236" lon="38.833663"><ele>116.6</ele><time>2024-01-05T13:58:29Z</time></trkpt><trkpt lat="58.05237" lon="38.833525"><ele>114.5</ele><time>2024-01-05T13:58:34Z</time></trkpt><trkpt lat="58.05242" lon="38.833405"><ele>110.1</ele><time>2024-01-05T13:58:40Z</time></trkpt><trkpt lat="58.052465" lon="38.833295"><ele>110.6</ele><time>2024-01-05T13:58:45Z</time></trkpt><trkpt lat="58.052475" lon="38.83314"><ele>111.0</ele><time>2024-01-05T13:58:51Z</time></trkpt><trkpt lat="58.052475" lon="38.832985"><ele>106.8</ele><time>2024-01-05T13:58:56Z</time></trkpt><trkpt lat="58.05247" lon="38.83285"><ele>106.5</ele><time>2024-01-05T13:59:01Z</time></trkpt><trkpt lat="58.05248" lon="38.832715"><ele>105.9</ele><time>2024-01-05T13:59:07Z</time></trkpt><trkpt lat="58.05252" lon="38.83259"><ele>106.2</ele><time>2024-01-05T13:59:12Z</time></trkpt><trkpt lat="58.052575" lon="38.832475"><ele>112.5</ele><time>2024-01-05T13:59:17Z</time></trkpt><trkpt lat="58.05262" lon="38.83236"><ele>114.8</ele><time>2024-01-05T13:59:21Z</time></trkpt><trkpt lat="58.052655" lon="38.832235"><ele>116.3</ele><time>2024-01-05T13:59:26Z</time></trkpt><trkpt lat="58.05269" lon="38.83211"><ele>109.4</ele><time>2024-01-05T13:59:31Z</time></trkpt><trkpt lat="58.052745" lon="38.832005"><ele>114.1</ele><time>2024-01-05T13:59:36Z</time></trkpt><trkpt lat="58.0528" lon="38.83189"><ele>110.7</ele><time>2024-01-05T13:59:42Z</time></trkpt><trkpt lat="58.052835" lon="38.83177"><ele>110.7</ele><time>2024-01-05T13:59:47Z</time></trkpt><trkpt lat="58.05285" lon="38.831635"><ele>111.6</ele><time>2024-01-05T13:59:51Z</time></trkpt><trkpt lat="58.05289" lon="38.83149"><ele>114.0</ele><time>2024-01-05T13:59:56Z</time></trkpt><trkpt lat="58.05289" lon="38.83134"><ele>113.9</ele><time>2024-01-05T14:00:01Z</time></trkpt><trkpt lat="58.05292" lon="38.831205"><ele>112.5</ele><time>2024-01-05T14:00:07Z</time></trkpt><trkpt lat="58.052925" lon="38.83106"><ele>113.5</ele><time>2024-01-05T14:00:11Z</time></trkpt><trkpt lat="58.05292" lon="38.830905"><ele>111.5</ele><time>2024-01-05T14:00:16Z</time></trkpt><trkpt lat="58.052915" lon="38.830765"><ele>110.4</ele><time>2024-01-05T14:00:20Z</time></trkpt><trkpt lat="58.05294" lon="38.830615"><ele>111.7</ele><time>2024-01-05T14:00:24Z</time></trkpt><trkpt lat="58.052985" lon="38.83048"><ele>111.4</ele><time>2024-01-05T14:00:29Z</time></trkpt><trkpt lat="58.05299" lon="38.83034"><ele>112.0</ele><time>2024-01-05T14:00:34Z</time></trkpt><trkpt lat="58.05297" lon="38.830195"><ele>113.5</ele><time>2024-01-05T14:00:40Z</time></trkpt><trkpt lat="58.053013" lon="38.830085"><ele>111.5</ele><time>2024-01-05T14:00:45Z</time></trkpt><trkpt lat="58.053045" lon="38.829995"><ele>112.8</ele><time>2024-01-05T14:00:53Z</time></trkpt><trkpt lat="58.05308" lon="38.829878"><ele>111.8</ele><time>2024-01-05T14:00:58Z</time></trkpt><trkpt lat="58.05312" lon="38.829745"><ele>112.3</ele><time>2024-01-05T14:01:05Z</time></trkpt><trkpt lat="58.053168" lon="38.82962"><ele>117.0</ele><time>2024-01-05T14:01:11Z</time></trkpt><trkpt lat="58.05319" lon="38.82947"><ele>114.3</ele><time>2024-01-05T14:01:16Z</time></trkpt><trkpt lat="58.05323" lon="38.82938"><ele>109.5</ele><time>2024-01-05T14:01:23Z</time></trkpt><trkpt lat="58.053255" lon="38.829265"><ele>107.8</ele><time>2024-01-05T14:01:30Z</time></trkpt><trkpt lat="58.053275" lon="38.829135"><ele>104.6</ele><time>2024-01-05T14:01:35Z</time></trkpt><trkpt lat="58.05331" lon="38.829015"><ele>108.7</ele><time>2024-01-05T14:01:42Z</time></trkpt><trkpt lat="58.05336" lon="38.828905"><ele>109.2</ele><time>2024-01-05T14:01:46Z</time></trkpt><trkpt lat="58.05339" lon="38.828765"><ele>104.6</ele><time>2024-01-05T14:01:52Z</time></trkpt><trkpt lat="58.053385" lon="38.8286"><ele>108.5</ele><time>2024-01-05T14:01:57Z</time></trkpt><trkpt lat="58.05338" lon="38.828455"><ele>111.3</ele><time>2024-01-05T14:02:02Z</time></trkpt><trkpt lat="58.05339" lon="38.828315"><ele>110.4</ele><time>2024-01-05T14:02:07Z</time></trkpt><trkpt lat="58.05341" lon="38.82818"><ele>111.0</ele><time>2024-01-05T14:02:11Z</time></trkpt><trkpt lat="58.05345" lon="38.828048"><ele>104.9</ele><time>2024-01-05T14:02:15Z</time></trkpt><trkpt lat="58.053465" lon="38.8279"><ele>106.9</ele><time>2024-01-05T14:02:20Z</time></trkpt><trkpt lat="58.053505" lon="38.827753"><ele>106.6</ele><time>2024-01-05T14:02:26Z</time></trkpt><trkpt lat="58.05351" lon="38.827593"><ele>108.5</ele><time>2024-01-05T14:02:31Z</time></trkpt><trkpt lat="58.053535" lon="38.82747"><ele>107.6</ele><time>2024-01-05T14:02:36Z</time></trkpt><trkpt lat="58.05357" lon="38.827325"><ele>108.8</ele><time>2024-01-05T14:02:42Z</time></trkpt><trkpt lat="58.053585" lon="38.827165"><ele>109.8</ele><time>2024-01-05T14:02:48Z</time></trkpt><trkpt lat="58.053595" lon="38.827015"><ele>110.0</ele><time>2024-01-05T14:02:53Z</time></trkpt><trkpt lat="58.053615" lon="38.826875"><ele>110.4</ele><time>2024-01-05T14:02:58Z</time></trkpt><trkpt lat="58.0536" lon="38.82674"><ele>108.9</ele><time>2024-01-05T14:03:03Z</time></trkpt><trkpt lat="58.0536" lon="38.826595"><ele>111.9</ele><time>2024-01-05T14:03:09Z</time></trkpt><trkpt lat="58.053615" lon="38.82656"><ele>111.7</ele><time>2024-01-05T14:03:16Z</time></trkpt><trkpt lat="58.053615" lon="38.82656"><ele>111.8</ele><time>2024-01-05T14:03:19Z</time></trkpt><trkpt lat="58.05363" lon="38.82656"><ele>112.5</ele><time>2024-01-05T14:03:50Z</time></trkpt><trkpt lat="58.05363" lon="38.82656"><ele>112.5</ele><time>2024-01-05T14:03:51Z</time></trkpt><trkpt lat="58.05367" lon="38.82644"><ele>112.0</ele><time>2024-01-05T14:03:59Z</time></trkpt><trkpt lat="58.053705" lon="38.826325"><ele>111.5</ele><time>2024-01-05T14:04:03Z</time></trkpt><trkpt lat="58.053755" lon="38.82621"><ele>110.5</ele><time>2024-01-05T14:04:08Z</time></trkpt><trkpt lat="58.053785" lon="38.82636"><ele>111.3</ele><time>2024-01-05T14:04:12Z</time></trkpt><trkpt lat="58.053848" lon="38.82634"><ele>107.7</ele><time>2024-01-05T14:04:19Z</time></trkpt><trkpt lat="58.053905" lon="38.826228"><ele>108.1</ele><time>2024-01-05T14:04:25Z</time></trkpt><trkpt lat="58.05397" lon="38.826135"><ele>101.0</ele><time>2024-01-05T14:04:32Z</time></trkpt><trkpt lat="58.054025" lon="38.82597"><ele>106.2</ele><time>2024-01-05T14:04:38Z</time></trkpt><trkpt lat="58.054035" lon="38.825835"><ele>102.5</ele><time>2024-01-05T14:04:42Z</time></trkpt><trkpt lat="58.054035" lon="38.825698"><ele>106.4</ele><time>2024-01-05T14:04:49Z</time></trkpt><trkpt lat="58.05408" lon="38.825585"><ele>104.7</ele><time>2024-01-05T14:04:55Z</time></trkpt><trkpt lat="58.054115" lon="38.825455"><ele>98.8</ele><time>2024-01-05T14:05:01Z</time></trkpt><trkpt lat="58.05412" lon="38.825315"><ele>104.7</ele><time>2024-01-05T14:05:05Z</time></trkpt><trkpt lat="58.05412" lon="38.82516"><ele>105.1</ele><time>2024-01-05T14:05:09Z</time></trkpt><trkpt lat="58.054135" lon="38.82498"><ele>103.0</ele><time>2024-01-05T14:05:15Z</time></trkpt><trkpt lat="58.05415" lon="38.82481"><ele>102.7</ele><time>2024-01-05T14:05:21Z</time></trkpt><trkpt lat="58.05415" lon="38.824643"><ele>101.9</ele><time>2024-01-05T14:05:26Z</time></trkpt><trkpt lat="58.054153" lon="38.8245"><ele>105.2</ele><time>2024-01-05T14:05:30Z</time></trkpt><trkpt lat="58.05414" lon="38.82436"><ele>104.4</ele><time>2024-01-05T14:05:35Z</time></trkpt><trkpt lat="58.054105" lon="38.82423"><ele>106.2</ele><time>2024-01-05T14:05:40Z</time></trkpt><trkpt lat="58.05407" lon="38.82408"><ele>108.1</ele><time>2024-01-05T14:05:44Z</time></trkpt><trkpt lat="58.054055" lon="38.82395"><ele>110.3</ele><time>2024-01-05T14:05:47Z</time></trkpt><trkpt lat="58.054105" lon="38.82381"><ele>112.8</ele><time>2024-01-05T14:05:52Z</time></trkpt><trkpt lat="58.054157" lon="38.8237"><ele>114.5</ele><time>2024-01-05T14:05:56Z</time></trkpt><trkpt lat="58.054222" lon="38.82363"><ele>113.7</ele><time>2024-01-05T14:06:00Z</time></trkpt><trkpt lat="58.054285" lon="38.823525"><ele>110.6</ele><time>2024-01-05T14:06:05Z</time></trkpt><trkpt lat="58.05432" lon="38.82338"><ele>109.7</ele><time>2024-01-05T14:06:12Z</time></trkpt><trkpt lat="58.05436" lon="38.82325"><ele>110.9</ele><time>2024-01-05T14:06:18Z</time></trkpt><trkpt lat="58.054378" lon="38.823115"><ele>111.4</ele><time>2024-01-05T14:06:24Z</time></trkpt><trkpt lat="58.054415" lon="38.82299"><ele>111.2</ele><time>2024-01-05T14:06:30Z</time></trkpt><trkpt lat="58.054445" lon="38.82285"><ele>110.3</ele><time>2024-01-05T14:06:36Z</time></trkpt><trkpt lat="58.054475" lon="38.822715"><ele>111.4</ele><time>2024-01-05T14:06:41Z</time></trkpt><trkpt lat="58.054475" lon="38.82255"><ele>112.5</ele><time>2024-01-05T14:06:47Z</time></trkpt><trkpt lat="58.05453" lon="38.822435"><ele>110.4</ele><time>2024-01-05T14:06:52Z</time></trkpt><trkpt lat="58.05455" lon="38.82228"><ele>110.7</ele><time>2024-01-05T14:06:58Z</time></trkpt><trkpt lat="58.054585" lon="38.822138"><ele>111.6</ele><time>2024-01-05T14:07:04Z</time></trkpt><trkpt lat="58.054625" lon="38.822005"><ele>110.1</ele><time>2024-01-05T14:07:10Z</time></trkpt><trkpt lat="58.054655" lon="38.821875"><ele>110.2</ele><time>2024-01-05T14:07:15Z</time></trkpt><trkpt lat="58.05467" lon="38.82174"><ele>109.8</ele><time>2024-01-05T14:07:20Z</time></trkpt><trkpt lat="58.054677" lon="38.82159"><ele>108.1</ele><time>2024-01-05T14:07:25Z</time></trkpt><trkpt lat="58.054675" lon="38.82144"><ele>109.2</ele><time>2024-01-05T14:07:30Z</time></trkpt><trkpt lat="58.054677" lon="38.821285"><ele>107.8</ele><time>2024-01-05T14:07:36Z</time></trkpt><trkpt lat="58.054678" lon="38.821135"><ele>109.2</ele><time>2024-01-05T14:07:41Z</time></trkpt><trkpt lat="58.054685" lon="38.82099"><ele>112.0</ele><time>2024-01-05T14:07:46Z</time></trkpt><trkpt lat="58.054705" lon="38.820842"><ele>110.1</ele><time>2024-01-05T14:07:51Z</time></trkpt><trkpt lat="58.05473" lon="38.820698"><ele>111.9</ele><time>2024-01-05T14:07:57Z</time></trkpt><trkpt lat="58.05473" lon="38.82054"><ele>112.1</ele><time>2024-01-05T14:08:03Z</time></trkpt><trkpt lat="58.054745" lon="38.82039"><ele>113.0</ele><time>2024-01-05T14:08:09Z</time></trkpt><trkpt lat="58.054763" lon="38.820237"><ele>110.8</ele><time>2024-01-05T14:08:15Z</time></trkpt><trkpt lat="58.054785" lon="38.82006"><ele>111.1</ele><time>2024-01-05T14:08:21Z</time></trkpt><trkpt lat="58.054775" lon="38.81991"><ele>111.3</ele><time>2024-01-05T14:08:26Z</time></trkpt><trkpt lat="58.05477" lon="38.819775"><ele>111.9</ele><time>2024-01-05T14:08:31Z</time></trkpt><trkpt lat="58.054785" lon="38.819615"><ele>111.1</ele><time>2024-01-05T14:08:37Z</time></trkpt><trkpt lat="58.05479" lon="38.819455"><ele>111.7</ele><time>2024-01-05T14:08:43Z</time></trkpt><trkpt lat="58.054795" lon="38.819295"><ele>111.9</ele><time>2024-01-05T14:08:49Z</time></trkpt><trkpt lat="58.05479" lon="38.81915"><ele>112.0</ele><time>2024-01-05T14:08:54Z</time></trkpt><trkpt lat="58.054805" lon="38.819015"><ele>112.0</ele><time>2024-01-05T14:08:59Z</time></trkpt><trkpt lat="58.05481" lon="38.818865"><ele>111.4</ele><time>2024-01-05T14:09:04Z</time></trkpt><trkpt lat="58.054815" lon="38.818705"><ele>111.6</ele><time>2024-01-05T14:09:09Z</time></trkpt><trkpt lat="58.054825" lon="38.81856"><ele>115.7</ele><time>2024-01-05T14:09:15Z</time></trkpt><trkpt lat="58.054825" lon="38.818418"><ele>114.3</ele><time>2024-01-05T14:09:21Z</time></trkpt><trkpt lat="58.054845" lon="38.81828"><ele>110.9</ele><time>2024-01-05T14:09:27Z</time></trkpt><trkpt lat="58.05486" lon="38.81812"><ele>111.1</ele><time>2024-01-05T14:09:33Z</time></trkpt><trkpt lat="58.05487" lon="38.817985"><ele>112.8</ele><time>2024-01-05T14:09:38Z</time></trkpt><trkpt lat="58.05489" lon="38.817845"><ele>110.8</ele><time>2024-01-05T14:09:44Z</time></trkpt><trkpt lat="58.054895" lon="38.817695"><ele>113.0</ele><time>2024-01-05T14:09:50Z</time></trkpt><trkpt lat="58.0549" lon="38.817555"><ele>114.2</ele><time>2024-01-05T14:09:55Z</time></trkpt><trkpt lat="58.05489" lon="38.8174"><ele>113.4</ele><time>2024-01-05T14:10:01Z</time></trkpt><trkpt lat="58.054915" lon="38.817245"><ele>110.7</ele><time>2024-01-05T14:10:07Z</time></trkpt><trkpt lat="58.05493" lon="38.81709"><ele>111.9</ele><time>2024-01-05T14:10:12Z</time></trkpt><trkpt lat="58.054918" lon="38.816955"><ele>113.9</ele><time>2024-01-05T14:10:17Z</time></trkpt><trkpt lat="58.05491" lon="38.816815"><ele>116.6</ele><time>2024-01-05T14:10:22Z</time></trkpt><trkpt lat="58.05493" lon="38.81667"><ele>116.9</ele><time>2024-01-05T14:10:27Z</time></trkpt><trkpt lat="58.05493" lon="38.816515"><ele>116.6</ele><time>2024-01-05T14:10:33Z</time></trkpt><trkpt lat="58.054945" lon="38.81636"><ele>116.5</ele><time>2024-01-05T14:10:39Z</time></trkpt><trkpt lat="58.05498" lon="38.816225"><ele>115.2</ele><time>2024-01-05T14:10:44Z</time></trkpt><trkpt lat="58.05502" lon="38.81611"><ele>114.1</ele><time>2024-01-05T14:10:49Z</time></trkpt><trkpt lat="58.055035" lon="38.81596"><ele>112.7</ele><time>2024-01-05T14:10:55Z</time></trkpt><trkpt lat="58.055045" lon="38.815815"><ele>114.1</ele><time>2024-01-05T14:11:00Z</time></trkpt><trkpt lat="58.055045" lon="38.81568"><ele>113.5</ele><time>2024-01-05T14:11:05Z</time></trkpt><trkpt lat="58.05505" lon="38.815525"><ele>112.2</ele><time>2024-01-05T14:11:11Z</time></trkpt><trkpt lat="58.055073" lon="38.81537"><ele>113.4</ele><time>2024-01-05T14:11:17Z</time></trkpt><trkpt lat="58.055085" lon="38.815225"><ele>113.1</ele><time>2024-01-05T14:11:23Z</time></trkpt><trkpt lat="58.055105" lon="38.815085"><ele>111.5</ele><time>2024-01-05T14:11:28Z</time></trkpt><trkpt lat="58.055115" lon="38.814945"><ele>113.5</ele><time>2024-01-05T14:11:33Z</time></trkpt><trkpt lat="58.055125" lon="38.81481"><ele>113.8</ele><time>2024-01-05T14:11:38Z</time></trkpt><trkpt lat="58.055125" lon="38.81466"><ele>112.5</ele><time>2024-01-05T14:11:43Z</time></trkpt><trkpt lat="58.05514" lon="38.814505"><ele>109.8</ele><time>2024-01-05T14:11:48Z</time></trkpt><trkpt lat="58.05514" lon="38.81436"><ele>109.1</ele><time>2024-01-05T14:11:53Z</time></trkpt><trkpt lat="58.05516" lon="38.814215"><ele>110.0</ele><time>2024-01-05T14:11:58Z</time></trkpt><trkpt lat="58.05518" lon="38.814085"><ele>112.3</ele><time>2024-01-05T14:12:03Z</time></trkpt><trkpt lat="58.055185" lon="38.81394"><ele>111.5</ele><time>2024-01-05T14:12:08Z</time></trkpt><trkpt lat="58.055195" lon="38.81379"><ele>110.2</ele><time>2024-01-05T14:12:13Z</time></trkpt><trkpt lat="58.05519" lon="38.81364"><ele>111.1</ele><time>2024-01-05T14:12:18Z</time></trkpt><trkpt lat="58.055205" lon="38.81349"><ele>111.7</ele><time>2024-01-05T14:12:24Z</time></trkpt><trkpt lat="58.05521" lon="38.813325"><ele>112.0</ele><time>2024-01-05T14:12:30Z</time></trkpt><trkpt lat="58.055208" lon="38.813165"><ele>114.3</ele><time>2024-01-05T14:12:35Z</time></trkpt><trkpt lat="58.055225" lon="38.813015"><ele>109.9</ele><time>2024-01-05T14:12:40Z</time></trkpt><trkpt lat="58.05524" lon="38.812865"><ele>109.6</ele><time>2024-01-05T14:12:46Z</time></trkpt><trkpt lat="58.055245" lon="38.81272"><ele>112.9</ele><time>2024-01-05T14:12:51Z</time></trkpt><trkpt lat="58.055275" lon="38.812575"><ele>114.3</ele><time>2024-01-05T14:12:57Z</time></trkpt><trkpt lat="58.05528" lon="38.81242"><ele>112.8</ele><time>2024-01-05T14:13:02Z</time></trkpt><trkpt lat="58.055293" lon="38.81226"><ele>111.6</ele><time>2024-01-05T14:13:08Z</time></trkpt><trkpt lat="58.05528" lon="38.812105"><ele>113.2</ele><time>2024-01-05T14:13:13Z</time></trkpt><trkpt lat="58.05528" lon="38.81196"><ele>113.1</ele><time>2024-01-05T14:13:18Z</time></trkpt><trkpt lat="58.055298" lon="38.811805"><ele>113.2</ele><time>2024-01-05T14:13:24Z</time></trkpt><trkpt lat="58.055315" lon="38.81167"><ele>112.9</ele><time>2024-01-05T14:13:29Z</time></trkpt><trkpt lat="58.05533" lon="38.811525"><ele>112.8</ele><time>2024-01-05T14:13:34Z</time></trkpt><trkpt lat="58.055345" lon="38.81138"><ele>114.0</ele><time>2024-01-05T14:13:40Z</time></trkpt><trkpt lat="58.05534" lon="38.81124"><ele>115.1</ele><time>2024-01-05T14:13:46Z</time></trkpt><trkpt lat="58.055345" lon="38.811073"><ele>115.2</ele><time>2024-01-05T14:13:51Z</time></trkpt><trkpt lat="58.05536" lon="38.81093"><ele>114.8</ele><time>2024-01-05T14:13:56Z</time></trkpt><trkpt lat="58.055362" lon="38.81078"><ele>114.6</ele><time>2024-01-05T14:14:01Z</time></trkpt><trkpt lat="58.055362" lon="38.810625"><ele>115.1</ele><time>2024-01-05T14:14:06Z</time></trkpt><trkpt lat="58.05536" lon="38.810465"><ele>115.2</ele><time>2024-01-05T14:14:11Z</time></trkpt><trkpt lat="58.05536" lon="38.810325"><ele>115.0</ele><time>2024-01-05T14:14:16Z</time></trkpt><trkpt lat="58.055385" lon="38.81017"><ele>116.1</ele><time>2024-01-05T14:14:22Z</time></trkpt><trkpt lat="58.05546" lon="38.81012"><ele>116.8</ele><time>2024-01-05T14:14:27Z</time></trkpt><trkpt lat="58.05547" lon="38.81016"><ele>117.8</ele><time>2024-01-05T14:14:34Z</time></trkpt><trkpt lat="58.055465" lon="38.81016"><ele>117.3</ele><time>2024-01-05T14:14:36Z</time></trkpt><trkpt lat="58.05546" lon="38.81015"><ele>117.2</ele><time>2024-01-05T14:14:45Z</time></trkpt><trkpt lat="58.05546" lon="38.81015"><ele>117.2</ele><time>2024-01-05T14:14:46Z</time></trkpt><trkpt lat="58.055535" lon="38.810185"><ele>117.6</ele><time>2024-01-05T14:14:58Z</time></trkpt><trkpt lat="58.05562" lon="38.81021"><ele>117.9</ele><time>2024-01-05T14:15:03Z</time></trkpt><trkpt lat="58.0557" lon="38.810235"><ele>117.6</ele><time>2024-01-05T14:15:08Z</time></trkpt><trkpt lat="58.05577" lon="38.81016"><ele>115.1</ele><time>2024-01-05T14:15:14Z</time></trkpt><trkpt lat="58.055825" lon="38.810045"><ele>114.7</ele><time>2024-01-05T14:15:20Z</time></trkpt><trkpt lat="58.055875" lon="38.80995"><ele>115.4</ele><time>2024-01-05T14:15:26Z</time></trkpt><trkpt lat="58.05593" lon="38.809845"><ele>113.4</ele><time>2024-01-05T14:15:32Z</time></trkpt><trkpt lat="58.055945" lon="38.8097"><ele>115.9</ele><time>2024-01-05T14:15:39Z</time></trkpt><trkpt lat="58.056035" lon="38.80969"><ele>118.1</ele><time>2024-01-05T14:15:44Z</time></trkpt><trkpt lat="58.056113" lon="38.809705"><ele>118.1</ele><time>2024-01-05T14:15:49Z</time></trkpt><trkpt lat="58.056185" lon="38.809775"><ele>121.1</ele><time>2024-01-05T14:15:56Z</time></trkpt><trkpt lat="58.05626" lon="38.80977"><ele>121.8</ele><time>2024-01-05T14:16:02Z</time></trkpt><trkpt lat="58.056345" lon="38.80979"><ele>117.9</ele><time>2024-01-05T14:16:09Z</time></trkpt><trkpt lat="58.056422" lon="38.809735"><ele>116.0</ele><time>2024-01-05T14:16:15Z</time></trkpt><trkpt lat="58.05649" lon="38.80968"><ele>115.9</ele><time>2024-01-05T14:16:22Z</time></trkpt><trkpt lat="58.056545" lon="38.80958"><ele>114.7</ele><time>2024-01-05T14:16:28Z</time></trkpt><trkpt lat="58.05659" lon="38.809445"><ele>111.7</ele><time>2024-01-05T14:16:34Z</time></trkpt><trkpt lat="58.05664" lon="38.80934"><ele>111.5</ele><time>2024-01-05T14:16:40Z</time></trkpt><trkpt lat="58.05672" lon="38.809395"><ele>108.6</ele><time>2024-01-05T14:16:46Z</time></trkpt><trkpt lat="58.05679" lon="38.809435"><ele>106.2</ele><time>2024-01-05T14:16:51Z</time></trkpt><trkpt lat="58.056865" lon="38.809445"><ele>105.6</ele><time>2024-01-05T14:16:57Z</time></trkpt><trkpt lat="58.05694" lon="38.809515"><ele>106.4</ele><time>2024-01-05T14:17:03Z</time></trkpt><trkpt lat="58.05702" lon="38.809525"><ele>102.5</ele><time>2024-01-05T14:17:09Z</time></trkpt><trkpt lat="58.057065" lon="38.80941"><ele>103.3</ele><time>2024-01-05T14:17:13Z</time></trkpt><trkpt lat="58.057113" lon="38.8093"><ele>108.4</ele><time>2024-01-05T14:17:18Z</time></trkpt><trkpt lat="58.057178" lon="38.80919"><ele>112.4</ele><time>2024-01-05T14:17:24Z</time></trkpt><trkpt lat="58.05724" lon="38.8091"><ele>112.1</ele><time>2024-01-05T14:17:29Z</time></trkpt><trkpt lat="58.057305" lon="38.809005"><ele>113.7</ele><time>2024-01-05T14:17:34Z</time></trkpt><trkpt lat="58.057375" lon="38.808985"><ele>112.4</ele><time>2024-01-05T14:17:38Z</time></trkpt><trkpt lat="58.05744" lon="38.808925"><ele>113.9</ele><time>2024-01-05T14:17:42Z</time></trkpt><trkpt lat="58.05752" lon="38.808875"><ele>115.0</ele><time>2024-01-05T14:17:48Z</time></trkpt><trkpt lat="58.057595" lon="38.80883"><ele>114.4</ele><time>2024-01-05T14:17:53Z</time></trkpt><trkpt lat="58.057665" lon="38.808785"><ele>116.7</ele><time>2024-01-05T14:17:59Z</time></trkpt><trkpt lat="58.057755" lon="38.808742"><ele>112.0</ele><time>2024-01-05T14:18:05Z</time></trkpt><trkpt lat="58.057835" lon="38.808765"><ele>112.8</ele><time>2024-01-05T14:18:11Z</time></trkpt><trkpt lat="58.05791" lon="38.80875"><ele>114.8</ele><time>2024-01-05T14:18:16Z</time></trkpt><trkpt lat="58.05799" lon="38.808765"><ele>119.3</ele><time>2024-01-05T14:18:21Z</time></trkpt><trkpt lat="58.05806" lon="38.808795"><ele>112.3</ele><time>2024-01-05T14:18:26Z</time></trkpt><trkpt lat="58.058145" lon="38.80875"><ele>111.3</ele><time>2024-01-05T14:18:32Z</time></trkpt><trkpt lat="58.058215" lon="38.808755"><ele>112.0</ele><time>2024-01-05T14:18:38Z</time></trkpt><trkpt lat="58.05829" lon="38.808797"><ele>109.0</ele><time>2024-01-05T14:18:43Z</time></trkpt><trkpt lat="58.05836" lon="38.808813"><ele>110.7</ele><time>2024-01-05T14:18:47Z</time></trkpt><trkpt lat="58.05844" lon="38.80885"><ele>114.7</ele><time>2024-01-05T14:18:52Z</time></trkpt><trkpt lat="58.05851" lon="38.808952"><ele>113.8</ele><time>2024-01-05T14:18:56Z</time></trkpt><trkpt lat="58.05859" lon="38.80896"><ele>112.1</ele><time>2024-01-05T14:19:00Z</time></trkpt><trkpt lat="58.058632" lon="38.808813"><ele>113.9</ele><time>2024-01-05T14:19:05Z</time></trkpt><trkpt lat="58.05864" lon="38.80867"><ele>116.0</ele><time>2024-01-05T14:19:10Z</time></trkpt><trkpt lat="58.05866" lon="38.80852"><ele>117.7</ele><time>2024-01-05T14:19:16Z</time></trkpt><trkpt lat="58.05866" lon="38.80836"><ele>116.2</ele><time>2024-01-05T14:19:21Z</time></trkpt><trkpt lat="58.05866" lon="38.808208"><ele>116.2</ele><time>2024-01-05T14:19:26Z</time></trkpt><trkpt lat="58.05867" lon="38.80807"><ele>111.3</ele><time>2024-01-05T14:19:30Z</time></trkpt><trkpt lat="58.058655" lon="38.80791"><ele>115.0</ele><time>2024-01-05T14:19:35Z</time></trkpt><trkpt lat="58.05866" lon="38.80775"><ele>114.5</ele><time>2024-01-05T14:19:40Z</time></trkpt><trkpt lat="58.05873" lon="38.807695"><ele>120.2</ele><time>2024-01-05T14:19:45Z</time></trkpt><trkpt lat="58.058767" lon="38.80778"><ele>118.5</ele><time>2024-01-05T14:19:53Z</time></trkpt><trkpt lat="58.05888" lon="38.807645"><ele>114.7</ele><time>2024-01-05T14:20:01Z</time></trkpt></trkseg></trk></gpx>