<?xml version="1.0" encoding="UTF-8" standalone="no"?><gpx xmlns="http://www.topografix.com/GPX/1/1" xmlns:gpxtpx="http://www.garmin.com/xmlschemas/TrackPointExtension/v1" xmlns:xsi="http://www.w3.org/2001/XMLSchema-instance" creator="Sports Tracker" version="1.1" xsi:schemaLocation="http://www.topografix.com/GPX/1/1 http://www.topografix.com/GPX/1/1/gpx.xsd http://www.garmin.com/xmlschemas/TrackPointExtension/v1 http://www.garmin.com/xmlschemas/TrackPointExtensionv1.xsd"><metadata><name>22.01.2024 07:55</name><desc/><author><name>Александр</name></author></metadata><trk><name>22.01.2024 07:55</name><trkseg><trkpt lat="58.058725" lon="38.81068"><ele>127.3</ele><time>2024-01-22T04:55:42Z</time></trkpt><trkpt lat="58.058725" lon="38.81068"><ele>127.3</ele><time>2024-01-22T04:56:46Z</time></trkpt><trkpt lat="58.05875" lon="38.810825"><ele>121.6</ele><time>2024-01-22T04:56:51Z</time></trkpt><trkpt lat="58.058815" lon="38.8109"><ele>120.4</ele><time>2024-01-22T04:56:55Z</time></trkpt><trkpt lat="58.058885" lon="38.81097"><ele>118.7</ele><time>2024-01-22T04:56:59Z</time></trkpt><trkpt lat="58.058862" lon="38.81114"><ele>117.6</ele><time>2024-01-22T04:57:04Z</time></trkpt><trkpt lat="58.05882" lon="38.81127"><ele>115.3</ele><time>2024-01-22T04:57:08Z</time></trkpt><trkpt lat="58.058752" lon="38.811373"><ele>111.3</ele><time>2024-01-22T04:57:11Z</time></trkpt><trkpt lat="58.058745" lon="38.811515"><ele>113.4</ele><time>2024-01-22T04:57:15Z</time></trkpt><trkpt lat="58.05875" lon="38.811665"><ele>115.9</ele><time>2024-01-22T04:57:20Z</time></trkpt><trkpt lat="58.058712" lon="38.811827"><ele>116.7</ele><time>2024-01-22T04:57:25Z</time></trkpt><trkpt lat="58.05872" lon="38.811965"><ele>116.7</ele><time>2024-01-22T04:57:28Z</time></trkpt><trkpt lat="58.058707" lon="38.812105"><ele>119.3</ele><time>2024-01-22T04:57:33Z</time></trkpt><trkpt lat="58.058725" lon="38.812245"><ele>117.2</ele><time>2024-01-22T04:57:36Z</time></trkpt><trkpt lat="58.058737" lon="38.81238"><ele>113.7</ele><time>2024-01-22T04:57:39Z</time></trkpt><trkpt lat="58.058745" lon="38.812522"><ele>114.0</ele><time>2024-01-22T04:57:43Z</time></trkpt><trkpt lat="58.05874" lon="38.812667"><ele>113.5</ele><time>2024-01-22T04:57:49Z</time></trkpt><trkpt lat="58.058777" lon="38.812795"><ele>108.9</ele><time>2024-01-22T04:57:55Z</time></trkpt><trkpt lat="58.058842" lon="38.812897"><ele>107.7</ele><time>2024-01-22T04:58:01Z</time></trkpt><trkpt lat="58.05889" lon="38.813042"><ele>109.9</ele><time>2024-01-22T04:58:06Z</time></trkpt><trkpt lat="58.058935" lon="38.813185"><ele>110.4</ele><time>2024-01-22T04:58:11Z</time></trkpt><trkpt lat="58.058985" lon="38.81332"><ele>111.8</ele><time>2024-01-22T04:58:16Z</time></trkpt><trkpt lat="58.059012" lon="38.81345"><ele>110.7</ele><time>2024-01-22T04:58:20Z</time></trkpt><trkpt lat="58.059078" lon="38.813545"><ele>108.2</ele><time>2024-01-22T04:58:26Z</time></trkpt><trkpt lat="58.059148" lon="38.813585"><ele>107.7</ele><time>2024-01-22T04:58:30Z</time></trkpt><trkpt lat="58.059245" lon="38.813595"><ele>107.1</ele><time>2024-01-22T04:58:35Z</time></trkpt><trkpt lat="58.059335" lon="38.8136"><ele>106.7</ele><time>2024-01-22T04:58:39Z</time></trkpt><trkpt lat="58.059405" lon="38.81365"><ele>97.4</ele><time>2024-01-22T04:58:44Z</time></trkpt><trkpt lat="58.05949" lon="38.813653"><ele>102.8</ele><time>2024-01-22T04:58:50Z</time></trkpt><trkpt lat="58.059572" lon="38.813695"><ele>104.7</ele><time>2024-01-22T04:58:54Z</time></trkpt><trkpt lat="58.059645" lon="38.81371"><ele>107.2</ele><time>2024-01-22T04:58:58Z</time></trkpt><trkpt lat="58.059717" lon="38.81376"><ele>105.0</ele><time>2024-01-22T04:59:03Z</time></trkpt><trkpt lat="58.059802" lon="38.813765"><ele>108.9</ele><time>2024-01-22T04:59:08Z</time></trkpt><trkpt lat="58.059867" lon="38.813665"><ele>111.9</ele><time>2024-01-22T04:59:11Z</time></trkpt><trkpt lat="58.059905" lon="38.813525"><ele>114.0</ele><time>2024-01-22T04:59:15Z</time></trkpt><trkpt lat="58.059912" lon="38.81337"><ele>115.8</ele><time>2024-01-22T04:59:20Z</time></trkpt><trkpt lat="58.059837" lon="38.81331"><ele>116.8</ele><time>2024-01-22T04:59:23Z</time></trkpt><trkpt lat="58.059767" lon="38.8134"><ele>112.9</ele><time>2024-01-22T04:59:26Z</time></trkpt><trkpt lat="58.059635" lon="38.813412"><ele>110.6</ele><time>2024-01-22T04:59:33Z</time></trkpt><trkpt lat="58.059575" lon="38.813265"><ele>109.6</ele><time>2024-01-22T04:59:35Z</time></trkpt><trkpt lat="58.05929" lon="38.812807"><ele>98.0</ele><time>2024-01-22T04:59:59Z</time></trkpt><trkpt lat="58.05966" lon="38.813035"><ele>117.2</ele><time>2024-01-22T05:01:41Z</time></trkpt><trkpt lat="58.059532" lon="38.813048"><ele>126.4</ele><time>2024-01-22T05:01:45Z</time></trkpt><trkpt lat="58.059515" lon="38.81308"><ele>130.1</ele><time>2024-01-22T05:01:52Z</time></trkpt><trkpt lat="58.05954" lon="38.81309"><ele>128.7</ele><time>2024-01-22T05:01:59Z</time></trkpt><trkpt lat="58.059527" lon="38.813082"><ele>128.6</ele><time>2024-01-22T05:02:06Z</time></trkpt><trkpt lat="58.059527" lon="38.81308"><ele>128.4</ele><time>2024-01-22T05:02:08Z</time></trkpt><trkpt lat="58.059533" lon="38.813085"><ele>128.1</ele><time>2024-01-22T05:02:19Z</time></trkpt><trkpt lat="58.059525" lon="38.81309"><ele>128.4</ele><time>2024-01-22T05:02:26Z</time></trkpt><trkpt lat="58.059525" lon="38.81309"><ele>128.4</ele><time>2024-01-22T05:02:27Z</time></trkpt><trkpt lat="58.059525" lon="38.813087"><ele>128.7</ele><time>2024-01-22T05:02:37Z</time></trkpt><trkpt lat="58.059532" lon="38.81309"><ele>127.7</ele><time>2024-01-22T05:02:44Z</time></trkpt><trkpt lat="58.0595" lon="38.813095"><ele>129.6</ele><time>2024-01-22T05:02:51Z</time></trkpt><trkpt lat="58.05951" lon="38.813105"><ele>127.9</ele><time>2024-01-22T05:02:58Z</time></trkpt><trkpt lat="58.05951" lon="38.813105"><ele>127.9</ele><time>2024-01-22T05:03:01Z</time></trkpt><trkpt lat="58.05951" lon="38.813105"><ele>128.3</ele><time>2024-01-22T05:03:23Z</time></trkpt><trkpt lat="58.059512" lon="38.813102"><ele>128.3</ele><time>2024-01-22T05:03:27Z</time></trkpt><trkpt lat="58.05952" lon="38.8131"><ele>128.3</ele><time>2024-01-22T05:03:35Z</time></trkpt><trkpt lat="58.05952" lon="38.8131"><ele>128.3</ele><time>2024-01-22T05:03:36Z</time></trkpt><trkpt lat="58.059555" lon="38.813095"><ele>126.1</ele><time>2024-01-22T05:04:04Z</time></trkpt><trkpt lat="58.059565" lon="38.81309"><ele>125.3</ele><time>2024-01-22T05:04:11Z</time></trkpt><trkpt lat="58.059565" lon="38.81309"><ele>125.3</ele><time>2024-01-22T05:04:12Z</time></trkpt><trkpt lat="58.059575" lon="38.81309"><ele>124.7</ele><time>2024-01-22T05:04:35Z</time></trkpt><trkpt lat="58.059575" lon="38.81309"><ele>124.8</ele><time>2024-01-22T05:04:36Z</time></trkpt><trkpt lat="58.05958" lon="38.813097"><ele>125.1</ele><time>2024-01-22T05:06:07Z</time></trkpt><trkpt lat="58.05958" lon="38.813097"><ele>125.1</ele><time>2024-01-22T05:06:08Z</time></trkpt><trkpt lat="58.059587" lon="38.8131"><ele>124.5</ele><time>2024-01-22T05:06:33Z</time></trkpt><trkpt lat="58.059587" lon="38.8131"><ele>124.5</ele><time>2024-01-22T05:06:34Z</time></trkpt><trkpt lat="58.059595" lon="38.8131"><ele>124.2</ele><time>2024-01-22T05:07:01Z</time></trkpt><trkpt lat="58.059595" lon="38.8131"><ele>124.2</ele><time>2024-01-22T05:07:02Z</time></trkpt><trkpt lat="58.0596" lon="38.813105"><ele>123.9</ele><time>2024-01-22T05:08:05Z</time></trkpt><trkpt lat="58.0596" lon="38.813105"><ele>123.9</ele><time>2024-01-22T05:08:06Z</time></trkpt><trkpt lat="58.05961" lon="38.813105"><ele>123.2</ele><time>2024-01-22T05:08:31Z</time></trkpt><trkpt lat="58.05961" lon="38.813105"><ele>123.2</ele><time>2024-01-22T05:08:32Z</time></trkpt><trkpt lat="58.059618" lon="38.81311"><ele>122.4</ele><time>2024-01-22T05:08:49Z</time></trkpt><trkpt lat="58.059618" lon="38.81311"><ele>122.5</ele><time>2024-01-22T05:08:50Z</time></trkpt><trkpt lat="58.059627" lon="38.81311"><ele>121.9</ele><time>2024-01-22T05:09:01Z</time></trkpt><trkpt lat="58.059627" lon="38.81311"><ele>121.9</ele><time>2024-01-22T05:09:02Z</time></trkpt><trkpt lat="58.059635" lon="38.813115"><ele>121.4</ele><time>2024-01-22T05:09:13Z</time></trkpt><trkpt lat="58.059637" lon="38.813115"><ele>121.4</ele><time>2024-01-22T05:09:14Z</time></trkpt><trkpt lat="58.059645" lon="38.813117"><ele>120.7</ele><time>2024-01-22T05:10:30Z</time></trkpt><trkpt lat="58.059645" lon="38.813117"><ele>120.7</ele><time>2024-01-22T05:10:31Z</time></trkpt><trkpt lat="58.059652" lon="38.813118"><ele>120.4</ele><time>2024-01-22T05:11:06Z</time></trkpt><trkpt lat="58.059652" lon="38.813118"><ele>120.4</ele><time>2024-01-22T05:11:07Z</time></trkpt><trkpt lat="58.05966" lon="38.813125"><ele>119.9</ele><time>2024-01-22T05:11:30Z</time></trkpt><trkpt lat="58.05966" lon="38.813125"><ele>119.9</ele><time>2024-01-22T05:11:31Z</time></trkpt><trkpt lat="58.059652" lon="38.813118"><ele>121.2</ele><time>2024-01-22T05:15:49Z</time></trkpt><trkpt lat="58.059652" lon="38.813118"><ele>121.2</ele><time>2024-01-22T05:15:50Z</time></trkpt><trkpt lat="58.059647" lon="38.813117"><ele>121.7</ele><time>2024-01-22T05:16:07Z</time></trkpt><trkpt lat="58.059647" lon="38.813117"><ele>121.7</ele><time>2024-01-22T05:16:08Z</time></trkpt><trkpt lat="58.059652" lon="38.813115"><ele>121.4</ele><time>2024-01-22T05:16:31Z</time></trkpt><trkpt lat="58.059652" lon="38.813115"><ele>121.4</ele><time>2024-01-22T05:16:32Z</time></trkpt><trkpt lat="58.05966" lon="38.813117"><ele>120.9</ele><time>2024-01-22T05:16:56Z</time></trkpt><trkpt lat="58.05966" lon="38.813117"><ele>120.9</ele><time>2024-01-22T05:16:57Z</time></trkpt><trkpt lat="58.05966" lon="38.813117"><ele>121.0</ele><time>2024-01-22T05:17:19Z</time></trkpt><trkpt lat="58.05966" lon="38.813117"><ele>121.0</ele><time>2024-01-22T05:17:21Z</time></trkpt><trkpt lat="58.05966" lon="38.813118"><ele>121.9</ele><time>2024-01-22T05:33:11Z</time></trkpt><trkpt lat="58.05966" lon="38.813118"><ele>121.9</ele><time>2024-01-22T05:33:13Z</time></trkpt><trkpt lat="58.0597" lon="38.813235"><ele>122.4</ele><time>2024-01-22T05:33:15Z</time></trkpt><trkpt lat="58.059865" lon="38.813287"><ele>102.0</ele><time>2024-01-22T05:40:11Z</time></trkpt><trkpt lat="58.05989" lon="38.813285"><ele>112.1</ele><time>2024-01-22T05:40:18Z</time></trkpt><trkpt lat="58.059822" lon="38.81326"><ele>118.0</ele><time>2024-01-22T05:40:25Z</time></trkpt><trkpt lat="58.059825" lon="38.81328"><ele>116.8</ele><time>2024-01-22T05:40:32Z</time></trkpt><trkpt lat="58.05979" lon="38.813245"><ele>116.7</ele><time>2024-01-22T05:40:39Z</time></trkpt><trkpt lat="58.059775" lon="38.813242"><ele>116.4</ele><time>2024-01-22T05:40:45Z</time></trkpt><trkpt lat="58.059745" lon="38.81323"><ele>113.2</ele><time>2024-01-22T05:40:54Z</time></trkpt><trkpt lat="58.059725" lon="38.813232"><ele>113.8</ele><time>2024-01-22T05:41:01Z</time></trkpt><trkpt lat="58.059707" lon="38.81323"><ele>114.7</ele><time>2024-01-22T05:41:08Z</time></trkpt><trkpt lat="58.059695" lon="38.81323"><ele>114.4</ele><time>2024-01-22T05:41:21Z</time></trkpt><trkpt lat="58.059695" lon="38.81323"><ele>114.4</ele><time>2024-01-22T05:41:22Z</time></trkpt><trkpt lat="58.059688" lon="38.81323"><ele>114.6</ele><time>2024-01-22T05:41:35Z</time></trkpt><trkpt lat="58.059687" lon="38.81323"><ele>114.6</ele><time>2024-01-22T05:41:36Z</time></trkpt><trkpt lat="58.05968" lon="38.813235"><ele>114.9</ele><time>2024-01-22T05:41:51Z</time></trkpt><trkpt lat="58.05968" lon="38.813235"><ele>115.0</ele><time>2024-01-22T05:41:52Z</time></trkpt><trkpt lat="58.059655" lon="38.81323"><ele>117.6</ele><time>2024-01-22T05:43:41Z</time></trkpt><trkpt lat="58.059655" lon="38.81323"><ele>117.6</ele><time>2024-01-22T05:43:43Z</time></trkpt><trkpt lat="58.059655" lon="38.813222"><ele>118.0</ele><time>2024-01-22T05:45:48Z</time></trkpt><trkpt lat="58.059655" lon="38.813225"><ele>118.0</ele><time>2024-01-22T05:45:49Z</time></trkpt><trkpt lat="58.05963" lon="38.813185"><ele>120.2</ele><time>2024-01-22T05:46:02Z</time></trkpt><trkpt lat="58.05963" lon="38.813203"><ele>121.3</ele><time>2024-01-22T05:46:06Z</time></trkpt><trkpt lat="58.059637" lon="38.8132"><ele>122.1</ele><time>2024-01-22T05:46:27Z</time></trkpt><trkpt lat="58.059637" lon="38.8132"><ele>122.1</ele><time>2024-01-22T05:46:28Z</time></trkpt><trkpt lat="58.05964" lon="38.813195"><ele>123.3</ele><time>2024-01-22T05:51:37Z</time></trkpt><trkpt lat="58.05964" lon="38.813195"><ele>123.3</ele><time>2024-01-22T05:51:38Z</time></trkpt><trkpt lat="58.059645" lon="38.813195"><ele>123.2</ele><time>2024-01-22T05:52:25Z</time></trkpt><trkpt lat="58.059645" lon="38.813192"><ele>123.2</ele><time>2024-01-22T05:52:26Z</time></trkpt><trkpt lat="58.05964" lon="38.813167"><ele>123.1</ele><time>2024-01-22T05:54:20Z</time></trkpt><trkpt lat="58.05965" lon="38.813165"><ele>122.3</ele><time>2024-01-22T05:54:27Z</time></trkpt><trkpt lat="58.05965" lon="38.813165"><ele>122.2</ele><time>2024-01-22T05:54:28Z</time></trkpt><trkpt lat="58.059665" lon="38.81317"><ele>121.9</ele><time>2024-01-22T05:54:40Z</time></trkpt><trkpt lat="58.059665" lon="38.81317"><ele>121.8</ele><time>2024-01-22T05:54:41Z</time></trkpt><trkpt lat="58.05966" lon="38.81316"><ele>122.6</ele><time>2024-01-22T05:55:19Z</time></trkpt><trkpt lat="58.05966" lon="38.81316"><ele>122.6</ele><time>2024-01-22T05:55:20Z</time></trkpt><trkpt lat="58.059665" lon="38.813152"><ele>122.3</ele><time>2024-01-22T05:56:19Z</time></trkpt><trkpt lat="58.059665" lon="38.813152"><ele>122.3</ele><time>2024-01-22T05:56:20Z</time></trkpt><trkpt lat="58.059655" lon="38.81315"><ele>122.8</ele><time>2024-01-22T05:57:20Z</time></trkpt><trkpt lat="58.059655" lon="38.81315"><ele>122.8</ele><time>2024-01-22T05:57:21Z</time></trkpt><trkpt lat="58.059665" lon="38.81315"><ele>122.4</ele><time>2024-01-22T05:57:52Z</time></trkpt><trkpt lat="58.059665" lon="38.81315"><ele>122.4</ele><time>2024-01-22T05:57:53Z</time></trkpt><trkpt lat="58.059695" lon="38.813155"><ele>120.1</ele><time>2024-01-22T06:03:32Z</time></trkpt><trkpt lat="58.059695" lon="38.813155"><ele>120.1</ele><time>2024-01-22T06:03:34Z</time></trkpt><trkpt lat="58.0597" lon="38.813155"><ele>119.7</ele><time>2024-01-22T06:04:07Z</time></trkpt><trkpt lat="58.0597" lon="38.813155"><ele>119.7</ele><time>2024-01-22T06:04:08Z</time></trkpt><trkpt lat="58.059695" lon="38.81315"><ele>120.4</ele><time>2024-01-22T06:08:22Z</time></trkpt><trkpt lat="58.059695" lon="38.81315"><ele>120.4</ele><time>2024-01-22T06:08:23Z</time></trkpt><trkpt lat="58.0597" lon="38.813145"><ele>120.9</ele><time>2024-01-22T06:23:25Z</time></trkpt><trkpt lat="58.0597" lon="38.813145"><ele>120.9</ele><time>2024-01-22T06:23:26Z</time></trkpt><trkpt lat="58.059755" lon="38.813235"><ele>121.5</ele><time>2024-01-22T06:26:17Z</time></trkpt><trkpt lat="58.059725" lon="38.813202"><ele>120.8</ele><time>2024-01-22T06:26:24Z</time></trkpt><trkpt lat="58.05973" lon="38.8132"><ele>121.1</ele><time>2024-01-22T06:26:29Z</time></trkpt><trkpt lat="58.059735" lon="38.813203"><ele>120.8</ele><time>2024-01-22T06:26:50Z</time></trkpt><trkpt lat="58.05973" lon="38.813203"><ele>120.8</ele><time>2024-01-22T06:26:51Z</time></trkpt><trkpt lat="58.05972" lon="38.813198"><ele>121.4</ele><time>2024-01-22T06:28:00Z</time></trkpt><trkpt lat="58.059715" lon="38.813195"><ele>121.7</ele><time>2024-01-22T06:28:04Z</time></trkpt><trkpt lat="58.05971" lon="38.813192"><ele>121.4</ele><time>2024-01-22T06:29:06Z</time></trkpt><trkpt lat="58.05971" lon="38.813192"><ele>121.3</ele><time>2024-01-22T06:29:07Z</time></trkpt><trkpt lat="58.059715" lon="38.813195"><ele>121.4</ele><time>2024-01-22T06:35:49Z</time></trkpt><trkpt lat="58.059715" lon="38.813195"><ele>121.3</ele><time>2024-01-22T06:35:50Z</time></trkpt><trkpt lat="58.059655" lon="38.813355"><ele>110.6</ele><time>2024-01-22T06:43:04Z</time></trkpt><trkpt lat="58.059715" lon="38.813198"><ele>121.3</ele><time>2024-01-22T06:43:34Z</time></trkpt><trkpt lat="58.059715" lon="38.813198"><ele>121.3</ele><time>2024-01-22T06:43:40Z</time></trkpt><trkpt lat="58.059715" lon="38.81321"><ele>120.9</ele><time>2024-01-22T07:01:54Z</time></trkpt><trkpt lat="58.059715" lon="38.81321"><ele>120.9</ele><time>2024-01-22T07:01:55Z</time></trkpt><trkpt lat="58.059777" lon="38.81363"><ele>116.3</ele><time>2024-01-22T07:04:51Z</time></trkpt><trkpt lat="58.059715" lon="38.81321"><ele>120.7</ele><time>2024-01-22T07:04:57Z</time></trkpt><trkpt lat="58.059715" lon="38.81321"><ele>120.7</ele><time>2024-01-22T07:05:04Z</time></trkpt><trkpt lat="58.059585" lon="38.813287"><ele>137.5</ele><time>2024-01-22T07:12:34Z</time></trkpt><trkpt lat="58.059602" lon="38.813567"><ele>131.8</ele><time>2024-01-22T07:16:17Z</time></trkpt><trkpt lat="58.059765" lon="38.813357"><ele>123.5</ele><time>2024-01-22T07:16:30Z</time></trkpt><trkpt lat="58.05999" lon="38.813295"><ele>118.9</ele><time>2024-01-22T07:16:33Z</time></trkpt><trkpt lat="58.059925" lon="38.81326"><ele>109.4</ele><time>2024-01-22T07:16:40Z</time></trkpt><trkpt lat="58.059845" lon="38.813245"><ele>118.5</ele><time>2024-01-22T07:16:42Z</time></trkpt><trkpt lat="58.059765" lon="38.81321"><ele>117.5</ele><time>2024-01-22T07:16:45Z</time></trkpt><trkpt lat="58.05969" lon="38.81317"><ele>113.6</ele><time>2024-01-22T07:16:52Z</time></trkpt><trkpt lat="58.05965" lon="38.81315"><ele>118.8</ele><time>2024-01-22T07:16:59Z</time></trkpt><trkpt lat="58.059602" lon="38.813115"><ele>119.3</ele><time>2024-01-22T07:17:06Z</time></trkpt><trkpt lat="58.059592" lon="38.813105"><ele>118.2</ele><time>2024-01-22T07:17:13Z</time></trkpt><trkpt lat="58.059635" lon="38.813117"><ele>121.5</ele><time>2024-01-22T07:17:20Z</time></trkpt><trkpt lat="58.059675" lon="38.813145"><ele>121.5</ele><time>2024-01-22T07:17:27Z</time></trkpt><trkpt lat="58.059702" lon="38.813175"><ele>120.7</ele><time>2024-01-22T07:17:34Z</time></trkpt><trkpt lat="58.059715" lon="38.81318"><ele>120.1</ele><time>2024-01-22T07:17:41Z</time></trkpt><trkpt lat="58.059715" lon="38.81316"><ele>119.0</ele><time>2024-01-22T07:17:55Z</time></trkpt><trkpt lat="58.059715" lon="38.81316"><ele>119.0</ele><time>2024-01-22T07:17:56Z</time></trkpt><trkpt lat="58.059722" lon="38.813162"><ele>118.7</ele><time>2024-01-22T07:18:06Z</time></trkpt><trkpt lat="58.059722" lon="38.813162"><ele>118.7</ele><time>2024-01-22T07:18:07Z</time></trkpt><trkpt lat="58.059715" lon="38.813162"><ele>119.8</ele><time>2024-01-22T07:19:24Z</time></trkpt><trkpt lat="58.059715" lon="38.813162"><ele>119.8</ele><time>2024-01-22T07:19:25Z</time></trkpt><trkpt lat="58.059705" lon="38.81316"><ele>120.1</ele><time>2024-01-22T07:19:33Z</time></trkpt><trkpt lat="58.059705" lon="38.81316"><ele>120.0</ele><time>2024-01-22T07:19:34Z</time></trkpt><trkpt lat="58.0597" lon="38.81316"><ele>120.4</ele><time>2024-01-22T07:20:04Z</time></trkpt><trkpt lat="58.0597" lon="38.81316"><ele>120.4</ele><time>2024-01-22T07:20:05Z</time></trkpt><trkpt lat="58.059705" lon="38.81316"><ele>120.2</ele><time>2024-01-22T07:20:56Z</time></trkpt><trkpt lat="58.059705" lon="38.81316"><ele>120.2</ele><time>2024-01-22T07:20:57Z</time></trkpt><trkpt lat="58.05975" lon="38.813182"><ele>118.6</ele><time>2024-01-22T07:21:21Z</time></trkpt><trkpt lat="58.05975" lon="38.813185"><ele>118.6</ele><time>2024-01-22T07:21:24Z</time></trkpt><trkpt lat="58.059785" lon="38.813415"><ele>121.6</ele><time>2024-01-22T07:21:29Z</time></trkpt><trkpt lat="58.05975" lon="38.813185"><ele>118.7</ele><time>2024-01-22T07:21:30Z</time></trkpt><trkpt lat="58.05975" lon="38.813185"><ele>118.7</ele><time>2024-01-22T07:21:37Z</time></trkpt><trkpt lat="58.05975" lon="38.813195"><ele>119.2</ele><time>2024-01-22T07:30:37Z</time></trkpt><trkpt lat="58.05975" lon="38.813195"><ele>119.2</ele><time>2024-01-22T07:30:38Z</time></trkpt><trkpt lat="58.059972" lon="38.81346"><ele>129.3</ele><time>2024-01-22T07:36:14Z</time></trkpt><trkpt lat="58.05978" lon="38.813447"><ele>124.9</ele><time>2024-01-22T07:36:22Z</time></trkpt><trkpt lat="58.059687" lon="38.813422"><ele>123.6</ele><time>2024-01-22T07:36:25Z</time></trkpt><trkpt lat="58.05972" lon="38.81339"><ele>122.2</ele><time>2024-01-22T07:36:32Z</time></trkpt><trkpt lat="58.059712" lon="38.813423"><ele>120.7</ele><time>2024-01-22T07:36:39Z</time></trkpt><trkpt lat="58.05971" lon="38.81344"><ele>121.2</ele><time>2024-01-22T07:36:46Z</time></trkpt><trkpt lat="58.059715" lon="38.81345"><ele>120.8</ele><time>2024-01-22T07:36:50Z</time></trkpt><trkpt lat="58.05973" lon="38.813292"><ele>121.2</ele><time>2024-01-22T07:36:53Z</time></trkpt><trkpt lat="58.059725" lon="38.81321"><ele>121.4</ele><time>2024-01-22T07:37:00Z</time></trkpt><trkpt lat="58.059737" lon="38.813385"><ele>122.7</ele><time>2024-01-22T07:37:03Z</time></trkpt><trkpt lat="58.059795" lon="38.813267"><ele>122.4</ele><time>2024-01-22T07:37:07Z</time></trkpt><trkpt lat="58.059815" lon="38.813137"><ele>122.5</ele><time>2024-01-22T07:37:11Z</time></trkpt><trkpt lat="58.059465" lon="38.812975"><ele>122.5</ele><time>2024-01-22T07:37:14Z</time></trkpt><trkpt lat="58.05942" lon="38.8131"><ele>124.3</ele><time>2024-01-22T07:37:17Z</time></trkpt><trkpt lat="58.05935" lon="38.813232"><ele>125.3</ele><time>2024-01-22T07:37:21Z</time></trkpt><trkpt lat="58.059265" lon="38.813292"><ele>129.0</ele><time>2024-01-22T07:37:23Z</time></trkpt><trkpt lat="58.059185" lon="38.813325"><ele>128.5</ele><time>2024-01-22T07:37:26Z</time></trkpt><trkpt lat="58.0591" lon="38.813287"><ele>126.6</ele><time>2024-01-22T07:37:30Z</time></trkpt><trkpt lat="58.059487" lon="38.813427"><ele>132.1</ele><time>2024-01-22T07:37:36Z</time></trkpt><trkpt lat="58.059772" lon="38.81353"><ele>132.9</ele><time>2024-01-22T07:37:38Z</time></trkpt><trkpt lat="58.059845" lon="38.813545"><ele>136.0</ele><time>2024-01-22T07:37:41Z</time></trkpt><trkpt lat="58.059635" lon="38.81346"><ele>134.5</ele><time>2024-01-22T07:37:45Z</time></trkpt><trkpt lat="58.059665" lon="38.81345"><ele>123.9</ele><time>2024-01-22T07:37:52Z</time></trkpt><trkpt lat="58.059645" lon="38.81345"><ele>125.2</ele><time>2024-01-22T07:37:59Z</time></trkpt><trkpt lat="58.059685" lon="38.81355"><ele>125.7</ele><time>2024-01-22T07:38:06Z</time></trkpt><trkpt lat="58.059707" lon="38.81346"><ele>125.7</ele><time>2024-01-22T07:38:13Z</time></trkpt><trkpt lat="58.05974" lon="38.813427"><ele>127.3</ele><time>2024-01-22T07:38:20Z</time></trkpt><trkpt lat="58.059797" lon="38.81354"><ele>126.3</ele><time>2024-01-22T07:38:24Z</time></trkpt><trkpt lat="58.05987" lon="38.813605"><ele>127.2</ele><time>2024-01-22T07:38:29Z</time></trkpt><trkpt lat="58.05992" lon="38.81372"><ele>125.7</ele><time>2024-01-22T07:38:34Z</time></trkpt><trkpt lat="58.059682" lon="38.81359"><ele>126.4</ele><time>2024-01-22T07:38:37Z</time></trkpt><trkpt lat="58.05999" lon="38.813535"><ele>129.4</ele><time>2024-01-22T07:38:39Z</time></trkpt><trkpt lat="58.059795" lon="38.813505"><ele>134.0</ele><time>2024-01-22T07:38:48Z</time></trkpt><trkpt lat="58.059707" lon="38.81347"><ele>133.6</ele><time>2024-01-22T07:38:51Z</time></trkpt><trkpt lat="58.05963" lon="38.81345"><ele>135.1</ele><time>2024-01-22T07:38:53Z</time></trkpt><trkpt lat="58.059827" lon="38.813428"><ele>132.7</ele><time>2024-01-22T07:39:01Z</time></trkpt><trkpt lat="58.0599" lon="38.813465"><ele>130.3</ele><time>2024-01-22T07:39:07Z</time></trkpt><trkpt lat="58.059965" lon="38.813375"><ele>128.8</ele><time>2024-01-22T07:39:11Z</time></trkpt><trkpt lat="58.059972" lon="38.813428"><ele>129.3</ele><time>2024-01-22T07:39:18Z</time></trkpt><trkpt lat="58.0599" lon="38.813342"><ele>129.5</ele><time>2024-01-22T07:39:21Z</time></trkpt><trkpt lat="58.059817" lon="38.81335"><ele>129.0</ele><time>2024-01-22T07:39:24Z</time></trkpt><trkpt lat="58.059745" lon="38.813397"><ele>128.3</ele><time>2024-01-22T07:39:27Z</time></trkpt><trkpt lat="58.059657" lon="38.81339"><ele>128.0</ele><time>2024-01-22T07:39:31Z</time></trkpt><trkpt lat="58.059585" lon="38.81344"><ele>127.2</ele><time>2024-01-22T07:39:35Z</time></trkpt><trkpt lat="58.059525" lon="38.81335"><ele>128.9</ele><time>2024-01-22T07:39:41Z</time></trkpt><trkpt lat="58.059615" lon="38.813407"><ele>126.4</ele><time>2024-01-22T07:39:47Z</time></trkpt><trkpt lat="58.0597" lon="38.81345"><ele>127.3</ele><time>2024-01-22T07:39:51Z</time></trkpt><trkpt lat="58.059757" lon="38.813485"><ele>126.8</ele><time>2024-01-22T07:39:58Z</time></trkpt><trkpt lat="58.05974" lon="38.81355"><ele>125.8</ele><time>2024-01-22T07:40:05Z</time></trkpt><trkpt lat="58.059807" lon="38.813497"><ele>126.2</ele><time>2024-01-22T07:40:08Z</time></trkpt><trkpt lat="58.0598" lon="38.813507"><ele>127.0</ele><time>2024-01-22T07:40:15Z</time></trkpt><trkpt lat="58.059725" lon="38.813498"><ele>127.0</ele><time>2024-01-22T07:40:21Z</time></trkpt><trkpt lat="58.05989" lon="38.81324"><ele>126.1</ele><time>2024-01-22T07:40:27Z</time></trkpt><trkpt lat="58.05981" lon="38.81325"><ele>125.7</ele><time>2024-01-22T07:40:34Z</time></trkpt><trkpt lat="58.059745" lon="38.813342"><ele>126.3</ele><time>2024-01-22T07:40:37Z</time></trkpt><trkpt lat="58.05974" lon="38.81344"><ele>127.6</ele><time>2024-01-22T07:40:44Z</time></trkpt><trkpt lat="58.05974" lon="38.813465"><ele>125.4</ele><time>2024-01-22T07:40:51Z</time></trkpt><trkpt lat="58.059755" lon="38.813405"><ele>125.3</ele><time>2024-01-22T07:40:58Z</time></trkpt><trkpt lat="58.05981" lon="38.813272"><ele>126.7</ele><time>2024-01-22T07:41:01Z</time></trkpt><trkpt lat="58.059757" lon="38.813245"><ele>125.8</ele><time>2024-01-22T07:41:08Z</time></trkpt><trkpt lat="58.05972" lon="38.81336"><ele>126.6</ele><time>2024-01-22T07:41:12Z</time></trkpt><trkpt lat="58.059657" lon="38.813445"><ele>128.1</ele><time>2024-01-22T07:41:16Z</time></trkpt><trkpt lat="58.059672" lon="38.813435"><ele>125.3</ele><time>2024-01-22T07:41:23Z</time></trkpt><trkpt lat="58.059725" lon="38.813305"><ele>125.2</ele><time>2024-01-22T07:41:28Z</time></trkpt><trkpt lat="58.05977" lon="38.813175"><ele>123.4</ele><time>2024-01-22T07:41:33Z</time></trkpt><trkpt lat="58.059852" lon="38.813075"><ele>125.1</ele><time>2024-01-22T07:41:37Z</time></trkpt><trkpt lat="58.05993" lon="38.812997"><ele>125.1</ele><time>2024-01-22T07:41:40Z</time></trkpt><trkpt lat="58.05995" lon="38.81308"><ele>126.2</ele><time>2024-01-22T07:41:47Z</time></trkpt><trkpt lat="58.059525" lon="38.813415"><ele>126.6</ele><time>2024-01-22T07:41:52Z</time></trkpt><trkpt lat="58.05943" lon="38.813452"><ele>125.1</ele><time>2024-01-22T07:41:57Z</time></trkpt><trkpt lat="58.059177" lon="38.813315"><ele>124.8</ele><time>2024-01-22T07:41:59Z</time></trkpt><trkpt lat="58.05953" lon="38.81337"><ele>125.1</ele><time>2024-01-22T07:42:01Z</time></trkpt><trkpt lat="58.0598" lon="38.813215"><ele>123.4</ele><time>2024-01-22T07:42:09Z</time></trkpt><trkpt lat="58.059745" lon="38.81335"><ele>123.2</ele><time>2024-01-22T07:42:15Z</time></trkpt><trkpt lat="58.0595" lon="38.81342"><ele>123.3</ele><time>2024-01-22T07:42:17Z</time></trkpt><trkpt lat="58.059425" lon="38.81338"><ele>122.7</ele><time>2024-01-22T07:42:20Z</time></trkpt><trkpt lat="58.059665" lon="38.813317"><ele>125.4</ele><time>2024-01-22T07:42:25Z</time></trkpt><trkpt lat="58.05987" lon="38.81337"><ele>123.8</ele><time>2024-01-22T07:42:32Z</time></trkpt><trkpt lat="58.059947" lon="38.813395"><ele>125.5</ele><time>2024-01-22T07:42:37Z</time></trkpt><trkpt lat="58.05974" lon="38.81364"><ele>122.4</ele><time>2024-01-22T07:42:42Z</time></trkpt><trkpt lat="58.05966" lon="38.813625"><ele>125.2</ele><time>2024-01-22T07:42:48Z</time></trkpt><trkpt lat="58.05957" lon="38.813635"><ele>124.8</ele><time>2024-01-22T07:42:50Z</time></trkpt><trkpt lat="58.05949" lon="38.813612"><ele>124.2</ele><time>2024-01-22T07:42:53Z</time></trkpt><trkpt lat="58.0595" lon="38.81344"><ele>124.3</ele><time>2024-01-22T07:42:58Z</time></trkpt><trkpt lat="58.059435" lon="38.81337"><ele>123.9</ele><time>2024-01-22T07:43:00Z</time></trkpt><trkpt lat="58.0597" lon="38.813343"><ele>121.3</ele><time>2024-01-22T07:43:06Z</time></trkpt><trkpt lat="58.05967" lon="38.813343"><ele>118.0</ele><time>2024-01-22T07:43:13Z</time></trkpt><trkpt lat="58.059735" lon="38.813337"><ele>117.7</ele><time>2024-01-22T07:43:20Z</time></trkpt><trkpt lat="58.059695" lon="38.813395"><ele>115.4</ele><time>2024-01-22T07:43:27Z</time></trkpt><trkpt lat="58.059758" lon="38.81333"><ele>115.3</ele><time>2024-01-22T07:43:34Z</time></trkpt><trkpt lat="58.059752" lon="38.813272"><ele>113.8</ele><time>2024-01-22T07:43:41Z</time></trkpt><trkpt lat="58.059675" lon="38.813267"><ele>113.7</ele><time>2024-01-22T07:43:45Z</time></trkpt><trkpt lat="58.059602" lon="38.813265"><ele>115.5</ele><time>2024-01-22T07:43:51Z</time></trkpt><trkpt lat="58.059515" lon="38.813272"><ele>114.0</ele><time>2024-01-22T07:43:57Z</time></trkpt><trkpt lat="58.059545" lon="38.81329"><ele>116.3</ele><time>2024-01-22T07:44:04Z</time></trkpt><trkpt lat="58.059622" lon="38.813255"><ele>122.0</ele><time>2024-01-22T07:44:09Z</time></trkpt><trkpt lat="58.05959" lon="38.81332"><ele>127.3</ele><time>2024-01-22T07:44:16Z</time></trkpt><trkpt lat="58.059547" lon="38.813435"><ele>127.1</ele><time>2024-01-22T07:44:20Z</time></trkpt><trkpt lat="58.059745" lon="38.81349"><ele>121.8</ele><time>2024-01-22T07:44:23Z</time></trkpt><trkpt lat="58.05978" lon="38.813475"><ele>120.6</ele><time>2024-01-22T07:44:30Z</time></trkpt><trkpt lat="58.059832" lon="38.81355"><ele>121.5</ele><time>2024-01-22T07:44:37Z</time></trkpt><trkpt lat="58.05981" lon="38.813555"><ele>122.3</ele><time>2024-01-22T07:44:44Z</time></trkpt><trkpt lat="58.059795" lon="38.81348"><ele>122.4</ele><time>2024-01-22T07:44:51Z</time></trkpt><trkpt lat="58.059795" lon="38.81348"><ele>122.4</ele><time>2024-01-22T07:44:54Z</time></trkpt><trkpt lat="58.059797" lon="38.81349"><ele>122.5</ele><time>2024-01-22T07:45:33Z</time></trkpt><trkpt lat="58.059797" lon="38.81349"><ele>122.5</ele><time>2024-01-22T07:45:34Z</time></trkpt><trkpt lat="58.05981" lon="38.81353"><ele>123.5</ele><time>2024-01-22T07:45:45Z</time></trkpt><trkpt lat="58.05981" lon="38.81353"><ele>123.5</ele><time>2024-01-22T07:45:49Z</time></trkpt><trkpt lat="58.059825" lon="38.81357"><ele>124.9</ele><time>2024-01-22T07:46:00Z</time></trkpt><trkpt lat="58.059825" lon="38.813572"><ele>124.9</ele><time>2024-01-22T07:46:02Z</time></trkpt><trkpt lat="58.05984" lon="38.81363"><ele>126.3</ele><time>2024-01-22T07:46:10Z</time></trkpt><trkpt lat="58.05986" lon="38.813705"><ele>126.5</ele><time>2024-01-22T07:46:17Z</time></trkpt><trkpt lat="58.05986" lon="38.81371"><ele>126.6</ele><time>2024-01-22T07:46:20Z</time></trkpt><trkpt lat="58.059875" lon="38.813735"><ele>127.2</ele><time>2024-01-22T07:47:46Z</time></trkpt><trkpt lat="58.059895" lon="38.813785"><ele>127.0</ele><time>2024-01-22T07:47:53Z</time></trkpt><trkpt lat="58.0599" lon="38.813775"><ele>127.1</ele><time>2024-01-22T07:47:57Z</time></trkpt><trkpt lat="58.05991" lon="38.813735"><ele>127.1</ele><time>2024-01-22T07:48:09Z</time></trkpt><trkpt lat="58.05991" lon="38.813735"><ele>127.1</ele><time>2024-01-22T07:48:10Z</time></trkpt><trkpt lat="58.059912" lon="38.813722"><ele>127.3</ele><time>2024-01-22T07:48:24Z</time></trkpt><trkpt lat="58.059912" lon="38.813722"><ele>127.3</ele><time>2024-01-22T07:48:25Z</time></trkpt><trkpt lat="58.05991" lon="38.813737"><ele>127.3</ele><time>2024-01-22T07:48:34Z</time></trkpt><trkpt lat="58.05991" lon="38.813737"><ele>127.3</ele><time>2024-01-22T07:48:35Z</time></trkpt><trkpt lat="58.059912" lon="38.813755"><ele>126.6</ele><time>2024-01-22T07:49:18Z</time></trkpt><trkpt lat="58.059912" lon="38.813755"><ele>126.6</ele><time>2024-01-22T07:49:19Z</time></trkpt><trkpt lat="58.0599" lon="38.813745"><ele>127.6</ele><time>2024-01-22T07:49:29Z</time></trkpt><trkpt lat="58.0599" lon="38.813745"><ele>127.6</ele><time>2024-01-22T07:49:30Z</time></trkpt><trkpt lat="58.0599" lon="38.81379"><ele>130.0</ele><time>2024-01-22T07:49:59Z</time></trkpt><trkpt lat="58.0599" lon="38.813795"><ele>130.0</ele><time>2024-01-22T07:50:04Z</time></trkpt><trkpt lat="58.059905" lon="38.81382"><ele>130.1</ele><time>2024-01-22T07:50:18Z</time></trkpt><trkpt lat="58.059905" lon="38.81382"><ele>130.1</ele><time>2024-01-22T07:50:19Z</time></trkpt><trkpt lat="58.059905" lon="38.813795"><ele>130.6</ele><time>2024-01-22T07:51:03Z</time></trkpt><trkpt lat="58.059905" lon="38.813795"><ele>130.6</ele><time>2024-01-22T07:51:04Z</time></trkpt><trkpt lat="58.059905" lon="38.813775"><ele>131.2</ele><time>2024-01-22T07:51:14Z</time></trkpt><trkpt lat="58.059905" lon="38.813775"><ele>130.8</ele><time>2024-01-22T07:51:15Z</time></trkpt><trkpt lat="58.059902" lon="38.81376"><ele>130.9</ele><time>2024-01-22T07:51:25Z</time></trkpt><trkpt lat="58.059902" lon="38.81376"><ele>130.9</ele><time>2024-01-22T07:51:26Z</time></trkpt><trkpt lat="58.05992" lon="38.81375"><ele>133.5</ele><time>2024-01-22T07:51:45Z</time></trkpt><trkpt lat="58.059905" lon="38.813775"><ele>135.4</ele><time>2024-01-22T07:51:52Z</time></trkpt><trkpt lat="58.059895" lon="38.8137"><ele>140.8</ele><time>2024-01-22T07:51:59Z</time></trkpt><trkpt lat="58.05989" lon="38.813695"><ele>140.8</ele><time>2024-01-22T07:52:06Z</time></trkpt><trkpt lat="58.059897" lon="38.813695"><ele>140.3</ele><time>2024-01-22T07:52:15Z</time></trkpt><trkpt lat="58.059897" lon="38.813695"><ele>140.3</ele><time>2024-01-22T07:52:16Z</time></trkpt><trkpt lat="58.059905" lon="38.81371"><ele>140.5</ele><time>2024-01-22T07:52:23Z</time></trkpt><trkpt lat="58.059905" lon="38.81371"><ele>140.5</ele><time>2024-01-22T07:52:24Z</time></trkpt><trkpt lat="58.059908" lon="38.8137"><ele>140.4</ele><time>2024-01-22T07:52:54Z</time></trkpt><trkpt lat="58.059908" lon="38.8137"><ele>140.4</ele><time>2024-01-22T07:52:55Z</time></trkpt><trkpt lat="58.0599" lon="38.813723"><ele>143.3</ele><time>2024-01-22T07:53:04Z</time></trkpt><trkpt lat="58.059897" lon="38.81373"><ele>143.2</ele><time>2024-01-22T07:53:07Z</time></trkpt><trkpt lat="58.05989" lon="38.81372"><ele>145.6</ele><time>2024-01-22T07:53:17Z</time></trkpt><trkpt lat="58.05989" lon="38.81372"><ele>145.6</ele><time>2024-01-22T07:53:18Z</time></trkpt><trkpt lat="58.0599" lon="38.81373"><ele>146.8</ele><time>2024-01-22T07:53:25Z</time></trkpt><trkpt lat="58.0599" lon="38.81373"><ele>146.8</ele><time>2024-01-22T07:53:26Z</time></trkpt><trkpt lat="58.059905" lon="38.813722"><ele>146.6</ele><time>2024-01-22T07:53:46Z</time></trkpt><trkpt lat="58.059905" lon="38.813722"><ele>146.6</ele><time>2024-01-22T07:53:47Z</time></trkpt><trkpt lat="58.059895" lon="38.813695"><ele>146.0</ele><time>2024-01-22T07:54:08Z</time></trkpt><trkpt lat="58.059897" lon="38.813705"><ele>143.8</ele><time>2024-01-22T07:54:10Z</time></trkpt><trkpt lat="58.0599" lon="38.81362"><ele>150.6</ele><time>2024-01-22T07:54:43Z</time></trkpt><trkpt lat="58.0599" lon="38.813607"><ele>148.8</ele><time>2024-01-22T07:54:50Z</time></trkpt><trkpt lat="58.0599" lon="38.813607"><ele>148.8</ele><time>2024-01-22T07:54:52Z</time></trkpt><trkpt lat="58.059855" lon="38.813657"><ele>148.7</ele><time>2024-01-22T07:56:20Z</time></trkpt><trkpt lat="58.059905" lon="38.813775"><ele>144.3</ele><time>2024-01-22T07:56:26Z</time></trkpt><trkpt lat="58.05984" lon="38.81368"><ele>153.4</ele><time>2024-01-22T07:56:32Z</time></trkpt><trkpt lat="58.059837" lon="38.81365"><ele>154.2</ele><time>2024-01-22T07:56:39Z</time></trkpt><trkpt lat="58.059852" lon="38.813642"><ele>155.3</ele><time>2024-01-22T07:57:02Z</time></trkpt><trkpt lat="58.059855" lon="38.813642"><ele>155.3</ele><time>2024-01-22T07:57:03Z</time></trkpt><trkpt lat="58.05987" lon="38.81368"><ele>154.6</ele><time>2024-01-22T07:57:18Z</time></trkpt><trkpt lat="58.05987" lon="38.81368"><ele>154.7</ele><time>2024-01-22T07:57:20Z</time></trkpt><trkpt lat="58.05986" lon="38.81366"><ele>156.6</ele><time>2024-01-22T07:57:41Z</time></trkpt><trkpt lat="58.05986" lon="38.81366"><ele>156.7</ele><time>2024-01-22T07:57:42Z</time></trkpt><trkpt lat="58.05986" lon="38.81365"><ele>158.8</ele><time>2024-01-22T07:58:30Z</time></trkpt><trkpt lat="58.05986" lon="38.813648"><ele>158.9</ele><time>2024-01-22T07:58:31Z</time></trkpt><trkpt lat="58.059842" lon="38.81363"><ele>160.4</ele><time>2024-01-22T08:00:31Z</time></trkpt><trkpt lat="58.05984" lon="38.81363"><ele>160.4</ele><time>2024-01-22T08:00:35Z</time></trkpt><trkpt lat="58.059855" lon="38.813667"><ele>159.7</ele><time>2024-01-22T08:01:16Z</time></trkpt><trkpt lat="58.059855" lon="38.813667"><ele>159.7</ele><time>2024-01-22T08:01:18Z</time></trkpt><trkpt lat="58.059845" lon="38.813672"><ele>159.1</ele><time>2024-01-22T08:01:45Z</time></trkpt><trkpt lat="58.059845" lon="38.813672"><ele>159.1</ele><time>2024-01-22T08:01:46Z</time></trkpt><trkpt lat="58.05984" lon="38.813675"><ele>158.0</ele><time>2024-01-22T08:02:11Z</time></trkpt><trkpt lat="58.05984" lon="38.813675"><ele>158.0</ele><time>2024-01-22T08:02:12Z</time></trkpt><trkpt lat="58.059825" lon="38.813652"><ele>157.5</ele><time>2024-01-22T08:03:31Z</time></trkpt><trkpt lat="58.059825" lon="38.813652"><ele>157.5</ele><time>2024-01-22T08:03:34Z</time></trkpt><trkpt lat="58.059727" lon="38.813455"><ele>167.4</ele><time>2024-01-22T08:04:28Z</time></trkpt><trkpt lat="58.059825" lon="38.813652"><ele>157.0</ele><time>2024-01-22T08:04:31Z</time></trkpt><trkpt lat="58.059825" lon="38.813652"><ele>157.0</ele><time>2024-01-22T08:04:38Z</time></trkpt><trkpt lat="58.05975" lon="38.813482"><ele>166.6</ele><time>2024-01-22T08:07:47Z</time></trkpt><trkpt lat="58.059753" lon="38.81347"><ele>166.7</ele><time>2024-01-22T08:07:54Z</time></trkpt><trkpt lat="58.059765" lon="38.813492"><ele>156.2</ele><time>2024-01-22T08:08:01Z</time></trkpt><trkpt lat="58.05977" lon="38.813512"><ele>153.6</ele><time>2024-01-22T08:08:08Z</time></trkpt><trkpt lat="58.059773" lon="38.813525"><ele>146.8</ele><time>2024-01-22T08:08:15Z</time></trkpt><trkpt lat="58.059773" lon="38.813525"><ele>146.8</ele><time>2024-01-22T08:08:16Z</time></trkpt><trkpt lat="58.059777" lon="38.813535"><ele>144.5</ele><time>2024-01-22T08:08:26Z</time></trkpt><trkpt lat="58.05978" lon="38.813535"><ele>144.0</ele><time>2024-01-22T08:08:27Z</time></trkpt><trkpt lat="58.05977" lon="38.813505"><ele>141.9</ele><time>2024-01-22T08:08:47Z</time></trkpt><trkpt lat="58.05977" lon="38.813505"><ele>141.9</ele><time>2024-01-22T08:08:48Z</time></trkpt><trkpt lat="58.059765" lon="38.813495"><ele>141.3</ele><time>2024-01-22T08:08:59Z</time></trkpt><trkpt lat="58.059765" lon="38.813495"><ele>141.3</ele><time>2024-01-22T08:09:00Z</time></trkpt><trkpt lat="58.05977" lon="38.813497"><ele>141.1</ele><time>2024-01-22T08:09:18Z</time></trkpt><trkpt lat="58.05977" lon="38.813497"><ele>141.1</ele><time>2024-01-22T08:09:20Z</time></trkpt><trkpt lat="58.059765" lon="38.813487"><ele>139.2</ele><time>2024-01-22T08:09:34Z</time></trkpt><trkpt lat="58.059765" lon="38.813487"><ele>139.2</ele><time>2024-01-22T08:09:35Z</time></trkpt><trkpt lat="58.059772" lon="38.813502"><ele>139.5</ele><time>2024-01-22T08:10:15Z</time></trkpt><trkpt lat="58.059772" lon="38.813505"><ele>139.4</ele><time>2024-01-22T08:10:21Z</time></trkpt><trkpt lat="58.059775" lon="38.813507"><ele>139.8</ele><time>2024-01-22T08:11:21Z</time></trkpt><trkpt lat="58.059775" lon="38.813507"><ele>139.8</ele><time>2024-01-22T08:11:23Z</time></trkpt><trkpt lat="58.059773" lon="38.813492"><ele>139.7</ele><time>2024-01-22T08:13:29Z</time></trkpt><trkpt lat="58.059773" lon="38.813492"><ele>139.7</ele><time>2024-01-22T08:13:30Z</time></trkpt><trkpt lat="58.059775" lon="38.81378"><ele>173.1</ele><time>2024-01-22T08:15:03Z</time></trkpt><trkpt lat="58.059772" lon="38.813487"><ele>137.7</ele><time>2024-01-22T08:15:27Z</time></trkpt><trkpt lat="58.059772" lon="38.813487"><ele>137.7</ele><time>2024-01-22T08:15:34Z</time></trkpt><trkpt lat="58.059772" lon="38.813485"><ele>137.7</ele><time>2024-01-22T08:16:24Z</time></trkpt><trkpt lat="58.059772" lon="38.813485"><ele>137.7</ele><time>2024-01-22T08:16:25Z</time></trkpt><trkpt lat="58.059773" lon="38.813492"><ele>139.1</ele><time>2024-01-22T08:16:42Z</time></trkpt><trkpt lat="58.059773" lon="38.813492"><ele>139.2</ele><time>2024-01-22T08:16:44Z</time></trkpt><trkpt lat="58.059822" lon="38.81309"><ele>168.8</ele><time>2024-01-22T08:16:47Z</time></trkpt><trkpt lat="58.059775" lon="38.813502"><ele>138.6</ele><time>2024-01-22T08:17:02Z</time></trkpt><trkpt lat="58.059772" lon="38.813485"><ele>137.6</ele><time>2024-01-22T08:17:31Z</time></trkpt><trkpt lat="58.059772" lon="38.81348"><ele>137.2</ele><time>2024-01-22T08:17:36Z</time></trkpt><trkpt lat="58.059765" lon="38.813432"><ele>132.3</ele><time>2024-01-22T08:18:12Z</time></trkpt><trkpt lat="58.059765" lon="38.813427"><ele>132.9</ele><time>2024-01-22T08:18:18Z</time></trkpt><trkpt lat="58.059757" lon="38.813415"><ele>134.4</ele><time>2024-01-22T08:18:25Z</time></trkpt><trkpt lat="58.059757" lon="38.813415"><ele>134.4</ele><time>2024-01-22T08:18:26Z</time></trkpt><trkpt lat="58.058925" lon="38.813785"><ele>130.5</ele><time>2024-01-22T08:18:27Z</time></trkpt><trkpt lat="58.059757" lon="38.813415"><ele>134.4</ele><time>2024-01-22T08:18:31Z</time></trkpt><trkpt lat="58.059757" lon="38.813405"><ele>134.0</ele><time>2024-01-22T08:18:38Z</time></trkpt><trkpt lat="58.05974" lon="38.81332"><ele>128.5</ele><time>2024-01-22T08:18:47Z</time></trkpt><trkpt lat="58.0597" lon="38.813185"><ele>114.6</ele><time>2024-01-22T08:18:54Z</time></trkpt><trkpt lat="58.059682" lon="38.813118"><ele>110.5</ele><time>2024-01-22T08:19:01Z</time></trkpt><trkpt lat="58.059682" lon="38.813117"><ele>110.3</ele><time>2024-01-22T08:19:06Z</time></trkpt><trkpt lat="58.05966" lon="38.813035"><ele>108.6</ele><time>2024-01-22T08:19:14Z</time></trkpt><trkpt lat="58.059545" lon="38.8129"><ele>109.4</ele><time>2024-01-22T08:19:19Z</time></trkpt><trkpt lat="58.059542" lon="38.812893"><ele>105.7</ele><time>2024-01-22T08:19:26Z</time></trkpt><trkpt lat="58.059555" lon="38.812937"><ele>104.8</ele><time>2024-01-22T08:19:33Z</time></trkpt><trkpt lat="58.059542" lon="38.81292"><ele>106.5</ele><time>2024-01-22T08:19:40Z</time></trkpt><trkpt lat="58.05954" lon="38.81292"><ele>106.8</ele><time>2024-01-22T08:19:43Z</time></trkpt><trkpt lat="58.059542" lon="38.812925"><ele>107.9</ele><time>2024-01-22T08:19:54Z</time></trkpt><trkpt lat="58.059542" lon="38.812925"><ele>108.0</ele><time>2024-01-22T08:19:55Z</time></trkpt><trkpt lat="58.059545" lon="38.812915"><ele>107.7</ele><time>2024-01-22T08:20:04Z</time></trkpt><trkpt lat="58.059545" lon="38.81291"><ele>107.8</ele><time>2024-01-22T08:20:11Z</time></trkpt><trkpt lat="58.05954" lon="38.812892"><ele>108.5</ele><time>2024-01-22T08:20:18Z</time></trkpt><trkpt lat="58.05954" lon="38.812892"><ele>108.5</ele><time>2024-01-22T08:20:19Z</time></trkpt><trkpt lat="58.05954" lon="38.812885"><ele>109.0</ele><time>2024-01-22T08:20:50Z</time></trkpt><trkpt lat="58.05954" lon="38.812885"><ele>109.0</ele><time>2024-01-22T08:20:51Z</time></trkpt><trkpt lat="58.05953" lon="38.812893"><ele>110.2</ele><time>2024-01-22T08:21:07Z</time></trkpt><trkpt lat="58.05953" lon="38.812893"><ele>110.3</ele><time>2024-01-22T08:21:08Z</time></trkpt><trkpt lat="58.059525" lon="38.812888"><ele>111.2</ele><time>2024-01-22T08:21:23Z</time></trkpt><trkpt lat="58.059525" lon="38.812887"><ele>111.2</ele><time>2024-01-22T08:21:24Z</time></trkpt><trkpt lat="58.05952" lon="38.812885"><ele>112.1</ele><time>2024-01-22T08:22:22Z</time></trkpt><trkpt lat="58.05952" lon="38.812885"><ele>112.2</ele><time>2024-01-22T08:22:23Z</time></trkpt><trkpt lat="58.059365" lon="38.813445"><ele>111.1</ele><time>2024-01-22T08:23:21Z</time></trkpt><trkpt lat="58.05988" lon="38.813922"><ele>99.9</ele><time>2024-01-22T10:22:09Z</time></trkpt><trkpt lat="58.05996" lon="38.813887"><ele>113.5</ele><time>2024-01-22T10:22:12Z</time></trkpt><trkpt lat="58.059997" lon="38.813785"><ele>110.1</ele><time>2024-01-22T10:22:19Z</time></trkpt><trkpt lat="58.060032" lon="38.813712"><ele>108.8</ele><time>2024-01-22T10:22:26Z</time></trkpt><trkpt lat="58.059983" lon="38.81376"><ele>107.6</ele><time>2024-01-22T10:22:33Z</time></trkpt><trkpt lat="58.059955" lon="38.81385"><ele>107.6</ele><time>2024-01-22T10:22:40Z</time></trkpt><trkpt lat="58.059962" lon="38.81369"><ele>112.6</ele><time>2024-01-22T10:22:45Z</time></trkpt><trkpt lat="58.059982" lon="38.81355"><ele>113.2</ele><time>2024-01-22T10:22:52Z</time></trkpt><trkpt lat="58.06002" lon="38.813415"><ele>113.8</ele><time>2024-01-22T10:22:58Z</time></trkpt><trkpt lat="58.059997" lon="38.813273"><ele>107.8</ele><time>2024-01-22T10:23:04Z</time></trkpt><trkpt lat="58.060002" lon="38.81313"><ele>105.4</ele><time>2024-01-22T10:23:10Z</time></trkpt><trkpt lat="58.060025" lon="38.81298"><ele>106.0</ele><time>2024-01-22T10:23:16Z</time></trkpt><trkpt lat="58.060032" lon="38.812823"><ele>110.9</ele><time>2024-01-22T10:23:21Z</time></trkpt><trkpt lat="58.060015" lon="38.812675"><ele>107.3</ele><time>2024-01-22T10:23:27Z</time></trkpt><trkpt lat="58.060035" lon="38.812535"><ele>105.3</ele><time>2024-01-22T10:23:32Z</time></trkpt><trkpt lat="58.060025" lon="38.812375"><ele>105.2</ele><time>2024-01-22T10:23:38Z</time></trkpt><trkpt lat="58.05996" lon="38.812302"><ele>109.6</ele><time>2024-01-22T10:23:45Z</time></trkpt><trkpt lat="58.05987" lon="38.81226"><ele>121.3</ele><time>2024-01-22T10:23:53Z</time></trkpt><trkpt lat="58.05981" lon="38.81217"><ele>113.7</ele><time>2024-01-22T10:24:00Z</time></trkpt><trkpt lat="58.059735" lon="38.812105"><ele>116.2</ele><time>2024-01-22T10:24:06Z</time></trkpt><trkpt lat="58.059675" lon="38.81201"><ele>115.4</ele><time>2024-01-22T10:24:12Z</time></trkpt><trkpt lat="58.05962" lon="38.811912"><ele>110.6</ele><time>2024-01-22T10:24:17Z</time></trkpt><trkpt lat="58.059575" lon="38.81179"><ele>117.3</ele><time>2024-01-22T10:24:22Z</time></trkpt><trkpt lat="58.059495" lon="38.811752"><ele>115.5</ele><time>2024-01-22T10:24:27Z</time></trkpt><trkpt lat="58.059422" lon="38.81175"><ele>114.5</ele><time>2024-01-22T10:24:32Z</time></trkpt><trkpt lat="58.05935" lon="38.811682"><ele>114.0</ele><time>2024-01-22T10:24:38Z</time></trkpt><trkpt lat="58.059272" lon="38.811682"><ele>111.4</ele><time>2024-01-22T10:24:44Z</time></trkpt><trkpt lat="58.059232" lon="38.81154"><ele>110.1</ele><time>2024-01-22T10:24:51Z</time></trkpt><trkpt lat="58.059242" lon="38.811372"><ele>111.2</ele><time>2024-01-22T10:24:56Z</time></trkpt><trkpt lat="58.05922" lon="38.811228"><ele>106.5</ele><time>2024-01-22T10:25:01Z</time></trkpt><trkpt lat="58.059147" lon="38.81122"><ele>109.0</ele><time>2024-01-22T10:25:06Z</time></trkpt><trkpt lat="58.059075" lon="38.811185"><ele>121.6</ele><time>2024-01-22T10:25:12Z</time></trkpt><trkpt lat="58.058997" lon="38.811155"><ele>118.6</ele><time>2024-01-22T10:25:18Z</time></trkpt><trkpt lat="58.058932" lon="38.811095"><ele>119.5</ele><time>2024-01-22T10:25:24Z</time></trkpt><trkpt lat="58.058855" lon="38.81111"><ele>117.1</ele><time>2024-01-22T10:25:30Z</time></trkpt><trkpt lat="58.058785" lon="38.811055"><ele>117.2</ele><time>2024-01-22T10:25:37Z</time></trkpt><trkpt lat="58.05878" lon="38.810915"><ele>116.3</ele><time>2024-01-22T10:25:42Z</time></trkpt><trkpt lat="58.05871" lon="38.810852"><ele>113.4</ele><time>2024-01-22T10:25:49Z</time></trkpt><trkpt lat="58.058695" lon="38.810715"><ele>120.4</ele><time>2024-01-22T10:25:56Z</time></trkpt><trkpt lat="58.058712" lon="38.81058"><ele>116.2</ele><time>2024-01-22T10:26:03Z</time></trkpt><trkpt lat="58.058715" lon="38.81043"><ele>117.2</ele><time>2024-01-22T10:26:10Z</time></trkpt><trkpt lat="58.05873" lon="38.81028"><ele>112.9</ele><time>2024-01-22T10:26:17Z</time></trkpt><trkpt lat="58.058745" lon="38.810167"><ele>109.9</ele><time>2024-01-22T10:26:24Z</time></trkpt><trkpt lat="58.058725" lon="38.81003"><ele>111.9</ele><time>2024-01-22T10:26:30Z</time></trkpt><trkpt lat="58.05867" lon="38.809925"><ele>108.0</ele><time>2024-01-22T10:26:34Z</time></trkpt><trkpt lat="58.0586" lon="38.80985"><ele>107.4</ele><time>2024-01-22T10:26:39Z</time></trkpt><trkpt lat="58.05854" lon="38.80973"><ele>109.1</ele><time>2024-01-22T10:26:45Z</time></trkpt><trkpt lat="58.058542" lon="38.809585"><ele>105.8</ele><time>2024-01-22T10:26:50Z</time></trkpt><trkpt lat="58.05856" lon="38.80945"><ele>105.2</ele><time>2024-01-22T10:26:56Z</time></trkpt><trkpt lat="58.058577" lon="38.809295"><ele>107.3</ele><time>2024-01-22T10:27:02Z</time></trkpt><trkpt lat="58.058585" lon="38.80915"><ele>108.6</ele><time>2024-01-22T10:27:07Z</time></trkpt><trkpt lat="58.058577" lon="38.80899"><ele>108.2</ele><time>2024-01-22T10:27:13Z</time></trkpt><trkpt lat="58.058585" lon="38.808835"><ele>108.5</ele><time>2024-01-22T10:27:19Z</time></trkpt><trkpt lat="58.058597" lon="38.808675"><ele>106.1</ele><time>2024-01-22T10:27:25Z</time></trkpt><trkpt lat="58.05859" lon="38.80854"><ele>104.1</ele><time>2024-01-22T10:27:30Z</time></trkpt><trkpt lat="58.058618" lon="38.808405"><ele>104.6</ele><time>2024-01-22T10:27:37Z</time></trkpt><trkpt lat="58.05865" lon="38.80827"><ele>105.8</ele><time>2024-01-22T10:27:43Z</time></trkpt><trkpt lat="58.05865" lon="38.808135"><ele>111.8</ele><time>2024-01-22T10:27:48Z</time></trkpt><trkpt lat="58.05865" lon="38.807968"><ele>112.6</ele><time>2024-01-22T10:27:54Z</time></trkpt><trkpt lat="58.058652" lon="38.807835"><ele>110.7</ele><time>2024-01-22T10:28:00Z</time></trkpt><trkpt lat="58.058695" lon="38.807722"><ele>110.5</ele><time>2024-01-22T10:28:06Z</time></trkpt><trkpt lat="58.058745" lon="38.80774"><ele>107.5</ele><time>2024-01-22T10:28:13Z</time></trkpt><trkpt lat="58.05882" lon="38.807672"><ele>108.7</ele><time>2024-01-22T10:28:17Z</time></trkpt><trkpt lat="58.058885" lon="38.807582"><ele>108.8</ele><time>2024-01-22T10:28:22Z</time></trkpt><trkpt lat="58.058915" lon="38.807415"><ele>108.5</ele><time>2024-01-22T10:28:28Z</time></trkpt><trkpt lat="58.05886" lon="38.80732"><ele>108.2</ele><time>2024-01-22T10:28:35Z</time></trkpt><trkpt lat="58.058842" lon="38.80741"><ele>107.7</ele><time>2024-01-22T10:28:42Z</time></trkpt><trkpt lat="58.05886" lon="38.807245"><ele>107.3</ele><time>2024-01-22T10:28:50Z</time></trkpt><trkpt lat="58.058785" lon="38.807255"><ele>107.0</ele><time>2024-01-22T10:28:56Z</time></trkpt><trkpt lat="58.05885" lon="38.807245"><ele>106.6</ele><time>2024-01-22T10:29:03Z</time></trkpt><trkpt lat="58.058773" lon="38.807265"><ele>106.3</ele><time>2024-01-22T10:29:09Z</time></trkpt><trkpt lat="58.05883" lon="38.807377"><ele>106.0</ele><time>2024-01-22T10:29:14Z</time></trkpt><trkpt lat="58.05871" lon="38.808742"><ele>105.6</ele><time>2024-01-22T11:54:23Z</time></trkpt><trkpt lat="58.058685" lon="38.808872"><ele>115.6</ele><time>2024-01-22T11:54:29Z</time></trkpt><trkpt lat="58.05864" lon="38.808947"><ele>114.6</ele><time>2024-01-22T11:54:36Z</time></trkpt><trkpt lat="58.05859" lon="38.80906"><ele>111.8</ele><time>2024-01-22T11:54:42Z</time></trkpt><trkpt lat="58.05856" lon="38.8092"><ele>111.5</ele><time>2024-01-22T11:54:48Z</time></trkpt><trkpt lat="58.05854" lon="38.809345"><ele>115.8</ele><time>2024-01-22T11:54:54Z</time></trkpt><trkpt lat="58.058512" lon="38.80952"><ele>114.5</ele><time>2024-01-22T11:54:59Z</time></trkpt><trkpt lat="58.05856" lon="38.80966"><ele>106.3</ele><time>2024-01-22T11:55:04Z</time></trkpt><trkpt lat="58.058625" lon="38.80976"><ele>107.2</ele><time>2024-01-22T11:55:09Z</time></trkpt><trkpt lat="58.058675" lon="38.809887"><ele>106.5</ele><time>2024-01-22T11:55:14Z</time></trkpt><trkpt lat="58.058695" lon="38.81002"><ele>107.8</ele><time>2024-01-22T11:55:19Z</time></trkpt><trkpt lat="58.058712" lon="38.810178"><ele>110.9</ele><time>2024-01-22T11:55:24Z</time></trkpt><trkpt lat="58.05869" lon="38.810337"><ele>108.9</ele><time>2024-01-22T11:55:29Z</time></trkpt><trkpt lat="58.058697" lon="38.810485"><ele>110.8</ele><time>2024-01-22T11:55:33Z</time></trkpt><trkpt lat="58.05866" lon="38.8106"><ele>107.8</ele><time>2024-01-22T11:55:37Z</time></trkpt><trkpt lat="58.058645" lon="38.810745"><ele>107.4</ele><time>2024-01-22T11:55:42Z</time></trkpt><trkpt lat="58.05869" lon="38.810895"><ele>108.1</ele><time>2024-01-22T11:55:46Z</time></trkpt><trkpt lat="58.05875" lon="38.810985"><ele>106.8</ele><time>2024-01-22T11:55:50Z</time></trkpt><trkpt lat="58.05882" lon="38.811032"><ele>109.0</ele><time>2024-01-22T11:55:54Z</time></trkpt><trkpt lat="58.05883" lon="38.811197"><ele>112.3</ele><time>2024-01-22T11:56:01Z</time></trkpt><trkpt lat="58.058897" lon="38.81131"><ele>116.9</ele><time>2024-01-22T11:56:06Z</time></trkpt><trkpt lat="58.058975" lon="38.811325"><ele>115.9</ele><time>2024-01-22T11:56:11Z</time></trkpt><trkpt lat="58.059055" lon="38.81133"><ele>114.4</ele><time>2024-01-22T11:56:17Z</time></trkpt><trkpt lat="58.059135" lon="38.81137"><ele>112.6</ele><time>2024-01-22T11:56:23Z</time></trkpt><trkpt lat="58.05921" lon="38.81135"><ele>112.4</ele><time>2024-01-22T11:56:28Z</time></trkpt><trkpt lat="58.05928" lon="38.81143"><ele>114.9</ele><time>2024-01-22T11:56:33Z</time></trkpt><trkpt lat="58.059302" lon="38.81158"><ele>110.9</ele><time>2024-01-22T11:56:38Z</time></trkpt><trkpt lat="58.05929" lon="38.81171"><ele>109.6</ele><time>2024-01-22T11:56:44Z</time></trkpt><trkpt lat="58.059365" lon="38.811775"><ele>109.3</ele><time>2024-01-22T11:56:49Z</time></trkpt><trkpt lat="58.059435" lon="38.811742"><ele>107.4</ele><time>2024-01-22T11:56:54Z</time></trkpt><trkpt lat="58.05952" lon="38.811795"><ele>106.7</ele><time>2024-01-22T11:57:00Z</time></trkpt><trkpt lat="58.059572" lon="38.811907"><ele>104.1</ele><time>2024-01-22T11:57:05Z</time></trkpt><trkpt lat="58.059625" lon="38.81202"><ele>101.5</ele><time>2024-01-22T11:57:11Z</time></trkpt><trkpt lat="58.059705" lon="38.81207"><ele>106.8</ele><time>2024-01-22T11:57:16Z</time></trkpt><trkpt lat="58.059785" lon="38.812105"><ele>109.9</ele><time>2024-01-22T11:57:21Z</time></trkpt><trkpt lat="58.059855" lon="38.81218"><ele>107.8</ele><time>2024-01-22T11:57:26Z</time></trkpt><trkpt lat="58.059922" lon="38.812288"><ele>104.0</ele><time>2024-01-22T11:57:31Z</time></trkpt><trkpt lat="58.060005" lon="38.812325"><ele>100.2</ele><time>2024-01-22T11:57:37Z</time></trkpt><trkpt lat="58.06007" lon="38.812427"><ele>99.3</ele><time>2024-01-22T11:57:43Z</time></trkpt><trkpt lat="58.060092" lon="38.812565"><ele>103.9</ele><time>2024-01-22T11:57:48Z</time></trkpt><trkpt lat="58.060067" lon="38.812705"><ele>107.4</ele><time>2024-01-22T11:57:53Z</time></trkpt><trkpt lat="58.060047" lon="38.812845"><ele>106.8</ele><time>2024-01-22T11:57:57Z</time></trkpt><trkpt lat="58.060015" lon="38.812978"><ele>107.6</ele><time>2024-01-22T11:58:03Z</time></trkpt><trkpt lat="58.060027" lon="38.813125"><ele>106.8</ele><time>2024-01-22T11:58:08Z</time></trkpt><trkpt lat="58.060002" lon="38.813257"><ele>102.1</ele><time>2024-01-22T11:58:13Z</time></trkpt><trkpt lat="58.06001" lon="38.813395"><ele>106.1</ele><time>2024-01-22T11:58:18Z</time></trkpt><trkpt lat="58.06002" lon="38.81354"><ele>106.8</ele><time>2024-01-22T11:58:23Z</time></trkpt><trkpt lat="58.060032" lon="38.813677"><ele>105.8</ele><time>2024-01-22T11:58:28Z</time></trkpt><trkpt lat="58.059997" lon="38.813812"><ele>108.1</ele><time>2024-01-22T11:58:33Z</time></trkpt><trkpt lat="58.059925" lon="38.813825"><ele>107.9</ele><time>2024-01-22T11:58:41Z</time></trkpt><trkpt lat="58.05988" lon="38.813685"><ele>107.6</ele><time>2024-01-22T11:58:46Z</time></trkpt><trkpt lat="58.059842" lon="38.813555"><ele>108.5</ele><time>2024-01-22T11:58:52Z</time></trkpt><trkpt lat="58.059802" lon="38.813423"><ele>110.4</ele><time>2024-01-22T11:58:58Z</time></trkpt><trkpt lat="58.059747" lon="38.813525"><ele>109.7</ele><time>2024-01-22T11:59:02Z</time></trkpt><trkpt lat="58.05965" lon="38.813455"><ele>109.2</ele><time>2024-01-22T11:59:08Z</time></trkpt><trkpt lat="58.059735" lon="38.81341"><ele>109.2</ele><time>2024-01-22T11:59:11Z</time></trkpt><trkpt lat="58.05992" lon="38.8133"><ele>108.7</ele><time>2024-01-22T11:59:33Z</time></trkpt><trkpt lat="58.059965" lon="38.813423"><ele>161.9</ele><time>2024-01-22T11:59:38Z</time></trkpt><trkpt lat="58.059995" lon="38.81344"><ele>84.0</ele><time>2024-01-22T11:59:45Z</time></trkpt><trkpt lat="58.059982" lon="38.813575"><ele>82.0</ele><time>2024-01-22T11:59:54Z</time></trkpt><trkpt lat="58.05981" lon="38.813292"><ele>113.3</ele><time>2024-01-22T12:46:20Z</time></trkpt><trkpt lat="58.05974" lon="38.81334"><ele>105.7</ele><time>2024-01-22T12:46:23Z</time></trkpt><trkpt lat="58.059785" lon="38.813442"><ele>110.8</ele><time>2024-01-22T12:46:26Z</time></trkpt><trkpt lat="58.059838" lon="38.813555"><ele>111.3</ele><time>2024-01-22T12:46:30Z</time></trkpt><trkpt lat="58.059875" lon="38.813675"><ele>111.0</ele><time>2024-01-22T12:46:35Z</time></trkpt><trkpt lat="58.059895" lon="38.813812"><ele>110.5</ele><time>2024-01-22T12:46:40Z</time></trkpt><trkpt lat="58.059922" lon="38.81396"><ele>108.5</ele><time>2024-01-22T12:46:46Z</time></trkpt><trkpt lat="58.060005" lon="38.81401"><ele>109.6</ele><time>2024-01-22T12:46:51Z</time></trkpt><trkpt lat="58.06008" lon="38.813932"><ele>108.1</ele><time>2024-01-22T12:46:54Z</time></trkpt><trkpt lat="58.06011" lon="38.813807"><ele>106.7</ele><time>2024-01-22T12:46:58Z</time></trkpt><trkpt lat="58.06018" lon="38.81372"><ele>105.3</ele><time>2024-01-22T12:47:03Z</time></trkpt><trkpt lat="58.06019" lon="38.813582"><ele>110.7</ele><time>2024-01-22T12:47:07Z</time></trkpt><trkpt lat="58.060187" lon="38.81344"><ele>107.7</ele><time>2024-01-22T12:47:11Z</time></trkpt><trkpt lat="58.06018" lon="38.8133"><ele>106.4</ele><time>2024-01-22T12:47:15Z</time></trkpt><trkpt lat="58.06016" lon="38.813155"><ele>99.3</ele><time>2024-01-22T12:47:18Z</time></trkpt><trkpt lat="58.060175" lon="38.812997"><ele>101.1</ele><time>2024-01-22T12:47:23Z</time></trkpt><trkpt lat="58.060195" lon="38.812865"><ele>100.2</ele><time>2024-01-22T12:47:28Z</time></trkpt><trkpt lat="58.0602" lon="38.81271"><ele>102.1</ele><time>2024-01-22T12:47:33Z</time></trkpt><trkpt lat="58.060175" lon="38.812555"><ele>104.0</ele><time>2024-01-22T12:47:38Z</time></trkpt><trkpt lat="58.06012" lon="38.81244"><ele>107.0</ele><time>2024-01-22T12:47:41Z</time></trkpt><trkpt lat="58.06005" lon="38.812357"><ele>106.0</ele><time>2024-01-22T12:47:45Z</time></trkpt><trkpt lat="58.059965" lon="38.81231"><ele>107.2</ele><time>2024-01-22T12:47:50Z</time></trkpt><trkpt lat="58.059895" lon="38.812225"><ele>105.4</ele><time>2024-01-22T12:47:54Z</time></trkpt><trkpt lat="58.059817" lon="38.812165"><ele>106.9</ele><time>2024-01-22T12:47:59Z</time></trkpt><trkpt lat="58.059747" lon="38.81211"><ele>106.4</ele><time>2024-01-22T12:48:04Z</time></trkpt><trkpt lat="58.059687" lon="38.812032"><ele>105.8</ele><time>2024-01-22T12:48:09Z</time></trkpt><trkpt lat="58.059635" lon="38.811907"><ele>105.8</ele><time>2024-01-22T12:48:14Z</time></trkpt><trkpt lat="58.05957" lon="38.811795"><ele>103.1</ele><time>2024-01-22T12:48:20Z</time></trkpt><trkpt lat="58.059495" lon="38.81176"><ele>105.5</ele><time>2024-01-22T12:48:25Z</time></trkpt><trkpt lat="58.059422" lon="38.811725"><ele>108.8</ele><time>2024-01-22T12:48:31Z</time></trkpt><trkpt lat="58.059342" lon="38.811752"><ele>113.5</ele><time>2024-01-22T12:48:37Z</time></trkpt><trkpt lat="58.059285" lon="38.811655"><ele>115.2</ele><time>2024-01-22T12:48:43Z</time></trkpt><trkpt lat="58.05926" lon="38.81151"><ele>121.5</ele><time>2024-01-22T12:48:50Z</time></trkpt><trkpt lat="58.059238" lon="38.811362"><ele>117.9</ele><time>2024-01-22T12:48:56Z</time></trkpt><trkpt lat="58.05917" lon="38.811245"><ele>118.3</ele><time>2024-01-22T12:49:02Z</time></trkpt><trkpt lat="58.059095" lon="38.811255"><ele>131.6</ele><time>2024-01-22T12:49:09Z</time></trkpt><trkpt lat="58.05901" lon="38.811215"><ele>125.5</ele><time>2024-01-22T12:49:15Z</time></trkpt><trkpt lat="58.058955" lon="38.811135"><ele>124.1</ele><time>2024-01-22T12:49:20Z</time></trkpt><trkpt lat="58.058885" lon="38.81109"><ele>123.7</ele><time>2024-01-22T12:49:25Z</time></trkpt><trkpt lat="58.05881" lon="38.811115"><ele>122.7</ele><time>2024-01-22T12:49:28Z</time></trkpt><trkpt lat="58.058787" lon="38.810965"><ele>124.1</ele><time>2024-01-22T12:49:34Z</time></trkpt><trkpt lat="58.058735" lon="38.810865"><ele>120.8</ele><time>2024-01-22T12:49:41Z</time></trkpt><trkpt lat="58.058665" lon="38.810805"><ele>118.7</ele><time>2024-01-22T12:49:46Z</time></trkpt><trkpt lat="58.058665" lon="38.81067"><ele>111.7</ele><time>2024-01-22T12:49:53Z</time></trkpt><trkpt lat="58.058687" lon="38.810522"><ele>115.9</ele><time>2024-01-22T12:49:59Z</time></trkpt><trkpt lat="58.058715" lon="38.810397"><ele>115.2</ele><time>2024-01-22T12:50:04Z</time></trkpt><trkpt lat="58.05875" lon="38.81025"><ele>114.8</ele><time>2024-01-22T12:50:10Z</time></trkpt><trkpt lat="58.058785" lon="38.810105"><ele>117.3</ele><time>2024-01-22T12:50:15Z</time></trkpt><trkpt lat="58.058773" lon="38.809955"><ele>110.8</ele><time>2024-01-22T12:50:20Z</time></trkpt><trkpt lat="58.05871" lon="38.809835"><ele>109.9</ele><time>2024-01-22T12:50:25Z</time></trkpt><trkpt lat="58.058625" lon="38.80974"><ele>106.9</ele><time>2024-01-22T12:50:29Z</time></trkpt><trkpt lat="58.058595" lon="38.809607"><ele>107.0</ele><time>2024-01-22T12:50:34Z</time></trkpt><trkpt lat="58.058575" lon="38.809475"><ele>107.5</ele><time>2024-01-22T12:50:40Z</time></trkpt><trkpt lat="58.058565" lon="38.809332"><ele>107.7</ele><time>2024-01-22T12:50:47Z</time></trkpt><trkpt lat="58.05856" lon="38.80919"><ele>109.0</ele><time>2024-01-22T12:50:53Z</time></trkpt><trkpt lat="58.05854" lon="38.809035"><ele>113.3</ele><time>2024-01-22T12:50:59Z</time></trkpt><trkpt lat="58.05856" lon="38.808895"><ele>115.9</ele><time>2024-01-22T12:51:04Z</time></trkpt><trkpt lat="58.058585" lon="38.808765"><ele>116.9</ele><time>2024-01-22T12:51:09Z</time></trkpt><trkpt lat="58.05859" lon="38.808625"><ele>120.3</ele><time>2024-01-22T12:51:14Z</time></trkpt><trkpt lat="58.058585" lon="38.808465"><ele>118.4</ele><time>2024-01-22T12:51:19Z</time></trkpt><trkpt lat="58.058595" lon="38.808302"><ele>116.9</ele><time>2024-01-22T12:51:24Z</time></trkpt><trkpt lat="58.05859" lon="38.808165"><ele>116.9</ele><time>2024-01-22T12:51:29Z</time></trkpt><trkpt lat="58.058563" lon="38.808015"><ele>125.6</ele><time>2024-01-22T12:51:35Z</time></trkpt><trkpt lat="58.058562" lon="38.80787"><ele>127.3</ele><time>2024-01-22T12:51:42Z</time></trkpt><trkpt lat="58.05861" lon="38.807765"><ele>128.2</ele><time>2024-01-22T12:51:46Z</time></trkpt><trkpt lat="58.058645" lon="38.80764"><ele>125.6</ele><time>2024-01-22T12:51:51Z</time></trkpt><trkpt lat="58.058612" lon="38.807615"><ele>120.5</ele><time>2024-01-22T12:51:58Z</time></trkpt><trkpt lat="58.058612" lon="38.807615"><ele>120.5</ele><time>2024-01-22T12:52:01Z</time></trkpt><trkpt lat="58.05863" lon="38.80762"><ele>118.1</ele><time>2024-01-22T12:52:32Z</time></trkpt><trkpt lat="58.05863" lon="38.80762"><ele>118.1</ele><time>2024-01-22T12:52:35Z</time></trkpt><trkpt lat="58.058635" lon="38.807645"><ele>117.6</ele><time>2024-01-22T12:52:52Z</time></trkpt><trkpt lat="58.058635" lon="38.807645"><ele>117.6</ele><time>2024-01-22T12:52:53Z</time></trkpt><trkpt lat="58.058665" lon="38.80755"><ele>118.2</ele><time>2024-01-22T12:53:01Z</time></trkpt><trkpt lat="58.058715" lon="38.807512"><ele>118.1</ele><time>2024-01-22T12:53:08Z</time></trkpt></trkseg></trk></gpx>