<?xml version="1.0" encoding="UTF-8" standalone="no"?><gpx xmlns="http://www.topografix.com/GPX/1/1" xmlns:gpxtpx="http://www.garmin.com/xmlschemas/TrackPointExtension/v1" xmlns:xsi="http://www.w3.org/2001/XMLSchema-instance" creator="Sports Tracker" version="1.1" xsi:schemaLocation="http://www.topografix.com/GPX/1/1 http://www.topografix.com/GPX/1/1/gpx.xsd http://www.garmin.com/xmlschemas/TrackPointExtension/v1 http://www.garmin.com/xmlschemas/TrackPointExtensionv1.xsd"><metadata><name>31.01.2026 16:07</name><desc/><author><name>Александр</name></author></metadata><trk><name>31.01.2026 16:07</name><trkseg><trkpt lat="58.328142" lon="38.873737"><ele>123.7</ele><time>2026-01-31T13:07:36Z</time></trkpt><trkpt lat="58.328145" lon="38.8737"><ele>123.8</ele><time>2026-01-31T13:07:36Z</time></trkpt><trkpt lat="58.32819" lon="38.87358"><ele>123.7</ele><time>2026-01-31T13:07:41Z</time></trkpt><trkpt lat="58.328225" lon="38.873455"><ele>124.6</ele><time>2026-01-31T13:07:46Z</time></trkpt><trkpt lat="58.328265" lon="38.873315"><ele>124.3</ele><time>2026-01-31T13:07:52Z</time></trkpt><trkpt lat="58.328315" lon="38.8732"><ele>123.5</ele><time>2026-01-31T13:07:58Z</time></trkpt><trkpt lat="58.32838" lon="38.873105"><ele>124.0</ele><time>2026-01-31T13:08:05Z</time></trkpt><trkpt lat="58.328395" lon="38.873095"><ele>122.8</ele><time>2026-01-31T13:08:12Z</time></trkpt><trkpt lat="58.32846" lon="38.87304"><ele>121.9</ele><time>2026-01-31T13:08:19Z</time></trkpt><trkpt lat="58.328533" lon="38.872982"><ele>120.9</ele><time>2026-01-31T13:08:25Z</time></trkpt><trkpt lat="58.328615" lon="38.872962"><ele>120.8</ele><time>2026-01-31T13:08:31Z</time></trkpt><trkpt lat="58.32869" lon="38.872915"><ele>120.5</ele><time>2026-01-31T13:08:37Z</time></trkpt><trkpt lat="58.32876" lon="38.872865"><ele>120.8</ele><time>2026-01-31T13:08:43Z</time></trkpt><trkpt lat="58.32876" lon="38.872857"><ele>121.2</ele><time>2026-01-31T13:08:50Z</time></trkpt><trkpt lat="58.328833" lon="38.872815"><ele>121.2</ele><time>2026-01-31T13:08:57Z</time></trkpt><trkpt lat="58.32891" lon="38.872767"><ele>121.0</ele><time>2026-01-31T13:09:04Z</time></trkpt><trkpt lat="58.328985" lon="38.87271"><ele>120.0</ele><time>2026-01-31T13:09:10Z</time></trkpt><trkpt lat="58.329058" lon="38.872683"><ele>120.0</ele><time>2026-01-31T13:09:17Z</time></trkpt><trkpt lat="58.329135" lon="38.87265"><ele>119.8</ele><time>2026-01-31T13:09:23Z</time></trkpt><trkpt lat="58.32921" lon="38.87262"><ele>120.0</ele><time>2026-01-31T13:09:29Z</time></trkpt><trkpt lat="58.32929" lon="38.872597"><ele>120.5</ele><time>2026-01-31T13:09:35Z</time></trkpt><trkpt lat="58.329365" lon="38.872597"><ele>121.2</ele><time>2026-01-31T13:09:41Z</time></trkpt><trkpt lat="58.329438" lon="38.87262"><ele>121.6</ele><time>2026-01-31T13:09:48Z</time></trkpt><trkpt lat="58.329517" lon="38.872652"><ele>121.3</ele><time>2026-01-31T13:09:53Z</time></trkpt><trkpt lat="58.329592" lon="38.872682"><ele>121.4</ele><time>2026-01-31T13:09:59Z</time></trkpt><trkpt lat="58.329672" lon="38.872655"><ele>122.5</ele><time>2026-01-31T13:10:05Z</time></trkpt><trkpt lat="58.329725" lon="38.87256"><ele>122.6</ele><time>2026-01-31T13:10:11Z</time></trkpt><trkpt lat="58.329763" lon="38.872437"><ele>121.2</ele><time>2026-01-31T13:10:15Z</time></trkpt><trkpt lat="58.329805" lon="38.872302"><ele>120.7</ele><time>2026-01-31T13:10:21Z</time></trkpt><trkpt lat="58.329855" lon="38.87218"><ele>120.4</ele><time>2026-01-31T13:10:27Z</time></trkpt><trkpt lat="58.329915" lon="38.87207"><ele>119.5</ele><time>2026-01-31T13:10:33Z</time></trkpt><trkpt lat="58.329987" lon="38.87199"><ele>118.9</ele><time>2026-01-31T13:10:39Z</time></trkpt><trkpt lat="58.330055" lon="38.871938"><ele>118.9</ele><time>2026-01-31T13:10:44Z</time></trkpt><trkpt lat="58.330128" lon="38.871875"><ele>118.4</ele><time>2026-01-31T13:10:50Z</time></trkpt><trkpt lat="58.330198" lon="38.871787"><ele>117.7</ele><time>2026-01-31T13:10:56Z</time></trkpt><trkpt lat="58.330262" lon="38.871697"><ele>118.6</ele><time>2026-01-31T13:11:02Z</time></trkpt><trkpt lat="58.330307" lon="38.871575"><ele>119.3</ele><time>2026-01-31T13:11:09Z</time></trkpt><trkpt lat="58.330385" lon="38.871565"><ele>117.5</ele><time>2026-01-31T13:11:15Z</time></trkpt><trkpt lat="58.330465" lon="38.871525"><ele>118.3</ele><time>2026-01-31T13:11:21Z</time></trkpt><trkpt lat="58.330535" lon="38.871468"><ele>118.5</ele><time>2026-01-31T13:11:27Z</time></trkpt><trkpt lat="58.33061" lon="38.8714"><ele>117.3</ele><time>2026-01-31T13:11:33Z</time></trkpt><trkpt lat="58.33066" lon="38.871272"><ele>115.7</ele><time>2026-01-31T13:11:41Z</time></trkpt><trkpt lat="58.330715" lon="38.87117"><ele>115.6</ele><time>2026-01-31T13:11:45Z</time></trkpt><trkpt lat="58.33077" lon="38.87107"><ele>114.1</ele><time>2026-01-31T13:11:51Z</time></trkpt><trkpt lat="58.330802" lon="38.870925"><ele>114.2</ele><time>2026-01-31T13:11:57Z</time></trkpt><trkpt lat="58.33081" lon="38.870775"><ele>115.6</ele><time>2026-01-31T13:12:02Z</time></trkpt><trkpt lat="58.33081" lon="38.87077"><ele>115.5</ele><time>2026-01-31T13:12:09Z</time></trkpt><trkpt lat="58.330827" lon="38.870625"><ele>115.2</ele><time>2026-01-31T13:12:22Z</time></trkpt><trkpt lat="58.330825" lon="38.87047"><ele>115.4</ele><time>2026-01-31T13:12:28Z</time></trkpt><trkpt lat="58.330812" lon="38.870325"><ele>115.7</ele><time>2026-01-31T13:12:33Z</time></trkpt><trkpt lat="58.330813" lon="38.870275"><ele>115.5</ele><time>2026-01-31T13:12:40Z</time></trkpt><trkpt lat="58.330815" lon="38.87028"><ele>115.5</ele><time>2026-01-31T13:12:44Z</time></trkpt><trkpt lat="58.33083" lon="38.870145"><ele>114.4</ele><time>2026-01-31T13:13:02Z</time></trkpt><trkpt lat="58.330845" lon="38.870085"><ele>116.3</ele><time>2026-01-31T13:13:08Z</time></trkpt><trkpt lat="58.330845" lon="38.870087"><ele>116.3</ele><time>2026-01-31T13:13:12Z</time></trkpt><trkpt lat="58.330882" lon="38.869942"><ele>114.6</ele><time>2026-01-31T13:13:19Z</time></trkpt><trkpt lat="58.33092" lon="38.869807"><ele>114.0</ele><time>2026-01-31T13:13:26Z</time></trkpt><trkpt lat="58.330962" lon="38.86968"><ele>113.4</ele><time>2026-01-31T13:13:31Z</time></trkpt><trkpt lat="58.331015" lon="38.869555"><ele>114.5</ele><time>2026-01-31T13:13:38Z</time></trkpt><trkpt lat="58.331075" lon="38.86947"><ele>116.4</ele><time>2026-01-31T13:13:43Z</time></trkpt><trkpt lat="58.331128" lon="38.869375"><ele>117.2</ele><time>2026-01-31T13:13:50Z</time></trkpt><trkpt lat="58.33116" lon="38.869265"><ele>117.0</ele><time>2026-01-31T13:13:57Z</time></trkpt><trkpt lat="58.331197" lon="38.869147"><ele>115.0</ele><time>2026-01-31T13:14:04Z</time></trkpt><trkpt lat="58.331235" lon="38.869037"><ele>113.3</ele><time>2026-01-31T13:14:11Z</time></trkpt><trkpt lat="58.33128" lon="38.868962"><ele>113.8</ele><time>2026-01-31T13:14:18Z</time></trkpt><trkpt lat="58.33129" lon="38.868945"><ele>114.0</ele><time>2026-01-31T13:14:25Z</time></trkpt><trkpt lat="58.33129" lon="38.868945"><ele>114.0</ele><time>2026-01-31T13:14:26Z</time></trkpt><trkpt lat="58.331345" lon="38.868845"><ele>113.8</ele><time>2026-01-31T13:15:01Z</time></trkpt><trkpt lat="58.331395" lon="38.868755"><ele>113.4</ele><time>2026-01-31T13:15:07Z</time></trkpt><trkpt lat="58.331445" lon="38.86865"><ele>112.0</ele><time>2026-01-31T13:15:14Z</time></trkpt><trkpt lat="58.33148" lon="38.868582"><ele>112.1</ele><time>2026-01-31T13:15:22Z</time></trkpt><trkpt lat="58.331477" lon="38.868575"><ele>112.5</ele><time>2026-01-31T13:15:27Z</time></trkpt><trkpt lat="58.331475" lon="38.868555"><ele>113.3</ele><time>2026-01-31T13:15:37Z</time></trkpt><trkpt lat="58.33148" lon="38.86855"><ele>114.0</ele><time>2026-01-31T13:15:40Z</time></trkpt><trkpt lat="58.331487" lon="38.868592"><ele>113.7</ele><time>2026-01-31T13:16:56Z</time></trkpt><trkpt lat="58.33148" lon="38.86858"><ele>113.7</ele><time>2026-01-31T13:17:01Z</time></trkpt><trkpt lat="58.331475" lon="38.868572"><ele>114.2</ele><time>2026-01-31T13:18:45Z</time></trkpt><trkpt lat="58.331475" lon="38.86857"><ele>114.2</ele><time>2026-01-31T13:18:46Z</time></trkpt><trkpt lat="58.33147" lon="38.868597"><ele>112.9</ele><time>2026-01-31T13:19:13Z</time></trkpt><trkpt lat="58.33147" lon="38.868595"><ele>112.8</ele><time>2026-01-31T13:19:17Z</time></trkpt><trkpt lat="58.331497" lon="38.868592"><ele>112.4</ele><time>2026-01-31T13:19:29Z</time></trkpt><trkpt lat="58.3315" lon="38.8686"><ele>112.0</ele><time>2026-01-31T13:19:35Z</time></trkpt><trkpt lat="58.33145" lon="38.868557"><ele>112.6</ele><time>2026-01-31T13:19:43Z</time></trkpt><trkpt lat="58.331392" lon="38.868477"><ele>114.2</ele><time>2026-01-31T13:19:50Z</time></trkpt><trkpt lat="58.33135" lon="38.86843"><ele>113.6</ele><time>2026-01-31T13:19:57Z</time></trkpt><trkpt lat="58.331295" lon="38.868425"><ele>113.1</ele><time>2026-01-31T13:20:04Z</time></trkpt><trkpt lat="58.331235" lon="38.868395"><ele>112.4</ele><time>2026-01-31T13:20:11Z</time></trkpt><trkpt lat="58.33118" lon="38.868357"><ele>111.8</ele><time>2026-01-31T13:20:18Z</time></trkpt><trkpt lat="58.33112" lon="38.86832"><ele>112.1</ele><time>2026-01-31T13:20:26Z</time></trkpt><trkpt lat="58.33107" lon="38.86828"><ele>113.3</ele><time>2026-01-31T13:20:33Z</time></trkpt><trkpt lat="58.331012" lon="38.86824"><ele>112.3</ele><time>2026-01-31T13:20:39Z</time></trkpt><trkpt lat="58.330952" lon="38.868187"><ele>112.1</ele><time>2026-01-31T13:20:46Z</time></trkpt><trkpt lat="58.3309" lon="38.868137"><ele>112.5</ele><time>2026-01-31T13:20:53Z</time></trkpt><trkpt lat="58.330835" lon="38.868105"><ele>113.5</ele><time>2026-01-31T13:21:00Z</time></trkpt><trkpt lat="58.33083" lon="38.86807"><ele>113.3</ele><time>2026-01-31T13:21:07Z</time></trkpt><trkpt lat="58.33083" lon="38.868065"><ele>113.1</ele><time>2026-01-31T13:21:12Z</time></trkpt><trkpt lat="58.330775" lon="38.868022"><ele>112.7</ele><time>2026-01-31T13:21:18Z</time></trkpt><trkpt lat="58.330722" lon="38.867972"><ele>111.8</ele><time>2026-01-31T13:21:25Z</time></trkpt><trkpt lat="58.330658" lon="38.867917"><ele>111.0</ele><time>2026-01-31T13:21:32Z</time></trkpt><trkpt lat="58.330605" lon="38.867875"><ele>110.6</ele><time>2026-01-31T13:21:39Z</time></trkpt><trkpt lat="58.33055" lon="38.867822"><ele>110.9</ele><time>2026-01-31T13:21:46Z</time></trkpt><trkpt lat="58.33049" lon="38.867765"><ele>111.1</ele><time>2026-01-31T13:21:54Z</time></trkpt><trkpt lat="58.330433" lon="38.867705"><ele>111.1</ele><time>2026-01-31T13:22:01Z</time></trkpt><trkpt lat="58.33038" lon="38.867655"><ele>110.8</ele><time>2026-01-31T13:22:07Z</time></trkpt><trkpt lat="58.33032" lon="38.867597"><ele>111.0</ele><time>2026-01-31T13:22:15Z</time></trkpt><trkpt lat="58.330265" lon="38.867545"><ele>111.8</ele><time>2026-01-31T13:22:21Z</time></trkpt><trkpt lat="58.330205" lon="38.8675"><ele>111.1</ele><time>2026-01-31T13:22:28Z</time></trkpt><trkpt lat="58.330155" lon="38.867457"><ele>110.9</ele><time>2026-01-31T13:22:35Z</time></trkpt><trkpt lat="58.3301" lon="38.867405"><ele>111.2</ele><time>2026-01-31T13:22:42Z</time></trkpt><trkpt lat="58.33004" lon="38.86735"><ele>111.0</ele><time>2026-01-31T13:22:49Z</time></trkpt><trkpt lat="58.329985" lon="38.867305"><ele>110.9</ele><time>2026-01-31T13:22:57Z</time></trkpt><trkpt lat="58.329922" lon="38.86725"><ele>110.9</ele><time>2026-01-31T13:23:03Z</time></trkpt><trkpt lat="58.329862" lon="38.867195"><ele>111.3</ele><time>2026-01-31T13:23:10Z</time></trkpt><trkpt lat="58.32981" lon="38.867165"><ele>112.3</ele><time>2026-01-31T13:23:17Z</time></trkpt><trkpt lat="58.329748" lon="38.86712"><ele>111.6</ele><time>2026-01-31T13:23:24Z</time></trkpt><trkpt lat="58.329695" lon="38.867075"><ele>110.8</ele><time>2026-01-31T13:23:31Z</time></trkpt><trkpt lat="58.329635" lon="38.867025"><ele>111.6</ele><time>2026-01-31T13:23:38Z</time></trkpt><trkpt lat="58.32957" lon="38.866965"><ele>111.3</ele><time>2026-01-31T13:23:46Z</time></trkpt><trkpt lat="58.329502" lon="38.866905"><ele>110.6</ele><time>2026-01-31T13:23:53Z</time></trkpt><trkpt lat="58.329435" lon="38.86685"><ele>110.1</ele><time>2026-01-31T13:24:00Z</time></trkpt><trkpt lat="58.32936" lon="38.866785"><ele>110.5</ele><time>2026-01-31T13:24:06Z</time></trkpt><trkpt lat="58.329297" lon="38.8667"><ele>111.6</ele><time>2026-01-31T13:24:13Z</time></trkpt><trkpt lat="58.329227" lon="38.86665"><ele>111.7</ele><time>2026-01-31T13:24:20Z</time></trkpt><trkpt lat="58.329165" lon="38.866605"><ele>111.3</ele><time>2026-01-31T13:24:28Z</time></trkpt><trkpt lat="58.329122" lon="38.866595"><ele>110.8</ele><time>2026-01-31T13:24:34Z</time></trkpt><trkpt lat="58.329055" lon="38.866547"><ele>111.0</ele><time>2026-01-31T13:24:42Z</time></trkpt><trkpt lat="58.328997" lon="38.866495"><ele>110.2</ele><time>2026-01-31T13:24:49Z</time></trkpt><trkpt lat="58.32897" lon="38.86648"><ele>111.4</ele><time>2026-01-31T13:24:56Z</time></trkpt><trkpt lat="58.328915" lon="38.866435"><ele>111.3</ele><time>2026-01-31T13:25:03Z</time></trkpt><trkpt lat="58.32886" lon="38.866402"><ele>111.0</ele><time>2026-01-31T13:25:10Z</time></trkpt><trkpt lat="58.328805" lon="38.86636"><ele>111.0</ele><time>2026-01-31T13:25:17Z</time></trkpt><trkpt lat="58.328742" lon="38.86631"><ele>111.2</ele><time>2026-01-31T13:25:24Z</time></trkpt><trkpt lat="58.32868" lon="38.866262"><ele>111.0</ele><time>2026-01-31T13:25:31Z</time></trkpt><trkpt lat="58.328615" lon="38.86621"><ele>110.8</ele><time>2026-01-31T13:25:38Z</time></trkpt><trkpt lat="58.328552" lon="38.866163"><ele>111.1</ele><time>2026-01-31T13:25:45Z</time></trkpt><trkpt lat="58.328492" lon="38.866115"><ele>111.1</ele><time>2026-01-31T13:25:52Z</time></trkpt><trkpt lat="58.32843" lon="38.866065"><ele>111.6</ele><time>2026-01-31T13:25:59Z</time></trkpt><trkpt lat="58.328375" lon="38.866017"><ele>111.3</ele><time>2026-01-31T13:26:06Z</time></trkpt><trkpt lat="58.328315" lon="38.865972"><ele>111.5</ele><time>2026-01-31T13:26:13Z</time></trkpt><trkpt lat="58.328255" lon="38.865932"><ele>111.9</ele><time>2026-01-31T13:26:19Z</time></trkpt><trkpt lat="58.3282" lon="38.86589"><ele>111.5</ele><time>2026-01-31T13:26:26Z</time></trkpt><trkpt lat="58.32815" lon="38.865855"><ele>111.4</ele><time>2026-01-31T13:26:34Z</time></trkpt><trkpt lat="58.32812" lon="38.865835"><ele>111.4</ele><time>2026-01-31T13:26:41Z</time></trkpt><trkpt lat="58.328062" lon="38.865822"><ele>110.9</ele><time>2026-01-31T13:26:47Z</time></trkpt><trkpt lat="58.328002" lon="38.865777"><ele>112.2</ele><time>2026-01-31T13:26:55Z</time></trkpt><trkpt lat="58.327945" lon="38.86572"><ele>112.1</ele><time>2026-01-31T13:27:02Z</time></trkpt><trkpt lat="58.32789" lon="38.86567"><ele>111.3</ele><time>2026-01-31T13:27:09Z</time></trkpt><trkpt lat="58.32784" lon="38.865627"><ele>111.7</ele><time>2026-01-31T13:27:15Z</time></trkpt><trkpt lat="58.32782" lon="38.86562"><ele>111.9</ele><time>2026-01-31T13:27:23Z</time></trkpt><trkpt lat="58.327765" lon="38.865587"><ele>112.2</ele><time>2026-01-31T13:27:30Z</time></trkpt><trkpt lat="58.327703" lon="38.86554"><ele>111.6</ele><time>2026-01-31T13:27:37Z</time></trkpt><trkpt lat="58.327637" lon="38.865485"><ele>111.5</ele><time>2026-01-31T13:27:44Z</time></trkpt><trkpt lat="58.327585" lon="38.865435"><ele>111.2</ele><time>2026-01-31T13:27:51Z</time></trkpt><trkpt lat="58.327552" lon="38.86542"><ele>110.8</ele><time>2026-01-31T13:27:58Z</time></trkpt><trkpt lat="58.327495" lon="38.86537"><ele>111.2</ele><time>2026-01-31T13:28:05Z</time></trkpt><trkpt lat="58.32745" lon="38.86532"><ele>111.5</ele><time>2026-01-31T13:28:12Z</time></trkpt><trkpt lat="58.327447" lon="38.865295"><ele>111.3</ele><time>2026-01-31T13:28:19Z</time></trkpt><trkpt lat="58.327445" lon="38.865295"><ele>111.4</ele><time>2026-01-31T13:28:20Z</time></trkpt><trkpt lat="58.327395" lon="38.865272"><ele>111.4</ele><time>2026-01-31T13:28:26Z</time></trkpt><trkpt lat="58.327328" lon="38.865205"><ele>112.0</ele><time>2026-01-31T13:28:34Z</time></trkpt><trkpt lat="58.32727" lon="38.865135"><ele>112.2</ele><time>2026-01-31T13:28:41Z</time></trkpt><trkpt lat="58.327205" lon="38.86508"><ele>112.1</ele><time>2026-01-31T13:28:48Z</time></trkpt><trkpt lat="58.32714" lon="38.865015"><ele>112.1</ele><time>2026-01-31T13:28:55Z</time></trkpt><trkpt lat="58.327077" lon="38.864965"><ele>111.4</ele><time>2026-01-31T13:29:02Z</time></trkpt><trkpt lat="58.327015" lon="38.864905"><ele>111.5</ele><time>2026-01-31T13:29:09Z</time></trkpt><trkpt lat="58.326952" lon="38.86484"><ele>111.4</ele><time>2026-01-31T13:29:16Z</time></trkpt><trkpt lat="58.32689" lon="38.86478"><ele>110.6</ele><time>2026-01-31T13:29:23Z</time></trkpt><trkpt lat="58.326825" lon="38.864732"><ele>109.9</ele><time>2026-01-31T13:29:29Z</time></trkpt><trkpt lat="58.32676" lon="38.86469"><ele>109.4</ele><time>2026-01-31T13:29:37Z</time></trkpt><trkpt lat="58.32669" lon="38.86464"><ele>110.6</ele><time>2026-01-31T13:29:44Z</time></trkpt><trkpt lat="58.326625" lon="38.86459"><ele>110.5</ele><time>2026-01-31T13:29:51Z</time></trkpt><trkpt lat="58.32658" lon="38.86455"><ele>110.6</ele><time>2026-01-31T13:29:58Z</time></trkpt><trkpt lat="58.326582" lon="38.86455"><ele>110.6</ele><time>2026-01-31T13:30:03Z</time></trkpt><trkpt lat="58.326582" lon="38.864572"><ele>111.6</ele><time>2026-01-31T13:30:25Z</time></trkpt><trkpt lat="58.326582" lon="38.864572"><ele>111.6</ele><time>2026-01-31T13:30:26Z</time></trkpt><trkpt lat="58.326563" lon="38.864557"><ele>110.9</ele><time>2026-01-31T13:30:51Z</time></trkpt><trkpt lat="58.326563" lon="38.864572"><ele>110.6</ele><time>2026-01-31T13:30:59Z</time></trkpt><trkpt lat="58.326563" lon="38.864577"><ele>110.4</ele><time>2026-01-31T13:31:06Z</time></trkpt><trkpt lat="58.326575" lon="38.864578"><ele>110.4</ele><time>2026-01-31T13:31:20Z</time></trkpt><trkpt lat="58.326575" lon="38.864578"><ele>110.4</ele><time>2026-01-31T13:31:21Z</time></trkpt><trkpt lat="58.32653" lon="38.86453"><ele>110.9</ele><time>2026-01-31T13:31:53Z</time></trkpt><trkpt lat="58.326477" lon="38.864493"><ele>111.4</ele><time>2026-01-31T13:32:00Z</time></trkpt><trkpt lat="58.326425" lon="38.864457"><ele>112.3</ele><time>2026-01-31T13:32:07Z</time></trkpt><trkpt lat="58.326367" lon="38.864417"><ele>112.6</ele><time>2026-01-31T13:32:14Z</time></trkpt><trkpt lat="58.32631" lon="38.86438"><ele>112.6</ele><time>2026-01-31T13:32:21Z</time></trkpt><trkpt lat="58.326247" lon="38.864337"><ele>111.4</ele><time>2026-01-31T13:32:28Z</time></trkpt><trkpt lat="58.326182" lon="38.864295"><ele>111.2</ele><time>2026-01-31T13:32:34Z</time></trkpt><trkpt lat="58.32613" lon="38.864268"><ele>110.3</ele><time>2026-01-31T13:32:42Z</time></trkpt><trkpt lat="58.326115" lon="38.864267"><ele>110.7</ele><time>2026-01-31T13:32:49Z</time></trkpt><trkpt lat="58.326067" lon="38.86423"><ele>110.0</ele><time>2026-01-31T13:32:55Z</time></trkpt><trkpt lat="58.32601" lon="38.864192"><ele>110.3</ele><time>2026-01-31T13:33:03Z</time></trkpt><trkpt lat="58.32595" lon="38.864145"><ele>110.2</ele><time>2026-01-31T13:33:10Z</time></trkpt><trkpt lat="58.325878" lon="38.864097"><ele>110.2</ele><time>2026-01-31T13:33:17Z</time></trkpt><trkpt lat="58.325815" lon="38.86405"><ele>110.1</ele><time>2026-01-31T13:33:24Z</time></trkpt><trkpt lat="58.325745" lon="38.863997"><ele>110.6</ele><time>2026-01-31T13:33:31Z</time></trkpt><trkpt lat="58.32569" lon="38.86394"><ele>110.4</ele><time>2026-01-31T13:33:38Z</time></trkpt><trkpt lat="58.32563" lon="38.863875"><ele>110.3</ele><time>2026-01-31T13:33:45Z</time></trkpt><trkpt lat="58.32557" lon="38.863817"><ele>109.9</ele><time>2026-01-31T13:33:52Z</time></trkpt><trkpt lat="58.32552" lon="38.863755"><ele>110.0</ele><time>2026-01-31T13:33:58Z</time></trkpt><trkpt lat="58.32546" lon="38.8637"><ele>110.3</ele><time>2026-01-31T13:34:06Z</time></trkpt><trkpt lat="58.3254" lon="38.86365"><ele>110.7</ele><time>2026-01-31T13:34:13Z</time></trkpt><trkpt lat="58.325342" lon="38.863592"><ele>110.8</ele><time>2026-01-31T13:34:20Z</time></trkpt><trkpt lat="58.32529" lon="38.86353"><ele>111.8</ele><time>2026-01-31T13:34:26Z</time></trkpt><trkpt lat="58.32524" lon="38.863485"><ele>112.1</ele><time>2026-01-31T13:34:34Z</time></trkpt><trkpt lat="58.325185" lon="38.863442"><ele>112.6</ele><time>2026-01-31T13:34:41Z</time></trkpt><trkpt lat="58.325125" lon="38.863385"><ele>112.6</ele><time>2026-01-31T13:34:48Z</time></trkpt><trkpt lat="58.325065" lon="38.86332"><ele>112.6</ele><time>2026-01-31T13:34:55Z</time></trkpt><trkpt lat="58.325005" lon="38.863262"><ele>112.1</ele><time>2026-01-31T13:35:02Z</time></trkpt><trkpt lat="58.324945" lon="38.863205"><ele>112.2</ele><time>2026-01-31T13:35:09Z</time></trkpt><trkpt lat="58.32489" lon="38.863145"><ele>111.9</ele><time>2026-01-31T13:35:16Z</time></trkpt><trkpt lat="58.324827" lon="38.86308"><ele>112.1</ele><time>2026-01-31T13:35:23Z</time></trkpt><trkpt lat="58.324765" lon="38.86302"><ele>112.2</ele><time>2026-01-31T13:35:30Z</time></trkpt><trkpt lat="58.32475" lon="38.863015"><ele>112.4</ele><time>2026-01-31T13:35:37Z</time></trkpt><trkpt lat="58.32475" lon="38.863015"><ele>112.4</ele><time>2026-01-31T13:35:39Z</time></trkpt><trkpt lat="58.324715" lon="38.862977"><ele>112.2</ele><time>2026-01-31T13:35:51Z</time></trkpt><trkpt lat="58.324683" lon="38.862955"><ele>111.6</ele><time>2026-01-31T13:35:58Z</time></trkpt><trkpt lat="58.324625" lon="38.862897"><ele>111.4</ele><time>2026-01-31T13:36:05Z</time></trkpt><trkpt lat="58.324555" lon="38.86284"><ele>111.3</ele><time>2026-01-31T13:36:12Z</time></trkpt><trkpt lat="58.32449" lon="38.86278"><ele>111.5</ele><time>2026-01-31T13:36:19Z</time></trkpt><trkpt lat="58.324435" lon="38.86272"><ele>111.4</ele><time>2026-01-31T13:36:26Z</time></trkpt><trkpt lat="58.324385" lon="38.86267"><ele>111.7</ele><time>2026-01-31T13:36:33Z</time></trkpt><trkpt lat="58.32433" lon="38.862602"><ele>111.9</ele><time>2026-01-31T13:36:40Z</time></trkpt><trkpt lat="58.324272" lon="38.86253"><ele>112.3</ele><time>2026-01-31T13:36:47Z</time></trkpt><trkpt lat="58.324213" lon="38.862453"><ele>112.3</ele><time>2026-01-31T13:36:54Z</time></trkpt><trkpt lat="58.32416" lon="38.862383"><ele>113.4</ele><time>2026-01-31T13:37:01Z</time></trkpt><trkpt lat="58.324105" lon="38.862307"><ele>113.0</ele><time>2026-01-31T13:37:08Z</time></trkpt><trkpt lat="58.32405" lon="38.862228"><ele>112.1</ele><time>2026-01-31T13:37:15Z</time></trkpt><trkpt lat="58.323992" lon="38.862162"><ele>112.0</ele><time>2026-01-31T13:37:22Z</time></trkpt><trkpt lat="58.323935" lon="38.862092"><ele>112.2</ele><time>2026-01-31T13:37:29Z</time></trkpt><trkpt lat="58.323877" lon="38.86202"><ele>112.0</ele><time>2026-01-31T13:37:36Z</time></trkpt><trkpt lat="58.32382" lon="38.86195"><ele>112.4</ele><time>2026-01-31T13:37:43Z</time></trkpt><trkpt lat="58.323765" lon="38.861875"><ele>112.3</ele><time>2026-01-31T13:37:50Z</time></trkpt><trkpt lat="58.32371" lon="38.86181"><ele>112.1</ele><time>2026-01-31T13:37:57Z</time></trkpt><trkpt lat="58.32366" lon="38.86175"><ele>112.8</ele><time>2026-01-31T13:38:04Z</time></trkpt><trkpt lat="58.3236" lon="38.861677"><ele>112.1</ele><time>2026-01-31T13:38:11Z</time></trkpt><trkpt lat="58.323543" lon="38.861615"><ele>111.4</ele><time>2026-01-31T13:38:18Z</time></trkpt><trkpt lat="58.32349" lon="38.861553"><ele>111.6</ele><time>2026-01-31T13:38:25Z</time></trkpt><trkpt lat="58.323442" lon="38.86149"><ele>112.0</ele><time>2026-01-31T13:38:32Z</time></trkpt><trkpt lat="58.323445" lon="38.86148"><ele>111.5</ele><time>2026-01-31T13:38:39Z</time></trkpt><trkpt lat="58.323445" lon="38.86148"><ele>111.5</ele><time>2026-01-31T13:38:40Z</time></trkpt><trkpt lat="58.323435" lon="38.861495"><ele>112.1</ele><time>2026-01-31T13:39:06Z</time></trkpt><trkpt lat="58.323435" lon="38.861495"><ele>112.0</ele><time>2026-01-31T13:39:07Z</time></trkpt><trkpt lat="58.323445" lon="38.861495"><ele>111.8</ele><time>2026-01-31T13:39:26Z</time></trkpt><trkpt lat="58.323445" lon="38.861495"><ele>111.8</ele><time>2026-01-31T13:39:27Z</time></trkpt><trkpt lat="58.32342" lon="38.861487"><ele>110.5</ele><time>2026-01-31T13:40:03Z</time></trkpt><trkpt lat="58.323377" lon="38.86143"><ele>110.1</ele><time>2026-01-31T13:40:10Z</time></trkpt><trkpt lat="58.323325" lon="38.861367"><ele>110.3</ele><time>2026-01-31T13:40:17Z</time></trkpt><trkpt lat="58.323275" lon="38.861308"><ele>110.4</ele><time>2026-01-31T13:40:24Z</time></trkpt><trkpt lat="58.323225" lon="38.861255"><ele>110.8</ele><time>2026-01-31T13:40:31Z</time></trkpt><trkpt lat="58.323175" lon="38.861195"><ele>110.9</ele><time>2026-01-31T13:40:38Z</time></trkpt><trkpt lat="58.32312" lon="38.86115"><ele>110.4</ele><time>2026-01-31T13:40:45Z</time></trkpt><trkpt lat="58.323067" lon="38.861115"><ele>111.2</ele><time>2026-01-31T13:40:52Z</time></trkpt><trkpt lat="58.323027" lon="38.861042"><ele>110.9</ele><time>2026-01-31T13:40:59Z</time></trkpt><trkpt lat="58.32299" lon="38.860995"><ele>110.6</ele><time>2026-01-31T13:41:06Z</time></trkpt><trkpt lat="58.322945" lon="38.86095"><ele>111.2</ele><time>2026-01-31T13:41:13Z</time></trkpt><trkpt lat="58.322895" lon="38.860905"><ele>111.1</ele><time>2026-01-31T13:41:20Z</time></trkpt><trkpt lat="58.322848" lon="38.860867"><ele>111.8</ele><time>2026-01-31T13:41:27Z</time></trkpt><trkpt lat="58.322847" lon="38.86087"><ele>112.1</ele><time>2026-01-31T13:41:31Z</time></trkpt><trkpt lat="58.322782" lon="38.86081"><ele>112.3</ele><time>2026-01-31T13:41:48Z</time></trkpt><trkpt lat="58.322777" lon="38.86079"><ele>112.4</ele><time>2026-01-31T13:41:55Z</time></trkpt><trkpt lat="58.32278" lon="38.860785"><ele>111.4</ele><time>2026-01-31T13:42:09Z</time></trkpt><trkpt lat="58.32278" lon="38.860785"><ele>111.4</ele><time>2026-01-31T13:42:10Z</time></trkpt><trkpt lat="58.322775" lon="38.860775"><ele>110.4</ele><time>2026-01-31T13:42:53Z</time></trkpt><trkpt lat="58.322775" lon="38.860775"><ele>110.4</ele><time>2026-01-31T13:42:54Z</time></trkpt><trkpt lat="58.32278" lon="38.860775"><ele>110.1</ele><time>2026-01-31T13:43:55Z</time></trkpt><trkpt lat="58.32278" lon="38.860775"><ele>110.1</ele><time>2026-01-31T13:43:56Z</time></trkpt><trkpt lat="58.322777" lon="38.86079"><ele>110.1</ele><time>2026-01-31T13:44:21Z</time></trkpt><trkpt lat="58.322775" lon="38.860787"><ele>110.2</ele><time>2026-01-31T13:44:22Z</time></trkpt><trkpt lat="58.322732" lon="38.860745"><ele>109.5</ele><time>2026-01-31T13:44:35Z</time></trkpt><trkpt lat="58.32267" lon="38.860695"><ele>109.5</ele><time>2026-01-31T13:44:42Z</time></trkpt><trkpt lat="58.32261" lon="38.860638"><ele>109.2</ele><time>2026-01-31T13:44:49Z</time></trkpt><trkpt lat="58.322557" lon="38.860595"><ele>109.3</ele><time>2026-01-31T13:44:56Z</time></trkpt><trkpt lat="58.322512" lon="38.86055"><ele>108.9</ele><time>2026-01-31T13:45:03Z</time></trkpt><trkpt lat="58.32246" lon="38.860505"><ele>109.0</ele><time>2026-01-31T13:45:10Z</time></trkpt><trkpt lat="58.32241" lon="38.860465"><ele>108.7</ele><time>2026-01-31T13:45:17Z</time></trkpt><trkpt lat="58.322392" lon="38.860445"><ele>108.6</ele><time>2026-01-31T13:45:24Z</time></trkpt><trkpt lat="58.32239" lon="38.860435"><ele>108.9</ele><time>2026-01-31T13:45:26Z</time></trkpt><trkpt lat="58.32237" lon="38.86041"><ele>109.5</ele><time>2026-01-31T13:45:33Z</time></trkpt><trkpt lat="58.322305" lon="38.86037"><ele>110.0</ele><time>2026-01-31T13:45:40Z</time></trkpt><trkpt lat="58.32224" lon="38.8603"><ele>111.6</ele><time>2026-01-31T13:45:47Z</time></trkpt><trkpt lat="58.322175" lon="38.860258"><ele>111.8</ele><time>2026-01-31T13:45:54Z</time></trkpt><trkpt lat="58.322115" lon="38.86023"><ele>111.4</ele><time>2026-01-31T13:46:01Z</time></trkpt><trkpt lat="58.322055" lon="38.860207"><ele>111.6</ele><time>2026-01-31T13:46:08Z</time></trkpt><trkpt lat="58.322" lon="38.860188"><ele>112.0</ele><time>2026-01-31T13:46:15Z</time></trkpt><trkpt lat="58.321935" lon="38.86018"><ele>111.8</ele><time>2026-01-31T13:46:22Z</time></trkpt><trkpt lat="58.321875" lon="38.860173"><ele>111.3</ele><time>2026-01-31T13:46:29Z</time></trkpt><trkpt lat="58.32182" lon="38.86015"><ele>111.2</ele><time>2026-01-31T13:46:36Z</time></trkpt><trkpt lat="58.321755" lon="38.860118"><ele>111.1</ele><time>2026-01-31T13:46:43Z</time></trkpt><trkpt lat="58.3217" lon="38.860085"><ele>111.3</ele><time>2026-01-31T13:46:50Z</time></trkpt><trkpt lat="58.321642" lon="38.860045"><ele>111.5</ele><time>2026-01-31T13:46:57Z</time></trkpt><trkpt lat="58.321585" lon="38.86001"><ele>111.6</ele><time>2026-01-31T13:47:04Z</time></trkpt><trkpt lat="58.321525" lon="38.86002"><ele>111.6</ele><time>2026-01-31T13:47:11Z</time></trkpt><trkpt lat="58.321505" lon="38.86002"><ele>112.0</ele><time>2026-01-31T13:47:18Z</time></trkpt><trkpt lat="58.321505" lon="38.860027"><ele>111.8</ele><time>2026-01-31T13:47:20Z</time></trkpt><trkpt lat="58.321457" lon="38.86002"><ele>111.7</ele><time>2026-01-31T13:47:45Z</time></trkpt><trkpt lat="58.3214" lon="38.86002"><ele>110.4</ele><time>2026-01-31T13:47:52Z</time></trkpt><trkpt lat="58.32134" lon="38.86001"><ele>110.3</ele><time>2026-01-31T13:47:59Z</time></trkpt><trkpt lat="58.32128" lon="38.859995"><ele>110.7</ele><time>2026-01-31T13:48:06Z</time></trkpt><trkpt lat="58.321215" lon="38.859975"><ele>110.3</ele><time>2026-01-31T13:48:13Z</time></trkpt><trkpt lat="58.321157" lon="38.859962"><ele>110.7</ele><time>2026-01-31T13:48:20Z</time></trkpt><trkpt lat="58.321102" lon="38.859962"><ele>111.1</ele><time>2026-01-31T13:48:27Z</time></trkpt><trkpt lat="58.321038" lon="38.859967"><ele>111.8</ele><time>2026-01-31T13:48:34Z</time></trkpt><trkpt lat="58.320985" lon="38.85998"><ele>111.3</ele><time>2026-01-31T13:48:41Z</time></trkpt><trkpt lat="58.320932" lon="38.860005"><ele>111.2</ele><time>2026-01-31T13:48:48Z</time></trkpt><trkpt lat="58.320877" lon="38.860045"><ele>110.9</ele><time>2026-01-31T13:48:55Z</time></trkpt><trkpt lat="58.320817" lon="38.860065"><ele>111.6</ele><time>2026-01-31T13:49:02Z</time></trkpt><trkpt lat="58.32076" lon="38.860065"><ele>111.9</ele><time>2026-01-31T13:49:09Z</time></trkpt><trkpt lat="58.3207" lon="38.860057"><ele>111.8</ele><time>2026-01-31T13:49:16Z</time></trkpt><trkpt lat="58.32065" lon="38.86004"><ele>111.9</ele><time>2026-01-31T13:49:23Z</time></trkpt><trkpt lat="58.320605" lon="38.860033"><ele>111.7</ele><time>2026-01-31T13:49:30Z</time></trkpt><trkpt lat="58.320555" lon="38.860035"><ele>112.4</ele><time>2026-01-31T13:49:37Z</time></trkpt><trkpt lat="58.320515" lon="38.860015"><ele>112.2</ele><time>2026-01-31T13:49:44Z</time></trkpt><trkpt lat="58.32046" lon="38.86001"><ele>112.5</ele><time>2026-01-31T13:49:51Z</time></trkpt><trkpt lat="58.3204" lon="38.86"><ele>112.4</ele><time>2026-01-31T13:49:58Z</time></trkpt><trkpt lat="58.32033" lon="38.859992"><ele>113.0</ele><time>2026-01-31T13:50:05Z</time></trkpt><trkpt lat="58.320265" lon="38.85998"><ele>113.7</ele><time>2026-01-31T13:50:12Z</time></trkpt><trkpt lat="58.3202" lon="38.86"><ele>114.4</ele><time>2026-01-31T13:50:19Z</time></trkpt><trkpt lat="58.320123" lon="38.860037"><ele>114.3</ele><time>2026-01-31T13:50:26Z</time></trkpt><trkpt lat="58.320065" lon="38.86004"><ele>114.3</ele><time>2026-01-31T13:50:33Z</time></trkpt><trkpt lat="58.320002" lon="38.86001"><ele>113.7</ele><time>2026-01-31T13:50:40Z</time></trkpt><trkpt lat="58.319935" lon="38.859962"><ele>113.6</ele><time>2026-01-31T13:50:47Z</time></trkpt><trkpt lat="58.31987" lon="38.859925"><ele>113.8</ele><time>2026-01-31T13:50:54Z</time></trkpt><trkpt lat="58.319807" lon="38.85993"><ele>113.8</ele><time>2026-01-31T13:51:01Z</time></trkpt><trkpt lat="58.31975" lon="38.859932"><ele>113.5</ele><time>2026-01-31T13:51:08Z</time></trkpt><trkpt lat="58.31969" lon="38.859892"><ele>113.4</ele><time>2026-01-31T13:51:15Z</time></trkpt><trkpt lat="58.31963" lon="38.859877"><ele>113.9</ele><time>2026-01-31T13:51:22Z</time></trkpt><trkpt lat="58.31957" lon="38.859895"><ele>113.8</ele><time>2026-01-31T13:51:29Z</time></trkpt><trkpt lat="58.319545" lon="38.85985"><ele>113.4</ele><time>2026-01-31T13:51:36Z</time></trkpt><trkpt lat="58.31955" lon="38.859845"><ele>113.1</ele><time>2026-01-31T13:51:41Z</time></trkpt><trkpt lat="58.319517" lon="38.85992"><ele>113.3</ele><time>2026-01-31T13:52:54Z</time></trkpt><trkpt lat="58.31947" lon="38.85994"><ele>113.9</ele><time>2026-01-31T13:53:01Z</time></trkpt><trkpt lat="58.31942" lon="38.859962"><ele>113.6</ele><time>2026-01-31T13:53:08Z</time></trkpt><trkpt lat="58.31935" lon="38.86"><ele>113.4</ele><time>2026-01-31T13:53:15Z</time></trkpt><trkpt lat="58.319282" lon="38.860032"><ele>113.2</ele><time>2026-01-31T13:53:22Z</time></trkpt><trkpt lat="58.31923" lon="38.860102"><ele>113.2</ele><time>2026-01-31T13:53:29Z</time></trkpt><trkpt lat="58.31918" lon="38.86017"><ele>114.4</ele><time>2026-01-31T13:53:36Z</time></trkpt><trkpt lat="58.319152" lon="38.860205"><ele>115.3</ele><time>2026-01-31T13:53:43Z</time></trkpt><trkpt lat="58.319152" lon="38.8602"><ele>115.2</ele><time>2026-01-31T13:53:47Z</time></trkpt><trkpt lat="58.319115" lon="38.860262"><ele>115.9</ele><time>2026-01-31T13:53:55Z</time></trkpt><trkpt lat="58.319095" lon="38.860285"><ele>115.1</ele><time>2026-01-31T13:54:02Z</time></trkpt><trkpt lat="58.31911" lon="38.860222"><ele>114.6</ele><time>2026-01-31T13:54:09Z</time></trkpt><trkpt lat="58.31911" lon="38.86022"><ele>114.9</ele><time>2026-01-31T13:54:13Z</time></trkpt><trkpt lat="58.31911" lon="38.860205"><ele>114.1</ele><time>2026-01-31T13:54:22Z</time></trkpt><trkpt lat="58.319107" lon="38.860205"><ele>114.1</ele><time>2026-01-31T13:54:23Z</time></trkpt><trkpt lat="58.31911" lon="38.860252"><ele>115.4</ele><time>2026-01-31T13:54:53Z</time></trkpt><trkpt lat="58.31911" lon="38.860257"><ele>115.5</ele><time>2026-01-31T13:54:54Z</time></trkpt><trkpt lat="58.31912" lon="38.86024"><ele>116.0</ele><time>2026-01-31T13:55:13Z</time></trkpt><trkpt lat="58.31912" lon="38.860225"><ele>115.4</ele><time>2026-01-31T13:55:20Z</time></trkpt><trkpt lat="58.31912" lon="38.860225"><ele>115.4</ele><time>2026-01-31T13:55:21Z</time></trkpt><trkpt lat="58.319085" lon="38.860188"><ele>112.7</ele><time>2026-01-31T13:55:29Z</time></trkpt><trkpt lat="58.31908" lon="38.860195"><ele>112.3</ele><time>2026-01-31T13:55:34Z</time></trkpt><trkpt lat="58.31908" lon="38.860172"><ele>111.9</ele><time>2026-01-31T13:56:13Z</time></trkpt><trkpt lat="58.31908" lon="38.860172"><ele>111.9</ele><time>2026-01-31T13:56:14Z</time></trkpt><trkpt lat="58.319085" lon="38.860187"><ele>111.7</ele><time>2026-01-31T13:57:45Z</time></trkpt><trkpt lat="58.319085" lon="38.860187"><ele>111.7</ele><time>2026-01-31T13:57:46Z</time></trkpt><trkpt lat="58.31912" lon="38.860197"><ele>113.2</ele><time>2026-01-31T13:58:00Z</time></trkpt><trkpt lat="58.319125" lon="38.860227"><ele>114.0</ele><time>2026-01-31T13:58:07Z</time></trkpt><trkpt lat="58.319122" lon="38.860225"><ele>114.0</ele><time>2026-01-31T13:58:08Z</time></trkpt><trkpt lat="58.31912" lon="38.860235"><ele>114.6</ele><time>2026-01-31T13:58:23Z</time></trkpt><trkpt lat="58.31912" lon="38.86024"><ele>114.9</ele><time>2026-01-31T13:58:24Z</time></trkpt><trkpt lat="58.31909" lon="38.86029"><ele>115.3</ele><time>2026-01-31T13:58:32Z</time></trkpt><trkpt lat="58.31904" lon="38.860327"><ele>115.6</ele><time>2026-01-31T13:58:39Z</time></trkpt><trkpt lat="58.318995" lon="38.860352"><ele>115.7</ele><time>2026-01-31T13:58:46Z</time></trkpt><trkpt lat="58.31894" lon="38.86037"><ele>115.0</ele><time>2026-01-31T13:58:53Z</time></trkpt><trkpt lat="58.31888" lon="38.86039"><ele>115.7</ele><time>2026-01-31T13:59:00Z</time></trkpt><trkpt lat="58.31882" lon="38.860405"><ele>115.7</ele><time>2026-01-31T13:59:07Z</time></trkpt><trkpt lat="58.31877" lon="38.86041"><ele>116.2</ele><time>2026-01-31T13:59:14Z</time></trkpt><trkpt lat="58.31872" lon="38.860417"><ele>116.0</ele><time>2026-01-31T13:59:21Z</time></trkpt><trkpt lat="58.318675" lon="38.86042"><ele>115.7</ele><time>2026-01-31T13:59:28Z</time></trkpt><trkpt lat="58.318615" lon="38.86044"><ele>115.4</ele><time>2026-01-31T13:59:35Z</time></trkpt><trkpt lat="58.318555" lon="38.86044"><ele>115.3</ele><time>2026-01-31T13:59:42Z</time></trkpt><trkpt lat="58.318495" lon="38.860437"><ele>115.0</ele><time>2026-01-31T13:59:49Z</time></trkpt><trkpt lat="58.318435" lon="38.860412"><ele>114.4</ele><time>2026-01-31T13:59:56Z</time></trkpt><trkpt lat="58.318378" lon="38.86038"><ele>112.9</ele><time>2026-01-31T14:00:03Z</time></trkpt><trkpt lat="58.318317" lon="38.86039"><ele>114.4</ele><time>2026-01-31T14:00:10Z</time></trkpt><trkpt lat="58.318265" lon="38.860407"><ele>114.4</ele><time>2026-01-31T14:00:17Z</time></trkpt><trkpt lat="58.318215" lon="38.860412"><ele>114.6</ele><time>2026-01-31T14:00:24Z</time></trkpt><trkpt lat="58.31816" lon="38.860395"><ele>114.8</ele><time>2026-01-31T14:00:31Z</time></trkpt><trkpt lat="58.31811" lon="38.860395"><ele>114.2</ele><time>2026-01-31T14:00:38Z</time></trkpt><trkpt lat="58.31806" lon="38.86039"><ele>114.2</ele><time>2026-01-31T14:00:45Z</time></trkpt><trkpt lat="58.318005" lon="38.860385"><ele>114.3</ele><time>2026-01-31T14:00:52Z</time></trkpt><trkpt lat="58.318005" lon="38.86038"><ele>114.3</ele><time>2026-01-31T14:00:58Z</time></trkpt><trkpt lat="58.317957" lon="38.860385"><ele>113.2</ele><time>2026-01-31T14:01:14Z</time></trkpt><trkpt lat="58.317905" lon="38.860397"><ele>113.8</ele><time>2026-01-31T14:01:21Z</time></trkpt><trkpt lat="58.317852" lon="38.860425"><ele>114.2</ele><time>2026-01-31T14:01:28Z</time></trkpt><trkpt lat="58.3178" lon="38.86045"><ele>114.5</ele><time>2026-01-31T14:01:35Z</time></trkpt><trkpt lat="58.317755" lon="38.860495"><ele>114.0</ele><time>2026-01-31T14:01:42Z</time></trkpt><trkpt lat="58.31771" lon="38.860553"><ele>113.7</ele><time>2026-01-31T14:01:49Z</time></trkpt><trkpt lat="58.317703" lon="38.860572"><ele>113.8</ele><time>2026-01-31T14:01:56Z</time></trkpt><trkpt lat="58.317702" lon="38.860575"><ele>113.7</ele><time>2026-01-31T14:01:58Z</time></trkpt><trkpt lat="58.317685" lon="38.86062"><ele>113.6</ele><time>2026-01-31T14:02:06Z</time></trkpt><trkpt lat="58.31765" lon="38.860722"><ele>113.7</ele><time>2026-01-31T14:02:13Z</time></trkpt><trkpt lat="58.317587" lon="38.860785"><ele>113.6</ele><time>2026-01-31T14:02:20Z</time></trkpt><trkpt lat="58.317525" lon="38.860792"><ele>113.0</ele><time>2026-01-31T14:02:27Z</time></trkpt><trkpt lat="58.31747" lon="38.860785"><ele>112.4</ele><time>2026-01-31T14:02:34Z</time></trkpt><trkpt lat="58.317415" lon="38.86081"><ele>112.3</ele><time>2026-01-31T14:02:41Z</time></trkpt><trkpt lat="58.317372" lon="38.860845"><ele>113.1</ele><time>2026-01-31T14:02:48Z</time></trkpt><trkpt lat="58.31732" lon="38.86088"><ele>113.6</ele><time>2026-01-31T14:02:55Z</time></trkpt><trkpt lat="58.317322" lon="38.86083"><ele>112.9</ele><time>2026-01-31T14:03:02Z</time></trkpt><trkpt lat="58.317285" lon="38.860872"><ele>112.7</ele><time>2026-01-31T14:03:09Z</time></trkpt><trkpt lat="58.317282" lon="38.860917"><ele>112.9</ele><time>2026-01-31T14:03:16Z</time></trkpt><trkpt lat="58.317282" lon="38.86092"><ele>113.5</ele><time>2026-01-31T14:03:20Z</time></trkpt><trkpt lat="58.31728" lon="38.860925"><ele>115.0</ele><time>2026-01-31T14:03:37Z</time></trkpt><trkpt lat="58.31728" lon="38.860922"><ele>115.0</ele><time>2026-01-31T14:03:38Z</time></trkpt><trkpt lat="58.317275" lon="38.860948"><ele>114.1</ele><time>2026-01-31T14:03:52Z</time></trkpt><trkpt lat="58.31727" lon="38.860945"><ele>114.2</ele><time>2026-01-31T14:03:53Z</time></trkpt><trkpt lat="58.31727" lon="38.860927"><ele>114.3</ele><time>2026-01-31T14:04:01Z</time></trkpt><trkpt lat="58.31727" lon="38.860927"><ele>114.3</ele><time>2026-01-31T14:04:02Z</time></trkpt><trkpt lat="58.317287" lon="38.86102"><ele>114.8</ele><time>2026-01-31T14:04:36Z</time></trkpt><trkpt lat="58.3173" lon="38.861135"><ele>114.5</ele><time>2026-01-31T14:04:43Z</time></trkpt><trkpt lat="58.317307" lon="38.861252"><ele>114.3</ele><time>2026-01-31T14:04:50Z</time></trkpt><trkpt lat="58.317317" lon="38.861335"><ele>113.9</ele><time>2026-01-31T14:04:57Z</time></trkpt><trkpt lat="58.317327" lon="38.86145"><ele>114.3</ele><time>2026-01-31T14:05:04Z</time></trkpt><trkpt lat="58.317345" lon="38.86155"><ele>115.6</ele><time>2026-01-31T14:05:11Z</time></trkpt><trkpt lat="58.317365" lon="38.861645"><ele>115.6</ele><time>2026-01-31T14:05:18Z</time></trkpt><trkpt lat="58.31736" lon="38.86166"><ele>115.3</ele><time>2026-01-31T14:05:24Z</time></trkpt><trkpt lat="58.31739" lon="38.86177"><ele>115.0</ele><time>2026-01-31T14:05:34Z</time></trkpt><trkpt lat="58.3174" lon="38.86188"><ele>115.1</ele><time>2026-01-31T14:05:41Z</time></trkpt><trkpt lat="58.317405" lon="38.862"><ele>114.9</ele><time>2026-01-31T14:05:48Z</time></trkpt><trkpt lat="58.317407" lon="38.862072"><ele>115.2</ele><time>2026-01-31T14:05:55Z</time></trkpt><trkpt lat="58.317408" lon="38.862065"><ele>115.2</ele><time>2026-01-31T14:06:01Z</time></trkpt><trkpt lat="58.317407" lon="38.862155"><ele>115.7</ele><time>2026-01-31T14:06:37Z</time></trkpt><trkpt lat="58.317402" lon="38.862245"><ele>115.4</ele><time>2026-01-31T14:06:44Z</time></trkpt><trkpt lat="58.317392" lon="38.86233"><ele>115.3</ele><time>2026-01-31T14:06:51Z</time></trkpt><trkpt lat="58.317388" lon="38.86236"><ele>116.2</ele><time>2026-01-31T14:06:58Z</time></trkpt><trkpt lat="58.317388" lon="38.86236"><ele>116.2</ele><time>2026-01-31T14:07:00Z</time></trkpt><trkpt lat="58.317375" lon="38.86248"><ele>116.6</ele><time>2026-01-31T14:07:13Z</time></trkpt><trkpt lat="58.317355" lon="38.86259"><ele>116.5</ele><time>2026-01-31T14:07:20Z</time></trkpt><trkpt lat="58.317337" lon="38.862685"><ele>116.9</ele><time>2026-01-31T14:07:27Z</time></trkpt><trkpt lat="58.317312" lon="38.862795"><ele>117.3</ele><time>2026-01-31T14:07:34Z</time></trkpt><trkpt lat="58.317295" lon="38.862897"><ele>116.6</ele><time>2026-01-31T14:07:41Z</time></trkpt><trkpt lat="58.317265" lon="38.863005"><ele>116.2</ele><time>2026-01-31T14:07:48Z</time></trkpt><trkpt lat="58.317225" lon="38.863075"><ele>115.9</ele><time>2026-01-31T14:07:55Z</time></trkpt><trkpt lat="58.317182" lon="38.86315"><ele>117.1</ele><time>2026-01-31T14:08:02Z</time></trkpt><trkpt lat="58.31714" lon="38.863207"><ele>116.7</ele><time>2026-01-31T14:08:09Z</time></trkpt><trkpt lat="58.31714" lon="38.863205"><ele>117.0</ele><time>2026-01-31T14:08:16Z</time></trkpt><trkpt lat="58.317095" lon="38.863275"><ele>117.0</ele><time>2026-01-31T14:08:24Z</time></trkpt><trkpt lat="58.317035" lon="38.86336"><ele>116.5</ele><time>2026-01-31T14:08:31Z</time></trkpt><trkpt lat="58.31698" lon="38.86345"><ele>116.0</ele><time>2026-01-31T14:08:38Z</time></trkpt><trkpt lat="58.31693" lon="38.86354"><ele>116.2</ele><time>2026-01-31T14:08:45Z</time></trkpt><trkpt lat="58.316885" lon="38.86362"><ele>115.9</ele><time>2026-01-31T14:08:52Z</time></trkpt><trkpt lat="58.316858" lon="38.86371"><ele>115.7</ele><time>2026-01-31T14:08:59Z</time></trkpt><trkpt lat="58.316852" lon="38.863785"><ele>115.6</ele><time>2026-01-31T14:09:06Z</time></trkpt><trkpt lat="58.316837" lon="38.86392"><ele>115.6</ele><time>2026-01-31T14:09:13Z</time></trkpt><trkpt lat="58.316835" lon="38.86405"><ele>116.2</ele><time>2026-01-31T14:09:20Z</time></trkpt><trkpt lat="58.316825" lon="38.864165"><ele>116.4</ele><time>2026-01-31T14:09:27Z</time></trkpt><trkpt lat="58.316822" lon="38.86428"><ele>116.6</ele><time>2026-01-31T14:09:34Z</time></trkpt><trkpt lat="58.31682" lon="38.864317"><ele>116.8</ele><time>2026-01-31T14:09:41Z</time></trkpt><trkpt lat="58.316815" lon="38.8643"><ele>116.6</ele><time>2026-01-31T14:09:44Z</time></trkpt><trkpt lat="58.316815" lon="38.864257"><ele>116.4</ele><time>2026-01-31T14:09:55Z</time></trkpt><trkpt lat="58.31682" lon="38.864262"><ele>116.2</ele><time>2026-01-31T14:09:58Z</time></trkpt><trkpt lat="58.31682" lon="38.864267"><ele>115.2</ele><time>2026-01-31T14:11:07Z</time></trkpt><trkpt lat="58.31682" lon="38.864268"><ele>115.2</ele><time>2026-01-31T14:11:08Z</time></trkpt><trkpt lat="58.316815" lon="38.86418"><ele>115.5</ele><time>2026-01-31T14:11:22Z</time></trkpt><trkpt lat="58.31684" lon="38.86403"><ele>115.5</ele><time>2026-01-31T14:11:29Z</time></trkpt><trkpt lat="58.31685" lon="38.863887"><ele>115.1</ele><time>2026-01-31T14:11:36Z</time></trkpt><trkpt lat="58.316862" lon="38.863745"><ele>115.2</ele><time>2026-01-31T14:11:43Z</time></trkpt><trkpt lat="58.316885" lon="38.863615"><ele>115.3</ele><time>2026-01-31T14:11:50Z</time></trkpt><trkpt lat="58.316932" lon="38.863505"><ele>115.4</ele><time>2026-01-31T14:11:57Z</time></trkpt><trkpt lat="58.31699" lon="38.863425"><ele>115.7</ele><time>2026-01-31T14:12:04Z</time></trkpt><trkpt lat="58.31701" lon="38.863385"><ele>116.8</ele><time>2026-01-31T14:12:11Z</time></trkpt><trkpt lat="58.31701" lon="38.86339"><ele>116.7</ele><time>2026-01-31T14:12:15Z</time></trkpt><trkpt lat="58.31706" lon="38.863325"><ele>117.1</ele><time>2026-01-31T14:12:22Z</time></trkpt><trkpt lat="58.31712" lon="38.863235"><ele>116.7</ele><time>2026-01-31T14:12:29Z</time></trkpt><trkpt lat="58.31718" lon="38.86316"><ele>116.5</ele><time>2026-01-31T14:12:36Z</time></trkpt><trkpt lat="58.317237" lon="38.863085"><ele>117.5</ele><time>2026-01-31T14:12:43Z</time></trkpt><trkpt lat="58.317295" lon="38.86303"><ele>117.8</ele><time>2026-01-31T14:12:50Z</time></trkpt><trkpt lat="58.31736" lon="38.863025"><ele>117.0</ele><time>2026-01-31T14:12:57Z</time></trkpt><trkpt lat="58.31743" lon="38.863058"><ele>116.7</ele><time>2026-01-31T14:13:04Z</time></trkpt><trkpt lat="58.3175" lon="38.863107"><ele>116.6</ele><time>2026-01-31T14:13:11Z</time></trkpt><trkpt lat="58.317555" lon="38.863195"><ele>116.3</ele><time>2026-01-31T14:13:18Z</time></trkpt><trkpt lat="58.317595" lon="38.8633"><ele>116.1</ele><time>2026-01-31T14:13:25Z</time></trkpt><trkpt lat="58.317665" lon="38.86335"><ele>116.1</ele><time>2026-01-31T14:13:32Z</time></trkpt><trkpt lat="58.31774" lon="38.863345"><ele>115.7</ele><time>2026-01-31T14:13:39Z</time></trkpt><trkpt lat="58.317822" lon="38.86334"><ele>116.7</ele><time>2026-01-31T14:13:46Z</time></trkpt><trkpt lat="58.31788" lon="38.863275"><ele>116.0</ele><time>2026-01-31T14:13:53Z</time></trkpt><trkpt lat="58.317945" lon="38.863235"><ele>116.7</ele><time>2026-01-31T14:14:00Z</time></trkpt><trkpt lat="58.317997" lon="38.86326"><ele>116.2</ele><time>2026-01-31T14:14:07Z</time></trkpt><trkpt lat="58.318045" lon="38.86334"><ele>116.4</ele><time>2026-01-31T14:14:14Z</time></trkpt><trkpt lat="58.318077" lon="38.86346"><ele>116.5</ele><time>2026-01-31T14:14:21Z</time></trkpt><trkpt lat="58.318095" lon="38.86359"><ele>117.1</ele><time>2026-01-31T14:14:28Z</time></trkpt><trkpt lat="58.318095" lon="38.863715"><ele>117.5</ele><time>2026-01-31T14:14:35Z</time></trkpt><trkpt lat="58.31809" lon="38.863805"><ele>118.1</ele><time>2026-01-31T14:14:42Z</time></trkpt><trkpt lat="58.318153" lon="38.86378"><ele>116.8</ele><time>2026-01-31T14:14:49Z</time></trkpt><trkpt lat="58.318222" lon="38.863775"><ele>116.6</ele><time>2026-01-31T14:14:56Z</time></trkpt><trkpt lat="58.31829" lon="38.863755"><ele>117.0</ele><time>2026-01-31T14:15:03Z</time></trkpt><trkpt lat="58.31836" lon="38.86374"><ele>116.6</ele><time>2026-01-31T14:15:10Z</time></trkpt><trkpt lat="58.318435" lon="38.86372"><ele>117.0</ele><time>2026-01-31T14:15:17Z</time></trkpt><trkpt lat="58.3185" lon="38.863697"><ele>117.6</ele><time>2026-01-31T14:15:24Z</time></trkpt><trkpt lat="58.31856" lon="38.863685"><ele>117.5</ele><time>2026-01-31T14:15:31Z</time></trkpt><trkpt lat="58.318625" lon="38.863675"><ele>117.5</ele><time>2026-01-31T14:15:38Z</time></trkpt><trkpt lat="58.318688" lon="38.86366"><ele>118.3</ele><time>2026-01-31T14:15:45Z</time></trkpt><trkpt lat="58.318753" lon="38.863635"><ele>118.8</ele><time>2026-01-31T14:15:52Z</time></trkpt><trkpt lat="58.31882" lon="38.863605"><ele>118.5</ele><time>2026-01-31T14:15:59Z</time></trkpt><trkpt lat="58.318885" lon="38.863585"><ele>119.4</ele><time>2026-01-31T14:16:06Z</time></trkpt><trkpt lat="58.31894" lon="38.86357"><ele>118.8</ele><time>2026-01-31T14:16:13Z</time></trkpt><trkpt lat="58.319007" lon="38.863565"><ele>119.3</ele><time>2026-01-31T14:16:20Z</time></trkpt><trkpt lat="58.319065" lon="38.86355"><ele>119.3</ele><time>2026-01-31T14:16:27Z</time></trkpt><trkpt lat="58.319125" lon="38.86356"><ele>119.4</ele><time>2026-01-31T14:16:34Z</time></trkpt><trkpt lat="58.319195" lon="38.863565"><ele>118.5</ele><time>2026-01-31T14:16:41Z</time></trkpt><trkpt lat="58.319265" lon="38.863565"><ele>119.8</ele><time>2026-01-31T14:16:48Z</time></trkpt><trkpt lat="58.31934" lon="38.863572"><ele>120.9</ele><time>2026-01-31T14:16:54Z</time></trkpt><trkpt lat="58.319395" lon="38.863592"><ele>119.2</ele><time>2026-01-31T14:17:01Z</time></trkpt><trkpt lat="58.319457" lon="38.86361"><ele>119.2</ele><time>2026-01-31T14:17:08Z</time></trkpt><trkpt lat="58.319505" lon="38.863602"><ele>119.6</ele><time>2026-01-31T14:17:15Z</time></trkpt><trkpt lat="58.319565" lon="38.863585"><ele>118.7</ele><time>2026-01-31T14:17:22Z</time></trkpt><trkpt lat="58.319625" lon="38.863545"><ele>119.3</ele><time>2026-01-31T14:17:29Z</time></trkpt><trkpt lat="58.319685" lon="38.86352"><ele>120.2</ele><time>2026-01-31T14:17:36Z</time></trkpt><trkpt lat="58.31974" lon="38.86352"><ele>120.9</ele><time>2026-01-31T14:17:43Z</time></trkpt><trkpt lat="58.319795" lon="38.863535"><ele>120.1</ele><time>2026-01-31T14:17:50Z</time></trkpt><trkpt lat="58.319855" lon="38.863562"><ele>119.0</ele><time>2026-01-31T14:17:57Z</time></trkpt><trkpt lat="58.31991" lon="38.863605"><ele>118.3</ele><time>2026-01-31T14:18:04Z</time></trkpt><trkpt lat="58.319962" lon="38.863678"><ele>117.7</ele><time>2026-01-31T14:18:11Z</time></trkpt><trkpt lat="58.32001" lon="38.863732"><ele>117.7</ele><time>2026-01-31T14:18:18Z</time></trkpt><trkpt lat="58.32006" lon="38.863785"><ele>118.1</ele><time>2026-01-31T14:18:25Z</time></trkpt><trkpt lat="58.32008" lon="38.863805"><ele>118.8</ele><time>2026-01-31T14:18:32Z</time></trkpt><trkpt lat="58.32008" lon="38.863805"><ele>118.9</ele><time>2026-01-31T14:18:35Z</time></trkpt><trkpt lat="58.32014" lon="38.86385"><ele>118.8</ele><time>2026-01-31T14:18:43Z</time></trkpt><trkpt lat="58.320187" lon="38.86388"><ele>118.0</ele><time>2026-01-31T14:18:50Z</time></trkpt><trkpt lat="58.320242" lon="38.863897"><ele>117.5</ele><time>2026-01-31T14:18:57Z</time></trkpt><trkpt lat="58.32031" lon="38.863935"><ele>117.7</ele><time>2026-01-31T14:19:04Z</time></trkpt><trkpt lat="58.320365" lon="38.863962"><ele>118.6</ele><time>2026-01-31T14:19:11Z</time></trkpt><trkpt lat="58.320433" lon="38.863965"><ele>119.3</ele><time>2026-01-31T14:19:18Z</time></trkpt><trkpt lat="58.320502" lon="38.863965"><ele>118.2</ele><time>2026-01-31T14:19:25Z</time></trkpt><trkpt lat="58.320512" lon="38.863962"><ele>118.5</ele><time>2026-01-31T14:19:32Z</time></trkpt><trkpt lat="58.32057" lon="38.863985"><ele>119.3</ele><time>2026-01-31T14:19:39Z</time></trkpt><trkpt lat="58.320625" lon="38.864037"><ele>119.6</ele><time>2026-01-31T14:19:46Z</time></trkpt><trkpt lat="58.320655" lon="38.86414"><ele>118.9</ele><time>2026-01-31T14:19:53Z</time></trkpt><trkpt lat="58.320705" lon="38.864165"><ele>120.3</ele><time>2026-01-31T14:20:00Z</time></trkpt><trkpt lat="58.32075" lon="38.864175"><ele>122.6</ele><time>2026-01-31T14:20:07Z</time></trkpt><trkpt lat="58.320765" lon="38.86413"><ele>123.0</ele><time>2026-01-31T14:20:14Z</time></trkpt><trkpt lat="58.32083" lon="38.864185"><ele>122.6</ele><time>2026-01-31T14:20:21Z</time></trkpt><trkpt lat="58.320855" lon="38.864225"><ele>122.3</ele><time>2026-01-31T14:20:28Z</time></trkpt><trkpt lat="58.320855" lon="38.864225"><ele>122.3</ele><time>2026-01-31T14:20:32Z</time></trkpt><trkpt lat="58.32086" lon="38.86423"><ele>122.3</ele><time>2026-01-31T14:21:27Z</time></trkpt><trkpt lat="58.32086" lon="38.86423"><ele>122.3</ele><time>2026-01-31T14:21:28Z</time></trkpt><trkpt lat="58.32086" lon="38.864245"><ele>123.5</ele><time>2026-01-31T14:21:53Z</time></trkpt><trkpt lat="58.32086" lon="38.864245"><ele>123.5</ele><time>2026-01-31T14:21:54Z</time></trkpt><trkpt lat="58.32087" lon="38.864232"><ele>123.5</ele><time>2026-01-31T14:22:06Z</time></trkpt><trkpt lat="58.32087" lon="38.864232"><ele>124.0</ele><time>2026-01-31T14:22:07Z</time></trkpt><trkpt lat="58.320905" lon="38.864252"><ele>123.7</ele><time>2026-01-31T14:22:15Z</time></trkpt><trkpt lat="58.320935" lon="38.864325"><ele>123.0</ele><time>2026-01-31T14:22:22Z</time></trkpt><trkpt lat="58.320985" lon="38.864387"><ele>122.2</ele><time>2026-01-31T14:22:29Z</time></trkpt><trkpt lat="58.321037" lon="38.86441"><ele>122.5</ele><time>2026-01-31T14:22:36Z</time></trkpt><trkpt lat="58.321107" lon="38.86442"><ele>121.7</ele><time>2026-01-31T14:22:43Z</time></trkpt><trkpt lat="58.321177" lon="38.86445"><ele>121.0</ele><time>2026-01-31T14:22:50Z</time></trkpt><trkpt lat="58.32122" lon="38.8645"><ele>120.4</ele><time>2026-01-31T14:22:57Z</time></trkpt><trkpt lat="58.321295" lon="38.864565"><ele>119.8</ele><time>2026-01-31T14:23:04Z</time></trkpt><trkpt lat="58.32136" lon="38.864625"><ele>119.9</ele><time>2026-01-31T14:23:10Z</time></trkpt><trkpt lat="58.32143" lon="38.864662"><ele>120.2</ele><time>2026-01-31T14:23:17Z</time></trkpt><trkpt lat="58.321483" lon="38.864717"><ele>123.4</ele><time>2026-01-31T14:23:24Z</time></trkpt><trkpt lat="58.32152" lon="38.86478"><ele>125.2</ele><time>2026-01-31T14:23:31Z</time></trkpt><trkpt lat="58.32155" lon="38.864872"><ele>122.4</ele><time>2026-01-31T14:23:38Z</time></trkpt><trkpt lat="58.321585" lon="38.864982"><ele>122.5</ele><time>2026-01-31T14:23:45Z</time></trkpt><trkpt lat="58.321642" lon="38.86504"><ele>124.1</ele><time>2026-01-31T14:23:52Z</time></trkpt><trkpt lat="58.3217" lon="38.865095"><ele>122.9</ele><time>2026-01-31T14:23:59Z</time></trkpt><trkpt lat="58.32176" lon="38.865112"><ele>124.9</ele><time>2026-01-31T14:24:06Z</time></trkpt><trkpt lat="58.321783" lon="38.86507"><ele>123.8</ele><time>2026-01-31T14:24:13Z</time></trkpt><trkpt lat="58.32184" lon="38.864957"><ele>124.6</ele><time>2026-01-31T14:24:19Z</time></trkpt><trkpt lat="58.3219" lon="38.86485"><ele>122.8</ele><time>2026-01-31T14:24:26Z</time></trkpt><trkpt lat="58.321942" lon="38.86476"><ele>123.8</ele><time>2026-01-31T14:24:33Z</time></trkpt><trkpt lat="58.321995" lon="38.86467"><ele>121.8</ele><time>2026-01-31T14:24:40Z</time></trkpt><trkpt lat="58.32205" lon="38.864565"><ele>122.6</ele><time>2026-01-31T14:24:47Z</time></trkpt><trkpt lat="58.32207" lon="38.864435"><ele>121.2</ele><time>2026-01-31T14:24:53Z</time></trkpt><trkpt lat="58.322065" lon="38.864415"><ele>120.8</ele><time>2026-01-31T14:25:00Z</time></trkpt><trkpt lat="58.322065" lon="38.864415"><ele>120.8</ele><time>2026-01-31T14:25:01Z</time></trkpt><trkpt lat="58.322065" lon="38.8644"><ele>120.3</ele><time>2026-01-31T14:25:14Z</time></trkpt><trkpt lat="58.322065" lon="38.8644"><ele>120.3</ele><time>2026-01-31T14:25:15Z</time></trkpt><trkpt lat="58.322085" lon="38.86429"><ele>119.6</ele><time>2026-01-31T14:25:43Z</time></trkpt><trkpt lat="58.32213" lon="38.864167"><ele>120.3</ele><time>2026-01-31T14:25:50Z</time></trkpt><trkpt lat="58.322175" lon="38.864055"><ele>119.6</ele><time>2026-01-31T14:25:57Z</time></trkpt><trkpt lat="58.322202" lon="38.863935"><ele>118.8</ele><time>2026-01-31T14:26:04Z</time></trkpt><trkpt lat="58.32221" lon="38.8638"><ele>118.1</ele><time>2026-01-31T14:26:11Z</time></trkpt><trkpt lat="58.322225" lon="38.86368"><ele>118.5</ele><time>2026-01-31T14:26:18Z</time></trkpt><trkpt lat="58.322247" lon="38.86355"><ele>118.5</ele><time>2026-01-31T14:26:25Z</time></trkpt><trkpt lat="58.322272" lon="38.863415"><ele>118.5</ele><time>2026-01-31T14:26:32Z</time></trkpt><trkpt lat="58.3223" lon="38.863295"><ele>118.2</ele><time>2026-01-31T14:26:39Z</time></trkpt><trkpt lat="58.322307" lon="38.863205"><ele>117.5</ele><time>2026-01-31T14:26:46Z</time></trkpt><trkpt lat="58.322315" lon="38.863073"><ele>117.2</ele><time>2026-01-31T14:26:53Z</time></trkpt><trkpt lat="58.322305" lon="38.86294"><ele>116.7</ele><time>2026-01-31T14:27:00Z</time></trkpt><trkpt lat="58.322285" lon="38.86282"><ele>116.2</ele><time>2026-01-31T14:27:07Z</time></trkpt><trkpt lat="58.322267" lon="38.862685"><ele>115.7</ele><time>2026-01-31T14:27:14Z</time></trkpt><trkpt lat="58.322255" lon="38.862555"><ele>115.0</ele><time>2026-01-31T14:27:21Z</time></trkpt><trkpt lat="58.322247" lon="38.86242"><ele>116.0</ele><time>2026-01-31T14:27:28Z</time></trkpt><trkpt lat="58.322248" lon="38.862412"><ele>116.3</ele><time>2026-01-31T14:27:35Z</time></trkpt><trkpt lat="58.322248" lon="38.862415"><ele>116.3</ele><time>2026-01-31T14:27:36Z</time></trkpt><trkpt lat="58.322245" lon="38.862405"><ele>116.4</ele><time>2026-01-31T14:27:48Z</time></trkpt><trkpt lat="58.322245" lon="38.862405"><ele>116.4</ele><time>2026-01-31T14:27:49Z</time></trkpt><trkpt lat="58.322237" lon="38.862405"><ele>116.0</ele><time>2026-01-31T14:28:24Z</time></trkpt><trkpt lat="58.322237" lon="38.862395"><ele>115.8</ele><time>2026-01-31T14:28:25Z</time></trkpt><trkpt lat="58.322242" lon="38.86241"><ele>116.0</ele><time>2026-01-31T14:28:39Z</time></trkpt><trkpt lat="58.322242" lon="38.86241"><ele>116.0</ele><time>2026-01-31T14:28:40Z</time></trkpt><trkpt lat="58.322248" lon="38.862367"><ele>115.9</ele><time>2026-01-31T14:30:00Z</time></trkpt><trkpt lat="58.322247" lon="38.862365"><ele>115.9</ele><time>2026-01-31T14:30:04Z</time></trkpt><trkpt lat="58.32224" lon="38.86233"><ele>116.1</ele><time>2026-01-31T14:30:11Z</time></trkpt><trkpt lat="58.32224" lon="38.86233"><ele>116.1</ele><time>2026-01-31T14:30:13Z</time></trkpt><trkpt lat="58.322237" lon="38.862315"><ele>116.1</ele><time>2026-01-31T14:30:24Z</time></trkpt><trkpt lat="58.322237" lon="38.862315"><ele>116.1</ele><time>2026-01-31T14:30:25Z</time></trkpt><trkpt lat="58.32224" lon="38.862305"><ele>115.8</ele><time>2026-01-31T14:30:43Z</time></trkpt><trkpt lat="58.32224" lon="38.862305"><ele>115.8</ele><time>2026-01-31T14:30:44Z</time></trkpt><trkpt lat="58.32224" lon="38.862292"><ele>116.7</ele><time>2026-01-31T14:32:11Z</time></trkpt><trkpt lat="58.32224" lon="38.862292"><ele>116.7</ele><time>2026-01-31T14:32:12Z</time></trkpt><trkpt lat="58.32224" lon="38.862305"><ele>116.4</ele><time>2026-01-31T14:32:26Z</time></trkpt><trkpt lat="58.32224" lon="38.862305"><ele>116.4</ele><time>2026-01-31T14:32:27Z</time></trkpt><trkpt lat="58.322257" lon="38.862247"><ele>116.6</ele><time>2026-01-31T14:32:42Z</time></trkpt><trkpt lat="58.322272" lon="38.862195"><ele>116.2</ele><time>2026-01-31T14:32:49Z</time></trkpt><trkpt lat="58.322275" lon="38.862205"><ele>116.9</ele><time>2026-01-31T14:32:52Z</time></trkpt><trkpt lat="58.3223" lon="38.862167"><ele>116.8</ele><time>2026-01-31T14:33:12Z</time></trkpt><trkpt lat="58.322295" lon="38.86217"><ele>116.9</ele><time>2026-01-31T14:33:16Z</time></trkpt><trkpt lat="58.322285" lon="38.86218"><ele>117.1</ele><time>2026-01-31T14:33:41Z</time></trkpt><trkpt lat="58.32228" lon="38.86219"><ele>117.7</ele><time>2026-01-31T14:33:45Z</time></trkpt><trkpt lat="58.32224" lon="38.86226"><ele>116.5</ele><time>2026-01-31T14:33:52Z</time></trkpt><trkpt lat="58.32224" lon="38.86232"><ele>117.3</ele><time>2026-01-31T14:33:59Z</time></trkpt><trkpt lat="58.32224" lon="38.862325"><ele>117.6</ele><time>2026-01-31T14:34:05Z</time></trkpt><trkpt lat="58.322243" lon="38.862313"><ele>117.2</ele><time>2026-01-31T14:34:49Z</time></trkpt><trkpt lat="58.322243" lon="38.862313"><ele>117.2</ele><time>2026-01-31T14:34:50Z</time></trkpt><trkpt lat="58.32224" lon="38.86231"><ele>117.1</ele><time>2026-01-31T14:36:07Z</time></trkpt><trkpt lat="58.32224" lon="38.86231"><ele>117.1</ele><time>2026-01-31T14:36:08Z</time></trkpt><trkpt lat="58.322248" lon="38.862275"><ele>116.6</ele><time>2026-01-31T14:36:34Z</time></trkpt><trkpt lat="58.322255" lon="38.862275"><ele>116.5</ele><time>2026-01-31T14:36:35Z</time></trkpt><trkpt lat="58.322263" lon="38.862237"><ele>116.9</ele><time>2026-01-31T14:36:52Z</time></trkpt><trkpt lat="58.322263" lon="38.86224"><ele>116.6</ele><time>2026-01-31T14:36:54Z</time></trkpt><trkpt lat="58.322263" lon="38.862255"><ele>117.0</ele><time>2026-01-31T14:37:03Z</time></trkpt><trkpt lat="58.322262" lon="38.86225"><ele>116.6</ele><time>2026-01-31T14:37:04Z</time></trkpt><trkpt lat="58.32229" lon="38.86219"><ele>117.0</ele><time>2026-01-31T14:37:25Z</time></trkpt><trkpt lat="58.32234" lon="38.86218"><ele>115.2</ele><time>2026-01-31T14:37:32Z</time></trkpt><trkpt lat="58.322365" lon="38.86217"><ele>114.5</ele><time>2026-01-31T14:37:39Z</time></trkpt><trkpt lat="58.32237" lon="38.86216"><ele>114.8</ele><time>2026-01-31T14:37:42Z</time></trkpt><trkpt lat="58.32238" lon="38.86215"><ele>115.7</ele><time>2026-01-31T14:37:52Z</time></trkpt><trkpt lat="58.322375" lon="38.86215"><ele>115.7</ele><time>2026-01-31T14:37:53Z</time></trkpt><trkpt lat="58.32233" lon="38.86217"><ele>114.6</ele><time>2026-01-31T14:38:00Z</time></trkpt><trkpt lat="58.322312" lon="38.862187"><ele>114.3</ele><time>2026-01-31T14:38:07Z</time></trkpt><trkpt lat="58.322305" lon="38.8622"><ele>113.8</ele><time>2026-01-31T14:38:09Z</time></trkpt><trkpt lat="58.322295" lon="38.862185"><ele>113.8</ele><time>2026-01-31T14:38:17Z</time></trkpt><trkpt lat="58.322295" lon="38.862185"><ele>114.0</ele><time>2026-01-31T14:38:18Z</time></trkpt><trkpt lat="58.322295" lon="38.86217"><ele>114.8</ele><time>2026-01-31T14:38:29Z</time></trkpt><trkpt lat="58.322295" lon="38.862165"><ele>114.8</ele><time>2026-01-31T14:38:30Z</time></trkpt><trkpt lat="58.322295" lon="38.862165"><ele>115.2</ele><time>2026-01-31T14:38:48Z</time></trkpt><trkpt lat="58.322295" lon="38.862165"><ele>115.2</ele><time>2026-01-31T14:38:49Z</time></trkpt><trkpt lat="58.322295" lon="38.862175"><ele>115.1</ele><time>2026-01-31T14:39:01Z</time></trkpt><trkpt lat="58.322295" lon="38.862175"><ele>115.1</ele><time>2026-01-31T14:39:02Z</time></trkpt><trkpt lat="58.32228" lon="38.862245"><ele>116.5</ele><time>2026-01-31T14:39:11Z</time></trkpt><trkpt lat="58.322277" lon="38.862232"><ele>116.3</ele><time>2026-01-31T14:39:17Z</time></trkpt><trkpt lat="58.322245" lon="38.862265"><ele>117.2</ele><time>2026-01-31T14:39:26Z</time></trkpt><trkpt lat="58.322247" lon="38.862265"><ele>117.1</ele><time>2026-01-31T14:39:33Z</time></trkpt><trkpt lat="58.322275" lon="38.862225"><ele>116.6</ele><time>2026-01-31T14:39:40Z</time></trkpt><trkpt lat="58.32228" lon="38.862215"><ele>117.0</ele><time>2026-01-31T14:39:43Z</time></trkpt><trkpt lat="58.322245" lon="38.862282"><ele>117.2</ele><time>2026-01-31T14:39:52Z</time></trkpt><trkpt lat="58.32224" lon="38.86231"><ele>118.0</ele><time>2026-01-31T14:39:59Z</time></trkpt><trkpt lat="58.32224" lon="38.86231"><ele>118.0</ele><time>2026-01-31T14:40:00Z</time></trkpt><trkpt lat="58.322225" lon="38.862432"><ele>119.5</ele><time>2026-01-31T14:40:16Z</time></trkpt><trkpt lat="58.32224" lon="38.862535"><ele>118.9</ele><time>2026-01-31T14:40:23Z</time></trkpt><trkpt lat="58.322245" lon="38.862637"><ele>119.2</ele><time>2026-01-31T14:40:30Z</time></trkpt><trkpt lat="58.32226" lon="38.862735"><ele>118.2</ele><time>2026-01-31T14:40:37Z</time></trkpt><trkpt lat="58.322277" lon="38.86283"><ele>118.8</ele><time>2026-01-31T14:40:44Z</time></trkpt><trkpt lat="58.322295" lon="38.86295"><ele>118.8</ele><time>2026-01-31T14:40:51Z</time></trkpt><trkpt lat="58.322302" lon="38.86307"><ele>117.3</ele><time>2026-01-31T14:40:58Z</time></trkpt><trkpt lat="58.322287" lon="38.863185"><ele>118.5</ele><time>2026-01-31T14:41:05Z</time></trkpt><trkpt lat="58.32228" lon="38.86331"><ele>119.5</ele><time>2026-01-31T14:41:12Z</time></trkpt><trkpt lat="58.322255" lon="38.863435"><ele>119.2</ele><time>2026-01-31T14:41:19Z</time></trkpt><trkpt lat="58.32224" lon="38.86354"><ele>119.2</ele><time>2026-01-31T14:41:26Z</time></trkpt><trkpt lat="58.32223" lon="38.863663"><ele>118.6</ele><time>2026-01-31T14:41:33Z</time></trkpt><trkpt lat="58.32221" lon="38.86379"><ele>119.5</ele><time>2026-01-31T14:41:40Z</time></trkpt><trkpt lat="58.32219" lon="38.863912"><ele>119.9</ele><time>2026-01-31T14:41:47Z</time></trkpt><trkpt lat="58.322177" lon="38.864025"><ele>120.0</ele><time>2026-01-31T14:41:54Z</time></trkpt><trkpt lat="58.32215" lon="38.86412"><ele>120.4</ele><time>2026-01-31T14:42:01Z</time></trkpt><trkpt lat="58.32212" lon="38.864185"><ele>120.9</ele><time>2026-01-31T14:42:08Z</time></trkpt><trkpt lat="58.32208" lon="38.864268"><ele>119.9</ele><time>2026-01-31T14:42:15Z</time></trkpt><trkpt lat="58.322047" lon="38.86438"><ele>120.7</ele><time>2026-01-31T14:42:22Z</time></trkpt><trkpt lat="58.32203" lon="38.86449"><ele>121.3</ele><time>2026-01-31T14:42:29Z</time></trkpt><trkpt lat="58.322015" lon="38.8646"><ele>121.4</ele><time>2026-01-31T14:42:36Z</time></trkpt><trkpt lat="58.32197" lon="38.86467"><ele>122.7</ele><time>2026-01-31T14:42:43Z</time></trkpt><trkpt lat="58.321917" lon="38.864735"><ele>122.4</ele><time>2026-01-31T14:42:50Z</time></trkpt><trkpt lat="58.321882" lon="38.86484"><ele>121.9</ele><time>2026-01-31T14:42:57Z</time></trkpt><trkpt lat="58.321845" lon="38.864925"><ele>121.5</ele><time>2026-01-31T14:43:04Z</time></trkpt><trkpt lat="58.321815" lon="38.864985"><ele>120.5</ele><time>2026-01-31T14:43:11Z</time></trkpt><trkpt lat="58.32178" lon="38.86507"><ele>121.4</ele><time>2026-01-31T14:43:18Z</time></trkpt><trkpt lat="58.321782" lon="38.865147"><ele>121.7</ele><time>2026-01-31T14:43:25Z</time></trkpt><trkpt lat="58.321837" lon="38.865222"><ele>121.9</ele><time>2026-01-31T14:43:32Z</time></trkpt><trkpt lat="58.321895" lon="38.86526"><ele>123.4</ele><time>2026-01-31T14:43:39Z</time></trkpt><trkpt lat="58.32196" lon="38.865335"><ele>124.9</ele><time>2026-01-31T14:43:46Z</time></trkpt><trkpt lat="58.322015" lon="38.86542"><ele>124.7</ele><time>2026-01-31T14:43:53Z</time></trkpt><trkpt lat="58.322075" lon="38.865485"><ele>123.3</ele><time>2026-01-31T14:44:00Z</time></trkpt><trkpt lat="58.32214" lon="38.86552"><ele>124.9</ele><time>2026-01-31T14:44:07Z</time></trkpt><trkpt lat="58.3222" lon="38.86558"><ele>123.9</ele><time>2026-01-31T14:44:14Z</time></trkpt><trkpt lat="58.32227" lon="38.865647"><ele>124.0</ele><time>2026-01-31T14:44:21Z</time></trkpt><trkpt lat="58.322315" lon="38.865715"><ele>124.2</ele><time>2026-01-31T14:44:28Z</time></trkpt><trkpt lat="58.322365" lon="38.865795"><ele>122.9</ele><time>2026-01-31T14:44:35Z</time></trkpt><trkpt lat="58.322402" lon="38.865875"><ele>122.4</ele><time>2026-01-31T14:44:42Z</time></trkpt><trkpt lat="58.322435" lon="38.865985"><ele>121.7</ele><time>2026-01-31T14:44:49Z</time></trkpt><trkpt lat="58.32245" lon="38.866105"><ele>122.0</ele><time>2026-01-31T14:44:56Z</time></trkpt><trkpt lat="58.32249" lon="38.866195"><ele>120.7</ele><time>2026-01-31T14:45:03Z</time></trkpt><trkpt lat="58.32254" lon="38.866265"><ele>121.8</ele><time>2026-01-31T14:45:10Z</time></trkpt><trkpt lat="58.322582" lon="38.866342"><ele>123.4</ele><time>2026-01-31T14:45:17Z</time></trkpt><trkpt lat="58.32262" lon="38.866452"><ele>123.4</ele><time>2026-01-31T14:45:24Z</time></trkpt><trkpt lat="58.32264" lon="38.866575"><ele>122.9</ele><time>2026-01-31T14:45:31Z</time></trkpt><trkpt lat="58.322698" lon="38.866625"><ele>124.8</ele><time>2026-01-31T14:45:38Z</time></trkpt><trkpt lat="58.322755" lon="38.86668"><ele>125.7</ele><time>2026-01-31T14:45:45Z</time></trkpt><trkpt lat="58.32281" lon="38.866735"><ele>126.4</ele><time>2026-01-31T14:45:52Z</time></trkpt><trkpt lat="58.32288" lon="38.86679"><ele>124.4</ele><time>2026-01-31T14:45:59Z</time></trkpt><trkpt lat="58.322955" lon="38.866825"><ele>122.8</ele><time>2026-01-31T14:46:06Z</time></trkpt><trkpt lat="58.323027" lon="38.86683"><ele>123.9</ele><time>2026-01-31T14:46:13Z</time></trkpt><trkpt lat="58.323105" lon="38.86686"><ele>126.1</ele><time>2026-01-31T14:46:20Z</time></trkpt><trkpt lat="58.323175" lon="38.86688"><ele>125.6</ele><time>2026-01-31T14:46:27Z</time></trkpt><trkpt lat="58.323232" lon="38.86689"><ele>124.1</ele><time>2026-01-31T14:46:34Z</time></trkpt><trkpt lat="58.323307" lon="38.86689"><ele>122.9</ele><time>2026-01-31T14:46:41Z</time></trkpt><trkpt lat="58.32337" lon="38.8669"><ele>122.9</ele><time>2026-01-31T14:46:48Z</time></trkpt><trkpt lat="58.323412" lon="38.866923"><ele>122.7</ele><time>2026-01-31T14:46:55Z</time></trkpt><trkpt lat="58.32347" lon="38.866975"><ele>123.6</ele><time>2026-01-31T14:47:02Z</time></trkpt><trkpt lat="58.323512" lon="38.86703"><ele>125.0</ele><time>2026-01-31T14:47:09Z</time></trkpt><trkpt lat="58.32356" lon="38.867095"><ele>125.7</ele><time>2026-01-31T14:47:16Z</time></trkpt><trkpt lat="58.323607" lon="38.86717"><ele>126.0</ele><time>2026-01-31T14:47:23Z</time></trkpt><trkpt lat="58.32365" lon="38.86726"><ele>126.5</ele><time>2026-01-31T14:47:30Z</time></trkpt><trkpt lat="58.323717" lon="38.867325"><ele>123.9</ele><time>2026-01-31T14:47:37Z</time></trkpt><trkpt lat="58.323765" lon="38.867382"><ele>123.3</ele><time>2026-01-31T14:47:44Z</time></trkpt><trkpt lat="58.323815" lon="38.86741"><ele>121.9</ele><time>2026-01-31T14:47:51Z</time></trkpt><trkpt lat="58.323865" lon="38.86747"><ele>121.4</ele><time>2026-01-31T14:47:58Z</time></trkpt><trkpt lat="58.323908" lon="38.867572"><ele>121.1</ele><time>2026-01-31T14:48:05Z</time></trkpt><trkpt lat="58.32396" lon="38.86765"><ele>122.4</ele><time>2026-01-31T14:48:12Z</time></trkpt><trkpt lat="58.32401" lon="38.867735"><ele>123.7</ele><time>2026-01-31T14:48:19Z</time></trkpt><trkpt lat="58.324055" lon="38.867785"><ele>123.7</ele><time>2026-01-31T14:48:26Z</time></trkpt><trkpt lat="58.324105" lon="38.867835"><ele>122.7</ele><time>2026-01-31T14:48:33Z</time></trkpt><trkpt lat="58.32416" lon="38.86789"><ele>124.0</ele><time>2026-01-31T14:48:40Z</time></trkpt><trkpt lat="58.324213" lon="38.867962"><ele>123.5</ele><time>2026-01-31T14:48:47Z</time></trkpt><trkpt lat="58.324265" lon="38.86804"><ele>123.7</ele><time>2026-01-31T14:48:54Z</time></trkpt><trkpt lat="58.324315" lon="38.868105"><ele>122.8</ele><time>2026-01-31T14:49:01Z</time></trkpt><trkpt lat="58.324365" lon="38.868175"><ele>122.5</ele><time>2026-01-31T14:49:08Z</time></trkpt><trkpt lat="58.32441" lon="38.86824"><ele>123.0</ele><time>2026-01-31T14:49:15Z</time></trkpt><trkpt lat="58.324455" lon="38.868315"><ele>123.1</ele><time>2026-01-31T14:49:22Z</time></trkpt><trkpt lat="58.324507" lon="38.868377"><ele>121.2</ele><time>2026-01-31T14:49:29Z</time></trkpt><trkpt lat="58.32456" lon="38.868457"><ele>121.2</ele><time>2026-01-31T14:49:36Z</time></trkpt><trkpt lat="58.32459" lon="38.86849"><ele>122.1</ele><time>2026-01-31T14:49:43Z</time></trkpt><trkpt lat="58.32463" lon="38.86854"><ele>121.7</ele><time>2026-01-31T14:49:50Z</time></trkpt><trkpt lat="58.324667" lon="38.86861"><ele>121.5</ele><time>2026-01-31T14:49:57Z</time></trkpt><trkpt lat="58.324705" lon="38.868655"><ele>120.6</ele><time>2026-01-31T14:50:04Z</time></trkpt><trkpt lat="58.324765" lon="38.868685"><ele>120.3</ele><time>2026-01-31T14:50:11Z</time></trkpt><trkpt lat="58.324805" lon="38.8688"><ele>120.2</ele><time>2026-01-31T14:50:18Z</time></trkpt><trkpt lat="58.32485" lon="38.86885"><ele>120.4</ele><time>2026-01-31T14:50:25Z</time></trkpt><trkpt lat="58.32491" lon="38.86893"><ele>123.5</ele><time>2026-01-31T14:50:31Z</time></trkpt><trkpt lat="58.324965" lon="38.86896"><ele>123.2</ele><time>2026-01-31T14:50:38Z</time></trkpt><trkpt lat="58.325002" lon="38.869002"><ele>124.2</ele><time>2026-01-31T14:50:45Z</time></trkpt><trkpt lat="58.325063" lon="38.869035"><ele>123.5</ele><time>2026-01-31T14:50:52Z</time></trkpt><trkpt lat="58.325117" lon="38.869075"><ele>121.8</ele><time>2026-01-31T14:50:59Z</time></trkpt><trkpt lat="58.325195" lon="38.869122"><ele>121.8</ele><time>2026-01-31T14:51:06Z</time></trkpt><trkpt lat="58.32523" lon="38.869193"><ele>121.0</ele><time>2026-01-31T14:51:13Z</time></trkpt><trkpt lat="58.325287" lon="38.86927"><ele>121.6</ele><time>2026-01-31T14:51:20Z</time></trkpt><trkpt lat="58.32535" lon="38.869305"><ele>120.6</ele><time>2026-01-31T14:51:27Z</time></trkpt><trkpt lat="58.325405" lon="38.869335"><ele>120.9</ele><time>2026-01-31T14:51:34Z</time></trkpt><trkpt lat="58.325455" lon="38.869392"><ele>120.7</ele><time>2026-01-31T14:51:41Z</time></trkpt><trkpt lat="58.325498" lon="38.86945"><ele>120.3</ele><time>2026-01-31T14:51:48Z</time></trkpt><trkpt lat="58.325555" lon="38.869503"><ele>119.7</ele><time>2026-01-31T14:51:55Z</time></trkpt><trkpt lat="58.325605" lon="38.869557"><ele>120.9</ele><time>2026-01-31T14:52:02Z</time></trkpt><trkpt lat="58.325653" lon="38.869595"><ele>122.0</ele><time>2026-01-31T14:52:09Z</time></trkpt><trkpt lat="58.325705" lon="38.869635"><ele>123.7</ele><time>2026-01-31T14:52:16Z</time></trkpt><trkpt lat="58.32576" lon="38.86969"><ele>123.4</ele><time>2026-01-31T14:52:23Z</time></trkpt><trkpt lat="58.325817" lon="38.86975"><ele>122.5</ele><time>2026-01-31T14:52:30Z</time></trkpt><trkpt lat="58.325855" lon="38.86978"><ele>121.9</ele><time>2026-01-31T14:52:37Z</time></trkpt><trkpt lat="58.32592" lon="38.869825"><ele>122.3</ele><time>2026-01-31T14:52:44Z</time></trkpt><trkpt lat="58.32595" lon="38.869837"><ele>123.1</ele><time>2026-01-31T14:52:51Z</time></trkpt><trkpt lat="58.32597" lon="38.869855"><ele>123.3</ele><time>2026-01-31T14:52:58Z</time></trkpt><trkpt lat="58.32602" lon="38.869905"><ele>122.3</ele><time>2026-01-31T14:53:05Z</time></trkpt><trkpt lat="58.326082" lon="38.86997"><ele>123.0</ele><time>2026-01-31T14:53:12Z</time></trkpt><trkpt lat="58.32614" lon="38.870045"><ele>122.7</ele><time>2026-01-31T14:53:19Z</time></trkpt><trkpt lat="58.326195" lon="38.870105"><ele>122.3</ele><time>2026-01-31T14:53:26Z</time></trkpt><trkpt lat="58.326245" lon="38.87017"><ele>121.7</ele><time>2026-01-31T14:53:33Z</time></trkpt><trkpt lat="58.326285" lon="38.870215"><ele>122.3</ele><time>2026-01-31T14:53:40Z</time></trkpt><trkpt lat="58.326302" lon="38.87025"><ele>123.9</ele><time>2026-01-31T14:53:47Z</time></trkpt><trkpt lat="58.32632" lon="38.870285"><ele>124.8</ele><time>2026-01-31T14:53:54Z</time></trkpt><trkpt lat="58.32632" lon="38.870285"><ele>124.8</ele><time>2026-01-31T14:53:56Z</time></trkpt><trkpt lat="58.326385" lon="38.87034"><ele>123.0</ele><time>2026-01-31T14:54:05Z</time></trkpt><trkpt lat="58.32644" lon="38.870403"><ele>122.5</ele><time>2026-01-31T14:54:12Z</time></trkpt><trkpt lat="58.32651" lon="38.870435"><ele>122.8</ele><time>2026-01-31T14:54:19Z</time></trkpt><trkpt lat="58.32656" lon="38.870475"><ele>122.6</ele><time>2026-01-31T14:54:26Z</time></trkpt><trkpt lat="58.32661" lon="38.870535"><ele>122.2</ele><time>2026-01-31T14:54:33Z</time></trkpt><trkpt lat="58.32666" lon="38.870585"><ele>124.0</ele><time>2026-01-31T14:54:40Z</time></trkpt><trkpt lat="58.326717" lon="38.870655"><ele>123.7</ele><time>2026-01-31T14:54:47Z</time></trkpt><trkpt lat="58.32677" lon="38.870682"><ele>122.5</ele><time>2026-01-31T14:54:54Z</time></trkpt><trkpt lat="58.326825" lon="38.87075"><ele>122.2</ele><time>2026-01-31T14:55:01Z</time></trkpt><trkpt lat="58.326878" lon="38.87082"><ele>123.6</ele><time>2026-01-31T14:55:08Z</time></trkpt><trkpt lat="58.326935" lon="38.87088"><ele>123.7</ele><time>2026-01-31T14:55:15Z</time></trkpt><trkpt lat="58.326985" lon="38.870935"><ele>124.5</ele><time>2026-01-31T14:55:22Z</time></trkpt><trkpt lat="58.327013" lon="38.870917"><ele>122.1</ele><time>2026-01-31T14:55:29Z</time></trkpt><trkpt lat="58.327013" lon="38.87091"><ele>122.0</ele><time>2026-01-31T14:55:33Z</time></trkpt><trkpt lat="58.327057" lon="38.870975"><ele>121.6</ele><time>2026-01-31T14:55:52Z</time></trkpt><trkpt lat="58.32712" lon="38.871022"><ele>120.3</ele><time>2026-01-31T14:55:59Z</time></trkpt><trkpt lat="58.327188" lon="38.871075"><ele>120.1</ele><time>2026-01-31T14:56:06Z</time></trkpt><trkpt lat="58.327267" lon="38.87113"><ele>121.4</ele><time>2026-01-31T14:56:13Z</time></trkpt><trkpt lat="58.327335" lon="38.87119"><ele>120.6</ele><time>2026-01-31T14:56:20Z</time></trkpt><trkpt lat="58.327397" lon="38.871252"><ele>121.4</ele><time>2026-01-31T14:56:27Z</time></trkpt><trkpt lat="58.327442" lon="38.871335"><ele>120.9</ele><time>2026-01-31T14:56:34Z</time></trkpt><trkpt lat="58.32749" lon="38.87141"><ele>119.8</ele><time>2026-01-31T14:56:41Z</time></trkpt><trkpt lat="58.327517" lon="38.871435"><ele>119.2</ele><time>2026-01-31T14:56:48Z</time></trkpt><trkpt lat="58.327517" lon="38.871435"><ele>119.2</ele><time>2026-01-31T14:56:51Z</time></trkpt><trkpt lat="58.327595" lon="38.871415"><ele>117.8</ele><time>2026-01-31T14:57:03Z</time></trkpt><trkpt lat="58.32767" lon="38.871465"><ele>117.5</ele><time>2026-01-31T14:57:09Z</time></trkpt><trkpt lat="58.327737" lon="38.871538"><ele>118.3</ele><time>2026-01-31T14:57:15Z</time></trkpt><trkpt lat="58.32779" lon="38.87165"><ele>119.1</ele><time>2026-01-31T14:57:22Z</time></trkpt><trkpt lat="58.327835" lon="38.871755"><ele>120.9</ele><time>2026-01-31T14:57:29Z</time></trkpt><trkpt lat="58.32788" lon="38.871845"><ele>121.6</ele><time>2026-01-31T14:57:36Z</time></trkpt><trkpt lat="58.327925" lon="38.871945"><ele>121.7</ele><time>2026-01-31T14:57:43Z</time></trkpt><trkpt lat="58.327965" lon="38.872025"><ele>122.0</ele><time>2026-01-31T14:57:50Z</time></trkpt><trkpt lat="58.328002" lon="38.87212"><ele>121.2</ele><time>2026-01-31T14:57:57Z</time></trkpt><trkpt lat="58.32804" lon="38.87224"><ele>121.1</ele><time>2026-01-31T14:58:04Z</time></trkpt><trkpt lat="58.328072" lon="38.87236"><ele>121.6</ele><time>2026-01-31T14:58:11Z</time></trkpt><trkpt lat="58.3281" lon="38.872405"><ele>122.1</ele><time>2026-01-31T14:58:18Z</time></trkpt><trkpt lat="58.328135" lon="38.872525"><ele>121.9</ele><time>2026-01-31T14:58:25Z</time></trkpt><trkpt lat="58.32817" lon="38.872655"><ele>122.5</ele><time>2026-01-31T14:58:32Z</time></trkpt><trkpt lat="58.328212" lon="38.87278"><ele>122.9</ele><time>2026-01-31T14:58:39Z</time></trkpt><trkpt lat="58.328255" lon="38.87289"><ele>123.3</ele><time>2026-01-31T14:58:46Z</time></trkpt><trkpt lat="58.328305" lon="38.872977"><ele>124.7</ele><time>2026-01-31T14:58:53Z</time></trkpt><trkpt lat="58.328325" lon="38.873045"><ele>123.6</ele><time>2026-01-31T14:59:00Z</time></trkpt><trkpt lat="58.328332" lon="38.87302"><ele>124.0</ele><time>2026-01-31T14:59:07Z</time></trkpt><trkpt lat="58.328332" lon="38.87302"><ele>124.0</ele><time>2026-01-31T14:59:09Z</time></trkpt><trkpt lat="58.32834" lon="38.873005"><ele>123.1</ele><time>2026-01-31T14:59:18Z</time></trkpt><trkpt lat="58.328335" lon="38.873025"><ele>122.6</ele><time>2026-01-31T14:59:21Z</time></trkpt><trkpt lat="58.32832" lon="38.873133"><ele>123.4</ele><time>2026-01-31T14:59:31Z</time></trkpt><trkpt lat="58.328313" lon="38.8732"><ele>122.6</ele><time>2026-01-31T14:59:38Z</time></trkpt><trkpt lat="58.32831" lon="38.873247"><ele>123.1</ele><time>2026-01-31T14:59:45Z</time></trkpt><trkpt lat="58.328312" lon="38.87324"><ele>123.4</ele><time>2026-01-31T14:59:50Z</time></trkpt><trkpt lat="58.328322" lon="38.87324"><ele>123.2</ele><time>2026-01-31T15:00:00Z</time></trkpt><trkpt lat="58.328325" lon="38.873225"><ele>123.4</ele><time>2026-01-31T15:00:07Z</time></trkpt><trkpt lat="58.328325" lon="38.873225"><ele>123.4</ele><time>2026-01-31T15:00:08Z</time></trkpt><trkpt lat="58.32828" lon="38.87332"><ele>124.0</ele><time>2026-01-31T15:00:18Z</time></trkpt><trkpt lat="58.328235" lon="38.873437"><ele>124.5</ele><time>2026-01-31T15:00:25Z</time></trkpt><trkpt lat="58.32821" lon="38.873507"><ele>125.7</ele><time>2026-01-31T15:00:32Z</time></trkpt><trkpt lat="58.328165" lon="38.873625"><ele>125.1</ele><time>2026-01-31T15:00:39Z</time></trkpt><trkpt lat="58.328115" lon="38.873717"><ele>123.2</ele><time>2026-01-31T15:00:46Z</time></trkpt><trkpt lat="58.328082" lon="38.873817"><ele>122.7</ele><time>2026-01-31T15:00:53Z</time></trkpt><trkpt lat="58.32805" lon="38.873962"><ele>122.4</ele><time>2026-01-31T15:01:00Z</time></trkpt><trkpt lat="58.328012" lon="38.87407"><ele>121.7</ele><time>2026-01-31T15:01:07Z</time></trkpt><trkpt lat="58.327972" lon="38.874165"><ele>122.1</ele><time>2026-01-31T15:01:14Z</time></trkpt><trkpt lat="58.32797" lon="38.8743"><ele>120.3</ele><time>2026-01-31T15:01:21Z</time></trkpt><trkpt lat="58.32798" lon="38.874375"><ele>121.3</ele><time>2026-01-31T15:01:28Z</time></trkpt><trkpt lat="58.327975" lon="38.87441"><ele>121.2</ele><time>2026-01-31T15:01:35Z</time></trkpt><trkpt lat="58.327975" lon="38.87441"><ele>121.2</ele><time>2026-01-31T15:01:39Z</time></trkpt><trkpt lat="58.327965" lon="38.874535"><ele>121.7</ele><time>2026-01-31T15:01:47Z</time></trkpt><trkpt lat="58.32794" lon="38.874668"><ele>121.1</ele><time>2026-01-31T15:01:54Z</time></trkpt><trkpt lat="58.32792" lon="38.8748"><ele>121.7</ele><time>2026-01-31T15:02:01Z</time></trkpt><trkpt lat="58.3279" lon="38.8749"><ele>121.7</ele><time>2026-01-31T15:02:08Z</time></trkpt><trkpt lat="58.327885" lon="38.875022"><ele>122.2</ele><time>2026-01-31T15:02:15Z</time></trkpt><trkpt lat="58.32786" lon="38.875145"><ele>122.1</ele><time>2026-01-31T15:02:22Z</time></trkpt><trkpt lat="58.327847" lon="38.875277"><ele>122.1</ele><time>2026-01-31T15:02:29Z</time></trkpt><trkpt lat="58.32783" lon="38.875417"><ele>121.9</ele><time>2026-01-31T15:02:36Z</time></trkpt><trkpt lat="58.3278" lon="38.875535"><ele>122.6</ele><time>2026-01-31T15:02:43Z</time></trkpt><trkpt lat="58.327775" lon="38.875645"><ele>124.0</ele><time>2026-01-31T15:02:50Z</time></trkpt><trkpt lat="58.32775" lon="38.87574"><ele>123.7</ele><time>2026-01-31T15:02:57Z</time></trkpt><trkpt lat="58.32772" lon="38.87584"><ele>123.1</ele><time>2026-01-31T15:03:04Z</time></trkpt><trkpt lat="58.327685" lon="38.875933"><ele>123.7</ele><time>2026-01-31T15:03:11Z</time></trkpt><trkpt lat="58.327655" lon="38.876055"><ele>123.8</ele><time>2026-01-31T15:03:18Z</time></trkpt><trkpt lat="58.327622" lon="38.87616"><ele>123.4</ele><time>2026-01-31T15:03:25Z</time></trkpt><trkpt lat="58.32759" lon="38.87629"><ele>126.2</ele><time>2026-01-31T15:03:32Z</time></trkpt><trkpt lat="58.32756" lon="38.876415"><ele>126.0</ele><time>2026-01-31T15:03:39Z</time></trkpt><trkpt lat="58.32754" lon="38.87653"><ele>126.4</ele><time>2026-01-31T15:03:46Z</time></trkpt><trkpt lat="58.327522" lon="38.876615"><ele>126.5</ele><time>2026-01-31T15:03:53Z</time></trkpt><trkpt lat="58.327525" lon="38.87661"><ele>126.8</ele><time>2026-01-31T15:03:59Z</time></trkpt><trkpt lat="58.327537" lon="38.876638"><ele>126.4</ele><time>2026-01-31T15:04:09Z</time></trkpt><trkpt lat="58.327537" lon="38.876632"><ele>126.4</ele><time>2026-01-31T15:04:12Z</time></trkpt><trkpt lat="58.32754" lon="38.87662"><ele>126.3</ele><time>2026-01-31T15:04:45Z</time></trkpt><trkpt lat="58.32754" lon="38.87662"><ele>126.3</ele><time>2026-01-31T15:04:46Z</time></trkpt><trkpt lat="58.327582" lon="38.87667"><ele>124.5</ele><time>2026-01-31T15:05:10Z</time></trkpt><trkpt lat="58.327642" lon="38.876697"><ele>124.3</ele><time>2026-01-31T15:05:17Z</time></trkpt><trkpt lat="58.327705" lon="38.87672"><ele>122.8</ele><time>2026-01-31T15:05:24Z</time></trkpt><trkpt lat="58.327777" lon="38.87675"><ele>121.7</ele><time>2026-01-31T15:05:31Z</time></trkpt><trkpt lat="58.327845" lon="38.87677"><ele>122.3</ele><time>2026-01-31T15:05:38Z</time></trkpt><trkpt lat="58.32792" lon="38.876825"><ele>122.1</ele><time>2026-01-31T15:05:45Z</time></trkpt><trkpt lat="58.327987" lon="38.876865"><ele>121.9</ele><time>2026-01-31T15:05:51Z</time></trkpt><trkpt lat="58.328065" lon="38.8769"><ele>122.5</ele><time>2026-01-31T15:05:58Z</time></trkpt><trkpt lat="58.32814" lon="38.876945"><ele>121.3</ele><time>2026-01-31T15:06:05Z</time></trkpt><trkpt lat="58.32821" lon="38.876985"><ele>120.9</ele><time>2026-01-31T15:06:12Z</time></trkpt><trkpt lat="58.328215" lon="38.87707"><ele>123.3</ele><time>2026-01-31T15:06:19Z</time></trkpt><trkpt lat="58.328185" lon="38.8772"><ele>125.3</ele><time>2026-01-31T15:06:26Z</time></trkpt><trkpt lat="58.32817" lon="38.877355"><ele>127.3</ele><time>2026-01-31T15:06:33Z</time></trkpt><trkpt lat="58.328145" lon="38.877485"><ele>126.0</ele><time>2026-01-31T15:06:40Z</time></trkpt><trkpt lat="58.32813" lon="38.877617"><ele>124.8</ele><time>2026-01-31T15:06:47Z</time></trkpt><trkpt lat="58.32813" lon="38.877735"><ele>124.9</ele><time>2026-01-31T15:06:54Z</time></trkpt><trkpt lat="58.328173" lon="38.87778"><ele>126.0</ele><time>2026-01-31T15:07:01Z</time></trkpt><trkpt lat="58.32821" lon="38.877827"><ele>125.0</ele><time>2026-01-31T15:07:08Z</time></trkpt><trkpt lat="58.328225" lon="38.877805"><ele>124.6</ele><time>2026-01-31T15:07:15Z</time></trkpt><trkpt lat="58.328225" lon="38.877805"><ele>124.6</ele><time>2026-01-31T15:07:17Z</time></trkpt><trkpt lat="58.328285" lon="38.87792"><ele>123.5</ele><time>2026-01-31T15:07:39Z</time></trkpt><trkpt lat="58.32834" lon="38.877987"><ele>123.4</ele><time>2026-01-31T15:07:46Z</time></trkpt><trkpt lat="58.328378" lon="38.878067"><ele>122.9</ele><time>2026-01-31T15:07:53Z</time></trkpt><trkpt lat="58.328432" lon="38.878165"><ele>122.8</ele><time>2026-01-31T15:08:00Z</time></trkpt><trkpt lat="58.328495" lon="38.878205"><ele>124.1</ele><time>2026-01-31T15:08:07Z</time></trkpt><trkpt lat="58.328545" lon="38.878225"><ele>123.6</ele><time>2026-01-31T15:08:14Z</time></trkpt><trkpt lat="58.328577" lon="38.87826"><ele>123.3</ele><time>2026-01-31T15:08:21Z</time></trkpt><trkpt lat="58.328577" lon="38.878262"><ele>123.3</ele><time>2026-01-31T15:08:27Z</time></trkpt></trkseg></trk></gpx>