<?xml version="1.0" encoding="UTF-8" standalone="no"?><gpx xmlns="http://www.topografix.com/GPX/1/1" xmlns:gpxtpx="http://www.garmin.com/xmlschemas/TrackPointExtension/v1" xmlns:xsi="http://www.w3.org/2001/XMLSchema-instance" creator="Sports Tracker" version="1.1" xsi:schemaLocation="http://www.topografix.com/GPX/1/1 http://www.topografix.com/GPX/1/1/gpx.xsd http://www.garmin.com/xmlschemas/TrackPointExtension/v1 http://www.garmin.com/xmlschemas/TrackPointExtensionv1.xsd"><metadata><name/><desc/><author><name>Александр</name></author></metadata><trk><name/><trkseg><trkpt lat="58.058918" lon="38.817435"><ele>104.0</ele><time>2023-05-30T12:11:14Z</time></trkpt><trkpt lat="58.059013" lon="38.817425"><ele>103.9</ele><time>2023-05-30T12:11:17Z</time></trkpt><trkpt lat="58.059092" lon="38.817415"><ele>103.6</ele><time>2023-05-30T12:11:20Z</time></trkpt><trkpt lat="58.059197" lon="38.8174"><ele>103.0</ele><time>2023-05-30T12:11:23Z</time></trkpt><trkpt lat="58.059275" lon="38.817398"><ele>102.8</ele><time>2023-05-30T12:11:25Z</time></trkpt><trkpt lat="58.059348" lon="38.817385"><ele>103.0</ele><time>2023-05-30T12:11:27Z</time></trkpt><trkpt lat="58.059423" lon="38.817387"><ele>103.1</ele><time>2023-05-30T12:11:30Z</time></trkpt><trkpt lat="58.059523" lon="38.817385"><ele>102.7</ele><time>2023-05-30T12:11:33Z</time></trkpt><trkpt lat="58.059618" lon="38.817405"><ele>102.0</ele><time>2023-05-30T12:11:35Z</time></trkpt><trkpt lat="58.059727" lon="38.817522"><ele>100.7</ele><time>2023-05-30T12:11:37Z</time></trkpt><trkpt lat="58.05976" lon="38.817653"><ele>100.2</ele><time>2023-05-30T12:11:40Z</time></trkpt><trkpt lat="58.05975" lon="38.817858"><ele>100.4</ele><time>2023-05-30T12:11:44Z</time></trkpt><trkpt lat="58.059733" lon="38.818028"><ele>100.9</ele><time>2023-05-30T12:11:46Z</time></trkpt><trkpt lat="58.059727" lon="38.818238"><ele>100.1</ele><time>2023-05-30T12:11:48Z</time></trkpt><trkpt lat="58.059717" lon="38.818448"><ele>100.8</ele><time>2023-05-30T12:11:50Z</time></trkpt><trkpt lat="58.059707" lon="38.81865"><ele>100.9</ele><time>2023-05-30T12:11:52Z</time></trkpt><trkpt lat="58.059695" lon="38.818842"><ele>100.3</ele><time>2023-05-30T12:11:54Z</time></trkpt><trkpt lat="58.059683" lon="38.819025"><ele>100.4</ele><time>2023-05-30T12:11:56Z</time></trkpt><trkpt lat="58.059673" lon="38.81921"><ele>100.6</ele><time>2023-05-30T12:11:58Z</time></trkpt><trkpt lat="58.059673" lon="38.819387"><ele>100.4</ele><time>2023-05-30T12:12:00Z</time></trkpt><trkpt lat="58.059665" lon="38.81957"><ele>100.3</ele><time>2023-05-30T12:12:02Z</time></trkpt><trkpt lat="58.059655" lon="38.819735"><ele>100.5</ele><time>2023-05-30T12:12:04Z</time></trkpt><trkpt lat="58.059645" lon="38.819907"><ele>100.7</ele><time>2023-05-30T12:12:06Z</time></trkpt><trkpt lat="58.059628" lon="38.820068"><ele>101.7</ele><time>2023-05-30T12:12:08Z</time></trkpt><trkpt lat="58.05961" lon="38.820257"><ele>100.9</ele><time>2023-05-30T12:12:10Z</time></trkpt><trkpt lat="58.059617" lon="38.820463"><ele>100.8</ele><time>2023-05-30T12:12:12Z</time></trkpt><trkpt lat="58.059577" lon="38.820668"><ele>100.2</ele><time>2023-05-30T12:12:14Z</time></trkpt><trkpt lat="58.059542" lon="38.820852"><ele>99.7</ele><time>2023-05-30T12:12:16Z</time></trkpt><trkpt lat="58.059552" lon="38.821013"><ele>99.1</ele><time>2023-05-30T12:12:18Z</time></trkpt><trkpt lat="58.059567" lon="38.821165"><ele>99.1</ele><time>2023-05-30T12:12:25Z</time></trkpt><trkpt lat="58.059635" lon="38.821222"><ele>98.8</ele><time>2023-05-30T12:13:05Z</time></trkpt><trkpt lat="58.059705" lon="38.821297"><ele>97.6</ele><time>2023-05-30T12:13:07Z</time></trkpt><trkpt lat="58.059777" lon="38.821422"><ele>98.4</ele><time>2023-05-30T12:13:09Z</time></trkpt><trkpt lat="58.059745" lon="38.821583"><ele>97.6</ele><time>2023-05-30T12:13:10Z</time></trkpt><trkpt lat="58.059722" lon="38.8218"><ele>97.9</ele><time>2023-05-30T12:13:12Z</time></trkpt><trkpt lat="58.05969" lon="38.822053"><ele>97.2</ele><time>2023-05-30T12:13:14Z</time></trkpt><trkpt lat="58.059677" lon="38.822255"><ele>97.5</ele><time>2023-05-30T12:13:16Z</time></trkpt><trkpt lat="58.05965" lon="38.822473"><ele>97.2</ele><time>2023-05-30T12:13:18Z</time></trkpt><trkpt lat="58.05963" lon="38.822687"><ele>96.4</ele><time>2023-05-30T12:13:20Z</time></trkpt><trkpt lat="58.059613" lon="38.822862"><ele>96.3</ele><time>2023-05-30T12:13:22Z</time></trkpt><trkpt lat="58.059603" lon="38.823058"><ele>95.8</ele><time>2023-05-30T12:13:24Z</time></trkpt><trkpt lat="58.05958" lon="38.823278"><ele>96.3</ele><time>2023-05-30T12:13:26Z</time></trkpt><trkpt lat="58.05952" lon="38.823388"><ele>96.3</ele><time>2023-05-30T12:13:27Z</time></trkpt><trkpt lat="58.059498" lon="38.823518"><ele>95.8</ele><time>2023-05-30T12:13:28Z</time></trkpt><trkpt lat="58.059407" lon="38.823647"><ele>96.0</ele><time>2023-05-30T12:13:30Z</time></trkpt><trkpt lat="58.059313" lon="38.823808"><ele>95.7</ele><time>2023-05-30T12:13:32Z</time></trkpt><trkpt lat="58.05923" lon="38.82398"><ele>96.1</ele><time>2023-05-30T12:13:34Z</time></trkpt><trkpt lat="58.059153" lon="38.824173"><ele>95.5</ele><time>2023-05-30T12:13:36Z</time></trkpt><trkpt lat="58.059083" lon="38.824347"><ele>94.9</ele><time>2023-05-30T12:13:38Z</time></trkpt><trkpt lat="58.059092" lon="38.824498"><ele>94.8</ele><time>2023-05-30T12:13:39Z</time></trkpt><trkpt lat="58.059118" lon="38.824702"><ele>95.6</ele><time>2023-05-30T12:13:41Z</time></trkpt><trkpt lat="58.05915" lon="38.824885"><ele>95.7</ele><time>2023-05-30T12:13:43Z</time></trkpt><trkpt lat="58.059183" lon="38.825077"><ele>96.2</ele><time>2023-05-30T12:13:45Z</time></trkpt><trkpt lat="58.059245" lon="38.825245"><ele>96.5</ele><time>2023-05-30T12:13:47Z</time></trkpt><trkpt lat="58.059295" lon="38.825412"><ele>96.5</ele><time>2023-05-30T12:13:49Z</time></trkpt><trkpt lat="58.059323" lon="38.825578"><ele>96.6</ele><time>2023-05-30T12:13:51Z</time></trkpt><trkpt lat="58.059363" lon="38.825727"><ele>97.3</ele><time>2023-05-30T12:13:53Z</time></trkpt><trkpt lat="58.059415" lon="38.825838"><ele>97.4</ele><time>2023-05-30T12:13:55Z</time></trkpt><trkpt lat="58.05944" lon="38.826042"><ele>96.8</ele><time>2023-05-30T12:13:58Z</time></trkpt><trkpt lat="58.059417" lon="38.82622"><ele>96.7</ele><time>2023-05-30T12:14:00Z</time></trkpt><trkpt lat="58.059423" lon="38.826368"><ele>95.7</ele><time>2023-05-30T12:14:02Z</time></trkpt><trkpt lat="58.059405" lon="38.826565"><ele>97.3</ele><time>2023-05-30T12:14:05Z</time></trkpt><trkpt lat="58.059347" lon="38.82667"><ele>97.6</ele><time>2023-05-30T12:14:07Z</time></trkpt><trkpt lat="58.05928" lon="38.82676"><ele>97.7</ele><time>2023-05-30T12:14:09Z</time></trkpt><trkpt lat="58.059227" lon="38.826902"><ele>98.7</ele><time>2023-05-30T12:14:11Z</time></trkpt><trkpt lat="58.05914" lon="38.827088"><ele>98.7</ele><time>2023-05-30T12:14:13Z</time></trkpt><trkpt lat="58.05909" lon="38.827247"><ele>98.4</ele><time>2023-05-30T12:14:15Z</time></trkpt><trkpt lat="58.059045" lon="38.827402"><ele>99.4</ele><time>2023-05-30T12:14:17Z</time></trkpt><trkpt lat="58.059003" lon="38.827538"><ele>101.5</ele><time>2023-05-30T12:14:19Z</time></trkpt><trkpt lat="58.058972" lon="38.827677"><ele>102.2</ele><time>2023-05-30T12:14:21Z</time></trkpt><trkpt lat="58.05893" lon="38.827817"><ele>102.3</ele><time>2023-05-30T12:14:23Z</time></trkpt><trkpt lat="58.058892" lon="38.82798"><ele>102.3</ele><time>2023-05-30T12:14:25Z</time></trkpt><trkpt lat="58.058848" lon="38.828152"><ele>101.3</ele><time>2023-05-30T12:14:27Z</time></trkpt><trkpt lat="58.058772" lon="38.82831"><ele>99.0</ele><time>2023-05-30T12:14:29Z</time></trkpt><trkpt lat="58.058733" lon="38.828468"><ele>96.8</ele><time>2023-05-30T12:14:31Z</time></trkpt><trkpt lat="58.058702" lon="38.82864"><ele>97.4</ele><time>2023-05-30T12:14:33Z</time></trkpt><trkpt lat="58.058638" lon="38.828768"><ele>98.2</ele><time>2023-05-30T12:14:35Z</time></trkpt><trkpt lat="58.058617" lon="38.828948"><ele>98.4</ele><time>2023-05-30T12:14:37Z</time></trkpt><trkpt lat="58.058553" lon="38.829135"><ele>96.4</ele><time>2023-05-30T12:14:39Z</time></trkpt><trkpt lat="58.058442" lon="38.829307"><ele>95.0</ele><time>2023-05-30T12:14:41Z</time></trkpt><trkpt lat="58.05838" lon="38.829397"><ele>94.8</ele><time>2023-05-30T12:14:42Z</time></trkpt><trkpt lat="58.058253" lon="38.829572"><ele>93.7</ele><time>2023-05-30T12:14:44Z</time></trkpt><trkpt lat="58.058193" lon="38.829665"><ele>94.0</ele><time>2023-05-30T12:14:45Z</time></trkpt><trkpt lat="58.05813" lon="38.829735"><ele>94.3</ele><time>2023-05-30T12:14:46Z</time></trkpt><trkpt lat="58.058038" lon="38.829898"><ele>93.8</ele><time>2023-05-30T12:14:48Z</time></trkpt><trkpt lat="58.057942" lon="38.830035"><ele>94.5</ele><time>2023-05-30T12:14:50Z</time></trkpt><trkpt lat="58.057843" lon="38.830212"><ele>95.1</ele><time>2023-05-30T12:14:52Z</time></trkpt><trkpt lat="58.057748" lon="38.83035"><ele>95.1</ele><time>2023-05-30T12:14:54Z</time></trkpt><trkpt lat="58.057665" lon="38.830498"><ele>95.7</ele><time>2023-05-30T12:14:56Z</time></trkpt><trkpt lat="58.05756" lon="38.830658"><ele>95.0</ele><time>2023-05-30T12:14:58Z</time></trkpt><trkpt lat="58.057477" lon="38.830845"><ele>95.5</ele><time>2023-05-30T12:15:00Z</time></trkpt><trkpt lat="58.05736" lon="38.830988"><ele>95.5</ele><time>2023-05-30T12:15:02Z</time></trkpt><trkpt lat="58.057253" lon="38.831112"><ele>94.6</ele><time>2023-05-30T12:15:04Z</time></trkpt><trkpt lat="58.057157" lon="38.831232"><ele>94.8</ele><time>2023-05-30T12:15:06Z</time></trkpt><trkpt lat="58.05706" lon="38.831385"><ele>95.2</ele><time>2023-05-30T12:15:08Z</time></trkpt><trkpt lat="58.056973" lon="38.831562"><ele>95.0</ele><time>2023-05-30T12:15:10Z</time></trkpt><trkpt lat="58.056907" lon="38.831777"><ele>94.8</ele><time>2023-05-30T12:15:12Z</time></trkpt><trkpt lat="58.056842" lon="38.831982"><ele>95.0</ele><time>2023-05-30T12:15:14Z</time></trkpt><trkpt lat="58.056783" lon="38.832168"><ele>96.1</ele><time>2023-05-30T12:15:16Z</time></trkpt><trkpt lat="58.056723" lon="38.832342"><ele>97.3</ele><time>2023-05-30T12:15:18Z</time></trkpt><trkpt lat="58.056673" lon="38.832522"><ele>97.9</ele><time>2023-05-30T12:15:20Z</time></trkpt><trkpt lat="58.056595" lon="38.832727"><ele>97.4</ele><time>2023-05-30T12:15:22Z</time></trkpt><trkpt lat="58.056573" lon="38.832932"><ele>97.7</ele><time>2023-05-30T12:15:24Z</time></trkpt><trkpt lat="58.05649" lon="38.833093"><ele>96.3</ele><time>2023-05-30T12:15:26Z</time></trkpt><trkpt lat="58.056435" lon="38.833327"><ele>96.6</ele><time>2023-05-30T12:15:28Z</time></trkpt><trkpt lat="58.056397" lon="38.833522"><ele>95.3</ele><time>2023-05-30T12:15:30Z</time></trkpt><trkpt lat="58.056327" lon="38.833648"><ele>94.3</ele><time>2023-05-30T12:15:31Z</time></trkpt><trkpt lat="58.056262" lon="38.833833"><ele>94.5</ele><time>2023-05-30T12:15:33Z</time></trkpt><trkpt lat="58.056217" lon="38.83395"><ele>94.1</ele><time>2023-05-30T12:15:34Z</time></trkpt><trkpt lat="58.056172" lon="38.834132"><ele>94.5</ele><time>2023-05-30T12:15:36Z</time></trkpt><trkpt lat="58.056123" lon="38.834365"><ele>95.7</ele><time>2023-05-30T12:15:38Z</time></trkpt><trkpt lat="58.05607" lon="38.83458"><ele>95.5</ele><time>2023-05-30T12:15:40Z</time></trkpt><trkpt lat="58.056007" lon="38.834772"><ele>96.4</ele><time>2023-05-30T12:15:42Z</time></trkpt><trkpt lat="58.055943" lon="38.83499"><ele>97.5</ele><time>2023-05-30T12:15:44Z</time></trkpt><trkpt lat="58.055868" lon="38.83519"><ele>98.5</ele><time>2023-05-30T12:15:46Z</time></trkpt><trkpt lat="58.055813" lon="38.835395"><ele>101.0</ele><time>2023-05-30T12:15:48Z</time></trkpt><trkpt lat="58.055755" lon="38.835607"><ele>101.8</ele><time>2023-05-30T12:15:50Z</time></trkpt><trkpt lat="58.055695" lon="38.835807"><ele>101.4</ele><time>2023-05-30T12:15:52Z</time></trkpt><trkpt lat="58.055642" lon="38.835992"><ele>102.1</ele><time>2023-05-30T12:15:54Z</time></trkpt><trkpt lat="58.05557" lon="38.836162"><ele>102.7</ele><time>2023-05-30T12:15:56Z</time></trkpt><trkpt lat="58.055512" lon="38.836357"><ele>101.9</ele><time>2023-05-30T12:15:58Z</time></trkpt><trkpt lat="58.055453" lon="38.836542"><ele>100.7</ele><time>2023-05-30T12:16:00Z</time></trkpt><trkpt lat="58.055395" lon="38.836738"><ele>99.4</ele><time>2023-05-30T12:16:02Z</time></trkpt><trkpt lat="58.055322" lon="38.836922"><ele>99.3</ele><time>2023-05-30T12:16:04Z</time></trkpt><trkpt lat="58.055272" lon="38.837118"><ele>98.6</ele><time>2023-05-30T12:16:06Z</time></trkpt><trkpt lat="58.055193" lon="38.837292"><ele>97.0</ele><time>2023-05-30T12:16:08Z</time></trkpt><trkpt lat="58.055122" lon="38.837485"><ele>95.8</ele><time>2023-05-30T12:16:10Z</time></trkpt><trkpt lat="58.055058" lon="38.837663"><ele>96.2</ele><time>2023-05-30T12:16:12Z</time></trkpt><trkpt lat="58.055008" lon="38.837847"><ele>96.2</ele><time>2023-05-30T12:16:14Z</time></trkpt><trkpt lat="58.054947" lon="38.838028"><ele>96.2</ele><time>2023-05-30T12:16:16Z</time></trkpt><trkpt lat="58.054878" lon="38.838202"><ele>95.4</ele><time>2023-05-30T12:16:18Z</time></trkpt><trkpt lat="58.054827" lon="38.838382"><ele>96.2</ele><time>2023-05-30T12:16:20Z</time></trkpt><trkpt lat="58.05476" lon="38.838548"><ele>97.2</ele><time>2023-05-30T12:16:22Z</time></trkpt><trkpt lat="58.054677" lon="38.838732"><ele>95.1</ele><time>2023-05-30T12:16:24Z</time></trkpt><trkpt lat="58.054633" lon="38.8389"><ele>95.7</ele><time>2023-05-30T12:16:26Z</time></trkpt><trkpt lat="58.054568" lon="38.839087"><ele>96.0</ele><time>2023-05-30T12:16:28Z</time></trkpt><trkpt lat="58.05451" lon="38.839258"><ele>95.7</ele><time>2023-05-30T12:16:30Z</time></trkpt><trkpt lat="58.054458" lon="38.839422"><ele>96.3</ele><time>2023-05-30T12:16:32Z</time></trkpt><trkpt lat="58.054418" lon="38.839572"><ele>97.6</ele><time>2023-05-30T12:16:34Z</time></trkpt><trkpt lat="58.05437" lon="38.839725"><ele>97.7</ele><time>2023-05-30T12:16:36Z</time></trkpt><trkpt lat="58.054325" lon="38.8399"><ele>97.0</ele><time>2023-05-30T12:16:38Z</time></trkpt><trkpt lat="58.054242" lon="38.84006"><ele>96.5</ele><time>2023-05-30T12:16:40Z</time></trkpt><trkpt lat="58.054163" lon="38.840243"><ele>95.7</ele><time>2023-05-30T12:16:42Z</time></trkpt><trkpt lat="58.054107" lon="38.840443"><ele>96.2</ele><time>2023-05-30T12:16:44Z</time></trkpt><trkpt lat="58.05403" lon="38.840632"><ele>96.7</ele><time>2023-05-30T12:16:46Z</time></trkpt><trkpt lat="58.053952" lon="38.8408"><ele>96.0</ele><time>2023-05-30T12:16:48Z</time></trkpt><trkpt lat="58.053888" lon="38.84099"><ele>95.4</ele><time>2023-05-30T12:16:50Z</time></trkpt><trkpt lat="58.053812" lon="38.841162"><ele>95.7</ele><time>2023-05-30T12:16:52Z</time></trkpt><trkpt lat="58.053753" lon="38.84135"><ele>95.4</ele><time>2023-05-30T12:16:54Z</time></trkpt><trkpt lat="58.053695" lon="38.841547"><ele>96.6</ele><time>2023-05-30T12:16:56Z</time></trkpt><trkpt lat="58.053625" lon="38.84175"><ele>96.5</ele><time>2023-05-30T12:16:58Z</time></trkpt><trkpt lat="58.053555" lon="38.841933"><ele>97.3</ele><time>2023-05-30T12:17:00Z</time></trkpt><trkpt lat="58.05349" lon="38.842142"><ele>96.5</ele><time>2023-05-30T12:17:02Z</time></trkpt><trkpt lat="58.05342" lon="38.842325"><ele>94.8</ele><time>2023-05-30T12:17:04Z</time></trkpt><trkpt lat="58.053345" lon="38.842512"><ele>93.8</ele><time>2023-05-30T12:17:06Z</time></trkpt><trkpt lat="58.053293" lon="38.842728"><ele>93.6</ele><time>2023-05-30T12:17:08Z</time></trkpt><trkpt lat="58.053225" lon="38.842878"><ele>92.7</ele><time>2023-05-30T12:17:10Z</time></trkpt><trkpt lat="58.053168" lon="38.843047"><ele>93.5</ele><time>2023-05-30T12:17:12Z</time></trkpt><trkpt lat="58.0531" lon="38.84322"><ele>94.5</ele><time>2023-05-30T12:17:14Z</time></trkpt><trkpt lat="58.053042" lon="38.843405"><ele>94.6</ele><time>2023-05-30T12:17:16Z</time></trkpt><trkpt lat="58.052993" lon="38.843543"><ele>93.2</ele><time>2023-05-30T12:17:18Z</time></trkpt><trkpt lat="58.052947" lon="38.843678"><ele>93.5</ele><time>2023-05-30T12:17:20Z</time></trkpt><trkpt lat="58.052872" lon="38.843857"><ele>93.3</ele><time>2023-05-30T12:17:22Z</time></trkpt><trkpt lat="58.052787" lon="38.844043"><ele>93.7</ele><time>2023-05-30T12:17:24Z</time></trkpt><trkpt lat="58.052738" lon="38.84417"><ele>94.0</ele><time>2023-05-30T12:17:25Z</time></trkpt><trkpt lat="58.052632" lon="38.844287"><ele>94.0</ele><time>2023-05-30T12:17:27Z</time></trkpt><trkpt lat="58.052527" lon="38.844305"><ele>94.6</ele><time>2023-05-30T12:17:29Z</time></trkpt><trkpt lat="58.052455" lon="38.844335"><ele>95.2</ele><time>2023-05-30T12:17:30Z</time></trkpt><trkpt lat="58.052337" lon="38.844367"><ele>96.3</ele><time>2023-05-30T12:17:32Z</time></trkpt><trkpt lat="58.052222" lon="38.844422"><ele>96.8</ele><time>2023-05-30T12:17:34Z</time></trkpt><trkpt lat="58.052135" lon="38.844472"><ele>97.6</ele><time>2023-05-30T12:17:36Z</time></trkpt><trkpt lat="58.052055" lon="38.844558"><ele>98.5</ele><time>2023-05-30T12:17:38Z</time></trkpt><trkpt lat="58.051962" lon="38.844605"><ele>98.9</ele><time>2023-05-30T12:17:40Z</time></trkpt><trkpt lat="58.051855" lon="38.844687"><ele>99.3</ele><time>2023-05-30T12:17:42Z</time></trkpt><trkpt lat="58.051757" lon="38.844708"><ele>99.4</ele><time>2023-05-30T12:17:44Z</time></trkpt><trkpt lat="58.051668" lon="38.844775"><ele>99.8</ele><time>2023-05-30T12:17:46Z</time></trkpt><trkpt lat="58.051588" lon="38.844915"><ele>100.4</ele><time>2023-05-30T12:17:49Z</time></trkpt><trkpt lat="58.051567" lon="38.845067"><ele>100.6</ele><time>2023-05-30T12:17:51Z</time></trkpt><trkpt lat="58.051532" lon="38.845228"><ele>99.7</ele><time>2023-05-30T12:17:54Z</time></trkpt><trkpt lat="58.051497" lon="38.84537"><ele>99.5</ele><time>2023-05-30T12:17:56Z</time></trkpt><trkpt lat="58.051473" lon="38.84552"><ele>100.7</ele><time>2023-05-30T12:17:58Z</time></trkpt><trkpt lat="58.05144" lon="38.845672"><ele>100.2</ele><time>2023-05-30T12:18:00Z</time></trkpt><trkpt lat="58.051413" lon="38.84583"><ele>99.9</ele><time>2023-05-30T12:18:02Z</time></trkpt><trkpt lat="58.051355" lon="38.84602"><ele>99.4</ele><time>2023-05-30T12:18:04Z</time></trkpt><trkpt lat="58.051348" lon="38.846225"><ele>99.8</ele><time>2023-05-30T12:18:07Z</time></trkpt><trkpt lat="58.051318" lon="38.846368"><ele>99.4</ele><time>2023-05-30T12:18:09Z</time></trkpt><trkpt lat="58.051293" lon="38.846537"><ele>100.2</ele><time>2023-05-30T12:18:12Z</time></trkpt><trkpt lat="58.051252" lon="38.846673"><ele>98.8</ele><time>2023-05-30T12:18:15Z</time></trkpt><trkpt lat="58.051167" lon="38.846642"><ele>99.4</ele><time>2023-05-30T12:18:40Z</time></trkpt><trkpt lat="58.051087" lon="38.846588"><ele>99.4</ele><time>2023-05-30T12:18:42Z</time></trkpt><trkpt lat="58.050983" lon="38.846533"><ele>99.5</ele><time>2023-05-30T12:18:45Z</time></trkpt><trkpt lat="58.05087" lon="38.84648"><ele>99.4</ele><time>2023-05-30T12:18:47Z</time></trkpt><trkpt lat="58.050745" lon="38.846415"><ele>99.3</ele><time>2023-05-30T12:18:49Z</time></trkpt><trkpt lat="58.050633" lon="38.846345"><ele>99.1</ele><time>2023-05-30T12:18:51Z</time></trkpt><trkpt lat="58.050535" lon="38.846282"><ele>99.1</ele><time>2023-05-30T12:18:53Z</time></trkpt><trkpt lat="58.050443" lon="38.846178"><ele>99.2</ele><time>2023-05-30T12:18:55Z</time></trkpt><trkpt lat="58.05033" lon="38.846152"><ele>99.6</ele><time>2023-05-30T12:18:57Z</time></trkpt><trkpt lat="58.050233" lon="38.846123"><ele>99.9</ele><time>2023-05-30T12:18:59Z</time></trkpt><trkpt lat="58.05012" lon="38.846095"><ele>100.4</ele><time>2023-05-30T12:19:02Z</time></trkpt><trkpt lat="58.050023" lon="38.846048"><ele>100.0</ele><time>2023-05-30T12:19:05Z</time></trkpt><trkpt lat="58.049947" lon="38.845975"><ele>99.8</ele><time>2023-05-30T12:19:07Z</time></trkpt><trkpt lat="58.049855" lon="38.845905"><ele>99.5</ele><time>2023-05-30T12:19:09Z</time></trkpt><trkpt lat="58.049788" lon="38.845853"><ele>99.3</ele><time>2023-05-30T12:19:11Z</time></trkpt><trkpt lat="58.049693" lon="38.845788"><ele>99.5</ele><time>2023-05-30T12:19:14Z</time></trkpt><trkpt lat="58.049612" lon="38.84573"><ele>99.4</ele><time>2023-05-30T12:19:16Z</time></trkpt><trkpt lat="58.04954" lon="38.845685"><ele>99.8</ele><time>2023-05-30T12:19:18Z</time></trkpt><trkpt lat="58.049447" lon="38.845618"><ele>99.1</ele><time>2023-05-30T12:19:21Z</time></trkpt><trkpt lat="58.049372" lon="38.845577"><ele>98.8</ele><time>2023-05-30T12:19:23Z</time></trkpt><trkpt lat="58.04929" lon="38.845538"><ele>98.6</ele><time>2023-05-30T12:19:25Z</time></trkpt><trkpt lat="58.049205" lon="38.8455"><ele>98.3</ele><time>2023-05-30T12:19:27Z</time></trkpt><trkpt lat="58.049128" lon="38.845403"><ele>98.6</ele><time>2023-05-30T12:19:29Z</time></trkpt><trkpt lat="58.049058" lon="38.84533"><ele>98.9</ele><time>2023-05-30T12:19:31Z</time></trkpt><trkpt lat="58.048957" lon="38.845317"><ele>100.2</ele><time>2023-05-30T12:19:35Z</time></trkpt><trkpt lat="58.048887" lon="38.845373"><ele>100.6</ele><time>2023-05-30T12:19:38Z</time></trkpt><trkpt lat="58.048917" lon="38.845247"><ele>101.7</ele><time>2023-05-30T12:19:58Z</time></trkpt><trkpt lat="58.048933" lon="38.845082"><ele>102.4</ele><time>2023-05-30T12:20:47Z</time></trkpt><trkpt lat="58.048982" lon="38.845228"><ele>102.4</ele><time>2023-05-30T12:20:49Z</time></trkpt><trkpt lat="58.04907" lon="38.84533"><ele>102.1</ele><time>2023-05-30T12:20:52Z</time></trkpt><trkpt lat="58.049163" lon="38.845267"><ele>101.8</ele><time>2023-05-30T12:20:54Z</time></trkpt><trkpt lat="58.049088" lon="38.845292"><ele>101.8</ele><time>2023-05-30T12:21:00Z</time></trkpt><trkpt lat="58.049163" lon="38.84526"><ele>101.8</ele><time>2023-05-30T12:21:13Z</time></trkpt><trkpt lat="58.049098" lon="38.845382"><ele>101.5</ele><time>2023-05-30T12:21:25Z</time></trkpt><trkpt lat="58.049002" lon="38.845365"><ele>101.4</ele><time>2023-05-30T12:21:27Z</time></trkpt><trkpt lat="58.048925" lon="38.845293"><ele>101.9</ele><time>2023-05-30T12:21:43Z</time></trkpt><trkpt lat="58.04991" lon="38.84083"><ele>98.3</ele><time>2023-05-30T13:06:08Z</time></trkpt><trkpt lat="58.049357" lon="38.843313"><ele>101.0</ele><time>2023-05-30T13:06:10Z</time></trkpt><trkpt lat="58.049492" lon="38.844705"><ele>101.1</ele><time>2023-05-30T13:06:12Z</time></trkpt><trkpt lat="58.049403" lon="38.845115"><ele>101.0</ele><time>2023-05-30T13:06:13Z</time></trkpt><trkpt lat="58.049327" lon="38.845112"><ele>116.3</ele><time>2023-05-30T13:06:16Z</time></trkpt><trkpt lat="58.049145" lon="38.845227"><ele>106.0</ele><time>2023-05-30T13:06:17Z</time></trkpt><trkpt lat="58.049207" lon="38.84533"><ele>105.2</ele><time>2023-05-30T13:06:34Z</time></trkpt><trkpt lat="58.04927" lon="38.845393"><ele>105.7</ele><time>2023-05-30T13:06:37Z</time></trkpt><trkpt lat="58.049338" lon="38.845465"><ele>106.6</ele><time>2023-05-30T13:06:40Z</time></trkpt><trkpt lat="58.049428" lon="38.845538"><ele>106.9</ele><time>2023-05-30T13:06:43Z</time></trkpt><trkpt lat="58.04951" lon="38.845593"><ele>106.8</ele><time>2023-05-30T13:06:46Z</time></trkpt><trkpt lat="58.049583" lon="38.845625"><ele>106.0</ele><time>2023-05-30T13:06:49Z</time></trkpt><trkpt lat="58.049658" lon="38.84569"><ele>104.7</ele><time>2023-05-30T13:06:55Z</time></trkpt><trkpt lat="58.049727" lon="38.84576"><ele>103.4</ele><time>2023-05-30T13:07:01Z</time></trkpt><trkpt lat="58.0498" lon="38.845807"><ele>103.0</ele><time>2023-05-30T13:07:05Z</time></trkpt><trkpt lat="58.049883" lon="38.845847"><ele>102.6</ele><time>2023-05-30T13:07:09Z</time></trkpt><trkpt lat="58.049953" lon="38.845888"><ele>102.8</ele><time>2023-05-30T13:07:14Z</time></trkpt><trkpt lat="58.050033" lon="38.845923"><ele>102.6</ele><time>2023-05-30T13:07:18Z</time></trkpt><trkpt lat="58.050118" lon="38.845998"><ele>102.6</ele><time>2023-05-30T13:07:21Z</time></trkpt><trkpt lat="58.050202" lon="38.846023"><ele>102.3</ele><time>2023-05-30T13:07:24Z</time></trkpt><trkpt lat="58.050285" lon="38.84609"><ele>102.7</ele><time>2023-05-30T13:07:39Z</time></trkpt><trkpt lat="58.050368" lon="38.846147"><ele>102.8</ele><time>2023-05-30T13:07:42Z</time></trkpt><trkpt lat="58.050467" lon="38.846183"><ele>102.6</ele><time>2023-05-30T13:07:45Z</time></trkpt><trkpt lat="58.050555" lon="38.84622"><ele>101.9</ele><time>2023-05-30T13:07:48Z</time></trkpt><trkpt lat="58.050653" lon="38.846285"><ele>101.7</ele><time>2023-05-30T13:07:51Z</time></trkpt><trkpt lat="58.05074" lon="38.84634"><ele>101.9</ele><time>2023-05-30T13:07:54Z</time></trkpt><trkpt lat="58.050813" lon="38.846387"><ele>100.6</ele><time>2023-05-30T13:08:51Z</time></trkpt><trkpt lat="58.05089" lon="38.846422"><ele>100.5</ele><time>2023-05-30T13:08:56Z</time></trkpt><trkpt lat="58.050963" lon="38.84644"><ele>100.8</ele><time>2023-05-30T13:09:01Z</time></trkpt><trkpt lat="58.051027" lon="38.84652"><ele>100.5</ele><time>2023-05-30T13:09:06Z</time></trkpt><trkpt lat="58.051102" lon="38.846567"><ele>101.0</ele><time>2023-05-30T13:09:12Z</time></trkpt><trkpt lat="58.051173" lon="38.846603"><ele>99.0</ele><time>2023-05-30T13:09:35Z</time></trkpt><trkpt lat="58.05126" lon="38.846575"><ele>99.1</ele><time>2023-05-30T13:09:38Z</time></trkpt><trkpt lat="58.051295" lon="38.846407"><ele>98.8</ele><time>2023-05-30T13:09:42Z</time></trkpt><trkpt lat="58.051325" lon="38.846218"><ele>98.3</ele><time>2023-05-30T13:09:45Z</time></trkpt><trkpt lat="58.051363" lon="38.84605"><ele>97.6</ele><time>2023-05-30T13:09:48Z</time></trkpt><trkpt lat="58.0514" lon="38.845867"><ele>97.7</ele><time>2023-05-30T13:09:51Z</time></trkpt><trkpt lat="58.05142" lon="38.845705"><ele>97.2</ele><time>2023-05-30T13:09:54Z</time></trkpt><trkpt lat="58.051433" lon="38.845543"><ele>97.2</ele><time>2023-05-30T13:09:57Z</time></trkpt><trkpt lat="58.051453" lon="38.845412"><ele>96.7</ele><time>2023-05-30T13:10:00Z</time></trkpt><trkpt lat="58.051482" lon="38.84527"><ele>96.8</ele><time>2023-05-30T13:10:04Z</time></trkpt><trkpt lat="58.051515" lon="38.845135"><ele>97.0</ele><time>2023-05-30T13:10:08Z</time></trkpt><trkpt lat="58.051542" lon="38.845008"><ele>96.0</ele><time>2023-05-30T13:10:12Z</time></trkpt><trkpt lat="58.051568" lon="38.84485"><ele>95.7</ele><time>2023-05-30T13:10:16Z</time></trkpt><trkpt lat="58.051608" lon="38.844708"><ele>96.3</ele><time>2023-05-30T13:10:20Z</time></trkpt><trkpt lat="58.051672" lon="38.844633"><ele>95.8</ele><time>2023-05-30T13:10:23Z</time></trkpt><trkpt lat="58.051745" lon="38.844613"><ele>96.2</ele><time>2023-05-30T13:10:25Z</time></trkpt><trkpt lat="58.051817" lon="38.844635"><ele>95.7</ele><time>2023-05-30T13:10:27Z</time></trkpt><trkpt lat="58.051918" lon="38.844598"><ele>95.4</ele><time>2023-05-30T13:10:30Z</time></trkpt><trkpt lat="58.052017" lon="38.844548"><ele>94.3</ele><time>2023-05-30T13:10:33Z</time></trkpt><trkpt lat="58.052087" lon="38.84451"><ele>94.7</ele><time>2023-05-30T13:10:35Z</time></trkpt><trkpt lat="58.05216" lon="38.844398"><ele>93.9</ele><time>2023-05-30T13:10:38Z</time></trkpt><trkpt lat="58.052183" lon="38.844268"><ele>93.7</ele><time>2023-05-30T13:10:40Z</time></trkpt><trkpt lat="58.052212" lon="38.844132"><ele>94.2</ele><time>2023-05-30T13:10:42Z</time></trkpt><trkpt lat="58.052253" lon="38.843962"><ele>93.5</ele><time>2023-05-30T13:10:45Z</time></trkpt><trkpt lat="58.052293" lon="38.84377"><ele>93.3</ele><time>2023-05-30T13:10:48Z</time></trkpt><trkpt lat="58.052318" lon="38.843637"><ele>93.3</ele><time>2023-05-30T13:10:50Z</time></trkpt><trkpt lat="58.052345" lon="38.84351"><ele>92.8</ele><time>2023-05-30T13:10:52Z</time></trkpt><trkpt lat="58.052368" lon="38.843375"><ele>92.4</ele><time>2023-05-30T13:10:54Z</time></trkpt><trkpt lat="58.052402" lon="38.843192"><ele>92.4</ele><time>2023-05-30T13:10:57Z</time></trkpt><trkpt lat="58.05243" lon="38.843063"><ele>92.4</ele><time>2023-05-30T13:10:59Z</time></trkpt><trkpt lat="58.052473" lon="38.842892"><ele>92.7</ele><time>2023-05-30T13:11:02Z</time></trkpt><trkpt lat="58.052498" lon="38.84273"><ele>93.9</ele><time>2023-05-30T13:11:05Z</time></trkpt><trkpt lat="58.05248" lon="38.842568"><ele>93.1</ele><time>2023-05-30T13:11:08Z</time></trkpt><trkpt lat="58.052432" lon="38.842458"><ele>93.0</ele><time>2023-05-30T13:11:10Z</time></trkpt><trkpt lat="58.052375" lon="38.842352"><ele>93.1</ele><time>2023-05-30T13:11:12Z</time></trkpt><trkpt lat="58.052302" lon="38.842268"><ele>92.5</ele><time>2023-05-30T13:11:14Z</time></trkpt><trkpt lat="58.05223" lon="38.842165"><ele>92.4</ele><time>2023-05-30T13:11:16Z</time></trkpt><trkpt lat="58.052172" lon="38.842072"><ele>91.9</ele><time>2023-05-30T13:11:18Z</time></trkpt><trkpt lat="58.052152" lon="38.841907"><ele>95.1</ele><time>2023-05-30T13:11:23Z</time></trkpt><trkpt lat="58.05219" lon="38.841738"><ele>94.8</ele><time>2023-05-30T13:11:26Z</time></trkpt><trkpt lat="58.052228" lon="38.841565"><ele>95.0</ele><time>2023-05-30T13:11:29Z</time></trkpt><trkpt lat="58.05226" lon="38.841438"><ele>94.1</ele><time>2023-05-30T13:11:31Z</time></trkpt><trkpt lat="58.05229" lon="38.84125"><ele>93.5</ele><time>2023-05-30T13:11:34Z</time></trkpt><trkpt lat="58.052313" lon="38.841088"><ele>94.3</ele><time>2023-05-30T13:11:37Z</time></trkpt><trkpt lat="58.05234" lon="38.8409"><ele>94.0</ele><time>2023-05-30T13:11:40Z</time></trkpt><trkpt lat="58.052368" lon="38.840723"><ele>94.8</ele><time>2023-05-30T13:11:43Z</time></trkpt><trkpt lat="58.052395" lon="38.840563"><ele>95.9</ele><time>2023-05-30T13:11:46Z</time></trkpt><trkpt lat="58.052428" lon="38.840367"><ele>95.6</ele><time>2023-05-30T13:11:49Z</time></trkpt><trkpt lat="58.052453" lon="38.840225"><ele>96.2</ele><time>2023-05-30T13:11:51Z</time></trkpt><trkpt lat="58.052473" lon="38.84008"><ele>96.1</ele><time>2023-05-30T13:11:53Z</time></trkpt><trkpt lat="58.052497" lon="38.839935"><ele>95.5</ele><time>2023-05-30T13:11:55Z</time></trkpt><trkpt lat="58.052532" lon="38.839797"><ele>95.9</ele><time>2023-05-30T13:11:57Z</time></trkpt><trkpt lat="58.052573" lon="38.839623"><ele>96.1</ele><time>2023-05-30T13:12:00Z</time></trkpt><trkpt lat="58.052605" lon="38.839462"><ele>96.3</ele><time>2023-05-30T13:12:03Z</time></trkpt><trkpt lat="58.052633" lon="38.839302"><ele>96.2</ele><time>2023-05-30T13:12:06Z</time></trkpt><trkpt lat="58.052657" lon="38.839168"><ele>95.9</ele><time>2023-05-30T13:12:09Z</time></trkpt><trkpt lat="58.052647" lon="38.839028"><ele>97.1</ele><time>2023-05-30T13:12:27Z</time></trkpt><trkpt lat="58.052568" lon="38.838967"><ele>97.9</ele><time>2023-05-30T13:12:31Z</time></trkpt><trkpt lat="58.052493" lon="38.838942"><ele>99.7</ele><time>2023-05-30T13:12:37Z</time></trkpt><trkpt lat="58.052538" lon="38.838813"><ele>100.2</ele><time>2023-05-30T13:13:06Z</time></trkpt><trkpt lat="58.052563" lon="38.838658"><ele>99.9</ele><time>2023-05-30T13:13:10Z</time></trkpt><trkpt lat="58.052492" lon="38.838573"><ele>98.9</ele><time>2023-05-30T13:13:16Z</time></trkpt><trkpt lat="58.052448" lon="38.83846"><ele>98.5</ele><time>2023-05-30T13:13:19Z</time></trkpt><trkpt lat="58.052432" lon="38.838298"><ele>99.1</ele><time>2023-05-30T13:13:24Z</time></trkpt><trkpt lat="58.052328" lon="38.838263"><ele>99.7</ele><time>2023-05-30T13:13:27Z</time></trkpt><trkpt lat="58.052255" lon="38.83822"><ele>99.7</ele><time>2023-05-30T13:13:29Z</time></trkpt><trkpt lat="58.052185" lon="38.838175"><ele>99.7</ele><time>2023-05-30T13:13:31Z</time></trkpt><trkpt lat="58.052088" lon="38.838108"><ele>99.7</ele><time>2023-05-30T13:13:34Z</time></trkpt><trkpt lat="58.051998" lon="38.838045"><ele>99.7</ele><time>2023-05-30T13:13:37Z</time></trkpt><trkpt lat="58.051922" lon="38.837975"><ele>99.2</ele><time>2023-05-30T13:13:40Z</time></trkpt><trkpt lat="58.051878" lon="38.837813"><ele>98.9</ele><time>2023-05-30T13:13:43Z</time></trkpt><trkpt lat="58.051885" lon="38.837677"><ele>99.4</ele><time>2023-05-30T13:13:45Z</time></trkpt><trkpt lat="58.051908" lon="38.83754"><ele>99.1</ele><time>2023-05-30T13:13:47Z</time></trkpt><trkpt lat="58.051937" lon="38.837407"><ele>99.7</ele><time>2023-05-30T13:13:49Z</time></trkpt><trkpt lat="58.051965" lon="38.837223"><ele>98.8</ele><time>2023-05-30T13:13:52Z</time></trkpt><trkpt lat="58.052007" lon="38.83704"><ele>99.5</ele><time>2023-05-30T13:13:55Z</time></trkpt><trkpt lat="58.052035" lon="38.836907"><ele>99.5</ele><time>2023-05-30T13:13:57Z</time></trkpt><trkpt lat="58.052065" lon="38.836763"><ele>99.2</ele><time>2023-05-30T13:13:59Z</time></trkpt><trkpt lat="58.052093" lon="38.836615"><ele>98.7</ele><time>2023-05-30T13:14:01Z</time></trkpt><trkpt lat="58.052123" lon="38.83647"><ele>98.7</ele><time>2023-05-30T13:14:03Z</time></trkpt><trkpt lat="58.052152" lon="38.836325"><ele>98.3</ele><time>2023-05-30T13:14:05Z</time></trkpt><trkpt lat="58.05217" lon="38.836163"><ele>99.2</ele><time>2023-05-30T13:14:07Z</time></trkpt><trkpt lat="58.052195" lon="38.836028"><ele>99.9</ele><time>2023-05-30T13:14:09Z</time></trkpt><trkpt lat="58.052218" lon="38.835883"><ele>99.0</ele><time>2023-05-30T13:14:11Z</time></trkpt><trkpt lat="58.052247" lon="38.835732"><ele>99.2</ele><time>2023-05-30T13:14:13Z</time></trkpt><trkpt lat="58.052273" lon="38.835585"><ele>99.0</ele><time>2023-05-30T13:14:14Z</time></trkpt><trkpt lat="58.052298" lon="38.835448"><ele>98.8</ele><time>2023-05-30T13:14:16Z</time></trkpt><trkpt lat="58.052318" lon="38.835302"><ele>98.2</ele><time>2023-05-30T13:14:18Z</time></trkpt><trkpt lat="58.052335" lon="38.835147"><ele>97.8</ele><time>2023-05-30T13:14:20Z</time></trkpt><trkpt lat="58.052357" lon="38.83501"><ele>97.4</ele><time>2023-05-30T13:14:22Z</time></trkpt><trkpt lat="58.052387" lon="38.834832"><ele>97.2</ele><time>2023-05-30T13:14:25Z</time></trkpt><trkpt lat="58.05242" lon="38.834688"><ele>97.3</ele><time>2023-05-30T13:14:27Z</time></trkpt><trkpt lat="58.05246" lon="38.83451"><ele>97.6</ele><time>2023-05-30T13:14:29Z</time></trkpt><trkpt lat="58.052492" lon="38.834335"><ele>97.7</ele><time>2023-05-30T13:14:31Z</time></trkpt><trkpt lat="58.052515" lon="38.834173"><ele>97.3</ele><time>2023-05-30T13:14:33Z</time></trkpt><trkpt lat="58.05255" lon="38.834002"><ele>98.3</ele><time>2023-05-30T13:14:36Z</time></trkpt><trkpt lat="58.052563" lon="38.833823"><ele>98.1</ele><time>2023-05-30T13:14:38Z</time></trkpt><trkpt lat="58.052593" lon="38.833617"><ele>97.3</ele><time>2023-05-30T13:14:40Z</time></trkpt><trkpt lat="58.052622" lon="38.833408"><ele>97.1</ele><time>2023-05-30T13:14:42Z</time></trkpt><trkpt lat="58.052662" lon="38.833242"><ele>96.7</ele><time>2023-05-30T13:14:44Z</time></trkpt><trkpt lat="58.052693" lon="38.83307"><ele>96.7</ele><time>2023-05-30T13:14:46Z</time></trkpt><trkpt lat="58.052725" lon="38.83289"><ele>96.3</ele><time>2023-05-30T13:14:48Z</time></trkpt><trkpt lat="58.052763" lon="38.832703"><ele>95.6</ele><time>2023-05-30T13:14:50Z</time></trkpt><trkpt lat="58.0528" lon="38.832502"><ele>95.4</ele><time>2023-05-30T13:14:52Z</time></trkpt><trkpt lat="58.052838" lon="38.832327"><ele>96.4</ele><time>2023-05-30T13:14:54Z</time></trkpt><trkpt lat="58.052882" lon="38.832168"><ele>97.0</ele><time>2023-05-30T13:14:56Z</time></trkpt><trkpt lat="58.052912" lon="38.832005"><ele>96.8</ele><time>2023-05-30T13:14:59Z</time></trkpt><trkpt lat="58.052942" lon="38.831843"><ele>96.5</ele><time>2023-05-30T13:15:01Z</time></trkpt><trkpt lat="58.052977" lon="38.83168"><ele>96.6</ele><time>2023-05-30T13:15:03Z</time></trkpt><trkpt lat="58.053012" lon="38.831508"><ele>96.4</ele><time>2023-05-30T13:15:05Z</time></trkpt><trkpt lat="58.053037" lon="38.831333"><ele>96.5</ele><time>2023-05-30T13:15:07Z</time></trkpt><trkpt lat="58.053055" lon="38.831175"><ele>97.8</ele><time>2023-05-30T13:15:09Z</time></trkpt><trkpt lat="58.05308" lon="38.831017"><ele>96.7</ele><time>2023-05-30T13:15:11Z</time></trkpt><trkpt lat="58.053123" lon="38.830828"><ele>94.3</ele><time>2023-05-30T13:15:14Z</time></trkpt><trkpt lat="58.053155" lon="38.830683"><ele>94.1</ele><time>2023-05-30T13:15:16Z</time></trkpt><trkpt lat="58.053177" lon="38.83052"><ele>94.4</ele><time>2023-05-30T13:15:18Z</time></trkpt><trkpt lat="58.053208" lon="38.830375"><ele>94.1</ele><time>2023-05-30T13:15:20Z</time></trkpt><trkpt lat="58.053235" lon="38.830247"><ele>94.7</ele><time>2023-05-30T13:15:22Z</time></trkpt><trkpt lat="58.053263" lon="38.830113"><ele>94.9</ele><time>2023-05-30T13:15:24Z</time></trkpt><trkpt lat="58.053298" lon="38.82996"><ele>96.4</ele><time>2023-05-30T13:15:26Z</time></trkpt><trkpt lat="58.053333" lon="38.829808"><ele>96.8</ele><time>2023-05-30T13:15:28Z</time></trkpt><trkpt lat="58.053368" lon="38.829642"><ele>95.7</ele><time>2023-05-30T13:15:30Z</time></trkpt><trkpt lat="58.053385" lon="38.829472"><ele>95.9</ele><time>2023-05-30T13:15:32Z</time></trkpt><trkpt lat="58.053422" lon="38.829295"><ele>97.0</ele><time>2023-05-30T13:15:34Z</time></trkpt><trkpt lat="58.053463" lon="38.82911"><ele>97.7</ele><time>2023-05-30T13:15:36Z</time></trkpt><trkpt lat="58.053485" lon="38.828933"><ele>98.2</ele><time>2023-05-30T13:15:38Z</time></trkpt><trkpt lat="58.053512" lon="38.828782"><ele>98.2</ele><time>2023-05-30T13:15:40Z</time></trkpt><trkpt lat="58.053552" lon="38.828627"><ele>96.6</ele><time>2023-05-30T13:15:42Z</time></trkpt><trkpt lat="58.053582" lon="38.828485"><ele>97.3</ele><time>2023-05-30T13:15:44Z</time></trkpt><trkpt lat="58.053635" lon="38.82832"><ele>97.9</ele><time>2023-05-30T13:15:47Z</time></trkpt><trkpt lat="58.05367" lon="38.828167"><ele>97.9</ele><time>2023-05-30T13:15:50Z</time></trkpt><trkpt lat="58.05369" lon="38.828035"><ele>98.1</ele><time>2023-05-30T13:15:52Z</time></trkpt><trkpt lat="58.053712" lon="38.827898"><ele>98.1</ele><time>2023-05-30T13:15:54Z</time></trkpt><trkpt lat="58.053733" lon="38.827755"><ele>97.9</ele><time>2023-05-30T13:15:56Z</time></trkpt><trkpt lat="58.053755" lon="38.827608"><ele>97.9</ele><time>2023-05-30T13:15:58Z</time></trkpt><trkpt lat="58.053785" lon="38.827463"><ele>96.6</ele><time>2023-05-30T13:16:00Z</time></trkpt><trkpt lat="58.053808" lon="38.827288"><ele>95.7</ele><time>2023-05-30T13:16:02Z</time></trkpt><trkpt lat="58.05383" lon="38.827113"><ele>95.5</ele><time>2023-05-30T13:16:04Z</time></trkpt><trkpt lat="58.053855" lon="38.826952"><ele>95.8</ele><time>2023-05-30T13:16:06Z</time></trkpt><trkpt lat="58.053902" lon="38.826833"><ele>95.8</ele><time>2023-05-30T13:16:08Z</time></trkpt><trkpt lat="58.0539" lon="38.826685"><ele>96.5</ele><time>2023-05-30T13:16:11Z</time></trkpt><trkpt lat="58.05395" lon="38.826542"><ele>97.3</ele><time>2023-05-30T13:16:37Z</time></trkpt><trkpt lat="58.053982" lon="38.82641"><ele>97.3</ele><time>2023-05-30T13:16:39Z</time></trkpt><trkpt lat="58.05401" lon="38.826257"><ele>97.3</ele><time>2023-05-30T13:16:41Z</time></trkpt><trkpt lat="58.054038" lon="38.826087"><ele>97.6</ele><time>2023-05-30T13:16:43Z</time></trkpt><trkpt lat="58.054073" lon="38.825912"><ele>97.5</ele><time>2023-05-30T13:16:45Z</time></trkpt><trkpt lat="58.054105" lon="38.825745"><ele>97.3</ele><time>2023-05-30T13:16:47Z</time></trkpt><trkpt lat="58.054132" lon="38.825592"><ele>96.9</ele><time>2023-05-30T13:16:49Z</time></trkpt><trkpt lat="58.05416" lon="38.825428"><ele>97.4</ele><time>2023-05-30T13:16:51Z</time></trkpt><trkpt lat="58.054178" lon="38.825253"><ele>97.7</ele><time>2023-05-30T13:16:53Z</time></trkpt><trkpt lat="58.054208" lon="38.825093"><ele>97.2</ele><time>2023-05-30T13:16:55Z</time></trkpt><trkpt lat="58.054245" lon="38.824943"><ele>97.9</ele><time>2023-05-30T13:16:57Z</time></trkpt><trkpt lat="58.054278" lon="38.82482"><ele>98.0</ele><time>2023-05-30T13:16:59Z</time></trkpt><trkpt lat="58.054303" lon="38.824673"><ele>98.3</ele><time>2023-05-30T13:17:02Z</time></trkpt><trkpt lat="58.05434" lon="38.824533"><ele>97.8</ele><time>2023-05-30T13:17:05Z</time></trkpt><trkpt lat="58.05437" lon="38.82436"><ele>97.2</ele><time>2023-05-30T13:17:08Z</time></trkpt><trkpt lat="58.054412" lon="38.824187"><ele>98.5</ele><time>2023-05-30T13:17:11Z</time></trkpt><trkpt lat="58.054438" lon="38.824038"><ele>99.1</ele><time>2023-05-30T13:17:14Z</time></trkpt><trkpt lat="58.05447" lon="38.823852"><ele>99.1</ele><time>2023-05-30T13:17:17Z</time></trkpt><trkpt lat="58.054508" lon="38.823665"><ele>98.3</ele><time>2023-05-30T13:17:20Z</time></trkpt><trkpt lat="58.05454" lon="38.823475"><ele>98.2</ele><time>2023-05-30T13:17:23Z</time></trkpt><trkpt lat="58.054567" lon="38.823332"><ele>98.1</ele><time>2023-05-30T13:17:25Z</time></trkpt><trkpt lat="58.0546" lon="38.823183"><ele>98.5</ele><time>2023-05-30T13:17:27Z</time></trkpt><trkpt lat="58.054628" lon="38.82304"><ele>98.8</ele><time>2023-05-30T13:17:29Z</time></trkpt><trkpt lat="58.054652" lon="38.822897"><ele>99.1</ele><time>2023-05-30T13:17:31Z</time></trkpt><trkpt lat="58.054678" lon="38.82275"><ele>98.8</ele><time>2023-05-30T13:17:33Z</time></trkpt><trkpt lat="58.054712" lon="38.822592"><ele>99.3</ele><time>2023-05-30T13:17:35Z</time></trkpt><trkpt lat="58.054743" lon="38.822432"><ele>99.5</ele><time>2023-05-30T13:17:37Z</time></trkpt><trkpt lat="58.054773" lon="38.822273"><ele>98.9</ele><time>2023-05-30T13:17:39Z</time></trkpt><trkpt lat="58.054793" lon="38.822105"><ele>98.8</ele><time>2023-05-30T13:17:41Z</time></trkpt><trkpt lat="58.05482" lon="38.821955"><ele>98.2</ele><time>2023-05-30T13:17:43Z</time></trkpt><trkpt lat="58.054845" lon="38.821788"><ele>98.1</ele><time>2023-05-30T13:17:45Z</time></trkpt><trkpt lat="58.054862" lon="38.821628"><ele>98.1</ele><time>2023-05-30T13:17:47Z</time></trkpt><trkpt lat="58.054882" lon="38.821472"><ele>97.9</ele><time>2023-05-30T13:17:49Z</time></trkpt><trkpt lat="58.054897" lon="38.8213"><ele>96.9</ele><time>2023-05-30T13:17:51Z</time></trkpt><trkpt lat="58.054905" lon="38.821153"><ele>97.4</ele><time>2023-05-30T13:17:53Z</time></trkpt><trkpt lat="58.054915" lon="38.820985"><ele>97.8</ele><time>2023-05-30T13:17:55Z</time></trkpt><trkpt lat="58.054922" lon="38.820838"><ele>98.0</ele><time>2023-05-30T13:17:57Z</time></trkpt><trkpt lat="58.054937" lon="38.820705"><ele>98.2</ele><time>2023-05-30T13:17:59Z</time></trkpt><trkpt lat="58.05496" lon="38.82052"><ele>98.4</ele><time>2023-05-30T13:18:02Z</time></trkpt><trkpt lat="58.055" lon="38.820373"><ele>98.7</ele><time>2023-05-30T13:18:05Z</time></trkpt><trkpt lat="58.055052" lon="38.82024"><ele>97.1</ele><time>2023-05-30T13:18:07Z</time></trkpt><trkpt lat="58.055052" lon="38.820037"><ele>97.2</ele><time>2023-05-30T13:18:09Z</time></trkpt><trkpt lat="58.055072" lon="38.819875"><ele>97.3</ele><time>2023-05-30T13:18:11Z</time></trkpt><trkpt lat="58.055103" lon="38.819752"><ele>98.0</ele><time>2023-05-30T13:18:13Z</time></trkpt><trkpt lat="58.055147" lon="38.819627"><ele>98.3</ele><time>2023-05-30T13:18:15Z</time></trkpt><trkpt lat="58.055187" lon="38.819505"><ele>98.5</ele><time>2023-05-30T13:18:17Z</time></trkpt><trkpt lat="58.055243" lon="38.819363"><ele>99.0</ele><time>2023-05-30T13:18:20Z</time></trkpt><trkpt lat="58.055307" lon="38.819227"><ele>98.4</ele><time>2023-05-30T13:18:23Z</time></trkpt><trkpt lat="58.055373" lon="38.819063"><ele>98.1</ele><time>2023-05-30T13:18:26Z</time></trkpt><trkpt lat="58.055417" lon="38.81893"><ele>98.1</ele><time>2023-05-30T13:18:28Z</time></trkpt><trkpt lat="58.055465" lon="38.81878"><ele>96.6</ele><time>2023-05-30T13:18:30Z</time></trkpt><trkpt lat="58.055508" lon="38.818668"><ele>96.7</ele><time>2023-05-30T13:18:32Z</time></trkpt><trkpt lat="58.055545" lon="38.818547"><ele>96.5</ele><time>2023-05-30T13:18:34Z</time></trkpt><trkpt lat="58.055603" lon="38.818365"><ele>95.8</ele><time>2023-05-30T13:18:37Z</time></trkpt><trkpt lat="58.055655" lon="38.818238"><ele>97.0</ele><time>2023-05-30T13:18:39Z</time></trkpt><trkpt lat="58.05571" lon="38.81814"><ele>97.5</ele><time>2023-05-30T13:18:41Z</time></trkpt><trkpt lat="58.055777" lon="38.81802"><ele>98.2</ele><time>2023-05-30T13:18:44Z</time></trkpt><trkpt lat="58.055833" lon="38.817862"><ele>97.8</ele><time>2023-05-30T13:18:47Z</time></trkpt><trkpt lat="58.055873" lon="38.817748"><ele>98.4</ele><time>2023-05-30T13:18:49Z</time></trkpt><trkpt lat="58.05592" lon="38.817585"><ele>98.8</ele><time>2023-05-30T13:18:51Z</time></trkpt><trkpt lat="58.055987" lon="38.817477"><ele>99.2</ele><time>2023-05-30T13:18:53Z</time></trkpt><trkpt lat="58.056058" lon="38.817338"><ele>99.0</ele><time>2023-05-30T13:18:56Z</time></trkpt><trkpt lat="58.056118" lon="38.817227"><ele>98.1</ele><time>2023-05-30T13:18:58Z</time></trkpt><trkpt lat="58.05619" lon="38.817102"><ele>98.8</ele><time>2023-05-30T13:19:01Z</time></trkpt><trkpt lat="58.05623" lon="38.816977"><ele>99.9</ele><time>2023-05-30T13:19:04Z</time></trkpt><trkpt lat="58.056273" lon="38.816855"><ele>100.4</ele><time>2023-05-30T13:19:12Z</time></trkpt><trkpt lat="58.056345" lon="38.81685"><ele>99.5</ele><time>2023-05-30T13:19:15Z</time></trkpt><trkpt lat="58.056367" lon="38.81671"><ele>100.7</ele><time>2023-05-30T13:19:18Z</time></trkpt><trkpt lat="58.056387" lon="38.816547"><ele>101.3</ele><time>2023-05-30T13:19:21Z</time></trkpt><trkpt lat="58.056485" lon="38.816557"><ele>101.6</ele><time>2023-05-30T13:19:24Z</time></trkpt><trkpt lat="58.056572" lon="38.816602"><ele>101.6</ele><time>2023-05-30T13:19:27Z</time></trkpt><trkpt lat="58.056662" lon="38.816605"><ele>101.9</ele><time>2023-05-30T13:19:30Z</time></trkpt><trkpt lat="58.056767" lon="38.816642"><ele>100.3</ele><time>2023-05-30T13:19:33Z</time></trkpt><trkpt lat="58.056845" lon="38.81667"><ele>99.6</ele><time>2023-05-30T13:19:35Z</time></trkpt><trkpt lat="58.056938" lon="38.81667"><ele>99.7</ele><time>2023-05-30T13:19:38Z</time></trkpt><trkpt lat="58.057028" lon="38.816677"><ele>100.2</ele><time>2023-05-30T13:19:41Z</time></trkpt><trkpt lat="58.057102" lon="38.81668"><ele>101.2</ele><time>2023-05-30T13:19:43Z</time></trkpt><trkpt lat="58.057182" lon="38.816677"><ele>101.4</ele><time>2023-05-30T13:19:45Z</time></trkpt><trkpt lat="58.057285" lon="38.816688"><ele>102.5</ele><time>2023-05-30T13:19:48Z</time></trkpt><trkpt lat="58.057358" lon="38.81669"><ele>102.1</ele><time>2023-05-30T13:19:50Z</time></trkpt><trkpt lat="58.057458" lon="38.816708"><ele>102.6</ele><time>2023-05-30T13:19:53Z</time></trkpt><trkpt lat="58.05755" lon="38.816747"><ele>101.8</ele><time>2023-05-30T13:19:56Z</time></trkpt><trkpt lat="58.057632" lon="38.816767"><ele>102.5</ele><time>2023-05-30T13:19:58Z</time></trkpt><trkpt lat="58.057722" lon="38.816775"><ele>102.7</ele><time>2023-05-30T13:20:00Z</time></trkpt><trkpt lat="58.05781" lon="38.816785"><ele>103.2</ele><time>2023-05-30T13:20:02Z</time></trkpt><trkpt lat="58.057883" lon="38.816797"><ele>102.8</ele><time>2023-05-30T13:20:05Z</time></trkpt><trkpt lat="58.057965" lon="38.81683"><ele>100.9</ele><time>2023-05-30T13:20:09Z</time></trkpt><trkpt lat="58.05804" lon="38.81683"><ele>100.5</ele><time>2023-05-30T13:20:11Z</time></trkpt><trkpt lat="58.058127" lon="38.816835"><ele>101.2</ele><time>2023-05-30T13:20:13Z</time></trkpt><trkpt lat="58.058207" lon="38.816872"><ele>101.5</ele><time>2023-05-30T13:20:15Z</time></trkpt><trkpt lat="58.05828" lon="38.81691"><ele>100.9</ele><time>2023-05-30T13:20:17Z</time></trkpt><trkpt lat="58.058353" lon="38.816953"><ele>101.3</ele><time>2023-05-30T13:20:20Z</time></trkpt><trkpt lat="58.058463" lon="38.817023"><ele>102.3</ele><time>2023-05-30T13:20:27Z</time></trkpt><trkpt lat="58.058543" lon="38.81702"><ele>102.4</ele><time>2023-05-30T13:20:29Z</time></trkpt><trkpt lat="58.05865" lon="38.817023"><ele>102.2</ele><time>2023-05-30T13:20:32Z</time></trkpt><trkpt lat="58.058715" lon="38.816923"><ele>103.2</ele><time>2023-05-30T13:20:35Z</time></trkpt></trkseg></trk></gpx>