<?xml version="1.0" encoding="UTF-8" standalone="no"?><gpx xmlns="http://www.topografix.com/GPX/1/1" xmlns:gpxtpx="http://www.garmin.com/xmlschemas/TrackPointExtension/v1" xmlns:xsi="http://www.w3.org/2001/XMLSchema-instance" creator="Sports Tracker" version="1.1" xsi:schemaLocation="http://www.topografix.com/GPX/1/1 http://www.topografix.com/GPX/1/1/gpx.xsd http://www.garmin.com/xmlschemas/TrackPointExtension/v1 http://www.garmin.com/xmlschemas/TrackPointExtensionv1.xsd"><metadata><name/><desc/><author><name>Александр</name></author></metadata><trk><name/><trkseg><trkpt lat="55.340535" lon="38.792187"><ele>141.1</ele><time>2024-11-09T15:19:02Z</time></trkpt><trkpt lat="55.340458" lon="38.792142"><ele>140.2</ele><time>2024-11-09T15:19:07Z</time></trkpt><trkpt lat="55.340488" lon="38.79201"><ele>138.4</ele><time>2024-11-09T15:19:37Z</time></trkpt><trkpt lat="55.340455" lon="38.791898"><ele>138.6</ele><time>2024-11-09T15:19:41Z</time></trkpt><trkpt lat="55.34042" lon="38.79176"><ele>139.2</ele><time>2024-11-09T15:19:45Z</time></trkpt><trkpt lat="55.340415" lon="38.79162"><ele>139.6</ele><time>2024-11-09T15:19:57Z</time></trkpt><trkpt lat="55.34743" lon="38.787005"><ele>138.8</ele><time>2024-11-09T15:34:51Z</time></trkpt><trkpt lat="55.347417" lon="38.787138"><ele>127.5</ele><time>2024-11-09T15:34:59Z</time></trkpt><trkpt lat="55.347473" lon="38.787227"><ele>129.2</ele><time>2024-11-09T15:35:05Z</time></trkpt><trkpt lat="55.347522" lon="38.787335"><ele>127.6</ele><time>2024-11-09T15:35:11Z</time></trkpt><trkpt lat="55.347568" lon="38.787448"><ele>126.5</ele><time>2024-11-09T15:35:16Z</time></trkpt><trkpt lat="55.34762" lon="38.787568"><ele>129.2</ele><time>2024-11-09T15:35:21Z</time></trkpt><trkpt lat="55.347582" lon="38.787688"><ele>128.6</ele><time>2024-11-09T15:35:42Z</time></trkpt><trkpt lat="55.347523" lon="38.787782"><ele>130.0</ele><time>2024-11-09T15:35:49Z</time></trkpt><trkpt lat="55.347522" lon="38.78791"><ele>131.4</ele><time>2024-11-09T15:35:55Z</time></trkpt><trkpt lat="55.347532" lon="38.788045"><ele>131.5</ele><time>2024-11-09T15:36:02Z</time></trkpt><trkpt lat="55.34778" lon="38.795245"><ele>131.7</ele><time>2024-11-09T15:49:16Z</time></trkpt><trkpt lat="55.347783" lon="38.795053"><ele>141.2</ele><time>2024-11-09T15:49:17Z</time></trkpt><trkpt lat="55.347705" lon="38.795025"><ele>134.7</ele><time>2024-11-09T15:49:35Z</time></trkpt><trkpt lat="55.347623" lon="38.795008"><ele>132.7</ele><time>2024-11-09T15:49:40Z</time></trkpt><trkpt lat="55.347545" lon="38.795043"><ele>131.7</ele><time>2024-11-09T15:49:48Z</time></trkpt><trkpt lat="55.347467" lon="38.795053"><ele>131.2</ele><time>2024-11-09T15:49:51Z</time></trkpt><trkpt lat="55.347387" lon="38.795053"><ele>130.6</ele><time>2024-11-09T15:49:53Z</time></trkpt><trkpt lat="55.347312" lon="38.795077"><ele>129.9</ele><time>2024-11-09T15:49:56Z</time></trkpt><trkpt lat="55.347233" lon="38.79512"><ele>130.8</ele><time>2024-11-09T15:50:01Z</time></trkpt><trkpt lat="55.347145" lon="38.79517"><ele>131.6</ele><time>2024-11-09T15:50:13Z</time></trkpt><trkpt lat="55.345358" lon="38.79437"><ele>126.1</ele><time>2024-11-09T15:53:22Z</time></trkpt><trkpt lat="55.345262" lon="38.794395"><ele>114.6</ele><time>2024-11-09T15:53:23Z</time></trkpt><trkpt lat="55.345188" lon="38.794337"><ele>130.6</ele><time>2024-11-09T15:53:39Z</time></trkpt><trkpt lat="55.345112" lon="38.794277"><ele>134.4</ele><time>2024-11-09T15:54:17Z</time></trkpt><trkpt lat="55.34504" lon="38.794243"><ele>135.9</ele><time>2024-11-09T15:54:21Z</time></trkpt><trkpt lat="55.344975" lon="38.794165"><ele>135.3</ele><time>2024-11-09T15:54:29Z</time></trkpt><trkpt lat="55.353918" lon="38.789732"><ele>135.4</ele><time>2024-11-09T16:10:20Z</time></trkpt><trkpt lat="55.35375" lon="38.789792"><ele>141.9</ele><time>2024-11-09T16:10:21Z</time></trkpt><trkpt lat="55.353677" lon="38.789825"><ele>127.2</ele><time>2024-11-09T16:10:25Z</time></trkpt><trkpt lat="55.353675" lon="38.789952"><ele>132.8</ele><time>2024-11-09T16:10:34Z</time></trkpt><trkpt lat="55.353745" lon="38.789912"><ele>132.7</ele><time>2024-11-09T16:10:42Z</time></trkpt><trkpt lat="55.35382" lon="38.78994"><ele>129.3</ele><time>2024-11-09T16:10:50Z</time></trkpt><trkpt lat="55.353893" lon="38.78993"><ele>128.5</ele><time>2024-11-09T16:10:58Z</time></trkpt><trkpt lat="55.35397" lon="38.789937"><ele>131.9</ele><time>2024-11-09T16:11:05Z</time></trkpt><trkpt lat="55.354047" lon="38.789927"><ele>131.8</ele><time>2024-11-09T16:11:14Z</time></trkpt><trkpt lat="55.353365" lon="38.784767"><ele>129.1</ele><time>2024-11-09T16:49:43Z</time></trkpt><trkpt lat="55.353415" lon="38.784877"><ele>120.4</ele><time>2024-11-09T16:50:08Z</time></trkpt><trkpt lat="55.353493" lon="38.784933"><ele>123.3</ele><time>2024-11-09T16:50:26Z</time></trkpt><trkpt lat="55.35357" lon="38.784923"><ele>124.2</ele><time>2024-11-09T16:50:39Z</time></trkpt><trkpt lat="55.353645" lon="38.78495"><ele>123.5</ele><time>2024-11-09T16:51:06Z</time></trkpt><trkpt lat="55.353718" lon="38.78495"><ele>127.8</ele><time>2024-11-09T16:51:56Z</time></trkpt><trkpt lat="55.352337" lon="38.779677"><ele>141.2</ele><time>2024-11-09T17:18:48Z</time></trkpt><trkpt lat="55.352272" lon="38.779617"><ele>126.9</ele><time>2024-11-09T17:18:58Z</time></trkpt><trkpt lat="55.352192" lon="38.779588"><ele>133.0</ele><time>2024-11-09T17:19:22Z</time></trkpt><trkpt lat="55.352127" lon="38.779507"><ele>131.7</ele><time>2024-11-09T17:19:33Z</time></trkpt><trkpt lat="55.352058" lon="38.779417"><ele>130.8</ele><time>2024-11-09T17:19:41Z</time></trkpt><trkpt lat="55.352013" lon="38.779308"><ele>130.5</ele><time>2024-11-09T17:19:46Z</time></trkpt><trkpt lat="55.34904" lon="38.779943"><ele>131.0</ele><time>2024-11-09T17:37:17Z</time></trkpt><trkpt lat="55.349065" lon="38.780063"><ele>125.8</ele><time>2024-11-09T17:37:20Z</time></trkpt><trkpt lat="55.34918" lon="38.78019"><ele>133.8</ele><time>2024-11-09T17:37:23Z</time></trkpt><trkpt lat="55.349135" lon="38.780008"><ele>119.5</ele><time>2024-11-09T17:37:25Z</time></trkpt><trkpt lat="55.349058" lon="38.78009"><ele>147.3</ele><time>2024-11-09T17:37:27Z</time></trkpt><trkpt lat="55.349132" lon="38.780133"><ele>132.0</ele><time>2024-11-09T17:37:32Z</time></trkpt><trkpt lat="55.34919" lon="38.780228"><ele>134.3</ele><time>2024-11-09T17:37:35Z</time></trkpt><trkpt lat="55.34924" lon="38.780323"><ele>134.2</ele><time>2024-11-09T17:37:38Z</time></trkpt><trkpt lat="55.349287" lon="38.78042"><ele>133.9</ele><time>2024-11-09T17:37:43Z</time></trkpt><trkpt lat="55.349337" lon="38.780548"><ele>132.6</ele><time>2024-11-09T17:37:49Z</time></trkpt><trkpt lat="55.349375" lon="38.780677"><ele>131.6</ele><time>2024-11-09T17:37:54Z</time></trkpt><trkpt lat="55.349398" lon="38.780808"><ele>128.3</ele><time>2024-11-09T17:38:01Z</time></trkpt><trkpt lat="55.349445" lon="38.780923"><ele>129.2</ele><time>2024-11-09T17:38:11Z</time></trkpt><trkpt lat="55.349492" lon="38.78104"><ele>132.4</ele><time>2024-11-09T17:38:18Z</time></trkpt><trkpt lat="55.349323" lon="38.791205"><ele>135.5</ele><time>2024-11-09T17:48:49Z</time></trkpt><trkpt lat="55.349415" lon="38.791355"><ele>145.4</ele><time>2024-11-09T17:48:50Z</time></trkpt><trkpt lat="55.349342" lon="38.791283"><ele>140.3</ele><time>2024-11-09T17:48:54Z</time></trkpt><trkpt lat="55.349263" lon="38.79137"><ele>131.9</ele><time>2024-11-09T17:48:58Z</time></trkpt><trkpt lat="55.349335" lon="38.791375"><ele>128.1</ele><time>2024-11-09T17:48:59Z</time></trkpt><trkpt lat="55.349295" lon="38.791487"><ele>134.7</ele><time>2024-11-09T17:49:05Z</time></trkpt><trkpt lat="55.349273" lon="38.791607"><ele>135.1</ele><time>2024-11-09T17:49:16Z</time></trkpt><trkpt lat="55.349293" lon="38.791745"><ele>134.7</ele><time>2024-11-09T17:49:29Z</time></trkpt><trkpt lat="55.349318" lon="38.791865"><ele>133.8</ele><time>2024-11-09T17:49:34Z</time></trkpt><trkpt lat="55.349367" lon="38.791965"><ele>133.1</ele><time>2024-11-09T17:49:39Z</time></trkpt><trkpt lat="55.349365" lon="38.792113"><ele>132.0</ele><time>2024-11-09T17:49:46Z</time></trkpt><trkpt lat="55.349392" lon="38.792235"><ele>132.6</ele><time>2024-11-09T17:50:00Z</time></trkpt><trkpt lat="55.341375" lon="38.793828"><ele>130.4</ele><time>2024-11-09T18:29:05Z</time></trkpt><trkpt lat="55.34138" lon="38.793665"><ele>148.7</ele><time>2024-11-09T18:29:09Z</time></trkpt><trkpt lat="55.341328" lon="38.793568"><ele>147.4</ele><time>2024-11-09T18:29:11Z</time></trkpt><trkpt lat="55.341285" lon="38.793438"><ele>138.6</ele><time>2024-11-09T18:29:14Z</time></trkpt><trkpt lat="55.341263" lon="38.793292"><ele>142.5</ele><time>2024-11-09T18:29:17Z</time></trkpt><trkpt lat="55.341227" lon="38.793142"><ele>144.7</ele><time>2024-11-09T18:29:20Z</time></trkpt><trkpt lat="55.341173" lon="38.792988"><ele>137.9</ele><time>2024-11-09T18:29:23Z</time></trkpt><trkpt lat="55.34113" lon="38.792825"><ele>138.6</ele><time>2024-11-09T18:29:26Z</time></trkpt><trkpt lat="55.341088" lon="38.792677"><ele>139.6</ele><time>2024-11-09T18:29:29Z</time></trkpt><trkpt lat="55.34103" lon="38.792547"><ele>139.9</ele><time>2024-11-09T18:29:32Z</time></trkpt><trkpt lat="55.34099" lon="38.792415"><ele>138.4</ele><time>2024-11-09T18:29:35Z</time></trkpt><trkpt lat="55.340952" lon="38.792288"><ele>138.5</ele><time>2024-11-09T18:29:39Z</time></trkpt><trkpt lat="55.340882" lon="38.792232"><ele>138.9</ele><time>2024-11-09T18:29:43Z</time></trkpt><trkpt lat="55.340823" lon="38.792325"><ele>142.1</ele><time>2024-11-09T18:29:54Z</time></trkpt></trkseg></trk></gpx>