<?xml version="1.0" encoding="UTF-8" standalone="no"?><gpx xmlns="http://www.topografix.com/GPX/1/1" xmlns:gpxtpx="http://www.garmin.com/xmlschemas/TrackPointExtension/v1" xmlns:xsi="http://www.w3.org/2001/XMLSchema-instance" creator="Sports Tracker" version="1.1" xsi:schemaLocation="http://www.topografix.com/GPX/1/1 http://www.topografix.com/GPX/1/1/gpx.xsd http://www.garmin.com/xmlschemas/TrackPointExtension/v1 http://www.garmin.com/xmlschemas/TrackPointExtensionv1.xsd"><metadata><name>18.08.2025 11:53</name><desc/><author><name>Александр</name></author></metadata><trk><name>18.08.2025 11:53</name><trkseg><trkpt lat="43.31127" lon="42.462005"><ele>3979.6</ele><time>2025-08-18T08:53:20Z</time></trkpt><trkpt lat="43.31127" lon="42.462005"><ele>3979.6</ele><time>2025-08-18T08:53:21Z</time></trkpt><trkpt lat="43.311267" lon="42.462005"><ele>3978.5</ele><time>2025-08-18T08:53:23Z</time></trkpt><trkpt lat="43.311217" lon="42.461955"><ele>3978.1</ele><time>2025-08-18T08:53:30Z</time></trkpt><trkpt lat="43.31119" lon="42.461905"><ele>3977.8</ele><time>2025-08-18T08:53:37Z</time></trkpt><trkpt lat="43.311145" lon="42.46186"><ele>3977.2</ele><time>2025-08-18T08:53:44Z</time></trkpt><trkpt lat="43.311103" lon="42.46183"><ele>3976.4</ele><time>2025-08-18T08:53:51Z</time></trkpt><trkpt lat="43.311085" lon="42.46178"><ele>3976.6</ele><time>2025-08-18T08:53:58Z</time></trkpt><trkpt lat="43.311067" lon="42.46172"><ele>3977.3</ele><time>2025-08-18T08:54:05Z</time></trkpt><trkpt lat="43.311047" lon="42.461655"><ele>3977.6</ele><time>2025-08-18T08:54:12Z</time></trkpt><trkpt lat="43.31104" lon="42.461598"><ele>3977.3</ele><time>2025-08-18T08:54:19Z</time></trkpt><trkpt lat="43.311027" lon="42.461565"><ele>3976.4</ele><time>2025-08-18T08:54:26Z</time></trkpt><trkpt lat="43.31104" lon="42.46149"><ele>3977.6</ele><time>2025-08-18T08:54:33Z</time></trkpt><trkpt lat="43.311062" lon="42.46143"><ele>3974.8</ele><time>2025-08-18T08:54:40Z</time></trkpt><trkpt lat="43.311075" lon="42.46141"><ele>3973.4</ele><time>2025-08-18T08:54:47Z</time></trkpt><trkpt lat="43.31107" lon="42.46135"><ele>3976.3</ele><time>2025-08-18T08:54:54Z</time></trkpt><trkpt lat="43.31105" lon="42.461307"><ele>3976.6</ele><time>2025-08-18T08:55:01Z</time></trkpt><trkpt lat="43.311047" lon="42.46123"><ele>3976.4</ele><time>2025-08-18T08:55:08Z</time></trkpt><trkpt lat="43.311045" lon="42.46116"><ele>3975.4</ele><time>2025-08-18T08:55:15Z</time></trkpt><trkpt lat="43.31104" lon="42.461087"><ele>3974.2</ele><time>2025-08-18T08:55:22Z</time></trkpt><trkpt lat="43.311057" lon="42.461015"><ele>3973.7</ele><time>2025-08-18T08:55:29Z</time></trkpt><trkpt lat="43.311057" lon="42.460957"><ele>3973.2</ele><time>2025-08-18T08:55:36Z</time></trkpt><trkpt lat="43.311062" lon="42.460905"><ele>3973.7</ele><time>2025-08-18T08:55:43Z</time></trkpt><trkpt lat="43.311045" lon="42.46086"><ele>3973.1</ele><time>2025-08-18T08:56:09Z</time></trkpt><trkpt lat="43.31099" lon="42.46078"><ele>3972.7</ele><time>2025-08-18T08:56:20Z</time></trkpt><trkpt lat="43.310925" lon="42.460735"><ele>3970.7</ele><time>2025-08-18T08:56:27Z</time></trkpt><trkpt lat="43.3109" lon="42.46068"><ele>3970.9</ele><time>2025-08-18T08:56:34Z</time></trkpt><trkpt lat="43.311005" lon="42.460612"><ele>3969.7</ele><time>2025-08-18T08:56:58Z</time></trkpt><trkpt lat="43.311037" lon="42.460608"><ele>3970.6</ele><time>2025-08-18T08:57:05Z</time></trkpt><trkpt lat="43.31107" lon="42.46058"><ele>3969.8</ele><time>2025-08-18T08:57:12Z</time></trkpt><trkpt lat="43.31107" lon="42.46058"><ele>3969.3</ele><time>2025-08-18T08:57:17Z</time></trkpt><trkpt lat="43.31114" lon="42.460575"><ele>3970.4</ele><time>2025-08-18T08:57:28Z</time></trkpt><trkpt lat="43.31122" lon="42.460647"><ele>3971.9</ele><time>2025-08-18T08:57:38Z</time></trkpt><trkpt lat="43.31124" lon="42.460655"><ele>3972.3</ele><time>2025-08-18T08:57:45Z</time></trkpt><trkpt lat="43.311237" lon="42.460655"><ele>3972.3</ele><time>2025-08-18T08:57:48Z</time></trkpt><trkpt lat="43.31124" lon="42.460665"><ele>3971.5</ele><time>2025-08-18T08:58:08Z</time></trkpt><trkpt lat="43.31124" lon="42.460665"><ele>3971.5</ele><time>2025-08-18T08:58:09Z</time></trkpt><trkpt lat="43.311245" lon="42.46068"><ele>3970.5</ele><time>2025-08-18T08:58:20Z</time></trkpt><trkpt lat="43.311295" lon="42.46071"><ele>3971.3</ele><time>2025-08-18T08:58:27Z</time></trkpt><trkpt lat="43.311342" lon="42.46071"><ele>3972.3</ele><time>2025-08-18T08:58:34Z</time></trkpt><trkpt lat="43.311395" lon="42.46069"><ele>3972.8</ele><time>2025-08-18T08:58:41Z</time></trkpt><trkpt lat="43.311425" lon="42.460665"><ele>3972.6</ele><time>2025-08-18T08:58:48Z</time></trkpt><trkpt lat="43.311465" lon="42.46064"><ele>3973.8</ele><time>2025-08-18T08:58:55Z</time></trkpt><trkpt lat="43.311505" lon="42.460607"><ele>3974.1</ele><time>2025-08-18T08:59:02Z</time></trkpt><trkpt lat="43.31155" lon="42.460585"><ele>3975.7</ele><time>2025-08-18T08:59:09Z</time></trkpt><trkpt lat="43.31159" lon="42.46057"><ele>3977.4</ele><time>2025-08-18T08:59:16Z</time></trkpt><trkpt lat="43.311605" lon="42.46057"><ele>3977.2</ele><time>2025-08-18T08:59:23Z</time></trkpt><trkpt lat="43.311642" lon="42.460538"><ele>3976.8</ele><time>2025-08-18T08:59:30Z</time></trkpt><trkpt lat="43.311677" lon="42.460505"><ele>3975.6</ele><time>2025-08-18T08:59:37Z</time></trkpt><trkpt lat="43.311715" lon="42.46048"><ele>3975.7</ele><time>2025-08-18T08:59:44Z</time></trkpt><trkpt lat="43.31174" lon="42.460465"><ele>3976.3</ele><time>2025-08-18T08:59:51Z</time></trkpt><trkpt lat="43.311775" lon="42.460445"><ele>3977.2</ele><time>2025-08-18T08:59:58Z</time></trkpt><trkpt lat="43.311805" lon="42.46042"><ele>3978.1</ele><time>2025-08-18T09:00:05Z</time></trkpt><trkpt lat="43.311845" lon="42.460405"><ele>3978.7</ele><time>2025-08-18T09:00:12Z</time></trkpt><trkpt lat="43.31187" lon="42.460395"><ele>3978.8</ele><time>2025-08-18T09:00:19Z</time></trkpt><trkpt lat="43.311895" lon="42.460385"><ele>3979.2</ele><time>2025-08-18T09:00:26Z</time></trkpt><trkpt lat="43.311895" lon="42.460387"><ele>3979.5</ele><time>2025-08-18T09:00:28Z</time></trkpt><trkpt lat="43.312005" lon="42.460327"><ele>3982.1</ele><time>2025-08-18T09:00:54Z</time></trkpt><trkpt lat="43.31201" lon="42.46032"><ele>3982.1</ele><time>2025-08-18T09:01:00Z</time></trkpt><trkpt lat="43.31205" lon="42.46029"><ele>3982.1</ele><time>2025-08-18T09:01:08Z</time></trkpt><trkpt lat="43.31205" lon="42.460287"><ele>3982.1</ele><time>2025-08-18T09:01:13Z</time></trkpt><trkpt lat="43.312045" lon="42.46028"><ele>3981.7</ele><time>2025-08-18T09:01:54Z</time></trkpt><trkpt lat="43.312045" lon="42.46028"><ele>3981.7</ele><time>2025-08-18T09:01:55Z</time></trkpt><trkpt lat="43.31204" lon="42.46027"><ele>3982.2</ele><time>2025-08-18T09:02:05Z</time></trkpt><trkpt lat="43.31204" lon="42.460272"><ele>3983.1</ele><time>2025-08-18T09:02:06Z</time></trkpt><trkpt lat="43.312085" lon="42.46027"><ele>3984.0</ele><time>2025-08-18T09:02:21Z</time></trkpt><trkpt lat="43.312115" lon="42.46026"><ele>3985.5</ele><time>2025-08-18T09:02:28Z</time></trkpt><trkpt lat="43.31215" lon="42.460247"><ele>3985.2</ele><time>2025-08-18T09:02:35Z</time></trkpt><trkpt lat="43.31218" lon="42.46023"><ele>3984.3</ele><time>2025-08-18T09:02:42Z</time></trkpt><trkpt lat="43.31221" lon="42.46022"><ele>3985.7</ele><time>2025-08-18T09:02:49Z</time></trkpt><trkpt lat="43.312237" lon="42.46019"><ele>3987.5</ele><time>2025-08-18T09:02:56Z</time></trkpt><trkpt lat="43.31226" lon="42.460175"><ele>3989.2</ele><time>2025-08-18T09:03:03Z</time></trkpt><trkpt lat="43.312295" lon="42.460155"><ele>3989.5</ele><time>2025-08-18T09:03:11Z</time></trkpt><trkpt lat="43.31233" lon="42.460155"><ele>3991.6</ele><time>2025-08-18T09:03:18Z</time></trkpt><trkpt lat="43.312345" lon="42.460145"><ele>3992.2</ele><time>2025-08-18T09:03:25Z</time></trkpt><trkpt lat="43.312355" lon="42.460125"><ele>3991.8</ele><time>2025-08-18T09:03:34Z</time></trkpt><trkpt lat="43.312352" lon="42.460125"><ele>3991.8</ele><time>2025-08-18T09:03:35Z</time></trkpt><trkpt lat="43.31239" lon="42.4601"><ele>3992.6</ele><time>2025-08-18T09:03:46Z</time></trkpt><trkpt lat="43.312417" lon="42.46009"><ele>3992.2</ele><time>2025-08-18T09:03:53Z</time></trkpt><trkpt lat="43.312425" lon="42.460085"><ele>3992.8</ele><time>2025-08-18T09:03:57Z</time></trkpt><trkpt lat="43.312437" lon="42.460085"><ele>3994.0</ele><time>2025-08-18T09:04:05Z</time></trkpt><trkpt lat="43.312437" lon="42.460085"><ele>3994.0</ele><time>2025-08-18T09:04:06Z</time></trkpt><trkpt lat="43.31245" lon="42.460047"><ele>3995.2</ele><time>2025-08-18T09:04:15Z</time></trkpt><trkpt lat="43.312477" lon="42.460035"><ele>3997.2</ele><time>2025-08-18T09:04:22Z</time></trkpt><trkpt lat="43.312482" lon="42.460035"><ele>3997.4</ele><time>2025-08-18T09:04:24Z</time></trkpt><trkpt lat="43.3125" lon="42.460035"><ele>3997.1</ele><time>2025-08-18T09:04:33Z</time></trkpt><trkpt lat="43.312502" lon="42.460035"><ele>3997.1</ele><time>2025-08-18T09:04:34Z</time></trkpt><trkpt lat="43.31251" lon="42.46004"><ele>3996.6</ele><time>2025-08-18T09:05:06Z</time></trkpt><trkpt lat="43.312515" lon="42.460035"><ele>3997.3</ele><time>2025-08-18T09:05:07Z</time></trkpt><trkpt lat="43.312495" lon="42.46003"><ele>3997.8</ele><time>2025-08-18T09:05:22Z</time></trkpt><trkpt lat="43.312495" lon="42.46003"><ele>3997.8</ele><time>2025-08-18T09:05:23Z</time></trkpt><trkpt lat="43.31251" lon="42.460025"><ele>3998.8</ele><time>2025-08-18T09:05:37Z</time></trkpt><trkpt lat="43.31251" lon="42.460025"><ele>3998.8</ele><time>2025-08-18T09:05:38Z</time></trkpt><trkpt lat="43.312505" lon="42.46002"><ele>3997.8</ele><time>2025-08-18T09:05:53Z</time></trkpt><trkpt lat="43.312505" lon="42.46002"><ele>3997.8</ele><time>2025-08-18T09:05:54Z</time></trkpt><trkpt lat="43.312432" lon="42.460022"><ele>3996.6</ele><time>2025-08-18T09:08:11Z</time></trkpt><trkpt lat="43.31236" lon="42.460045"><ele>3993.5</ele><time>2025-08-18T09:08:18Z</time></trkpt><trkpt lat="43.312312" lon="42.460078"><ele>3992.0</ele><time>2025-08-18T09:08:25Z</time></trkpt><trkpt lat="43.312165" lon="42.46017"><ele>3987.5</ele><time>2025-08-18T09:08:51Z</time></trkpt><trkpt lat="43.312125" lon="42.46021"><ele>3986.3</ele><time>2025-08-18T09:08:58Z</time></trkpt><trkpt lat="43.312122" lon="42.460205"><ele>3986.3</ele><time>2025-08-18T09:09:04Z</time></trkpt><trkpt lat="43.312095" lon="42.46022"><ele>3985.5</ele><time>2025-08-18T09:09:17Z</time></trkpt><trkpt lat="43.311895" lon="42.46034"><ele>3981.8</ele><time>2025-08-18T09:09:41Z</time></trkpt><trkpt lat="43.311855" lon="42.46038"><ele>3980.4</ele><time>2025-08-18T09:09:48Z</time></trkpt><trkpt lat="43.31184" lon="42.460395"><ele>3979.7</ele><time>2025-08-18T09:09:55Z</time></trkpt><trkpt lat="43.311802" lon="42.46043"><ele>3979.7</ele><time>2025-08-18T09:10:02Z</time></trkpt><trkpt lat="43.311765" lon="42.46047"><ele>3978.7</ele><time>2025-08-18T09:10:09Z</time></trkpt><trkpt lat="43.311587" lon="42.46057"><ele>3974.7</ele><time>2025-08-18T09:10:31Z</time></trkpt><trkpt lat="43.311535" lon="42.460597"><ele>3975.1</ele><time>2025-08-18T09:10:38Z</time></trkpt><trkpt lat="43.311472" lon="42.460612"><ele>3972.8</ele><time>2025-08-18T09:10:45Z</time></trkpt><trkpt lat="43.311412" lon="42.460627"><ele>3972.9</ele><time>2025-08-18T09:10:52Z</time></trkpt><trkpt lat="43.311352" lon="42.460635"><ele>3972.7</ele><time>2025-08-18T09:10:59Z</time></trkpt><trkpt lat="43.311205" lon="42.46062"><ele>3972.4</ele><time>2025-08-18T09:11:21Z</time></trkpt><trkpt lat="43.311175" lon="42.46072"><ele>3971.9</ele><time>2025-08-18T09:11:28Z</time></trkpt><trkpt lat="43.311142" lon="42.460785"><ele>3972.6</ele><time>2025-08-18T09:11:35Z</time></trkpt><trkpt lat="43.31108" lon="42.460837"><ele>3972.5</ele><time>2025-08-18T09:11:42Z</time></trkpt><trkpt lat="43.311037" lon="42.46085"><ele>3972.5</ele><time>2025-08-18T09:11:49Z</time></trkpt><trkpt lat="43.310905" lon="42.460785"><ele>3970.2</ele><time>2025-08-18T09:12:11Z</time></trkpt><trkpt lat="43.310877" lon="42.460795"><ele>3971.7</ele><time>2025-08-18T09:12:18Z</time></trkpt><trkpt lat="43.310832" lon="42.460785"><ele>3972.3</ele><time>2025-08-18T09:12:25Z</time></trkpt><trkpt lat="43.31078" lon="42.460747"><ele>3971.7</ele><time>2025-08-18T09:12:32Z</time></trkpt><trkpt lat="43.31073" lon="42.460735"><ele>3971.0</ele><time>2025-08-18T09:12:39Z</time></trkpt><trkpt lat="43.310567" lon="42.46074"><ele>3971.8</ele><time>2025-08-18T09:13:01Z</time></trkpt><trkpt lat="43.310545" lon="42.460722"><ele>3972.8</ele><time>2025-08-18T09:13:08Z</time></trkpt><trkpt lat="43.310535" lon="42.460717"><ele>3972.6</ele><time>2025-08-18T09:13:11Z</time></trkpt><trkpt lat="43.310485" lon="42.4607"><ele>3971.4</ele><time>2025-08-18T09:13:18Z</time></trkpt><trkpt lat="43.31042" lon="42.460725"><ele>3972.8</ele><time>2025-08-18T09:13:25Z</time></trkpt><trkpt lat="43.310195" lon="42.460672"><ele>3967.7</ele><time>2025-08-18T09:13:51Z</time></trkpt><trkpt lat="43.31013" lon="42.46069"><ele>3967.5</ele><time>2025-08-18T09:13:58Z</time></trkpt><trkpt lat="43.310077" lon="42.460677"><ele>3966.9</ele><time>2025-08-18T09:14:05Z</time></trkpt><trkpt lat="43.31002" lon="42.460675"><ele>3965.5</ele><time>2025-08-18T09:14:12Z</time></trkpt><trkpt lat="43.309955" lon="42.460672"><ele>3964.9</ele><time>2025-08-18T09:14:19Z</time></trkpt><trkpt lat="43.30978" lon="42.46068"><ele>3963.2</ele><time>2025-08-18T09:14:41Z</time></trkpt><trkpt lat="43.30972" lon="42.460675"><ele>3962.3</ele><time>2025-08-18T09:14:48Z</time></trkpt><trkpt lat="43.30966" lon="42.460675"><ele>3960.1</ele><time>2025-08-18T09:14:55Z</time></trkpt><trkpt lat="43.30964" lon="42.460677"><ele>3960.5</ele><time>2025-08-18T09:15:02Z</time></trkpt><trkpt lat="43.30964" lon="42.46068"><ele>3960.5</ele><time>2025-08-18T09:15:05Z</time></trkpt><trkpt lat="43.30952" lon="42.460667"><ele>3958.0</ele><time>2025-08-18T09:15:31Z</time></trkpt><trkpt lat="43.309455" lon="42.460687"><ele>3955.2</ele><time>2025-08-18T09:15:37Z</time></trkpt><trkpt lat="43.309405" lon="42.460675"><ele>3955.3</ele><time>2025-08-18T09:15:44Z</time></trkpt><trkpt lat="43.30935" lon="42.460675"><ele>3953.4</ele><time>2025-08-18T09:15:51Z</time></trkpt><trkpt lat="43.309295" lon="42.46067"><ele>3952.6</ele><time>2025-08-18T09:15:58Z</time></trkpt><trkpt lat="43.309275" lon="42.460687"><ele>3950.5</ele><time>2025-08-18T09:16:24Z</time></trkpt><trkpt lat="43.309275" lon="42.460683"><ele>3950.5</ele><time>2025-08-18T09:16:27Z</time></trkpt><trkpt lat="43.309257" lon="42.46068"><ele>3950.6</ele><time>2025-08-18T09:17:17Z</time></trkpt><trkpt lat="43.309215" lon="42.46067"><ele>3952.0</ele><time>2025-08-18T09:17:24Z</time></trkpt><trkpt lat="43.30917" lon="42.460682"><ele>3951.3</ele><time>2025-08-18T09:17:31Z</time></trkpt><trkpt lat="43.30912" lon="42.46068"><ele>3949.2</ele><time>2025-08-18T09:17:38Z</time></trkpt><trkpt lat="43.309045" lon="42.460655"><ele>3949.1</ele><time>2025-08-18T09:18:04Z</time></trkpt><trkpt lat="43.309" lon="42.46066"><ele>3947.3</ele><time>2025-08-18T09:18:11Z</time></trkpt><trkpt lat="43.308955" lon="42.460655"><ele>3947.0</ele><time>2025-08-18T09:18:18Z</time></trkpt><trkpt lat="43.308917" lon="42.46065"><ele>3945.0</ele><time>2025-08-18T09:18:25Z</time></trkpt><trkpt lat="43.308865" lon="42.460665"><ele>3945.4</ele><time>2025-08-18T09:18:51Z</time></trkpt><trkpt lat="43.308865" lon="42.460665"><ele>3945.4</ele><time>2025-08-18T09:18:52Z</time></trkpt><trkpt lat="43.308855" lon="42.460675"><ele>3944.7</ele><time>2025-08-18T09:19:07Z</time></trkpt><trkpt lat="43.308855" lon="42.460675"><ele>3944.8</ele><time>2025-08-18T09:19:08Z</time></trkpt><trkpt lat="43.30886" lon="42.46067"><ele>3944.3</ele><time>2025-08-18T09:20:02Z</time></trkpt><trkpt lat="43.308862" lon="42.460672"><ele>3944.5</ele><time>2025-08-18T09:20:03Z</time></trkpt><trkpt lat="43.30886" lon="42.460655"><ele>3945.8</ele><time>2025-08-18T09:21:27Z</time></trkpt><trkpt lat="43.30886" lon="42.460655"><ele>3945.8</ele><time>2025-08-18T09:21:28Z</time></trkpt><trkpt lat="43.308865" lon="42.46066"><ele>3946.5</ele><time>2025-08-18T09:22:13Z</time></trkpt><trkpt lat="43.308865" lon="42.46066"><ele>3946.5</ele><time>2025-08-18T09:22:14Z</time></trkpt><trkpt lat="43.308872" lon="42.460645"><ele>3945.6</ele><time>2025-08-18T09:22:30Z</time></trkpt><trkpt lat="43.308875" lon="42.460645"><ele>3945.3</ele><time>2025-08-18T09:22:31Z</time></trkpt><trkpt lat="43.30887" lon="42.460675"><ele>3945.8</ele><time>2025-08-18T09:22:39Z</time></trkpt><trkpt lat="43.308875" lon="42.460655"><ele>3944.7</ele><time>2025-08-18T09:23:05Z</time></trkpt><trkpt lat="43.308875" lon="42.46063"><ele>3945.8</ele><time>2025-08-18T09:23:25Z</time></trkpt><trkpt lat="43.30888" lon="42.46064"><ele>3945.1</ele><time>2025-08-18T09:23:28Z</time></trkpt><trkpt lat="43.30888" lon="42.460625"><ele>3947.6</ele><time>2025-08-18T09:23:40Z</time></trkpt><trkpt lat="43.30887" lon="42.460632"><ele>3946.7</ele><time>2025-08-18T09:23:47Z</time></trkpt><trkpt lat="43.30887" lon="42.460632"><ele>3946.7</ele><time>2025-08-18T09:23:49Z</time></trkpt><trkpt lat="43.308875" lon="42.46064"><ele>3947.1</ele><time>2025-08-18T09:24:56Z</time></trkpt><trkpt lat="43.308875" lon="42.46064"><ele>3947.1</ele><time>2025-08-18T09:24:56Z</time></trkpt><trkpt lat="43.30887" lon="42.46065"><ele>3946.0</ele><time>2025-08-18T09:25:09Z</time></trkpt><trkpt lat="43.30887" lon="42.46065"><ele>3946.1</ele><time>2025-08-18T09:25:10Z</time></trkpt><trkpt lat="43.308875" lon="42.460655"><ele>3946.4</ele><time>2025-08-18T09:25:18Z</time></trkpt><trkpt lat="43.308875" lon="42.46065"><ele>3946.0</ele><time>2025-08-18T09:25:19Z</time></trkpt><trkpt lat="43.30882" lon="42.46064"><ele>3947.5</ele><time>2025-08-18T09:25:38Z</time></trkpt><trkpt lat="43.308605" lon="42.46061"><ele>3943.2</ele><time>2025-08-18T09:26:09Z</time></trkpt><trkpt lat="43.30857" lon="42.460605"><ele>3941.7</ele><time>2025-08-18T09:26:16Z</time></trkpt><trkpt lat="43.30857" lon="42.460605"><ele>3941.7</ele><time>2025-08-18T09:26:21Z</time></trkpt><trkpt lat="43.30852" lon="42.460605"><ele>3941.9</ele><time>2025-08-18T09:26:39Z</time></trkpt><trkpt lat="43.308382" lon="42.4606"><ele>3937.2</ele><time>2025-08-18T09:26:59Z</time></trkpt><trkpt lat="43.308337" lon="42.460595"><ele>3935.9</ele><time>2025-08-18T09:27:06Z</time></trkpt><trkpt lat="43.308287" lon="42.46058"><ele>3934.9</ele><time>2025-08-18T09:27:13Z</time></trkpt><trkpt lat="43.30829" lon="42.46058"><ele>3934.9</ele><time>2025-08-18T09:27:19Z</time></trkpt><trkpt lat="43.30824" lon="42.46057"><ele>3935.4</ele><time>2025-08-18T09:27:28Z</time></trkpt><trkpt lat="43.308105" lon="42.46055"><ele>3931.7</ele><time>2025-08-18T09:27:49Z</time></trkpt><trkpt lat="43.30805" lon="42.460552"><ele>3931.1</ele><time>2025-08-18T09:27:56Z</time></trkpt><trkpt lat="43.308002" lon="42.460542"><ele>3929.3</ele><time>2025-08-18T09:28:03Z</time></trkpt><trkpt lat="43.307945" lon="42.460545"><ele>3926.4</ele><time>2025-08-18T09:28:10Z</time></trkpt><trkpt lat="43.3079" lon="42.460543"><ele>3927.1</ele><time>2025-08-18T09:28:17Z</time></trkpt><trkpt lat="43.3078" lon="42.460535"><ele>3925.6</ele><time>2025-08-18T09:28:39Z</time></trkpt><trkpt lat="43.307745" lon="42.46055"><ele>3925.7</ele><time>2025-08-18T09:28:46Z</time></trkpt><trkpt lat="43.307685" lon="42.460555"><ele>3924.7</ele><time>2025-08-18T09:28:53Z</time></trkpt><trkpt lat="43.30764" lon="42.46055"><ele>3923.4</ele><time>2025-08-18T09:29:00Z</time></trkpt><trkpt lat="43.3076" lon="42.46055"><ele>3921.0</ele><time>2025-08-18T09:29:07Z</time></trkpt><trkpt lat="43.307537" lon="42.460555"><ele>3920.4</ele><time>2025-08-18T09:29:33Z</time></trkpt><trkpt lat="43.307535" lon="42.460555"><ele>3919.8</ele><time>2025-08-18T09:29:35Z</time></trkpt><trkpt lat="43.30748" lon="42.46057"><ele>3919.6</ele><time>2025-08-18T09:29:43Z</time></trkpt><trkpt lat="43.30744" lon="42.460565"><ele>3918.4</ele><time>2025-08-18T09:29:50Z</time></trkpt><trkpt lat="43.3074" lon="42.460565"><ele>3916.9</ele><time>2025-08-18T09:29:57Z</time></trkpt><trkpt lat="43.30731" lon="42.46057"><ele>3915.9</ele><time>2025-08-18T09:30:19Z</time></trkpt><trkpt lat="43.307272" lon="42.46056"><ele>3916.3</ele><time>2025-08-18T09:30:26Z</time></trkpt><trkpt lat="43.307242" lon="42.460515"><ele>3915.4</ele><time>2025-08-18T09:30:33Z</time></trkpt><trkpt lat="43.30718" lon="42.460525"><ele>3912.8</ele><time>2025-08-18T09:30:40Z</time></trkpt><trkpt lat="43.307157" lon="42.460527"><ele>3913.5</ele><time>2025-08-18T09:30:47Z</time></trkpt><trkpt lat="43.307155" lon="42.460525"><ele>3913.7</ele><time>2025-08-18T09:30:49Z</time></trkpt><trkpt lat="43.307072" lon="42.460555"><ele>3909.3</ele><time>2025-08-18T09:31:09Z</time></trkpt><trkpt lat="43.30704" lon="42.460577"><ele>3910.1</ele><time>2025-08-18T09:31:16Z</time></trkpt><trkpt lat="43.307007" lon="42.460585"><ele>3910.0</ele><time>2025-08-18T09:31:23Z</time></trkpt><trkpt lat="43.307" lon="42.460585"><ele>3910.1</ele><time>2025-08-18T09:31:25Z</time></trkpt><trkpt lat="43.30699" lon="42.460585"><ele>3909.8</ele><time>2025-08-18T09:31:32Z</time></trkpt><trkpt lat="43.30696" lon="42.46062"><ele>3907.6</ele><time>2025-08-18T09:31:39Z</time></trkpt><trkpt lat="43.306922" lon="42.460627"><ele>3906.0</ele><time>2025-08-18T09:31:46Z</time></trkpt><trkpt lat="43.306875" lon="42.46063"><ele>3907.5</ele><time>2025-08-18T09:31:53Z</time></trkpt><trkpt lat="43.306835" lon="42.4606"><ele>3907.8</ele><time>2025-08-18T09:32:00Z</time></trkpt><trkpt lat="43.306795" lon="42.4606"><ele>3905.4</ele><time>2025-08-18T09:32:07Z</time></trkpt><trkpt lat="43.306745" lon="42.460612"><ele>3904.9</ele><time>2025-08-18T09:32:14Z</time></trkpt><trkpt lat="43.30674" lon="42.460607"><ele>3905.3</ele><time>2025-08-18T09:32:20Z</time></trkpt><trkpt lat="43.30667" lon="42.460637"><ele>3905.4</ele><time>2025-08-18T09:32:53Z</time></trkpt><trkpt lat="43.30662" lon="42.460635"><ele>3904.3</ele><time>2025-08-18T09:33:00Z</time></trkpt><trkpt lat="43.306595" lon="42.460645"><ele>3903.0</ele><time>2025-08-18T09:33:07Z</time></trkpt><trkpt lat="43.306575" lon="42.460622"><ele>3903.0</ele><time>2025-08-18T09:33:14Z</time></trkpt><trkpt lat="43.306445" lon="42.460537"><ele>3903.0</ele><time>2025-08-18T09:33:39Z</time></trkpt><trkpt lat="43.306402" lon="42.460505"><ele>3902.8</ele><time>2025-08-18T09:33:46Z</time></trkpt><trkpt lat="43.3064" lon="42.460515"><ele>3903.3</ele><time>2025-08-18T09:33:53Z</time></trkpt><trkpt lat="43.30638" lon="42.460595"><ele>3902.9</ele><time>2025-08-18T09:34:00Z</time></trkpt><trkpt lat="43.306375" lon="42.46067"><ele>3901.2</ele><time>2025-08-18T09:34:07Z</time></trkpt><trkpt lat="43.306275" lon="42.460595"><ele>3899.3</ele><time>2025-08-18T09:34:29Z</time></trkpt><trkpt lat="43.306305" lon="42.46057"><ele>3898.0</ele><time>2025-08-18T09:34:36Z</time></trkpt><trkpt lat="43.30632" lon="42.46055"><ele>3897.0</ele><time>2025-08-18T09:34:42Z</time></trkpt><trkpt lat="43.30628" lon="42.460465"><ele>3897.9</ele><time>2025-08-18T09:35:22Z</time></trkpt><trkpt lat="43.306275" lon="42.460382"><ele>3900.4</ele><time>2025-08-18T09:35:29Z</time></trkpt><trkpt lat="43.306247" lon="42.460375"><ele>3899.4</ele><time>2025-08-18T09:35:36Z</time></trkpt><trkpt lat="43.306192" lon="42.460395"><ele>3899.7</ele><time>2025-08-18T09:35:43Z</time></trkpt><trkpt lat="43.305953" lon="42.460437"><ele>3904.8</ele><time>2025-08-18T09:36:09Z</time></trkpt><trkpt lat="43.30591" lon="42.460458"><ele>3904.5</ele><time>2025-08-18T09:36:16Z</time></trkpt><trkpt lat="43.305865" lon="42.46044"><ele>3906.4</ele><time>2025-08-18T09:36:23Z</time></trkpt><trkpt lat="43.30581" lon="42.46043"><ele>3905.0</ele><time>2025-08-18T09:36:30Z</time></trkpt><trkpt lat="43.30575" lon="42.46043"><ele>3904.4</ele><time>2025-08-18T09:36:37Z</time></trkpt><trkpt lat="43.30568" lon="42.460458"><ele>3902.5</ele><time>2025-08-18T09:37:00Z</time></trkpt><trkpt lat="43.305682" lon="42.460457"><ele>3902.7</ele><time>2025-08-18T09:37:05Z</time></trkpt><trkpt lat="43.305615" lon="42.460455"><ele>3904.3</ele><time>2025-08-18T09:37:13Z</time></trkpt><trkpt lat="43.305585" lon="42.46044"><ele>3903.4</ele><time>2025-08-18T09:37:20Z</time></trkpt><trkpt lat="43.30558" lon="42.46047"><ele>3902.3</ele><time>2025-08-18T09:37:27Z</time></trkpt><trkpt lat="43.305485" lon="42.46045"><ele>3898.4</ele><time>2025-08-18T09:37:49Z</time></trkpt><trkpt lat="43.305425" lon="42.460475"><ele>3895.0</ele><time>2025-08-18T09:37:56Z</time></trkpt><trkpt lat="43.30541" lon="42.460458"><ele>3895.0</ele><time>2025-08-18T09:38:01Z</time></trkpt><trkpt lat="43.305375" lon="42.460452"><ele>3894.4</ele><time>2025-08-18T09:38:09Z</time></trkpt><trkpt lat="43.305348" lon="42.460445"><ele>3893.5</ele><time>2025-08-18T09:38:16Z</time></trkpt><trkpt lat="43.305265" lon="42.46041"><ele>3891.7</ele><time>2025-08-18T09:38:39Z</time></trkpt><trkpt lat="43.305193" lon="42.460458"><ele>3890.2</ele><time>2025-08-18T09:38:45Z</time></trkpt><trkpt lat="43.305172" lon="42.46048"><ele>3888.4</ele><time>2025-08-18T09:38:52Z</time></trkpt><trkpt lat="43.305135" lon="42.460472"><ele>3888.2</ele><time>2025-08-18T09:38:59Z</time></trkpt><trkpt lat="43.305127" lon="42.46048"><ele>3887.8</ele><time>2025-08-18T09:39:06Z</time></trkpt><trkpt lat="43.305122" lon="42.460472"><ele>3886.5</ele><time>2025-08-18T09:39:31Z</time></trkpt><trkpt lat="43.305115" lon="42.460465"><ele>3885.1</ele><time>2025-08-18T09:39:38Z</time></trkpt><trkpt lat="43.305115" lon="42.460465"><ele>3885.1</ele><time>2025-08-18T09:39:40Z</time></trkpt><trkpt lat="43.305077" lon="42.460442"><ele>3885.9</ele><time>2025-08-18T09:39:48Z</time></trkpt><trkpt lat="43.305055" lon="42.46043"><ele>3884.0</ele><time>2025-08-18T09:39:55Z</time></trkpt><trkpt lat="43.30492" lon="42.4604"><ele>3879.8</ele><time>2025-08-18T09:40:19Z</time></trkpt><trkpt lat="43.304885" lon="42.460405"><ele>3879.4</ele><time>2025-08-18T09:40:26Z</time></trkpt><trkpt lat="43.30487" lon="42.460345"><ele>3877.4</ele><time>2025-08-18T09:40:33Z</time></trkpt><trkpt lat="43.304865" lon="42.46031"><ele>3874.4</ele><time>2025-08-18T09:40:40Z</time></trkpt><trkpt lat="43.304837" lon="42.460285"><ele>3875.8</ele><time>2025-08-18T09:40:47Z</time></trkpt><trkpt lat="43.304767" lon="42.46027"><ele>3877.9</ele><time>2025-08-18T09:41:13Z</time></trkpt><trkpt lat="43.304755" lon="42.46032"><ele>3879.3</ele><time>2025-08-18T09:41:20Z</time></trkpt><trkpt lat="43.30471" lon="42.460335"><ele>3879.3</ele><time>2025-08-18T09:41:27Z</time></trkpt><trkpt lat="43.304685" lon="42.460302"><ele>3877.8</ele><time>2025-08-18T09:41:34Z</time></trkpt><trkpt lat="43.304517" lon="42.460272"><ele>3878.7</ele><time>2025-08-18T09:41:59Z</time></trkpt><trkpt lat="43.304497" lon="42.460292"><ele>3877.7</ele><time>2025-08-18T09:42:06Z</time></trkpt><trkpt lat="43.304455" lon="42.460303"><ele>3876.7</ele><time>2025-08-18T09:42:13Z</time></trkpt><trkpt lat="43.304448" lon="42.460297"><ele>3876.8</ele><time>2025-08-18T09:42:18Z</time></trkpt><trkpt lat="43.30443" lon="42.460317"><ele>3876.8</ele><time>2025-08-18T09:42:26Z</time></trkpt><trkpt lat="43.3044" lon="42.460352"><ele>3873.9</ele><time>2025-08-18T09:42:38Z</time></trkpt><trkpt lat="43.30435" lon="42.46036"><ele>3873.1</ele><time>2025-08-18T09:42:45Z</time></trkpt><trkpt lat="43.304295" lon="42.46036"><ele>3872.8</ele><time>2025-08-18T09:42:52Z</time></trkpt><trkpt lat="43.30428" lon="42.46032"><ele>3873.0</ele><time>2025-08-18T09:42:59Z</time></trkpt><trkpt lat="43.304285" lon="42.460315"><ele>3873.1</ele><time>2025-08-18T09:43:06Z</time></trkpt><trkpt lat="43.304293" lon="42.46033"><ele>3872.7</ele><time>2025-08-18T09:44:10Z</time></trkpt><trkpt lat="43.304295" lon="42.460335"><ele>3872.5</ele><time>2025-08-18T09:44:11Z</time></trkpt><trkpt lat="43.304275" lon="42.460355"><ele>3872.8</ele><time>2025-08-18T09:44:33Z</time></trkpt><trkpt lat="43.30424" lon="42.46036"><ele>3873.7</ele><time>2025-08-18T09:44:40Z</time></trkpt><trkpt lat="43.304207" lon="42.46036"><ele>3874.0</ele><time>2025-08-18T09:44:47Z</time></trkpt><trkpt lat="43.304175" lon="42.460345"><ele>3873.4</ele><time>2025-08-18T09:44:54Z</time></trkpt><trkpt lat="43.30413" lon="42.46028"><ele>3871.6</ele><time>2025-08-18T09:45:01Z</time></trkpt><trkpt lat="43.30409" lon="42.460215"><ele>3871.0</ele><time>2025-08-18T09:45:08Z</time></trkpt><trkpt lat="43.30404" lon="42.460215"><ele>3871.2</ele><time>2025-08-18T09:45:15Z</time></trkpt><trkpt lat="43.304007" lon="42.4602"><ele>3870.6</ele><time>2025-08-18T09:45:22Z</time></trkpt><trkpt lat="43.303967" lon="42.460185"><ele>3868.3</ele><time>2025-08-18T09:45:29Z</time></trkpt><trkpt lat="43.30393" lon="42.46022"><ele>3866.9</ele><time>2025-08-18T09:45:36Z</time></trkpt><trkpt lat="43.30389" lon="42.460255"><ele>3865.7</ele><time>2025-08-18T09:45:43Z</time></trkpt><trkpt lat="43.30385" lon="42.46028"><ele>3864.5</ele><time>2025-08-18T09:45:50Z</time></trkpt><trkpt lat="43.30382" lon="42.460315"><ele>3864.1</ele><time>2025-08-18T09:45:57Z</time></trkpt><trkpt lat="43.303792" lon="42.460337"><ele>3863.5</ele><time>2025-08-18T09:46:04Z</time></trkpt><trkpt lat="43.303785" lon="42.460342"><ele>3863.5</ele><time>2025-08-18T09:46:06Z</time></trkpt><trkpt lat="43.30375" lon="42.46037"><ele>3863.1</ele><time>2025-08-18T09:46:14Z</time></trkpt><trkpt lat="43.303707" lon="42.460385"><ele>3862.1</ele><time>2025-08-18T09:46:21Z</time></trkpt><trkpt lat="43.30368" lon="42.460415"><ele>3861.1</ele><time>2025-08-18T09:46:28Z</time></trkpt><trkpt lat="43.303645" lon="42.46044"><ele>3860.8</ele><time>2025-08-18T09:46:35Z</time></trkpt><trkpt lat="43.303602" lon="42.460477"><ele>3860.6</ele><time>2025-08-18T09:46:42Z</time></trkpt><trkpt lat="43.303567" lon="42.4605"><ele>3860.5</ele><time>2025-08-18T09:46:49Z</time></trkpt><trkpt lat="43.303435" lon="42.460582"><ele>3858.0</ele><time>2025-08-18T09:47:14Z</time></trkpt><trkpt lat="43.303385" lon="42.460625"><ele>3857.6</ele><time>2025-08-18T09:47:20Z</time></trkpt><trkpt lat="43.30335" lon="42.46066"><ele>3857.0</ele><time>2025-08-18T09:47:27Z</time></trkpt><trkpt lat="43.303315" lon="42.460702"><ele>3855.9</ele><time>2025-08-18T09:47:34Z</time></trkpt><trkpt lat="43.303277" lon="42.460737"><ele>3854.5</ele><time>2025-08-18T09:47:41Z</time></trkpt><trkpt lat="43.3032" lon="42.460805"><ele>3852.9</ele><time>2025-08-18T09:48:04Z</time></trkpt><trkpt lat="43.303152" lon="42.46083"><ele>3852.4</ele><time>2025-08-18T09:48:11Z</time></trkpt><trkpt lat="43.303135" lon="42.460875"><ele>3850.6</ele><time>2025-08-18T09:48:18Z</time></trkpt><trkpt lat="43.303125" lon="42.460925"><ele>3847.9</ele><time>2025-08-18T09:48:25Z</time></trkpt><trkpt lat="43.303083" lon="42.460935"><ele>3845.5</ele><time>2025-08-18T09:48:32Z</time></trkpt><trkpt lat="43.303017" lon="42.46106"><ele>3841.8</ele><time>2025-08-18T09:48:54Z</time></trkpt><trkpt lat="43.30297" lon="42.461115"><ele>3839.3</ele><time>2025-08-18T09:49:00Z</time></trkpt><trkpt lat="43.302945" lon="42.461155"><ele>3837.7</ele><time>2025-08-18T09:49:07Z</time></trkpt><trkpt lat="43.302915" lon="42.461205"><ele>3836.5</ele><time>2025-08-18T09:49:14Z</time></trkpt><trkpt lat="43.302875" lon="42.46125"><ele>3836.2</ele><time>2025-08-18T09:49:21Z</time></trkpt><trkpt lat="43.302767" lon="42.461285"><ele>3834.9</ele><time>2025-08-18T09:49:44Z</time></trkpt><trkpt lat="43.302715" lon="42.461285"><ele>3834.1</ele><time>2025-08-18T09:49:51Z</time></trkpt><trkpt lat="43.302675" lon="42.46131"><ele>3833.9</ele><time>2025-08-18T09:49:58Z</time></trkpt><trkpt lat="43.302635" lon="42.461335"><ele>3834.2</ele><time>2025-08-18T09:50:05Z</time></trkpt><trkpt lat="43.3026" lon="42.46135"><ele>3834.0</ele><time>2025-08-18T09:50:12Z</time></trkpt><trkpt lat="43.302525" lon="42.461335"><ele>3831.3</ele><time>2025-08-18T09:50:34Z</time></trkpt><trkpt lat="43.30247" lon="42.461345"><ele>3829.9</ele><time>2025-08-18T09:50:41Z</time></trkpt><trkpt lat="43.30243" lon="42.461352"><ele>3828.9</ele><time>2025-08-18T09:50:48Z</time></trkpt><trkpt lat="43.302405" lon="42.46135"><ele>3828.5</ele><time>2025-08-18T09:50:55Z</time></trkpt><trkpt lat="43.30237" lon="42.46136"><ele>3827.1</ele><time>2025-08-18T09:51:02Z</time></trkpt><trkpt lat="43.302302" lon="42.46139"><ele>3824.9</ele><time>2025-08-18T09:51:27Z</time></trkpt><trkpt lat="43.3023" lon="42.461385"><ele>3825.1</ele><time>2025-08-18T09:51:30Z</time></trkpt><trkpt lat="43.302265" lon="42.46138"><ele>3824.6</ele><time>2025-08-18T09:51:40Z</time></trkpt><trkpt lat="43.302235" lon="42.461395"><ele>3823.9</ele><time>2025-08-18T09:51:47Z</time></trkpt><trkpt lat="43.30221" lon="42.46142"><ele>3823.2</ele><time>2025-08-18T09:51:54Z</time></trkpt><trkpt lat="43.30219" lon="42.461477"><ele>3821.1</ele><time>2025-08-18T09:52:20Z</time></trkpt><trkpt lat="43.302187" lon="42.461477"><ele>3821.1</ele><time>2025-08-18T09:52:24Z</time></trkpt><trkpt lat="43.302092" lon="42.461625"><ele>3817.6</ele><time>2025-08-18T09:53:04Z</time></trkpt><trkpt lat="43.30207" lon="42.46162"><ele>3817.3</ele><time>2025-08-18T09:53:11Z</time></trkpt><trkpt lat="43.302022" lon="42.46162"><ele>3816.4</ele><time>2025-08-18T09:53:18Z</time></trkpt><trkpt lat="43.301985" lon="42.461625"><ele>3816.0</ele><time>2025-08-18T09:53:25Z</time></trkpt><trkpt lat="43.30198" lon="42.46166"><ele>3815.0</ele><time>2025-08-18T09:53:32Z</time></trkpt><trkpt lat="43.301867" lon="42.461695"><ele>3813.4</ele><time>2025-08-18T09:53:54Z</time></trkpt><trkpt lat="43.301865" lon="42.461695"><ele>3814.0</ele><time>2025-08-18T09:54:01Z</time></trkpt><trkpt lat="43.301865" lon="42.461683"><ele>3814.1</ele><time>2025-08-18T09:54:12Z</time></trkpt><trkpt lat="43.301865" lon="42.461682"><ele>3813.5</ele><time>2025-08-18T09:54:13Z</time></trkpt><trkpt lat="43.30182" lon="42.461707"><ele>3809.8</ele><time>2025-08-18T09:54:21Z</time></trkpt><trkpt lat="43.301788" lon="42.461735"><ele>3809.1</ele><time>2025-08-18T09:54:28Z</time></trkpt><trkpt lat="43.301765" lon="42.461775"><ele>3807.8</ele><time>2025-08-18T09:54:35Z</time></trkpt><trkpt lat="43.301715" lon="42.461817"><ele>3806.5</ele><time>2025-08-18T09:54:42Z</time></trkpt><trkpt lat="43.3017" lon="42.46185"><ele>3806.3</ele><time>2025-08-18T09:54:49Z</time></trkpt><trkpt lat="43.301665" lon="42.4619"><ele>3805.5</ele><time>2025-08-18T09:54:56Z</time></trkpt><trkpt lat="43.301655" lon="42.461925"><ele>3805.0</ele><time>2025-08-18T09:55:03Z</time></trkpt><trkpt lat="43.301648" lon="42.461935"><ele>3804.9</ele><time>2025-08-18T09:55:05Z</time></trkpt><trkpt lat="43.301605" lon="42.461975"><ele>3802.1</ele><time>2025-08-18T09:55:13Z</time></trkpt><trkpt lat="43.3016" lon="42.462012"><ele>3801.6</ele><time>2025-08-18T09:55:20Z</time></trkpt><trkpt lat="43.301595" lon="42.462025"><ele>3801.5</ele><time>2025-08-18T09:55:23Z</time></trkpt><trkpt lat="43.30156" lon="42.46206"><ele>3800.2</ele><time>2025-08-18T09:55:31Z</time></trkpt><trkpt lat="43.30153" lon="42.46208"><ele>3798.9</ele><time>2025-08-18T09:55:38Z</time></trkpt><trkpt lat="43.301492" lon="42.46211"><ele>3797.9</ele><time>2025-08-18T09:55:45Z</time></trkpt><trkpt lat="43.30145" lon="42.462133"><ele>3796.7</ele><time>2025-08-18T09:55:52Z</time></trkpt><trkpt lat="43.301408" lon="42.462155"><ele>3795.1</ele><time>2025-08-18T09:55:59Z</time></trkpt><trkpt lat="43.30139" lon="42.462175"><ele>3793.9</ele><time>2025-08-18T09:56:06Z</time></trkpt><trkpt lat="43.301357" lon="42.46221"><ele>3792.7</ele><time>2025-08-18T09:56:13Z</time></trkpt><trkpt lat="43.30135" lon="42.462222"><ele>3792.7</ele><time>2025-08-18T09:56:16Z</time></trkpt><trkpt lat="43.30132" lon="42.462262"><ele>3792.0</ele><time>2025-08-18T09:56:26Z</time></trkpt><trkpt lat="43.30123" lon="42.462355"><ele>3789.6</ele><time>2025-08-18T09:56:50Z</time></trkpt><trkpt lat="43.301245" lon="42.4624"><ele>3789.9</ele><time>2025-08-18T09:56:57Z</time></trkpt><trkpt lat="43.301212" lon="42.462452"><ele>3788.7</ele><time>2025-08-18T09:57:04Z</time></trkpt><trkpt lat="43.301175" lon="42.46248"><ele>3788.3</ele><time>2025-08-18T09:57:11Z</time></trkpt><trkpt lat="43.301135" lon="42.46253"><ele>3786.8</ele><time>2025-08-18T09:57:18Z</time></trkpt><trkpt lat="43.301035" lon="42.46261"><ele>3782.0</ele><time>2025-08-18T09:57:40Z</time></trkpt><trkpt lat="43.300995" lon="42.462622"><ele>3780.4</ele><time>2025-08-18T09:57:47Z</time></trkpt><trkpt lat="43.30099" lon="42.462635"><ele>3780.2</ele><time>2025-08-18T09:57:54Z</time></trkpt><trkpt lat="43.30099" lon="42.462635"><ele>3780.2</ele><time>2025-08-18T09:57:55Z</time></trkpt><trkpt lat="43.300945" lon="42.462667"><ele>3778.9</ele><time>2025-08-18T09:58:09Z</time></trkpt><trkpt lat="43.30085" lon="42.46275"><ele>3775.7</ele><time>2025-08-18T09:58:30Z</time></trkpt><trkpt lat="43.300815" lon="42.46277"><ele>3775.1</ele><time>2025-08-18T09:58:37Z</time></trkpt><trkpt lat="43.300775" lon="42.462765"><ele>3774.4</ele><time>2025-08-18T09:58:44Z</time></trkpt><trkpt lat="43.300745" lon="42.462762"><ele>3772.2</ele><time>2025-08-18T09:58:51Z</time></trkpt><trkpt lat="43.300745" lon="42.462762"><ele>3772.0</ele><time>2025-08-18T09:58:53Z</time></trkpt><trkpt lat="43.300575" lon="42.462877"><ele>3766.4</ele><time>2025-08-18T09:59:20Z</time></trkpt><trkpt lat="43.300573" lon="42.462935"><ele>3766.7</ele><time>2025-08-18T09:59:27Z</time></trkpt><trkpt lat="43.300545" lon="42.462963"><ele>3766.1</ele><time>2025-08-18T09:59:34Z</time></trkpt><trkpt lat="43.300517" lon="42.463005"><ele>3764.8</ele><time>2025-08-18T09:59:41Z</time></trkpt><trkpt lat="43.300515" lon="42.463005"><ele>3764.5</ele><time>2025-08-18T09:59:46Z</time></trkpt><trkpt lat="43.30035" lon="42.463045"><ele>3760.9</ele><time>2025-08-18T10:00:10Z</time></trkpt><trkpt lat="43.300295" lon="42.462997"><ele>3760.2</ele><time>2025-08-18T10:00:17Z</time></trkpt><trkpt lat="43.300277" lon="42.463015"><ele>3759.7</ele><time>2025-08-18T10:00:24Z</time></trkpt><trkpt lat="43.30022" lon="42.46297"><ele>3759.3</ele><time>2025-08-18T10:00:31Z</time></trkpt><trkpt lat="43.30018" lon="42.46302"><ele>3758.2</ele><time>2025-08-18T10:00:38Z</time></trkpt><trkpt lat="43.30002" lon="42.463045"><ele>3754.8</ele><time>2025-08-18T10:01:00Z</time></trkpt><trkpt lat="43.299972" lon="42.46306"><ele>3753.5</ele><time>2025-08-18T10:01:07Z</time></trkpt><trkpt lat="43.29993" lon="42.463085"><ele>3752.9</ele><time>2025-08-18T10:01:14Z</time></trkpt><trkpt lat="43.299885" lon="42.46308"><ele>3752.4</ele><time>2025-08-18T10:01:21Z</time></trkpt><trkpt lat="43.299837" lon="42.463075"><ele>3751.0</ele><time>2025-08-18T10:01:28Z</time></trkpt><trkpt lat="43.29971" lon="42.463"><ele>3748.7</ele><time>2025-08-18T10:01:50Z</time></trkpt><trkpt lat="43.29967" lon="42.462977"><ele>3747.9</ele><time>2025-08-18T10:01:57Z</time></trkpt><trkpt lat="43.29965" lon="42.46294"><ele>3746.7</ele><time>2025-08-18T10:02:04Z</time></trkpt><trkpt lat="43.299647" lon="42.46292"><ele>3747.0</ele><time>2025-08-18T10:02:11Z</time></trkpt><trkpt lat="43.299647" lon="42.46292"><ele>3747.0</ele><time>2025-08-18T10:02:12Z</time></trkpt><trkpt lat="43.299615" lon="42.46295"><ele>3745.2</ele><time>2025-08-18T10:02:43Z</time></trkpt><trkpt lat="43.299615" lon="42.46295"><ele>3745.2</ele><time>2025-08-18T10:02:44Z</time></trkpt><trkpt lat="43.299605" lon="42.46295"><ele>3745.5</ele><time>2025-08-18T10:10:18Z</time></trkpt><trkpt lat="43.299605" lon="42.46295"><ele>3745.5</ele><time>2025-08-18T10:10:19Z</time></trkpt><trkpt lat="43.299605" lon="42.46293"><ele>3745.6</ele><time>2025-08-18T10:14:13Z</time></trkpt><trkpt lat="43.299605" lon="42.46293"><ele>3745.6</ele><time>2025-08-18T10:14:14Z</time></trkpt><trkpt lat="43.299605" lon="42.46292"><ele>3746.2</ele><time>2025-08-18T10:18:22Z</time></trkpt><trkpt lat="43.299605" lon="42.46292"><ele>3746.2</ele><time>2025-08-18T10:18:23Z</time></trkpt><trkpt lat="43.299605" lon="42.462915"><ele>3746.2</ele><time>2025-08-18T10:18:45Z</time></trkpt><trkpt lat="43.299605" lon="42.462915"><ele>3746.2</ele><time>2025-08-18T10:18:46Z</time></trkpt><trkpt lat="43.29961" lon="42.462922"><ele>3746.0</ele><time>2025-08-18T10:25:57Z</time></trkpt><trkpt lat="43.29961" lon="42.462922"><ele>3746.0</ele><time>2025-08-18T10:25:57Z</time></trkpt><trkpt lat="43.299602" lon="42.462915"><ele>3746.5</ele><time>2025-08-18T10:25:57Z</time></trkpt><trkpt lat="43.299602" lon="42.462915"><ele>3746.5</ele><time>2025-08-18T10:25:57Z</time></trkpt><trkpt lat="43.29961" lon="42.462915"><ele>3746.6</ele><time>2025-08-18T10:25:57Z</time></trkpt><trkpt lat="43.29961" lon="42.462915"><ele>3746.6</ele><time>2025-08-18T10:25:57Z</time></trkpt><trkpt lat="43.299615" lon="42.462905"><ele>3747.3</ele><time>2025-08-18T10:26:17Z</time></trkpt><trkpt lat="43.299615" lon="42.46291"><ele>3747.2</ele><time>2025-08-18T10:26:18Z</time></trkpt><trkpt lat="43.299625" lon="42.462922"><ele>3746.9</ele><time>2025-08-18T10:26:28Z</time></trkpt><trkpt lat="43.299625" lon="42.462925"><ele>3746.9</ele><time>2025-08-18T10:26:30Z</time></trkpt><trkpt lat="43.299663" lon="42.462955"><ele>3744.8</ele><time>2025-08-18T10:26:38Z</time></trkpt><trkpt lat="43.299678" lon="42.46302"><ele>3744.6</ele><time>2025-08-18T10:26:45Z</time></trkpt><trkpt lat="43.29972" lon="42.463085"><ele>3745.0</ele><time>2025-08-18T10:26:52Z</time></trkpt><trkpt lat="43.299765" lon="42.46309"><ele>3744.5</ele><time>2025-08-18T10:26:59Z</time></trkpt><trkpt lat="43.299807" lon="42.463105"><ele>3744.6</ele><time>2025-08-18T10:27:06Z</time></trkpt><trkpt lat="43.299888" lon="42.463077"><ele>3748.4</ele><time>2025-08-18T10:27:29Z</time></trkpt><trkpt lat="43.29991" lon="42.46306"><ele>3745.1</ele><time>2025-08-18T10:27:36Z</time></trkpt><trkpt lat="43.29994" lon="42.463048"><ele>3744.0</ele><time>2025-08-18T10:27:43Z</time></trkpt><trkpt lat="43.29996" lon="42.46303"><ele>3746.2</ele><time>2025-08-18T10:27:50Z</time></trkpt><trkpt lat="43.29999" lon="42.463005"><ele>3746.2</ele><time>2025-08-18T10:27:57Z</time></trkpt><trkpt lat="43.30007" lon="42.46302"><ele>3750.5</ele><time>2025-08-18T10:28:19Z</time></trkpt><trkpt lat="43.300105" lon="42.46302"><ele>3750.9</ele><time>2025-08-18T10:28:26Z</time></trkpt><trkpt lat="43.30012" lon="42.46301"><ele>3751.4</ele><time>2025-08-18T10:28:33Z</time></trkpt><trkpt lat="43.300127" lon="42.463005"><ele>3750.5</ele><time>2025-08-18T10:28:36Z</time></trkpt><trkpt lat="43.300167" lon="42.463"><ele>3751.0</ele><time>2025-08-18T10:28:44Z</time></trkpt><trkpt lat="43.300272" lon="42.463005"><ele>3756.2</ele><time>2025-08-18T10:29:09Z</time></trkpt><trkpt lat="43.300275" lon="42.46301"><ele>3756.1</ele><time>2025-08-18T10:29:15Z</time></trkpt><trkpt lat="43.30029" lon="42.462995"><ele>3757.1</ele><time>2025-08-18T10:29:24Z</time></trkpt><trkpt lat="43.300287" lon="42.462995"><ele>3757.1</ele><time>2025-08-18T10:29:25Z</time></trkpt><trkpt lat="43.30032" lon="42.462963"><ele>3756.4</ele><time>2025-08-18T10:30:05Z</time></trkpt><trkpt lat="43.30033" lon="42.46297"><ele>3756.7</ele><time>2025-08-18T10:30:12Z</time></trkpt><trkpt lat="43.30033" lon="42.46297"><ele>3756.9</ele><time>2025-08-18T10:30:17Z</time></trkpt><trkpt lat="43.300355" lon="42.463"><ele>3757.1</ele><time>2025-08-18T10:30:25Z</time></trkpt><trkpt lat="43.30041" lon="42.463015"><ele>3757.1</ele><time>2025-08-18T10:30:49Z</time></trkpt><trkpt lat="43.30043" lon="42.463005"><ele>3758.3</ele><time>2025-08-18T10:30:58Z</time></trkpt><trkpt lat="43.300435" lon="42.463005"><ele>3758.0</ele><time>2025-08-18T10:30:59Z</time></trkpt><trkpt lat="43.300465" lon="42.462977"><ele>3757.2</ele><time>2025-08-18T10:31:07Z</time></trkpt><trkpt lat="43.30046" lon="42.462985"><ele>3757.2</ele><time>2025-08-18T10:31:13Z</time></trkpt><trkpt lat="43.300507" lon="42.462985"><ele>3759.0</ele><time>2025-08-18T10:31:45Z</time></trkpt><trkpt lat="43.30053" lon="42.462972"><ele>3759.8</ele><time>2025-08-18T10:31:51Z</time></trkpt><trkpt lat="43.30054" lon="42.462947"><ele>3760.8</ele><time>2025-08-18T10:32:00Z</time></trkpt><trkpt lat="43.30054" lon="42.462942"><ele>3760.8</ele><time>2025-08-18T10:32:01Z</time></trkpt><trkpt lat="43.300545" lon="42.46292"><ele>3761.2</ele><time>2025-08-18T10:32:09Z</time></trkpt><trkpt lat="43.30057" lon="42.46286"><ele>3763.5</ele><time>2025-08-18T10:32:29Z</time></trkpt><trkpt lat="43.300597" lon="42.462835"><ele>3765.4</ele><time>2025-08-18T10:32:37Z</time></trkpt><trkpt lat="43.300615" lon="42.462785"><ele>3765.4</ele><time>2025-08-18T10:32:44Z</time></trkpt><trkpt lat="43.30064" lon="42.462733"><ele>3765.9</ele><time>2025-08-18T10:32:51Z</time></trkpt><trkpt lat="43.300655" lon="42.46271"><ele>3764.7</ele><time>2025-08-18T10:32:58Z</time></trkpt><trkpt lat="43.30071" lon="42.462672"><ele>3767.3</ele><time>2025-08-18T10:33:19Z</time></trkpt><trkpt lat="43.30074" lon="42.46266"><ele>3769.8</ele><time>2025-08-18T10:33:21Z</time></trkpt><trkpt lat="43.300745" lon="42.462653"><ele>3770.2</ele><time>2025-08-18T10:33:22Z</time></trkpt><trkpt lat="43.300765" lon="42.462645"><ele>3771.5</ele><time>2025-08-18T10:33:29Z</time></trkpt><trkpt lat="43.30079" lon="42.462645"><ele>3772.7</ele><time>2025-08-18T10:33:36Z</time></trkpt><trkpt lat="43.300797" lon="42.46264"><ele>3772.6</ele><time>2025-08-18T10:33:38Z</time></trkpt><trkpt lat="43.300827" lon="42.46264"><ele>3773.5</ele><time>2025-08-18T10:33:47Z</time></trkpt><trkpt lat="43.30088" lon="42.462615"><ele>3772.2</ele><time>2025-08-18T10:34:09Z</time></trkpt><trkpt lat="43.300935" lon="42.46261"><ele>3772.7</ele><time>2025-08-18T10:34:14Z</time></trkpt><trkpt lat="43.300957" lon="42.462605"><ele>3774.3</ele><time>2025-08-18T10:34:21Z</time></trkpt><trkpt lat="43.30096" lon="42.462595"><ele>3775.0</ele><time>2025-08-18T10:34:24Z</time></trkpt><trkpt lat="43.300975" lon="42.462575"><ele>3776.1</ele><time>2025-08-18T10:34:31Z</time></trkpt><trkpt lat="43.301005" lon="42.46254"><ele>3777.7</ele><time>2025-08-18T10:34:38Z</time></trkpt><trkpt lat="43.301075" lon="42.462497"><ele>3779.9</ele><time>2025-08-18T10:34:59Z</time></trkpt><trkpt lat="43.30108" lon="42.46249"><ele>3780.1</ele><time>2025-08-18T10:35:02Z</time></trkpt><trkpt lat="43.30108" lon="42.46247"><ele>3780.0</ele><time>2025-08-18T10:35:10Z</time></trkpt><trkpt lat="43.30108" lon="42.46247"><ele>3780.0</ele><time>2025-08-18T10:35:11Z</time></trkpt><trkpt lat="43.301095" lon="42.46244"><ele>3779.8</ele><time>2025-08-18T10:35:27Z</time></trkpt><trkpt lat="43.301097" lon="42.462435"><ele>3779.7</ele><time>2025-08-18T10:35:28Z</time></trkpt><trkpt lat="43.30119" lon="42.46235"><ele>3780.0</ele><time>2025-08-18T10:35:49Z</time></trkpt><trkpt lat="43.301215" lon="42.462335"><ele>3783.0</ele><time>2025-08-18T10:35:56Z</time></trkpt><trkpt lat="43.301247" lon="42.46231"><ele>3783.8</ele><time>2025-08-18T10:36:03Z</time></trkpt><trkpt lat="43.301267" lon="42.462295"><ele>3785.7</ele><time>2025-08-18T10:36:10Z</time></trkpt><trkpt lat="43.30129" lon="42.462255"><ele>3787.1</ele><time>2025-08-18T10:36:18Z</time></trkpt><trkpt lat="43.30136" lon="42.462207"><ele>3789.1</ele><time>2025-08-18T10:36:39Z</time></trkpt><trkpt lat="43.301397" lon="42.462175"><ele>3789.9</ele><time>2025-08-18T10:36:46Z</time></trkpt><trkpt lat="43.301402" lon="42.462167"><ele>3790.4</ele><time>2025-08-18T10:36:53Z</time></trkpt><trkpt lat="43.301405" lon="42.462155"><ele>3791.2</ele><time>2025-08-18T10:37:03Z</time></trkpt><trkpt lat="43.301405" lon="42.462152"><ele>3791.2</ele><time>2025-08-18T10:37:04Z</time></trkpt><trkpt lat="43.301392" lon="42.462175"><ele>3791.1</ele><time>2025-08-18T10:37:35Z</time></trkpt><trkpt lat="43.301392" lon="42.462175"><ele>3791.1</ele><time>2025-08-18T10:37:36Z</time></trkpt><trkpt lat="43.301392" lon="42.462142"><ele>3792.0</ele><time>2025-08-18T10:39:09Z</time></trkpt><trkpt lat="43.301395" lon="42.462142"><ele>3792.0</ele><time>2025-08-18T10:39:09Z</time></trkpt><trkpt lat="43.30146" lon="42.46209"><ele>3792.8</ele><time>2025-08-18T10:39:14Z</time></trkpt><trkpt lat="43.301478" lon="42.462062"><ele>3793.5</ele><time>2025-08-18T10:39:21Z</time></trkpt><trkpt lat="43.301517" lon="42.462055"><ele>3795.7</ele><time>2025-08-18T10:39:28Z</time></trkpt><trkpt lat="43.30153" lon="42.462035"><ele>3797.6</ele><time>2025-08-18T10:39:33Z</time></trkpt><trkpt lat="43.301575" lon="42.461987"><ele>3800.1</ele><time>2025-08-18T10:40:00Z</time></trkpt><trkpt lat="43.301585" lon="42.461982"><ele>3800.9</ele><time>2025-08-18T10:40:03Z</time></trkpt><trkpt lat="43.30161" lon="42.46195"><ele>3801.5</ele><time>2025-08-18T10:40:11Z</time></trkpt><trkpt lat="43.30162" lon="42.46193"><ele>3801.8</ele><time>2025-08-18T10:40:17Z</time></trkpt><trkpt lat="43.301645" lon="42.461892"><ele>3802.5</ele><time>2025-08-18T10:40:25Z</time></trkpt><trkpt lat="43.301647" lon="42.461885"><ele>3802.3</ele><time>2025-08-18T10:40:28Z</time></trkpt><trkpt lat="43.301675" lon="42.461855"><ele>3803.3</ele><time>2025-08-18T10:40:36Z</time></trkpt><trkpt lat="43.301695" lon="42.461815"><ele>3804.2</ele><time>2025-08-18T10:40:43Z</time></trkpt><trkpt lat="43.30172" lon="42.46178"><ele>3805.4</ele><time>2025-08-18T10:40:50Z</time></trkpt><trkpt lat="43.301745" lon="42.461757"><ele>3806.5</ele><time>2025-08-18T10:40:57Z</time></trkpt><trkpt lat="43.301765" lon="42.46172"><ele>3807.5</ele><time>2025-08-18T10:41:05Z</time></trkpt><trkpt lat="43.30177" lon="42.46172"><ele>3807.5</ele><time>2025-08-18T10:41:06Z</time></trkpt><trkpt lat="43.301802" lon="42.4617"><ele>3808.4</ele><time>2025-08-18T10:41:13Z</time></trkpt><trkpt lat="43.301835" lon="42.46169"><ele>3809.5</ele><time>2025-08-18T10:41:20Z</time></trkpt><trkpt lat="43.30184" lon="42.461685"><ele>3809.7</ele><time>2025-08-18T10:41:22Z</time></trkpt><trkpt lat="43.301875" lon="42.461667"><ele>3811.2</ele><time>2025-08-18T10:41:30Z</time></trkpt><trkpt lat="43.301912" lon="42.46166"><ele>3812.2</ele><time>2025-08-18T10:41:37Z</time></trkpt><trkpt lat="43.301935" lon="42.461655"><ele>3812.3</ele><time>2025-08-18T10:41:43Z</time></trkpt><trkpt lat="43.30197" lon="42.461647"><ele>3813.2</ele><time>2025-08-18T10:41:51Z</time></trkpt><trkpt lat="43.301997" lon="42.46163"><ele>3813.0</ele><time>2025-08-18T10:41:58Z</time></trkpt><trkpt lat="43.302045" lon="42.46161"><ele>3813.2</ele><time>2025-08-18T10:42:05Z</time></trkpt><trkpt lat="43.30209" lon="42.46159"><ele>3812.5</ele><time>2025-08-18T10:42:12Z</time></trkpt><trkpt lat="43.30212" lon="42.46157"><ele>3814.4</ele><time>2025-08-18T10:42:19Z</time></trkpt><trkpt lat="43.302125" lon="42.461552"><ele>3814.7</ele><time>2025-08-18T10:42:23Z</time></trkpt><trkpt lat="43.302145" lon="42.46152"><ele>3815.3</ele><time>2025-08-18T10:42:31Z</time></trkpt><trkpt lat="43.302167" lon="42.461495"><ele>3816.5</ele><time>2025-08-18T10:42:38Z</time></trkpt><trkpt lat="43.302185" lon="42.46147"><ele>3817.6</ele><time>2025-08-18T10:42:45Z</time></trkpt><trkpt lat="43.302185" lon="42.46147"><ele>3817.8</ele><time>2025-08-18T10:42:46Z</time></trkpt><trkpt lat="43.3022" lon="42.461435"><ele>3819.8</ele><time>2025-08-18T10:42:56Z</time></trkpt><trkpt lat="43.302295" lon="42.46136"><ele>3823.6</ele><time>2025-08-18T10:43:23Z</time></trkpt><trkpt lat="43.302327" lon="42.461372"><ele>3823.5</ele><time>2025-08-18T10:43:30Z</time></trkpt><trkpt lat="43.302365" lon="42.46138"><ele>3822.0</ele><time>2025-08-18T10:43:37Z</time></trkpt><trkpt lat="43.302392" lon="42.461377"><ele>3821.9</ele><time>2025-08-18T10:43:44Z</time></trkpt><trkpt lat="43.30243" lon="42.461372"><ele>3822.6</ele><time>2025-08-18T10:43:51Z</time></trkpt><trkpt lat="43.30251" lon="42.46137"><ele>3825.1</ele><time>2025-08-18T10:44:13Z</time></trkpt><trkpt lat="43.30254" lon="42.461365"><ele>3825.5</ele><time>2025-08-18T10:44:20Z</time></trkpt><trkpt lat="43.302575" lon="42.46135"><ele>3827.4</ele><time>2025-08-18T10:44:27Z</time></trkpt><trkpt lat="43.302613" lon="42.461335"><ele>3828.7</ele><time>2025-08-18T10:44:34Z</time></trkpt><trkpt lat="43.30266" lon="42.46131"><ele>3830.4</ele><time>2025-08-18T10:44:41Z</time></trkpt><trkpt lat="43.30277" lon="42.461272"><ele>3832.1</ele><time>2025-08-18T10:45:03Z</time></trkpt><trkpt lat="43.30281" lon="42.461255"><ele>3832.0</ele><time>2025-08-18T10:45:07Z</time></trkpt><trkpt lat="43.302858" lon="42.461245"><ele>3832.7</ele><time>2025-08-18T10:45:14Z</time></trkpt><trkpt lat="43.30289" lon="42.461205"><ele>3834.2</ele><time>2025-08-18T10:45:21Z</time></trkpt><trkpt lat="43.302915" lon="42.46119"><ele>3835.6</ele><time>2025-08-18T10:45:28Z</time></trkpt><trkpt lat="43.302915" lon="42.46119"><ele>3835.6</ele><time>2025-08-18T10:45:29Z</time></trkpt><trkpt lat="43.30296" lon="42.461117"><ele>3835.9</ele><time>2025-08-18T10:45:58Z</time></trkpt><trkpt lat="43.30296" lon="42.461115"><ele>3835.9</ele><time>2025-08-18T10:45:59Z</time></trkpt><trkpt lat="43.302965" lon="42.461095"><ele>3837.8</ele><time>2025-08-18T10:46:08Z</time></trkpt><trkpt lat="43.302995" lon="42.46107"><ele>3839.2</ele><time>2025-08-18T10:46:15Z</time></trkpt><trkpt lat="43.303025" lon="42.46103"><ele>3839.2</ele><time>2025-08-18T10:46:22Z</time></trkpt><trkpt lat="43.303102" lon="42.46094"><ele>3842.5</ele><time>2025-08-18T10:46:43Z</time></trkpt><trkpt lat="43.303125" lon="42.460908"><ele>3843.1</ele><time>2025-08-18T10:46:50Z</time></trkpt><trkpt lat="43.30314" lon="42.46087"><ele>3844.9</ele><time>2025-08-18T10:46:57Z</time></trkpt><trkpt lat="43.303175" lon="42.460855"><ele>3844.5</ele><time>2025-08-18T10:47:04Z</time></trkpt><trkpt lat="43.303195" lon="42.460822"><ele>3846.2</ele><time>2025-08-18T10:47:11Z</time></trkpt><trkpt lat="43.303235" lon="42.460775"><ele>3849.1</ele><time>2025-08-18T10:47:22Z</time></trkpt><trkpt lat="43.303223" lon="42.46078"><ele>3849.4</ele><time>2025-08-18T10:47:29Z</time></trkpt><trkpt lat="43.303272" lon="42.46076"><ele>3851.6</ele><time>2025-08-18T10:47:36Z</time></trkpt><trkpt lat="43.30332" lon="42.460692"><ele>3850.2</ele><time>2025-08-18T10:47:43Z</time></trkpt><trkpt lat="43.30335" lon="42.46067"><ele>3852.1</ele><time>2025-08-18T10:47:50Z</time></trkpt><trkpt lat="43.30334" lon="42.460655"><ele>3852.1</ele><time>2025-08-18T10:47:57Z</time></trkpt><trkpt lat="43.30335" lon="42.460617"><ele>3852.2</ele><time>2025-08-18T10:48:04Z</time></trkpt><trkpt lat="43.30337" lon="42.460595"><ele>3852.0</ele><time>2025-08-18T10:48:11Z</time></trkpt><trkpt lat="43.30337" lon="42.460595"><ele>3852.0</ele><time>2025-08-18T10:48:15Z</time></trkpt><trkpt lat="43.303425" lon="42.46057"><ele>3853.3</ele><time>2025-08-18T10:48:28Z</time></trkpt><trkpt lat="43.30346" lon="42.460567"><ele>3853.5</ele><time>2025-08-18T10:48:35Z</time></trkpt><trkpt lat="43.3035" lon="42.46056"><ele>3854.6</ele><time>2025-08-18T10:48:42Z</time></trkpt><trkpt lat="43.30352" lon="42.460542"><ele>3854.5</ele><time>2025-08-18T10:48:49Z</time></trkpt><trkpt lat="43.303525" lon="42.460542"><ele>3854.8</ele><time>2025-08-18T10:48:50Z</time></trkpt><trkpt lat="43.303567" lon="42.46051"><ele>3857.0</ele><time>2025-08-18T10:48:58Z</time></trkpt><trkpt lat="43.30361" lon="42.460482"><ele>3858.1</ele><time>2025-08-18T10:49:05Z</time></trkpt><trkpt lat="43.30365" lon="42.46045"><ele>3859.3</ele><time>2025-08-18T10:49:12Z</time></trkpt><trkpt lat="43.303672" lon="42.460427"><ele>3859.2</ele><time>2025-08-18T10:49:19Z</time></trkpt><trkpt lat="43.3037" lon="42.460392"><ele>3860.4</ele><time>2025-08-18T10:49:26Z</time></trkpt><trkpt lat="43.303745" lon="42.46036"><ele>3861.2</ele><time>2025-08-18T10:49:33Z</time></trkpt><trkpt lat="43.30378" lon="42.460335"><ele>3859.8</ele><time>2025-08-18T10:49:40Z</time></trkpt><trkpt lat="43.30382" lon="42.460315"><ele>3861.3</ele><time>2025-08-18T10:49:47Z</time></trkpt><trkpt lat="43.3039" lon="42.46026"><ele>3862.7</ele><time>2025-08-18T10:50:08Z</time></trkpt><trkpt lat="43.30392" lon="42.46024"><ele>3864.4</ele><time>2025-08-18T10:50:15Z</time></trkpt><trkpt lat="43.30393" lon="42.46023"><ele>3864.8</ele><time>2025-08-18T10:50:18Z</time></trkpt><trkpt lat="43.303955" lon="42.460225"><ele>3865.2</ele><time>2025-08-18T10:50:26Z</time></trkpt><trkpt lat="43.304" lon="42.46022"><ele>3866.9</ele><time>2025-08-18T10:50:33Z</time></trkpt><trkpt lat="43.3041" lon="42.46026"><ele>3866.0</ele><time>2025-08-18T10:50:58Z</time></trkpt><trkpt lat="43.304137" lon="42.46028"><ele>3867.3</ele><time>2025-08-18T10:51:05Z</time></trkpt><trkpt lat="43.30418" lon="42.460317"><ele>3868.4</ele><time>2025-08-18T10:51:12Z</time></trkpt><trkpt lat="43.304222" lon="42.460322"><ele>3869.2</ele><time>2025-08-18T10:51:19Z</time></trkpt><trkpt lat="43.30427" lon="42.460335"><ele>3870.4</ele><time>2025-08-18T10:51:26Z</time></trkpt><trkpt lat="43.30431" lon="42.460355"><ele>3872.4</ele><time>2025-08-18T10:51:33Z</time></trkpt><trkpt lat="43.30435" lon="42.46037"><ele>3873.2</ele><time>2025-08-18T10:51:40Z</time></trkpt><trkpt lat="43.304387" lon="42.460365"><ele>3873.1</ele><time>2025-08-18T10:51:47Z</time></trkpt><trkpt lat="43.30443" lon="42.460325"><ele>3873.2</ele><time>2025-08-18T10:51:54Z</time></trkpt><trkpt lat="43.30447" lon="42.46028"><ele>3874.6</ele><time>2025-08-18T10:52:01Z</time></trkpt><trkpt lat="43.304482" lon="42.460233"><ele>3875.5</ele><time>2025-08-18T10:52:08Z</time></trkpt><trkpt lat="43.30448" lon="42.460215"><ele>3875.7</ele><time>2025-08-18T10:52:13Z</time></trkpt><trkpt lat="43.304467" lon="42.460215"><ele>3875.8</ele><time>2025-08-18T10:52:22Z</time></trkpt><trkpt lat="43.304465" lon="42.460215"><ele>3875.8</ele><time>2025-08-18T10:52:23Z</time></trkpt></trkseg></trk></gpx>