<?xml version="1.0" encoding="UTF-8" standalone="no"?><gpx xmlns="http://www.topografix.com/GPX/1/1" xmlns:gpxtpx="http://www.garmin.com/xmlschemas/TrackPointExtension/v1" xmlns:xsi="http://www.w3.org/2001/XMLSchema-instance" creator="Sports Tracker" version="1.1" xsi:schemaLocation="http://www.topografix.com/GPX/1/1 http://www.topografix.com/GPX/1/1/gpx.xsd http://www.garmin.com/xmlschemas/TrackPointExtension/v1 http://www.garmin.com/xmlschemas/TrackPointExtensionv1.xsd"><metadata><name/><desc/><author><name>Александр</name></author></metadata><trk><name/><trkseg><trkpt lat="58.040742" lon="39.118975"><ele>109.6</ele><time>2023-09-09T06:44:44Z</time></trkpt><trkpt lat="58.040775" lon="39.119107"><ele>104.5</ele><time>2023-09-09T06:44:48Z</time></trkpt><trkpt lat="58.040827" lon="39.11922"><ele>106.0</ele><time>2023-09-09T06:44:51Z</time></trkpt><trkpt lat="58.040887" lon="39.119298"><ele>107.7</ele><time>2023-09-09T06:45:00Z</time></trkpt><trkpt lat="58.040957" lon="39.119428"><ele>107.4</ele><time>2023-09-09T06:45:05Z</time></trkpt><trkpt lat="58.041017" lon="39.119505"><ele>106.9</ele><time>2023-09-09T06:45:07Z</time></trkpt><trkpt lat="58.041102" lon="39.119595"><ele>106.4</ele><time>2023-09-09T06:45:09Z</time></trkpt><trkpt lat="58.04121" lon="39.119688"><ele>106.4</ele><time>2023-09-09T06:45:12Z</time></trkpt><trkpt lat="58.041292" lon="39.119758"><ele>106.4</ele><time>2023-09-09T06:45:14Z</time></trkpt><trkpt lat="58.041367" lon="39.119757"><ele>106.5</ele><time>2023-09-09T06:45:17Z</time></trkpt><trkpt lat="58.041432" lon="39.119678"><ele>104.9</ele><time>2023-09-09T06:45:19Z</time></trkpt><trkpt lat="58.041537" lon="39.119612"><ele>104.1</ele><time>2023-09-09T06:45:22Z</time></trkpt><trkpt lat="58.041615" lon="39.119535"><ele>103.7</ele><time>2023-09-09T06:45:24Z</time></trkpt><trkpt lat="58.041677" lon="39.119452"><ele>104.2</ele><time>2023-09-09T06:45:26Z</time></trkpt><trkpt lat="58.041742" lon="39.119345"><ele>103.9</ele><time>2023-09-09T06:45:29Z</time></trkpt><trkpt lat="58.041812" lon="39.11927"><ele>104.4</ele><time>2023-09-09T06:45:31Z</time></trkpt><trkpt lat="58.041885" lon="39.11915"><ele>103.4</ele><time>2023-09-09T06:45:33Z</time></trkpt><trkpt lat="58.041953" lon="39.119012"><ele>102.5</ele><time>2023-09-09T06:45:35Z</time></trkpt><trkpt lat="58.042022" lon="39.118887"><ele>99.2</ele><time>2023-09-09T06:45:37Z</time></trkpt><trkpt lat="58.042072" lon="39.118788"><ele>101.6</ele><time>2023-09-09T06:45:44Z</time></trkpt><trkpt lat="58.042098" lon="39.118632"><ele>103.4</ele><time>2023-09-09T06:46:02Z</time></trkpt><trkpt lat="58.042143" lon="39.118523"><ele>103.2</ele><time>2023-09-09T06:46:08Z</time></trkpt><trkpt lat="58.04219" lon="39.118392"><ele>101.3</ele><time>2023-09-09T06:46:15Z</time></trkpt><trkpt lat="58.042255" lon="39.118268"><ele>99.5</ele><time>2023-09-09T06:46:18Z</time></trkpt><trkpt lat="58.042323" lon="39.11814"><ele>98.4</ele><time>2023-09-09T06:46:21Z</time></trkpt><trkpt lat="58.042395" lon="39.117998"><ele>99.7</ele><time>2023-09-09T06:46:24Z</time></trkpt><trkpt lat="58.042443" lon="39.117865"><ele>100.2</ele><time>2023-09-09T06:46:26Z</time></trkpt><trkpt lat="58.042493" lon="39.117737"><ele>100.9</ele><time>2023-09-09T06:46:28Z</time></trkpt><trkpt lat="58.042543" lon="39.117637"><ele>102.2</ele><time>2023-09-09T06:46:30Z</time></trkpt><trkpt lat="58.042595" lon="39.11754"><ele>102.0</ele><time>2023-09-09T06:46:32Z</time></trkpt><trkpt lat="58.042655" lon="39.117398"><ele>103.3</ele><time>2023-09-09T06:46:35Z</time></trkpt><trkpt lat="58.042713" lon="39.11728"><ele>103.4</ele><time>2023-09-09T06:46:38Z</time></trkpt><trkpt lat="58.042772" lon="39.117193"><ele>104.0</ele><time>2023-09-09T06:46:41Z</time></trkpt><trkpt lat="58.04282" lon="39.117088"><ele>104.8</ele><time>2023-09-09T06:46:44Z</time></trkpt><trkpt lat="58.042867" lon="39.11695"><ele>106.6</ele><time>2023-09-09T06:46:48Z</time></trkpt><trkpt lat="58.042893" lon="39.116822"><ele>106.4</ele><time>2023-09-09T06:46:51Z</time></trkpt><trkpt lat="58.042903" lon="39.11668"><ele>108.3</ele><time>2023-09-09T06:47:09Z</time></trkpt><trkpt lat="58.042925" lon="39.116538"><ele>108.3</ele><time>2023-09-09T06:47:16Z</time></trkpt><trkpt lat="58.042957" lon="39.116408"><ele>112.1</ele><time>2023-09-09T06:47:22Z</time></trkpt><trkpt lat="58.042977" lon="39.116273"><ele>112.0</ele><time>2023-09-09T06:47:28Z</time></trkpt><trkpt lat="58.043003" lon="39.116147"><ele>108.0</ele><time>2023-09-09T06:47:34Z</time></trkpt><trkpt lat="58.043043" lon="39.116013"><ele>111.6</ele><time>2023-09-09T06:47:41Z</time></trkpt><trkpt lat="58.043043" lon="39.115865"><ele>113.9</ele><time>2023-09-09T06:47:48Z</time></trkpt><trkpt lat="58.043018" lon="39.11573"><ele>114.3</ele><time>2023-09-09T06:47:55Z</time></trkpt><trkpt lat="58.042967" lon="39.115607"><ele>113.2</ele><time>2023-09-09T06:48:11Z</time></trkpt><trkpt lat="58.042915" lon="39.11549"><ele>113.2</ele><time>2023-09-09T06:48:14Z</time></trkpt><trkpt lat="58.042868" lon="39.115362"><ele>113.3</ele><time>2023-09-09T06:48:17Z</time></trkpt><trkpt lat="58.04282" lon="39.115237"><ele>114.3</ele><time>2023-09-09T06:48:20Z</time></trkpt><trkpt lat="58.042757" lon="39.115128"><ele>114.9</ele><time>2023-09-09T06:48:23Z</time></trkpt><trkpt lat="58.042687" lon="39.115005"><ele>115.0</ele><time>2023-09-09T06:48:25Z</time></trkpt><trkpt lat="58.042627" lon="39.1149"><ele>115.9</ele><time>2023-09-09T06:48:27Z</time></trkpt><trkpt lat="58.042575" lon="39.114752"><ele>116.1</ele><time>2023-09-09T06:48:30Z</time></trkpt><trkpt lat="58.042587" lon="39.114578"><ele>116.6</ele><time>2023-09-09T06:48:33Z</time></trkpt><trkpt lat="58.042628" lon="39.114452"><ele>117.9</ele><time>2023-09-09T06:48:35Z</time></trkpt><trkpt lat="58.04267" lon="39.114332"><ele>119.7</ele><time>2023-09-09T06:48:37Z</time></trkpt><trkpt lat="58.042717" lon="39.11415"><ele>120.5</ele><time>2023-09-09T06:48:40Z</time></trkpt><trkpt lat="58.042772" lon="39.113982"><ele>122.3</ele><time>2023-09-09T06:48:43Z</time></trkpt><trkpt lat="58.042828" lon="39.113847"><ele>123.5</ele><time>2023-09-09T06:48:46Z</time></trkpt><trkpt lat="58.042873" lon="39.113717"><ele>124.2</ele><time>2023-09-09T06:48:49Z</time></trkpt><trkpt lat="58.042923" lon="39.1136"><ele>125.2</ele><time>2023-09-09T06:48:53Z</time></trkpt><trkpt lat="58.042893" lon="39.113458"><ele>125.1</ele><time>2023-09-09T06:48:58Z</time></trkpt><trkpt lat="58.042808" lon="39.113432"><ele>124.3</ele><time>2023-09-09T06:49:00Z</time></trkpt><trkpt lat="58.042743" lon="39.113368"><ele>122.5</ele><time>2023-09-09T06:49:02Z</time></trkpt><trkpt lat="58.042675" lon="39.113325"><ele>120.5</ele><time>2023-09-09T06:49:06Z</time></trkpt><trkpt lat="58.042598" lon="39.11327"><ele>119.1</ele><time>2023-09-09T06:49:10Z</time></trkpt><trkpt lat="58.042518" lon="39.113245"><ele>120.9</ele><time>2023-09-09T06:49:14Z</time></trkpt><trkpt lat="58.042432" lon="39.11321"><ele>118.8</ele><time>2023-09-09T06:49:18Z</time></trkpt><trkpt lat="58.042358" lon="39.113078"><ele>118.5</ele><time>2023-09-09T06:49:21Z</time></trkpt><trkpt lat="58.042303" lon="39.112988"><ele>118.8</ele><time>2023-09-09T06:49:23Z</time></trkpt><trkpt lat="58.04221" lon="39.11292"><ele>120.2</ele><time>2023-09-09T06:49:25Z</time></trkpt><trkpt lat="58.042153" lon="39.112815"><ele>119.5</ele><time>2023-09-09T06:49:28Z</time></trkpt><trkpt lat="58.042077" lon="39.112708"><ele>120.3</ele><time>2023-09-09T06:49:32Z</time></trkpt><trkpt lat="58.041997" lon="39.11266"><ele>120.4</ele><time>2023-09-09T06:49:35Z</time></trkpt><trkpt lat="58.041925" lon="39.112598"><ele>122.9</ele><time>2023-09-09T06:49:38Z</time></trkpt><trkpt lat="58.041842" lon="39.112538"><ele>124.1</ele><time>2023-09-09T06:49:41Z</time></trkpt><trkpt lat="58.04175" lon="39.112463"><ele>125.3</ele><time>2023-09-09T06:49:44Z</time></trkpt><trkpt lat="58.041683" lon="39.112385"><ele>126.8</ele><time>2023-09-09T06:49:47Z</time></trkpt><trkpt lat="58.041617" lon="39.112325"><ele>127.5</ele><time>2023-09-09T06:49:50Z</time></trkpt><trkpt lat="58.041522" lon="39.11228"><ele>127.4</ele><time>2023-09-09T06:49:53Z</time></trkpt><trkpt lat="58.041423" lon="39.112217"><ele>129.2</ele><time>2023-09-09T06:49:56Z</time></trkpt><trkpt lat="58.041338" lon="39.112132"><ele>130.2</ele><time>2023-09-09T06:49:59Z</time></trkpt><trkpt lat="58.041272" lon="39.112077"><ele>129.3</ele><time>2023-09-09T06:50:01Z</time></trkpt><trkpt lat="58.0412" lon="39.11203"><ele>130.0</ele><time>2023-09-09T06:50:03Z</time></trkpt><trkpt lat="58.041117" lon="39.111987"><ele>130.3</ele><time>2023-09-09T06:50:06Z</time></trkpt><trkpt lat="58.041035" lon="39.111947"><ele>131.0</ele><time>2023-09-09T06:50:09Z</time></trkpt><trkpt lat="58.040943" lon="39.111898"><ele>130.9</ele><time>2023-09-09T06:50:12Z</time></trkpt><trkpt lat="58.040855" lon="39.111843"><ele>131.2</ele><time>2023-09-09T06:50:15Z</time></trkpt><trkpt lat="58.040787" lon="39.111787"><ele>130.9</ele><time>2023-09-09T06:50:17Z</time></trkpt><trkpt lat="58.040698" lon="39.111688"><ele>128.8</ele><time>2023-09-09T06:50:20Z</time></trkpt><trkpt lat="58.0406" lon="39.111707"><ele>127.3</ele><time>2023-09-09T06:50:23Z</time></trkpt><trkpt lat="58.040547" lon="39.111825"><ele>128.6</ele><time>2023-09-09T06:50:25Z</time></trkpt><trkpt lat="58.040498" lon="39.111942"><ele>127.9</ele><time>2023-09-09T06:50:27Z</time></trkpt><trkpt lat="58.040442" lon="39.112035"><ele>127.3</ele><time>2023-09-09T06:50:29Z</time></trkpt><trkpt lat="58.040363" lon="39.112087"><ele>125.9</ele><time>2023-09-09T06:50:31Z</time></trkpt><trkpt lat="58.040277" lon="39.112112"><ele>125.1</ele><time>2023-09-09T06:50:33Z</time></trkpt><trkpt lat="58.040202" lon="39.112028"><ele>125.1</ele><time>2023-09-09T06:50:34Z</time></trkpt><trkpt lat="58.040095" lon="39.111918"><ele>125.6</ele><time>2023-09-09T06:50:36Z</time></trkpt><trkpt lat="58.040025" lon="39.111867"><ele>127.0</ele><time>2023-09-09T06:50:37Z</time></trkpt><trkpt lat="58.039925" lon="39.111767"><ele>127.1</ele><time>2023-09-09T06:50:39Z</time></trkpt><trkpt lat="58.039822" lon="39.111623"><ele>126.9</ele><time>2023-09-09T06:50:41Z</time></trkpt><trkpt lat="58.039755" lon="39.111413"><ele>123.7</ele><time>2023-09-09T06:50:43Z</time></trkpt><trkpt lat="58.039692" lon="39.111325"><ele>123.9</ele><time>2023-09-09T06:50:44Z</time></trkpt><trkpt lat="58.039622" lon="39.111172"><ele>122.5</ele><time>2023-09-09T06:50:46Z</time></trkpt><trkpt lat="58.03954" lon="39.111148"><ele>121.9</ele><time>2023-09-09T06:50:48Z</time></trkpt><trkpt lat="58.039468" lon="39.111078"><ele>121.4</ele><time>2023-09-09T06:50:50Z</time></trkpt><trkpt lat="58.039375" lon="39.111027"><ele>120.3</ele><time>2023-09-09T06:50:52Z</time></trkpt><trkpt lat="58.039282" lon="39.11098"><ele>118.8</ele><time>2023-09-09T06:50:55Z</time></trkpt><trkpt lat="58.039205" lon="39.111027"><ele>119.2</ele><time>2023-09-09T06:50:59Z</time></trkpt><trkpt lat="58.03914" lon="39.110947"><ele>116.9</ele><time>2023-09-09T06:51:14Z</time></trkpt><trkpt lat="58.03911" lon="39.111085"><ele>119.4</ele><time>2023-09-09T06:51:39Z</time></trkpt><trkpt lat="58.039118" lon="39.110948"><ele>128.4</ele><time>2023-09-09T06:51:57Z</time></trkpt><trkpt lat="58.039112" lon="39.111085"><ele>130.2</ele><time>2023-09-09T06:52:08Z</time></trkpt><trkpt lat="58.039178" lon="39.110997"><ele>134.4</ele><time>2023-09-09T06:52:47Z</time></trkpt><trkpt lat="58.03911" lon="39.110948"><ele>124.2</ele><time>2023-09-09T06:59:12Z</time></trkpt><trkpt lat="58.039067" lon="39.111058"><ele>123.1</ele><time>2023-09-09T06:59:42Z</time></trkpt><trkpt lat="58.039027" lon="39.110943"><ele>122.5</ele><time>2023-09-09T07:01:17Z</time></trkpt><trkpt lat="58.0391" lon="39.11098"><ele>123.5</ele><time>2023-09-09T07:01:41Z</time></trkpt><trkpt lat="58.03916" lon="39.111062"><ele>123.9</ele><time>2023-09-09T07:01:44Z</time></trkpt><trkpt lat="58.039105" lon="39.11096"><ele>123.5</ele><time>2023-09-09T07:01:57Z</time></trkpt><trkpt lat="58.039078" lon="39.110822"><ele>124.1</ele><time>2023-09-09T07:02:12Z</time></trkpt><trkpt lat="58.039097" lon="39.110663"><ele>126.0</ele><time>2023-09-09T07:02:23Z</time></trkpt><trkpt lat="58.03913" lon="39.110542"><ele>126.2</ele><time>2023-09-09T07:02:26Z</time></trkpt><trkpt lat="58.039135" lon="39.110403"><ele>127.0</ele><time>2023-09-09T07:02:28Z</time></trkpt><trkpt lat="58.039123" lon="39.110242"><ele>127.2</ele><time>2023-09-09T07:02:30Z</time></trkpt><trkpt lat="58.039103" lon="39.110067"><ele>127.0</ele><time>2023-09-09T07:02:32Z</time></trkpt><trkpt lat="58.039068" lon="39.109905"><ele>126.8</ele><time>2023-09-09T07:02:34Z</time></trkpt><trkpt lat="58.039023" lon="39.109778"><ele>125.7</ele><time>2023-09-09T07:02:36Z</time></trkpt><trkpt lat="58.038978" lon="39.109625"><ele>126.2</ele><time>2023-09-09T07:02:39Z</time></trkpt><trkpt lat="58.038962" lon="39.109478"><ele>125.9</ele><time>2023-09-09T07:02:42Z</time></trkpt><trkpt lat="58.038965" lon="39.109283"><ele>125.9</ele><time>2023-09-09T07:02:45Z</time></trkpt><trkpt lat="58.038995" lon="39.109138"><ele>125.7</ele><time>2023-09-09T07:02:48Z</time></trkpt><trkpt lat="58.03908" lon="39.109055"><ele>125.8</ele><time>2023-09-09T07:02:51Z</time></trkpt><trkpt lat="58.039147" lon="39.109008"><ele>127.2</ele><time>2023-09-09T07:02:53Z</time></trkpt><trkpt lat="58.039218" lon="39.108948"><ele>126.8</ele><time>2023-09-09T07:02:55Z</time></trkpt><trkpt lat="58.039302" lon="39.108887"><ele>127.9</ele><time>2023-09-09T07:02:57Z</time></trkpt><trkpt lat="58.039375" lon="39.108827"><ele>127.3</ele><time>2023-09-09T07:02:59Z</time></trkpt><trkpt lat="58.039448" lon="39.108758"><ele>126.1</ele><time>2023-09-09T07:03:01Z</time></trkpt><trkpt lat="58.039508" lon="39.108675"><ele>125.3</ele><time>2023-09-09T07:03:03Z</time></trkpt><trkpt lat="58.039565" lon="39.10859"><ele>124.5</ele><time>2023-09-09T07:03:05Z</time></trkpt><trkpt lat="58.039648" lon="39.10845"><ele>123.8</ele><time>2023-09-09T07:03:08Z</time></trkpt><trkpt lat="58.0397" lon="39.108247"><ele>123.3</ele><time>2023-09-09T07:03:10Z</time></trkpt><trkpt lat="58.03975" lon="39.108093"><ele>123.0</ele><time>2023-09-09T07:03:12Z</time></trkpt><trkpt lat="58.03983" lon="39.107933"><ele>121.5</ele><time>2023-09-09T07:03:14Z</time></trkpt><trkpt lat="58.039905" lon="39.107817"><ele>122.5</ele><time>2023-09-09T07:03:16Z</time></trkpt><trkpt lat="58.039955" lon="39.107705"><ele>122.5</ele><time>2023-09-09T07:03:18Z</time></trkpt><trkpt lat="58.039983" lon="39.107545"><ele>121.1</ele><time>2023-09-09T07:03:20Z</time></trkpt><trkpt lat="58.040027" lon="39.107422"><ele>121.4</ele><time>2023-09-09T07:03:22Z</time></trkpt><trkpt lat="58.040073" lon="39.107265"><ele>121.0</ele><time>2023-09-09T07:03:24Z</time></trkpt><trkpt lat="58.040132" lon="39.107107"><ele>122.7</ele><time>2023-09-09T07:03:26Z</time></trkpt><trkpt lat="58.040217" lon="39.106953"><ele>121.5</ele><time>2023-09-09T07:03:28Z</time></trkpt><trkpt lat="58.040292" lon="39.106772"><ele>121.4</ele><time>2023-09-09T07:03:30Z</time></trkpt><trkpt lat="58.040333" lon="39.106657"><ele>121.0</ele><time>2023-09-09T07:03:31Z</time></trkpt><trkpt lat="58.040418" lon="39.10648"><ele>121.9</ele><time>2023-09-09T07:03:33Z</time></trkpt><trkpt lat="58.040493" lon="39.106295"><ele>121.6</ele><time>2023-09-09T07:03:35Z</time></trkpt><trkpt lat="58.040545" lon="39.106135"><ele>122.5</ele><time>2023-09-09T07:03:37Z</time></trkpt><trkpt lat="58.040617" lon="39.106013"><ele>123.4</ele><time>2023-09-09T07:03:39Z</time></trkpt><trkpt lat="58.040713" lon="39.105942"><ele>124.0</ele><time>2023-09-09T07:03:41Z</time></trkpt><trkpt lat="58.040815" lon="39.105893"><ele>125.8</ele><time>2023-09-09T07:03:43Z</time></trkpt><trkpt lat="58.040907" lon="39.10584"><ele>126.8</ele><time>2023-09-09T07:03:45Z</time></trkpt><trkpt lat="58.04098" lon="39.105818"><ele>127.2</ele><time>2023-09-09T07:03:47Z</time></trkpt><trkpt lat="58.041053" lon="39.105828"><ele>127.2</ele><time>2023-09-09T07:03:49Z</time></trkpt><trkpt lat="58.04115" lon="39.105733"><ele>126.0</ele><time>2023-09-09T07:03:52Z</time></trkpt><trkpt lat="58.041247" lon="39.105728"><ele>127.9</ele><time>2023-09-09T07:03:55Z</time></trkpt><trkpt lat="58.041322" lon="39.105742"><ele>126.2</ele><time>2023-09-09T07:03:57Z</time></trkpt><trkpt lat="58.041392" lon="39.105767"><ele>126.2</ele><time>2023-09-09T07:03:59Z</time></trkpt><trkpt lat="58.041465" lon="39.105788"><ele>127.8</ele><time>2023-09-09T07:04:01Z</time></trkpt><trkpt lat="58.041558" lon="39.105813"><ele>127.1</ele><time>2023-09-09T07:04:04Z</time></trkpt><trkpt lat="58.041633" lon="39.10582"><ele>127.1</ele><time>2023-09-09T07:04:07Z</time></trkpt><trkpt lat="58.0417" lon="39.10588"><ele>128.2</ele><time>2023-09-09T07:04:09Z</time></trkpt><trkpt lat="58.041757" lon="39.105985"><ele>127.6</ele><time>2023-09-09T07:04:11Z</time></trkpt><trkpt lat="58.041792" lon="39.106127"><ele>127.4</ele><time>2023-09-09T07:04:13Z</time></trkpt><trkpt lat="58.041803" lon="39.10627"><ele>125.5</ele><time>2023-09-09T07:04:14Z</time></trkpt><trkpt lat="58.041862" lon="39.106415"><ele>127.3</ele><time>2023-09-09T07:04:16Z</time></trkpt><trkpt lat="58.041925" lon="39.106567"><ele>125.8</ele><time>2023-09-09T07:04:18Z</time></trkpt><trkpt lat="58.041988" lon="39.106708"><ele>126.9</ele><time>2023-09-09T07:04:20Z</time></trkpt><trkpt lat="58.042042" lon="39.10685"><ele>127.2</ele><time>2023-09-09T07:04:22Z</time></trkpt><trkpt lat="58.0421" lon="39.106987"><ele>127.9</ele><time>2023-09-09T07:04:24Z</time></trkpt><trkpt lat="58.042165" lon="39.107107"><ele>128.7</ele><time>2023-09-09T07:04:26Z</time></trkpt><trkpt lat="58.04221" lon="39.107213"><ele>128.0</ele><time>2023-09-09T07:04:28Z</time></trkpt><trkpt lat="58.04226" lon="39.10735"><ele>125.7</ele><time>2023-09-09T07:04:31Z</time></trkpt><trkpt lat="58.042313" lon="39.107445"><ele>127.4</ele><time>2023-09-09T07:04:54Z</time></trkpt><trkpt lat="58.042372" lon="39.107558"><ele>126.2</ele><time>2023-09-09T07:05:01Z</time></trkpt><trkpt lat="58.04244" lon="39.107617"><ele>126.0</ele><time>2023-09-09T07:05:04Z</time></trkpt><trkpt lat="58.042537" lon="39.107587"><ele>127.1</ele><time>2023-09-09T07:05:07Z</time></trkpt><trkpt lat="58.042553" lon="39.107437"><ele>127.1</ele><time>2023-09-09T07:05:09Z</time></trkpt><trkpt lat="58.042467" lon="39.107282"><ele>126.8</ele><time>2023-09-09T07:05:10Z</time></trkpt><trkpt lat="58.042403" lon="39.107117"><ele>126.0</ele><time>2023-09-09T07:05:12Z</time></trkpt><trkpt lat="58.04234" lon="39.106895"><ele>125.3</ele><time>2023-09-09T07:05:14Z</time></trkpt><trkpt lat="58.042298" lon="39.106778"><ele>124.3</ele><time>2023-09-09T07:05:15Z</time></trkpt><trkpt lat="58.042262" lon="39.10665"><ele>124.5</ele><time>2023-09-09T07:05:16Z</time></trkpt><trkpt lat="58.042227" lon="39.106528"><ele>125.2</ele><time>2023-09-09T07:05:17Z</time></trkpt><trkpt lat="58.042197" lon="39.106395"><ele>125.6</ele><time>2023-09-09T07:05:18Z</time></trkpt><trkpt lat="58.042112" lon="39.10618"><ele>125.9</ele><time>2023-09-09T07:05:20Z</time></trkpt><trkpt lat="58.04209" lon="39.10605"><ele>125.6</ele><time>2023-09-09T07:05:21Z</time></trkpt><trkpt lat="58.042047" lon="39.105928"><ele>126.5</ele><time>2023-09-09T07:05:22Z</time></trkpt><trkpt lat="58.042037" lon="39.105727"><ele>126.8</ele><time>2023-09-09T07:05:23Z</time></trkpt><trkpt lat="58.041942" lon="39.105613"><ele>128.2</ele><time>2023-09-09T07:05:25Z</time></trkpt><trkpt lat="58.04189" lon="39.105515"><ele>127.8</ele><time>2023-09-09T07:05:26Z</time></trkpt><trkpt lat="58.041807" lon="39.105335"><ele>127.5</ele><time>2023-09-09T07:05:28Z</time></trkpt><trkpt lat="58.041788" lon="39.105197"><ele>126.9</ele><time>2023-09-09T07:05:29Z</time></trkpt><trkpt lat="58.041712" lon="39.104975"><ele>128.3</ele><time>2023-09-09T07:05:31Z</time></trkpt><trkpt lat="58.041668" lon="39.104863"><ele>127.5</ele><time>2023-09-09T07:05:32Z</time></trkpt><trkpt lat="58.04158" lon="39.10466"><ele>125.7</ele><time>2023-09-09T07:05:34Z</time></trkpt><trkpt lat="58.041515" lon="39.104593"><ele>126.1</ele><time>2023-09-09T07:05:35Z</time></trkpt><trkpt lat="58.04142" lon="39.104683"><ele>126.7</ele><time>2023-09-09T07:05:36Z</time></trkpt><trkpt lat="58.041275" lon="39.104637"><ele>128.4</ele><time>2023-09-09T07:05:38Z</time></trkpt><trkpt lat="58.041162" lon="39.104538"><ele>128.5</ele><time>2023-09-09T07:05:40Z</time></trkpt><trkpt lat="58.041047" lon="39.104422"><ele>130.0</ele><time>2023-09-09T07:05:42Z</time></trkpt><trkpt lat="58.040948" lon="39.104338"><ele>130.7</ele><time>2023-09-09T07:05:44Z</time></trkpt><trkpt lat="58.04086" lon="39.104245"><ele>129.5</ele><time>2023-09-09T07:05:46Z</time></trkpt><trkpt lat="58.040867" lon="39.104077"><ele>129.8</ele><time>2023-09-09T07:05:48Z</time></trkpt><trkpt lat="58.040873" lon="39.103885"><ele>129.9</ele><time>2023-09-09T07:05:51Z</time></trkpt><trkpt lat="58.0409" lon="39.103683"><ele>129.8</ele><time>2023-09-09T07:05:53Z</time></trkpt><trkpt lat="58.040915" lon="39.103485"><ele>128.8</ele><time>2023-09-09T07:05:55Z</time></trkpt><trkpt lat="58.040927" lon="39.103283"><ele>129.3</ele><time>2023-09-09T07:05:57Z</time></trkpt><trkpt lat="58.040915" lon="39.103105"><ele>130.4</ele><time>2023-09-09T07:05:59Z</time></trkpt><trkpt lat="58.04091" lon="39.10295"><ele>130.3</ele><time>2023-09-09T07:06:01Z</time></trkpt><trkpt lat="58.040873" lon="39.1028"><ele>129.2</ele><time>2023-09-09T07:06:03Z</time></trkpt><trkpt lat="58.040838" lon="39.102678"><ele>129.4</ele><time>2023-09-09T07:06:05Z</time></trkpt><trkpt lat="58.040783" lon="39.102577"><ele>127.8</ele><time>2023-09-09T07:06:07Z</time></trkpt><trkpt lat="58.040743" lon="39.102715"><ele>128.0</ele><time>2023-09-09T07:06:14Z</time></trkpt><trkpt lat="58.040675" lon="39.102793"><ele>127.5</ele><time>2023-09-09T07:06:18Z</time></trkpt><trkpt lat="58.04063" lon="39.102927"><ele>126.8</ele><time>2023-09-09T07:06:21Z</time></trkpt><trkpt lat="58.040587" lon="39.10309"><ele>127.2</ele><time>2023-09-09T07:06:24Z</time></trkpt><trkpt lat="58.04056" lon="39.103218"><ele>126.9</ele><time>2023-09-09T07:06:26Z</time></trkpt><trkpt lat="58.040523" lon="39.103357"><ele>125.8</ele><time>2023-09-09T07:06:28Z</time></trkpt><trkpt lat="58.040477" lon="39.103477"><ele>126.2</ele><time>2023-09-09T07:06:30Z</time></trkpt><trkpt lat="58.040405" lon="39.103617"><ele>124.7</ele><time>2023-09-09T07:06:32Z</time></trkpt><trkpt lat="58.040328" lon="39.103758"><ele>122.6</ele><time>2023-09-09T07:06:34Z</time></trkpt><trkpt lat="58.040312" lon="39.103898"><ele>123.9</ele><time>2023-09-09T07:06:38Z</time></trkpt><trkpt lat="58.040248" lon="39.10381"><ele>127.3</ele><time>2023-09-09T07:06:44Z</time></trkpt><trkpt lat="58.040158" lon="39.10377"><ele>126.9</ele><time>2023-09-09T07:06:48Z</time></trkpt><trkpt lat="58.040082" lon="39.10378"><ele>127.4</ele><time>2023-09-09T07:06:50Z</time></trkpt><trkpt lat="58.039968" lon="39.103797"><ele>127.9</ele><time>2023-09-09T07:06:53Z</time></trkpt><trkpt lat="58.039877" lon="39.103802"><ele>128.4</ele><time>2023-09-09T07:06:55Z</time></trkpt><trkpt lat="58.039813" lon="39.103872"><ele>128.8</ele><time>2023-09-09T07:06:56Z</time></trkpt><trkpt lat="58.03975" lon="39.103773"><ele>127.9</ele><time>2023-09-09T07:06:58Z</time></trkpt><trkpt lat="58.03967" lon="39.103733"><ele>128.1</ele><time>2023-09-09T07:07:00Z</time></trkpt><trkpt lat="58.039568" lon="39.103643"><ele>126.9</ele><time>2023-09-09T07:07:02Z</time></trkpt><trkpt lat="58.039482" lon="39.103648"><ele>127.3</ele><time>2023-09-09T07:07:04Z</time></trkpt><trkpt lat="58.039365" lon="39.103622"><ele>126.5</ele><time>2023-09-09T07:07:06Z</time></trkpt><trkpt lat="58.039272" lon="39.1036"><ele>126.2</ele><time>2023-09-09T07:07:08Z</time></trkpt><trkpt lat="58.039147" lon="39.103628"><ele>126.9</ele><time>2023-09-09T07:07:10Z</time></trkpt><trkpt lat="58.039102" lon="39.103522"><ele>125.9</ele><time>2023-09-09T07:07:11Z</time></trkpt><trkpt lat="58.039008" lon="39.10358"><ele>126.5</ele><time>2023-09-09T07:07:13Z</time></trkpt><trkpt lat="58.038918" lon="39.103685"><ele>124.7</ele><time>2023-09-09T07:07:15Z</time></trkpt><trkpt lat="58.038838" lon="39.103752"><ele>124.2</ele><time>2023-09-09T07:07:17Z</time></trkpt><trkpt lat="58.038737" lon="39.103763"><ele>123.6</ele><time>2023-09-09T07:07:19Z</time></trkpt><trkpt lat="58.038627" lon="39.10378"><ele>124.7</ele><time>2023-09-09T07:07:21Z</time></trkpt><trkpt lat="58.03852" lon="39.103778"><ele>125.2</ele><time>2023-09-09T07:07:23Z</time></trkpt><trkpt lat="58.038393" lon="39.103755"><ele>125.7</ele><time>2023-09-09T07:07:25Z</time></trkpt><trkpt lat="58.038327" lon="39.10369"><ele>124.6</ele><time>2023-09-09T07:07:26Z</time></trkpt><trkpt lat="58.038255" lon="39.10363"><ele>125.1</ele><time>2023-09-09T07:07:27Z</time></trkpt><trkpt lat="58.038137" lon="39.103493"><ele>124.6</ele><time>2023-09-09T07:07:29Z</time></trkpt><trkpt lat="58.038067" lon="39.103462"><ele>124.8</ele><time>2023-09-09T07:07:30Z</time></trkpt><trkpt lat="58.037933" lon="39.103352"><ele>123.2</ele><time>2023-09-09T07:07:32Z</time></trkpt><trkpt lat="58.037825" lon="39.103202"><ele>121.9</ele><time>2023-09-09T07:07:34Z</time></trkpt><trkpt lat="58.037772" lon="39.103032"><ele>119.4</ele><time>2023-09-09T07:07:36Z</time></trkpt><trkpt lat="58.037707" lon="39.10293"><ele>118.8</ele><time>2023-09-09T07:07:38Z</time></trkpt><trkpt lat="58.037627" lon="39.102812"><ele>118.9</ele><time>2023-09-09T07:07:40Z</time></trkpt><trkpt lat="58.037592" lon="39.10267"><ele>118.8</ele><time>2023-09-09T07:07:41Z</time></trkpt><trkpt lat="58.037513" lon="39.10252"><ele>116.6</ele><time>2023-09-09T07:07:43Z</time></trkpt><trkpt lat="58.037425" lon="39.102378"><ele>116.4</ele><time>2023-09-09T07:07:45Z</time></trkpt><trkpt lat="58.037335" lon="39.102203"><ele>117.0</ele><time>2023-09-09T07:07:47Z</time></trkpt><trkpt lat="58.037242" lon="39.102083"><ele>113.6</ele><time>2023-09-09T07:07:49Z</time></trkpt><trkpt lat="58.037123" lon="39.102003"><ele>113.3</ele><time>2023-09-09T07:07:51Z</time></trkpt><trkpt lat="58.03703" lon="39.101872"><ele>113.0</ele><time>2023-09-09T07:07:53Z</time></trkpt><trkpt lat="58.036938" lon="39.10175"><ele>111.4</ele><time>2023-09-09T07:07:55Z</time></trkpt><trkpt lat="58.036818" lon="39.101715"><ele>111.1</ele><time>2023-09-09T07:07:57Z</time></trkpt><trkpt lat="58.036738" lon="39.10171"><ele>110.5</ele><time>2023-09-09T07:07:58Z</time></trkpt><trkpt lat="58.03665" lon="39.101702"><ele>109.8</ele><time>2023-09-09T07:07:59Z</time></trkpt><trkpt lat="58.036535" lon="39.101668"><ele>108.8</ele><time>2023-09-09T07:08:01Z</time></trkpt><trkpt lat="58.036458" lon="39.101643"><ele>108.0</ele><time>2023-09-09T07:08:03Z</time></trkpt><trkpt lat="58.036403" lon="39.10154"><ele>107.0</ele><time>2023-09-09T07:08:05Z</time></trkpt><trkpt lat="58.036457" lon="39.10144"><ele>106.7</ele><time>2023-09-09T07:08:06Z</time></trkpt><trkpt lat="58.036488" lon="39.101302"><ele>105.0</ele><time>2023-09-09T07:08:12Z</time></trkpt><trkpt lat="58.036442" lon="39.101418"><ele>107.0</ele><time>2023-09-09T07:08:32Z</time></trkpt><trkpt lat="58.036403" lon="39.101582"><ele>107.3</ele><time>2023-09-09T07:08:37Z</time></trkpt><trkpt lat="58.036327" lon="39.101638"><ele>108.2</ele><time>2023-09-09T07:08:39Z</time></trkpt><trkpt lat="58.036242" lon="39.101728"><ele>107.9</ele><time>2023-09-09T07:08:41Z</time></trkpt><trkpt lat="58.036178" lon="39.10185"><ele>104.1</ele><time>2023-09-09T07:08:43Z</time></trkpt><trkpt lat="58.036063" lon="39.101942"><ele>103.7</ele><time>2023-09-09T07:08:45Z</time></trkpt><trkpt lat="58.035988" lon="39.101998"><ele>103.8</ele><time>2023-09-09T07:08:46Z</time></trkpt><trkpt lat="58.035862" lon="39.102022"><ele>104.0</ele><time>2023-09-09T07:08:48Z</time></trkpt><trkpt lat="58.035742" lon="39.102018"><ele>103.0</ele><time>2023-09-09T07:08:50Z</time></trkpt><trkpt lat="58.035608" lon="39.102088"><ele>103.6</ele><time>2023-09-09T07:08:52Z</time></trkpt><trkpt lat="58.03555" lon="39.102177"><ele>102.8</ele><time>2023-09-09T07:08:53Z</time></trkpt><trkpt lat="58.035423" lon="39.102297"><ele>101.4</ele><time>2023-09-09T07:08:55Z</time></trkpt><trkpt lat="58.035352" lon="39.102323"><ele>102.0</ele><time>2023-09-09T07:08:56Z</time></trkpt><trkpt lat="58.035232" lon="39.102343"><ele>99.4</ele><time>2023-09-09T07:08:59Z</time></trkpt><trkpt lat="58.03512" lon="39.102437"><ele>101.1</ele><time>2023-09-09T07:09:01Z</time></trkpt><trkpt lat="58.03503" lon="39.102557"><ele>99.3</ele><time>2023-09-09T07:09:03Z</time></trkpt><trkpt lat="58.034928" lon="39.10266"><ele>99.2</ele><time>2023-09-09T07:09:05Z</time></trkpt><trkpt lat="58.034863" lon="39.102735"><ele>97.8</ele><time>2023-09-09T07:09:07Z</time></trkpt><trkpt lat="58.034788" lon="39.102842"><ele>97.9</ele><time>2023-09-09T07:09:10Z</time></trkpt><trkpt lat="58.034715" lon="39.102778"><ele>96.6</ele><time>2023-09-09T07:09:13Z</time></trkpt><trkpt lat="58.034628" lon="39.102823"><ele>95.0</ele><time>2023-09-09T07:09:18Z</time></trkpt><trkpt lat="58.03455" lon="39.102893"><ele>95.6</ele><time>2023-09-09T07:09:21Z</time></trkpt><trkpt lat="58.034475" lon="39.102927"><ele>96.7</ele><time>2023-09-09T07:09:23Z</time></trkpt><trkpt lat="58.034398" lon="39.102953"><ele>96.2</ele><time>2023-09-09T07:09:25Z</time></trkpt><trkpt lat="58.034308" lon="39.102963"><ele>95.6</ele><time>2023-09-09T07:09:28Z</time></trkpt><trkpt lat="58.034235" lon="39.103017"><ele>93.3</ele><time>2023-09-09T07:09:46Z</time></trkpt><trkpt lat="58.034212" lon="39.103163"><ele>93.7</ele><time>2023-09-09T07:09:52Z</time></trkpt><trkpt lat="58.03417" lon="39.10329"><ele>93.2</ele><time>2023-09-09T07:09:55Z</time></trkpt><trkpt lat="58.034137" lon="39.103427"><ele>93.7</ele><time>2023-09-09T07:09:58Z</time></trkpt><trkpt lat="58.03416" lon="39.103588"><ele>94.1</ele><time>2023-09-09T07:10:01Z</time></trkpt><trkpt lat="58.034183" lon="39.103723"><ele>93.9</ele><time>2023-09-09T07:10:03Z</time></trkpt><trkpt lat="58.034207" lon="39.10387"><ele>94.4</ele><time>2023-09-09T07:10:05Z</time></trkpt><trkpt lat="58.034235" lon="39.104045"><ele>94.2</ele><time>2023-09-09T07:10:07Z</time></trkpt><trkpt lat="58.034278" lon="39.104263"><ele>93.7</ele><time>2023-09-09T07:10:09Z</time></trkpt><trkpt lat="58.034332" lon="39.104477"><ele>93.9</ele><time>2023-09-09T07:10:11Z</time></trkpt><trkpt lat="58.03439" lon="39.104593"><ele>95.0</ele><time>2023-09-09T07:10:12Z</time></trkpt><trkpt lat="58.0344" lon="39.104837"><ele>95.6</ele><time>2023-09-09T07:10:16Z</time></trkpt><trkpt lat="58.03438" lon="39.104968"><ele>95.6</ele><time>2023-09-09T07:10:17Z</time></trkpt><trkpt lat="58.034413" lon="39.105125"><ele>94.9</ele><time>2023-09-09T07:10:19Z</time></trkpt><trkpt lat="58.034423" lon="39.105287"><ele>96.1</ele><time>2023-09-09T07:10:21Z</time></trkpt><trkpt lat="58.034448" lon="39.10545"><ele>97.1</ele><time>2023-09-09T07:10:23Z</time></trkpt><trkpt lat="58.034485" lon="39.105623"><ele>95.2</ele><time>2023-09-09T07:10:25Z</time></trkpt><trkpt lat="58.03451" lon="39.105767"><ele>95.0</ele><time>2023-09-09T07:10:27Z</time></trkpt><trkpt lat="58.034523" lon="39.105952"><ele>94.6</ele><time>2023-09-09T07:10:29Z</time></trkpt><trkpt lat="58.03454" lon="39.106113"><ele>94.6</ele><time>2023-09-09T07:10:31Z</time></trkpt><trkpt lat="58.034557" lon="39.106278"><ele>92.1</ele><time>2023-09-09T07:10:34Z</time></trkpt><trkpt lat="58.034588" lon="39.106472"><ele>92.8</ele><time>2023-09-09T07:10:37Z</time></trkpt><trkpt lat="58.034625" lon="39.10663"><ele>93.4</ele><time>2023-09-09T07:10:39Z</time></trkpt><trkpt lat="58.034645" lon="39.106795"><ele>92.5</ele><time>2023-09-09T07:10:41Z</time></trkpt><trkpt lat="58.034673" lon="39.106957"><ele>93.3</ele><time>2023-09-09T07:10:43Z</time></trkpt><trkpt lat="58.034708" lon="39.10712"><ele>93.5</ele><time>2023-09-09T07:10:45Z</time></trkpt><trkpt lat="58.034733" lon="39.107282"><ele>94.0</ele><time>2023-09-09T07:10:47Z</time></trkpt><trkpt lat="58.034773" lon="39.107423"><ele>94.7</ele><time>2023-09-09T07:10:49Z</time></trkpt><trkpt lat="58.034825" lon="39.107553"><ele>96.7</ele><time>2023-09-09T07:10:51Z</time></trkpt><trkpt lat="58.034868" lon="39.107678"><ele>97.3</ele><time>2023-09-09T07:10:53Z</time></trkpt><trkpt lat="58.034907" lon="39.107797"><ele>96.3</ele><time>2023-09-09T07:10:55Z</time></trkpt><trkpt lat="58.034953" lon="39.107912"><ele>95.7</ele><time>2023-09-09T07:10:57Z</time></trkpt><trkpt lat="58.035003" lon="39.108045"><ele>95.2</ele><time>2023-09-09T07:10:59Z</time></trkpt><trkpt lat="58.035043" lon="39.10819"><ele>95.6</ele><time>2023-09-09T07:11:01Z</time></trkpt><trkpt lat="58.035018" lon="39.108367"><ele>95.6</ele><time>2023-09-09T07:11:02Z</time></trkpt><trkpt lat="58.035035" lon="39.108545"><ele>95.7</ele><time>2023-09-09T07:11:04Z</time></trkpt><trkpt lat="58.035053" lon="39.108688"><ele>95.5</ele><time>2023-09-09T07:11:06Z</time></trkpt><trkpt lat="58.035097" lon="39.108862"><ele>96.1</ele><time>2023-09-09T07:11:08Z</time></trkpt><trkpt lat="58.035087" lon="39.109022"><ele>97.4</ele><time>2023-09-09T07:11:10Z</time></trkpt><trkpt lat="58.035122" lon="39.109237"><ele>98.1</ele><time>2023-09-09T07:11:13Z</time></trkpt><trkpt lat="58.035132" lon="39.109392"><ele>97.1</ele><time>2023-09-09T07:11:15Z</time></trkpt><trkpt lat="58.035135" lon="39.109545"><ele>96.1</ele><time>2023-09-09T07:11:17Z</time></trkpt><trkpt lat="58.035152" lon="39.109685"><ele>96.1</ele><time>2023-09-09T07:11:19Z</time></trkpt><trkpt lat="58.035183" lon="39.109815"><ele>98.4</ele><time>2023-09-09T07:11:22Z</time></trkpt><trkpt lat="58.035228" lon="39.109942"><ele>97.6</ele><time>2023-09-09T07:11:27Z</time></trkpt><trkpt lat="58.035178" lon="39.110065"><ele>95.1</ele><time>2023-09-09T07:12:06Z</time></trkpt><trkpt lat="58.03521" lon="39.110205"><ele>94.6</ele><time>2023-09-09T07:12:49Z</time></trkpt><trkpt lat="58.035242" lon="39.11033"><ele>94.0</ele><time>2023-09-09T07:12:57Z</time></trkpt><trkpt lat="58.03524" lon="39.11051"><ele>95.0</ele><time>2023-09-09T07:13:00Z</time></trkpt><trkpt lat="58.035232" lon="39.110675"><ele>95.5</ele><time>2023-09-09T07:13:03Z</time></trkpt><trkpt lat="58.035195" lon="39.110907"><ele>95.4</ele><time>2023-09-09T07:13:05Z</time></trkpt><trkpt lat="58.035172" lon="39.111182"><ele>95.8</ele><time>2023-09-09T07:13:07Z</time></trkpt><trkpt lat="58.035157" lon="39.111315"><ele>96.0</ele><time>2023-09-09T07:13:08Z</time></trkpt><trkpt lat="58.035145" lon="39.111478"><ele>95.9</ele><time>2023-09-09T07:13:10Z</time></trkpt><trkpt lat="58.035168" lon="39.111642"><ele>96.8</ele><time>2023-09-09T07:13:13Z</time></trkpt><trkpt lat="58.035213" lon="39.111748"><ele>96.3</ele><time>2023-09-09T07:13:16Z</time></trkpt><trkpt lat="58.0353" lon="39.111828"><ele>95.7</ele><time>2023-09-09T07:13:20Z</time></trkpt><trkpt lat="58.035393" lon="39.11186"><ele>96.3</ele><time>2023-09-09T07:13:23Z</time></trkpt><trkpt lat="58.03549" lon="39.111905"><ele>97.9</ele><time>2023-09-09T07:13:25Z</time></trkpt><trkpt lat="58.035563" lon="39.111902"><ele>98.9</ele><time>2023-09-09T07:13:29Z</time></trkpt><trkpt lat="58.035623" lon="39.111985"><ele>98.4</ele><time>2023-09-09T07:13:40Z</time></trkpt><trkpt lat="58.035698" lon="39.11198"><ele>98.3</ele><time>2023-09-09T07:13:50Z</time></trkpt><trkpt lat="58.03578" lon="39.112"><ele>98.0</ele><time>2023-09-09T07:13:55Z</time></trkpt><trkpt lat="58.035867" lon="39.111962"><ele>97.2</ele><time>2023-09-09T07:13:58Z</time></trkpt><trkpt lat="58.035947" lon="39.111897"><ele>96.3</ele><time>2023-09-09T07:14:01Z</time></trkpt><trkpt lat="58.03603" lon="39.111852"><ele>96.6</ele><time>2023-09-09T07:14:06Z</time></trkpt><trkpt lat="58.03612" lon="39.111907"><ele>96.8</ele><time>2023-09-09T07:14:09Z</time></trkpt><trkpt lat="58.036203" lon="39.111992"><ele>99.0</ele><time>2023-09-09T07:14:12Z</time></trkpt><trkpt lat="58.036268" lon="39.112063"><ele>100.5</ele><time>2023-09-09T07:14:15Z</time></trkpt><trkpt lat="58.036355" lon="39.112175"><ele>101.9</ele><time>2023-09-09T07:14:18Z</time></trkpt><trkpt lat="58.036422" lon="39.112257"><ele>102.1</ele><time>2023-09-09T07:14:20Z</time></trkpt><trkpt lat="58.03647" lon="39.112365"><ele>102.2</ele><time>2023-09-09T07:14:22Z</time></trkpt><trkpt lat="58.036523" lon="39.112483"><ele>101.6</ele><time>2023-09-09T07:14:25Z</time></trkpt><trkpt lat="58.036607" lon="39.112573"><ele>98.9</ele><time>2023-09-09T07:14:28Z</time></trkpt><trkpt lat="58.036648" lon="39.112733"><ele>100.2</ele><time>2023-09-09T07:14:31Z</time></trkpt><trkpt lat="58.036713" lon="39.11285"><ele>100.7</ele><time>2023-09-09T07:14:34Z</time></trkpt><trkpt lat="58.036785" lon="39.112892"><ele>101.7</ele><time>2023-09-09T07:14:36Z</time></trkpt><trkpt lat="58.036858" lon="39.112935"><ele>101.8</ele><time>2023-09-09T07:14:38Z</time></trkpt><trkpt lat="58.036923" lon="39.113005"><ele>100.3</ele><time>2023-09-09T07:14:40Z</time></trkpt><trkpt lat="58.036983" lon="39.113085"><ele>100.5</ele><time>2023-09-09T07:14:42Z</time></trkpt><trkpt lat="58.037062" lon="39.113212"><ele>101.7</ele><time>2023-09-09T07:14:45Z</time></trkpt><trkpt lat="58.037147" lon="39.113303"><ele>101.1</ele><time>2023-09-09T07:14:48Z</time></trkpt><trkpt lat="58.037238" lon="39.113392"><ele>101.3</ele><time>2023-09-09T07:14:51Z</time></trkpt><trkpt lat="58.037302" lon="39.113482"><ele>100.8</ele><time>2023-09-09T07:14:53Z</time></trkpt><trkpt lat="58.037358" lon="39.11358"><ele>100.7</ele><time>2023-09-09T07:14:55Z</time></trkpt><trkpt lat="58.037413" lon="39.113675"><ele>100.2</ele><time>2023-09-09T07:14:57Z</time></trkpt><trkpt lat="58.037468" lon="39.11377"><ele>100.0</ele><time>2023-09-09T07:14:59Z</time></trkpt><trkpt lat="58.037537" lon="39.113882"><ele>99.2</ele><time>2023-09-09T07:15:02Z</time></trkpt><trkpt lat="58.037603" lon="39.113992"><ele>99.3</ele><time>2023-09-09T07:15:06Z</time></trkpt><trkpt lat="58.037518" lon="39.114088"><ele>98.0</ele><time>2023-09-09T07:15:20Z</time></trkpt><trkpt lat="58.037463" lon="39.11418"><ele>98.2</ele><time>2023-09-09T07:15:28Z</time></trkpt><trkpt lat="58.03748" lon="39.114337"><ele>96.9</ele><time>2023-09-09T07:17:59Z</time></trkpt><trkpt lat="58.037542" lon="39.114513"><ele>95.9</ele><time>2023-09-09T07:18:02Z</time></trkpt><trkpt lat="58.037585" lon="39.114662"><ele>96.0</ele><time>2023-09-09T07:18:04Z</time></trkpt><trkpt lat="58.037635" lon="39.114798"><ele>93.0</ele><time>2023-09-09T07:18:06Z</time></trkpt><trkpt lat="58.037675" lon="39.114948"><ele>92.3</ele><time>2023-09-09T07:18:08Z</time></trkpt><trkpt lat="58.037682" lon="39.115118"><ele>93.1</ele><time>2023-09-09T07:18:12Z</time></trkpt><trkpt lat="58.037765" lon="39.115178"><ele>92.8</ele><time>2023-09-09T07:18:16Z</time></trkpt><trkpt lat="58.037838" lon="39.115178"><ele>90.7</ele><time>2023-09-09T07:18:21Z</time></trkpt><trkpt lat="58.037922" lon="39.115225"><ele>91.9</ele><time>2023-09-09T07:18:23Z</time></trkpt><trkpt lat="58.037985" lon="39.1153"><ele>93.3</ele><time>2023-09-09T07:18:25Z</time></trkpt><trkpt lat="58.038057" lon="39.115412"><ele>95.2</ele><time>2023-09-09T07:18:28Z</time></trkpt><trkpt lat="58.038088" lon="39.115537"><ele>95.3</ele><time>2023-09-09T07:18:30Z</time></trkpt><trkpt lat="58.038115" lon="39.115693"><ele>93.9</ele><time>2023-09-09T07:18:32Z</time></trkpt><trkpt lat="58.038147" lon="39.115828"><ele>94.3</ele><time>2023-09-09T07:18:34Z</time></trkpt><trkpt lat="58.0382" lon="39.116002"><ele>95.9</ele><time>2023-09-09T07:18:37Z</time></trkpt><trkpt lat="58.038255" lon="39.11614"><ele>95.1</ele><time>2023-09-09T07:18:40Z</time></trkpt><trkpt lat="58.038323" lon="39.116248"><ele>96.1</ele><time>2023-09-09T07:18:44Z</time></trkpt><trkpt lat="58.038392" lon="39.116298"><ele>94.9</ele><time>2023-09-09T07:19:46Z</time></trkpt><trkpt lat="58.03837" lon="39.116728"><ele>94.1</ele><time>2023-09-09T07:19:55Z</time></trkpt><trkpt lat="58.038303" lon="39.11687"><ele>93.4</ele><time>2023-09-09T07:19:58Z</time></trkpt><trkpt lat="58.038272" lon="39.116992"><ele>93.6</ele><time>2023-09-09T07:20:00Z</time></trkpt><trkpt lat="58.038348" lon="39.116242"><ele>93.5</ele><time>2023-09-09T07:20:06Z</time></trkpt><trkpt lat="58.038428" lon="39.11623"><ele>94.1</ele><time>2023-09-09T07:20:08Z</time></trkpt><trkpt lat="58.038413" lon="39.116363"><ele>95.0</ele><time>2023-09-09T07:20:12Z</time></trkpt></trkseg></trk></gpx>