<?xml version="1.0" encoding="UTF-8" standalone="no"?><gpx xmlns="http://www.topografix.com/GPX/1/1" xmlns:gpxtpx="http://www.garmin.com/xmlschemas/TrackPointExtension/v1" xmlns:xsi="http://www.w3.org/2001/XMLSchema-instance" creator="Sports Tracker" version="1.1" xsi:schemaLocation="http://www.topografix.com/GPX/1/1 http://www.topografix.com/GPX/1/1/gpx.xsd http://www.garmin.com/xmlschemas/TrackPointExtension/v1 http://www.garmin.com/xmlschemas/TrackPointExtensionv1.xsd"><metadata><name/><desc/><author><name>Александр</name></author></metadata><trk><name/><trkseg><trkpt lat="58.059262" lon="38.813405"><ele>102.3</ele><time>2022-02-07T07:45:55Z</time></trkpt><trkpt lat="58.05927" lon="38.813413"><ele>102.3</ele><time>2022-02-07T07:45:56Z</time></trkpt><trkpt lat="58.059273" lon="38.813408"><ele>102.3</ele><time>2022-02-07T07:45:57Z</time></trkpt><trkpt lat="58.05928" lon="38.813402"><ele>102.3</ele><time>2022-02-07T07:45:58Z</time></trkpt><trkpt lat="58.059285" lon="38.813402"><ele>102.3</ele><time>2022-02-07T07:45:59Z</time></trkpt><trkpt lat="58.059283" lon="38.813403"><ele>102.3</ele><time>2022-02-07T07:46:00Z</time></trkpt><trkpt lat="58.059285" lon="38.813407"><ele>102.3</ele><time>2022-02-07T07:46:01Z</time></trkpt><trkpt lat="58.059293" lon="38.813413"><ele>102.3</ele><time>2022-02-07T07:46:02Z</time></trkpt><trkpt lat="58.059298" lon="38.813415"><ele>102.3</ele><time>2022-02-07T07:46:03Z</time></trkpt><trkpt lat="58.0593" lon="38.813413"><ele>102.3</ele><time>2022-02-07T07:46:04Z</time></trkpt><trkpt lat="58.0593" lon="38.813412"><ele>102.3</ele><time>2022-02-07T07:46:05Z</time></trkpt><trkpt lat="58.0593" lon="38.81341"><ele>102.3</ele><time>2022-02-07T07:46:07Z</time></trkpt><trkpt lat="58.059302" lon="38.813408"><ele>102.3</ele><time>2022-02-07T07:46:08Z</time></trkpt><trkpt lat="58.059302" lon="38.813407"><ele>102.3</ele><time>2022-02-07T07:46:09Z</time></trkpt><trkpt lat="58.059302" lon="38.813405"><ele>102.3</ele><time>2022-02-07T07:46:10Z</time></trkpt><trkpt lat="58.059303" lon="38.813402"><ele>102.3</ele><time>2022-02-07T07:46:12Z</time></trkpt><trkpt lat="58.059303" lon="38.813402"><ele>102.3</ele><time>2022-02-07T07:46:13Z</time></trkpt><trkpt lat="58.059305" lon="38.8134"><ele>102.3</ele><time>2022-02-07T07:46:14Z</time></trkpt><trkpt lat="58.059305" lon="38.813397"><ele>102.3</ele><time>2022-02-07T07:46:15Z</time></trkpt><trkpt lat="58.059305" lon="38.813395"><ele>102.3</ele><time>2022-02-07T07:46:17Z</time></trkpt><trkpt lat="58.059307" lon="38.813393"><ele>102.3</ele><time>2022-02-07T07:46:18Z</time></trkpt><trkpt lat="58.059307" lon="38.813392"><ele>102.3</ele><time>2022-02-07T07:46:20Z</time></trkpt><trkpt lat="58.059307" lon="38.81339"><ele>102.3</ele><time>2022-02-07T07:46:22Z</time></trkpt><trkpt lat="58.059308" lon="38.813388"><ele>102.3</ele><time>2022-02-07T07:46:23Z</time></trkpt><trkpt lat="58.059308" lon="38.813387"><ele>102.3</ele><time>2022-02-07T07:46:24Z</time></trkpt><trkpt lat="58.05931" lon="38.813385"><ele>102.3</ele><time>2022-02-07T07:46:25Z</time></trkpt><trkpt lat="58.05931" lon="38.813383"><ele>102.3</ele><time>2022-02-07T07:46:26Z</time></trkpt><trkpt lat="58.05931" lon="38.813382"><ele>102.3</ele><time>2022-02-07T07:46:27Z</time></trkpt><trkpt lat="58.059312" lon="38.81338"><ele>102.3</ele><time>2022-02-07T07:46:28Z</time></trkpt><trkpt lat="58.059312" lon="38.813377"><ele>102.3</ele><time>2022-02-07T07:46:29Z</time></trkpt><trkpt lat="58.059312" lon="38.813375"><ele>102.3</ele><time>2022-02-07T07:46:30Z</time></trkpt><trkpt lat="58.059313" lon="38.813375"><ele>102.3</ele><time>2022-02-07T07:46:31Z</time></trkpt><trkpt lat="58.059313" lon="38.813372"><ele>102.3</ele><time>2022-02-07T07:46:32Z</time></trkpt><trkpt lat="58.059315" lon="38.81337"><ele>102.3</ele><time>2022-02-07T07:46:33Z</time></trkpt><trkpt lat="58.059315" lon="38.813368"><ele>102.3</ele><time>2022-02-07T07:46:34Z</time></trkpt><trkpt lat="58.059315" lon="38.813367"><ele>102.4</ele><time>2022-02-07T07:46:35Z</time></trkpt><trkpt lat="58.059317" lon="38.813365"><ele>102.4</ele><time>2022-02-07T07:46:36Z</time></trkpt><trkpt lat="58.059317" lon="38.813363"><ele>102.4</ele><time>2022-02-07T07:46:37Z</time></trkpt><trkpt lat="58.059317" lon="38.813362"><ele>102.4</ele><time>2022-02-07T07:46:38Z</time></trkpt><trkpt lat="58.059318" lon="38.81336"><ele>102.4</ele><time>2022-02-07T07:46:39Z</time></trkpt><trkpt lat="58.059318" lon="38.813357"><ele>102.4</ele><time>2022-02-07T07:46:40Z</time></trkpt><trkpt lat="58.05932" lon="38.813357"><ele>102.4</ele><time>2022-02-07T07:46:41Z</time></trkpt><trkpt lat="58.05932" lon="38.813355"><ele>102.4</ele><time>2022-02-07T07:46:42Z</time></trkpt><trkpt lat="58.05932" lon="38.813352"><ele>102.4</ele><time>2022-02-07T07:46:43Z</time></trkpt><trkpt lat="58.059322" lon="38.81335"><ele>102.4</ele><time>2022-02-07T07:46:44Z</time></trkpt><trkpt lat="58.059322" lon="38.813348"><ele>102.4</ele><time>2022-02-07T07:46:45Z</time></trkpt><trkpt lat="58.059333" lon="38.813232"><ele>102.4</ele><time>2022-02-07T07:46:46Z</time></trkpt><trkpt lat="58.059348" lon="38.81314"><ele>102.5</ele><time>2022-02-07T07:46:48Z</time></trkpt><trkpt lat="58.059358" lon="38.813077"><ele>102.6</ele><time>2022-02-07T07:46:49Z</time></trkpt><trkpt lat="58.059358" lon="38.81301"><ele>102.6</ele><time>2022-02-07T07:46:50Z</time></trkpt><trkpt lat="58.059353" lon="38.812963"><ele>102.6</ele><time>2022-02-07T07:46:51Z</time></trkpt><trkpt lat="58.059347" lon="38.812885"><ele>102.7</ele><time>2022-02-07T07:46:53Z</time></trkpt><trkpt lat="58.059352" lon="38.812812"><ele>102.7</ele><time>2022-02-07T07:46:54Z</time></trkpt><trkpt lat="58.059355" lon="38.812742"><ele>102.8</ele><time>2022-02-07T07:46:55Z</time></trkpt><trkpt lat="58.059362" lon="38.812667"><ele>102.8</ele><time>2022-02-07T07:46:56Z</time></trkpt><trkpt lat="58.059367" lon="38.81261"><ele>102.9</ele><time>2022-02-07T07:46:57Z</time></trkpt><trkpt lat="58.059373" lon="38.812538"><ele>102.9</ele><time>2022-02-07T07:46:58Z</time></trkpt><trkpt lat="58.059382" lon="38.812445"><ele>103.0</ele><time>2022-02-07T07:47:00Z</time></trkpt><trkpt lat="58.059392" lon="38.812405"><ele>103.0</ele><time>2022-02-07T07:47:01Z</time></trkpt><trkpt lat="58.059445" lon="38.812352"><ele>103.1</ele><time>2022-02-07T07:47:03Z</time></trkpt><trkpt lat="58.05948" lon="38.812338"><ele>103.1</ele><time>2022-02-07T07:47:04Z</time></trkpt><trkpt lat="58.059517" lon="38.812333"><ele>103.2</ele><time>2022-02-07T07:47:05Z</time></trkpt><trkpt lat="58.059552" lon="38.812335"><ele>103.2</ele><time>2022-02-07T07:47:06Z</time></trkpt><trkpt lat="58.059592" lon="38.812337"><ele>103.3</ele><time>2022-02-07T07:47:07Z</time></trkpt><trkpt lat="58.059632" lon="38.812338"><ele>103.3</ele><time>2022-02-07T07:47:08Z</time></trkpt><trkpt lat="58.059672" lon="38.812332"><ele>103.4</ele><time>2022-02-07T07:47:09Z</time></trkpt><trkpt lat="58.059712" lon="38.812332"><ele>103.4</ele><time>2022-02-07T07:47:10Z</time></trkpt><trkpt lat="58.059748" lon="38.812335"><ele>103.5</ele><time>2022-02-07T07:47:11Z</time></trkpt><trkpt lat="58.059777" lon="38.812345"><ele>103.5</ele><time>2022-02-07T07:47:12Z</time></trkpt><trkpt lat="58.059815" lon="38.81235"><ele>103.6</ele><time>2022-02-07T07:47:13Z</time></trkpt><trkpt lat="58.05985" lon="38.812357"><ele>103.6</ele><time>2022-02-07T07:47:14Z</time></trkpt><trkpt lat="58.059887" lon="38.812367"><ele>103.6</ele><time>2022-02-07T07:47:15Z</time></trkpt><trkpt lat="58.059928" lon="38.812387"><ele>103.7</ele><time>2022-02-07T07:47:16Z</time></trkpt><trkpt lat="58.059955" lon="38.812417"><ele>103.7</ele><time>2022-02-07T07:47:17Z</time></trkpt><trkpt lat="58.059975" lon="38.812457"><ele>103.7</ele><time>2022-02-07T07:47:18Z</time></trkpt><trkpt lat="58.060005" lon="38.812543"><ele>103.6</ele><time>2022-02-07T07:47:20Z</time></trkpt><trkpt lat="58.060012" lon="38.812633"><ele>103.5</ele><time>2022-02-07T07:47:21Z</time></trkpt><trkpt lat="58.06001" lon="38.8127"><ele>103.5</ele><time>2022-02-07T07:47:22Z</time></trkpt><trkpt lat="58.060005" lon="38.812765"><ele>103.5</ele><time>2022-02-07T07:47:23Z</time></trkpt><trkpt lat="58.05999" lon="38.812827"><ele>103.4</ele><time>2022-02-07T07:47:24Z</time></trkpt><trkpt lat="58.059985" lon="38.812885"><ele>103.4</ele><time>2022-02-07T07:47:25Z</time></trkpt><trkpt lat="58.059978" lon="38.813002"><ele>103.3</ele><time>2022-02-07T07:47:27Z</time></trkpt><trkpt lat="58.059963" lon="38.81308"><ele>103.2</ele><time>2022-02-07T07:47:28Z</time></trkpt><trkpt lat="58.059952" lon="38.81315"><ele>103.2</ele><time>2022-02-07T07:47:29Z</time></trkpt><trkpt lat="58.059942" lon="38.813217"><ele>103.1</ele><time>2022-02-07T07:47:30Z</time></trkpt><trkpt lat="58.059922" lon="38.813292"><ele>103.1</ele><time>2022-02-07T07:47:31Z</time></trkpt><trkpt lat="58.05991" lon="38.813365"><ele>103.0</ele><time>2022-02-07T07:47:32Z</time></trkpt><trkpt lat="58.0599" lon="38.813443"><ele>103.0</ele><time>2022-02-07T07:47:33Z</time></trkpt><trkpt lat="58.05988" lon="38.81352"><ele>102.9</ele><time>2022-02-07T07:47:34Z</time></trkpt><trkpt lat="58.059867" lon="38.813582"><ele>102.9</ele><time>2022-02-07T07:47:35Z</time></trkpt><trkpt lat="58.059837" lon="38.813637"><ele>102.8</ele><time>2022-02-07T07:47:36Z</time></trkpt><trkpt lat="58.059817" lon="38.813683"><ele>102.8</ele><time>2022-02-07T07:47:37Z</time></trkpt><trkpt lat="58.059788" lon="38.813732"><ele>102.7</ele><time>2022-02-07T07:47:38Z</time></trkpt><trkpt lat="58.059762" lon="38.81376"><ele>102.7</ele><time>2022-02-07T07:47:39Z</time></trkpt><trkpt lat="58.059735" lon="38.813775"><ele>102.6</ele><time>2022-02-07T07:47:40Z</time></trkpt><trkpt lat="58.059692" lon="38.813768"><ele>102.6</ele><time>2022-02-07T07:47:41Z</time></trkpt><trkpt lat="58.059677" lon="38.813767"><ele>102.6</ele><time>2022-02-07T07:47:42Z</time></trkpt><trkpt lat="58.059645" lon="38.81377"><ele>102.5</ele><time>2022-02-07T07:47:43Z</time></trkpt><trkpt lat="58.059602" lon="38.813757"><ele>102.5</ele><time>2022-02-07T07:47:44Z</time></trkpt><trkpt lat="58.059563" lon="38.81373"><ele>102.4</ele><time>2022-02-07T07:47:45Z</time></trkpt><trkpt lat="58.059522" lon="38.813687"><ele>102.4</ele><time>2022-02-07T07:47:47Z</time></trkpt><trkpt lat="58.059497" lon="38.813657"><ele>102.3</ele><time>2022-02-07T07:47:48Z</time></trkpt><trkpt lat="58.059473" lon="38.81363"><ele>102.3</ele><time>2022-02-07T07:47:49Z</time></trkpt><trkpt lat="58.059445" lon="38.813613"><ele>102.3</ele><time>2022-02-07T07:47:50Z</time></trkpt><trkpt lat="58.059412" lon="38.81361"><ele>102.2</ele><time>2022-02-07T07:47:51Z</time></trkpt><trkpt lat="58.059372" lon="38.81362"><ele>102.2</ele><time>2022-02-07T07:47:52Z</time></trkpt><trkpt lat="58.059345" lon="38.813615"><ele>102.2</ele><time>2022-02-07T07:47:53Z</time></trkpt><trkpt lat="58.059312" lon="38.813588"><ele>102.1</ele><time>2022-02-07T07:47:54Z</time></trkpt><trkpt lat="58.059303" lon="38.81358"><ele>102.1</ele><time>2022-02-07T07:47:55Z</time></trkpt><trkpt lat="58.059282" lon="38.813542"><ele>102.2</ele><time>2022-02-07T07:47:56Z</time></trkpt><trkpt lat="58.05928" lon="38.813515"><ele>102.2</ele><time>2022-02-07T07:47:58Z</time></trkpt><trkpt lat="58.059278" lon="38.81349"><ele>102.2</ele><time>2022-02-07T07:48:00Z</time></trkpt><trkpt lat="58.059277" lon="38.813462"><ele>102.2</ele><time>2022-02-07T07:48:01Z</time></trkpt><trkpt lat="58.05928" lon="38.813393"><ele>102.3</ele><time>2022-02-07T07:48:03Z</time></trkpt><trkpt lat="58.059283" lon="38.813317"><ele>102.3</ele><time>2022-02-07T07:48:04Z</time></trkpt><trkpt lat="58.059292" lon="38.813252"><ele>102.4</ele><time>2022-02-07T07:48:05Z</time></trkpt><trkpt lat="58.0593" lon="38.813192"><ele>102.4</ele><time>2022-02-07T07:48:06Z</time></trkpt><trkpt lat="58.059322" lon="38.813105"><ele>102.5</ele><time>2022-02-07T07:48:07Z</time></trkpt><trkpt lat="58.059338" lon="38.813027"><ele>102.5</ele><time>2022-02-07T07:48:09Z</time></trkpt><trkpt lat="58.059338" lon="38.812972"><ele>102.6</ele><time>2022-02-07T07:48:10Z</time></trkpt><trkpt lat="58.059335" lon="38.812913"><ele>102.6</ele><time>2022-02-07T07:48:11Z</time></trkpt><trkpt lat="58.059337" lon="38.812847"><ele>102.7</ele><time>2022-02-07T07:48:13Z</time></trkpt><trkpt lat="58.059343" lon="38.812795"><ele>102.7</ele><time>2022-02-07T07:48:14Z</time></trkpt><trkpt lat="58.059355" lon="38.81274"><ele>102.7</ele><time>2022-02-07T07:48:15Z</time></trkpt><trkpt lat="58.059358" lon="38.812685"><ele>102.8</ele><time>2022-02-07T07:48:16Z</time></trkpt><trkpt lat="58.05936" lon="38.812612"><ele>102.8</ele><time>2022-02-07T07:48:17Z</time></trkpt><trkpt lat="58.05936" lon="38.812587"><ele>102.9</ele><time>2022-02-07T07:48:18Z</time></trkpt><trkpt lat="58.059365" lon="38.812535"><ele>102.9</ele><time>2022-02-07T07:48:19Z</time></trkpt><trkpt lat="58.059375" lon="38.812418"><ele>103.0</ele><time>2022-02-07T07:48:21Z</time></trkpt><trkpt lat="58.059405" lon="38.812372"><ele>103.0</ele><time>2022-02-07T07:48:22Z</time></trkpt><trkpt lat="58.059447" lon="38.812357"><ele>103.1</ele><time>2022-02-07T07:48:24Z</time></trkpt><trkpt lat="58.059462" lon="38.812355"><ele>103.1</ele><time>2022-02-07T07:48:25Z</time></trkpt><trkpt lat="58.059503" lon="38.812345"><ele>103.1</ele><time>2022-02-07T07:48:26Z</time></trkpt><trkpt lat="58.059518" lon="38.812342"><ele>103.2</ele><time>2022-02-07T07:48:27Z</time></trkpt><trkpt lat="58.059562" lon="38.812338"><ele>103.2</ele><time>2022-02-07T07:48:28Z</time></trkpt><trkpt lat="58.05961" lon="38.812335"><ele>103.3</ele><time>2022-02-07T07:48:29Z</time></trkpt><trkpt lat="58.059657" lon="38.812328"><ele>103.3</ele><time>2022-02-07T07:48:30Z</time></trkpt><trkpt lat="58.059705" lon="38.81233"><ele>103.4</ele><time>2022-02-07T07:48:31Z</time></trkpt><trkpt lat="58.059745" lon="38.812348"><ele>103.5</ele><time>2022-02-07T07:48:32Z</time></trkpt><trkpt lat="58.059785" lon="38.812367"><ele>103.5</ele><time>2022-02-07T07:48:33Z</time></trkpt><trkpt lat="58.059822" lon="38.812383"><ele>103.6</ele><time>2022-02-07T07:48:34Z</time></trkpt><trkpt lat="58.059863" lon="38.812395"><ele>103.6</ele><time>2022-02-07T07:48:35Z</time></trkpt><trkpt lat="58.059897" lon="38.812417"><ele>103.7</ele><time>2022-02-07T07:48:36Z</time></trkpt><trkpt lat="58.059917" lon="38.812462"><ele>103.7</ele><time>2022-02-07T07:48:37Z</time></trkpt><trkpt lat="58.059937" lon="38.812517"><ele>103.7</ele><time>2022-02-07T07:48:38Z</time></trkpt><trkpt lat="58.059942" lon="38.812542"><ele>103.7</ele><time>2022-02-07T07:48:39Z</time></trkpt><trkpt lat="58.05995" lon="38.812618"><ele>103.6</ele><time>2022-02-07T07:48:40Z</time></trkpt><trkpt lat="58.059953" lon="38.812645"><ele>103.6</ele><time>2022-02-07T07:48:41Z</time></trkpt><trkpt lat="58.059952" lon="38.812703"><ele>103.6</ele><time>2022-02-07T07:48:42Z</time></trkpt><trkpt lat="58.059955" lon="38.812783"><ele>103.5</ele><time>2022-02-07T07:48:43Z</time></trkpt><trkpt lat="58.059955" lon="38.812815"><ele>103.5</ele><time>2022-02-07T07:48:44Z</time></trkpt><trkpt lat="58.059948" lon="38.812882"><ele>103.4</ele><time>2022-02-07T07:48:45Z</time></trkpt><trkpt lat="58.059942" lon="38.812947"><ele>103.4</ele><time>2022-02-07T07:48:46Z</time></trkpt><trkpt lat="58.059935" lon="38.813015"><ele>103.3</ele><time>2022-02-07T07:48:47Z</time></trkpt><trkpt lat="58.059928" lon="38.81308"><ele>103.3</ele><time>2022-02-07T07:48:48Z</time></trkpt><trkpt lat="58.059918" lon="38.813157"><ele>103.2</ele><time>2022-02-07T07:48:49Z</time></trkpt><trkpt lat="58.059913" lon="38.813217"><ele>103.2</ele><time>2022-02-07T07:48:50Z</time></trkpt><trkpt lat="58.059902" lon="38.813273"><ele>103.1</ele><time>2022-02-07T07:48:51Z</time></trkpt><trkpt lat="58.059892" lon="38.81334"><ele>103.1</ele><time>2022-02-07T07:48:52Z</time></trkpt><trkpt lat="58.059877" lon="38.813397"><ele>103.0</ele><time>2022-02-07T07:48:53Z</time></trkpt><trkpt lat="58.05985" lon="38.813445"><ele>103.0</ele><time>2022-02-07T07:48:54Z</time></trkpt><trkpt lat="58.059825" lon="38.813485"><ele>103.0</ele><time>2022-02-07T07:48:55Z</time></trkpt><trkpt lat="58.05981" lon="38.813533"><ele>102.9</ele><time>2022-02-07T07:48:56Z</time></trkpt><trkpt lat="58.05979" lon="38.813602"><ele>102.9</ele><time>2022-02-07T07:48:57Z</time></trkpt><trkpt lat="58.059785" lon="38.813627"><ele>102.9</ele><time>2022-02-07T07:48:58Z</time></trkpt><trkpt lat="58.05977" lon="38.813675"><ele>102.6</ele><time>2022-02-07T07:48:59Z</time></trkpt><trkpt lat="58.05974" lon="38.813663"><ele>102.9</ele><time>2022-02-07T07:49:00Z</time></trkpt><trkpt lat="58.059732" lon="38.813632"><ele>102.9</ele><time>2022-02-07T07:49:01Z</time></trkpt><trkpt lat="58.059717" lon="38.813642"><ele>102.9</ele><time>2022-02-07T07:49:02Z</time></trkpt><trkpt lat="58.059715" lon="38.813605"><ele>103.2</ele><time>2022-02-07T07:49:03Z</time></trkpt><trkpt lat="58.05969" lon="38.813583"><ele>103.2</ele><time>2022-02-07T07:49:05Z</time></trkpt><trkpt lat="58.059667" lon="38.813545"><ele>103.1</ele><time>2022-02-07T07:49:06Z</time></trkpt><trkpt lat="58.059647" lon="38.81351"><ele>102.8</ele><time>2022-02-07T07:49:07Z</time></trkpt><trkpt lat="58.059638" lon="38.81346"><ele>102.8</ele><time>2022-02-07T07:49:08Z</time></trkpt><trkpt lat="58.059615" lon="38.813437"><ele>102.6</ele><time>2022-02-07T07:49:09Z</time></trkpt><trkpt lat="58.059582" lon="38.813405"><ele>102.3</ele><time>2022-02-07T07:49:10Z</time></trkpt><trkpt lat="58.05956" lon="38.813362"><ele>102.2</ele><time>2022-02-07T07:49:11Z</time></trkpt><trkpt lat="58.059535" lon="38.813337"><ele>102.2</ele><time>2022-02-07T07:49:13Z</time></trkpt><trkpt lat="58.059505" lon="38.813315"><ele>102.2</ele><time>2022-02-07T07:49:14Z</time></trkpt><trkpt lat="58.059477" lon="38.81329"><ele>102.2</ele><time>2022-02-07T07:49:15Z</time></trkpt><trkpt lat="58.05947" lon="38.813278"><ele>102.2</ele><time>2022-02-07T07:49:16Z</time></trkpt><trkpt lat="58.05946" lon="38.813255"><ele>102.2</ele><time>2022-02-07T07:49:17Z</time></trkpt><trkpt lat="58.059452" lon="38.813228"><ele>102.2</ele><time>2022-02-07T07:49:18Z</time></trkpt><trkpt lat="58.05946" lon="38.813148"><ele>102.2</ele><time>2022-02-07T07:49:20Z</time></trkpt><trkpt lat="58.059462" lon="38.813122"><ele>102.2</ele><time>2022-02-07T07:49:21Z</time></trkpt><trkpt lat="58.059465" lon="38.813097"><ele>102.2</ele><time>2022-02-07T07:49:22Z</time></trkpt><trkpt lat="58.059477" lon="38.813042"><ele>102.2</ele><time>2022-02-07T07:49:23Z</time></trkpt><trkpt lat="58.059483" lon="38.813"><ele>102.2</ele><time>2022-02-07T07:49:24Z</time></trkpt><trkpt lat="58.059488" lon="38.812952"><ele>102.2</ele><time>2022-02-07T07:49:26Z</time></trkpt><trkpt lat="58.059487" lon="38.812912"><ele>102.2</ele><time>2022-02-07T07:49:27Z</time></trkpt><trkpt lat="58.059483" lon="38.812883"><ele>102.2</ele><time>2022-02-07T07:49:28Z</time></trkpt><trkpt lat="58.059482" lon="38.812852"><ele>102.2</ele><time>2022-02-07T07:49:29Z</time></trkpt><trkpt lat="58.059482" lon="38.812818"><ele>102.2</ele><time>2022-02-07T07:49:30Z</time></trkpt><trkpt lat="58.059485" lon="38.812767"><ele>102.2</ele><time>2022-02-07T07:49:31Z</time></trkpt><trkpt lat="58.059485" lon="38.81275"><ele>102.2</ele><time>2022-02-07T07:49:32Z</time></trkpt><trkpt lat="58.059487" lon="38.812692"><ele>102.4</ele><time>2022-02-07T07:49:33Z</time></trkpt><trkpt lat="58.05949" lon="38.81267"><ele>102.6</ele><time>2022-02-07T07:49:34Z</time></trkpt><trkpt lat="58.059493" lon="38.812607"><ele>102.9</ele><time>2022-02-07T07:49:35Z</time></trkpt><trkpt lat="58.059495" lon="38.812582"><ele>103.1</ele><time>2022-02-07T07:49:36Z</time></trkpt><trkpt lat="58.059498" lon="38.81252"><ele>103.2</ele><time>2022-02-07T07:49:37Z</time></trkpt><trkpt lat="58.0595" lon="38.812497"><ele>103.2</ele><time>2022-02-07T07:49:38Z</time></trkpt><trkpt lat="58.059513" lon="38.812447"><ele>103.2</ele><time>2022-02-07T07:49:39Z</time></trkpt><trkpt lat="58.05952" lon="38.812435"><ele>103.2</ele><time>2022-02-07T07:49:40Z</time></trkpt><trkpt lat="58.05955" lon="38.812397"><ele>103.2</ele><time>2022-02-07T07:49:41Z</time></trkpt><trkpt lat="58.05956" lon="38.812387"><ele>103.2</ele><time>2022-02-07T07:49:42Z</time></trkpt><trkpt lat="58.059588" lon="38.81236"><ele>103.3</ele><time>2022-02-07T07:49:43Z</time></trkpt><trkpt lat="58.059597" lon="38.812348"><ele>103.3</ele><time>2022-02-07T07:49:44Z</time></trkpt><trkpt lat="58.059632" lon="38.812328"><ele>103.3</ele><time>2022-02-07T07:49:45Z</time></trkpt><trkpt lat="58.059642" lon="38.812325"><ele>103.3</ele><time>2022-02-07T07:49:46Z</time></trkpt><trkpt lat="58.059668" lon="38.81232"><ele>103.3</ele><time>2022-02-07T07:49:47Z</time></trkpt><trkpt lat="58.059677" lon="38.812303"><ele>103.4</ele><time>2022-02-07T07:49:48Z</time></trkpt><trkpt lat="58.059712" lon="38.812285"><ele>103.4</ele><time>2022-02-07T07:49:49Z</time></trkpt><trkpt lat="58.059725" lon="38.81228"><ele>103.4</ele><time>2022-02-07T07:49:50Z</time></trkpt><trkpt lat="58.059762" lon="38.812267"><ele>103.4</ele><time>2022-02-07T07:49:51Z</time></trkpt><trkpt lat="58.059772" lon="38.812253"><ele>103.5</ele><time>2022-02-07T07:49:52Z</time></trkpt><trkpt lat="58.059805" lon="38.812228"><ele>103.5</ele><time>2022-02-07T07:49:53Z</time></trkpt><trkpt lat="58.059817" lon="38.81222"><ele>103.5</ele><time>2022-02-07T07:49:54Z</time></trkpt><trkpt lat="58.059837" lon="38.81221"><ele>103.5</ele><time>2022-02-07T07:49:55Z</time></trkpt><trkpt lat="58.059852" lon="38.812225"><ele>103.5</ele><time>2022-02-07T07:49:56Z</time></trkpt><trkpt lat="58.059865" lon="38.812245"><ele>103.6</ele><time>2022-02-07T07:49:57Z</time></trkpt><trkpt lat="58.05987" lon="38.81228"><ele>103.6</ele><time>2022-02-07T07:49:58Z</time></trkpt><trkpt lat="58.059877" lon="38.812308"><ele>103.6</ele><time>2022-02-07T07:49:59Z</time></trkpt><trkpt lat="58.059875" lon="38.812347"><ele>103.6</ele><time>2022-02-07T07:50:00Z</time></trkpt><trkpt lat="58.059883" lon="38.812418"><ele>103.7</ele><time>2022-02-07T07:50:01Z</time></trkpt><trkpt lat="58.059888" lon="38.812443"><ele>103.7</ele><time>2022-02-07T07:50:02Z</time></trkpt><trkpt lat="58.059902" lon="38.812497"><ele>103.7</ele><time>2022-02-07T07:50:03Z</time></trkpt><trkpt lat="58.059907" lon="38.812558"><ele>103.7</ele><time>2022-02-07T07:50:04Z</time></trkpt><trkpt lat="58.059918" lon="38.812612"><ele>103.6</ele><time>2022-02-07T07:50:05Z</time></trkpt><trkpt lat="58.059928" lon="38.812672"><ele>103.6</ele><time>2022-02-07T07:50:06Z</time></trkpt><trkpt lat="58.05993" lon="38.812737"><ele>103.5</ele><time>2022-02-07T07:50:07Z</time></trkpt><trkpt lat="58.059928" lon="38.812757"><ele>103.5</ele><time>2022-02-07T07:50:08Z</time></trkpt><trkpt lat="58.059933" lon="38.81281"><ele>103.5</ele><time>2022-02-07T07:50:09Z</time></trkpt><trkpt lat="58.059933" lon="38.812885"><ele>103.4</ele><time>2022-02-07T07:50:10Z</time></trkpt><trkpt lat="58.05993" lon="38.812912"><ele>103.4</ele><time>2022-02-07T07:50:11Z</time></trkpt><trkpt lat="58.059927" lon="38.81299"><ele>103.3</ele><time>2022-02-07T07:50:12Z</time></trkpt><trkpt lat="58.059925" lon="38.81302"><ele>103.3</ele><time>2022-02-07T07:50:13Z</time></trkpt><trkpt lat="58.059912" lon="38.813092"><ele>103.3</ele><time>2022-02-07T07:50:14Z</time></trkpt><trkpt lat="58.059902" lon="38.813147"><ele>103.2</ele><time>2022-02-07T07:50:15Z</time></trkpt><trkpt lat="58.059892" lon="38.813215"><ele>103.2</ele><time>2022-02-07T07:50:16Z</time></trkpt><trkpt lat="58.059867" lon="38.813307"><ele>103.1</ele><time>2022-02-07T07:50:17Z</time></trkpt><trkpt lat="58.059857" lon="38.813352"><ele>103.1</ele><time>2022-02-07T07:50:18Z</time></trkpt><trkpt lat="58.059815" lon="38.813447"><ele>102.7</ele><time>2022-02-07T07:50:20Z</time></trkpt><trkpt lat="58.059773" lon="38.813483"><ele>102.7</ele><time>2022-02-07T07:50:21Z</time></trkpt><trkpt lat="58.059722" lon="38.813507"><ele>102.6</ele><time>2022-02-07T07:50:23Z</time></trkpt><trkpt lat="58.059702" lon="38.813505"><ele>102.6</ele><time>2022-02-07T07:50:24Z</time></trkpt><trkpt lat="58.059685" lon="38.813505"><ele>102.5</ele><time>2022-02-07T07:50:25Z</time></trkpt><trkpt lat="58.059657" lon="38.813495"><ele>102.5</ele><time>2022-02-07T07:50:26Z</time></trkpt><trkpt lat="58.05962" lon="38.813477"><ele>102.5</ele><time>2022-02-07T07:50:28Z</time></trkpt><trkpt lat="58.059597" lon="38.813445"><ele>102.4</ele><time>2022-02-07T07:50:29Z</time></trkpt><trkpt lat="58.05957" lon="38.813417"><ele>102.4</ele><time>2022-02-07T07:50:30Z</time></trkpt><trkpt lat="58.059512" lon="38.81339"><ele>102.3</ele><time>2022-02-07T07:50:32Z</time></trkpt><trkpt lat="58.05948" lon="38.813383"><ele>102.3</ele><time>2022-02-07T07:50:33Z</time></trkpt><trkpt lat="58.05944" lon="38.81337"><ele>102.3</ele><time>2022-02-07T07:50:34Z</time></trkpt><trkpt lat="58.05941" lon="38.813368"><ele>102.2</ele><time>2022-02-07T07:50:35Z</time></trkpt><trkpt lat="58.059363" lon="38.813362"><ele>102.2</ele><time>2022-02-07T07:50:37Z</time></trkpt><trkpt lat="58.05935" lon="38.813357"><ele>102.2</ele><time>2022-02-07T07:50:38Z</time></trkpt><trkpt lat="58.059335" lon="38.813352"><ele>102.1</ele><time>2022-02-07T07:50:39Z</time></trkpt><trkpt lat="58.059315" lon="38.81334"><ele>102.1</ele><time>2022-02-07T07:50:40Z</time></trkpt><trkpt lat="58.059297" lon="38.813298"><ele>102.3</ele><time>2022-02-07T07:50:42Z</time></trkpt><trkpt lat="58.059295" lon="38.813255"><ele>102.4</ele><time>2022-02-07T07:50:43Z</time></trkpt><trkpt lat="58.059308" lon="38.813203"><ele>102.4</ele><time>2022-02-07T07:50:45Z</time></trkpt><trkpt lat="58.059328" lon="38.813148"><ele>102.4</ele><time>2022-02-07T07:50:46Z</time></trkpt><trkpt lat="58.059335" lon="38.81313"><ele>102.5</ele><time>2022-02-07T07:50:47Z</time></trkpt><trkpt lat="58.059348" lon="38.81307"><ele>102.5</ele><time>2022-02-07T07:50:48Z</time></trkpt><trkpt lat="58.059355" lon="38.813038"><ele>102.5</ele><time>2022-02-07T07:50:49Z</time></trkpt><trkpt lat="58.059357" lon="38.812968"><ele>102.6</ele><time>2022-02-07T07:50:51Z</time></trkpt><trkpt lat="58.059362" lon="38.812915"><ele>102.6</ele><time>2022-02-07T07:50:52Z</time></trkpt><trkpt lat="58.059367" lon="38.81286"><ele>102.7</ele><time>2022-02-07T07:50:53Z</time></trkpt><trkpt lat="58.059375" lon="38.81279"><ele>102.7</ele><time>2022-02-07T07:50:54Z</time></trkpt><trkpt lat="58.059378" lon="38.812768"><ele>102.7</ele><time>2022-02-07T07:50:55Z</time></trkpt><trkpt lat="58.059387" lon="38.812717"><ele>102.8</ele><time>2022-02-07T07:50:56Z</time></trkpt><trkpt lat="58.059392" lon="38.812643"><ele>102.8</ele><time>2022-02-07T07:50:57Z</time></trkpt><trkpt lat="58.059393" lon="38.812615"><ele>102.8</ele><time>2022-02-07T07:50:58Z</time></trkpt><trkpt lat="58.059397" lon="38.812513"><ele>102.9</ele><time>2022-02-07T07:51:00Z</time></trkpt><trkpt lat="58.059405" lon="38.812455"><ele>102.9</ele><time>2022-02-07T07:51:01Z</time></trkpt><trkpt lat="58.059422" lon="38.81241"><ele>103.0</ele><time>2022-02-07T07:51:02Z</time></trkpt><trkpt lat="58.059442" lon="38.81237"><ele>103.0</ele><time>2022-02-07T07:51:03Z</time></trkpt><trkpt lat="58.059475" lon="38.812337"><ele>103.1</ele><time>2022-02-07T07:51:04Z</time></trkpt><trkpt lat="58.059507" lon="38.81232"><ele>103.1</ele><time>2022-02-07T07:51:06Z</time></trkpt><trkpt lat="58.059537" lon="38.812322"><ele>103.1</ele><time>2022-02-07T07:51:07Z</time></trkpt><trkpt lat="58.059563" lon="38.812323"><ele>103.2</ele><time>2022-02-07T07:51:08Z</time></trkpt><trkpt lat="58.059605" lon="38.812328"><ele>103.2</ele><time>2022-02-07T07:51:10Z</time></trkpt><trkpt lat="58.05964" lon="38.812345"><ele>103.3</ele><time>2022-02-07T07:51:11Z</time></trkpt><trkpt lat="58.059647" lon="38.812355"><ele>103.3</ele><time>2022-02-07T07:51:12Z</time></trkpt><trkpt lat="58.059678" lon="38.812365"><ele>103.3</ele><time>2022-02-07T07:51:13Z</time></trkpt><trkpt lat="58.059715" lon="38.812385"><ele>103.4</ele><time>2022-02-07T07:51:15Z</time></trkpt><trkpt lat="58.059748" lon="38.81238"><ele>103.4</ele><time>2022-02-07T07:51:16Z</time></trkpt><trkpt lat="58.059782" lon="38.81241"><ele>103.5</ele><time>2022-02-07T07:51:17Z</time></trkpt><trkpt lat="58.059805" lon="38.812455"><ele>103.5</ele><time>2022-02-07T07:51:18Z</time></trkpt><trkpt lat="58.059818" lon="38.812515"><ele>103.6</ele><time>2022-02-07T07:51:19Z</time></trkpt><trkpt lat="58.059827" lon="38.812568"><ele>103.6</ele><time>2022-02-07T07:51:20Z</time></trkpt><trkpt lat="58.059835" lon="38.81262"><ele>103.6</ele><time>2022-02-07T07:51:21Z</time></trkpt><trkpt lat="58.059842" lon="38.812675"><ele>103.6</ele><time>2022-02-07T07:51:22Z</time></trkpt><trkpt lat="58.05985" lon="38.812772"><ele>103.5</ele><time>2022-02-07T07:51:24Z</time></trkpt><trkpt lat="58.059855" lon="38.81286"><ele>103.4</ele><time>2022-02-07T07:51:25Z</time></trkpt><trkpt lat="58.059858" lon="38.812923"><ele>103.4</ele><time>2022-02-07T07:51:26Z</time></trkpt><trkpt lat="58.059853" lon="38.813018"><ele>103.3</ele><time>2022-02-07T07:51:28Z</time></trkpt><trkpt lat="58.05985" lon="38.813085"><ele>103.3</ele><time>2022-02-07T07:51:29Z</time></trkpt><trkpt lat="58.059848" lon="38.813138"><ele>103.2</ele><time>2022-02-07T07:51:30Z</time></trkpt><trkpt lat="58.059845" lon="38.813193"><ele>103.2</ele><time>2022-02-07T07:51:31Z</time></trkpt><trkpt lat="58.059842" lon="38.813255"><ele>103.1</ele><time>2022-02-07T07:51:32Z</time></trkpt><trkpt lat="58.059838" lon="38.813325"><ele>103.1</ele><time>2022-02-07T07:51:33Z</time></trkpt><trkpt lat="58.059828" lon="38.8134"><ele>103.0</ele><time>2022-02-07T07:51:34Z</time></trkpt><trkpt lat="58.05982" lon="38.813472"><ele>103.0</ele><time>2022-02-07T07:51:35Z</time></trkpt><trkpt lat="58.059807" lon="38.813527"><ele>102.9</ele><time>2022-02-07T07:51:36Z</time></trkpt><trkpt lat="58.059792" lon="38.813607"><ele>102.9</ele><time>2022-02-07T07:51:37Z</time></trkpt><trkpt lat="58.059778" lon="38.813687"><ele>102.8</ele><time>2022-02-07T07:51:39Z</time></trkpt><trkpt lat="58.059767" lon="38.813737"><ele>102.7</ele><time>2022-02-07T07:51:40Z</time></trkpt><trkpt lat="58.059738" lon="38.813783"><ele>102.6</ele><time>2022-02-07T07:51:41Z</time></trkpt><trkpt lat="58.059728" lon="38.813797"><ele>102.6</ele><time>2022-02-07T07:51:42Z</time></trkpt><trkpt lat="58.059702" lon="38.813813"><ele>102.6</ele><time>2022-02-07T07:51:43Z</time></trkpt><trkpt lat="58.059692" lon="38.813822"><ele>102.6</ele><time>2022-02-07T07:51:44Z</time></trkpt><trkpt lat="58.059667" lon="38.813818"><ele>102.5</ele><time>2022-02-07T07:51:45Z</time></trkpt><trkpt lat="58.059657" lon="38.813812"><ele>102.5</ele><time>2022-02-07T07:51:46Z</time></trkpt><trkpt lat="58.059642" lon="38.813807"><ele>102.5</ele><time>2022-02-07T07:51:47Z</time></trkpt><trkpt lat="58.059627" lon="38.813817"><ele>102.5</ele><time>2022-02-07T07:51:48Z</time></trkpt><trkpt lat="58.059602" lon="38.813808"><ele>102.5</ele><time>2022-02-07T07:51:49Z</time></trkpt><trkpt lat="58.059593" lon="38.813798"><ele>102.5</ele><time>2022-02-07T07:51:50Z</time></trkpt><trkpt lat="58.059585" lon="38.813787"><ele>102.5</ele><time>2022-02-07T07:51:51Z</time></trkpt><trkpt lat="58.059572" lon="38.813775"><ele>102.4</ele><time>2022-02-07T07:51:52Z</time></trkpt><trkpt lat="58.059558" lon="38.813757"><ele>102.4</ele><time>2022-02-07T07:51:53Z</time></trkpt><trkpt lat="58.059527" lon="38.813717"><ele>102.4</ele><time>2022-02-07T07:51:55Z</time></trkpt><trkpt lat="58.059513" lon="38.8137"><ele>102.4</ele><time>2022-02-07T07:51:56Z</time></trkpt><trkpt lat="58.059485" lon="38.813675"><ele>102.3</ele><time>2022-02-07T07:51:58Z</time></trkpt><trkpt lat="58.059477" lon="38.813668"><ele>102.3</ele><time>2022-02-07T07:51:59Z</time></trkpt><trkpt lat="58.059445" lon="38.813653"><ele>102.3</ele><time>2022-02-07T07:52:00Z</time></trkpt><trkpt lat="58.059435" lon="38.813648"><ele>102.3</ele><time>2022-02-07T07:52:01Z</time></trkpt><trkpt lat="58.059417" lon="38.813642"><ele>102.2</ele><time>2022-02-07T07:52:02Z</time></trkpt><trkpt lat="58.059378" lon="38.813612"><ele>102.2</ele><time>2022-02-07T07:52:04Z</time></trkpt><trkpt lat="58.059353" lon="38.81358"><ele>102.2</ele><time>2022-02-07T07:52:05Z</time></trkpt><trkpt lat="58.059337" lon="38.813522"><ele>102.2</ele><time>2022-02-07T07:52:06Z</time></trkpt><trkpt lat="58.059332" lon="38.813495"><ele>102.2</ele><time>2022-02-07T07:52:07Z</time></trkpt><trkpt lat="58.059332" lon="38.813447"><ele>102.2</ele><time>2022-02-07T07:52:08Z</time></trkpt><trkpt lat="58.059332" lon="38.813357"><ele>102.3</ele><time>2022-02-07T07:52:10Z</time></trkpt><trkpt lat="58.059337" lon="38.813297"><ele>102.3</ele><time>2022-02-07T07:52:11Z</time></trkpt><trkpt lat="58.059347" lon="38.813227"><ele>102.4</ele><time>2022-02-07T07:52:12Z</time></trkpt><trkpt lat="58.059352" lon="38.813205"><ele>102.4</ele><time>2022-02-07T07:52:13Z</time></trkpt><trkpt lat="58.059367" lon="38.813137"><ele>102.5</ele><time>2022-02-07T07:52:14Z</time></trkpt><trkpt lat="58.059372" lon="38.813112"><ele>102.5</ele><time>2022-02-07T07:52:15Z</time></trkpt><trkpt lat="58.059375" lon="38.813045"><ele>102.5</ele><time>2022-02-07T07:52:16Z</time></trkpt><trkpt lat="58.059375" lon="38.813022"><ele>102.6</ele><time>2022-02-07T07:52:17Z</time></trkpt><trkpt lat="58.059372" lon="38.812957"><ele>102.6</ele><time>2022-02-07T07:52:18Z</time></trkpt><trkpt lat="58.059375" lon="38.812877"><ele>102.7</ele><time>2022-02-07T07:52:19Z</time></trkpt><trkpt lat="58.059382" lon="38.81278"><ele>102.7</ele><time>2022-02-07T07:52:21Z</time></trkpt><trkpt lat="58.059383" lon="38.812747"><ele>102.7</ele><time>2022-02-07T07:52:22Z</time></trkpt><trkpt lat="58.059387" lon="38.812715"><ele>102.8</ele><time>2022-02-07T07:52:23Z</time></trkpt><trkpt lat="58.059388" lon="38.812665"><ele>102.8</ele><time>2022-02-07T07:52:24Z</time></trkpt><trkpt lat="58.05939" lon="38.8126"><ele>102.9</ele><time>2022-02-07T07:52:25Z</time></trkpt><trkpt lat="58.05939" lon="38.812542"><ele>102.9</ele><time>2022-02-07T07:52:26Z</time></trkpt><trkpt lat="58.059397" lon="38.812467"><ele>102.9</ele><time>2022-02-07T07:52:28Z</time></trkpt><trkpt lat="58.059412" lon="38.81242"><ele>103.0</ele><time>2022-02-07T07:52:29Z</time></trkpt><trkpt lat="58.059445" lon="38.812385"><ele>103.0</ele><time>2022-02-07T07:52:30Z</time></trkpt><trkpt lat="58.059462" lon="38.812377"><ele>103.1</ele><time>2022-02-07T07:52:31Z</time></trkpt><trkpt lat="58.059492" lon="38.812382"><ele>103.1</ele><time>2022-02-07T07:52:32Z</time></trkpt><trkpt lat="58.059537" lon="38.812375"><ele>103.2</ele><time>2022-02-07T07:52:33Z</time></trkpt><trkpt lat="58.05957" lon="38.812358"><ele>103.2</ele><time>2022-02-07T07:52:35Z</time></trkpt><trkpt lat="58.0596" lon="38.81234"><ele>103.3</ele><time>2022-02-07T07:52:36Z</time></trkpt><trkpt lat="58.059635" lon="38.81233"><ele>103.3</ele><time>2022-02-07T07:52:37Z</time></trkpt><trkpt lat="58.059645" lon="38.812327"><ele>103.3</ele><time>2022-02-07T07:52:38Z</time></trkpt><trkpt lat="58.059665" lon="38.812322"><ele>103.3</ele><time>2022-02-07T07:52:39Z</time></trkpt><trkpt lat="58.059677" lon="38.812318"><ele>103.4</ele><time>2022-02-07T07:52:40Z</time></trkpt><trkpt lat="58.059685" lon="38.81232"><ele>103.4</ele><time>2022-02-07T07:52:41Z</time></trkpt><trkpt lat="58.0597" lon="38.812325"><ele>103.4</ele><time>2022-02-07T07:52:42Z</time></trkpt><trkpt lat="58.059725" lon="38.812335"><ele>103.4</ele><time>2022-02-07T07:52:44Z</time></trkpt><trkpt lat="58.059757" lon="38.81235"><ele>103.5</ele><time>2022-02-07T07:52:45Z</time></trkpt><trkpt lat="58.059767" lon="38.812353"><ele>103.5</ele><time>2022-02-07T07:52:46Z</time></trkpt><trkpt lat="58.059797" lon="38.812367"><ele>103.5</ele><time>2022-02-07T07:52:47Z</time></trkpt><trkpt lat="58.059807" lon="38.81237"><ele>103.5</ele><time>2022-02-07T07:52:48Z</time></trkpt><trkpt lat="58.05984" lon="38.812377"><ele>103.6</ele><time>2022-02-07T07:52:49Z</time></trkpt><trkpt lat="58.05985" lon="38.812378"><ele>103.6</ele><time>2022-02-07T07:52:50Z</time></trkpt><trkpt lat="58.05988" lon="38.812382"><ele>103.6</ele><time>2022-02-07T07:52:51Z</time></trkpt><trkpt lat="58.059892" lon="38.812383"><ele>103.7</ele><time>2022-02-07T07:52:52Z</time></trkpt><trkpt lat="58.059912" lon="38.812392"><ele>103.7</ele><time>2022-02-07T07:52:53Z</time></trkpt><trkpt lat="58.05994" lon="38.81241"><ele>103.7</ele><time>2022-02-07T07:52:55Z</time></trkpt><trkpt lat="58.059972" lon="38.812452"><ele>103.7</ele><time>2022-02-07T07:52:56Z</time></trkpt><trkpt lat="58.05998" lon="38.812473"><ele>103.6</ele><time>2022-02-07T07:52:57Z</time></trkpt><trkpt lat="58.059983" lon="38.812513"><ele>103.6</ele><time>2022-02-07T07:52:58Z</time></trkpt><trkpt lat="58.05998" lon="38.812577"><ele>103.6</ele><time>2022-02-07T07:53:00Z</time></trkpt><trkpt lat="58.059973" lon="38.812627"><ele>103.5</ele><time>2022-02-07T07:53:01Z</time></trkpt><trkpt lat="58.059968" lon="38.812693"><ele>103.5</ele><time>2022-02-07T07:53:02Z</time></trkpt><trkpt lat="58.059967" lon="38.812712"><ele>103.5</ele><time>2022-02-07T07:53:03Z</time></trkpt><trkpt lat="58.05995" lon="38.812765"><ele>103.4</ele><time>2022-02-07T07:53:04Z</time></trkpt><trkpt lat="58.059947" lon="38.812782"><ele>103.4</ele><time>2022-02-07T07:53:05Z</time></trkpt><trkpt lat="58.059948" lon="38.812843"><ele>103.4</ele><time>2022-02-07T07:53:06Z</time></trkpt><trkpt lat="58.05995" lon="38.812862"><ele>103.4</ele><time>2022-02-07T07:53:07Z</time></trkpt><trkpt lat="58.059953" lon="38.812942"><ele>103.3</ele><time>2022-02-07T07:53:08Z</time></trkpt><trkpt lat="58.059953" lon="38.81298"><ele>103.3</ele><time>2022-02-07T07:53:09Z</time></trkpt><trkpt lat="58.05994" lon="38.813055"><ele>103.3</ele><time>2022-02-07T07:53:10Z</time></trkpt><trkpt lat="58.059915" lon="38.813148"><ele>103.2</ele><time>2022-02-07T07:53:12Z</time></trkpt><trkpt lat="58.0599" lon="38.813242"><ele>103.1</ele><time>2022-02-07T07:53:13Z</time></trkpt><trkpt lat="58.059892" lon="38.813315"><ele>103.1</ele><time>2022-02-07T07:53:14Z</time></trkpt><trkpt lat="58.05988" lon="38.813378"><ele>103.0</ele><time>2022-02-07T07:53:15Z</time></trkpt><trkpt lat="58.05987" lon="38.813447"><ele>103.0</ele><time>2022-02-07T07:53:16Z</time></trkpt><trkpt lat="58.05984" lon="38.813557"><ele>102.9</ele><time>2022-02-07T07:53:18Z</time></trkpt><trkpt lat="58.05981" lon="38.813592"><ele>102.7</ele><time>2022-02-07T07:53:19Z</time></trkpt><trkpt lat="58.059768" lon="38.813612"><ele>102.7</ele><time>2022-02-07T07:53:20Z</time></trkpt><trkpt lat="58.059752" lon="38.813615"><ele>102.6</ele><time>2022-02-07T07:53:21Z</time></trkpt><trkpt lat="58.059717" lon="38.813602"><ele>102.6</ele><time>2022-02-07T07:53:23Z</time></trkpt><trkpt lat="58.059685" lon="38.81359"><ele>102.6</ele><time>2022-02-07T07:53:24Z</time></trkpt><trkpt lat="58.05966" lon="38.81358"><ele>102.5</ele><time>2022-02-07T07:53:25Z</time></trkpt><trkpt lat="58.05962" lon="38.813562"><ele>102.5</ele><time>2022-02-07T07:53:27Z</time></trkpt><trkpt lat="58.05956" lon="38.813562"><ele>102.4</ele><time>2022-02-07T07:53:29Z</time></trkpt><trkpt lat="58.059485" lon="38.813557"><ele>102.3</ele><time>2022-02-07T07:53:31Z</time></trkpt><trkpt lat="58.059443" lon="38.81356"><ele>102.3</ele><time>2022-02-07T07:53:32Z</time></trkpt><trkpt lat="58.059412" lon="38.813557"><ele>102.3</ele><time>2022-02-07T07:53:33Z</time></trkpt><trkpt lat="58.059375" lon="38.813537"><ele>102.2</ele><time>2022-02-07T07:53:34Z</time></trkpt><trkpt lat="58.059362" lon="38.813532"><ele>102.2</ele><time>2022-02-07T07:53:35Z</time></trkpt><trkpt lat="58.059328" lon="38.813513"><ele>102.2</ele><time>2022-02-07T07:53:36Z</time></trkpt><trkpt lat="58.05932" lon="38.813505"><ele>102.1</ele><time>2022-02-07T07:53:37Z</time></trkpt><trkpt lat="58.059293" lon="38.81348"><ele>102.1</ele><time>2022-02-07T07:53:38Z</time></trkpt><trkpt lat="58.059285" lon="38.81347"><ele>102.1</ele><time>2022-02-07T07:53:39Z</time></trkpt><trkpt lat="58.05927" lon="38.813452"><ele>102.2</ele><time>2022-02-07T07:53:40Z</time></trkpt><trkpt lat="58.059267" lon="38.813418"><ele>102.2</ele><time>2022-02-07T07:53:41Z</time></trkpt><trkpt lat="58.05927" lon="38.813382"><ele>102.3</ele><time>2022-02-07T07:53:42Z</time></trkpt><trkpt lat="58.059277" lon="38.813355"><ele>102.3</ele><time>2022-02-07T07:53:43Z</time></trkpt><trkpt lat="58.05929" lon="38.8133"><ele>102.3</ele><time>2022-02-07T07:53:44Z</time></trkpt><trkpt lat="58.059292" lon="38.813283"><ele>102.4</ele><time>2022-02-07T07:53:45Z</time></trkpt><trkpt lat="58.059307" lon="38.813238"><ele>102.4</ele><time>2022-02-07T07:53:46Z</time></trkpt><trkpt lat="58.05931" lon="38.813222"><ele>102.4</ele><time>2022-02-07T07:53:47Z</time></trkpt><trkpt lat="58.059325" lon="38.813168"><ele>102.4</ele><time>2022-02-07T07:53:48Z</time></trkpt><trkpt lat="58.05933" lon="38.813152"><ele>102.5</ele><time>2022-02-07T07:53:49Z</time></trkpt><trkpt lat="58.059343" lon="38.813095"><ele>102.5</ele><time>2022-02-07T07:53:50Z</time></trkpt><trkpt lat="58.059345" lon="38.813072"><ele>102.5</ele><time>2022-02-07T07:53:51Z</time></trkpt><trkpt lat="58.05934" lon="38.813013"><ele>102.6</ele><time>2022-02-07T07:53:52Z</time></trkpt><trkpt lat="58.05934" lon="38.812923"><ele>102.6</ele><time>2022-02-07T07:53:54Z</time></trkpt><trkpt lat="58.059342" lon="38.81289"><ele>102.7</ele><time>2022-02-07T07:53:55Z</time></trkpt><trkpt lat="58.059345" lon="38.812857"><ele>102.7</ele><time>2022-02-07T07:53:56Z</time></trkpt><trkpt lat="58.05936" lon="38.812792"><ele>102.7</ele><time>2022-02-07T07:53:57Z</time></trkpt><trkpt lat="58.059367" lon="38.812738"><ele>102.8</ele><time>2022-02-07T07:53:58Z</time></trkpt><trkpt lat="58.05937" lon="38.812633"><ele>102.9</ele><time>2022-02-07T07:54:00Z</time></trkpt><trkpt lat="58.059375" lon="38.812575"><ele>102.9</ele><time>2022-02-07T07:54:01Z</time></trkpt><trkpt lat="58.05939" lon="38.812522"><ele>102.9</ele><time>2022-02-07T07:54:02Z</time></trkpt><trkpt lat="58.059432" lon="38.812437"><ele>103.0</ele><time>2022-02-07T07:54:04Z</time></trkpt><trkpt lat="58.059463" lon="38.81241"><ele>103.1</ele><time>2022-02-07T07:54:05Z</time></trkpt><trkpt lat="58.059497" lon="38.812402"><ele>103.1</ele><time>2022-02-07T07:54:06Z</time></trkpt><trkpt lat="58.059532" lon="38.8124"><ele>103.2</ele><time>2022-02-07T07:54:07Z</time></trkpt><trkpt lat="58.059563" lon="38.812393"><ele>103.2</ele><time>2022-02-07T07:54:08Z</time></trkpt><trkpt lat="58.0596" lon="38.812377"><ele>103.3</ele><time>2022-02-07T07:54:09Z</time></trkpt><trkpt lat="58.059635" lon="38.812365"><ele>103.3</ele><time>2022-02-07T07:54:11Z</time></trkpt><trkpt lat="58.059663" lon="38.812358"><ele>103.3</ele><time>2022-02-07T07:54:12Z</time></trkpt><trkpt lat="58.059692" lon="38.812362"><ele>103.4</ele><time>2022-02-07T07:54:13Z</time></trkpt><trkpt lat="58.05972" lon="38.81236"><ele>103.4</ele><time>2022-02-07T07:54:14Z</time></trkpt><trkpt lat="58.059747" lon="38.812373"><ele>103.5</ele><time>2022-02-07T07:54:15Z</time></trkpt><trkpt lat="58.059777" lon="38.812382"><ele>103.5</ele><time>2022-02-07T07:54:16Z</time></trkpt><trkpt lat="58.059808" lon="38.812397"><ele>103.6</ele><time>2022-02-07T07:54:17Z</time></trkpt><trkpt lat="58.059837" lon="38.812408"><ele>103.6</ele><time>2022-02-07T07:54:18Z</time></trkpt><trkpt lat="58.059885" lon="38.812453"><ele>103.7</ele><time>2022-02-07T07:54:20Z</time></trkpt><trkpt lat="58.059917" lon="38.812543"><ele>103.7</ele><time>2022-02-07T07:54:22Z</time></trkpt><trkpt lat="58.059927" lon="38.812633"><ele>103.6</ele><time>2022-02-07T07:54:23Z</time></trkpt><trkpt lat="58.059933" lon="38.812718"><ele>103.6</ele><time>2022-02-07T07:54:24Z</time></trkpt><trkpt lat="58.059928" lon="38.812847"><ele>103.5</ele><time>2022-02-07T07:54:26Z</time></trkpt><trkpt lat="58.059925" lon="38.812917"><ele>103.4</ele><time>2022-02-07T07:54:27Z</time></trkpt><trkpt lat="58.059913" lon="38.813002"><ele>103.3</ele><time>2022-02-07T07:54:28Z</time></trkpt><trkpt lat="58.0599" lon="38.813072"><ele>103.3</ele><time>2022-02-07T07:54:29Z</time></trkpt><trkpt lat="58.059888" lon="38.813185"><ele>103.2</ele><time>2022-02-07T07:54:31Z</time></trkpt><trkpt lat="58.059872" lon="38.813243"><ele>103.2</ele><time>2022-02-07T07:54:32Z</time></trkpt><trkpt lat="58.05985" lon="38.813305"><ele>103.1</ele><time>2022-02-07T07:54:33Z</time></trkpt><trkpt lat="58.05984" lon="38.813322"><ele>103.1</ele><time>2022-02-07T07:54:34Z</time></trkpt><trkpt lat="58.059825" lon="38.813367"><ele>103.0</ele><time>2022-02-07T07:54:35Z</time></trkpt><trkpt lat="58.05982" lon="38.81338"><ele>103.0</ele><time>2022-02-07T07:54:36Z</time></trkpt><trkpt lat="58.059807" lon="38.813425"><ele>103.0</ele><time>2022-02-07T07:54:37Z</time></trkpt><trkpt lat="58.059802" lon="38.81344"><ele>103.0</ele><time>2022-02-07T07:54:38Z</time></trkpt><trkpt lat="58.059777" lon="38.813502"><ele>102.9</ele><time>2022-02-07T07:54:39Z</time></trkpt><trkpt lat="58.059772" lon="38.813527"><ele>102.9</ele><time>2022-02-07T07:54:40Z</time></trkpt><trkpt lat="58.059758" lon="38.813597"><ele>102.9</ele><time>2022-02-07T07:54:41Z</time></trkpt><trkpt lat="58.059737" lon="38.81364"><ele>102.6</ele><time>2022-02-07T07:54:42Z</time></trkpt><trkpt lat="58.059707" lon="38.813667"><ele>102.6</ele><time>2022-02-07T07:54:43Z</time></trkpt><trkpt lat="58.0597" lon="38.813678"><ele>102.6</ele><time>2022-02-07T07:54:44Z</time></trkpt><trkpt lat="58.059663" lon="38.813702"><ele>102.5</ele><time>2022-02-07T07:54:46Z</time></trkpt><trkpt lat="58.05965" lon="38.813708"><ele>102.5</ele><time>2022-02-07T07:54:47Z</time></trkpt><trkpt lat="58.059635" lon="38.813705"><ele>102.5</ele><time>2022-02-07T07:54:48Z</time></trkpt><trkpt lat="58.059607" lon="38.813692"><ele>102.5</ele><time>2022-02-07T07:54:49Z</time></trkpt><trkpt lat="58.059597" lon="38.813687"><ele>102.5</ele><time>2022-02-07T07:54:50Z</time></trkpt><trkpt lat="58.059565" lon="38.813667"><ele>102.4</ele><time>2022-02-07T07:54:51Z</time></trkpt><trkpt lat="58.059553" lon="38.813662"><ele>102.4</ele><time>2022-02-07T07:54:52Z</time></trkpt><trkpt lat="58.059513" lon="38.813642"><ele>102.4</ele><time>2022-02-07T07:54:53Z</time></trkpt><trkpt lat="58.059498" lon="38.813637"><ele>102.4</ele><time>2022-02-07T07:54:54Z</time></trkpt><trkpt lat="58.059467" lon="38.813618"><ele>102.3</ele><time>2022-02-07T07:54:55Z</time></trkpt><trkpt lat="58.059425" lon="38.8136"><ele>102.3</ele><time>2022-02-07T07:54:57Z</time></trkpt><trkpt lat="58.059397" lon="38.813588"><ele>102.2</ele><time>2022-02-07T07:54:58Z</time></trkpt><trkpt lat="58.059368" lon="38.813583"><ele>102.2</ele><time>2022-02-07T07:54:59Z</time></trkpt><trkpt lat="58.05933" lon="38.813577"><ele>102.2</ele><time>2022-02-07T07:55:00Z</time></trkpt><trkpt lat="58.059317" lon="38.813575"><ele>102.2</ele><time>2022-02-07T07:55:01Z</time></trkpt><trkpt lat="58.05929" lon="38.813553"><ele>102.1</ele><time>2022-02-07T07:55:02Z</time></trkpt><trkpt lat="58.059272" lon="38.813512"><ele>102.1</ele><time>2022-02-07T07:55:03Z</time></trkpt><trkpt lat="58.059268" lon="38.813492"><ele>102.2</ele><time>2022-02-07T07:55:04Z</time></trkpt><trkpt lat="58.059262" lon="38.813437"><ele>102.2</ele><time>2022-02-07T07:55:05Z</time></trkpt><trkpt lat="58.059262" lon="38.813417"><ele>102.2</ele><time>2022-02-07T07:55:06Z</time></trkpt><trkpt lat="58.059263" lon="38.813383"><ele>102.3</ele><time>2022-02-07T07:55:07Z</time></trkpt><trkpt lat="58.059267" lon="38.81335"><ele>102.3</ele><time>2022-02-07T07:55:08Z</time></trkpt><trkpt lat="58.059285" lon="38.813303"><ele>102.3</ele><time>2022-02-07T07:55:09Z</time></trkpt><trkpt lat="58.059292" lon="38.81329"><ele>102.3</ele><time>2022-02-07T07:55:10Z</time></trkpt><trkpt lat="58.059318" lon="38.813248"><ele>102.4</ele><time>2022-02-07T07:55:11Z</time></trkpt><trkpt lat="58.059327" lon="38.81323"><ele>102.4</ele><time>2022-02-07T07:55:12Z</time></trkpt><trkpt lat="58.059335" lon="38.813175"><ele>102.4</ele><time>2022-02-07T07:55:13Z</time></trkpt><trkpt lat="58.059345" lon="38.813082"><ele>102.5</ele><time>2022-02-07T07:55:14Z</time></trkpt><trkpt lat="58.059352" lon="38.813018"><ele>102.6</ele><time>2022-02-07T07:55:16Z</time></trkpt><trkpt lat="58.059342" lon="38.812935"><ele>102.6</ele><time>2022-02-07T07:55:17Z</time></trkpt><trkpt lat="58.059335" lon="38.812867"><ele>102.7</ele><time>2022-02-07T07:55:18Z</time></trkpt><trkpt lat="58.059325" lon="38.81279"><ele>102.7</ele><time>2022-02-07T07:55:20Z</time></trkpt><trkpt lat="58.059327" lon="38.81276"><ele>102.7</ele><time>2022-02-07T07:55:21Z</time></trkpt><trkpt lat="58.059332" lon="38.812732"><ele>102.8</ele><time>2022-02-07T07:55:22Z</time></trkpt><trkpt lat="58.05935" lon="38.812642"><ele>102.8</ele><time>2022-02-07T07:55:24Z</time></trkpt><trkpt lat="58.059353" lon="38.8126"><ele>102.8</ele><time>2022-02-07T07:55:26Z</time></trkpt><trkpt lat="58.059355" lon="38.812558"><ele>102.9</ele><time>2022-02-07T07:55:27Z</time></trkpt><trkpt lat="58.059365" lon="38.812457"><ele>102.9</ele><time>2022-02-07T07:55:29Z</time></trkpt><trkpt lat="58.059398" lon="38.812395"><ele>103.0</ele><time>2022-02-07T07:55:30Z</time></trkpt><trkpt lat="58.059417" lon="38.812368"><ele>103.0</ele><time>2022-02-07T07:55:31Z</time></trkpt><trkpt lat="58.059458" lon="38.812362"><ele>103.1</ele><time>2022-02-07T07:55:33Z</time></trkpt><trkpt lat="58.05949" lon="38.812365"><ele>103.1</ele><time>2022-02-07T07:55:34Z</time></trkpt><trkpt lat="58.059525" lon="38.812357"><ele>103.2</ele><time>2022-02-07T07:55:35Z</time></trkpt><trkpt lat="58.059553" lon="38.812345"><ele>103.2</ele><time>2022-02-07T07:55:36Z</time></trkpt><trkpt lat="58.059585" lon="38.812335"><ele>103.3</ele><time>2022-02-07T07:55:37Z</time></trkpt><trkpt lat="58.059595" lon="38.812335"><ele>103.3</ele><time>2022-02-07T07:55:38Z</time></trkpt><trkpt lat="58.059612" lon="38.81233"><ele>103.3</ele><time>2022-02-07T07:55:39Z</time></trkpt><trkpt lat="58.059615" lon="38.812325"><ele>103.3</ele><time>2022-02-07T07:55:40Z</time></trkpt><trkpt lat="58.05962" lon="38.81232"><ele>103.3</ele><time>2022-02-07T07:55:41Z</time></trkpt><trkpt lat="58.059625" lon="38.812313"><ele>103.3</ele><time>2022-02-07T07:55:42Z</time></trkpt><trkpt lat="58.059628" lon="38.812308"><ele>103.3</ele><time>2022-02-07T07:55:43Z</time></trkpt><trkpt lat="58.059632" lon="38.812303"><ele>103.3</ele><time>2022-02-07T07:55:44Z</time></trkpt><trkpt lat="58.059663" lon="38.812305"><ele>103.4</ele><time>2022-02-07T07:55:45Z</time></trkpt><trkpt lat="58.059675" lon="38.81231"><ele>103.4</ele><time>2022-02-07T07:55:46Z</time></trkpt><trkpt lat="58.059717" lon="38.812327"><ele>103.4</ele><time>2022-02-07T07:55:47Z</time></trkpt><trkpt lat="58.05976" lon="38.812337"><ele>103.5</ele><time>2022-02-07T07:55:48Z</time></trkpt><trkpt lat="58.059807" lon="38.812357"><ele>103.5</ele><time>2022-02-07T07:55:49Z</time></trkpt><trkpt lat="58.059847" lon="38.81238"><ele>103.6</ele><time>2022-02-07T07:55:50Z</time></trkpt><trkpt lat="58.059895" lon="38.812395"><ele>103.7</ele><time>2022-02-07T07:55:51Z</time></trkpt><trkpt lat="58.059945" lon="38.812415"><ele>103.7</ele><time>2022-02-07T07:55:53Z</time></trkpt><trkpt lat="58.05997" lon="38.812455"><ele>103.7</ele><time>2022-02-07T07:55:54Z</time></trkpt><trkpt lat="58.059973" lon="38.812537"><ele>103.6</ele><time>2022-02-07T07:55:55Z</time></trkpt><trkpt lat="58.059973" lon="38.81257"><ele>103.6</ele><time>2022-02-07T07:55:56Z</time></trkpt><trkpt lat="58.059967" lon="38.812687"><ele>103.5</ele><time>2022-02-07T07:55:57Z</time></trkpt><trkpt lat="58.059952" lon="38.812797"><ele>103.5</ele><time>2022-02-07T07:55:59Z</time></trkpt><trkpt lat="58.05993" lon="38.812932"><ele>103.4</ele><time>2022-02-07T07:56:01Z</time></trkpt><trkpt lat="58.059482" lon="38.813717"><ele>102.3</ele><time>2022-02-07T07:58:00Z</time></trkpt><trkpt lat="58.059482" lon="38.813698"><ele>102.3</ele><time>2022-02-07T07:58:01Z</time></trkpt><trkpt lat="58.059482" lon="38.81369"><ele>102.3</ele><time>2022-02-07T07:58:02Z</time></trkpt><trkpt lat="58.05947" lon="38.813685"><ele>102.3</ele><time>2022-02-07T07:58:03Z</time></trkpt><trkpt lat="58.059455" lon="38.81368"><ele>102.3</ele><time>2022-02-07T07:58:04Z</time></trkpt><trkpt lat="58.059437" lon="38.813677"><ele>102.3</ele><time>2022-02-07T07:58:05Z</time></trkpt><trkpt lat="58.059425" lon="38.813668"><ele>102.3</ele><time>2022-02-07T07:58:06Z</time></trkpt><trkpt lat="58.059388" lon="38.81366"><ele>102.2</ele><time>2022-02-07T07:58:07Z</time></trkpt><trkpt lat="58.059377" lon="38.813658"><ele>102.2</ele><time>2022-02-07T07:58:08Z</time></trkpt><trkpt lat="58.059345" lon="38.813635"><ele>102.2</ele><time>2022-02-07T07:58:09Z</time></trkpt><trkpt lat="58.059333" lon="38.813627"><ele>102.1</ele><time>2022-02-07T07:58:10Z</time></trkpt><trkpt lat="58.059292" lon="38.813598"><ele>102.1</ele><time>2022-02-07T07:58:11Z</time></trkpt><trkpt lat="58.05929" lon="38.813562"><ele>102.1</ele><time>2022-02-07T07:58:12Z</time></trkpt><trkpt lat="58.059287" lon="38.81354"><ele>102.2</ele><time>2022-02-07T07:58:13Z</time></trkpt><trkpt lat="58.059285" lon="38.813518"><ele>102.2</ele><time>2022-02-07T07:58:14Z</time></trkpt><trkpt lat="58.059287" lon="38.813465"><ele>102.2</ele><time>2022-02-07T07:58:15Z</time></trkpt><trkpt lat="58.059297" lon="38.813362"><ele>102.3</ele><time>2022-02-07T07:58:16Z</time></trkpt><trkpt lat="58.059302" lon="38.813305"><ele>102.3</ele><time>2022-02-07T07:58:17Z</time></trkpt><trkpt lat="58.059313" lon="38.813222"><ele>102.4</ele><time>2022-02-07T07:58:18Z</time></trkpt><trkpt lat="58.059317" lon="38.813182"><ele>102.4</ele><time>2022-02-07T07:58:19Z</time></trkpt><trkpt lat="58.059325" lon="38.81311"><ele>102.5</ele><time>2022-02-07T07:58:20Z</time></trkpt><trkpt lat="58.05934" lon="38.81298"><ele>102.6</ele><time>2022-02-07T07:58:21Z</time></trkpt><trkpt lat="58.05934" lon="38.81293"><ele>102.6</ele><time>2022-02-07T07:58:22Z</time></trkpt><trkpt lat="58.05934" lon="38.812902"><ele>102.6</ele><time>2022-02-07T07:58:23Z</time></trkpt><trkpt lat="58.059345" lon="38.812828"><ele>102.7</ele><time>2022-02-07T07:58:24Z</time></trkpt><trkpt lat="58.05935" lon="38.812752"><ele>102.7</ele><time>2022-02-07T07:58:25Z</time></trkpt><trkpt lat="58.059357" lon="38.81264"><ele>102.8</ele><time>2022-02-07T07:58:26Z</time></trkpt><trkpt lat="58.05936" lon="38.812592"><ele>102.8</ele><time>2022-02-07T07:58:27Z</time></trkpt><trkpt lat="58.059362" lon="38.812573"><ele>102.9</ele><time>2022-02-07T07:58:28Z</time></trkpt><trkpt lat="58.059368" lon="38.81252"><ele>102.9</ele><time>2022-02-07T07:58:29Z</time></trkpt><trkpt lat="58.05938" lon="38.812448"><ele>102.9</ele><time>2022-02-07T07:58:30Z</time></trkpt><trkpt lat="58.05941" lon="38.812362"><ele>103.0</ele><time>2022-02-07T07:58:31Z</time></trkpt><trkpt lat="58.059442" lon="38.812353"><ele>103.1</ele><time>2022-02-07T07:58:32Z</time></trkpt><trkpt lat="58.059457" lon="38.812348"><ele>103.1</ele><time>2022-02-07T07:58:33Z</time></trkpt><trkpt lat="58.059485" lon="38.812357"><ele>103.1</ele><time>2022-02-07T07:58:34Z</time></trkpt><trkpt lat="58.059515" lon="38.812362"><ele>103.2</ele><time>2022-02-07T07:58:35Z</time></trkpt><trkpt lat="58.059577" lon="38.812357"><ele>103.2</ele><time>2022-02-07T07:58:36Z</time></trkpt><trkpt lat="58.059595" lon="38.812342"><ele>103.3</ele><time>2022-02-07T07:58:37Z</time></trkpt><trkpt lat="58.05961" lon="38.812332"><ele>103.3</ele><time>2022-02-07T07:58:38Z</time></trkpt><trkpt lat="58.059625" lon="38.812322"><ele>103.3</ele><time>2022-02-07T07:58:39Z</time></trkpt><trkpt lat="58.059672" lon="38.812325"><ele>103.4</ele><time>2022-02-07T07:58:40Z</time></trkpt><trkpt lat="58.059722" lon="38.812345"><ele>103.4</ele><time>2022-02-07T07:58:41Z</time></trkpt><trkpt lat="58.05975" lon="38.81235"><ele>103.5</ele><time>2022-02-07T07:58:42Z</time></trkpt><trkpt lat="58.05979" lon="38.812355"><ele>103.5</ele><time>2022-02-07T07:58:43Z</time></trkpt><trkpt lat="58.059822" lon="38.812362"><ele>103.6</ele><time>2022-02-07T07:58:44Z</time></trkpt><trkpt lat="58.059862" lon="38.812377"><ele>103.6</ele><time>2022-02-07T07:58:45Z</time></trkpt><trkpt lat="58.059913" lon="38.812398"><ele>103.7</ele><time>2022-02-07T07:58:46Z</time></trkpt><trkpt lat="58.059937" lon="38.812428"><ele>103.7</ele><time>2022-02-07T07:58:47Z</time></trkpt><trkpt lat="58.05995" lon="38.812447"><ele>103.7</ele><time>2022-02-07T07:58:48Z</time></trkpt><trkpt lat="58.059955" lon="38.812503"><ele>103.6</ele><time>2022-02-07T07:58:49Z</time></trkpt><trkpt lat="58.059955" lon="38.812585"><ele>103.6</ele><time>2022-02-07T07:58:50Z</time></trkpt><trkpt lat="58.05996" lon="38.81272"><ele>103.5</ele><time>2022-02-07T07:58:51Z</time></trkpt><trkpt lat="58.05994" lon="38.81279"><ele>103.4</ele><time>2022-02-07T07:58:52Z</time></trkpt><trkpt lat="58.059937" lon="38.812827"><ele>103.4</ele><time>2022-02-07T07:58:53Z</time></trkpt><trkpt lat="58.059932" lon="38.8129"><ele>103.3</ele><time>2022-02-07T07:58:54Z</time></trkpt><trkpt lat="58.059922" lon="38.812973"><ele>103.3</ele><time>2022-02-07T07:58:55Z</time></trkpt><trkpt lat="58.059912" lon="38.813092"><ele>103.2</ele><time>2022-02-07T07:58:56Z</time></trkpt><trkpt lat="58.0599" lon="38.813167"><ele>103.2</ele><time>2022-02-07T07:58:57Z</time></trkpt><trkpt lat="58.059895" lon="38.813193"><ele>103.1</ele><time>2022-02-07T07:58:58Z</time></trkpt><trkpt lat="58.059882" lon="38.81326"><ele>103.1</ele><time>2022-02-07T07:58:59Z</time></trkpt><trkpt lat="58.059867" lon="38.813302"><ele>103.1</ele><time>2022-02-07T07:59:00Z</time></trkpt><trkpt lat="58.05984" lon="38.813387"><ele>103.0</ele><time>2022-02-07T07:59:01Z</time></trkpt><trkpt lat="58.059837" lon="38.81341"><ele>103.0</ele><time>2022-02-07T07:59:02Z</time></trkpt><trkpt lat="58.059837" lon="38.813443"><ele>103.0</ele><time>2022-02-07T07:59:03Z</time></trkpt><trkpt lat="58.059832" lon="38.813497"><ele>102.9</ele><time>2022-02-07T07:59:04Z</time></trkpt><trkpt lat="58.059827" lon="38.813565"><ele>102.9</ele><time>2022-02-07T07:59:05Z</time></trkpt><trkpt lat="58.05982" lon="38.813677"><ele>102.8</ele><time>2022-02-07T07:59:06Z</time></trkpt><trkpt lat="58.059813" lon="38.813682"><ele>102.8</ele><time>2022-02-07T07:59:07Z</time></trkpt><trkpt lat="58.059805" lon="38.813732"><ele>102.8</ele><time>2022-02-07T07:59:08Z</time></trkpt><trkpt lat="58.059795" lon="38.813792"><ele>102.7</ele><time>2022-02-07T07:59:09Z</time></trkpt><trkpt lat="58.05979" lon="38.813807"><ele>102.7</ele><time>2022-02-07T07:59:10Z</time></trkpt><trkpt lat="58.059767" lon="38.81384"><ele>102.7</ele><time>2022-02-07T07:59:11Z</time></trkpt><trkpt lat="58.059757" lon="38.81383"><ele>102.6</ele><time>2022-02-07T07:59:12Z</time></trkpt><trkpt lat="58.059732" lon="38.813837"><ele>102.6</ele><time>2022-02-07T07:59:13Z</time></trkpt><trkpt lat="58.059693" lon="38.813837"><ele>102.6</ele><time>2022-02-07T07:59:14Z</time></trkpt><trkpt lat="58.059678" lon="38.813833"><ele>102.6</ele><time>2022-02-07T07:59:15Z</time></trkpt><trkpt lat="58.059613" lon="38.81381"><ele>102.5</ele><time>2022-02-07T07:59:16Z</time></trkpt><trkpt lat="58.059602" lon="38.813787"><ele>102.5</ele><time>2022-02-07T07:59:17Z</time></trkpt><trkpt lat="58.059592" lon="38.813762"><ele>102.5</ele><time>2022-02-07T07:59:18Z</time></trkpt><trkpt lat="58.059557" lon="38.813722"><ele>102.4</ele><time>2022-02-07T07:59:19Z</time></trkpt><trkpt lat="58.059525" lon="38.813685"><ele>102.4</ele><time>2022-02-07T07:59:20Z</time></trkpt><trkpt lat="58.059462" lon="38.813647"><ele>102.3</ele><time>2022-02-07T07:59:21Z</time></trkpt><trkpt lat="58.05943" lon="38.813635"><ele>102.3</ele><time>2022-02-07T07:59:22Z</time></trkpt><trkpt lat="58.059412" lon="38.81363"><ele>102.2</ele><time>2022-02-07T07:59:23Z</time></trkpt><trkpt lat="58.059382" lon="38.813625"><ele>102.2</ele><time>2022-02-07T07:59:24Z</time></trkpt><trkpt lat="58.05934" lon="38.813608"><ele>102.2</ele><time>2022-02-07T07:59:25Z</time></trkpt><trkpt lat="58.059275" lon="38.813573"><ele>102.1</ele><time>2022-02-07T07:59:26Z</time></trkpt><trkpt lat="58.059267" lon="38.813522"><ele>102.2</ele><time>2022-02-07T07:59:27Z</time></trkpt><trkpt lat="58.059267" lon="38.8135"><ele>102.2</ele><time>2022-02-07T07:59:28Z</time></trkpt><trkpt lat="58.059273" lon="38.813427"><ele>102.2</ele><time>2022-02-07T07:59:29Z</time></trkpt><trkpt lat="58.05928" lon="38.813402"><ele>102.3</ele><time>2022-02-07T07:59:30Z</time></trkpt><trkpt lat="58.059285" lon="38.813307"><ele>102.3</ele><time>2022-02-07T07:59:31Z</time></trkpt><trkpt lat="58.059315" lon="38.813257"><ele>102.4</ele><time>2022-02-07T07:59:32Z</time></trkpt><trkpt lat="58.059323" lon="38.81323"><ele>102.4</ele><time>2022-02-07T07:59:33Z</time></trkpt><trkpt lat="58.059335" lon="38.81318"><ele>102.4</ele><time>2022-02-07T07:59:34Z</time></trkpt><trkpt lat="58.059345" lon="38.813122"><ele>102.5</ele><time>2022-02-07T07:59:35Z</time></trkpt><trkpt lat="58.059355" lon="38.813033"><ele>102.5</ele><time>2022-02-07T07:59:36Z</time></trkpt><trkpt lat="58.059355" lon="38.812973"><ele>102.6</ele><time>2022-02-07T07:59:37Z</time></trkpt><trkpt lat="58.059355" lon="38.812947"><ele>102.6</ele><time>2022-02-07T07:59:38Z</time></trkpt><trkpt lat="58.059357" lon="38.81287"><ele>102.6</ele><time>2022-02-07T07:59:39Z</time></trkpt><trkpt lat="58.059358" lon="38.812842"><ele>102.7</ele><time>2022-02-07T07:59:40Z</time></trkpt><trkpt lat="58.059362" lon="38.812748"><ele>102.7</ele><time>2022-02-07T07:59:41Z</time></trkpt><trkpt lat="58.059362" lon="38.812697"><ele>102.8</ele><time>2022-02-07T07:59:42Z</time></trkpt><trkpt lat="58.059362" lon="38.812672"><ele>102.8</ele><time>2022-02-07T07:59:43Z</time></trkpt><trkpt lat="58.05937" lon="38.81259"><ele>102.8</ele><time>2022-02-07T07:59:44Z</time></trkpt><trkpt lat="58.059372" lon="38.81256"><ele>102.9</ele><time>2022-02-07T07:59:45Z</time></trkpt><trkpt lat="58.05938" lon="38.812487"><ele>102.9</ele><time>2022-02-07T07:59:46Z</time></trkpt><trkpt lat="58.05939" lon="38.812427"><ele>103.0</ele><time>2022-02-07T07:59:47Z</time></trkpt><trkpt lat="58.059397" lon="38.812405"><ele>103.0</ele><time>2022-02-07T07:59:48Z</time></trkpt><trkpt lat="58.059425" lon="38.812365"><ele>103.0</ele><time>2022-02-07T07:59:49Z</time></trkpt><trkpt lat="58.059435" lon="38.812357"><ele>103.0</ele><time>2022-02-07T07:59:50Z</time></trkpt><trkpt lat="58.059482" lon="38.812322"><ele>103.1</ele><time>2022-02-07T07:59:51Z</time></trkpt><trkpt lat="58.059507" lon="38.81234"><ele>103.1</ele><time>2022-02-07T07:59:52Z</time></trkpt><trkpt lat="58.05952" lon="38.812335"><ele>103.1</ele><time>2022-02-07T07:59:53Z</time></trkpt><trkpt lat="58.059552" lon="38.812335"><ele>103.2</ele><time>2022-02-07T07:59:54Z</time></trkpt><trkpt lat="58.059595" lon="38.812328"><ele>103.2</ele><time>2022-02-07T07:59:55Z</time></trkpt><trkpt lat="58.059612" lon="38.81232"><ele>103.3</ele><time>2022-02-07T07:59:56Z</time></trkpt><trkpt lat="58.059652" lon="38.812323"><ele>103.3</ele><time>2022-02-07T07:59:57Z</time></trkpt><trkpt lat="58.059667" lon="38.812328"><ele>103.3</ele><time>2022-02-07T07:59:58Z</time></trkpt><trkpt lat="58.059697" lon="38.812332"><ele>103.4</ele><time>2022-02-07T07:59:59Z</time></trkpt><trkpt lat="58.059732" lon="38.812338"><ele>103.4</ele><time>2022-02-07T08:00:00Z</time></trkpt><trkpt lat="58.059777" lon="38.81235"><ele>103.5</ele><time>2022-02-07T08:00:01Z</time></trkpt><trkpt lat="58.059795" lon="38.812353"><ele>103.5</ele><time>2022-02-07T08:00:02Z</time></trkpt><trkpt lat="58.059807" lon="38.812357"><ele>103.5</ele><time>2022-02-07T08:00:03Z</time></trkpt><trkpt lat="58.059818" lon="38.812362"><ele>103.5</ele><time>2022-02-07T08:00:04Z</time></trkpt><trkpt lat="58.059842" lon="38.812397"><ele>103.6</ele><time>2022-02-07T08:00:05Z</time></trkpt><trkpt lat="58.05985" lon="38.81241"><ele>103.6</ele><time>2022-02-07T08:00:06Z</time></trkpt><trkpt lat="58.059877" lon="38.812448"><ele>103.6</ele><time>2022-02-07T08:00:07Z</time></trkpt><trkpt lat="58.05988" lon="38.812505"><ele>103.7</ele><time>2022-02-07T08:00:08Z</time></trkpt><trkpt lat="58.059883" lon="38.81253"><ele>103.7</ele><time>2022-02-07T08:00:09Z</time></trkpt><trkpt lat="58.05989" lon="38.812585"><ele>103.6</ele><time>2022-02-07T08:00:10Z</time></trkpt><trkpt lat="58.059905" lon="38.812658"><ele>103.6</ele><time>2022-02-07T08:00:11Z</time></trkpt><trkpt lat="58.059928" lon="38.812747"><ele>103.6</ele><time>2022-02-07T08:00:12Z</time></trkpt><trkpt lat="58.059945" lon="38.812797"><ele>103.6</ele><time>2022-02-07T08:00:13Z</time></trkpt><trkpt lat="58.059952" lon="38.812815"><ele>103.5</ele><time>2022-02-07T08:00:14Z</time></trkpt><trkpt lat="58.059965" lon="38.812888"><ele>103.5</ele><time>2022-02-07T08:00:15Z</time></trkpt><trkpt lat="58.059967" lon="38.812917"><ele>103.5</ele><time>2022-02-07T08:00:16Z</time></trkpt><trkpt lat="58.05998" lon="38.813027"><ele>103.5</ele><time>2022-02-07T08:00:17Z</time></trkpt><trkpt lat="58.060002" lon="38.813077"><ele>103.4</ele><time>2022-02-07T08:00:18Z</time></trkpt><trkpt lat="58.06001" lon="38.813127"><ele>103.4</ele><time>2022-02-07T08:00:19Z</time></trkpt><trkpt lat="58.06001" lon="38.813185"><ele>103.4</ele><time>2022-02-07T08:00:20Z</time></trkpt><trkpt lat="58.060012" lon="38.813272"><ele>103.4</ele><time>2022-02-07T08:00:21Z</time></trkpt><trkpt lat="58.060015" lon="38.813312"><ele>103.3</ele><time>2022-02-07T08:00:22Z</time></trkpt><trkpt lat="58.059992" lon="38.813363"><ele>103.3</ele><time>2022-02-07T08:00:23Z</time></trkpt><trkpt lat="58.059982" lon="38.813387"><ele>103.3</ele><time>2022-02-07T08:00:24Z</time></trkpt><trkpt lat="58.059955" lon="38.813442"><ele>103.3</ele><time>2022-02-07T08:00:25Z</time></trkpt><trkpt lat="58.059927" lon="38.813497"><ele>103.2</ele><time>2022-02-07T08:00:26Z</time></trkpt><trkpt lat="58.059887" lon="38.813567"><ele>103.2</ele><time>2022-02-07T08:00:27Z</time></trkpt><trkpt lat="58.05986" lon="38.813565"><ele>103.2</ele><time>2022-02-07T08:00:28Z</time></trkpt><trkpt lat="58.059828" lon="38.813565"><ele>103.2</ele><time>2022-02-07T08:00:29Z</time></trkpt><trkpt lat="58.059803" lon="38.813532"><ele>103.1</ele><time>2022-02-07T08:00:30Z</time></trkpt><trkpt lat="58.059798" lon="38.81352"><ele>103.1</ele><time>2022-02-07T08:00:31Z</time></trkpt><trkpt lat="58.059782" lon="38.81349"><ele>103.1</ele><time>2022-02-07T08:00:32Z</time></trkpt><trkpt lat="58.059782" lon="38.813467"><ele>103.1</ele><time>2022-02-07T08:00:33Z</time></trkpt><trkpt lat="58.059772" lon="38.813442"><ele>103.1</ele><time>2022-02-07T08:00:34Z</time></trkpt><trkpt lat="58.059765" lon="38.81341"><ele>103.1</ele><time>2022-02-07T08:00:35Z</time></trkpt><trkpt lat="58.059743" lon="38.813378"><ele>103.1</ele><time>2022-02-07T08:00:36Z</time></trkpt><trkpt lat="58.059733" lon="38.813365"><ele>103.1</ele><time>2022-02-07T08:00:37Z</time></trkpt><trkpt lat="58.05973" lon="38.813367"><ele>103.1</ele><time>2022-02-07T08:00:38Z</time></trkpt><trkpt lat="58.059722" lon="38.81336"><ele>103.1</ele><time>2022-02-07T08:00:39Z</time></trkpt><trkpt lat="58.059715" lon="38.813357"><ele>103.0</ele><time>2022-02-07T08:00:40Z</time></trkpt><trkpt lat="58.059707" lon="38.813352"><ele>103.0</ele><time>2022-02-07T08:00:41Z</time></trkpt><trkpt lat="58.059693" lon="38.813337"><ele>103.0</ele><time>2022-02-07T08:00:42Z</time></trkpt><trkpt lat="58.059692" lon="38.81334"><ele>103.0</ele><time>2022-02-07T08:00:43Z</time></trkpt><trkpt lat="58.059692" lon="38.81335"><ele>103.0</ele><time>2022-02-07T08:00:44Z</time></trkpt><trkpt lat="58.05969" lon="38.813357"><ele>103.0</ele><time>2022-02-07T08:00:45Z</time></trkpt><trkpt lat="58.059688" lon="38.813362"><ele>103.0</ele><time>2022-02-07T08:00:46Z</time></trkpt><trkpt lat="58.059683" lon="38.813357"><ele>103.0</ele><time>2022-02-07T08:00:47Z</time></trkpt><trkpt lat="58.05968" lon="38.813367"><ele>103.0</ele><time>2022-02-07T08:00:48Z</time></trkpt><trkpt lat="58.059673" lon="38.81339"><ele>103.0</ele><time>2022-02-07T08:00:49Z</time></trkpt><trkpt lat="58.059667" lon="38.813408"><ele>103.0</ele><time>2022-02-07T08:00:50Z</time></trkpt><trkpt lat="58.059663" lon="38.813422"><ele>103.0</ele><time>2022-02-07T08:00:51Z</time></trkpt><trkpt lat="58.059657" lon="38.813428"><ele>103.0</ele><time>2022-02-07T08:00:52Z</time></trkpt><trkpt lat="58.059657" lon="38.81344"><ele>103.0</ele><time>2022-02-07T08:00:53Z</time></trkpt><trkpt lat="58.05966" lon="38.813445"><ele>103.0</ele><time>2022-02-07T08:00:54Z</time></trkpt><trkpt lat="58.059657" lon="38.813437"><ele>103.0</ele><time>2022-02-07T08:00:55Z</time></trkpt><trkpt lat="58.059657" lon="38.813435"><ele>103.0</ele><time>2022-02-07T08:00:56Z</time></trkpt><trkpt lat="58.059657" lon="38.813437"><ele>103.0</ele><time>2022-02-07T08:00:57Z</time></trkpt><trkpt lat="58.059655" lon="38.81344"><ele>103.0</ele><time>2022-02-07T08:00:58Z</time></trkpt><trkpt lat="58.059655" lon="38.813442"><ele>103.0</ele><time>2022-02-07T08:00:59Z</time></trkpt><trkpt lat="58.059653" lon="38.813443"><ele>103.0</ele><time>2022-02-07T08:01:00Z</time></trkpt><trkpt lat="58.059652" lon="38.813443"><ele>103.0</ele><time>2022-02-07T08:01:01Z</time></trkpt><trkpt lat="58.059652" lon="38.813445"><ele>103.0</ele><time>2022-02-07T08:01:02Z</time></trkpt><trkpt lat="58.059652" lon="38.813445"><ele>103.0</ele><time>2022-02-07T08:01:03Z</time></trkpt><trkpt lat="58.05965" lon="38.813445"><ele>103.0</ele><time>2022-02-07T08:01:04Z</time></trkpt><trkpt lat="58.05965" lon="38.813447"><ele>103.0</ele><time>2022-02-07T08:01:05Z</time></trkpt><trkpt lat="58.05965" lon="38.813447"><ele>103.0</ele><time>2022-02-07T08:01:06Z</time></trkpt><trkpt lat="58.059648" lon="38.813447"><ele>103.0</ele><time>2022-02-07T08:01:07Z</time></trkpt><trkpt lat="58.059648" lon="38.813448"><ele>103.0</ele><time>2022-02-07T08:01:08Z</time></trkpt><trkpt lat="58.059647" lon="38.81345"><ele>103.0</ele><time>2022-02-07T08:01:09Z</time></trkpt><trkpt lat="58.059647" lon="38.81345"><ele>103.0</ele><time>2022-02-07T08:01:10Z</time></trkpt><trkpt lat="58.059647" lon="38.81345"><ele>103.0</ele><time>2022-02-07T08:01:11Z</time></trkpt><trkpt lat="58.059647" lon="38.81345"><ele>103.0</ele><time>2022-02-07T08:01:12Z</time></trkpt><trkpt lat="58.059647" lon="38.813452"><ele>103.0</ele><time>2022-02-07T08:01:13Z</time></trkpt><trkpt lat="58.059645" lon="38.813452"><ele>103.0</ele><time>2022-02-07T08:01:14Z</time></trkpt><trkpt lat="58.059645" lon="38.813452"><ele>103.0</ele><time>2022-02-07T08:01:15Z</time></trkpt><trkpt lat="58.059645" lon="38.813452"><ele>103.0</ele><time>2022-02-07T08:01:16Z</time></trkpt><trkpt lat="58.059643" lon="38.813453"><ele>103.0</ele><time>2022-02-07T08:01:17Z</time></trkpt><trkpt lat="58.059643" lon="38.813453"><ele>103.0</ele><time>2022-02-07T08:01:18Z</time></trkpt><trkpt lat="58.059643" lon="38.813453"><ele>103.0</ele><time>2022-02-07T08:01:19Z</time></trkpt><trkpt lat="58.059643" lon="38.813453"><ele>103.0</ele><time>2022-02-07T08:01:20Z</time></trkpt><trkpt lat="58.059642" lon="38.813455"><ele>103.0</ele><time>2022-02-07T08:01:21Z</time></trkpt><trkpt lat="58.059642" lon="38.813455"><ele>103.0</ele><time>2022-02-07T08:01:22Z</time></trkpt><trkpt lat="58.059642" lon="38.813455"><ele>103.0</ele><time>2022-02-07T08:01:23Z</time></trkpt><trkpt lat="58.059642" lon="38.813455"><ele>103.0</ele><time>2022-02-07T08:01:24Z</time></trkpt><trkpt lat="58.059642" lon="38.813457"><ele>103.0</ele><time>2022-02-07T08:01:25Z</time></trkpt><trkpt lat="58.05964" lon="38.813457"><ele>102.9</ele><time>2022-02-07T08:01:26Z</time></trkpt><trkpt lat="58.05964" lon="38.813457"><ele>102.9</ele><time>2022-02-07T08:01:27Z</time></trkpt><trkpt lat="58.05964" lon="38.813458"><ele>102.9</ele><time>2022-02-07T08:01:28Z</time></trkpt><trkpt lat="58.05964" lon="38.81346"><ele>102.9</ele><time>2022-02-07T08:01:29Z</time></trkpt><trkpt lat="58.05964" lon="38.81346"><ele>102.9</ele><time>2022-02-07T08:01:30Z</time></trkpt><trkpt lat="58.05964" lon="38.81346"><ele>102.9</ele><time>2022-02-07T08:01:31Z</time></trkpt><trkpt lat="58.059638" lon="38.81346"><ele>102.9</ele><time>2022-02-07T08:01:32Z</time></trkpt><trkpt lat="58.059635" lon="38.813457"><ele>102.9</ele><time>2022-02-07T08:01:33Z</time></trkpt><trkpt lat="58.059632" lon="38.813455"><ele>102.9</ele><time>2022-02-07T08:01:34Z</time></trkpt><trkpt lat="58.05963" lon="38.813457"><ele>102.9</ele><time>2022-02-07T08:01:35Z</time></trkpt><trkpt lat="58.059627" lon="38.81346"><ele>102.9</ele><time>2022-02-07T08:01:36Z</time></trkpt></trkseg></trk></gpx>