<?xml version="1.0" encoding="UTF-8" standalone="no"?><gpx xmlns="http://www.topografix.com/GPX/1/1" xmlns:gpxtpx="http://www.garmin.com/xmlschemas/TrackPointExtension/v1" xmlns:xsi="http://www.w3.org/2001/XMLSchema-instance" creator="Sports Tracker" version="1.1" xsi:schemaLocation="http://www.topografix.com/GPX/1/1 http://www.topografix.com/GPX/1/1/gpx.xsd http://www.garmin.com/xmlschemas/TrackPointExtension/v1 http://www.garmin.com/xmlschemas/TrackPointExtensionv1.xsd"><metadata><name>10.01.2024 07:58</name><desc/><author><name>Александр</name></author></metadata><trk><name>10.01.2024 07:58</name><trkseg><trkpt lat="58.058167" lon="38.810445"><ele>112.8</ele><time>2024-01-10T04:58:59Z</time></trkpt><trkpt lat="58.058167" lon="38.810445"><ele>112.8</ele><time>2024-01-10T05:01:54Z</time></trkpt><trkpt lat="58.058097" lon="38.81049"><ele>113.6</ele><time>2024-01-10T05:02:00Z</time></trkpt><trkpt lat="58.058037" lon="38.810387"><ele>113.6</ele><time>2024-01-10T05:02:06Z</time></trkpt><trkpt lat="58.05799" lon="38.81027"><ele>113.7</ele><time>2024-01-10T05:02:07Z</time></trkpt><trkpt lat="58.058013" lon="38.810135"><ele>114.5</ele><time>2024-01-10T05:02:11Z</time></trkpt><trkpt lat="58.057937" lon="38.81013"><ele>117.0</ele><time>2024-01-10T05:02:15Z</time></trkpt><trkpt lat="58.057845" lon="38.810125"><ele>120.4</ele><time>2024-01-10T05:02:21Z</time></trkpt><trkpt lat="58.057775" lon="38.810242"><ele>121.5</ele><time>2024-01-10T05:02:24Z</time></trkpt><trkpt lat="58.057788" lon="38.810387"><ele>122.5</ele><time>2024-01-10T05:02:26Z</time></trkpt><trkpt lat="58.057795" lon="38.81022"><ele>119.9</ele><time>2024-01-10T05:02:29Z</time></trkpt><trkpt lat="58.057775" lon="38.809995"><ele>117.7</ele><time>2024-01-10T05:02:35Z</time></trkpt><trkpt lat="58.057755" lon="38.809835"><ele>118.1</ele><time>2024-01-10T05:02:36Z</time></trkpt><trkpt lat="58.057702" lon="38.810007"><ele>120.0</ele><time>2024-01-10T05:02:38Z</time></trkpt><trkpt lat="58.05764" lon="38.810065"><ele>117.5</ele><time>2024-01-10T05:02:45Z</time></trkpt><trkpt lat="58.057605" lon="38.809985"><ele>117.8</ele><time>2024-01-10T05:02:52Z</time></trkpt><trkpt lat="58.057535" lon="38.809935"><ele>118.7</ele><time>2024-01-10T05:02:58Z</time></trkpt><trkpt lat="58.057455" lon="38.809935"><ele>119.0</ele><time>2024-01-10T05:03:04Z</time></trkpt><trkpt lat="58.057375" lon="38.809965"><ele>117.9</ele><time>2024-01-10T05:03:10Z</time></trkpt><trkpt lat="58.057295" lon="38.810055"><ele>113.0</ele><time>2024-01-10T05:03:15Z</time></trkpt><trkpt lat="58.057245" lon="38.810185"><ele>112.3</ele><time>2024-01-10T05:03:18Z</time></trkpt><trkpt lat="58.057205" lon="38.810325"><ele>111.4</ele><time>2024-01-10T05:03:20Z</time></trkpt><trkpt lat="58.057125" lon="38.810272"><ele>112.0</ele><time>2024-01-10T05:03:27Z</time></trkpt><trkpt lat="58.057045" lon="38.810247"><ele>109.9</ele><time>2024-01-10T05:03:34Z</time></trkpt><trkpt lat="58.05697" lon="38.81021"><ele>112.1</ele><time>2024-01-10T05:03:40Z</time></trkpt><trkpt lat="58.05689" lon="38.810205"><ele>116.1</ele><time>2024-01-10T05:03:45Z</time></trkpt><trkpt lat="58.05681" lon="38.81019"><ele>117.5</ele><time>2024-01-10T05:03:52Z</time></trkpt><trkpt lat="58.056747" lon="38.81028"><ele>114.7</ele><time>2024-01-10T05:03:59Z</time></trkpt><trkpt lat="58.056725" lon="38.810415"><ele>113.0</ele><time>2024-01-10T05:04:03Z</time></trkpt><trkpt lat="58.05667" lon="38.810515"><ele>113.5</ele><time>2024-01-10T05:04:08Z</time></trkpt><trkpt lat="58.056595" lon="38.810585"><ele>112.8</ele><time>2024-01-10T05:04:15Z</time></trkpt><trkpt lat="58.05652" lon="38.810632"><ele>115.3</ele><time>2024-01-10T05:04:21Z</time></trkpt><trkpt lat="58.056438" lon="38.810655"><ele>117.2</ele><time>2024-01-10T05:04:27Z</time></trkpt><trkpt lat="58.056355" lon="38.81064"><ele>118.1</ele><time>2024-01-10T05:04:32Z</time></trkpt><trkpt lat="58.056277" lon="38.81065"><ele>121.3</ele><time>2024-01-10T05:04:39Z</time></trkpt><trkpt lat="58.056195" lon="38.810662"><ele>123.2</ele><time>2024-01-10T05:04:45Z</time></trkpt><trkpt lat="58.05612" lon="38.810665"><ele>125.7</ele><time>2024-01-10T05:04:51Z</time></trkpt><trkpt lat="58.056037" lon="38.810645"><ele>128.3</ele><time>2024-01-10T05:04:58Z</time></trkpt><trkpt lat="58.055972" lon="38.810595"><ele>125.7</ele><time>2024-01-10T05:05:05Z</time></trkpt><trkpt lat="58.055965" lon="38.810685"><ele>116.1</ele><time>2024-01-10T05:05:12Z</time></trkpt><trkpt lat="58.05596" lon="38.810835"><ele>113.4</ele><time>2024-01-10T05:05:19Z</time></trkpt><trkpt lat="58.055965" lon="38.810985"><ele>114.2</ele><time>2024-01-10T05:05:25Z</time></trkpt><trkpt lat="58.05595" lon="38.811127"><ele>114.9</ele><time>2024-01-10T05:05:29Z</time></trkpt><trkpt lat="58.055967" lon="38.81126"><ele>115.8</ele><time>2024-01-10T05:05:34Z</time></trkpt><trkpt lat="58.056002" lon="38.811367"><ele>114.1</ele><time>2024-01-10T05:05:41Z</time></trkpt><trkpt lat="58.05605" lon="38.81147"><ele>113.8</ele><time>2024-01-10T05:05:47Z</time></trkpt><trkpt lat="58.056062" lon="38.811472"><ele>117.5</ele><time>2024-01-10T05:05:54Z</time></trkpt><trkpt lat="58.056065" lon="38.81147"><ele>117.5</ele><time>2024-01-10T05:05:55Z</time></trkpt><trkpt lat="58.055977" lon="38.811435"><ele>116.8</ele><time>2024-01-10T05:06:10Z</time></trkpt><trkpt lat="58.056122" lon="38.81125"><ele>136.4</ele><time>2024-01-10T05:27:21Z</time></trkpt><trkpt lat="58.05605" lon="38.811212"><ele>125.7</ele><time>2024-01-10T05:27:22Z</time></trkpt><trkpt lat="58.055985" lon="38.81112"><ele>122.0</ele><time>2024-01-10T05:27:26Z</time></trkpt><trkpt lat="58.055982" lon="38.810977"><ele>123.3</ele><time>2024-01-10T05:27:32Z</time></trkpt><trkpt lat="58.05603" lon="38.810853"><ele>123.8</ele><time>2024-01-10T05:27:39Z</time></trkpt><trkpt lat="58.056047" lon="38.81099"><ele>122.2</ele><time>2024-01-10T05:27:46Z</time></trkpt><trkpt lat="58.056292" lon="38.810737"><ele>119.7</ele><time>2024-01-10T05:28:03Z</time></trkpt><trkpt lat="58.056347" lon="38.81078"><ele>115.6</ele><time>2024-01-10T05:28:10Z</time></trkpt><trkpt lat="58.056417" lon="38.810835"><ele>117.5</ele><time>2024-01-10T05:28:17Z</time></trkpt><trkpt lat="58.056465" lon="38.81096"><ele>115.7</ele><time>2024-01-10T05:28:20Z</time></trkpt><trkpt lat="58.056532" lon="38.810985"><ele>113.5</ele><time>2024-01-10T05:28:27Z</time></trkpt><trkpt lat="58.0566" lon="38.81103"><ele>116.6</ele><time>2024-01-10T05:28:34Z</time></trkpt><trkpt lat="58.056667" lon="38.810937"><ele>115.7</ele><time>2024-01-10T05:28:41Z</time></trkpt><trkpt lat="58.056725" lon="38.81084"><ele>112.1</ele><time>2024-01-10T05:28:48Z</time></trkpt><trkpt lat="58.05674" lon="38.810697"><ele>114.5</ele><time>2024-01-10T05:28:54Z</time></trkpt><trkpt lat="58.05676" lon="38.810555"><ele>114.4</ele><time>2024-01-10T05:29:00Z</time></trkpt><trkpt lat="58.056835" lon="38.810542"><ele>114.4</ele><time>2024-01-10T05:29:06Z</time></trkpt><trkpt lat="58.056872" lon="38.810542"><ele>117.7</ele><time>2024-01-10T05:29:13Z</time></trkpt><trkpt lat="58.05684" lon="38.810405"><ele>123.3</ele><time>2024-01-10T05:29:18Z</time></trkpt><trkpt lat="58.05687" lon="38.81028"><ele>122.4</ele><time>2024-01-10T05:29:20Z</time></trkpt><trkpt lat="58.056935" lon="38.810215"><ele>122.2</ele><time>2024-01-10T05:29:23Z</time></trkpt><trkpt lat="58.05694" lon="38.810345"><ele>133.2</ele><time>2024-01-10T05:34:32Z</time></trkpt><trkpt lat="58.05693" lon="38.810325"><ele>125.2</ele><time>2024-01-10T05:34:39Z</time></trkpt><trkpt lat="58.05692" lon="38.81034"><ele>130.0</ele><time>2024-01-10T05:34:46Z</time></trkpt><trkpt lat="58.05692" lon="38.81034"><ele>131.2</ele><time>2024-01-10T05:34:50Z</time></trkpt><trkpt lat="58.056855" lon="38.810325"><ele>132.4</ele><time>2024-01-10T05:35:20Z</time></trkpt><trkpt lat="58.056792" lon="38.810355"><ele>133.4</ele><time>2024-01-10T05:35:27Z</time></trkpt><trkpt lat="58.056765" lon="38.8105"><ele>129.6</ele><time>2024-01-10T05:35:34Z</time></trkpt><trkpt lat="58.05676" lon="38.81067"><ele>128.7</ele><time>2024-01-10T05:35:38Z</time></trkpt><trkpt lat="58.056745" lon="38.810815"><ele>129.9</ele><time>2024-01-10T05:35:42Z</time></trkpt><trkpt lat="58.05669" lon="38.810917"><ele>130.2</ele><time>2024-01-10T05:35:47Z</time></trkpt><trkpt lat="58.056695" lon="38.811078"><ele>135.9</ele><time>2024-01-10T05:35:51Z</time></trkpt><trkpt lat="58.056737" lon="38.811227"><ele>141.7</ele><time>2024-01-10T05:35:56Z</time></trkpt><trkpt lat="58.056797" lon="38.811325"><ele>145.2</ele><time>2024-01-10T05:36:01Z</time></trkpt><trkpt lat="58.05684" lon="38.811477"><ele>142.3</ele><time>2024-01-10T05:36:05Z</time></trkpt><trkpt lat="58.05683" lon="38.811617"><ele>146.4</ele><time>2024-01-10T05:36:12Z</time></trkpt><trkpt lat="58.05683" lon="38.811753"><ele>149.2</ele><time>2024-01-10T05:36:18Z</time></trkpt><trkpt lat="58.056825" lon="38.811902"><ele>148.7</ele><time>2024-01-10T05:36:24Z</time></trkpt><trkpt lat="58.056747" lon="38.812022"><ele>148.4</ele><time>2024-01-10T05:36:29Z</time></trkpt><trkpt lat="58.0567" lon="38.812122"><ele>137.0</ele><time>2024-01-10T05:36:35Z</time></trkpt><trkpt lat="58.056712" lon="38.81226"><ele>135.5</ele><time>2024-01-10T05:36:39Z</time></trkpt><trkpt lat="58.05671" lon="38.812402"><ele>136.1</ele><time>2024-01-10T05:36:43Z</time></trkpt><trkpt lat="58.05668" lon="38.81254"><ele>136.0</ele><time>2024-01-10T05:36:49Z</time></trkpt><trkpt lat="58.056657" lon="38.812668"><ele>137.2</ele><time>2024-01-10T05:36:54Z</time></trkpt><trkpt lat="58.056685" lon="38.81284"><ele>141.7</ele><time>2024-01-10T05:36:58Z</time></trkpt><trkpt lat="58.05675" lon="38.812962"><ele>142.0</ele><time>2024-01-10T05:37:05Z</time></trkpt><trkpt lat="58.056842" lon="38.812937"><ele>145.0</ele><time>2024-01-10T05:37:11Z</time></trkpt><trkpt lat="58.05684" lon="38.8131"><ele>148.1</ele><time>2024-01-10T05:37:17Z</time></trkpt><trkpt lat="58.056795" lon="38.813245"><ele>145.5</ele><time>2024-01-10T05:37:20Z</time></trkpt><trkpt lat="58.05675" lon="38.81338"><ele>148.7</ele><time>2024-01-10T05:37:24Z</time></trkpt><trkpt lat="58.056705" lon="38.81356"><ele>150.4</ele><time>2024-01-10T05:37:28Z</time></trkpt><trkpt lat="58.05668" lon="38.813695"><ele>141.0</ele><time>2024-01-10T05:37:32Z</time></trkpt><trkpt lat="58.056665" lon="38.81383"><ele>133.8</ele><time>2024-01-10T05:37:39Z</time></trkpt><trkpt lat="58.056605" lon="38.81394"><ele>133.3</ele><time>2024-01-10T05:37:45Z</time></trkpt><trkpt lat="58.056577" lon="38.8141"><ele>140.1</ele><time>2024-01-10T05:37:51Z</time></trkpt><trkpt lat="58.05657" lon="38.814235"><ele>140.5</ele><time>2024-01-10T05:37:56Z</time></trkpt><trkpt lat="58.056562" lon="38.81438"><ele>140.4</ele><time>2024-01-10T05:38:01Z</time></trkpt><trkpt lat="58.056635" lon="38.814482"><ele>149.6</ele><time>2024-01-10T05:38:07Z</time></trkpt><trkpt lat="58.056728" lon="38.81449"><ele>148.3</ele><time>2024-01-10T05:38:10Z</time></trkpt><trkpt lat="58.05672" lon="38.814662"><ele>149.6</ele><time>2024-01-10T05:38:16Z</time></trkpt><trkpt lat="58.056687" lon="38.8148"><ele>147.8</ele><time>2024-01-10T05:38:21Z</time></trkpt><trkpt lat="58.056642" lon="38.814933"><ele>140.8</ele><time>2024-01-10T05:38:27Z</time></trkpt><trkpt lat="58.056593" lon="38.815037"><ele>129.4</ele><time>2024-01-10T05:38:33Z</time></trkpt><trkpt lat="58.056517" lon="38.815075"><ele>130.6</ele><time>2024-01-10T05:38:39Z</time></trkpt><trkpt lat="58.05649" lon="38.81523"><ele>131.5</ele><time>2024-01-10T05:38:44Z</time></trkpt><trkpt lat="58.05649" lon="38.815395"><ele>132.9</ele><time>2024-01-10T05:38:47Z</time></trkpt><trkpt lat="58.056503" lon="38.81555"><ele>136.3</ele><time>2024-01-10T05:38:52Z</time></trkpt><trkpt lat="58.056562" lon="38.815635"><ele>141.7</ele><time>2024-01-10T05:38:56Z</time></trkpt><trkpt lat="58.056565" lon="38.81579"><ele>142.0</ele><time>2024-01-10T05:39:03Z</time></trkpt><trkpt lat="58.056605" lon="38.81589"><ele>135.1</ele><time>2024-01-10T05:39:10Z</time></trkpt><trkpt lat="58.056585" lon="38.816035"><ele>137.6</ele><time>2024-01-10T05:39:16Z</time></trkpt><trkpt lat="58.05662" lon="38.816158"><ele>142.6</ele><time>2024-01-10T05:39:22Z</time></trkpt><trkpt lat="58.05656" lon="38.816255"><ele>139.2</ele><time>2024-01-10T05:39:26Z</time></trkpt><trkpt lat="58.056545" lon="38.816355"><ele>127.2</ele><time>2024-01-10T05:39:33Z</time></trkpt><trkpt lat="58.05657" lon="38.8165"><ele>127.1</ele><time>2024-01-10T05:39:39Z</time></trkpt><trkpt lat="58.056645" lon="38.81653"><ele>128.2</ele><time>2024-01-10T05:39:44Z</time></trkpt><trkpt lat="58.05672" lon="38.81651"><ele>124.5</ele><time>2024-01-10T05:39:47Z</time></trkpt><trkpt lat="58.056795" lon="38.81649"><ele>119.4</ele><time>2024-01-10T05:39:53Z</time></trkpt><trkpt lat="58.056862" lon="38.816453"><ele>113.7</ele><time>2024-01-10T05:40:00Z</time></trkpt><trkpt lat="58.0569" lon="38.816425"><ele>117.6</ele><time>2024-01-10T05:40:07Z</time></trkpt><trkpt lat="58.056605" lon="38.815103"><ele>111.4</ele><time>2024-01-10T05:46:08Z</time></trkpt><trkpt lat="58.056625" lon="38.815242"><ele>119.8</ele><time>2024-01-10T05:46:13Z</time></trkpt><trkpt lat="58.056642" lon="38.81538"><ele>124.8</ele><time>2024-01-10T05:46:18Z</time></trkpt><trkpt lat="58.056665" lon="38.81551"><ele>126.7</ele><time>2024-01-10T05:46:23Z</time></trkpt><trkpt lat="58.056692" lon="38.81554"><ele>125.2</ele><time>2024-01-10T05:46:30Z</time></trkpt><trkpt lat="58.056727" lon="38.81563"><ele>129.7</ele><time>2024-01-10T05:46:37Z</time></trkpt><trkpt lat="58.05675" lon="38.81573"><ele>134.1</ele><time>2024-01-10T05:46:44Z</time></trkpt><trkpt lat="58.056752" lon="38.8158"><ele>135.4</ele><time>2024-01-10T05:46:51Z</time></trkpt><trkpt lat="58.056675" lon="38.815807"><ele>140.2</ele><time>2024-01-10T05:46:58Z</time></trkpt><trkpt lat="58.056655" lon="38.815805"><ele>147.2</ele><time>2024-01-10T05:47:05Z</time></trkpt><trkpt lat="58.05672" lon="38.815927"><ele>159.4</ele><time>2024-01-10T05:47:12Z</time></trkpt><trkpt lat="58.056595" lon="38.8162"><ele>146.5</ele><time>2024-01-10T05:47:14Z</time></trkpt><trkpt lat="58.056675" lon="38.816205"><ele>143.7</ele><time>2024-01-10T05:47:16Z</time></trkpt><trkpt lat="58.05674" lon="38.816097"><ele>146.2</ele><time>2024-01-10T05:47:19Z</time></trkpt><trkpt lat="58.056745" lon="38.81596"><ele>136.4</ele><time>2024-01-10T05:47:22Z</time></trkpt><trkpt lat="58.056765" lon="38.81583"><ele>133.2</ele><time>2024-01-10T05:47:28Z</time></trkpt><trkpt lat="58.056765" lon="38.81567"><ele>129.7</ele><time>2024-01-10T05:47:34Z</time></trkpt><trkpt lat="58.056795" lon="38.81553"><ele>125.5</ele><time>2024-01-10T05:47:41Z</time></trkpt><trkpt lat="58.056802" lon="38.81539"><ele>123.9</ele><time>2024-01-10T05:47:47Z</time></trkpt><trkpt lat="58.056825" lon="38.815265"><ele>120.7</ele><time>2024-01-10T05:47:54Z</time></trkpt><trkpt lat="58.056837" lon="38.815125"><ele>120.3</ele><time>2024-01-10T05:48:00Z</time></trkpt><trkpt lat="58.05685" lon="38.814982"><ele>119.0</ele><time>2024-01-10T05:48:07Z</time></trkpt><trkpt lat="58.056867" lon="38.81483"><ele>117.8</ele><time>2024-01-10T05:48:14Z</time></trkpt><trkpt lat="58.0569" lon="38.814695"><ele>116.5</ele><time>2024-01-10T05:48:21Z</time></trkpt><trkpt lat="58.05695" lon="38.814585"><ele>117.7</ele><time>2024-01-10T05:48:27Z</time></trkpt><trkpt lat="58.05699" lon="38.81447"><ele>112.2</ele><time>2024-01-10T05:48:33Z</time></trkpt><trkpt lat="58.057022" lon="38.81434"><ele>113.8</ele><time>2024-01-10T05:48:39Z</time></trkpt><trkpt lat="58.057042" lon="38.814205"><ele>114.0</ele><time>2024-01-10T05:48:45Z</time></trkpt><trkpt lat="58.057037" lon="38.81406"><ele>117.2</ele><time>2024-01-10T05:48:50Z</time></trkpt><trkpt lat="58.05706" lon="38.813905"><ele>117.4</ele><time>2024-01-10T05:48:57Z</time></trkpt><trkpt lat="58.05707" lon="38.813755"><ele>117.4</ele><time>2024-01-10T05:49:03Z</time></trkpt><trkpt lat="58.057085" lon="38.81361"><ele>116.8</ele><time>2024-01-10T05:49:08Z</time></trkpt><trkpt lat="58.057098" lon="38.81348"><ele>117.2</ele><time>2024-01-10T05:49:14Z</time></trkpt><trkpt lat="58.057125" lon="38.813343"><ele>115.2</ele><time>2024-01-10T05:49:20Z</time></trkpt><trkpt lat="58.057145" lon="38.813202"><ele>113.3</ele><time>2024-01-10T05:49:26Z</time></trkpt><trkpt lat="58.057155" lon="38.813055"><ele>112.8</ele><time>2024-01-10T05:49:32Z</time></trkpt><trkpt lat="58.057182" lon="38.81292"><ele>113.8</ele><time>2024-01-10T05:49:38Z</time></trkpt><trkpt lat="58.05721" lon="38.812765"><ele>114.2</ele><time>2024-01-10T05:49:44Z</time></trkpt><trkpt lat="58.057225" lon="38.812607"><ele>112.5</ele><time>2024-01-10T05:49:50Z</time></trkpt><trkpt lat="58.057225" lon="38.81247"><ele>114.1</ele><time>2024-01-10T05:49:55Z</time></trkpt><trkpt lat="58.057225" lon="38.81233"><ele>114.0</ele><time>2024-01-10T05:50:00Z</time></trkpt><trkpt lat="58.05724" lon="38.812195"><ele>116.2</ele><time>2024-01-10T05:50:06Z</time></trkpt><trkpt lat="58.057252" lon="38.812057"><ele>116.7</ele><time>2024-01-10T05:50:12Z</time></trkpt><trkpt lat="58.057245" lon="38.811902"><ele>116.7</ele><time>2024-01-10T05:50:18Z</time></trkpt><trkpt lat="58.057247" lon="38.81175"><ele>116.8</ele><time>2024-01-10T05:50:24Z</time></trkpt><trkpt lat="58.05724" lon="38.811613"><ele>119.0</ele><time>2024-01-10T05:50:29Z</time></trkpt><trkpt lat="58.057265" lon="38.81147"><ele>117.3</ele><time>2024-01-10T05:50:35Z</time></trkpt><trkpt lat="58.057268" lon="38.811303"><ele>116.0</ele><time>2024-01-10T05:50:41Z</time></trkpt><trkpt lat="58.057295" lon="38.81117"><ele>115.6</ele><time>2024-01-10T05:50:47Z</time></trkpt><trkpt lat="58.05731" lon="38.811037"><ele>114.0</ele><time>2024-01-10T05:50:53Z</time></trkpt><trkpt lat="58.05737" lon="38.810957"><ele>115.2</ele><time>2024-01-10T05:51:00Z</time></trkpt><trkpt lat="58.05744" lon="38.811005"><ele>114.2</ele><time>2024-01-10T05:51:05Z</time></trkpt><trkpt lat="58.057497" lon="38.810875"><ele>115.0</ele><time>2024-01-10T05:51:12Z</time></trkpt><trkpt lat="58.057575" lon="38.810847"><ele>111.7</ele><time>2024-01-10T05:51:19Z</time></trkpt><trkpt lat="58.05766" lon="38.810847"><ele>112.7</ele><time>2024-01-10T05:51:26Z</time></trkpt><trkpt lat="58.057735" lon="38.8109"><ele>111.4</ele><time>2024-01-10T05:51:33Z</time></trkpt><trkpt lat="58.05776" lon="38.810957"><ele>109.3</ele><time>2024-01-10T05:51:40Z</time></trkpt><trkpt lat="58.057865" lon="38.811012"><ele>107.2</ele><time>2024-01-10T05:51:46Z</time></trkpt><trkpt lat="58.057962" lon="38.811035"><ele>107.9</ele><time>2024-01-10T05:51:50Z</time></trkpt><trkpt lat="58.058035" lon="38.811007"><ele>107.9</ele><time>2024-01-10T05:51:55Z</time></trkpt><trkpt lat="58.05811" lon="38.81103"><ele>109.8</ele><time>2024-01-10T05:52:00Z</time></trkpt><trkpt lat="58.058125" lon="38.810895"><ele>111.3</ele><time>2024-01-10T05:52:05Z</time></trkpt><trkpt lat="58.05816" lon="38.810762"><ele>114.6</ele><time>2024-01-10T05:52:08Z</time></trkpt><trkpt lat="58.058225" lon="38.810875"><ele>112.3</ele><time>2024-01-10T05:52:11Z</time></trkpt><trkpt lat="58.058275" lon="38.81098"><ele>112.9</ele><time>2024-01-10T05:52:13Z</time></trkpt><trkpt lat="58.058357" lon="38.81106"><ele>113.3</ele><time>2024-01-10T05:52:16Z</time></trkpt><trkpt lat="58.058405" lon="38.810935"><ele>115.0</ele><time>2024-01-10T05:52:20Z</time></trkpt><trkpt lat="58.058425" lon="38.810792"><ele>114.7</ele><time>2024-01-10T05:52:22Z</time></trkpt><trkpt lat="58.058385" lon="38.81068"><ele>115.5</ele><time>2024-01-10T05:52:26Z</time></trkpt><trkpt lat="58.05835" lon="38.810555"><ele>115.4</ele><time>2024-01-10T05:52:31Z</time></trkpt><trkpt lat="58.058392" lon="38.81045"><ele>114.3</ele><time>2024-01-10T05:52:38Z</time></trkpt><trkpt lat="58.05844" lon="38.81044"><ele>110.4</ele><time>2024-01-10T05:52:45Z</time></trkpt><trkpt lat="58.05847" lon="38.81034"><ele>109.8</ele><time>2024-01-10T05:52:52Z</time></trkpt><trkpt lat="58.05848" lon="38.810175"><ele>114.0</ele><time>2024-01-10T05:52:57Z</time></trkpt><trkpt lat="58.05849" lon="38.81002"><ele>115.3</ele><time>2024-01-10T05:53:01Z</time></trkpt><trkpt lat="58.0585" lon="38.80988"><ele>117.0</ele><time>2024-01-10T05:53:06Z</time></trkpt><trkpt lat="58.058505" lon="38.80972"><ele>116.5</ele><time>2024-01-10T05:53:11Z</time></trkpt><trkpt lat="58.058535" lon="38.809585"><ele>116.9</ele><time>2024-01-10T05:53:16Z</time></trkpt><trkpt lat="58.058535" lon="38.809437"><ele>119.4</ele><time>2024-01-10T05:53:21Z</time></trkpt><trkpt lat="58.05854" lon="38.80929"><ele>120.4</ele><time>2024-01-10T05:53:27Z</time></trkpt><trkpt lat="58.058555" lon="38.809145"><ele>119.0</ele><time>2024-01-10T05:53:33Z</time></trkpt><trkpt lat="58.058585" lon="38.808997"><ele>119.4</ele><time>2024-01-10T05:53:39Z</time></trkpt><trkpt lat="58.058585" lon="38.80886"><ele>119.3</ele><time>2024-01-10T05:53:45Z</time></trkpt><trkpt lat="58.05859" lon="38.808725"><ele>116.8</ele><time>2024-01-10T05:53:52Z</time></trkpt><trkpt lat="58.05852" lon="38.808747"><ele>117.1</ele><time>2024-01-10T05:53:53Z</time></trkpt><trkpt lat="58.058555" lon="38.80862"><ele>115.5</ele><time>2024-01-10T05:53:58Z</time></trkpt><trkpt lat="58.05857" lon="38.80847"><ele>116.8</ele><time>2024-01-10T05:54:03Z</time></trkpt><trkpt lat="58.05859" lon="38.808305"><ele>118.6</ele><time>2024-01-10T05:54:09Z</time></trkpt><trkpt lat="58.058613" lon="38.80815"><ele>118.7</ele><time>2024-01-10T05:54:15Z</time></trkpt><trkpt lat="58.05866" lon="38.808017"><ele>117.5</ele><time>2024-01-10T05:54:20Z</time></trkpt><trkpt lat="58.05868" lon="38.807885"><ele>117.5</ele><time>2024-01-10T05:54:26Z</time></trkpt><trkpt lat="58.058715" lon="38.807765"><ele>114.1</ele><time>2024-01-10T05:54:33Z</time></trkpt><trkpt lat="58.05871" lon="38.807735"><ele>116.9</ele><time>2024-01-10T05:54:40Z</time></trkpt><trkpt lat="58.058685" lon="38.807675"><ele>119.8</ele><time>2024-01-10T05:54:47Z</time></trkpt></trkseg></trk></gpx>