<?xml version="1.0" encoding="UTF-8" standalone="no"?><gpx xmlns="http://www.topografix.com/GPX/1/1" xmlns:gpxtpx="http://www.garmin.com/xmlschemas/TrackPointExtension/v1" xmlns:xsi="http://www.w3.org/2001/XMLSchema-instance" creator="Sports Tracker" version="1.1" xsi:schemaLocation="http://www.topografix.com/GPX/1/1 http://www.topografix.com/GPX/1/1/gpx.xsd http://www.garmin.com/xmlschemas/TrackPointExtension/v1 http://www.garmin.com/xmlschemas/TrackPointExtensionv1.xsd"><metadata><name>29.12.2024 12:31</name><desc/><author><name>Александр</name></author></metadata><trk><name>29.12.2024 12:31</name><trkseg><trkpt lat="58.019715" lon="38.854125"><ele>110.1</ele><time>2024-12-29T09:31:10Z</time></trkpt><trkpt lat="58.01959" lon="38.853982"><ele>115.7</ele><time>2024-12-29T09:31:12Z</time></trkpt><trkpt lat="58.01952" lon="38.85391"><ele>115.3</ele><time>2024-12-29T09:31:14Z</time></trkpt><trkpt lat="58.019458" lon="38.853832"><ele>115.4</ele><time>2024-12-29T09:31:16Z</time></trkpt><trkpt lat="58.019427" lon="38.85379"><ele>115.1</ele><time>2024-12-29T09:31:23Z</time></trkpt><trkpt lat="58.019495" lon="38.853675"><ele>115.8</ele><time>2024-12-29T09:31:27Z</time></trkpt><trkpt lat="58.019592" lon="38.85365"><ele>117.0</ele><time>2024-12-29T09:31:30Z</time></trkpt><trkpt lat="58.019675" lon="38.853625"><ele>116.9</ele><time>2024-12-29T09:31:35Z</time></trkpt><trkpt lat="58.019722" lon="38.853673"><ele>116.5</ele><time>2024-12-29T09:31:42Z</time></trkpt><trkpt lat="58.019737" lon="38.85349"><ele>115.2</ele><time>2024-12-29T09:31:45Z</time></trkpt><trkpt lat="58.019735" lon="38.85335"><ele>115.0</ele><time>2024-12-29T09:31:47Z</time></trkpt><trkpt lat="58.019745" lon="38.853205"><ele>114.2</ele><time>2024-12-29T09:31:50Z</time></trkpt><trkpt lat="58.019837" lon="38.853125"><ele>113.4</ele><time>2024-12-29T09:31:53Z</time></trkpt><trkpt lat="58.01988" lon="38.853002"><ele>112.0</ele><time>2024-12-29T09:31:55Z</time></trkpt><trkpt lat="58.019892" lon="38.852855"><ele>112.1</ele><time>2024-12-29T09:31:57Z</time></trkpt><trkpt lat="58.01987" lon="38.85298"><ele>113.6</ele><time>2024-12-29T09:32:04Z</time></trkpt><trkpt lat="58.019835" lon="38.853132"><ele>113.6</ele><time>2024-12-29T09:32:07Z</time></trkpt><trkpt lat="58.019747" lon="38.853205"><ele>113.6</ele><time>2024-12-29T09:32:10Z</time></trkpt><trkpt lat="58.019702" lon="38.853325"><ele>113.4</ele><time>2024-12-29T09:32:13Z</time></trkpt><trkpt lat="58.01968" lon="38.85347"><ele>114.0</ele><time>2024-12-29T09:32:17Z</time></trkpt><trkpt lat="58.019655" lon="38.853625"><ele>112.6</ele><time>2024-12-29T09:32:20Z</time></trkpt><trkpt lat="58.01962" lon="38.853755"><ele>112.2</ele><time>2024-12-29T09:32:22Z</time></trkpt><trkpt lat="58.01957" lon="38.853925"><ele>111.9</ele><time>2024-12-29T09:32:25Z</time></trkpt><trkpt lat="58.01953" lon="38.854102"><ele>113.6</ele><time>2024-12-29T09:32:28Z</time></trkpt><trkpt lat="58.019495" lon="38.85429"><ele>113.5</ele><time>2024-12-29T09:32:31Z</time></trkpt><trkpt lat="58.01947" lon="38.854472"><ele>114.6</ele><time>2024-12-29T09:32:34Z</time></trkpt><trkpt lat="58.01947" lon="38.854642"><ele>115.5</ele><time>2024-12-29T09:32:37Z</time></trkpt><trkpt lat="58.019535" lon="38.854705"><ele>115.1</ele><time>2024-12-29T09:32:40Z</time></trkpt><trkpt lat="58.019605" lon="38.85474"><ele>114.8</ele><time>2024-12-29T09:32:43Z</time></trkpt><trkpt lat="58.019592" lon="38.85482"><ele>121.6</ele><time>2024-12-29T09:32:50Z</time></trkpt><trkpt lat="58.0195" lon="38.854785"><ele>120.0</ele><time>2024-12-29T09:32:54Z</time></trkpt><trkpt lat="58.01942" lon="38.854775"><ele>120.7</ele><time>2024-12-29T09:32:57Z</time></trkpt><trkpt lat="58.019345" lon="38.854797"><ele>120.1</ele><time>2024-12-29T09:32:59Z</time></trkpt><trkpt lat="58.019245" lon="38.854885"><ele>119.3</ele><time>2024-12-29T09:33:02Z</time></trkpt><trkpt lat="58.0192" lon="38.854995"><ele>120.3</ele><time>2024-12-29T09:33:04Z</time></trkpt><trkpt lat="58.019245" lon="38.854883"><ele>117.9</ele><time>2024-12-29T09:33:10Z</time></trkpt><trkpt lat="58.01928" lon="38.854755"><ele>117.0</ele><time>2024-12-29T09:33:13Z</time></trkpt><trkpt lat="58.01931" lon="38.85462"><ele>114.5</ele><time>2024-12-29T09:33:16Z</time></trkpt><trkpt lat="58.019345" lon="38.854465"><ele>113.8</ele><time>2024-12-29T09:33:19Z</time></trkpt><trkpt lat="58.019405" lon="38.854342"><ele>113.8</ele><time>2024-12-29T09:33:22Z</time></trkpt><trkpt lat="58.019485" lon="38.854267"><ele>108.3</ele><time>2024-12-29T09:33:25Z</time></trkpt><trkpt lat="58.01956" lon="38.85418"><ele>105.0</ele><time>2024-12-29T09:33:28Z</time></trkpt><trkpt lat="58.01963" lon="38.854075"><ele>104.2</ele><time>2024-12-29T09:33:33Z</time></trkpt><trkpt lat="58.019695" lon="38.85398"><ele>106.9</ele><time>2024-12-29T09:33:35Z</time></trkpt><trkpt lat="58.019757" lon="38.853855"><ele>107.4</ele><time>2024-12-29T09:33:37Z</time></trkpt><trkpt lat="58.019815" lon="38.853742"><ele>108.1</ele><time>2024-12-29T09:33:39Z</time></trkpt><trkpt lat="58.01988" lon="38.85364"><ele>108.8</ele><time>2024-12-29T09:33:41Z</time></trkpt><trkpt lat="58.019957" lon="38.853512"><ele>108.1</ele><time>2024-12-29T09:33:44Z</time></trkpt><trkpt lat="58.020015" lon="38.853428"><ele>109.4</ele><time>2024-12-29T09:33:47Z</time></trkpt><trkpt lat="58.019935" lon="38.85337"><ele>110.0</ele><time>2024-12-29T09:33:51Z</time></trkpt><trkpt lat="58.01984" lon="38.853335"><ele>112.8</ele><time>2024-12-29T09:33:55Z</time></trkpt><trkpt lat="58.019765" lon="38.853287"><ele>112.9</ele><time>2024-12-29T09:33:58Z</time></trkpt><trkpt lat="58.01971" lon="38.853175"><ele>112.5</ele><time>2024-12-29T09:34:02Z</time></trkpt><trkpt lat="58.01968" lon="38.85319"><ele>112.7</ele><time>2024-12-29T09:34:09Z</time></trkpt><trkpt lat="58.01976" lon="38.853255"><ele>111.7</ele><time>2024-12-29T09:34:12Z</time></trkpt><trkpt lat="58.019682" lon="38.853305"><ele>112.6</ele><time>2024-12-29T09:34:17Z</time></trkpt><trkpt lat="58.01961" lon="38.853277"><ele>113.0</ele><time>2024-12-29T09:34:19Z</time></trkpt><trkpt lat="58.01951" lon="38.853255"><ele>113.7</ele><time>2024-12-29T09:34:22Z</time></trkpt><trkpt lat="58.019405" lon="38.85323"><ele>114.3</ele><time>2024-12-29T09:34:25Z</time></trkpt><trkpt lat="58.019342" lon="38.853145"><ele>115.0</ele><time>2024-12-29T09:34:28Z</time></trkpt><trkpt lat="58.01934" lon="38.852977"><ele>115.3</ele><time>2024-12-29T09:34:31Z</time></trkpt><trkpt lat="58.01932" lon="38.852815"><ele>114.6</ele><time>2024-12-29T09:34:34Z</time></trkpt><trkpt lat="58.0193" lon="38.852645"><ele>114.7</ele><time>2024-12-29T09:34:37Z</time></trkpt><trkpt lat="58.019303" lon="38.852505"><ele>114.8</ele><time>2024-12-29T09:34:40Z</time></trkpt><trkpt lat="58.01932" lon="38.852652"><ele>115.2</ele><time>2024-12-29T09:34:46Z</time></trkpt><trkpt lat="58.019285" lon="38.852787"><ele>113.1</ele><time>2024-12-29T09:34:52Z</time></trkpt><trkpt lat="58.019272" lon="38.85296"><ele>110.7</ele><time>2024-12-29T09:34:56Z</time></trkpt><trkpt lat="58.019252" lon="38.853105"><ele>110.6</ele><time>2024-12-29T09:34:58Z</time></trkpt><trkpt lat="58.019232" lon="38.85324"><ele>111.3</ele><time>2024-12-29T09:35:00Z</time></trkpt><trkpt lat="58.019213" lon="38.85342"><ele>111.6</ele><time>2024-12-29T09:35:03Z</time></trkpt><trkpt lat="58.019202" lon="38.853588"><ele>110.7</ele><time>2024-12-29T09:35:06Z</time></trkpt><trkpt lat="58.019182" lon="38.85376"><ele>110.8</ele><time>2024-12-29T09:35:09Z</time></trkpt><trkpt lat="58.019165" lon="38.853925"><ele>111.8</ele><time>2024-12-29T09:35:12Z</time></trkpt><trkpt lat="58.01912" lon="38.85405"><ele>114.2</ele><time>2024-12-29T09:35:15Z</time></trkpt><trkpt lat="58.019167" lon="38.854155"><ele>115.5</ele><time>2024-12-29T09:35:20Z</time></trkpt><trkpt lat="58.019242" lon="38.854242"><ele>116.0</ele><time>2024-12-29T09:35:24Z</time></trkpt><trkpt lat="58.019295" lon="38.854335"><ele>116.2</ele><time>2024-12-29T09:35:27Z</time></trkpt><trkpt lat="58.019325" lon="38.854475"><ele>116.7</ele><time>2024-12-29T09:35:30Z</time></trkpt><trkpt lat="58.01935" lon="38.854632"><ele>116.3</ele><time>2024-12-29T09:35:33Z</time></trkpt><trkpt lat="58.019367" lon="38.854795"><ele>116.2</ele><time>2024-12-29T09:35:36Z</time></trkpt><trkpt lat="58.019395" lon="38.85496"><ele>116.8</ele><time>2024-12-29T09:35:39Z</time></trkpt><trkpt lat="58.01942" lon="38.85511"><ele>117.1</ele><time>2024-12-29T09:35:42Z</time></trkpt><trkpt lat="58.019412" lon="38.85526"><ele>116.9</ele><time>2024-12-29T09:35:45Z</time></trkpt><trkpt lat="58.019407" lon="38.855395"><ele>116.8</ele><time>2024-12-29T09:35:48Z</time></trkpt><trkpt lat="58.019495" lon="38.855455"><ele>115.0</ele><time>2024-12-29T09:35:51Z</time></trkpt><trkpt lat="58.01957" lon="38.85545"><ele>114.2</ele><time>2024-12-29T09:35:53Z</time></trkpt><trkpt lat="58.019665" lon="38.85539"><ele>113.3</ele><time>2024-12-29T09:35:56Z</time></trkpt><trkpt lat="58.01974" lon="38.855427"><ele>113.7</ele><time>2024-12-29T09:36:00Z</time></trkpt><trkpt lat="58.019817" lon="38.855492"><ele>113.0</ele><time>2024-12-29T09:36:03Z</time></trkpt><trkpt lat="58.019903" lon="38.85551"><ele>113.4</ele><time>2024-12-29T09:36:06Z</time></trkpt><trkpt lat="58.019985" lon="38.855515"><ele>114.0</ele><time>2024-12-29T09:36:09Z</time></trkpt><trkpt lat="58.020065" lon="38.855535"><ele>115.3</ele><time>2024-12-29T09:36:13Z</time></trkpt><trkpt lat="58.02011" lon="38.85539"><ele>115.3</ele><time>2024-12-29T09:36:18Z</time></trkpt><trkpt lat="58.020125" lon="38.855247"><ele>115.5</ele><time>2024-12-29T09:36:21Z</time></trkpt><trkpt lat="58.02014" lon="38.8551"><ele>115.3</ele><time>2024-12-29T09:36:24Z</time></trkpt><trkpt lat="58.020137" lon="38.854935"><ele>114.4</ele><time>2024-12-29T09:36:27Z</time></trkpt><trkpt lat="58.02014" lon="38.854785"><ele>113.7</ele><time>2024-12-29T09:36:30Z</time></trkpt><trkpt lat="58.020142" lon="38.854635"><ele>114.3</ele><time>2024-12-29T09:36:33Z</time></trkpt><trkpt lat="58.020132" lon="38.854475"><ele>113.8</ele><time>2024-12-29T09:36:36Z</time></trkpt><trkpt lat="58.020105" lon="38.85432"><ele>114.0</ele><time>2024-12-29T09:36:39Z</time></trkpt><trkpt lat="58.020065" lon="38.85416"><ele>113.9</ele><time>2024-12-29T09:36:42Z</time></trkpt><trkpt lat="58.020035" lon="38.854005"><ele>115.2</ele><time>2024-12-29T09:36:45Z</time></trkpt><trkpt lat="58.020005" lon="38.85403"><ele>113.9</ele><time>2024-12-29T09:36:52Z</time></trkpt><trkpt lat="58.01993" lon="38.854075"><ele>114.0</ele><time>2024-12-29T09:36:59Z</time></trkpt><trkpt lat="58.01987" lon="38.85416"><ele>111.6</ele><time>2024-12-29T09:37:03Z</time></trkpt><trkpt lat="58.019785" lon="38.85424"><ele>110.9</ele><time>2024-12-29T09:37:07Z</time></trkpt><trkpt lat="58.019705" lon="38.85429"><ele>110.4</ele><time>2024-12-29T09:37:10Z</time></trkpt><trkpt lat="58.01962" lon="38.854315"><ele>110.9</ele><time>2024-12-29T09:37:13Z</time></trkpt><trkpt lat="58.019527" lon="38.854315"><ele>111.2</ele><time>2024-12-29T09:37:16Z</time></trkpt><trkpt lat="58.019457" lon="38.85438"><ele>111.4</ele><time>2024-12-29T09:37:19Z</time></trkpt><trkpt lat="58.019395" lon="38.854495"><ele>111.5</ele><time>2024-12-29T09:37:22Z</time></trkpt><trkpt lat="58.01932" lon="38.854595"><ele>111.2</ele><time>2024-12-29T09:37:25Z</time></trkpt><trkpt lat="58.019245" lon="38.854658"><ele>111.7</ele><time>2024-12-29T09:37:28Z</time></trkpt><trkpt lat="58.019172" lon="38.854737"><ele>112.3</ele><time>2024-12-29T09:37:31Z</time></trkpt><trkpt lat="58.019095" lon="38.854795"><ele>112.7</ele><time>2024-12-29T09:37:34Z</time></trkpt><trkpt lat="58.01909" lon="38.854952"><ele>113.1</ele><time>2024-12-29T09:37:37Z</time></trkpt><trkpt lat="58.019085" lon="38.85509"><ele>115.5</ele><time>2024-12-29T09:37:40Z</time></trkpt><trkpt lat="58.019063" lon="38.855225"><ele>115.5</ele><time>2024-12-29T09:37:43Z</time></trkpt><trkpt lat="58.01903" lon="38.85539"><ele>117.7</ele><time>2024-12-29T09:37:47Z</time></trkpt><trkpt lat="58.019102" lon="38.85544"><ele>115.8</ele><time>2024-12-29T09:37:53Z</time></trkpt><trkpt lat="58.01919" lon="38.855447"><ele>115.1</ele><time>2024-12-29T09:37:59Z</time></trkpt><trkpt lat="58.019265" lon="38.855402"><ele>115.2</ele><time>2024-12-29T09:38:05Z</time></trkpt><trkpt lat="58.019285" lon="38.855247"><ele>113.6</ele><time>2024-12-29T09:38:11Z</time></trkpt><trkpt lat="58.019297" lon="38.85509"><ele>114.1</ele><time>2024-12-29T09:38:15Z</time></trkpt><trkpt lat="58.01931" lon="38.85494"><ele>114.3</ele><time>2024-12-29T09:38:18Z</time></trkpt><trkpt lat="58.019315" lon="38.85477"><ele>114.7</ele><time>2024-12-29T09:38:21Z</time></trkpt><trkpt lat="58.01932" lon="38.854612"><ele>114.3</ele><time>2024-12-29T09:38:24Z</time></trkpt><trkpt lat="58.019302" lon="38.854455"><ele>114.4</ele><time>2024-12-29T09:38:27Z</time></trkpt><trkpt lat="58.019288" lon="38.854285"><ele>113.5</ele><time>2024-12-29T09:38:30Z</time></trkpt><trkpt lat="58.01925" lon="38.85412"><ele>111.9</ele><time>2024-12-29T09:38:34Z</time></trkpt><trkpt lat="58.019265" lon="38.853935"><ele>112.5</ele><time>2024-12-29T09:38:39Z</time></trkpt><trkpt lat="58.019265" lon="38.853735"><ele>111.4</ele><time>2024-12-29T09:38:42Z</time></trkpt><trkpt lat="58.01927" lon="38.85354"><ele>111.2</ele><time>2024-12-29T09:38:45Z</time></trkpt><trkpt lat="58.019275" lon="38.853405"><ele>111.4</ele><time>2024-12-29T09:38:47Z</time></trkpt><trkpt lat="58.019288" lon="38.853265"><ele>112.5</ele><time>2024-12-29T09:38:49Z</time></trkpt><trkpt lat="58.019312" lon="38.853095"><ele>112.4</ele><time>2024-12-29T09:38:52Z</time></trkpt><trkpt lat="58.019315" lon="38.85295"><ele>112.1</ele><time>2024-12-29T09:38:55Z</time></trkpt><trkpt lat="58.019297" lon="38.852785"><ele>112.8</ele><time>2024-12-29T09:38:58Z</time></trkpt><trkpt lat="58.01928" lon="38.852615"><ele>114.5</ele><time>2024-12-29T09:39:01Z</time></trkpt><trkpt lat="58.019277" lon="38.85247"><ele>114.4</ele><time>2024-12-29T09:39:04Z</time></trkpt><trkpt lat="58.01936" lon="38.85248"><ele>113.0</ele><time>2024-12-29T09:39:08Z</time></trkpt><trkpt lat="58.01944" lon="38.85251"><ele>112.7</ele><time>2024-12-29T09:39:11Z</time></trkpt><trkpt lat="58.01952" lon="38.85253"><ele>112.2</ele><time>2024-12-29T09:39:14Z</time></trkpt><trkpt lat="58.019595" lon="38.85255"><ele>112.8</ele><time>2024-12-29T09:39:17Z</time></trkpt><trkpt lat="58.019667" lon="38.852565"><ele>113.2</ele><time>2024-12-29T09:39:22Z</time></trkpt><trkpt lat="58.019748" lon="38.852585"><ele>113.4</ele><time>2024-12-29T09:39:28Z</time></trkpt><trkpt lat="58.019822" lon="38.852597"><ele>113.5</ele><time>2024-12-29T09:39:34Z</time></trkpt><trkpt lat="58.01991" lon="38.852615"><ele>112.9</ele><time>2024-12-29T09:39:40Z</time></trkpt><trkpt lat="58.019985" lon="38.852652"><ele>113.3</ele><time>2024-12-29T09:39:46Z</time></trkpt><trkpt lat="58.019995" lon="38.852807"><ele>112.4</ele><time>2024-12-29T09:39:51Z</time></trkpt><trkpt lat="58.019995" lon="38.852947"><ele>111.9</ele><time>2024-12-29T09:39:54Z</time></trkpt><trkpt lat="58.019985" lon="38.853085"><ele>111.2</ele><time>2024-12-29T09:39:57Z</time></trkpt><trkpt lat="58.01997" lon="38.853235"><ele>111.1</ele><time>2024-12-29T09:40:00Z</time></trkpt><trkpt lat="58.01991" lon="38.853345"><ele>110.9</ele><time>2024-12-29T09:40:03Z</time></trkpt><trkpt lat="58.019855" lon="38.85344"><ele>111.2</ele><time>2024-12-29T09:40:06Z</time></trkpt><trkpt lat="58.01981" lon="38.853575"><ele>110.9</ele><time>2024-12-29T09:40:09Z</time></trkpt><trkpt lat="58.019767" lon="38.85371"><ele>111.9</ele><time>2024-12-29T09:40:12Z</time></trkpt><trkpt lat="58.019725" lon="38.85384"><ele>113.7</ele><time>2024-12-29T09:40:15Z</time></trkpt><trkpt lat="58.019677" lon="38.853975"><ele>110.9</ele><time>2024-12-29T09:40:18Z</time></trkpt><trkpt lat="58.019635" lon="38.85409"><ele>111.0</ele><time>2024-12-29T09:40:21Z</time></trkpt><trkpt lat="58.01957" lon="38.85399"><ele>111.0</ele><time>2024-12-29T09:40:26Z</time></trkpt><trkpt lat="58.019507" lon="38.853877"><ele>111.1</ele><time>2024-12-29T09:40:30Z</time></trkpt><trkpt lat="58.019435" lon="38.85376"><ele>110.1</ele><time>2024-12-29T09:40:33Z</time></trkpt><trkpt lat="58.019368" lon="38.853662"><ele>110.1</ele><time>2024-12-29T09:40:36Z</time></trkpt><trkpt lat="58.0193" lon="38.853602"><ele>109.6</ele><time>2024-12-29T09:40:39Z</time></trkpt><trkpt lat="58.01924" lon="38.853475"><ele>109.5</ele><time>2024-12-29T09:40:43Z</time></trkpt><trkpt lat="58.019225" lon="38.85334"><ele>109.7</ele><time>2024-12-29T09:40:46Z</time></trkpt><trkpt lat="58.01919" lon="38.853208"><ele>110.2</ele><time>2024-12-29T09:40:49Z</time></trkpt><trkpt lat="58.01917" lon="38.85308"><ele>110.2</ele><time>2024-12-29T09:40:52Z</time></trkpt><trkpt lat="58.019143" lon="38.852912"><ele>110.0</ele><time>2024-12-29T09:40:56Z</time></trkpt><trkpt lat="58.019112" lon="38.852757"><ele>110.6</ele><time>2024-12-29T09:41:00Z</time></trkpt><trkpt lat="58.019147" lon="38.852842"><ele>110.7</ele><time>2024-12-29T09:41:07Z</time></trkpt><trkpt lat="58.019148" lon="38.852977"><ele>110.8</ele><time>2024-12-29T09:41:12Z</time></trkpt><trkpt lat="58.019185" lon="38.85315"><ele>111.8</ele><time>2024-12-29T09:41:18Z</time></trkpt><trkpt lat="58.0192" lon="38.85329"><ele>112.6</ele><time>2024-12-29T09:41:21Z</time></trkpt><trkpt lat="58.019212" lon="38.853445"><ele>113.0</ele><time>2024-12-29T09:41:24Z</time></trkpt><trkpt lat="58.019232" lon="38.853595"><ele>113.6</ele><time>2024-12-29T09:41:27Z</time></trkpt><trkpt lat="58.019245" lon="38.85375"><ele>115.4</ele><time>2024-12-29T09:41:30Z</time></trkpt><trkpt lat="58.019222" lon="38.85392"><ele>115.8</ele><time>2024-12-29T09:41:34Z</time></trkpt><trkpt lat="58.019195" lon="38.854052"><ele>116.2</ele><time>2024-12-29T09:41:37Z</time></trkpt><trkpt lat="58.019175" lon="38.854192"><ele>117.7</ele><time>2024-12-29T09:41:40Z</time></trkpt><trkpt lat="58.019195" lon="38.85433"><ele>118.0</ele><time>2024-12-29T09:41:44Z</time></trkpt><trkpt lat="58.01924" lon="38.854442"><ele>119.0</ele><time>2024-12-29T09:41:47Z</time></trkpt><trkpt lat="58.019232" lon="38.854595"><ele>119.4</ele><time>2024-12-29T09:41:50Z</time></trkpt><trkpt lat="58.019225" lon="38.85474"><ele>119.7</ele><time>2024-12-29T09:41:53Z</time></trkpt><trkpt lat="58.019217" lon="38.854912"><ele>119.6</ele><time>2024-12-29T09:41:57Z</time></trkpt><trkpt lat="58.019215" lon="38.855077"><ele>119.6</ele><time>2024-12-29T09:42:03Z</time></trkpt><trkpt lat="58.01925" lon="38.8552"><ele>119.2</ele><time>2024-12-29T09:42:06Z</time></trkpt><trkpt lat="58.019285" lon="38.855333"><ele>118.2</ele><time>2024-12-29T09:42:09Z</time></trkpt><trkpt lat="58.019325" lon="38.85546"><ele>117.8</ele><time>2024-12-29T09:42:12Z</time></trkpt><trkpt lat="58.019355" lon="38.855455"><ele>116.4</ele><time>2024-12-29T09:42:19Z</time></trkpt><trkpt lat="58.01935" lon="38.85531"><ele>116.7</ele><time>2024-12-29T09:42:22Z</time></trkpt><trkpt lat="58.019385" lon="38.85519"><ele>117.0</ele><time>2024-12-29T09:42:25Z</time></trkpt><trkpt lat="58.019385" lon="38.855037"><ele>116.6</ele><time>2024-12-29T09:42:29Z</time></trkpt><trkpt lat="58.019402" lon="38.854885"><ele>116.1</ele><time>2024-12-29T09:42:33Z</time></trkpt><trkpt lat="58.019367" lon="38.85476"><ele>114.8</ele><time>2024-12-29T09:42:38Z</time></trkpt><trkpt lat="58.019315" lon="38.854875"><ele>112.3</ele><time>2024-12-29T09:42:41Z</time></trkpt><trkpt lat="58.01934" lon="38.855015"><ele>111.1</ele><time>2024-12-29T09:42:46Z</time></trkpt><trkpt lat="58.01935" lon="38.855162"><ele>109.7</ele><time>2024-12-29T09:42:50Z</time></trkpt><trkpt lat="58.01934" lon="38.85533"><ele>113.5</ele><time>2024-12-29T09:42:53Z</time></trkpt><trkpt lat="58.01937" lon="38.855465"><ele>111.2</ele><time>2024-12-29T09:42:57Z</time></trkpt><trkpt lat="58.019465" lon="38.85547"><ele>110.4</ele><time>2024-12-29T09:43:00Z</time></trkpt><trkpt lat="58.01956" lon="38.855465"><ele>110.3</ele><time>2024-12-29T09:43:03Z</time></trkpt><trkpt lat="58.01964" lon="38.85547"><ele>109.8</ele><time>2024-12-29T09:43:06Z</time></trkpt><trkpt lat="58.019725" lon="38.855487"><ele>109.7</ele><time>2024-12-29T09:43:09Z</time></trkpt><trkpt lat="58.01981" lon="38.85549"><ele>109.3</ele><time>2024-12-29T09:43:12Z</time></trkpt><trkpt lat="58.0199" lon="38.855495"><ele>108.5</ele><time>2024-12-29T09:43:15Z</time></trkpt><trkpt lat="58.019987" lon="38.85552"><ele>109.1</ele><time>2024-12-29T09:43:18Z</time></trkpt><trkpt lat="58.020075" lon="38.85555"><ele>108.3</ele><time>2024-12-29T09:43:21Z</time></trkpt><trkpt lat="58.020075" lon="38.855372"><ele>109.2</ele><time>2024-12-29T09:43:28Z</time></trkpt><trkpt lat="58.02009" lon="38.855227"><ele>109.1</ele><time>2024-12-29T09:43:31Z</time></trkpt><trkpt lat="58.020112" lon="38.855085"><ele>110.4</ele><time>2024-12-29T09:43:34Z</time></trkpt><trkpt lat="58.020132" lon="38.854945"><ele>111.1</ele><time>2024-12-29T09:43:37Z</time></trkpt><trkpt lat="58.020145" lon="38.854793"><ele>112.7</ele><time>2024-12-29T09:43:40Z</time></trkpt><trkpt lat="58.02014" lon="38.85465"><ele>112.4</ele><time>2024-12-29T09:43:43Z</time></trkpt><trkpt lat="58.020095" lon="38.854535"><ele>111.1</ele><time>2024-12-29T09:43:49Z</time></trkpt><trkpt lat="58.020035" lon="38.85447"><ele>111.1</ele><time>2024-12-29T09:43:56Z</time></trkpt></trkseg></trk></gpx>