<?xml version="1.0" encoding="UTF-8" standalone="no"?><gpx xmlns="http://www.topografix.com/GPX/1/1" xmlns:gpxtpx="http://www.garmin.com/xmlschemas/TrackPointExtension/v1" xmlns:xsi="http://www.w3.org/2001/XMLSchema-instance" creator="Sports Tracker" version="1.1" xsi:schemaLocation="http://www.topografix.com/GPX/1/1 http://www.topografix.com/GPX/1/1/gpx.xsd http://www.garmin.com/xmlschemas/TrackPointExtension/v1 http://www.garmin.com/xmlschemas/TrackPointExtensionv1.xsd"><metadata><name>01.02.2024 17:43</name><desc/><author><name>Александр</name></author></metadata><trk><name>01.02.2024 17:43</name><trkseg><trkpt lat="58.05261" lon="38.82565"><ele>119.4</ele><time>2024-02-01T14:43:15Z</time></trkpt><trkpt lat="58.05261" lon="38.82565"><ele>119.4</ele><time>2024-02-01T14:43:24Z</time></trkpt><trkpt lat="58.052572" lon="38.825725"><ele>110.3</ele><time>2024-02-01T14:43:31Z</time></trkpt><trkpt lat="58.05268" lon="38.82571"><ele>110.9</ele><time>2024-02-01T14:43:35Z</time></trkpt><trkpt lat="58.05268" lon="38.825655"><ele>110.5</ele><time>2024-02-01T14:43:42Z</time></trkpt><trkpt lat="58.052735" lon="38.825555"><ele>108.8</ele><time>2024-02-01T14:43:49Z</time></trkpt><trkpt lat="58.052825" lon="38.825565"><ele>108.7</ele><time>2024-02-01T14:43:53Z</time></trkpt><trkpt lat="58.052905" lon="38.825515"><ele>108.7</ele><time>2024-02-01T14:43:56Z</time></trkpt><trkpt lat="58.052905" lon="38.825635"><ele>110.4</ele><time>2024-02-01T14:44:03Z</time></trkpt><trkpt lat="58.052942" lon="38.825745"><ele>107.2</ele><time>2024-02-01T14:44:11Z</time></trkpt><trkpt lat="58.053" lon="38.825835"><ele>107.1</ele><time>2024-02-01T14:44:14Z</time></trkpt><trkpt lat="58.05308" lon="38.826003"><ele>105.1</ele><time>2024-02-01T14:44:18Z</time></trkpt><trkpt lat="58.053157" lon="38.825995"><ele>105.3</ele><time>2024-02-01T14:44:21Z</time></trkpt><trkpt lat="58.053232" lon="38.825995"><ele>106.0</ele><time>2024-02-01T14:44:25Z</time></trkpt><trkpt lat="58.05323" lon="38.825887"><ele>109.0</ele><time>2024-02-01T14:44:32Z</time></trkpt><trkpt lat="58.053285" lon="38.825995"><ele>105.3</ele><time>2024-02-01T14:44:39Z</time></trkpt><trkpt lat="58.053335" lon="38.826135"><ele>105.1</ele><time>2024-02-01T14:44:44Z</time></trkpt><trkpt lat="58.053425" lon="38.826225"><ele>106.2</ele><time>2024-02-01T14:44:50Z</time></trkpt><trkpt lat="58.05352" lon="38.82627"><ele>107.7</ele><time>2024-02-01T14:44:56Z</time></trkpt><trkpt lat="58.053585" lon="38.826205"><ele>108.0</ele><time>2024-02-01T14:44:58Z</time></trkpt><trkpt lat="58.05365" lon="38.82614"><ele>109.8</ele><time>2024-02-01T14:45:03Z</time></trkpt><trkpt lat="58.053715" lon="38.826135"><ele>108.2</ele><time>2024-02-01T14:45:10Z</time></trkpt><trkpt lat="58.053755" lon="38.82626"><ele>110.2</ele><time>2024-02-01T14:45:13Z</time></trkpt><trkpt lat="58.053805" lon="38.826345"><ele>110.9</ele><time>2024-02-01T14:45:20Z</time></trkpt><trkpt lat="58.053787" lon="38.826155"><ele>109.5</ele><time>2024-02-01T14:45:24Z</time></trkpt><trkpt lat="58.053775" lon="38.826"><ele>109.9</ele><time>2024-02-01T14:45:26Z</time></trkpt><trkpt lat="58.053835" lon="38.825867"><ele>111.0</ele><time>2024-02-01T14:45:29Z</time></trkpt><trkpt lat="58.053895" lon="38.825752"><ele>110.8</ele><time>2024-02-01T14:45:31Z</time></trkpt><trkpt lat="58.053863" lon="38.825712"><ele>107.6</ele><time>2024-02-01T14:45:38Z</time></trkpt><trkpt lat="58.0539" lon="38.82564"><ele>106.7</ele><time>2024-02-01T14:45:45Z</time></trkpt><trkpt lat="58.053915" lon="38.825488"><ele>106.8</ele><time>2024-02-01T14:45:52Z</time></trkpt><trkpt lat="58.053945" lon="38.82548"><ele>105.1</ele><time>2024-02-01T14:45:59Z</time></trkpt><trkpt lat="58.05401" lon="38.82558"><ele>104.0</ele><time>2024-02-01T14:46:02Z</time></trkpt><trkpt lat="58.05405" lon="38.825445"><ele>102.6</ele><time>2024-02-01T14:46:07Z</time></trkpt><trkpt lat="58.054037" lon="38.8253"><ele>104.2</ele><time>2024-02-01T14:46:12Z</time></trkpt><trkpt lat="58.054045" lon="38.825145"><ele>104.5</ele><time>2024-02-01T14:46:17Z</time></trkpt><trkpt lat="58.054055" lon="38.82498"><ele>104.1</ele><time>2024-02-01T14:46:23Z</time></trkpt><trkpt lat="58.054065" lon="38.82481"><ele>103.3</ele><time>2024-02-01T14:46:29Z</time></trkpt><trkpt lat="58.05407" lon="38.824675"><ele>101.8</ele><time>2024-02-01T14:46:35Z</time></trkpt><trkpt lat="58.0541" lon="38.824547"><ele>104.1</ele><time>2024-02-01T14:46:42Z</time></trkpt><trkpt lat="58.05412" lon="38.824402"><ele>103.7</ele><time>2024-02-01T14:46:48Z</time></trkpt><trkpt lat="58.054127" lon="38.82425"><ele>105.7</ele><time>2024-02-01T14:46:55Z</time></trkpt><trkpt lat="58.05411" lon="38.824095"><ele>105.7</ele><time>2024-02-01T14:47:02Z</time></trkpt><trkpt lat="58.054115" lon="38.823935"><ele>102.8</ele><time>2024-02-01T14:47:09Z</time></trkpt><trkpt lat="58.05416" lon="38.823855"><ele>103.8</ele><time>2024-02-01T14:47:16Z</time></trkpt><trkpt lat="58.054225" lon="38.823742"><ele>102.2</ele><time>2024-02-01T14:47:21Z</time></trkpt><trkpt lat="58.054265" lon="38.823615"><ele>101.4</ele><time>2024-02-01T14:47:26Z</time></trkpt><trkpt lat="58.054305" lon="38.82348"><ele>101.8</ele><time>2024-02-01T14:47:32Z</time></trkpt><trkpt lat="58.054342" lon="38.823355"><ele>105.2</ele><time>2024-02-01T14:47:39Z</time></trkpt><trkpt lat="58.05437" lon="38.823225"><ele>106.8</ele><time>2024-02-01T14:47:45Z</time></trkpt><trkpt lat="58.05439" lon="38.823065"><ele>107.6</ele><time>2024-02-01T14:47:50Z</time></trkpt><trkpt lat="58.054382" lon="38.82292"><ele>108.0</ele><time>2024-02-01T14:47:54Z</time></trkpt><trkpt lat="58.05442" lon="38.822795"><ele>109.2</ele><time>2024-02-01T14:48:01Z</time></trkpt><trkpt lat="58.054425" lon="38.822747"><ele>109.0</ele><time>2024-02-01T14:48:08Z</time></trkpt><trkpt lat="58.054445" lon="38.822605"><ele>104.9</ele><time>2024-02-01T14:48:15Z</time></trkpt><trkpt lat="58.054475" lon="38.822475"><ele>106.5</ele><time>2024-02-01T14:48:21Z</time></trkpt><trkpt lat="58.054505" lon="38.822332"><ele>107.1</ele><time>2024-02-01T14:48:28Z</time></trkpt><trkpt lat="58.054532" lon="38.8222"><ele>105.6</ele><time>2024-02-01T14:48:34Z</time></trkpt><trkpt lat="58.05457" lon="38.822062"><ele>101.9</ele><time>2024-02-01T14:48:41Z</time></trkpt><trkpt lat="58.0546" lon="38.821917"><ele>103.7</ele><time>2024-02-01T14:48:46Z</time></trkpt><trkpt lat="58.054615" lon="38.821785"><ele>104.4</ele><time>2024-02-01T14:48:50Z</time></trkpt><trkpt lat="58.05464" lon="38.821635"><ele>103.7</ele><time>2024-02-01T14:48:57Z</time></trkpt><trkpt lat="58.05465" lon="38.821485"><ele>104.9</ele><time>2024-02-01T14:49:02Z</time></trkpt><trkpt lat="58.054665" lon="38.82134"><ele>105.3</ele><time>2024-02-01T14:49:07Z</time></trkpt><trkpt lat="58.054682" lon="38.82135"><ele>105.8</ele><time>2024-02-01T14:49:14Z</time></trkpt><trkpt lat="58.054685" lon="38.821207"><ele>106.9</ele><time>2024-02-01T14:49:19Z</time></trkpt><trkpt lat="58.054702" lon="38.82107"><ele>106.4</ele><time>2024-02-01T14:49:23Z</time></trkpt><trkpt lat="58.05472" lon="38.8209"><ele>107.5</ele><time>2024-02-01T14:49:28Z</time></trkpt><trkpt lat="58.05472" lon="38.82075"><ele>105.8</ele><time>2024-02-01T14:49:32Z</time></trkpt><trkpt lat="58.05473" lon="38.820597"><ele>107.5</ele><time>2024-02-01T14:49:38Z</time></trkpt><trkpt lat="58.054747" lon="38.820475"><ele>104.2</ele><time>2024-02-01T14:49:45Z</time></trkpt><trkpt lat="58.054748" lon="38.820323"><ele>104.9</ele><time>2024-02-01T14:49:52Z</time></trkpt><trkpt lat="58.054772" lon="38.820192"><ele>103.9</ele><time>2024-02-01T14:49:59Z</time></trkpt><trkpt lat="58.054785" lon="38.820057"><ele>103.5</ele><time>2024-02-01T14:50:05Z</time></trkpt><trkpt lat="58.054785" lon="38.8199"><ele>104.0</ele><time>2024-02-01T14:50:10Z</time></trkpt><trkpt lat="58.05478" lon="38.819765"><ele>107.0</ele><time>2024-02-01T14:50:14Z</time></trkpt><trkpt lat="58.054777" lon="38.819625"><ele>107.2</ele><time>2024-02-01T14:50:18Z</time></trkpt><trkpt lat="58.054775" lon="38.819492"><ele>108.7</ele><time>2024-02-01T14:50:25Z</time></trkpt><trkpt lat="58.05479" lon="38.81939"><ele>107.6</ele><time>2024-02-01T14:50:32Z</time></trkpt><trkpt lat="58.0548" lon="38.819272"><ele>107.8</ele><time>2024-02-01T14:50:39Z</time></trkpt><trkpt lat="58.05482" lon="38.819135"><ele>108.3</ele><time>2024-02-01T14:50:45Z</time></trkpt><trkpt lat="58.054845" lon="38.819025"><ele>106.2</ele><time>2024-02-01T14:50:52Z</time></trkpt><trkpt lat="58.054855" lon="38.81889"><ele>108.3</ele><time>2024-02-01T14:50:57Z</time></trkpt><trkpt lat="58.05484" lon="38.81874"><ele>111.5</ele><time>2024-02-01T14:51:04Z</time></trkpt><trkpt lat="58.054775" lon="38.818655"><ele>110.5</ele><time>2024-02-01T14:51:10Z</time></trkpt><trkpt lat="58.054763" lon="38.818645"><ele>112.6</ele><time>2024-02-01T14:51:17Z</time></trkpt><trkpt lat="58.054852" lon="38.818597"><ele>107.2</ele><time>2024-02-01T14:58:08Z</time></trkpt><trkpt lat="58.054772" lon="38.81857"><ele>103.9</ele><time>2024-02-01T14:58:10Z</time></trkpt><trkpt lat="58.05484" lon="38.81863"><ele>114.9</ele><time>2024-02-01T14:58:17Z</time></trkpt><trkpt lat="58.054852" lon="38.81848"><ele>114.7</ele><time>2024-02-01T14:58:24Z</time></trkpt><trkpt lat="58.054827" lon="38.81833"><ele>114.6</ele><time>2024-02-01T14:58:28Z</time></trkpt><trkpt lat="58.054895" lon="38.818275"><ele>117.7</ele><time>2024-02-01T14:58:34Z</time></trkpt><trkpt lat="58.054887" lon="38.818135"><ele>114.0</ele><time>2024-02-01T14:58:40Z</time></trkpt><trkpt lat="58.054895" lon="38.81798"><ele>112.3</ele><time>2024-02-01T14:58:47Z</time></trkpt><trkpt lat="58.054885" lon="38.817825"><ele>112.1</ele><time>2024-02-01T14:58:53Z</time></trkpt><trkpt lat="58.054895" lon="38.81768"><ele>109.7</ele><time>2024-02-01T14:59:00Z</time></trkpt><trkpt lat="58.054912" lon="38.817535"><ele>106.7</ele><time>2024-02-01T14:59:07Z</time></trkpt><trkpt lat="58.05491" lon="38.81738"><ele>105.9</ele><time>2024-02-01T14:59:14Z</time></trkpt><trkpt lat="58.054925" lon="38.817212"><ele>108.2</ele><time>2024-02-01T14:59:19Z</time></trkpt><trkpt lat="58.05494" lon="38.817058"><ele>109.2</ele><time>2024-02-01T14:59:24Z</time></trkpt><trkpt lat="58.054945" lon="38.81691"><ele>109.5</ele><time>2024-02-01T14:59:30Z</time></trkpt><trkpt lat="58.054955" lon="38.816758"><ele>109.9</ele><time>2024-02-01T14:59:35Z</time></trkpt><trkpt lat="58.05497" lon="38.816612"><ele>109.4</ele><time>2024-02-01T14:59:41Z</time></trkpt><trkpt lat="58.054988" lon="38.816475"><ele>108.9</ele><time>2024-02-01T14:59:46Z</time></trkpt><trkpt lat="58.055015" lon="38.816345"><ele>109.1</ele><time>2024-02-01T14:59:50Z</time></trkpt><trkpt lat="58.055037" lon="38.816227"><ele>111.1</ele><time>2024-02-01T14:59:57Z</time></trkpt><trkpt lat="58.055037" lon="38.816222"><ele>110.6</ele><time>2024-02-01T15:00:02Z</time></trkpt><trkpt lat="58.05511" lon="38.816235"><ele>109.8</ele><time>2024-02-01T15:00:33Z</time></trkpt><trkpt lat="58.055195" lon="38.816223"><ele>111.2</ele><time>2024-02-01T15:00:39Z</time></trkpt><trkpt lat="58.055275" lon="38.81625"><ele>112.5</ele><time>2024-02-01T15:00:44Z</time></trkpt><trkpt lat="58.05534" lon="38.816297"><ele>112.1</ele><time>2024-02-01T15:00:48Z</time></trkpt><trkpt lat="58.055427" lon="38.81629"><ele>110.3</ele><time>2024-02-01T15:00:53Z</time></trkpt><trkpt lat="58.055502" lon="38.81628"><ele>108.9</ele><time>2024-02-01T15:00:57Z</time></trkpt><trkpt lat="58.05558" lon="38.81631"><ele>110.8</ele><time>2024-02-01T15:01:03Z</time></trkpt><trkpt lat="58.05566" lon="38.816337"><ele>112.1</ele><time>2024-02-01T15:01:09Z</time></trkpt><trkpt lat="58.055743" lon="38.816375"><ele>113.6</ele><time>2024-02-01T15:01:15Z</time></trkpt><trkpt lat="58.055817" lon="38.816367"><ele>112.7</ele><time>2024-02-01T15:01:18Z</time></trkpt><trkpt lat="58.055897" lon="38.81639"><ele>111.5</ele><time>2024-02-01T15:01:24Z</time></trkpt><trkpt lat="58.05598" lon="38.816417"><ele>111.1</ele><time>2024-02-01T15:01:29Z</time></trkpt><trkpt lat="58.056062" lon="38.816432"><ele>112.1</ele><time>2024-02-01T15:01:35Z</time></trkpt><trkpt lat="58.05614" lon="38.81644"><ele>113.3</ele><time>2024-02-01T15:01:40Z</time></trkpt><trkpt lat="58.056225" lon="38.816452"><ele>113.2</ele><time>2024-02-01T15:01:45Z</time></trkpt><trkpt lat="58.056295" lon="38.816485"><ele>112.8</ele><time>2024-02-01T15:01:50Z</time></trkpt><trkpt lat="58.056375" lon="38.816515"><ele>112.7</ele><time>2024-02-01T15:01:55Z</time></trkpt><trkpt lat="58.056447" lon="38.81655"><ele>112.5</ele><time>2024-02-01T15:02:01Z</time></trkpt><trkpt lat="58.056515" lon="38.8165"><ele>112.7</ele><time>2024-02-01T15:02:08Z</time></trkpt><trkpt lat="58.056592" lon="38.816515"><ele>111.0</ele><time>2024-02-01T15:02:13Z</time></trkpt><trkpt lat="58.056675" lon="38.816542"><ele>111.0</ele><time>2024-02-01T15:02:16Z</time></trkpt><trkpt lat="58.056745" lon="38.816532"><ele>111.6</ele><time>2024-02-01T15:02:19Z</time></trkpt><trkpt lat="58.056825" lon="38.816565"><ele>113.4</ele><time>2024-02-01T15:02:23Z</time></trkpt><trkpt lat="58.0569" lon="38.816615"><ele>112.8</ele><time>2024-02-01T15:02:29Z</time></trkpt><trkpt lat="58.05698" lon="38.81665"><ele>112.9</ele><time>2024-02-01T15:02:35Z</time></trkpt><trkpt lat="58.057062" lon="38.81665"><ele>112.7</ele><time>2024-02-01T15:02:42Z</time></trkpt><trkpt lat="58.057145" lon="38.816687"><ele>113.4</ele><time>2024-02-01T15:02:47Z</time></trkpt><trkpt lat="58.057225" lon="38.816682"><ele>117.2</ele><time>2024-02-01T15:02:51Z</time></trkpt><trkpt lat="58.057305" lon="38.816715"><ele>116.4</ele><time>2024-02-01T15:02:55Z</time></trkpt><trkpt lat="58.05738" lon="38.816747"><ele>116.0</ele><time>2024-02-01T15:03:01Z</time></trkpt><trkpt lat="58.057455" lon="38.816762"><ele>118.0</ele><time>2024-02-01T15:03:06Z</time></trkpt><trkpt lat="58.05752" lon="38.8167"><ele>116.4</ele><time>2024-02-01T15:03:10Z</time></trkpt><trkpt lat="58.057605" lon="38.816692"><ele>114.1</ele><time>2024-02-01T15:03:14Z</time></trkpt><trkpt lat="58.057677" lon="38.81665"><ele>113.2</ele><time>2024-02-01T15:03:17Z</time></trkpt><trkpt lat="58.05777" lon="38.81675"><ele>115.0</ele><time>2024-02-01T15:03:20Z</time></trkpt><trkpt lat="58.05783" lon="38.81682"><ele>112.3</ele><time>2024-02-01T15:03:23Z</time></trkpt><trkpt lat="58.057892" lon="38.81674"><ele>112.8</ele><time>2024-02-01T15:03:29Z</time></trkpt><trkpt lat="58.057975" lon="38.81679"><ele>119.3</ele><time>2024-02-01T15:03:34Z</time></trkpt><trkpt lat="58.058055" lon="38.81684"><ele>119.2</ele><time>2024-02-01T15:03:41Z</time></trkpt><trkpt lat="58.058125" lon="38.816847"><ele>116.9</ele><time>2024-02-01T15:03:45Z</time></trkpt><trkpt lat="58.058215" lon="38.81687"><ele>116.2</ele><time>2024-02-01T15:03:50Z</time></trkpt><trkpt lat="58.058285" lon="38.816917"><ele>114.5</ele><time>2024-02-01T15:03:55Z</time></trkpt><trkpt lat="58.058372" lon="38.81693"><ele>113.7</ele><time>2024-02-01T15:04:00Z</time></trkpt><trkpt lat="58.058435" lon="38.81701"><ele>114.0</ele><time>2024-02-01T15:04:06Z</time></trkpt><trkpt lat="58.05852" lon="38.81697"><ele>114.6</ele><time>2024-02-01T15:04:10Z</time></trkpt><trkpt lat="58.05861" lon="38.81701"><ele>113.7</ele><time>2024-02-01T15:04:16Z</time></trkpt><trkpt lat="58.05864" lon="38.81686"><ele>110.2</ele><time>2024-02-01T15:04:22Z</time></trkpt><trkpt lat="58.058695" lon="38.816735"><ele>109.6</ele><time>2024-02-01T15:04:26Z</time></trkpt><trkpt lat="58.058697" lon="38.81667"><ele>109.9</ele><time>2024-02-01T15:04:33Z</time></trkpt><trkpt lat="58.058675" lon="38.81672"><ele>109.1</ele><time>2024-02-01T15:04:40Z</time></trkpt><trkpt lat="58.058675" lon="38.816722"><ele>109.1</ele><time>2024-02-01T15:04:43Z</time></trkpt><trkpt lat="58.058335" lon="38.81644"><ele>85.3</ele><time>2024-02-01T15:08:21Z</time></trkpt><trkpt lat="58.05836" lon="38.81643"><ele>83.2</ele><time>2024-02-01T15:08:28Z</time></trkpt><trkpt lat="58.058385" lon="38.816425"><ele>82.6</ele><time>2024-02-01T15:08:35Z</time></trkpt><trkpt lat="58.058462" lon="38.81652"><ele>82.5</ele><time>2024-02-01T15:08:38Z</time></trkpt><trkpt lat="58.058585" lon="38.816747"><ele>85.6</ele><time>2024-02-01T15:08:40Z</time></trkpt><trkpt lat="58.058507" lon="38.81675"><ele>87.2</ele><time>2024-02-01T15:08:46Z</time></trkpt><trkpt lat="58.0585" lon="38.816623"><ele>100.3</ele><time>2024-02-01T15:08:53Z</time></trkpt><trkpt lat="58.058385" lon="38.81634"><ele>97.5</ele><time>2024-02-01T15:08:55Z</time></trkpt><trkpt lat="58.058547" lon="38.816685"><ele>103.4</ele><time>2024-02-01T15:09:00Z</time></trkpt><trkpt lat="58.058545" lon="38.8167"><ele>103.0</ele><time>2024-02-01T15:09:07Z</time></trkpt><trkpt lat="58.05854" lon="38.816695"><ele>102.0</ele><time>2024-02-01T15:09:20Z</time></trkpt><trkpt lat="58.05854" lon="38.816697"><ele>102.0</ele><time>2024-02-01T15:09:21Z</time></trkpt><trkpt lat="58.058542" lon="38.816705"><ele>101.7</ele><time>2024-02-01T15:09:42Z</time></trkpt><trkpt lat="58.058542" lon="38.816705"><ele>101.7</ele><time>2024-02-01T15:09:43Z</time></trkpt><trkpt lat="58.058755" lon="38.81702"><ele>101.6</ele><time>2024-02-01T15:09:44Z</time></trkpt><trkpt lat="58.058547" lon="38.816715"><ele>102.4</ele><time>2024-02-01T15:09:46Z</time></trkpt><trkpt lat="58.058555" lon="38.816722"><ele>102.4</ele><time>2024-02-01T15:09:53Z</time></trkpt><trkpt lat="58.05856" lon="38.816735"><ele>102.7</ele><time>2024-02-01T15:10:13Z</time></trkpt><trkpt lat="58.05856" lon="38.816735"><ele>102.7</ele><time>2024-02-01T15:10:14Z</time></trkpt><trkpt lat="58.058552" lon="38.81673"><ele>102.8</ele><time>2024-02-01T15:10:33Z</time></trkpt><trkpt lat="58.058552" lon="38.81673"><ele>102.8</ele><time>2024-02-01T15:10:34Z</time></trkpt><trkpt lat="58.05856" lon="38.816745"><ele>103.2</ele><time>2024-02-01T15:11:00Z</time></trkpt><trkpt lat="58.05856" lon="38.816745"><ele>103.2</ele><time>2024-02-01T15:11:01Z</time></trkpt><trkpt lat="58.058565" lon="38.81676"><ele>103.5</ele><time>2024-02-01T15:11:12Z</time></trkpt><trkpt lat="58.058565" lon="38.816762"><ele>103.6</ele><time>2024-02-01T15:11:13Z</time></trkpt><trkpt lat="58.058585" lon="38.8168"><ele>105.0</ele><time>2024-02-01T15:11:22Z</time></trkpt><trkpt lat="58.058585" lon="38.8168"><ele>105.2</ele><time>2024-02-01T15:11:26Z</time></trkpt><trkpt lat="58.05859" lon="38.816805"><ele>105.5</ele><time>2024-02-01T15:11:36Z</time></trkpt><trkpt lat="58.05859" lon="38.816805"><ele>105.5</ele><time>2024-02-01T15:11:37Z</time></trkpt><trkpt lat="58.0586" lon="38.816827"><ele>106.2</ele><time>2024-02-01T15:11:50Z</time></trkpt><trkpt lat="58.0586" lon="38.816828"><ele>106.2</ele><time>2024-02-01T15:11:51Z</time></trkpt><trkpt lat="58.058615" lon="38.81686"><ele>107.0</ele><time>2024-02-01T15:11:59Z</time></trkpt><trkpt lat="58.058615" lon="38.81686"><ele>107.0</ele><time>2024-02-01T15:12:00Z</time></trkpt><trkpt lat="58.058625" lon="38.81688"><ele>107.4</ele><time>2024-02-01T15:12:12Z</time></trkpt><trkpt lat="58.058625" lon="38.81688"><ele>107.4</ele><time>2024-02-01T15:12:13Z</time></trkpt><trkpt lat="58.05863" lon="38.816897"><ele>107.8</ele><time>2024-02-01T15:12:21Z</time></trkpt><trkpt lat="58.05863" lon="38.8169"><ele>107.8</ele><time>2024-02-01T15:12:22Z</time></trkpt><trkpt lat="58.05863" lon="38.81691"><ele>108.0</ele><time>2024-02-01T15:12:49Z</time></trkpt><trkpt lat="58.05863" lon="38.81691"><ele>107.9</ele><time>2024-02-01T15:12:50Z</time></trkpt><trkpt lat="58.058635" lon="38.81692"><ele>108.0</ele><time>2024-02-01T15:13:26Z</time></trkpt><trkpt lat="58.058635" lon="38.816922"><ele>108.0</ele><time>2024-02-01T15:13:27Z</time></trkpt><trkpt lat="58.05865" lon="38.81695"><ele>108.4</ele><time>2024-02-01T15:14:15Z</time></trkpt><trkpt lat="58.05866" lon="38.816955"><ele>108.7</ele><time>2024-02-01T15:14:22Z</time></trkpt><trkpt lat="58.05866" lon="38.816955"><ele>108.7</ele><time>2024-02-01T15:14:23Z</time></trkpt><trkpt lat="58.058655" lon="38.816945"><ele>108.2</ele><time>2024-02-01T15:14:45Z</time></trkpt><trkpt lat="58.058655" lon="38.816945"><ele>108.2</ele><time>2024-02-01T15:14:46Z</time></trkpt><trkpt lat="58.05865" lon="38.81693"><ele>107.8</ele><time>2024-02-01T15:15:44Z</time></trkpt><trkpt lat="58.05865" lon="38.81693"><ele>107.8</ele><time>2024-02-01T15:15:45Z</time></trkpt><trkpt lat="58.058655" lon="38.81695"><ele>108.2</ele><time>2024-02-01T15:16:42Z</time></trkpt><trkpt lat="58.058655" lon="38.81695"><ele>108.2</ele><time>2024-02-01T15:16:43Z</time></trkpt><trkpt lat="58.058657" lon="38.81696"><ele>108.4</ele><time>2024-02-01T15:17:08Z</time></trkpt><trkpt lat="58.058657" lon="38.81696"><ele>108.4</ele><time>2024-02-01T15:17:09Z</time></trkpt><trkpt lat="58.05866" lon="38.81697"><ele>108.5</ele><time>2024-02-01T15:17:35Z</time></trkpt><trkpt lat="58.05866" lon="38.81697"><ele>108.5</ele><time>2024-02-01T15:17:36Z</time></trkpt><trkpt lat="58.058662" lon="38.81698"><ele>108.9</ele><time>2024-02-01T15:19:38Z</time></trkpt><trkpt lat="58.058662" lon="38.81698"><ele>108.9</ele><time>2024-02-01T15:19:39Z</time></trkpt><trkpt lat="58.05867" lon="38.816995"><ele>109.7</ele><time>2024-02-01T15:21:49Z</time></trkpt><trkpt lat="58.05867" lon="38.816995"><ele>109.7</ele><time>2024-02-01T15:21:50Z</time></trkpt><trkpt lat="58.058672" lon="38.817005"><ele>110.0</ele><time>2024-02-01T15:22:02Z</time></trkpt><trkpt lat="58.058675" lon="38.817005"><ele>110.1</ele><time>2024-02-01T15:22:03Z</time></trkpt><trkpt lat="58.058622" lon="38.816907"><ele>111.9</ele><time>2024-02-01T15:27:51Z</time></trkpt><trkpt lat="58.05857" lon="38.816842"><ele>108.0</ele><time>2024-02-01T15:27:58Z</time></trkpt><trkpt lat="58.058555" lon="38.816752"><ele>110.8</ele><time>2024-02-01T15:28:05Z</time></trkpt><trkpt lat="58.058565" lon="38.8168"><ele>112.6</ele><time>2024-02-01T15:28:12Z</time></trkpt><trkpt lat="58.058565" lon="38.816725"><ele>112.0</ele><time>2024-02-01T15:28:19Z</time></trkpt><trkpt lat="58.0585" lon="38.816645"><ele>111.8</ele><time>2024-02-01T15:28:23Z</time></trkpt><trkpt lat="58.05854" lon="38.816555"><ele>113.8</ele><time>2024-02-01T15:28:30Z</time></trkpt><trkpt lat="58.058555" lon="38.816705"><ele>114.7</ele><time>2024-02-01T15:28:34Z</time></trkpt><trkpt lat="58.058525" lon="38.816812"><ele>117.5</ele><time>2024-02-01T15:28:41Z</time></trkpt><trkpt lat="58.058515" lon="38.816965"><ele>118.0</ele><time>2024-02-01T15:28:45Z</time></trkpt><trkpt lat="58.05853" lon="38.81701"><ele>114.1</ele><time>2024-02-01T15:28:52Z</time></trkpt><trkpt lat="58.05854" lon="38.817082"><ele>113.2</ele><time>2024-02-01T15:28:59Z</time></trkpt><trkpt lat="58.058547" lon="38.817005"><ele>113.6</ele><time>2024-02-01T15:29:06Z</time></trkpt><trkpt lat="58.05856" lon="38.816895"><ele>112.7</ele><time>2024-02-01T15:29:13Z</time></trkpt><trkpt lat="58.05802" lon="38.816235"><ele>42.9</ele><time>2024-02-01T15:41:14Z</time></trkpt><trkpt lat="58.058092" lon="38.816235"><ele>62.4</ele><time>2024-02-01T15:41:17Z</time></trkpt><trkpt lat="58.058152" lon="38.816232"><ele>69.0</ele><time>2024-02-01T15:41:24Z</time></trkpt><trkpt lat="58.05823" lon="38.816277"><ele>74.3</ele><time>2024-02-01T15:41:28Z</time></trkpt><trkpt lat="58.05831" lon="38.816275"><ele>80.7</ele><time>2024-02-01T15:41:34Z</time></trkpt><trkpt lat="58.05838" lon="38.816325"><ele>84.5</ele><time>2024-02-01T15:41:37Z</time></trkpt><trkpt lat="58.05858" lon="38.816775"><ele>90.8</ele><time>2024-02-01T15:41:40Z</time></trkpt><trkpt lat="58.058645" lon="38.81684"><ele>98.6</ele><time>2024-02-01T15:41:46Z</time></trkpt><trkpt lat="58.05866" lon="38.816857"><ele>96.2</ele><time>2024-02-01T15:41:53Z</time></trkpt><trkpt lat="58.058613" lon="38.816847"><ele>96.6</ele><time>2024-02-01T15:42:00Z</time></trkpt><trkpt lat="58.058612" lon="38.81688"><ele>98.7</ele><time>2024-02-01T15:42:07Z</time></trkpt><trkpt lat="58.05861" lon="38.81688"><ele>98.3</ele><time>2024-02-01T15:42:09Z</time></trkpt><trkpt lat="58.058615" lon="38.816915"><ele>100.0</ele><time>2024-02-01T15:42:18Z</time></trkpt><trkpt lat="58.058617" lon="38.81694"><ele>100.9</ele><time>2024-02-01T15:42:25Z</time></trkpt><trkpt lat="58.058617" lon="38.816942"><ele>101.0</ele><time>2024-02-01T15:42:27Z</time></trkpt><trkpt lat="58.058645" lon="38.81707"><ele>124.6</ele><time>2024-02-01T15:52:59Z</time></trkpt><trkpt lat="58.05865" lon="38.817115"><ele>124.8</ele><time>2024-02-01T15:53:06Z</time></trkpt><trkpt lat="58.05865" lon="38.817115"><ele>124.8</ele><time>2024-02-01T15:53:07Z</time></trkpt><trkpt lat="58.05869" lon="38.817362"><ele>128.7</ele><time>2024-02-01T15:53:13Z</time></trkpt><trkpt lat="58.058662" lon="38.817195"><ele>125.6</ele><time>2024-02-01T15:53:16Z</time></trkpt><trkpt lat="58.05865" lon="38.817125"><ele>123.5</ele><time>2024-02-01T15:53:23Z</time></trkpt><trkpt lat="58.058645" lon="38.817085"><ele>122.5</ele><time>2024-02-01T15:53:30Z</time></trkpt><trkpt lat="58.058635" lon="38.81702"><ele>120.7</ele><time>2024-02-01T15:53:37Z</time></trkpt><trkpt lat="58.058635" lon="38.81702"><ele>120.7</ele><time>2024-02-01T15:53:42Z</time></trkpt><trkpt lat="58.058645" lon="38.817057"><ele>121.0</ele><time>2024-02-01T15:53:58Z</time></trkpt><trkpt lat="58.058645" lon="38.817055"><ele>121.1</ele><time>2024-02-01T15:53:59Z</time></trkpt><trkpt lat="58.058642" lon="38.81708"><ele>121.1</ele><time>2024-02-01T15:54:31Z</time></trkpt><trkpt lat="58.058645" lon="38.817085"><ele>121.1</ele><time>2024-02-01T15:54:32Z</time></trkpt><trkpt lat="58.05865" lon="38.817105"><ele>121.0</ele><time>2024-02-01T15:54:57Z</time></trkpt><trkpt lat="58.05865" lon="38.817105"><ele>121.0</ele><time>2024-02-01T15:54:58Z</time></trkpt><trkpt lat="58.058675" lon="38.817677"><ele>128.6</ele><time>2024-02-01T15:55:04Z</time></trkpt><trkpt lat="58.05865" lon="38.817105"><ele>121.0</ele><time>2024-02-01T15:55:07Z</time></trkpt><trkpt lat="58.05865" lon="38.817105"><ele>121.0</ele><time>2024-02-01T15:55:14Z</time></trkpt><trkpt lat="58.058727" lon="38.817765"><ele>129.7</ele><time>2024-02-01T15:55:17Z</time></trkpt><trkpt lat="58.058632" lon="38.8175"><ele>130.6</ele><time>2024-02-01T15:56:38Z</time></trkpt><trkpt lat="58.058652" lon="38.817522"><ele>129.7</ele><time>2024-02-01T15:56:45Z</time></trkpt><trkpt lat="58.05866" lon="38.81761"><ele>130.6</ele><time>2024-02-01T15:56:52Z</time></trkpt><trkpt lat="58.05866" lon="38.817608"><ele>130.5</ele><time>2024-02-01T15:56:54Z</time></trkpt><trkpt lat="58.05866" lon="38.817612"><ele>130.3</ele><time>2024-02-01T15:57:01Z</time></trkpt><trkpt lat="58.05866" lon="38.81761"><ele>130.3</ele><time>2024-02-01T15:57:05Z</time></trkpt><trkpt lat="58.058615" lon="38.817355"><ele>123.6</ele><time>2024-02-01T15:57:16Z</time></trkpt><trkpt lat="58.058612" lon="38.81724"><ele>119.8</ele><time>2024-02-01T15:57:23Z</time></trkpt><trkpt lat="58.058612" lon="38.817237"><ele>119.7</ele><time>2024-02-01T15:57:30Z</time></trkpt><trkpt lat="58.05861" lon="38.817135"><ele>115.8</ele><time>2024-02-01T15:57:45Z</time></trkpt><trkpt lat="58.05861" lon="38.817"><ele>109.6</ele><time>2024-02-01T15:57:49Z</time></trkpt><trkpt lat="58.05861" lon="38.81695"><ele>109.8</ele><time>2024-02-01T15:57:56Z</time></trkpt><trkpt lat="58.05861" lon="38.81695"><ele>109.0</ele><time>2024-02-01T15:58:01Z</time></trkpt><trkpt lat="58.05861" lon="38.81693"><ele>108.9</ele><time>2024-02-01T15:58:14Z</time></trkpt><trkpt lat="58.05861" lon="38.81693"><ele>108.9</ele><time>2024-02-01T15:58:15Z</time></trkpt><trkpt lat="58.058552" lon="38.816705"><ele>100.5</ele><time>2024-02-01T16:04:21Z</time></trkpt><trkpt lat="58.05865" lon="38.816767"><ele>110.9</ele><time>2024-02-01T16:04:22Z</time></trkpt><trkpt lat="58.058695" lon="38.81677"><ele>115.8</ele><time>2024-02-01T16:04:29Z</time></trkpt><trkpt lat="58.058715" lon="38.816763"><ele>117.5</ele><time>2024-02-01T16:04:36Z</time></trkpt><trkpt lat="58.05873" lon="38.816767"><ele>120.3</ele><time>2024-02-01T16:04:43Z</time></trkpt><trkpt lat="58.058737" lon="38.81677"><ele>121.1</ele><time>2024-02-01T16:04:47Z</time></trkpt><trkpt lat="58.05874" lon="38.816767"><ele>121.5</ele><time>2024-02-01T16:04:59Z</time></trkpt><trkpt lat="58.05874" lon="38.816767"><ele>121.4</ele><time>2024-02-01T16:05:00Z</time></trkpt><trkpt lat="58.05871" lon="38.81689"><ele>117.7</ele><time>2024-02-01T16:05:27Z</time></trkpt><trkpt lat="58.0587" lon="38.81682"><ele>112.7</ele><time>2024-02-01T16:05:34Z</time></trkpt><trkpt lat="58.05871" lon="38.816805"><ele>113.8</ele><time>2024-02-01T16:05:41Z</time></trkpt><trkpt lat="58.05871" lon="38.816805"><ele>113.7</ele><time>2024-02-01T16:05:42Z</time></trkpt><trkpt lat="58.058707" lon="38.816805"><ele>113.6</ele><time>2024-02-01T16:05:53Z</time></trkpt><trkpt lat="58.058705" lon="38.816805"><ele>113.3</ele><time>2024-02-01T16:05:59Z</time></trkpt><trkpt lat="58.058702" lon="38.816815"><ele>112.8</ele><time>2024-02-01T16:06:11Z</time></trkpt><trkpt lat="58.058697" lon="38.816805"><ele>112.7</ele><time>2024-02-01T16:06:14Z</time></trkpt><trkpt lat="58.05871" lon="38.816805"><ele>113.5</ele><time>2024-02-01T16:06:24Z</time></trkpt><trkpt lat="58.05871" lon="38.8168"><ele>113.4</ele><time>2024-02-01T16:06:30Z</time></trkpt><trkpt lat="58.05871" lon="38.816812"><ele>112.1</ele><time>2024-02-01T16:06:46Z</time></trkpt><trkpt lat="58.05871" lon="38.816815"><ele>111.6</ele><time>2024-02-01T16:06:47Z</time></trkpt><trkpt lat="58.058715" lon="38.816805"><ele>112.1</ele><time>2024-02-01T16:06:59Z</time></trkpt><trkpt lat="58.058715" lon="38.816805"><ele>112.2</ele><time>2024-02-01T16:07:00Z</time></trkpt><trkpt lat="58.058715" lon="38.816815"><ele>112.5</ele><time>2024-02-01T16:07:15Z</time></trkpt><trkpt lat="58.058715" lon="38.816815"><ele>113.3</ele><time>2024-02-01T16:07:16Z</time></trkpt><trkpt lat="58.058735" lon="38.816815"><ele>114.8</ele><time>2024-02-01T16:07:25Z</time></trkpt><trkpt lat="58.058735" lon="38.816815"><ele>114.9</ele><time>2024-02-01T16:07:26Z</time></trkpt><trkpt lat="58.058742" lon="38.816815"><ele>115.0</ele><time>2024-02-01T16:07:36Z</time></trkpt><trkpt lat="58.058742" lon="38.816815"><ele>115.0</ele><time>2024-02-01T16:07:37Z</time></trkpt><trkpt lat="58.05872" lon="38.816815"><ele>113.8</ele><time>2024-02-01T16:07:50Z</time></trkpt><trkpt lat="58.058717" lon="38.81681"><ele>114.0</ele><time>2024-02-01T16:07:51Z</time></trkpt><trkpt lat="58.058725" lon="38.81678"><ele>115.1</ele><time>2024-02-01T16:07:58Z</time></trkpt><trkpt lat="58.058745" lon="38.816775"><ele>115.3</ele><time>2024-02-01T16:08:05Z</time></trkpt><trkpt lat="58.058745" lon="38.816775"><ele>115.3</ele><time>2024-02-01T16:08:07Z</time></trkpt><trkpt lat="58.05873" lon="38.816752"><ele>114.1</ele><time>2024-02-01T16:08:18Z</time></trkpt><trkpt lat="58.05873" lon="38.81675"><ele>114.2</ele><time>2024-02-01T16:08:23Z</time></trkpt><trkpt lat="58.05873" lon="38.816763"><ele>115.3</ele><time>2024-02-01T16:08:40Z</time></trkpt><trkpt lat="58.05873" lon="38.81677"><ele>115.1</ele><time>2024-02-01T16:08:41Z</time></trkpt><trkpt lat="58.058715" lon="38.816782"><ele>112.3</ele><time>2024-02-01T16:08:49Z</time></trkpt><trkpt lat="58.05871" lon="38.816785"><ele>112.0</ele><time>2024-02-01T16:08:50Z</time></trkpt><trkpt lat="58.058735" lon="38.816785"><ele>113.2</ele><time>2024-02-01T16:09:18Z</time></trkpt><trkpt lat="58.058735" lon="38.816785"><ele>113.3</ele><time>2024-02-01T16:09:19Z</time></trkpt><trkpt lat="58.05875" lon="38.81679"><ele>114.1</ele><time>2024-02-01T16:09:27Z</time></trkpt><trkpt lat="58.05875" lon="38.81679"><ele>114.4</ele><time>2024-02-01T16:09:28Z</time></trkpt><trkpt lat="58.05876" lon="38.816677"><ele>113.2</ele><time>2024-02-01T16:09:36Z</time></trkpt><trkpt lat="58.05873" lon="38.816535"><ele>114.2</ele><time>2024-02-01T16:09:42Z</time></trkpt><trkpt lat="58.058703" lon="38.8164"><ele>110.9</ele><time>2024-02-01T16:09:48Z</time></trkpt><trkpt lat="58.05869" lon="38.816262"><ele>108.9</ele><time>2024-02-01T16:09:54Z</time></trkpt><trkpt lat="58.05869" lon="38.81612"><ele>109.8</ele><time>2024-02-01T16:10:01Z</time></trkpt><trkpt lat="58.05869" lon="38.81598"><ele>109.8</ele><time>2024-02-01T16:10:07Z</time></trkpt><trkpt lat="58.058735" lon="38.815867"><ele>110.8</ele><time>2024-02-01T16:10:14Z</time></trkpt><trkpt lat="58.058705" lon="38.81577"><ele>109.6</ele><time>2024-02-01T16:10:21Z</time></trkpt><trkpt lat="58.058692" lon="38.815765"><ele>108.5</ele><time>2024-02-01T16:10:28Z</time></trkpt><trkpt lat="58.058695" lon="38.815762"><ele>108.3</ele><time>2024-02-01T16:10:29Z</time></trkpt><trkpt lat="58.058697" lon="38.81573"><ele>107.8</ele><time>2024-02-01T16:10:37Z</time></trkpt><trkpt lat="58.058697" lon="38.815725"><ele>108.2</ele><time>2024-02-01T16:10:38Z</time></trkpt><trkpt lat="58.058682" lon="38.81557"><ele>111.0</ele><time>2024-02-01T16:10:43Z</time></trkpt><trkpt lat="58.058725" lon="38.815425"><ele>115.7</ele><time>2024-02-01T16:10:48Z</time></trkpt><trkpt lat="58.058752" lon="38.815285"><ele>114.5</ele><time>2024-02-01T16:10:55Z</time></trkpt><trkpt lat="58.058715" lon="38.8152"><ele>113.5</ele><time>2024-02-01T16:11:02Z</time></trkpt><trkpt lat="58.058675" lon="38.815205"><ele>110.1</ele><time>2024-02-01T16:11:09Z</time></trkpt><trkpt lat="58.058605" lon="38.81525"><ele>108.3</ele><time>2024-02-01T16:11:14Z</time></trkpt><trkpt lat="58.05857" lon="38.815167"><ele>109.3</ele><time>2024-02-01T16:11:21Z</time></trkpt><trkpt lat="58.058587" lon="38.815025"><ele>109.5</ele><time>2024-02-01T16:11:28Z</time></trkpt><trkpt lat="58.058617" lon="38.814885"><ele>110.1</ele><time>2024-02-01T16:11:34Z</time></trkpt><trkpt lat="58.058627" lon="38.814775"><ele>110.7</ele><time>2024-02-01T16:11:41Z</time></trkpt><trkpt lat="58.058627" lon="38.81461"><ele>111.2</ele><time>2024-02-01T16:11:48Z</time></trkpt><trkpt lat="58.05864" lon="38.814465"><ele>108.8</ele><time>2024-02-01T16:11:53Z</time></trkpt><trkpt lat="58.05864" lon="38.81432"><ele>108.0</ele><time>2024-02-01T16:12:00Z</time></trkpt><trkpt lat="58.058685" lon="38.814215"><ele>107.5</ele><time>2024-02-01T16:12:07Z</time></trkpt><trkpt lat="58.0587" lon="38.814167"><ele>103.2</ele><time>2024-02-01T16:12:14Z</time></trkpt><trkpt lat="58.058692" lon="38.814055"><ele>103.1</ele><time>2024-02-01T16:12:21Z</time></trkpt><trkpt lat="58.05871" lon="38.814027"><ele>103.3</ele><time>2024-02-01T16:12:28Z</time></trkpt><trkpt lat="58.05873" lon="38.813965"><ele>101.2</ele><time>2024-02-01T16:12:35Z</time></trkpt><trkpt lat="58.058727" lon="38.813807"><ele>105.2</ele><time>2024-02-01T16:12:39Z</time></trkpt><trkpt lat="58.058715" lon="38.81364"><ele>103.5</ele><time>2024-02-01T16:12:42Z</time></trkpt><trkpt lat="58.05868" lon="38.813505"><ele>105.1</ele><time>2024-02-01T16:12:46Z</time></trkpt><trkpt lat="58.05869" lon="38.81342"><ele>107.6</ele><time>2024-02-01T16:12:53Z</time></trkpt><trkpt lat="58.058715" lon="38.813265"><ele>107.3</ele><time>2024-02-01T16:13:00Z</time></trkpt><trkpt lat="58.058698" lon="38.813117"><ele>108.3</ele><time>2024-02-01T16:13:04Z</time></trkpt><trkpt lat="58.058685" lon="38.81297"><ele>111.3</ele><time>2024-02-01T16:13:10Z</time></trkpt><trkpt lat="58.058672" lon="38.812817"><ele>113.4</ele><time>2024-02-01T16:13:13Z</time></trkpt><trkpt lat="58.058685" lon="38.812655"><ele>112.4</ele><time>2024-02-01T16:13:19Z</time></trkpt><trkpt lat="58.0587" lon="38.812507"><ele>113.8</ele><time>2024-02-01T16:13:24Z</time></trkpt><trkpt lat="58.058715" lon="38.812362"><ele>113.1</ele><time>2024-02-01T16:13:31Z</time></trkpt><trkpt lat="58.058732" lon="38.812205"><ele>112.5</ele><time>2024-02-01T16:13:36Z</time></trkpt><trkpt lat="58.05874" lon="38.812055"><ele>111.3</ele><time>2024-02-01T16:13:41Z</time></trkpt><trkpt lat="58.05875" lon="38.811902"><ele>111.2</ele><time>2024-02-01T16:13:48Z</time></trkpt><trkpt lat="58.05876" lon="38.811753"><ele>111.2</ele><time>2024-02-01T16:13:53Z</time></trkpt><trkpt lat="58.058755" lon="38.8116"><ele>112.1</ele><time>2024-02-01T16:13:58Z</time></trkpt><trkpt lat="58.05876" lon="38.81145"><ele>113.0</ele><time>2024-02-01T16:14:03Z</time></trkpt><trkpt lat="58.058765" lon="38.811297"><ele>115.8</ele><time>2024-02-01T16:14:07Z</time></trkpt><trkpt lat="58.058785" lon="38.81116"><ele>115.7</ele><time>2024-02-01T16:14:13Z</time></trkpt><trkpt lat="58.05881" lon="38.811015"><ele>114.2</ele><time>2024-02-01T16:14:19Z</time></trkpt><trkpt lat="58.05876" lon="38.81091"><ele>114.0</ele><time>2024-02-01T16:14:25Z</time></trkpt><trkpt lat="58.058687" lon="38.810905"><ele>113.8</ele><time>2024-02-01T16:14:30Z</time></trkpt><trkpt lat="58.058607" lon="38.81086"><ele>110.7</ele><time>2024-02-01T16:14:36Z</time></trkpt><trkpt lat="58.058535" lon="38.810875"><ele>113.7</ele><time>2024-02-01T16:14:43Z</time></trkpt><trkpt lat="58.05846" lon="38.81087"><ele>114.1</ele><time>2024-02-01T16:14:47Z</time></trkpt><trkpt lat="58.058385" lon="38.810905"><ele>116.3</ele><time>2024-02-01T16:14:51Z</time></trkpt><trkpt lat="58.05831" lon="38.810853"><ele>115.3</ele><time>2024-02-01T16:14:57Z</time></trkpt><trkpt lat="58.058242" lon="38.810767"><ele>115.5</ele><time>2024-02-01T16:15:03Z</time></trkpt><trkpt lat="58.058232" lon="38.81062"><ele>114.6</ele><time>2024-02-01T16:15:08Z</time></trkpt><trkpt lat="58.058205" lon="38.810468"><ele>115.7</ele><time>2024-02-01T16:15:14Z</time></trkpt><trkpt lat="58.058235" lon="38.81059"><ele>114.6</ele><time>2024-02-01T16:15:20Z</time></trkpt><trkpt lat="58.058165" lon="38.81061"><ele>113.0</ele><time>2024-02-01T16:15:25Z</time></trkpt><trkpt lat="58.05808" lon="38.81059"><ele>114.6</ele><time>2024-02-01T16:15:29Z</time></trkpt><trkpt lat="58.058007" lon="38.810575"><ele>115.4</ele><time>2024-02-01T16:15:34Z</time></trkpt><trkpt lat="58.05793" lon="38.810507"><ele>114.2</ele><time>2024-02-01T16:15:38Z</time></trkpt><trkpt lat="58.057857" lon="38.810445"><ele>112.2</ele><time>2024-02-01T16:15:43Z</time></trkpt><trkpt lat="58.057787" lon="38.810397"><ele>113.0</ele><time>2024-02-01T16:15:49Z</time></trkpt><trkpt lat="58.057717" lon="38.81036"><ele>113.9</ele><time>2024-02-01T16:15:53Z</time></trkpt><trkpt lat="58.05764" lon="38.810275"><ele>117.7</ele><time>2024-02-01T16:15:57Z</time></trkpt><trkpt lat="58.05757" lon="38.81021"><ele>117.3</ele><time>2024-02-01T16:16:01Z</time></trkpt><trkpt lat="58.057525" lon="38.81008"><ele>119.5</ele><time>2024-02-01T16:16:06Z</time></trkpt><trkpt lat="58.057475" lon="38.809975"><ele>121.5</ele><time>2024-02-01T16:16:12Z</time></trkpt><trkpt lat="58.057485" lon="38.809822"><ele>120.4</ele><time>2024-02-01T16:16:18Z</time></trkpt><trkpt lat="58.057525" lon="38.80968"><ele>120.1</ele><time>2024-02-01T16:16:24Z</time></trkpt><trkpt lat="58.05755" lon="38.809535"><ele>120.0</ele><time>2024-02-01T16:16:30Z</time></trkpt><trkpt lat="58.057555" lon="38.809397"><ele>117.4</ele><time>2024-02-01T16:16:35Z</time></trkpt><trkpt lat="58.05757" lon="38.809245"><ele>115.7</ele><time>2024-02-01T16:16:41Z</time></trkpt><trkpt lat="58.057557" lon="38.809095"><ele>115.2</ele><time>2024-02-01T16:16:48Z</time></trkpt><trkpt lat="58.057542" lon="38.808952"><ele>116.4</ele><time>2024-02-01T16:16:54Z</time></trkpt><trkpt lat="58.057562" lon="38.808787"><ele>113.2</ele><time>2024-02-01T16:17:01Z</time></trkpt><trkpt lat="58.057595" lon="38.80866"><ele>112.8</ele><time>2024-02-01T16:17:04Z</time></trkpt><trkpt lat="58.05757" lon="38.808535"><ele>114.1</ele><time>2024-02-01T16:17:09Z</time></trkpt><trkpt lat="58.057547" lon="38.808395"><ele>114.8</ele><time>2024-02-01T16:17:15Z</time></trkpt><trkpt lat="58.05754" lon="38.8083"><ele>113.1</ele><time>2024-02-01T16:17:22Z</time></trkpt><trkpt lat="58.057525" lon="38.80816"><ele>113.7</ele><time>2024-02-01T16:17:26Z</time></trkpt><trkpt lat="58.057515" lon="38.808017"><ele>117.8</ele><time>2024-02-01T16:17:30Z</time></trkpt><trkpt lat="58.057517" lon="38.80787"><ele>120.8</ele><time>2024-02-01T16:17:36Z</time></trkpt><trkpt lat="58.05752" lon="38.807735"><ele>119.8</ele><time>2024-02-01T16:17:41Z</time></trkpt><trkpt lat="58.05754" lon="38.807743"><ele>117.4</ele><time>2024-02-01T16:17:48Z</time></trkpt><trkpt lat="58.05753" lon="38.80761"><ele>117.7</ele><time>2024-02-01T16:17:51Z</time></trkpt><trkpt lat="58.057422" lon="38.807355"><ele>117.8</ele><time>2024-02-01T16:17:53Z</time></trkpt><trkpt lat="58.05735" lon="38.807315"><ele>118.6</ele><time>2024-02-01T16:17:59Z</time></trkpt><trkpt lat="58.05728" lon="38.80725"><ele>121.6</ele><time>2024-02-01T16:18:02Z</time></trkpt><trkpt lat="58.057205" lon="38.8072"><ele>121.5</ele><time>2024-02-01T16:18:05Z</time></trkpt><trkpt lat="58.057155" lon="38.807097"><ele>118.7</ele><time>2024-02-01T16:18:09Z</time></trkpt><trkpt lat="58.057012" lon="38.80689"><ele>117.6</ele><time>2024-02-01T16:19:25Z</time></trkpt><trkpt lat="58.057605" lon="38.80674"><ele>53.3</ele><time>2024-02-01T16:19:29Z</time></trkpt><trkpt lat="58.057025" lon="38.806915"><ele>117.7</ele><time>2024-02-01T16:19:31Z</time></trkpt><trkpt lat="58.057075" lon="38.80681"><ele>117.5</ele><time>2024-02-01T16:19:34Z</time></trkpt><trkpt lat="58.057285" lon="38.80762"><ele>102.6</ele><time>2024-02-01T16:20:52Z</time></trkpt><trkpt lat="58.057285" lon="38.80743"><ele>101.7</ele><time>2024-02-01T16:20:55Z</time></trkpt><trkpt lat="58.057315" lon="38.8073"><ele>111.2</ele><time>2024-02-01T16:20:57Z</time></trkpt><trkpt lat="58.057357" lon="38.80713"><ele>115.8</ele><time>2024-02-01T16:21:00Z</time></trkpt><trkpt lat="58.05736" lon="38.807085"><ele>115.8</ele><time>2024-02-01T16:21:07Z</time></trkpt><trkpt lat="58.05736" lon="38.807085"><ele>115.7</ele><time>2024-02-01T16:21:09Z</time></trkpt><trkpt lat="58.057415" lon="38.807165"><ele>117.2</ele><time>2024-02-01T16:21:28Z</time></trkpt><trkpt lat="58.05735" lon="38.807133"><ele>109.6</ele><time>2024-02-01T16:21:35Z</time></trkpt><trkpt lat="58.057415" lon="38.807165"><ele>111.1</ele><time>2024-02-01T16:21:42Z</time></trkpt><trkpt lat="58.0574" lon="38.807122"><ele>111.3</ele><time>2024-02-01T16:21:49Z</time></trkpt><trkpt lat="58.057477" lon="38.807117"><ele>113.9</ele><time>2024-02-01T16:21:56Z</time></trkpt><trkpt lat="58.05755" lon="38.80716"><ele>113.4</ele><time>2024-02-01T16:22:01Z</time></trkpt><trkpt lat="58.05763" lon="38.807145"><ele>116.0</ele><time>2024-02-01T16:22:08Z</time></trkpt><trkpt lat="58.05769" lon="38.807145"><ele>116.9</ele><time>2024-02-01T16:22:15Z</time></trkpt><trkpt lat="58.057725" lon="38.807285"><ele>117.8</ele><time>2024-02-01T16:22:20Z</time></trkpt><trkpt lat="58.05776" lon="38.807402"><ele>115.4</ele><time>2024-02-01T16:22:25Z</time></trkpt><trkpt lat="58.05784" lon="38.807405"><ele>116.1</ele><time>2024-02-01T16:22:30Z</time></trkpt><trkpt lat="58.05789" lon="38.807285"><ele>114.3</ele><time>2024-02-01T16:22:33Z</time></trkpt><trkpt lat="58.057965" lon="38.80727"><ele>113.6</ele><time>2024-02-01T16:22:39Z</time></trkpt><trkpt lat="58.05802" lon="38.807355"><ele>114.4</ele><time>2024-02-01T16:22:44Z</time></trkpt><trkpt lat="58.05809" lon="38.80739"><ele>114.4</ele><time>2024-02-01T16:22:51Z</time></trkpt><trkpt lat="58.058162" lon="38.80732"><ele>115.8</ele><time>2024-02-01T16:22:56Z</time></trkpt><trkpt lat="58.058235" lon="38.807345"><ele>112.2</ele><time>2024-02-01T16:23:02Z</time></trkpt><trkpt lat="58.058302" lon="38.80746"><ele>110.6</ele><time>2024-02-01T16:23:06Z</time></trkpt><trkpt lat="58.058375" lon="38.80756"><ele>110.6</ele><time>2024-02-01T16:23:11Z</time></trkpt><trkpt lat="58.05845" lon="38.80757"><ele>109.5</ele><time>2024-02-01T16:23:17Z</time></trkpt><trkpt lat="58.05852" lon="38.807567"><ele>110.0</ele><time>2024-02-01T16:23:24Z</time></trkpt><trkpt lat="58.058605" lon="38.80762"><ele>112.3</ele><time>2024-02-01T16:23:31Z</time></trkpt><trkpt lat="58.058625" lon="38.807685"><ele>117.1</ele><time>2024-02-01T16:23:38Z</time></trkpt><trkpt lat="58.058602" lon="38.8077"><ele>115.1</ele><time>2024-02-01T16:23:45Z</time></trkpt><trkpt lat="58.058645" lon="38.807692"><ele>113.8</ele><time>2024-02-01T16:23:52Z</time></trkpt><trkpt lat="58.05864" lon="38.80768"><ele>113.0</ele><time>2024-02-01T16:23:59Z</time></trkpt><trkpt lat="58.058557" lon="38.807635"><ele>112.7</ele><time>2024-02-01T16:24:08Z</time></trkpt></trkseg></trk></gpx>