<?xml version="1.0" encoding="UTF-8" standalone="no"?><gpx xmlns="http://www.topografix.com/GPX/1/1" xmlns:gpxtpx="http://www.garmin.com/xmlschemas/TrackPointExtension/v1" xmlns:xsi="http://www.w3.org/2001/XMLSchema-instance" creator="Sports Tracker" version="1.1" xsi:schemaLocation="http://www.topografix.com/GPX/1/1 http://www.topografix.com/GPX/1/1/gpx.xsd http://www.garmin.com/xmlschemas/TrackPointExtension/v1 http://www.garmin.com/xmlschemas/TrackPointExtensionv1.xsd"><metadata><name>09.04.2024 18:26</name><desc/><author><name>Александр</name></author></metadata><trk><name>09.04.2024 18:26</name><trkseg><trkpt lat="58.063365" lon="38.842355"><ele>118.9</ele><time>2024-04-09T15:26:31Z</time></trkpt><trkpt lat="58.063365" lon="38.842355"><ele>118.9</ele><time>2024-04-09T15:26:42Z</time></trkpt><trkpt lat="58.06336" lon="38.84233"><ele>116.0</ele><time>2024-04-09T15:26:49Z</time></trkpt><trkpt lat="58.06328" lon="38.842367"><ele>112.1</ele><time>2024-04-09T15:26:55Z</time></trkpt><trkpt lat="58.063257" lon="38.842288"><ele>110.5</ele><time>2024-04-09T15:27:02Z</time></trkpt><trkpt lat="58.063172" lon="38.84235"><ele>113.3</ele><time>2024-04-09T15:27:05Z</time></trkpt><trkpt lat="58.06312" lon="38.842442"><ele>113.8</ele><time>2024-04-09T15:27:11Z</time></trkpt><trkpt lat="58.063035" lon="38.842148"><ele>114.2</ele><time>2024-04-09T15:27:38Z</time></trkpt><trkpt lat="58.062995" lon="38.84203"><ele>110.4</ele><time>2024-04-09T15:27:43Z</time></trkpt><trkpt lat="58.06296" lon="38.841885"><ele>108.5</ele><time>2024-04-09T15:27:46Z</time></trkpt><trkpt lat="58.062905" lon="38.841745"><ele>108.3</ele><time>2024-04-09T15:27:49Z</time></trkpt><trkpt lat="58.062845" lon="38.84166"><ele>108.4</ele><time>2024-04-09T15:27:52Z</time></trkpt><trkpt lat="58.062765" lon="38.841567"><ele>105.4</ele><time>2024-04-09T15:27:56Z</time></trkpt><trkpt lat="58.06266" lon="38.841605"><ele>106.0</ele><time>2024-04-09T15:28:00Z</time></trkpt><trkpt lat="58.062567" lon="38.84175"><ele>106.2</ele><time>2024-04-09T15:28:03Z</time></trkpt><trkpt lat="58.06255" lon="38.84189"><ele>102.3</ele><time>2024-04-09T15:28:05Z</time></trkpt><trkpt lat="58.06246" lon="38.84192"><ele>104.5</ele><time>2024-04-09T15:28:09Z</time></trkpt><trkpt lat="58.06245" lon="38.842057"><ele>105.7</ele><time>2024-04-09T15:28:12Z</time></trkpt><trkpt lat="58.06237" lon="38.842147"><ele>104.5</ele><time>2024-04-09T15:28:15Z</time></trkpt><trkpt lat="58.062292" lon="38.842215"><ele>104.8</ele><time>2024-04-09T15:28:18Z</time></trkpt><trkpt lat="58.06223" lon="38.842345"><ele>106.8</ele><time>2024-04-09T15:28:21Z</time></trkpt><trkpt lat="58.06217" lon="38.842475"><ele>107.9</ele><time>2024-04-09T15:28:24Z</time></trkpt><trkpt lat="58.062108" lon="38.842565"><ele>108.6</ele><time>2024-04-09T15:28:27Z</time></trkpt><trkpt lat="58.06206" lon="38.842682"><ele>107.6</ele><time>2024-04-09T15:28:30Z</time></trkpt><trkpt lat="58.06199" lon="38.842812"><ele>107.8</ele><time>2024-04-09T15:28:33Z</time></trkpt><trkpt lat="58.061907" lon="38.84294"><ele>109.7</ele><time>2024-04-09T15:28:36Z</time></trkpt><trkpt lat="58.061832" lon="38.84306"><ele>108.4</ele><time>2024-04-09T15:28:39Z</time></trkpt><trkpt lat="58.06177" lon="38.843192"><ele>108.9</ele><time>2024-04-09T15:28:42Z</time></trkpt><trkpt lat="58.061712" lon="38.843305"><ele>108.1</ele><time>2024-04-09T15:28:45Z</time></trkpt><trkpt lat="58.06164" lon="38.843425"><ele>108.5</ele><time>2024-04-09T15:28:48Z</time></trkpt><trkpt lat="58.061572" lon="38.843512"><ele>109.1</ele><time>2024-04-09T15:28:50Z</time></trkpt><trkpt lat="58.061515" lon="38.843615"><ele>107.3</ele><time>2024-04-09T15:28:52Z</time></trkpt><trkpt lat="58.061432" lon="38.843715"><ele>105.1</ele><time>2024-04-09T15:28:55Z</time></trkpt><trkpt lat="58.061365" lon="38.843795"><ele>102.9</ele><time>2024-04-09T15:28:57Z</time></trkpt><trkpt lat="58.06129" lon="38.843885"><ele>103.1</ele><time>2024-04-09T15:28:59Z</time></trkpt><trkpt lat="58.06122" lon="38.843978"><ele>103.4</ele><time>2024-04-09T15:29:01Z</time></trkpt><trkpt lat="58.06113" lon="38.844085"><ele>102.2</ele><time>2024-04-09T15:29:03Z</time></trkpt><trkpt lat="58.06106" lon="38.844147"><ele>101.5</ele><time>2024-04-09T15:29:04Z</time></trkpt><trkpt lat="58.060935" lon="38.844267"><ele>98.9</ele><time>2024-04-09T15:29:06Z</time></trkpt><trkpt lat="58.06086" lon="38.844355"><ele>99.2</ele><time>2024-04-09T15:29:07Z</time></trkpt><trkpt lat="58.060795" lon="38.844435"><ele>98.8</ele><time>2024-04-09T15:29:08Z</time></trkpt><trkpt lat="58.060715" lon="38.84451"><ele>98.5</ele><time>2024-04-09T15:29:09Z</time></trkpt><trkpt lat="58.06065" lon="38.84458"><ele>97.4</ele><time>2024-04-09T15:29:10Z</time></trkpt><trkpt lat="58.060585" lon="38.844645"><ele>97.3</ele><time>2024-04-09T15:29:11Z</time></trkpt><trkpt lat="58.060485" lon="38.844775"><ele>96.8</ele><time>2024-04-09T15:29:13Z</time></trkpt><trkpt lat="58.060425" lon="38.84492"><ele>95.4</ele><time>2024-04-09T15:29:15Z</time></trkpt><trkpt lat="58.060375" lon="38.845065"><ele>94.0</ele><time>2024-04-09T15:29:18Z</time></trkpt><trkpt lat="58.060345" lon="38.8452"><ele>94.9</ele><time>2024-04-09T15:29:24Z</time></trkpt><trkpt lat="58.060335" lon="38.845387"><ele>94.2</ele><time>2024-04-09T15:29:27Z</time></trkpt><trkpt lat="58.060295" lon="38.845525"><ele>97.7</ele><time>2024-04-09T15:29:29Z</time></trkpt><trkpt lat="58.06026" lon="38.84565"><ele>96.3</ele><time>2024-04-09T15:29:31Z</time></trkpt><trkpt lat="58.060215" lon="38.845815"><ele>95.0</ele><time>2024-04-09T15:29:33Z</time></trkpt><trkpt lat="58.060138" lon="38.84599"><ele>95.0</ele><time>2024-04-09T15:29:35Z</time></trkpt><trkpt lat="58.06008" lon="38.84608"><ele>96.1</ele><time>2024-04-09T15:29:36Z</time></trkpt><trkpt lat="58.05999" lon="38.84626"><ele>95.7</ele><time>2024-04-09T15:29:38Z</time></trkpt><trkpt lat="58.059913" lon="38.846425"><ele>96.2</ele><time>2024-04-09T15:29:40Z</time></trkpt><trkpt lat="58.059845" lon="38.846575"><ele>97.5</ele><time>2024-04-09T15:29:42Z</time></trkpt><trkpt lat="58.059765" lon="38.846727"><ele>100.5</ele><time>2024-04-09T15:29:44Z</time></trkpt><trkpt lat="58.059682" lon="38.84689"><ele>99.3</ele><time>2024-04-09T15:29:47Z</time></trkpt><trkpt lat="58.059627" lon="38.84703"><ele>101.3</ele><time>2024-04-09T15:29:49Z</time></trkpt><trkpt lat="58.05956" lon="38.847155"><ele>102.6</ele><time>2024-04-09T15:29:51Z</time></trkpt><trkpt lat="58.05952" lon="38.84728"><ele>100.7</ele><time>2024-04-09T15:29:53Z</time></trkpt><trkpt lat="58.059462" lon="38.847412"><ele>101.1</ele><time>2024-04-09T15:29:55Z</time></trkpt><trkpt lat="58.059387" lon="38.847565"><ele>100.7</ele><time>2024-04-09T15:29:57Z</time></trkpt><trkpt lat="58.05932" lon="38.84771"><ele>100.5</ele><time>2024-04-09T15:29:59Z</time></trkpt><trkpt lat="58.05926" lon="38.847882"><ele>98.8</ele><time>2024-04-09T15:30:02Z</time></trkpt><trkpt lat="58.05918" lon="38.848052"><ele>100.1</ele><time>2024-04-09T15:30:04Z</time></trkpt><trkpt lat="58.059095" lon="38.848212"><ele>100.4</ele><time>2024-04-09T15:30:06Z</time></trkpt><trkpt lat="58.059025" lon="38.848362"><ele>101.0</ele><time>2024-04-09T15:30:08Z</time></trkpt><trkpt lat="58.058965" lon="38.84848"><ele>101.4</ele><time>2024-04-09T15:30:10Z</time></trkpt><trkpt lat="58.05891" lon="38.84861"><ele>100.1</ele><time>2024-04-09T15:30:12Z</time></trkpt><trkpt lat="58.05884" lon="38.848745"><ele>99.0</ele><time>2024-04-09T15:30:14Z</time></trkpt><trkpt lat="58.058788" lon="38.848883"><ele>100.0</ele><time>2024-04-09T15:30:16Z</time></trkpt><trkpt lat="58.05873" lon="38.849015"><ele>100.2</ele><time>2024-04-09T15:30:18Z</time></trkpt><trkpt lat="58.058687" lon="38.849152"><ele>100.9</ele><time>2024-04-09T15:30:20Z</time></trkpt><trkpt lat="58.05864" lon="38.849305"><ele>101.6</ele><time>2024-04-09T15:30:22Z</time></trkpt><trkpt lat="58.058585" lon="38.8494"><ele>101.2</ele><time>2024-04-09T15:30:24Z</time></trkpt><trkpt lat="58.058502" lon="38.84951"><ele>100.3</ele><time>2024-04-09T15:30:26Z</time></trkpt><trkpt lat="58.05843" lon="38.849647"><ele>100.3</ele><time>2024-04-09T15:30:28Z</time></trkpt><trkpt lat="58.05836" lon="38.849735"><ele>97.2</ele><time>2024-04-09T15:30:30Z</time></trkpt><trkpt lat="58.05827" lon="38.84986"><ele>97.5</ele><time>2024-04-09T15:30:32Z</time></trkpt><trkpt lat="58.058192" lon="38.849962"><ele>95.0</ele><time>2024-04-09T15:30:34Z</time></trkpt><trkpt lat="58.058115" lon="38.850085"><ele>94.7</ele><time>2024-04-09T15:30:36Z</time></trkpt><trkpt lat="58.05805" lon="38.850253"><ele>96.0</ele><time>2024-04-09T15:30:38Z</time></trkpt><trkpt lat="58.058025" lon="38.850445"><ele>97.8</ele><time>2024-04-09T15:30:40Z</time></trkpt><trkpt lat="58.058017" lon="38.85066"><ele>99.6</ele><time>2024-04-09T15:30:42Z</time></trkpt><trkpt lat="58.05802" lon="38.850865"><ele>101.5</ele><time>2024-04-09T15:30:44Z</time></trkpt><trkpt lat="58.057995" lon="38.851045"><ele>101.5</ele><time>2024-04-09T15:30:46Z</time></trkpt><trkpt lat="58.05792" lon="38.85118"><ele>98.0</ele><time>2024-04-09T15:30:49Z</time></trkpt><trkpt lat="58.057858" lon="38.851315"><ele>97.2</ele><time>2024-04-09T15:30:51Z</time></trkpt><trkpt lat="58.05782" lon="38.851505"><ele>96.7</ele><time>2024-04-09T15:30:53Z</time></trkpt><trkpt lat="58.057775" lon="38.85161"><ele>95.6</ele><time>2024-04-09T15:30:55Z</time></trkpt><trkpt lat="58.05772" lon="38.851735"><ele>94.2</ele><time>2024-04-09T15:30:57Z</time></trkpt><trkpt lat="58.057655" lon="38.85191"><ele>95.8</ele><time>2024-04-09T15:30:59Z</time></trkpt><trkpt lat="58.057585" lon="38.852077"><ele>98.1</ele><time>2024-04-09T15:31:01Z</time></trkpt><trkpt lat="58.057505" lon="38.852235"><ele>99.2</ele><time>2024-04-09T15:31:03Z</time></trkpt><trkpt lat="58.05742" lon="38.85241"><ele>99.5</ele><time>2024-04-09T15:31:05Z</time></trkpt><trkpt lat="58.05735" lon="38.852597"><ele>100.2</ele><time>2024-04-09T15:31:07Z</time></trkpt><trkpt lat="58.057295" lon="38.852765"><ele>99.9</ele><time>2024-04-09T15:31:09Z</time></trkpt><trkpt lat="58.05726" lon="38.85292"><ele>102.0</ele><time>2024-04-09T15:31:11Z</time></trkpt><trkpt lat="58.057217" lon="38.853105"><ele>102.8</ele><time>2024-04-09T15:31:14Z</time></trkpt><trkpt lat="58.05716" lon="38.853277"><ele>104.1</ele><time>2024-04-09T15:31:17Z</time></trkpt><trkpt lat="58.05713" lon="38.853425"><ele>104.6</ele><time>2024-04-09T15:31:21Z</time></trkpt><trkpt lat="58.05708" lon="38.853547"><ele>103.9</ele><time>2024-04-09T15:31:23Z</time></trkpt><trkpt lat="58.05701" lon="38.853742"><ele>104.7</ele><time>2024-04-09T15:31:25Z</time></trkpt><trkpt lat="58.056982" lon="38.85391"><ele>104.6</ele><time>2024-04-09T15:31:27Z</time></trkpt><trkpt lat="58.056945" lon="38.854082"><ele>104.1</ele><time>2024-04-09T15:31:30Z</time></trkpt><trkpt lat="58.0569" lon="38.854257"><ele>103.9</ele><time>2024-04-09T15:31:33Z</time></trkpt><trkpt lat="58.05683" lon="38.85436"><ele>102.2</ele><time>2024-04-09T15:31:36Z</time></trkpt><trkpt lat="58.056752" lon="38.854445"><ele>101.1</ele><time>2024-04-09T15:31:39Z</time></trkpt><trkpt lat="58.056705" lon="38.85455"><ele>102.2</ele><time>2024-04-09T15:31:41Z</time></trkpt><trkpt lat="58.056655" lon="38.854665"><ele>103.0</ele><time>2024-04-09T15:31:43Z</time></trkpt><trkpt lat="58.0566" lon="38.85478"><ele>103.6</ele><time>2024-04-09T15:31:45Z</time></trkpt><trkpt lat="58.05652" lon="38.854902"><ele>103.7</ele><time>2024-04-09T15:31:48Z</time></trkpt><trkpt lat="58.056455" lon="38.855005"><ele>104.2</ele><time>2024-04-09T15:31:50Z</time></trkpt><trkpt lat="58.0564" lon="38.85513"><ele>104.3</ele><time>2024-04-09T15:31:52Z</time></trkpt><trkpt lat="58.056347" lon="38.855252"><ele>103.9</ele><time>2024-04-09T15:31:54Z</time></trkpt><trkpt lat="58.056295" lon="38.855385"><ele>104.9</ele><time>2024-04-09T15:31:56Z</time></trkpt><trkpt lat="58.05624" lon="38.855525"><ele>103.3</ele><time>2024-04-09T15:31:58Z</time></trkpt><trkpt lat="58.056198" lon="38.855655"><ele>102.7</ele><time>2024-04-09T15:32:00Z</time></trkpt><trkpt lat="58.05616" lon="38.855835"><ele>100.9</ele><time>2024-04-09T15:32:02Z</time></trkpt><trkpt lat="58.056113" lon="38.855975"><ele>100.5</ele><time>2024-04-09T15:32:04Z</time></trkpt><trkpt lat="58.05607" lon="38.856117"><ele>101.0</ele><time>2024-04-09T15:32:06Z</time></trkpt><trkpt lat="58.056037" lon="38.85629"><ele>102.3</ele><time>2024-04-09T15:32:08Z</time></trkpt><trkpt lat="58.05603" lon="38.85649"><ele>104.3</ele><time>2024-04-09T15:32:10Z</time></trkpt><trkpt lat="58.05604" lon="38.85667"><ele>107.0</ele><time>2024-04-09T15:32:12Z</time></trkpt><trkpt lat="58.056035" lon="38.85685"><ele>108.8</ele><time>2024-04-09T15:32:14Z</time></trkpt><trkpt lat="58.05601" lon="38.85699"><ele>107.1</ele><time>2024-04-09T15:32:16Z</time></trkpt><trkpt lat="58.055965" lon="38.857163"><ele>106.6</ele><time>2024-04-09T15:32:19Z</time></trkpt><trkpt lat="58.055915" lon="38.857297"><ele>106.2</ele><time>2024-04-09T15:32:21Z</time></trkpt><trkpt lat="58.055875" lon="38.85742"><ele>106.7</ele><time>2024-04-09T15:32:23Z</time></trkpt><trkpt lat="58.05583" lon="38.857555"><ele>106.9</ele><time>2024-04-09T15:32:25Z</time></trkpt><trkpt lat="58.05578" lon="38.85769"><ele>107.6</ele><time>2024-04-09T15:32:27Z</time></trkpt><trkpt lat="58.05572" lon="38.857842"><ele>108.2</ele><time>2024-04-09T15:32:29Z</time></trkpt><trkpt lat="58.055658" lon="38.85801"><ele>107.5</ele><time>2024-04-09T15:32:31Z</time></trkpt><trkpt lat="58.055605" lon="38.85817"><ele>106.9</ele><time>2024-04-09T15:32:33Z</time></trkpt><trkpt lat="58.055545" lon="38.85834"><ele>105.5</ele><time>2024-04-09T15:32:35Z</time></trkpt><trkpt lat="58.0555" lon="38.858525"><ele>105.2</ele><time>2024-04-09T15:32:37Z</time></trkpt><trkpt lat="58.055453" lon="38.858705"><ele>105.5</ele><time>2024-04-09T15:32:39Z</time></trkpt><trkpt lat="58.05542" lon="38.8589"><ele>105.3</ele><time>2024-04-09T15:32:41Z</time></trkpt><trkpt lat="58.055385" lon="38.85911"><ele>105.8</ele><time>2024-04-09T15:32:43Z</time></trkpt><trkpt lat="58.05534" lon="38.859255"><ele>105.4</ele><time>2024-04-09T15:32:45Z</time></trkpt><trkpt lat="58.055315" lon="38.859447"><ele>105.6</ele><time>2024-04-09T15:32:47Z</time></trkpt><trkpt lat="58.05529" lon="38.85966"><ele>105.2</ele><time>2024-04-09T15:32:49Z</time></trkpt><trkpt lat="58.055262" lon="38.859878"><ele>106.4</ele><time>2024-04-09T15:32:51Z</time></trkpt><trkpt lat="58.055255" lon="38.860027"><ele>106.0</ele><time>2024-04-09T15:32:53Z</time></trkpt><trkpt lat="58.05522" lon="38.86024"><ele>106.9</ele><time>2024-04-09T15:32:56Z</time></trkpt><trkpt lat="58.05519" lon="38.86041"><ele>107.1</ele><time>2024-04-09T15:32:58Z</time></trkpt><trkpt lat="58.05516" lon="38.860575"><ele>106.7</ele><time>2024-04-09T15:33:00Z</time></trkpt><trkpt lat="58.05512" lon="38.860715"><ele>106.1</ele><time>2024-04-09T15:33:02Z</time></trkpt><trkpt lat="58.05507" lon="38.86087"><ele>106.9</ele><time>2024-04-09T15:33:04Z</time></trkpt><trkpt lat="58.05502" lon="38.861017"><ele>107.6</ele><time>2024-04-09T15:33:06Z</time></trkpt><trkpt lat="58.054975" lon="38.861157"><ele>107.6</ele><time>2024-04-09T15:33:08Z</time></trkpt><trkpt lat="58.054925" lon="38.861312"><ele>106.6</ele><time>2024-04-09T15:33:10Z</time></trkpt><trkpt lat="58.054885" lon="38.86144"><ele>105.9</ele><time>2024-04-09T15:33:12Z</time></trkpt><trkpt lat="58.054845" lon="38.861575"><ele>105.6</ele><time>2024-04-09T15:33:14Z</time></trkpt><trkpt lat="58.054812" lon="38.861717"><ele>105.4</ele><time>2024-04-09T15:33:17Z</time></trkpt><trkpt lat="58.05479" lon="38.86186"><ele>104.8</ele><time>2024-04-09T15:33:20Z</time></trkpt><trkpt lat="58.054765" lon="38.862035"><ele>105.1</ele><time>2024-04-09T15:33:23Z</time></trkpt><trkpt lat="58.054775" lon="38.86221"><ele>105.4</ele><time>2024-04-09T15:33:26Z</time></trkpt><trkpt lat="58.054845" lon="38.86234"><ele>104.2</ele><time>2024-04-09T15:33:29Z</time></trkpt><trkpt lat="58.054903" lon="38.862435"><ele>105.1</ele><time>2024-04-09T15:33:32Z</time></trkpt><trkpt lat="58.054985" lon="38.862517"><ele>107.0</ele><time>2024-04-09T15:33:35Z</time></trkpt><trkpt lat="58.055052" lon="38.862612"><ele>108.2</ele><time>2024-04-09T15:33:38Z</time></trkpt><trkpt lat="58.055125" lon="38.862747"><ele>108.5</ele><time>2024-04-09T15:33:41Z</time></trkpt><trkpt lat="58.055175" lon="38.862865"><ele>109.2</ele><time>2024-04-09T15:33:44Z</time></trkpt><trkpt lat="58.055228" lon="38.862972"><ele>108.4</ele><time>2024-04-09T15:33:46Z</time></trkpt><trkpt lat="58.05529" lon="38.86309"><ele>108.0</ele><time>2024-04-09T15:33:48Z</time></trkpt><trkpt lat="58.055355" lon="38.863205"><ele>109.4</ele><time>2024-04-09T15:33:50Z</time></trkpt><trkpt lat="58.05541" lon="38.863305"><ele>109.4</ele><time>2024-04-09T15:33:52Z</time></trkpt><trkpt lat="58.055453" lon="38.863415"><ele>109.6</ele><time>2024-04-09T15:33:54Z</time></trkpt><trkpt lat="58.055505" lon="38.863535"><ele>109.5</ele><time>2024-04-09T15:33:56Z</time></trkpt><trkpt lat="58.05557" lon="38.863635"><ele>108.7</ele><time>2024-04-09T15:33:58Z</time></trkpt><trkpt lat="58.055647" lon="38.86377"><ele>108.6</ele><time>2024-04-09T15:34:00Z</time></trkpt><trkpt lat="58.055705" lon="38.863945"><ele>108.6</ele><time>2024-04-09T15:34:02Z</time></trkpt><trkpt lat="58.055767" lon="38.86413"><ele>108.9</ele><time>2024-04-09T15:34:04Z</time></trkpt><trkpt lat="58.05579" lon="38.8643"><ele>108.5</ele><time>2024-04-09T15:34:06Z</time></trkpt><trkpt lat="58.05579" lon="38.86446"><ele>109.2</ele><time>2024-04-09T15:34:08Z</time></trkpt><trkpt lat="58.05576" lon="38.864605"><ele>107.9</ele><time>2024-04-09T15:34:10Z</time></trkpt><trkpt lat="58.05571" lon="38.86471"><ele>108.1</ele><time>2024-04-09T15:34:12Z</time></trkpt><trkpt lat="58.055635" lon="38.86476"><ele>108.3</ele><time>2024-04-09T15:34:14Z</time></trkpt><trkpt lat="58.055547" lon="38.86473"><ele>108.0</ele><time>2024-04-09T15:34:16Z</time></trkpt><trkpt lat="58.055445" lon="38.86467"><ele>107.7</ele><time>2024-04-09T15:34:18Z</time></trkpt><trkpt lat="58.055355" lon="38.864615"><ele>107.3</ele><time>2024-04-09T15:34:20Z</time></trkpt><trkpt lat="58.055265" lon="38.86455"><ele>107.9</ele><time>2024-04-09T15:34:22Z</time></trkpt><trkpt lat="58.05517" lon="38.864487"><ele>108.7</ele><time>2024-04-09T15:34:24Z</time></trkpt><trkpt lat="58.055077" lon="38.86444"><ele>109.2</ele><time>2024-04-09T15:34:26Z</time></trkpt><trkpt lat="58.054988" lon="38.864385"><ele>109.4</ele><time>2024-04-09T15:34:28Z</time></trkpt><trkpt lat="58.05491" lon="38.864325"><ele>109.6</ele><time>2024-04-09T15:34:30Z</time></trkpt><trkpt lat="58.054833" lon="38.864267"><ele>110.4</ele><time>2024-04-09T15:34:32Z</time></trkpt><trkpt lat="58.054765" lon="38.864205"><ele>110.5</ele><time>2024-04-09T15:34:34Z</time></trkpt><trkpt lat="58.05466" lon="38.864145"><ele>109.9</ele><time>2024-04-09T15:34:37Z</time></trkpt><trkpt lat="58.05458" lon="38.864095"><ele>110.9</ele><time>2024-04-09T15:34:39Z</time></trkpt><trkpt lat="58.054505" lon="38.864042"><ele>111.3</ele><time>2024-04-09T15:34:41Z</time></trkpt><trkpt lat="58.05443" lon="38.86399"><ele>110.9</ele><time>2024-04-09T15:34:43Z</time></trkpt><trkpt lat="58.054355" lon="38.86394"><ele>111.0</ele><time>2024-04-09T15:34:45Z</time></trkpt><trkpt lat="58.05428" lon="38.863902"><ele>110.7</ele><time>2024-04-09T15:34:47Z</time></trkpt><trkpt lat="58.054205" lon="38.863852"><ele>110.0</ele><time>2024-04-09T15:34:49Z</time></trkpt><trkpt lat="58.054125" lon="38.863805"><ele>109.5</ele><time>2024-04-09T15:34:51Z</time></trkpt><trkpt lat="58.05404" lon="38.86373"><ele>109.7</ele><time>2024-04-09T15:34:53Z</time></trkpt><trkpt lat="58.053972" lon="38.863663"><ele>108.8</ele><time>2024-04-09T15:34:55Z</time></trkpt><trkpt lat="58.053885" lon="38.863615"><ele>109.4</ele><time>2024-04-09T15:34:56Z</time></trkpt><trkpt lat="58.053785" lon="38.863575"><ele>108.5</ele><time>2024-04-09T15:35:00Z</time></trkpt><trkpt lat="58.053707" lon="38.86354"><ele>108.8</ele><time>2024-04-09T15:35:02Z</time></trkpt><trkpt lat="58.053615" lon="38.863485"><ele>108.6</ele><time>2024-04-09T15:35:04Z</time></trkpt><trkpt lat="58.053535" lon="38.86342"><ele>109.6</ele><time>2024-04-09T15:35:06Z</time></trkpt><trkpt lat="58.053457" lon="38.863375"><ele>109.6</ele><time>2024-04-09T15:35:08Z</time></trkpt><trkpt lat="58.053385" lon="38.86333"><ele>109.4</ele><time>2024-04-09T15:35:10Z</time></trkpt><trkpt lat="58.053312" lon="38.86327"><ele>109.3</ele><time>2024-04-09T15:35:12Z</time></trkpt><trkpt lat="58.053235" lon="38.863222"><ele>109.5</ele><time>2024-04-09T15:35:14Z</time></trkpt><trkpt lat="58.053158" lon="38.86319"><ele>109.6</ele><time>2024-04-09T15:35:16Z</time></trkpt><trkpt lat="58.053065" lon="38.86311"><ele>109.9</ele><time>2024-04-09T15:35:18Z</time></trkpt><trkpt lat="58.052967" lon="38.863045"><ele>109.7</ele><time>2024-04-09T15:35:20Z</time></trkpt><trkpt lat="58.052885" lon="38.862988"><ele>110.6</ele><time>2024-04-09T15:35:22Z</time></trkpt><trkpt lat="58.0528" lon="38.86293"><ele>111.0</ele><time>2024-04-09T15:35:24Z</time></trkpt><trkpt lat="58.052705" lon="38.862865"><ele>112.0</ele><time>2024-04-09T15:35:26Z</time></trkpt><trkpt lat="58.05263" lon="38.86281"><ele>112.2</ele><time>2024-04-09T15:35:28Z</time></trkpt><trkpt lat="58.052545" lon="38.862747"><ele>112.1</ele><time>2024-04-09T15:35:30Z</time></trkpt><trkpt lat="58.05246" lon="38.86271"><ele>111.6</ele><time>2024-04-09T15:35:32Z</time></trkpt><trkpt lat="58.05237" lon="38.86264"><ele>111.9</ele><time>2024-04-09T15:35:34Z</time></trkpt><trkpt lat="58.05229" lon="38.862585"><ele>111.6</ele><time>2024-04-09T15:35:36Z</time></trkpt><trkpt lat="58.052205" lon="38.86253"><ele>112.2</ele><time>2024-04-09T15:35:38Z</time></trkpt><trkpt lat="58.05213" lon="38.862467"><ele>112.1</ele><time>2024-04-09T15:35:40Z</time></trkpt><trkpt lat="58.05205" lon="38.86241"><ele>111.9</ele><time>2024-04-09T15:35:42Z</time></trkpt><trkpt lat="58.05197" lon="38.86236"><ele>109.4</ele><time>2024-04-09T15:35:45Z</time></trkpt><trkpt lat="58.051875" lon="38.862317"><ele>109.7</ele><time>2024-04-09T15:35:47Z</time></trkpt><trkpt lat="58.051797" lon="38.86227"><ele>109.4</ele><time>2024-04-09T15:35:49Z</time></trkpt><trkpt lat="58.05172" lon="38.862215"><ele>110.1</ele><time>2024-04-09T15:35:51Z</time></trkpt><trkpt lat="58.051647" lon="38.862158"><ele>109.9</ele><time>2024-04-09T15:35:53Z</time></trkpt><trkpt lat="58.051572" lon="38.862105"><ele>110.0</ele><time>2024-04-09T15:35:55Z</time></trkpt><trkpt lat="58.051495" lon="38.862035"><ele>110.1</ele><time>2024-04-09T15:35:57Z</time></trkpt><trkpt lat="58.051405" lon="38.86198"><ele>111.0</ele><time>2024-04-09T15:35:59Z</time></trkpt><trkpt lat="58.05133" lon="38.861925"><ele>110.3</ele><time>2024-04-09T15:36:01Z</time></trkpt><trkpt lat="58.05123" lon="38.86187"><ele>110.8</ele><time>2024-04-09T15:36:04Z</time></trkpt><trkpt lat="58.05114" lon="38.86183"><ele>111.8</ele><time>2024-04-09T15:36:07Z</time></trkpt><trkpt lat="58.051062" lon="38.861778"><ele>110.0</ele><time>2024-04-09T15:36:10Z</time></trkpt><trkpt lat="58.05097" lon="38.861687"><ele>107.3</ele><time>2024-04-09T15:36:13Z</time></trkpt><trkpt lat="58.0509" lon="38.86164"><ele>108.9</ele><time>2024-04-09T15:36:15Z</time></trkpt><trkpt lat="58.050835" lon="38.861565"><ele>108.4</ele><time>2024-04-09T15:36:17Z</time></trkpt><trkpt lat="58.050745" lon="38.86152"><ele>107.4</ele><time>2024-04-09T15:36:19Z</time></trkpt><trkpt lat="58.050675" lon="38.861472"><ele>106.8</ele><time>2024-04-09T15:36:21Z</time></trkpt><trkpt lat="58.05058" lon="38.86139"><ele>106.5</ele><time>2024-04-09T15:36:24Z</time></trkpt><trkpt lat="58.050485" lon="38.861345"><ele>105.2</ele><time>2024-04-09T15:36:27Z</time></trkpt><trkpt lat="58.05041" lon="38.861295"><ele>108.0</ele><time>2024-04-09T15:36:30Z</time></trkpt><trkpt lat="58.050325" lon="38.861255"><ele>110.4</ele><time>2024-04-09T15:36:33Z</time></trkpt><trkpt lat="58.050245" lon="38.861205"><ele>110.6</ele><time>2024-04-09T15:36:36Z</time></trkpt><trkpt lat="58.05017" lon="38.861155"><ele>110.9</ele><time>2024-04-09T15:36:38Z</time></trkpt><trkpt lat="58.050095" lon="38.861115"><ele>111.1</ele><time>2024-04-09T15:36:40Z</time></trkpt><trkpt lat="58.050015" lon="38.861065"><ele>110.9</ele><time>2024-04-09T15:36:42Z</time></trkpt><trkpt lat="58.04994" lon="38.861005"><ele>111.4</ele><time>2024-04-09T15:36:44Z</time></trkpt><trkpt lat="58.04987" lon="38.86096"><ele>110.8</ele><time>2024-04-09T15:36:46Z</time></trkpt><trkpt lat="58.0498" lon="38.860915"><ele>109.9</ele><time>2024-04-09T15:36:48Z</time></trkpt><trkpt lat="58.049707" lon="38.860857"><ele>109.6</ele><time>2024-04-09T15:36:51Z</time></trkpt><trkpt lat="58.04962" lon="38.860805"><ele>108.1</ele><time>2024-04-09T15:36:53Z</time></trkpt><trkpt lat="58.049535" lon="38.86075"><ele>107.9</ele><time>2024-04-09T15:36:55Z</time></trkpt><trkpt lat="58.04945" lon="38.86069"><ele>108.3</ele><time>2024-04-09T15:36:57Z</time></trkpt><trkpt lat="58.04935" lon="38.86061"><ele>109.2</ele><time>2024-04-09T15:36:59Z</time></trkpt><trkpt lat="58.04926" lon="38.860552"><ele>109.6</ele><time>2024-04-09T15:37:01Z</time></trkpt><trkpt lat="58.049162" lon="38.860483"><ele>109.5</ele><time>2024-04-09T15:37:03Z</time></trkpt><trkpt lat="58.04906" lon="38.860417"><ele>108.8</ele><time>2024-04-09T15:37:05Z</time></trkpt><trkpt lat="58.04895" lon="38.86034"><ele>108.1</ele><time>2024-04-09T15:37:07Z</time></trkpt><trkpt lat="58.048842" lon="38.86027"><ele>109.1</ele><time>2024-04-09T15:37:09Z</time></trkpt><trkpt lat="58.048735" lon="38.860225"><ele>107.9</ele><time>2024-04-09T15:37:11Z</time></trkpt><trkpt lat="58.04863" lon="38.86015"><ele>106.8</ele><time>2024-04-09T15:37:13Z</time></trkpt><trkpt lat="58.04853" lon="38.860055"><ele>104.9</ele><time>2024-04-09T15:37:15Z</time></trkpt><trkpt lat="58.048412" lon="38.85998"><ele>103.5</ele><time>2024-04-09T15:37:17Z</time></trkpt><trkpt lat="58.048302" lon="38.8599"><ele>103.3</ele><time>2024-04-09T15:37:19Z</time></trkpt><trkpt lat="58.048212" lon="38.85982"><ele>101.7</ele><time>2024-04-09T15:37:21Z</time></trkpt><trkpt lat="58.048097" lon="38.859722"><ele>101.7</ele><time>2024-04-09T15:37:23Z</time></trkpt><trkpt lat="58.048008" lon="38.859547"><ele>102.8</ele><time>2024-04-09T15:37:25Z</time></trkpt><trkpt lat="58.048" lon="38.859335"><ele>102.0</ele><time>2024-04-09T15:37:27Z</time></trkpt><trkpt lat="58.048045" lon="38.85911"><ele>102.6</ele><time>2024-04-09T15:37:29Z</time></trkpt><trkpt lat="58.048115" lon="38.8589"><ele>102.3</ele><time>2024-04-09T15:37:31Z</time></trkpt><trkpt lat="58.04821" lon="38.858907"><ele>102.4</ele><time>2024-04-09T15:37:33Z</time></trkpt><trkpt lat="58.04824" lon="38.85906"><ele>102.3</ele><time>2024-04-09T15:37:35Z</time></trkpt><trkpt lat="58.04827" lon="38.859265"><ele>102.7</ele><time>2024-04-09T15:37:37Z</time></trkpt><trkpt lat="58.048312" lon="38.85944"><ele>102.3</ele><time>2024-04-09T15:37:39Z</time></trkpt><trkpt lat="58.048382" lon="38.859525"><ele>105.5</ele><time>2024-04-09T15:37:41Z</time></trkpt><trkpt lat="58.048465" lon="38.85965"><ele>105.8</ele><time>2024-04-09T15:37:43Z</time></trkpt><trkpt lat="58.048565" lon="38.859705"><ele>105.7</ele><time>2024-04-09T15:37:45Z</time></trkpt><trkpt lat="58.048625" lon="38.859625"><ele>106.6</ele><time>2024-04-09T15:37:47Z</time></trkpt><trkpt lat="58.04865" lon="38.859485"><ele>107.5</ele><time>2024-04-09T15:37:49Z</time></trkpt><trkpt lat="58.048695" lon="38.85937"><ele>106.8</ele><time>2024-04-09T15:37:51Z</time></trkpt><trkpt lat="58.048757" lon="38.859265"><ele>107.5</ele><time>2024-04-09T15:37:53Z</time></trkpt><trkpt lat="58.048815" lon="38.859095"><ele>106.1</ele><time>2024-04-09T15:37:56Z</time></trkpt><trkpt lat="58.048852" lon="38.85896"><ele>107.2</ele><time>2024-04-09T15:37:58Z</time></trkpt><trkpt lat="58.048882" lon="38.858795"><ele>107.7</ele><time>2024-04-09T15:38:01Z</time></trkpt><trkpt lat="58.048905" lon="38.85866"><ele>108.4</ele><time>2024-04-09T15:38:03Z</time></trkpt><trkpt lat="58.048992" lon="38.858615"><ele>110.4</ele><time>2024-04-09T15:38:07Z</time></trkpt><trkpt lat="58.049065" lon="38.858627"><ele>109.9</ele><time>2024-04-09T15:38:10Z</time></trkpt><trkpt lat="58.049145" lon="38.858525"><ele>109.7</ele><time>2024-04-09T15:38:13Z</time></trkpt><trkpt lat="58.04919" lon="38.858367"><ele>108.9</ele><time>2024-04-09T15:38:15Z</time></trkpt><trkpt lat="58.04926" lon="38.8582"><ele>108.9</ele><time>2024-04-09T15:38:17Z</time></trkpt><trkpt lat="58.049295" lon="38.85808"><ele>108.4</ele><time>2024-04-09T15:38:18Z</time></trkpt><trkpt lat="58.049365" lon="38.857855"><ele>106.1</ele><time>2024-04-09T15:38:20Z</time></trkpt><trkpt lat="58.04941" lon="38.857735"><ele>105.4</ele><time>2024-04-09T15:38:21Z</time></trkpt><trkpt lat="58.049453" lon="38.85761"><ele>105.0</ele><time>2024-04-09T15:38:22Z</time></trkpt><trkpt lat="58.0495" lon="38.85747"><ele>105.1</ele><time>2024-04-09T15:38:23Z</time></trkpt><trkpt lat="58.04955" lon="38.85733"><ele>105.6</ele><time>2024-04-09T15:38:24Z</time></trkpt><trkpt lat="58.049598" lon="38.857197"><ele>105.6</ele><time>2024-04-09T15:38:25Z</time></trkpt><trkpt lat="58.04964" lon="38.857055"><ele>105.1</ele><time>2024-04-09T15:38:26Z</time></trkpt><trkpt lat="58.04968" lon="38.856905"><ele>105.2</ele><time>2024-04-09T15:38:26Z</time></trkpt><trkpt lat="58.04971" lon="38.856735"><ele>105.1</ele><time>2024-04-09T15:38:28Z</time></trkpt><trkpt lat="58.04974" lon="38.85657"><ele>105.4</ele><time>2024-04-09T15:38:29Z</time></trkpt><trkpt lat="58.049765" lon="38.856412"><ele>106.2</ele><time>2024-04-09T15:38:30Z</time></trkpt><trkpt lat="58.049795" lon="38.856255"><ele>106.9</ele><time>2024-04-09T15:38:31Z</time></trkpt><trkpt lat="58.049822" lon="38.856105"><ele>106.9</ele><time>2024-04-09T15:38:32Z</time></trkpt><trkpt lat="58.049847" lon="38.855975"><ele>106.9</ele><time>2024-04-09T15:38:33Z</time></trkpt><trkpt lat="58.049885" lon="38.85585"><ele>108.1</ele><time>2024-04-09T15:38:34Z</time></trkpt><trkpt lat="58.04995" lon="38.855632"><ele>108.2</ele><time>2024-04-09T15:38:36Z</time></trkpt><trkpt lat="58.049977" lon="38.855395"><ele>108.8</ele><time>2024-04-09T15:38:38Z</time></trkpt><trkpt lat="58.049993" lon="38.855167"><ele>107.4</ele><time>2024-04-09T15:38:40Z</time></trkpt><trkpt lat="58.050015" lon="38.854962"><ele>107.2</ele><time>2024-04-09T15:38:42Z</time></trkpt><trkpt lat="58.050025" lon="38.85477"><ele>107.9</ele><time>2024-04-09T15:38:44Z</time></trkpt><trkpt lat="58.050047" lon="38.854605"><ele>108.5</ele><time>2024-04-09T15:38:46Z</time></trkpt><trkpt lat="58.05007" lon="38.854417"><ele>109.7</ele><time>2024-04-09T15:38:48Z</time></trkpt><trkpt lat="58.050105" lon="38.854262"><ele>107.6</ele><time>2024-04-09T15:38:50Z</time></trkpt><trkpt lat="58.05015" lon="38.854095"><ele>107.4</ele><time>2024-04-09T15:38:52Z</time></trkpt><trkpt lat="58.05018" lon="38.853905"><ele>108.2</ele><time>2024-04-09T15:38:54Z</time></trkpt><trkpt lat="58.050218" lon="38.85375"><ele>108.1</ele><time>2024-04-09T15:38:56Z</time></trkpt><trkpt lat="58.05025" lon="38.85357"><ele>107.3</ele><time>2024-04-09T15:38:58Z</time></trkpt><trkpt lat="58.05028" lon="38.853395"><ele>107.9</ele><time>2024-04-09T15:39:00Z</time></trkpt><trkpt lat="58.050302" lon="38.85324"><ele>108.7</ele><time>2024-04-09T15:39:02Z</time></trkpt><trkpt lat="58.05033" lon="38.853105"><ele>108.3</ele><time>2024-04-09T15:39:04Z</time></trkpt><trkpt lat="58.050372" lon="38.852952"><ele>108.4</ele><time>2024-04-09T15:39:06Z</time></trkpt><trkpt lat="58.050435" lon="38.8528"><ele>108.7</ele><time>2024-04-09T15:39:08Z</time></trkpt><trkpt lat="58.05049" lon="38.85266"><ele>109.2</ele><time>2024-04-09T15:39:10Z</time></trkpt><trkpt lat="58.050545" lon="38.85249"><ele>108.7</ele><time>2024-04-09T15:39:12Z</time></trkpt><trkpt lat="58.050607" lon="38.852335"><ele>109.0</ele><time>2024-04-09T15:39:14Z</time></trkpt><trkpt lat="58.050662" lon="38.85218"><ele>110.4</ele><time>2024-04-09T15:39:16Z</time></trkpt><trkpt lat="58.050715" lon="38.85202"><ele>109.3</ele><time>2024-04-09T15:39:18Z</time></trkpt><trkpt lat="58.050775" lon="38.851842"><ele>109.7</ele><time>2024-04-09T15:39:20Z</time></trkpt><trkpt lat="58.05083" lon="38.85167"><ele>109.6</ele><time>2024-04-09T15:39:22Z</time></trkpt><trkpt lat="58.050912" lon="38.8515"><ele>108.9</ele><time>2024-04-09T15:39:24Z</time></trkpt><trkpt lat="58.050972" lon="38.851308"><ele>107.3</ele><time>2024-04-09T15:39:26Z</time></trkpt><trkpt lat="58.051025" lon="38.851115"><ele>107.6</ele><time>2024-04-09T15:39:28Z</time></trkpt><trkpt lat="58.051097" lon="38.85091"><ele>105.9</ele><time>2024-04-09T15:39:30Z</time></trkpt><trkpt lat="58.051175" lon="38.850685"><ele>106.4</ele><time>2024-04-09T15:39:32Z</time></trkpt><trkpt lat="58.051255" lon="38.850505"><ele>105.5</ele><time>2024-04-09T15:39:34Z</time></trkpt><trkpt lat="58.05131" lon="38.85031"><ele>105.1</ele><time>2024-04-09T15:39:36Z</time></trkpt><trkpt lat="58.05138" lon="38.85014"><ele>104.5</ele><time>2024-04-09T15:39:38Z</time></trkpt><trkpt lat="58.051455" lon="38.84997"><ele>105.0</ele><time>2024-04-09T15:39:40Z</time></trkpt><trkpt lat="58.05149" lon="38.849755"><ele>106.9</ele><time>2024-04-09T15:39:42Z</time></trkpt><trkpt lat="58.051535" lon="38.84957"><ele>106.1</ele><time>2024-04-09T15:39:44Z</time></trkpt><trkpt lat="58.05159" lon="38.849405"><ele>106.5</ele><time>2024-04-09T15:39:46Z</time></trkpt><trkpt lat="58.051647" lon="38.84923"><ele>105.4</ele><time>2024-04-09T15:39:48Z</time></trkpt><trkpt lat="58.051695" lon="38.849095"><ele>105.2</ele><time>2024-04-09T15:39:50Z</time></trkpt><trkpt lat="58.051745" lon="38.848915"><ele>104.9</ele><time>2024-04-09T15:39:52Z</time></trkpt><trkpt lat="58.05178" lon="38.848747"><ele>105.1</ele><time>2024-04-09T15:39:54Z</time></trkpt><trkpt lat="58.051812" lon="38.84857"><ele>105.0</ele><time>2024-04-09T15:39:56Z</time></trkpt><trkpt lat="58.05186" lon="38.848385"><ele>104.3</ele><time>2024-04-09T15:39:58Z</time></trkpt><trkpt lat="58.051897" lon="38.848205"><ele>104.4</ele><time>2024-04-09T15:40:00Z</time></trkpt><trkpt lat="58.051912" lon="38.848025"><ele>105.2</ele><time>2024-04-09T15:40:02Z</time></trkpt><trkpt lat="58.051952" lon="38.84786"><ele>105.6</ele><time>2024-04-09T15:40:04Z</time></trkpt><trkpt lat="58.05199" lon="38.847695"><ele>105.7</ele><time>2024-04-09T15:40:06Z</time></trkpt><trkpt lat="58.05202" lon="38.84751"><ele>105.9</ele><time>2024-04-09T15:40:08Z</time></trkpt><trkpt lat="58.052055" lon="38.847305"><ele>105.4</ele><time>2024-04-09T15:40:10Z</time></trkpt><trkpt lat="58.052085" lon="38.847125"><ele>105.9</ele><time>2024-04-09T15:40:12Z</time></trkpt><trkpt lat="58.05213" lon="38.846975"><ele>105.3</ele><time>2024-04-09T15:40:14Z</time></trkpt><trkpt lat="58.05217" lon="38.846805"><ele>104.5</ele><time>2024-04-09T15:40:16Z</time></trkpt><trkpt lat="58.052215" lon="38.846657"><ele>104.4</ele><time>2024-04-09T15:40:18Z</time></trkpt><trkpt lat="58.052245" lon="38.8465"><ele>104.2</ele><time>2024-04-09T15:40:20Z</time></trkpt><trkpt lat="58.052295" lon="38.846335"><ele>102.4</ele><time>2024-04-09T15:40:22Z</time></trkpt><trkpt lat="58.05235" lon="38.846185"><ele>103.6</ele><time>2024-04-09T15:40:24Z</time></trkpt><trkpt lat="58.05239" lon="38.846015"><ele>104.1</ele><time>2024-04-09T15:40:26Z</time></trkpt><trkpt lat="58.052405" lon="38.845845"><ele>104.1</ele><time>2024-04-09T15:40:28Z</time></trkpt><trkpt lat="58.052432" lon="38.845657"><ele>104.0</ele><time>2024-04-09T15:40:30Z</time></trkpt><trkpt lat="58.05246" lon="38.845475"><ele>104.0</ele><time>2024-04-09T15:40:32Z</time></trkpt><trkpt lat="58.05247" lon="38.845325"><ele>106.4</ele><time>2024-04-09T15:40:34Z</time></trkpt><trkpt lat="58.052505" lon="38.845182"><ele>106.9</ele><time>2024-04-09T15:40:37Z</time></trkpt><trkpt lat="58.052487" lon="38.845103"><ele>109.1</ele><time>2024-04-09T15:40:44Z</time></trkpt><trkpt lat="58.05251" lon="38.845125"><ele>108.0</ele><time>2024-04-09T15:40:50Z</time></trkpt><trkpt lat="58.052575" lon="38.845018"><ele>107.8</ele><time>2024-04-09T15:40:55Z</time></trkpt><trkpt lat="58.05263" lon="38.844897"><ele>107.6</ele><time>2024-04-09T15:40:59Z</time></trkpt><trkpt lat="58.052675" lon="38.84476"><ele>107.4</ele><time>2024-04-09T15:41:02Z</time></trkpt><trkpt lat="58.052732" lon="38.844615"><ele>105.4</ele><time>2024-04-09T15:41:05Z</time></trkpt><trkpt lat="58.0528" lon="38.84446"><ele>104.5</ele><time>2024-04-09T15:41:08Z</time></trkpt><trkpt lat="58.052857" lon="38.844295"><ele>103.5</ele><time>2024-04-09T15:41:11Z</time></trkpt><trkpt lat="58.05291" lon="38.844117"><ele>104.7</ele><time>2024-04-09T15:41:14Z</time></trkpt><trkpt lat="58.052945" lon="38.844"><ele>104.9</ele><time>2024-04-09T15:41:16Z</time></trkpt><trkpt lat="58.05298" lon="38.84387"><ele>105.2</ele><time>2024-04-09T15:41:18Z</time></trkpt><trkpt lat="58.053025" lon="38.843692"><ele>105.3</ele><time>2024-04-09T15:41:21Z</time></trkpt><trkpt lat="58.053082" lon="38.843532"><ele>105.5</ele><time>2024-04-09T15:41:24Z</time></trkpt><trkpt lat="58.053135" lon="38.843358"><ele>108.1</ele><time>2024-04-09T15:41:26Z</time></trkpt><trkpt lat="58.053195" lon="38.84323"><ele>107.4</ele><time>2024-04-09T15:41:29Z</time></trkpt><trkpt lat="58.053255" lon="38.84309"><ele>105.7</ele><time>2024-04-09T15:41:31Z</time></trkpt><trkpt lat="58.0533" lon="38.842955"><ele>105.3</ele><time>2024-04-09T15:41:33Z</time></trkpt><trkpt lat="58.053355" lon="38.842845"><ele>104.9</ele><time>2024-04-09T15:41:35Z</time></trkpt><trkpt lat="58.0534" lon="38.842715"><ele>105.8</ele><time>2024-04-09T15:41:37Z</time></trkpt><trkpt lat="58.053432" lon="38.842567"><ele>105.3</ele><time>2024-04-09T15:41:39Z</time></trkpt><trkpt lat="58.053468" lon="38.842422"><ele>105.0</ele><time>2024-04-09T15:41:41Z</time></trkpt><trkpt lat="58.053525" lon="38.842287"><ele>104.1</ele><time>2024-04-09T15:41:43Z</time></trkpt><trkpt lat="58.05359" lon="38.842157"><ele>104.6</ele><time>2024-04-09T15:41:45Z</time></trkpt><trkpt lat="58.053642" lon="38.841993"><ele>105.2</ele><time>2024-04-09T15:41:47Z</time></trkpt><trkpt lat="58.053692" lon="38.841837"><ele>104.4</ele><time>2024-04-09T15:41:49Z</time></trkpt><trkpt lat="58.053755" lon="38.841655"><ele>103.4</ele><time>2024-04-09T15:41:51Z</time></trkpt><trkpt lat="58.053805" lon="38.84147"><ele>103.5</ele><time>2024-04-09T15:41:53Z</time></trkpt><trkpt lat="58.053882" lon="38.84129"><ele>102.6</ele><time>2024-04-09T15:41:55Z</time></trkpt><trkpt lat="58.05395" lon="38.841105"><ele>103.5</ele><time>2024-04-09T15:41:57Z</time></trkpt><trkpt lat="58.054025" lon="38.840915"><ele>104.6</ele><time>2024-04-09T15:41:59Z</time></trkpt><trkpt lat="58.0541" lon="38.840712"><ele>105.1</ele><time>2024-04-09T15:42:01Z</time></trkpt><trkpt lat="58.05416" lon="38.840522"><ele>105.3</ele><time>2024-04-09T15:42:03Z</time></trkpt><trkpt lat="58.054215" lon="38.840333"><ele>104.9</ele><time>2024-04-09T15:42:05Z</time></trkpt><trkpt lat="58.054295" lon="38.84015"><ele>105.2</ele><time>2024-04-09T15:42:07Z</time></trkpt><trkpt lat="58.05436" lon="38.839952"><ele>104.6</ele><time>2024-04-09T15:42:09Z</time></trkpt><trkpt lat="58.05443" lon="38.839775"><ele>104.5</ele><time>2024-04-09T15:42:11Z</time></trkpt><trkpt lat="58.054505" lon="38.839585"><ele>104.7</ele><time>2024-04-09T15:42:13Z</time></trkpt><trkpt lat="58.05456" lon="38.839402"><ele>104.5</ele><time>2024-04-09T15:42:15Z</time></trkpt><trkpt lat="58.054623" lon="38.839202"><ele>104.2</ele><time>2024-04-09T15:42:17Z</time></trkpt><trkpt lat="58.05469" lon="38.839025"><ele>103.9</ele><time>2024-04-09T15:42:19Z</time></trkpt><trkpt lat="58.054748" lon="38.83881"><ele>104.3</ele><time>2024-04-09T15:42:21Z</time></trkpt><trkpt lat="58.054817" lon="38.83862"><ele>104.6</ele><time>2024-04-09T15:42:23Z</time></trkpt><trkpt lat="58.05487" lon="38.838425"><ele>104.1</ele><time>2024-04-09T15:42:25Z</time></trkpt><trkpt lat="58.054925" lon="38.838215"><ele>104.5</ele><time>2024-04-09T15:42:27Z</time></trkpt><trkpt lat="58.055" lon="38.838025"><ele>104.4</ele><time>2024-04-09T15:42:29Z</time></trkpt><trkpt lat="58.055072" lon="38.83785"><ele>103.7</ele><time>2024-04-09T15:42:31Z</time></trkpt><trkpt lat="58.055132" lon="38.837672"><ele>103.2</ele><time>2024-04-09T15:42:33Z</time></trkpt><trkpt lat="58.055177" lon="38.83748"><ele>103.8</ele><time>2024-04-09T15:42:35Z</time></trkpt><trkpt lat="58.05525" lon="38.837312"><ele>103.8</ele><time>2024-04-09T15:42:37Z</time></trkpt><trkpt lat="58.055325" lon="38.83716"><ele>105.7</ele><time>2024-04-09T15:42:39Z</time></trkpt><trkpt lat="58.055395" lon="38.837025"><ele>105.4</ele><time>2024-04-09T15:42:41Z</time></trkpt><trkpt lat="58.055432" lon="38.836842"><ele>103.3</ele><time>2024-04-09T15:42:43Z</time></trkpt><trkpt lat="58.055465" lon="38.836657"><ele>104.1</ele><time>2024-04-09T15:42:45Z</time></trkpt><trkpt lat="58.055535" lon="38.8365"><ele>102.2</ele><time>2024-04-09T15:42:47Z</time></trkpt><trkpt lat="58.0556" lon="38.836347"><ele>101.9</ele><time>2024-04-09T15:42:49Z</time></trkpt><trkpt lat="58.05565" lon="38.83619"><ele>102.6</ele><time>2024-04-09T15:42:51Z</time></trkpt><trkpt lat="58.0557" lon="38.83602"><ele>104.3</ele><time>2024-04-09T15:42:53Z</time></trkpt><trkpt lat="58.055727" lon="38.835862"><ele>104.9</ele><time>2024-04-09T15:42:55Z</time></trkpt><trkpt lat="58.055757" lon="38.835735"><ele>105.0</ele><time>2024-04-09T15:42:57Z</time></trkpt><trkpt lat="58.05579" lon="38.835602"><ele>105.3</ele><time>2024-04-09T15:42:59Z</time></trkpt><trkpt lat="58.055832" lon="38.835495"><ele>105.4</ele><time>2024-04-09T15:43:01Z</time></trkpt><trkpt lat="58.055865" lon="38.83537"><ele>105.1</ele><time>2024-04-09T15:43:03Z</time></trkpt><trkpt lat="58.055912" lon="38.83524"><ele>104.8</ele><time>2024-04-09T15:43:05Z</time></trkpt><trkpt lat="58.055955" lon="38.83512"><ele>104.6</ele><time>2024-04-09T15:43:07Z</time></trkpt><trkpt lat="58.056005" lon="38.83498"><ele>104.7</ele><time>2024-04-09T15:43:09Z</time></trkpt><trkpt lat="58.056065" lon="38.83483"><ele>104.4</ele><time>2024-04-09T15:43:11Z</time></trkpt><trkpt lat="58.056117" lon="38.834705"><ele>103.8</ele><time>2024-04-09T15:43:13Z</time></trkpt><trkpt lat="58.056165" lon="38.834535"><ele>103.3</ele><time>2024-04-09T15:43:15Z</time></trkpt><trkpt lat="58.05622" lon="38.834365"><ele>103.4</ele><time>2024-04-09T15:43:17Z</time></trkpt><trkpt lat="58.056268" lon="38.834198"><ele>102.7</ele><time>2024-04-09T15:43:19Z</time></trkpt><trkpt lat="58.056332" lon="38.834025"><ele>102.5</ele><time>2024-04-09T15:43:21Z</time></trkpt><trkpt lat="58.05639" lon="38.833865"><ele>102.0</ele><time>2024-04-09T15:43:23Z</time></trkpt><trkpt lat="58.056422" lon="38.833675"><ele>102.2</ele><time>2024-04-09T15:43:25Z</time></trkpt><trkpt lat="58.056465" lon="38.833502"><ele>102.3</ele><time>2024-04-09T15:43:27Z</time></trkpt><trkpt lat="58.056508" lon="38.83333"><ele>103.9</ele><time>2024-04-09T15:43:29Z</time></trkpt><trkpt lat="58.05657" lon="38.833207"><ele>104.1</ele><time>2024-04-09T15:43:31Z</time></trkpt><trkpt lat="58.05662" lon="38.833055"><ele>105.1</ele><time>2024-04-09T15:43:33Z</time></trkpt><trkpt lat="58.056663" lon="38.832885"><ele>105.2</ele><time>2024-04-09T15:43:35Z</time></trkpt><trkpt lat="58.056732" lon="38.832705"><ele>105.4</ele><time>2024-04-09T15:43:37Z</time></trkpt><trkpt lat="58.0568" lon="38.832522"><ele>106.6</ele><time>2024-04-09T15:43:39Z</time></trkpt><trkpt lat="58.05686" lon="38.83236"><ele>106.6</ele><time>2024-04-09T15:43:41Z</time></trkpt><trkpt lat="58.056922" lon="38.832175"><ele>106.2</ele><time>2024-04-09T15:43:43Z</time></trkpt><trkpt lat="58.056975" lon="38.83198"><ele>105.8</ele><time>2024-04-09T15:43:45Z</time></trkpt><trkpt lat="58.05704" lon="38.831815"><ele>105.7</ele><time>2024-04-09T15:43:47Z</time></trkpt><trkpt lat="58.057095" lon="38.831662"><ele>104.3</ele><time>2024-04-09T15:43:49Z</time></trkpt><trkpt lat="58.057152" lon="38.831485"><ele>105.3</ele><time>2024-04-09T15:43:51Z</time></trkpt><trkpt lat="58.057245" lon="38.8314"><ele>105.7</ele><time>2024-04-09T15:43:53Z</time></trkpt><trkpt lat="58.057315" lon="38.831305"><ele>105.5</ele><time>2024-04-09T15:43:55Z</time></trkpt><trkpt lat="58.05739" lon="38.83119"><ele>105.3</ele><time>2024-04-09T15:43:57Z</time></trkpt><trkpt lat="58.057462" lon="38.831085"><ele>105.4</ele><time>2024-04-09T15:43:59Z</time></trkpt><trkpt lat="58.057545" lon="38.83096"><ele>103.0</ele><time>2024-04-09T15:44:01Z</time></trkpt><trkpt lat="58.057627" lon="38.83084"><ele>102.7</ele><time>2024-04-09T15:44:03Z</time></trkpt><trkpt lat="58.057697" lon="38.830665"><ele>104.4</ele><time>2024-04-09T15:44:05Z</time></trkpt><trkpt lat="58.05773" lon="38.83046"><ele>103.5</ele><time>2024-04-09T15:44:07Z</time></trkpt><trkpt lat="58.057747" lon="38.83027"><ele>103.1</ele><time>2024-04-09T15:44:09Z</time></trkpt><trkpt lat="58.057752" lon="38.8301"><ele>103.3</ele><time>2024-04-09T15:44:11Z</time></trkpt><trkpt lat="58.057765" lon="38.82993"><ele>103.1</ele><time>2024-04-09T15:44:13Z</time></trkpt><trkpt lat="58.057797" lon="38.829793"><ele>103.3</ele><time>2024-04-09T15:44:15Z</time></trkpt><trkpt lat="58.057835" lon="38.829622"><ele>103.3</ele><time>2024-04-09T15:44:18Z</time></trkpt><trkpt lat="58.057865" lon="38.829445"><ele>103.0</ele><time>2024-04-09T15:44:21Z</time></trkpt><trkpt lat="58.05791" lon="38.829272"><ele>102.9</ele><time>2024-04-09T15:44:24Z</time></trkpt><trkpt lat="58.057965" lon="38.829117"><ele>103.3</ele><time>2024-04-09T15:44:27Z</time></trkpt><trkpt lat="58.05801" lon="38.828952"><ele>103.6</ele><time>2024-04-09T15:44:30Z</time></trkpt><trkpt lat="58.058057" lon="38.828795"><ele>104.0</ele><time>2024-04-09T15:44:33Z</time></trkpt><trkpt lat="58.058107" lon="38.828652"><ele>105.4</ele><time>2024-04-09T15:44:36Z</time></trkpt><trkpt lat="58.05813" lon="38.828475"><ele>106.6</ele><time>2024-04-09T15:44:39Z</time></trkpt><trkpt lat="58.058098" lon="38.828305"><ele>106.1</ele><time>2024-04-09T15:44:42Z</time></trkpt><trkpt lat="58.058067" lon="38.828155"><ele>106.6</ele><time>2024-04-09T15:44:44Z</time></trkpt><trkpt lat="58.05806" lon="38.82797"><ele>107.1</ele><time>2024-04-09T15:44:48Z</time></trkpt><trkpt lat="58.05804" lon="38.82778"><ele>106.6</ele><time>2024-04-09T15:44:51Z</time></trkpt><trkpt lat="58.058012" lon="38.82759"><ele>106.5</ele><time>2024-04-09T15:44:54Z</time></trkpt><trkpt lat="58.057995" lon="38.827452"><ele>105.2</ele><time>2024-04-09T15:44:56Z</time></trkpt><trkpt lat="58.058035" lon="38.827255"><ele>106.7</ele><time>2024-04-09T15:44:59Z</time></trkpt><trkpt lat="58.058105" lon="38.82715"><ele>104.9</ele><time>2024-04-09T15:45:01Z</time></trkpt><trkpt lat="58.058147" lon="38.826997"><ele>104.7</ele><time>2024-04-09T15:45:03Z</time></trkpt><trkpt lat="58.05819" lon="38.826857"><ele>105.3</ele><time>2024-04-09T15:45:05Z</time></trkpt><trkpt lat="58.05822" lon="38.826697"><ele>104.7</ele><time>2024-04-09T15:45:07Z</time></trkpt><trkpt lat="58.058252" lon="38.826532"><ele>104.7</ele><time>2024-04-09T15:45:09Z</time></trkpt><trkpt lat="58.05829" lon="38.826355"><ele>104.6</ele><time>2024-04-09T15:45:11Z</time></trkpt><trkpt lat="58.05833" lon="38.826187"><ele>105.0</ele><time>2024-04-09T15:45:13Z</time></trkpt><trkpt lat="58.058385" lon="38.82605"><ele>104.0</ele><time>2024-04-09T15:45:15Z</time></trkpt><trkpt lat="58.05843" lon="38.82589"><ele>104.7</ele><time>2024-04-09T15:45:17Z</time></trkpt><trkpt lat="58.05849" lon="38.825755"><ele>106.3</ele><time>2024-04-09T15:45:19Z</time></trkpt><trkpt lat="58.058548" lon="38.825605"><ele>107.9</ele><time>2024-04-09T15:45:21Z</time></trkpt><trkpt lat="58.058595" lon="38.825465"><ele>107.4</ele><time>2024-04-09T15:45:23Z</time></trkpt><trkpt lat="58.058645" lon="38.825345"><ele>106.5</ele><time>2024-04-09T15:45:25Z</time></trkpt><trkpt lat="58.05869" lon="38.825235"><ele>107.4</ele><time>2024-04-09T15:45:27Z</time></trkpt><trkpt lat="58.058765" lon="38.825105"><ele>108.3</ele><time>2024-04-09T15:45:30Z</time></trkpt><trkpt lat="58.05883" lon="38.824972"><ele>108.2</ele><time>2024-04-09T15:45:32Z</time></trkpt><trkpt lat="58.0589" lon="38.82483"><ele>108.8</ele><time>2024-04-09T15:45:34Z</time></trkpt><trkpt lat="58.058962" lon="38.824712"><ele>106.7</ele><time>2024-04-09T15:45:36Z</time></trkpt><trkpt lat="58.059025" lon="38.8246"><ele>107.1</ele><time>2024-04-09T15:45:38Z</time></trkpt><trkpt lat="58.059087" lon="38.8245"><ele>107.1</ele><time>2024-04-09T15:45:40Z</time></trkpt><trkpt lat="58.05916" lon="38.82439"><ele>108.4</ele><time>2024-04-09T15:45:42Z</time></trkpt><trkpt lat="58.05923" lon="38.82426"><ele>108.7</ele><time>2024-04-09T15:45:44Z</time></trkpt><trkpt lat="58.0593" lon="38.824115"><ele>107.3</ele><time>2024-04-09T15:45:46Z</time></trkpt><trkpt lat="58.05937" lon="38.823985"><ele>107.2</ele><time>2024-04-09T15:45:48Z</time></trkpt><trkpt lat="58.05944" lon="38.823835"><ele>106.9</ele><time>2024-04-09T15:45:50Z</time></trkpt><trkpt lat="58.05951" lon="38.82369"><ele>106.6</ele><time>2024-04-09T15:45:52Z</time></trkpt><trkpt lat="58.059567" lon="38.823525"><ele>106.6</ele><time>2024-04-09T15:45:54Z</time></trkpt><trkpt lat="58.059615" lon="38.82333"><ele>105.7</ele><time>2024-04-09T15:45:56Z</time></trkpt><trkpt lat="58.05965" lon="38.823137"><ele>105.2</ele><time>2024-04-09T15:45:58Z</time></trkpt><trkpt lat="58.059682" lon="38.822922"><ele>106.5</ele><time>2024-04-09T15:46:00Z</time></trkpt><trkpt lat="58.0597" lon="38.822722"><ele>107.6</ele><time>2024-04-09T15:46:02Z</time></trkpt><trkpt lat="58.059705" lon="38.822525"><ele>107.6</ele><time>2024-04-09T15:46:04Z</time></trkpt><trkpt lat="58.05972" lon="38.82233"><ele>107.4</ele><time>2024-04-09T15:46:06Z</time></trkpt><trkpt lat="58.05973" lon="38.822162"><ele>108.4</ele><time>2024-04-09T15:46:08Z</time></trkpt><trkpt lat="58.059745" lon="38.822005"><ele>108.5</ele><time>2024-04-09T15:46:10Z</time></trkpt><trkpt lat="58.059755" lon="38.821828"><ele>108.5</ele><time>2024-04-09T15:46:12Z</time></trkpt><trkpt lat="58.059773" lon="38.821655"><ele>108.8</ele><time>2024-04-09T15:46:14Z</time></trkpt><trkpt lat="58.059795" lon="38.82149"><ele>109.3</ele><time>2024-04-09T15:46:16Z</time></trkpt><trkpt lat="58.059807" lon="38.821347"><ele>110.4</ele><time>2024-04-09T15:46:18Z</time></trkpt><trkpt lat="58.059805" lon="38.82118"><ele>109.7</ele><time>2024-04-09T15:46:20Z</time></trkpt><trkpt lat="58.059812" lon="38.821005"><ele>110.0</ele><time>2024-04-09T15:46:22Z</time></trkpt><trkpt lat="58.059825" lon="38.820843"><ele>110.7</ele><time>2024-04-09T15:46:24Z</time></trkpt><trkpt lat="58.059835" lon="38.8207"><ele>110.1</ele><time>2024-04-09T15:46:26Z</time></trkpt><trkpt lat="58.059835" lon="38.820562"><ele>109.9</ele><time>2024-04-09T15:46:28Z</time></trkpt><trkpt lat="58.059843" lon="38.82042"><ele>109.6</ele><time>2024-04-09T15:46:30Z</time></trkpt><trkpt lat="58.059855" lon="38.82027"><ele>109.2</ele><time>2024-04-09T15:46:32Z</time></trkpt><trkpt lat="58.059865" lon="38.820105"><ele>109.9</ele><time>2024-04-09T15:46:34Z</time></trkpt><trkpt lat="58.059875" lon="38.819943"><ele>110.5</ele><time>2024-04-09T15:46:36Z</time></trkpt><trkpt lat="58.059885" lon="38.819787"><ele>110.1</ele><time>2024-04-09T15:46:38Z</time></trkpt><trkpt lat="58.059895" lon="38.819625"><ele>111.1</ele><time>2024-04-09T15:46:40Z</time></trkpt><trkpt lat="58.059905" lon="38.819465"><ele>110.8</ele><time>2024-04-09T15:46:42Z</time></trkpt><trkpt lat="58.059913" lon="38.819315"><ele>110.9</ele><time>2024-04-09T15:46:44Z</time></trkpt><trkpt lat="58.059925" lon="38.81917"><ele>110.0</ele><time>2024-04-09T15:46:46Z</time></trkpt><trkpt lat="58.059935" lon="38.819015"><ele>109.3</ele><time>2024-04-09T15:46:48Z</time></trkpt><trkpt lat="58.05994" lon="38.818873"><ele>109.1</ele><time>2024-04-09T15:46:50Z</time></trkpt><trkpt lat="58.05995" lon="38.818675"><ele>108.8</ele><time>2024-04-09T15:46:53Z</time></trkpt><trkpt lat="58.059965" lon="38.81854"><ele>108.7</ele><time>2024-04-09T15:46:55Z</time></trkpt><trkpt lat="58.059975" lon="38.818335"><ele>108.6</ele><time>2024-04-09T15:46:58Z</time></trkpt><trkpt lat="58.05999" lon="38.818135"><ele>108.8</ele><time>2024-04-09T15:47:01Z</time></trkpt><trkpt lat="58.059997" lon="38.817995"><ele>108.8</ele><time>2024-04-09T15:47:03Z</time></trkpt><trkpt lat="58.059992" lon="38.817832"><ele>108.6</ele><time>2024-04-09T15:47:06Z</time></trkpt><trkpt lat="58.05998" lon="38.817812"><ele>109.1</ele><time>2024-04-09T15:47:13Z</time></trkpt><trkpt lat="58.05998" lon="38.817812"><ele>109.1</ele><time>2024-04-09T15:47:14Z</time></trkpt><trkpt lat="58.059965" lon="38.817795"><ele>110.0</ele><time>2024-04-09T15:47:29Z</time></trkpt><trkpt lat="58.05996" lon="38.81779"><ele>109.8</ele><time>2024-04-09T15:47:30Z</time></trkpt><trkpt lat="58.059875" lon="38.817765"><ele>109.6</ele><time>2024-04-09T15:47:54Z</time></trkpt><trkpt lat="58.05979" lon="38.817725"><ele>110.0</ele><time>2024-04-09T15:47:57Z</time></trkpt><trkpt lat="58.059745" lon="38.817555"><ele>110.4</ele><time>2024-04-09T15:48:01Z</time></trkpt><trkpt lat="58.05967" lon="38.817485"><ele>109.3</ele><time>2024-04-09T15:48:04Z</time></trkpt><trkpt lat="58.059565" lon="38.817472"><ele>106.9</ele><time>2024-04-09T15:48:07Z</time></trkpt><trkpt lat="58.05949" lon="38.817465"><ele>107.4</ele><time>2024-04-09T15:48:09Z</time></trkpt><trkpt lat="58.059392" lon="38.817465"><ele>105.1</ele><time>2024-04-09T15:48:12Z</time></trkpt><trkpt lat="58.05932" lon="38.817437"><ele>105.4</ele><time>2024-04-09T15:48:14Z</time></trkpt><trkpt lat="58.059238" lon="38.817415"><ele>103.9</ele><time>2024-04-09T15:48:16Z</time></trkpt><trkpt lat="58.059152" lon="38.817395"><ele>103.4</ele><time>2024-04-09T15:48:18Z</time></trkpt><trkpt lat="58.059067" lon="38.817355"><ele>102.7</ele><time>2024-04-09T15:48:20Z</time></trkpt><trkpt lat="58.05897" lon="38.81745"><ele>102.2</ele><time>2024-04-09T15:48:22Z</time></trkpt><trkpt lat="58.058843" lon="38.81738"><ele>102.2</ele><time>2024-04-09T15:48:24Z</time></trkpt><trkpt lat="58.058765" lon="38.817345"><ele>104.5</ele><time>2024-04-09T15:48:27Z</time></trkpt><trkpt lat="58.058705" lon="38.817267"><ele>106.2</ele><time>2024-04-09T15:48:30Z</time></trkpt><trkpt lat="58.05866" lon="38.817095"><ele>110.0</ele><time>2024-04-09T15:48:33Z</time></trkpt><trkpt lat="58.058662" lon="38.81694"><ele>110.3</ele><time>2024-04-09T15:48:36Z</time></trkpt><trkpt lat="58.05868" lon="38.81679"><ele>110.4</ele><time>2024-04-09T15:48:39Z</time></trkpt><trkpt lat="58.058697" lon="38.81678"><ele>110.8</ele><time>2024-04-09T15:48:46Z</time></trkpt><trkpt lat="58.058695" lon="38.816782"><ele>110.7</ele><time>2024-04-09T15:48:48Z</time></trkpt><trkpt lat="58.058577" lon="38.817045"><ele>117.6</ele><time>2024-04-09T15:50:16Z</time></trkpt><trkpt lat="58.058655" lon="38.817045"><ele>117.8</ele><time>2024-04-09T15:50:19Z</time></trkpt><trkpt lat="58.058485" lon="38.816642"><ele>112.0</ele><time>2024-04-09T15:51:36Z</time></trkpt><trkpt lat="58.058855" lon="38.816665"><ele>121.0</ele><time>2024-04-09T15:51:39Z</time></trkpt><trkpt lat="58.058928" lon="38.816685"><ele>122.4</ele><time>2024-04-09T15:51:41Z</time></trkpt><trkpt lat="58.059005" lon="38.816623"><ele>133.1</ele><time>2024-04-09T15:51:48Z</time></trkpt><trkpt lat="58.05897" lon="38.816608"><ele>115.8</ele><time>2024-04-09T15:51:55Z</time></trkpt><trkpt lat="58.058935" lon="38.81655"><ele>120.0</ele><time>2024-04-09T15:52:02Z</time></trkpt></trkseg></trk></gpx>