<?xml version="1.0" encoding="UTF-8" standalone="no"?><gpx xmlns="http://www.topografix.com/GPX/1/1" xmlns:gpxtpx="http://www.garmin.com/xmlschemas/TrackPointExtension/v1" xmlns:xsi="http://www.w3.org/2001/XMLSchema-instance" creator="Sports Tracker" version="1.1" xsi:schemaLocation="http://www.topografix.com/GPX/1/1 http://www.topografix.com/GPX/1/1/gpx.xsd http://www.garmin.com/xmlschemas/TrackPointExtension/v1 http://www.garmin.com/xmlschemas/TrackPointExtensionv1.xsd"><metadata><name>23.04.2024 16:55</name><desc/><author><name>Александр</name></author></metadata><trk><name>23.04.2024 16:55</name><trkseg><trkpt lat="58.058705" lon="38.816847"><ele>114.1</ele><time>2024-04-23T13:55:23Z</time></trkpt><trkpt lat="58.058707" lon="38.816877"><ele>114.5</ele><time>2024-04-23T13:55:23Z</time></trkpt><trkpt lat="58.05871" lon="38.817025"><ele>112.7</ele><time>2024-04-23T13:55:27Z</time></trkpt><trkpt lat="58.058745" lon="38.817207"><ele>110.6</ele><time>2024-04-23T13:55:30Z</time></trkpt><trkpt lat="58.058815" lon="38.817315"><ele>108.7</ele><time>2024-04-23T13:55:33Z</time></trkpt><trkpt lat="58.058887" lon="38.81735"><ele>107.7</ele><time>2024-04-23T13:55:35Z</time></trkpt><trkpt lat="58.058982" lon="38.81739"><ele>107.6</ele><time>2024-04-23T13:55:38Z</time></trkpt><trkpt lat="58.059068" lon="38.81739"><ele>107.1</ele><time>2024-04-23T13:55:41Z</time></trkpt><trkpt lat="58.059162" lon="38.817395"><ele>109.4</ele><time>2024-04-23T13:55:44Z</time></trkpt><trkpt lat="58.059247" lon="38.8174"><ele>109.0</ele><time>2024-04-23T13:55:47Z</time></trkpt><trkpt lat="58.059327" lon="38.817397"><ele>108.6</ele><time>2024-04-23T13:55:50Z</time></trkpt><trkpt lat="58.05942" lon="38.817427"><ele>107.8</ele><time>2024-04-23T13:55:53Z</time></trkpt><trkpt lat="58.059515" lon="38.817465"><ele>108.6</ele><time>2024-04-23T13:55:56Z</time></trkpt><trkpt lat="58.05961" lon="38.817475"><ele>110.3</ele><time>2024-04-23T13:55:59Z</time></trkpt><trkpt lat="58.059682" lon="38.81749"><ele>110.4</ele><time>2024-04-23T13:56:01Z</time></trkpt><trkpt lat="58.05974" lon="38.817588"><ele>110.1</ele><time>2024-04-23T13:56:03Z</time></trkpt><trkpt lat="58.05977" lon="38.817685"><ele>109.7</ele><time>2024-04-23T13:56:10Z</time></trkpt><trkpt lat="58.05977" lon="38.817685"><ele>109.7</ele><time>2024-04-23T13:56:12Z</time></trkpt><trkpt lat="58.059845" lon="38.817732"><ele>109.0</ele><time>2024-04-23T13:56:29Z</time></trkpt><trkpt lat="58.059925" lon="38.817748"><ele>110.2</ele><time>2024-04-23T13:56:31Z</time></trkpt><trkpt lat="58.059945" lon="38.817942"><ele>112.2</ele><time>2024-04-23T13:56:34Z</time></trkpt><trkpt lat="58.059942" lon="38.81812"><ele>110.6</ele><time>2024-04-23T13:56:36Z</time></trkpt><trkpt lat="58.059925" lon="38.81831"><ele>110.0</ele><time>2024-04-23T13:56:38Z</time></trkpt><trkpt lat="58.05992" lon="38.81853"><ele>109.4</ele><time>2024-04-23T13:56:40Z</time></trkpt><trkpt lat="58.059907" lon="38.818775"><ele>109.5</ele><time>2024-04-23T13:56:42Z</time></trkpt><trkpt lat="58.05989" lon="38.819037"><ele>109.1</ele><time>2024-04-23T13:56:44Z</time></trkpt><trkpt lat="58.059875" lon="38.81928"><ele>108.7</ele><time>2024-04-23T13:56:46Z</time></trkpt><trkpt lat="58.059865" lon="38.819517"><ele>108.6</ele><time>2024-04-23T13:56:48Z</time></trkpt><trkpt lat="58.059855" lon="38.81974"><ele>108.3</ele><time>2024-04-23T13:56:50Z</time></trkpt><trkpt lat="58.05985" lon="38.819962"><ele>108.1</ele><time>2024-04-23T13:56:52Z</time></trkpt><trkpt lat="58.059817" lon="38.820165"><ele>106.9</ele><time>2024-04-23T13:56:54Z</time></trkpt><trkpt lat="58.059802" lon="38.82038"><ele>107.6</ele><time>2024-04-23T13:56:56Z</time></trkpt><trkpt lat="58.059785" lon="38.820607"><ele>107.0</ele><time>2024-04-23T13:56:58Z</time></trkpt><trkpt lat="58.059775" lon="38.820822"><ele>106.6</ele><time>2024-04-23T13:57:00Z</time></trkpt><trkpt lat="58.059765" lon="38.821005"><ele>106.3</ele><time>2024-04-23T13:57:02Z</time></trkpt><trkpt lat="58.05975" lon="38.821185"><ele>106.2</ele><time>2024-04-23T13:57:04Z</time></trkpt><trkpt lat="58.059745" lon="38.821325"><ele>106.1</ele><time>2024-04-23T13:57:08Z</time></trkpt><trkpt lat="58.05975" lon="38.82133"><ele>107.3</ele><time>2024-04-23T13:57:14Z</time></trkpt><trkpt lat="58.05974" lon="38.821475"><ele>108.6</ele><time>2024-04-23T13:57:33Z</time></trkpt><trkpt lat="58.059735" lon="38.821647"><ele>108.5</ele><time>2024-04-23T13:57:35Z</time></trkpt><trkpt lat="58.05972" lon="38.821852"><ele>108.2</ele><time>2024-04-23T13:57:37Z</time></trkpt><trkpt lat="58.0597" lon="38.822067"><ele>107.5</ele><time>2024-04-23T13:57:39Z</time></trkpt><trkpt lat="58.05968" lon="38.822287"><ele>106.8</ele><time>2024-04-23T13:57:41Z</time></trkpt><trkpt lat="58.059672" lon="38.822515"><ele>105.9</ele><time>2024-04-23T13:57:43Z</time></trkpt><trkpt lat="58.059645" lon="38.82273"><ele>105.0</ele><time>2024-04-23T13:57:45Z</time></trkpt><trkpt lat="58.05962" lon="38.822945"><ele>104.7</ele><time>2024-04-23T13:57:47Z</time></trkpt><trkpt lat="58.059585" lon="38.823165"><ele>105.2</ele><time>2024-04-23T13:57:49Z</time></trkpt><trkpt lat="58.059532" lon="38.823375"><ele>104.8</ele><time>2024-04-23T13:57:51Z</time></trkpt><trkpt lat="58.059463" lon="38.823585"><ele>105.2</ele><time>2024-04-23T13:57:53Z</time></trkpt><trkpt lat="58.05937" lon="38.82378"><ele>105.4</ele><time>2024-04-23T13:57:55Z</time></trkpt><trkpt lat="58.05928" lon="38.823962"><ele>105.7</ele><time>2024-04-23T13:57:57Z</time></trkpt><trkpt lat="58.05918" lon="38.82414"><ele>104.8</ele><time>2024-04-23T13:57:59Z</time></trkpt><trkpt lat="58.059092" lon="38.82431"><ele>103.8</ele><time>2024-04-23T13:58:01Z</time></trkpt><trkpt lat="58.058997" lon="38.824483"><ele>102.6</ele><time>2024-04-23T13:58:03Z</time></trkpt><trkpt lat="58.058915" lon="38.824632"><ele>101.9</ele><time>2024-04-23T13:58:05Z</time></trkpt><trkpt lat="58.05884" lon="38.82478"><ele>102.0</ele><time>2024-04-23T13:58:07Z</time></trkpt><trkpt lat="58.058765" lon="38.82492"><ele>101.8</ele><time>2024-04-23T13:58:09Z</time></trkpt><trkpt lat="58.058702" lon="38.825047"><ele>101.4</ele><time>2024-04-23T13:58:11Z</time></trkpt><trkpt lat="58.058655" lon="38.825162"><ele>102.4</ele><time>2024-04-23T13:58:13Z</time></trkpt><trkpt lat="58.058605" lon="38.825295"><ele>103.3</ele><time>2024-04-23T13:58:15Z</time></trkpt><trkpt lat="58.05854" lon="38.825395"><ele>104.5</ele><time>2024-04-23T13:58:17Z</time></trkpt><trkpt lat="58.058485" lon="38.82554"><ele>103.2</ele><time>2024-04-23T13:58:19Z</time></trkpt><trkpt lat="58.058427" lon="38.82572"><ele>102.8</ele><time>2024-04-23T13:58:21Z</time></trkpt><trkpt lat="58.058375" lon="38.825885"><ele>101.7</ele><time>2024-04-23T13:58:23Z</time></trkpt><trkpt lat="58.05833" lon="38.826035"><ele>102.1</ele><time>2024-04-23T13:58:25Z</time></trkpt><trkpt lat="58.05828" lon="38.826172"><ele>102.2</ele><time>2024-04-23T13:58:27Z</time></trkpt><trkpt lat="58.058237" lon="38.82633"><ele>102.2</ele><time>2024-04-23T13:58:29Z</time></trkpt><trkpt lat="58.058195" lon="38.826472"><ele>100.8</ele><time>2024-04-23T13:58:31Z</time></trkpt><trkpt lat="58.05814" lon="38.82663"><ele>100.9</ele><time>2024-04-23T13:58:33Z</time></trkpt><trkpt lat="58.058093" lon="38.82677"><ele>101.4</ele><time>2024-04-23T13:58:35Z</time></trkpt><trkpt lat="58.058045" lon="38.826922"><ele>101.1</ele><time>2024-04-23T13:58:37Z</time></trkpt><trkpt lat="58.05802" lon="38.827058"><ele>102.0</ele><time>2024-04-23T13:58:39Z</time></trkpt><trkpt lat="58.05804" lon="38.82723"><ele>101.7</ele><time>2024-04-23T13:58:42Z</time></trkpt><trkpt lat="58.05807" lon="38.827367"><ele>101.9</ele><time>2024-04-23T13:58:44Z</time></trkpt><trkpt lat="58.058087" lon="38.82753"><ele>102.1</ele><time>2024-04-23T13:58:46Z</time></trkpt><trkpt lat="58.058083" lon="38.82772"><ele>101.9</ele><time>2024-04-23T13:58:48Z</time></trkpt><trkpt lat="58.058075" lon="38.82791"><ele>101.9</ele><time>2024-04-23T13:58:50Z</time></trkpt><trkpt lat="58.058055" lon="38.828097"><ele>101.7</ele><time>2024-04-23T13:58:52Z</time></trkpt><trkpt lat="58.058027" lon="38.828295"><ele>101.5</ele><time>2024-04-23T13:58:54Z</time></trkpt><trkpt lat="58.057985" lon="38.82849"><ele>102.3</ele><time>2024-04-23T13:58:56Z</time></trkpt><trkpt lat="58.057942" lon="38.828685"><ele>102.0</ele><time>2024-04-23T13:58:58Z</time></trkpt><trkpt lat="58.05788" lon="38.828835"><ele>101.7</ele><time>2024-04-23T13:59:00Z</time></trkpt><trkpt lat="58.057815" lon="38.82906"><ele>101.3</ele><time>2024-04-23T13:59:02Z</time></trkpt><trkpt lat="58.057783" lon="38.829182"><ele>101.3</ele><time>2024-04-23T13:59:03Z</time></trkpt><trkpt lat="58.057745" lon="38.829302"><ele>101.3</ele><time>2024-04-23T13:59:04Z</time></trkpt><trkpt lat="58.057705" lon="38.82944"><ele>101.1</ele><time>2024-04-23T13:59:05Z</time></trkpt><trkpt lat="58.057687" lon="38.829602"><ele>100.9</ele><time>2024-04-23T13:59:06Z</time></trkpt><trkpt lat="58.057697" lon="38.82976"><ele>100.9</ele><time>2024-04-23T13:59:07Z</time></trkpt><trkpt lat="58.05769" lon="38.829912"><ele>100.3</ele><time>2024-04-23T13:59:08Z</time></trkpt><trkpt lat="58.057675" lon="38.83006"><ele>100.0</ele><time>2024-04-23T13:59:09Z</time></trkpt><trkpt lat="58.057648" lon="38.830205"><ele>99.9</ele><time>2024-04-23T13:59:10Z</time></trkpt><trkpt lat="58.057617" lon="38.830337"><ele>99.9</ele><time>2024-04-23T13:59:11Z</time></trkpt><trkpt lat="58.057585" lon="38.830465"><ele>99.8</ele><time>2024-04-23T13:59:12Z</time></trkpt><trkpt lat="58.057492" lon="38.830672"><ele>100.1</ele><time>2024-04-23T13:59:14Z</time></trkpt><trkpt lat="58.0574" lon="38.830848"><ele>100.0</ele><time>2024-04-23T13:59:16Z</time></trkpt><trkpt lat="58.057297" lon="38.830997"><ele>99.9</ele><time>2024-04-23T13:59:18Z</time></trkpt><trkpt lat="58.057195" lon="38.83112"><ele>100.1</ele><time>2024-04-23T13:59:20Z</time></trkpt><trkpt lat="58.057095" lon="38.831222"><ele>99.5</ele><time>2024-04-23T13:59:22Z</time></trkpt><trkpt lat="58.057" lon="38.83135"><ele>99.4</ele><time>2024-04-23T13:59:24Z</time></trkpt><trkpt lat="58.056942" lon="38.831533"><ele>99.3</ele><time>2024-04-23T13:59:26Z</time></trkpt><trkpt lat="58.05688" lon="38.83171"><ele>99.3</ele><time>2024-04-23T13:59:28Z</time></trkpt><trkpt lat="58.056817" lon="38.8319"><ele>98.8</ele><time>2024-04-23T13:59:30Z</time></trkpt><trkpt lat="58.056747" lon="38.83208"><ele>98.6</ele><time>2024-04-23T13:59:32Z</time></trkpt><trkpt lat="58.056695" lon="38.832265"><ele>98.5</ele><time>2024-04-23T13:59:34Z</time></trkpt><trkpt lat="58.056627" lon="38.832437"><ele>97.1</ele><time>2024-04-23T13:59:36Z</time></trkpt><trkpt lat="58.056575" lon="38.83261"><ele>97.9</ele><time>2024-04-23T13:59:38Z</time></trkpt><trkpt lat="58.056525" lon="38.83279"><ele>98.0</ele><time>2024-04-23T13:59:40Z</time></trkpt><trkpt lat="58.05646" lon="38.832992"><ele>97.0</ele><time>2024-04-23T13:59:42Z</time></trkpt><trkpt lat="58.0564" lon="38.833187"><ele>97.1</ele><time>2024-04-23T13:59:44Z</time></trkpt><trkpt lat="58.05633" lon="38.833375"><ele>97.2</ele><time>2024-04-23T13:59:46Z</time></trkpt><trkpt lat="58.056275" lon="38.83357"><ele>98.2</ele><time>2024-04-23T13:59:48Z</time></trkpt><trkpt lat="58.05622" lon="38.83376"><ele>97.8</ele><time>2024-04-23T13:59:50Z</time></trkpt><trkpt lat="58.05616" lon="38.833945"><ele>97.1</ele><time>2024-04-23T13:59:52Z</time></trkpt><trkpt lat="58.0561" lon="38.83412"><ele>97.2</ele><time>2024-04-23T13:59:54Z</time></trkpt><trkpt lat="58.05605" lon="38.8343"><ele>97.6</ele><time>2024-04-23T13:59:56Z</time></trkpt><trkpt lat="58.055995" lon="38.83447"><ele>97.2</ele><time>2024-04-23T13:59:58Z</time></trkpt><trkpt lat="58.05594" lon="38.834637"><ele>96.5</ele><time>2024-04-23T14:00:00Z</time></trkpt><trkpt lat="58.05588" lon="38.834805"><ele>96.8</ele><time>2024-04-23T14:00:02Z</time></trkpt><trkpt lat="58.055832" lon="38.834985"><ele>97.7</ele><time>2024-04-23T14:00:04Z</time></trkpt><trkpt lat="58.055775" lon="38.83518"><ele>99.1</ele><time>2024-04-23T14:00:06Z</time></trkpt><trkpt lat="58.055717" lon="38.835355"><ele>98.0</ele><time>2024-04-23T14:00:08Z</time></trkpt><trkpt lat="58.055658" lon="38.835532"><ele>97.8</ele><time>2024-04-23T14:00:10Z</time></trkpt><trkpt lat="58.055612" lon="38.835715"><ele>98.9</ele><time>2024-04-23T14:00:12Z</time></trkpt><trkpt lat="58.05556" lon="38.835875"><ele>99.3</ele><time>2024-04-23T14:00:14Z</time></trkpt><trkpt lat="58.055507" lon="38.836055"><ele>99.3</ele><time>2024-04-23T14:00:16Z</time></trkpt><trkpt lat="58.055452" lon="38.836222"><ele>98.1</ele><time>2024-04-23T14:00:18Z</time></trkpt><trkpt lat="58.055405" lon="38.83637"><ele>98.2</ele><time>2024-04-23T14:00:20Z</time></trkpt><trkpt lat="58.05536" lon="38.83654"><ele>98.5</ele><time>2024-04-23T14:00:22Z</time></trkpt><trkpt lat="58.055315" lon="38.836692"><ele>97.8</ele><time>2024-04-23T14:00:24Z</time></trkpt><trkpt lat="58.05526" lon="38.836837"><ele>97.1</ele><time>2024-04-23T14:00:26Z</time></trkpt><trkpt lat="58.055207" lon="38.837007"><ele>97.4</ele><time>2024-04-23T14:00:28Z</time></trkpt><trkpt lat="58.05515" lon="38.837185"><ele>97.3</ele><time>2024-04-23T14:00:30Z</time></trkpt><trkpt lat="58.05509" lon="38.83735"><ele>97.6</ele><time>2024-04-23T14:00:32Z</time></trkpt><trkpt lat="58.05504" lon="38.8375"><ele>98.5</ele><time>2024-04-23T14:00:34Z</time></trkpt><trkpt lat="58.054995" lon="38.83766"><ele>99.4</ele><time>2024-04-23T14:00:36Z</time></trkpt><trkpt lat="58.054935" lon="38.837823"><ele>100.0</ele><time>2024-04-23T14:00:38Z</time></trkpt><trkpt lat="58.054882" lon="38.83801"><ele>100.3</ele><time>2024-04-23T14:00:40Z</time></trkpt><trkpt lat="58.054825" lon="38.838175"><ele>99.1</ele><time>2024-04-23T14:00:42Z</time></trkpt><trkpt lat="58.054763" lon="38.838347"><ele>99.3</ele><time>2024-04-23T14:00:44Z</time></trkpt><trkpt lat="58.0547" lon="38.838518"><ele>98.9</ele><time>2024-04-23T14:00:46Z</time></trkpt><trkpt lat="58.05464" lon="38.8387"><ele>98.4</ele><time>2024-04-23T14:00:48Z</time></trkpt><trkpt lat="58.054575" lon="38.83887"><ele>97.9</ele><time>2024-04-23T14:00:50Z</time></trkpt><trkpt lat="58.05451" lon="38.839045"><ele>97.2</ele><time>2024-04-23T14:00:52Z</time></trkpt><trkpt lat="58.054442" lon="38.839225"><ele>96.9</ele><time>2024-04-23T14:00:54Z</time></trkpt><trkpt lat="58.054382" lon="38.839395"><ele>96.4</ele><time>2024-04-23T14:00:56Z</time></trkpt><trkpt lat="58.05432" lon="38.839585"><ele>96.3</ele><time>2024-04-23T14:00:58Z</time></trkpt><trkpt lat="58.054245" lon="38.839765"><ele>96.8</ele><time>2024-04-23T14:01:00Z</time></trkpt><trkpt lat="58.05419" lon="38.839975"><ele>97.8</ele><time>2024-04-23T14:01:02Z</time></trkpt><trkpt lat="58.054115" lon="38.840202"><ele>98.2</ele><time>2024-04-23T14:01:04Z</time></trkpt><trkpt lat="58.054073" lon="38.840318"><ele>98.1</ele><time>2024-04-23T14:01:05Z</time></trkpt><trkpt lat="58.054035" lon="38.840435"><ele>98.0</ele><time>2024-04-23T14:01:06Z</time></trkpt><trkpt lat="58.053992" lon="38.840558"><ele>98.4</ele><time>2024-04-23T14:01:07Z</time></trkpt><trkpt lat="58.05395" lon="38.84068"><ele>98.6</ele><time>2024-04-23T14:01:08Z</time></trkpt><trkpt lat="58.05391" lon="38.8408"><ele>98.3</ele><time>2024-04-23T14:01:09Z</time></trkpt><trkpt lat="58.053835" lon="38.841025"><ele>97.5</ele><time>2024-04-23T14:01:11Z</time></trkpt><trkpt lat="58.053762" lon="38.841252"><ele>96.8</ele><time>2024-04-23T14:01:13Z</time></trkpt><trkpt lat="58.053692" lon="38.84147"><ele>96.7</ele><time>2024-04-23T14:01:15Z</time></trkpt><trkpt lat="58.053615" lon="38.841682"><ele>97.3</ele><time>2024-04-23T14:01:17Z</time></trkpt><trkpt lat="58.053538" lon="38.841892"><ele>96.4</ele><time>2024-04-23T14:01:19Z</time></trkpt><trkpt lat="58.053468" lon="38.842087"><ele>96.3</ele><time>2024-04-23T14:01:21Z</time></trkpt><trkpt lat="58.0534" lon="38.842288"><ele>96.0</ele><time>2024-04-23T14:01:23Z</time></trkpt><trkpt lat="58.05333" lon="38.84247"><ele>96.6</ele><time>2024-04-23T14:01:25Z</time></trkpt><trkpt lat="58.053275" lon="38.842668"><ele>96.8</ele><time>2024-04-23T14:01:27Z</time></trkpt><trkpt lat="58.053215" lon="38.842855"><ele>97.6</ele><time>2024-04-23T14:01:29Z</time></trkpt><trkpt lat="58.053158" lon="38.843025"><ele>97.8</ele><time>2024-04-23T14:01:31Z</time></trkpt><trkpt lat="58.053102" lon="38.84319"><ele>97.7</ele><time>2024-04-23T14:01:33Z</time></trkpt><trkpt lat="58.05305" lon="38.84335"><ele>98.1</ele><time>2024-04-23T14:01:35Z</time></trkpt><trkpt lat="58.052995" lon="38.843505"><ele>98.2</ele><time>2024-04-23T14:01:37Z</time></trkpt><trkpt lat="58.052942" lon="38.843657"><ele>98.6</ele><time>2024-04-23T14:01:39Z</time></trkpt><trkpt lat="58.052885" lon="38.843805"><ele>98.6</ele><time>2024-04-23T14:01:41Z</time></trkpt><trkpt lat="58.052835" lon="38.84395"><ele>98.8</ele><time>2024-04-23T14:01:43Z</time></trkpt><trkpt lat="58.052775" lon="38.84409"><ele>97.9</ele><time>2024-04-23T14:01:45Z</time></trkpt><trkpt lat="58.05272" lon="38.84422"><ele>97.6</ele><time>2024-04-23T14:01:47Z</time></trkpt><trkpt lat="58.05265" lon="38.84427"><ele>98.8</ele><time>2024-04-23T14:01:49Z</time></trkpt><trkpt lat="58.052552" lon="38.844307"><ele>100.3</ele><time>2024-04-23T14:01:52Z</time></trkpt><trkpt lat="58.052447" lon="38.84436"><ele>100.5</ele><time>2024-04-23T14:01:55Z</time></trkpt><trkpt lat="58.05237" lon="38.844392"><ele>100.6</ele><time>2024-04-23T14:01:57Z</time></trkpt><trkpt lat="58.052295" lon="38.844425"><ele>100.4</ele><time>2024-04-23T14:01:59Z</time></trkpt><trkpt lat="58.05222" lon="38.844465"><ele>100.1</ele><time>2024-04-23T14:02:01Z</time></trkpt><trkpt lat="58.052135" lon="38.844498"><ele>100.1</ele><time>2024-04-23T14:02:03Z</time></trkpt><trkpt lat="58.05205" lon="38.84454"><ele>99.3</ele><time>2024-04-23T14:02:05Z</time></trkpt><trkpt lat="58.05197" lon="38.84459"><ele>100.1</ele><time>2024-04-23T14:02:07Z</time></trkpt><trkpt lat="58.05189" lon="38.84462"><ele>100.3</ele><time>2024-04-23T14:02:09Z</time></trkpt><trkpt lat="58.051817" lon="38.844665"><ele>100.9</ele><time>2024-04-23T14:02:11Z</time></trkpt><trkpt lat="58.05172" lon="38.84471"><ele>101.2</ele><time>2024-04-23T14:02:14Z</time></trkpt><trkpt lat="58.05164" lon="38.84476"><ele>101.7</ele><time>2024-04-23T14:02:17Z</time></trkpt><trkpt lat="58.051585" lon="38.844895"><ele>101.9</ele><time>2024-04-23T14:02:20Z</time></trkpt><trkpt lat="58.05153" lon="38.84507"><ele>102.7</ele><time>2024-04-23T14:02:23Z</time></trkpt><trkpt lat="58.05151" lon="38.845205"><ele>103.8</ele><time>2024-04-23T14:02:25Z</time></trkpt><trkpt lat="58.051485" lon="38.84534"><ele>103.6</ele><time>2024-04-23T14:02:27Z</time></trkpt><trkpt lat="58.05145" lon="38.845482"><ele>104.2</ele><time>2024-04-23T14:02:29Z</time></trkpt><trkpt lat="58.05142" lon="38.845635"><ele>104.2</ele><time>2024-04-23T14:02:31Z</time></trkpt><trkpt lat="58.051392" lon="38.84579"><ele>104.9</ele><time>2024-04-23T14:02:33Z</time></trkpt><trkpt lat="58.051357" lon="38.845945"><ele>104.8</ele><time>2024-04-23T14:02:35Z</time></trkpt><trkpt lat="58.051325" lon="38.846095"><ele>104.9</ele><time>2024-04-23T14:02:37Z</time></trkpt><trkpt lat="58.0513" lon="38.846255"><ele>105.3</ele><time>2024-04-23T14:02:39Z</time></trkpt><trkpt lat="58.051272" lon="38.846382"><ele>105.4</ele><time>2024-04-23T14:02:41Z</time></trkpt><trkpt lat="58.051252" lon="38.84652"><ele>104.7</ele><time>2024-04-23T14:02:44Z</time></trkpt><trkpt lat="58.051252" lon="38.846545"><ele>104.9</ele><time>2024-04-23T14:02:51Z</time></trkpt><trkpt lat="58.051225" lon="38.846677"><ele>103.9</ele><time>2024-04-23T14:02:58Z</time></trkpt><trkpt lat="58.05115" lon="38.846688"><ele>104.3</ele><time>2024-04-23T14:03:04Z</time></trkpt><trkpt lat="58.051067" lon="38.84664"><ele>104.1</ele><time>2024-04-23T14:03:07Z</time></trkpt><trkpt lat="58.05099" lon="38.84653"><ele>104.8</ele><time>2024-04-23T14:03:10Z</time></trkpt><trkpt lat="58.050905" lon="38.846468"><ele>105.2</ele><time>2024-04-23T14:03:12Z</time></trkpt><trkpt lat="58.05082" lon="38.846422"><ele>105.8</ele><time>2024-04-23T14:03:14Z</time></trkpt><trkpt lat="58.050737" lon="38.846387"><ele>106.1</ele><time>2024-04-23T14:03:16Z</time></trkpt><trkpt lat="58.050663" lon="38.846345"><ele>106.1</ele><time>2024-04-23T14:03:18Z</time></trkpt><trkpt lat="58.050565" lon="38.846285"><ele>105.2</ele><time>2024-04-23T14:03:21Z</time></trkpt><trkpt lat="58.0505" lon="38.846225"><ele>104.9</ele><time>2024-04-23T14:03:23Z</time></trkpt><trkpt lat="58.050407" lon="38.846157"><ele>104.2</ele><time>2024-04-23T14:03:26Z</time></trkpt><trkpt lat="58.050327" lon="38.84613"><ele>103.0</ele><time>2024-04-23T14:03:29Z</time></trkpt><trkpt lat="58.05026" lon="38.846125"><ele>102.6</ele><time>2024-04-23T14:03:36Z</time></trkpt><trkpt lat="58.05026" lon="38.84613"><ele>103.0</ele><time>2024-04-23T14:03:40Z</time></trkpt><trkpt lat="58.05018" lon="38.846065"><ele>104.7</ele><time>2024-04-23T14:03:52Z</time></trkpt><trkpt lat="58.050097" lon="38.846"><ele>105.3</ele><time>2024-04-23T14:03:55Z</time></trkpt><trkpt lat="58.050025" lon="38.84594"><ele>107.4</ele><time>2024-04-23T14:03:58Z</time></trkpt><trkpt lat="58.04995" lon="38.845885"><ele>107.0</ele><time>2024-04-23T14:04:01Z</time></trkpt><trkpt lat="58.04987" lon="38.845825"><ele>107.8</ele><time>2024-04-23T14:04:04Z</time></trkpt><trkpt lat="58.049767" lon="38.845755"><ele>108.3</ele><time>2024-04-23T14:04:07Z</time></trkpt><trkpt lat="58.049695" lon="38.8457"><ele>108.6</ele><time>2024-04-23T14:04:09Z</time></trkpt><trkpt lat="58.049615" lon="38.84567"><ele>107.5</ele><time>2024-04-23T14:04:11Z</time></trkpt><trkpt lat="58.04951" lon="38.84563"><ele>107.3</ele><time>2024-04-23T14:04:14Z</time></trkpt><trkpt lat="58.049437" lon="38.84558"><ele>106.9</ele><time>2024-04-23T14:04:16Z</time></trkpt><trkpt lat="58.049365" lon="38.84552"><ele>107.2</ele><time>2024-04-23T14:04:18Z</time></trkpt><trkpt lat="58.049287" lon="38.84547"><ele>108.3</ele><time>2024-04-23T14:04:20Z</time></trkpt><trkpt lat="58.049202" lon="38.845413"><ele>109.0</ele><time>2024-04-23T14:04:23Z</time></trkpt><trkpt lat="58.04912" lon="38.845397"><ele>108.3</ele><time>2024-04-23T14:04:27Z</time></trkpt><trkpt lat="58.04911" lon="38.845425"><ele>108.3</ele><time>2024-04-23T14:04:34Z</time></trkpt><trkpt lat="58.04903" lon="38.845355"><ele>106.8</ele><time>2024-04-23T14:05:16Z</time></trkpt><trkpt lat="58.04896" lon="38.845445"><ele>108.3</ele><time>2024-04-23T14:05:21Z</time></trkpt><trkpt lat="58.048935" lon="38.845595"><ele>107.9</ele><time>2024-04-23T14:05:25Z</time></trkpt><trkpt lat="58.04891" lon="38.845675"><ele>107.9</ele><time>2024-04-23T14:05:32Z</time></trkpt><trkpt lat="58.048905" lon="38.845677"><ele>107.6</ele><time>2024-04-23T14:05:35Z</time></trkpt><trkpt lat="58.04888" lon="38.845845"><ele>109.3</ele><time>2024-04-23T14:08:30Z</time></trkpt><trkpt lat="58.04885" lon="38.845997"><ele>109.0</ele><time>2024-04-23T14:08:35Z</time></trkpt><trkpt lat="58.048802" lon="38.846135"><ele>101.4</ele><time>2024-04-23T14:08:40Z</time></trkpt><trkpt lat="58.04878" lon="38.84633"><ele>101.9</ele><time>2024-04-23T14:08:43Z</time></trkpt><trkpt lat="58.04875" lon="38.846627"><ele>110.7</ele><time>2024-04-23T14:08:45Z</time></trkpt><trkpt lat="58.048717" lon="38.84679"><ele>111.4</ele><time>2024-04-23T14:08:48Z</time></trkpt><trkpt lat="58.048693" lon="38.84693"><ele>110.6</ele><time>2024-04-23T14:08:50Z</time></trkpt><trkpt lat="58.04866" lon="38.847055"><ele>109.1</ele><time>2024-04-23T14:08:52Z</time></trkpt><trkpt lat="58.048627" lon="38.84718"><ele>109.4</ele><time>2024-04-23T14:08:54Z</time></trkpt><trkpt lat="58.048602" lon="38.84735"><ele>108.9</ele><time>2024-04-23T14:08:56Z</time></trkpt><trkpt lat="58.04858" lon="38.847512"><ele>108.4</ele><time>2024-04-23T14:08:58Z</time></trkpt><trkpt lat="58.048537" lon="38.84765"><ele>108.5</ele><time>2024-04-23T14:09:00Z</time></trkpt><trkpt lat="58.048515" lon="38.847815"><ele>108.5</ele><time>2024-04-23T14:09:02Z</time></trkpt><trkpt lat="58.048485" lon="38.847982"><ele>108.0</ele><time>2024-04-23T14:09:04Z</time></trkpt><trkpt lat="58.04846" lon="38.848137"><ele>107.9</ele><time>2024-04-23T14:09:06Z</time></trkpt><trkpt lat="58.04843" lon="38.848298"><ele>108.0</ele><time>2024-04-23T14:09:08Z</time></trkpt><trkpt lat="58.048405" lon="38.848477"><ele>107.9</ele><time>2024-04-23T14:09:10Z</time></trkpt><trkpt lat="58.04837" lon="38.84864"><ele>108.2</ele><time>2024-04-23T14:09:12Z</time></trkpt><trkpt lat="58.048345" lon="38.84879"><ele>108.4</ele><time>2024-04-23T14:09:14Z</time></trkpt><trkpt lat="58.0483" lon="38.84897"><ele>107.0</ele><time>2024-04-23T14:09:17Z</time></trkpt><trkpt lat="58.04828" lon="38.84912"><ele>107.5</ele><time>2024-04-23T14:09:20Z</time></trkpt><trkpt lat="58.04826" lon="38.84919"><ele>108.6</ele><time>2024-04-23T14:09:27Z</time></trkpt><trkpt lat="58.04826" lon="38.84919"><ele>109.0</ele><time>2024-04-23T14:09:29Z</time></trkpt><trkpt lat="58.048232" lon="38.849375"><ele>108.6</ele><time>2024-04-23T14:10:11Z</time></trkpt><trkpt lat="58.048215" lon="38.849535"><ele>109.6</ele><time>2024-04-23T14:10:13Z</time></trkpt><trkpt lat="58.048175" lon="38.8497"><ele>109.3</ele><time>2024-04-23T14:10:15Z</time></trkpt><trkpt lat="58.04814" lon="38.849865"><ele>108.9</ele><time>2024-04-23T14:10:17Z</time></trkpt><trkpt lat="58.048093" lon="38.85002"><ele>109.2</ele><time>2024-04-23T14:10:19Z</time></trkpt><trkpt lat="58.04806" lon="38.850202"><ele>110.0</ele><time>2024-04-23T14:10:21Z</time></trkpt><trkpt lat="58.048032" lon="38.85038"><ele>109.2</ele><time>2024-04-23T14:10:23Z</time></trkpt><trkpt lat="58.048008" lon="38.850535"><ele>109.0</ele><time>2024-04-23T14:10:25Z</time></trkpt><trkpt lat="58.047992" lon="38.8507"><ele>109.0</ele><time>2024-04-23T14:10:28Z</time></trkpt><trkpt lat="58.047955" lon="38.85084"><ele>109.3</ele><time>2024-04-23T14:10:31Z</time></trkpt><trkpt lat="58.04792" lon="38.851022"><ele>109.0</ele><time>2024-04-23T14:10:34Z</time></trkpt><trkpt lat="58.047902" lon="38.85116"><ele>108.6</ele><time>2024-04-23T14:10:36Z</time></trkpt><trkpt lat="58.047875" lon="38.8513"><ele>108.3</ele><time>2024-04-23T14:10:38Z</time></trkpt><trkpt lat="58.047853" lon="38.851445"><ele>108.0</ele><time>2024-04-23T14:10:40Z</time></trkpt><trkpt lat="58.047835" lon="38.851635"><ele>107.4</ele><time>2024-04-23T14:10:43Z</time></trkpt><trkpt lat="58.047797" lon="38.851768"><ele>107.3</ele><time>2024-04-23T14:10:45Z</time></trkpt><trkpt lat="58.047765" lon="38.85191"><ele>108.3</ele><time>2024-04-23T14:10:47Z</time></trkpt><trkpt lat="58.047727" lon="38.852085"><ele>108.5</ele><time>2024-04-23T14:10:50Z</time></trkpt><trkpt lat="58.0477" lon="38.85227"><ele>108.3</ele><time>2024-04-23T14:10:55Z</time></trkpt><trkpt lat="58.047665" lon="38.852405"><ele>107.3</ele><time>2024-04-23T14:10:57Z</time></trkpt><trkpt lat="58.04757" lon="38.852467"><ele>106.5</ele><time>2024-04-23T14:11:01Z</time></trkpt><trkpt lat="58.047497" lon="38.852555"><ele>107.5</ele><time>2024-04-23T14:11:04Z</time></trkpt><trkpt lat="58.047415" lon="38.852597"><ele>106.1</ele><time>2024-04-23T14:11:08Z</time></trkpt><trkpt lat="58.047387" lon="38.852582"><ele>105.8</ele><time>2024-04-23T14:11:15Z</time></trkpt><trkpt lat="58.047382" lon="38.852585"><ele>106.5</ele><time>2024-04-23T14:11:17Z</time></trkpt><trkpt lat="58.047355" lon="38.85273"><ele>106.1</ele><time>2024-04-23T14:11:34Z</time></trkpt><trkpt lat="58.047345" lon="38.85287"><ele>107.3</ele><time>2024-04-23T14:11:36Z</time></trkpt><trkpt lat="58.047372" lon="38.85304"><ele>107.6</ele><time>2024-04-23T14:11:39Z</time></trkpt><trkpt lat="58.047397" lon="38.85317"><ele>107.2</ele><time>2024-04-23T14:11:41Z</time></trkpt><trkpt lat="58.047435" lon="38.853322"><ele>107.0</ele><time>2024-04-23T14:11:44Z</time></trkpt><trkpt lat="58.04748" lon="38.853445"><ele>108.1</ele><time>2024-04-23T14:11:47Z</time></trkpt><trkpt lat="58.047515" lon="38.853602"><ele>108.7</ele><time>2024-04-23T14:11:50Z</time></trkpt><trkpt lat="58.047558" lon="38.853765"><ele>108.9</ele><time>2024-04-23T14:11:53Z</time></trkpt><trkpt lat="58.047605" lon="38.853957"><ele>108.6</ele><time>2024-04-23T14:11:56Z</time></trkpt><trkpt lat="58.04764" lon="38.85409"><ele>109.4</ele><time>2024-04-23T14:11:58Z</time></trkpt><trkpt lat="58.047677" lon="38.85422"><ele>109.4</ele><time>2024-04-23T14:12:00Z</time></trkpt><trkpt lat="58.04771" lon="38.854375"><ele>110.1</ele><time>2024-04-23T14:12:02Z</time></trkpt><trkpt lat="58.047737" lon="38.85451"><ele>109.9</ele><time>2024-04-23T14:12:04Z</time></trkpt><trkpt lat="58.04778" lon="38.854677"><ele>110.2</ele><time>2024-04-23T14:12:07Z</time></trkpt><trkpt lat="58.047825" lon="38.854825"><ele>110.8</ele><time>2024-04-23T14:12:09Z</time></trkpt><trkpt lat="58.04787" lon="38.85499"><ele>110.0</ele><time>2024-04-23T14:12:11Z</time></trkpt><trkpt lat="58.04791" lon="38.85512"><ele>110.1</ele><time>2024-04-23T14:12:13Z</time></trkpt><trkpt lat="58.047925" lon="38.855265"><ele>109.7</ele><time>2024-04-23T14:12:15Z</time></trkpt><trkpt lat="58.047857" lon="38.855385"><ele>107.2</ele><time>2024-04-23T14:12:20Z</time></trkpt><trkpt lat="58.047755" lon="38.85542"><ele>106.6</ele><time>2024-04-23T14:12:23Z</time></trkpt><trkpt lat="58.04767" lon="38.855455"><ele>106.7</ele><time>2024-04-23T14:12:25Z</time></trkpt><trkpt lat="58.04757" lon="38.855485"><ele>107.4</ele><time>2024-04-23T14:12:27Z</time></trkpt><trkpt lat="58.047465" lon="38.85548"><ele>107.7</ele><time>2024-04-23T14:12:30Z</time></trkpt><trkpt lat="58.04739" lon="38.855517"><ele>107.7</ele><time>2024-04-23T14:12:32Z</time></trkpt><trkpt lat="58.0473" lon="38.855558"><ele>107.5</ele><time>2024-04-23T14:12:34Z</time></trkpt><trkpt lat="58.047212" lon="38.8556"><ele>108.6</ele><time>2024-04-23T14:12:36Z</time></trkpt><trkpt lat="58.04713" lon="38.85564"><ele>107.9</ele><time>2024-04-23T14:12:38Z</time></trkpt><trkpt lat="58.04705" lon="38.855675"><ele>109.9</ele><time>2024-04-23T14:12:40Z</time></trkpt><trkpt lat="58.046995" lon="38.855775"><ele>110.3</ele><time>2024-04-23T14:12:44Z</time></trkpt><trkpt lat="58.046995" lon="38.855937"><ele>110.0</ele><time>2024-04-23T14:12:47Z</time></trkpt><trkpt lat="58.04701" lon="38.856077"><ele>109.7</ele><time>2024-04-23T14:12:49Z</time></trkpt><trkpt lat="58.047033" lon="38.856205"><ele>110.0</ele><time>2024-04-23T14:12:51Z</time></trkpt><trkpt lat="58.04706" lon="38.85634"><ele>109.6</ele><time>2024-04-23T14:12:53Z</time></trkpt><trkpt lat="58.047095" lon="38.856505"><ele>109.5</ele><time>2024-04-23T14:12:55Z</time></trkpt><trkpt lat="58.04712" lon="38.856675"><ele>108.8</ele><time>2024-04-23T14:12:57Z</time></trkpt><trkpt lat="58.047155" lon="38.856822"><ele>108.0</ele><time>2024-04-23T14:12:59Z</time></trkpt><trkpt lat="58.04719" lon="38.856985"><ele>107.5</ele><time>2024-04-23T14:13:01Z</time></trkpt><trkpt lat="58.047225" lon="38.85716"><ele>107.4</ele><time>2024-04-23T14:13:03Z</time></trkpt><trkpt lat="58.047247" lon="38.85732"><ele>106.7</ele><time>2024-04-23T14:13:05Z</time></trkpt><trkpt lat="58.047272" lon="38.85748"><ele>106.6</ele><time>2024-04-23T14:13:07Z</time></trkpt><trkpt lat="58.047305" lon="38.85765"><ele>106.5</ele><time>2024-04-23T14:13:09Z</time></trkpt><trkpt lat="58.04733" lon="38.8578"><ele>106.8</ele><time>2024-04-23T14:13:11Z</time></trkpt><trkpt lat="58.04736" lon="38.857947"><ele>107.4</ele><time>2024-04-23T14:13:13Z</time></trkpt><trkpt lat="58.04739" lon="38.858105"><ele>106.9</ele><time>2024-04-23T14:13:15Z</time></trkpt><trkpt lat="58.04742" lon="38.85825"><ele>107.1</ele><time>2024-04-23T14:13:17Z</time></trkpt><trkpt lat="58.04745" lon="38.858425"><ele>108.1</ele><time>2024-04-23T14:13:19Z</time></trkpt><trkpt lat="58.047477" lon="38.858587"><ele>107.8</ele><time>2024-04-23T14:13:21Z</time></trkpt><trkpt lat="58.047502" lon="38.858745"><ele>107.9</ele><time>2024-04-23T14:13:23Z</time></trkpt><trkpt lat="58.047525" lon="38.85889"><ele>108.5</ele><time>2024-04-23T14:13:25Z</time></trkpt><trkpt lat="58.047535" lon="38.859035"><ele>108.1</ele><time>2024-04-23T14:13:27Z</time></trkpt><trkpt lat="58.047557" lon="38.859165"><ele>108.0</ele><time>2024-04-23T14:13:29Z</time></trkpt><trkpt lat="58.04764" lon="38.859265"><ele>108.0</ele><time>2024-04-23T14:13:33Z</time></trkpt><trkpt lat="58.04772" lon="38.859272"><ele>107.5</ele><time>2024-04-23T14:13:36Z</time></trkpt><trkpt lat="58.047805" lon="38.859215"><ele>107.3</ele><time>2024-04-23T14:13:39Z</time></trkpt><trkpt lat="58.047875" lon="38.859257"><ele>107.1</ele><time>2024-04-23T14:13:41Z</time></trkpt><trkpt lat="58.04789" lon="38.8594"><ele>108.1</ele><time>2024-04-23T14:13:44Z</time></trkpt><trkpt lat="58.047905" lon="38.859575"><ele>108.5</ele><time>2024-04-23T14:13:48Z</time></trkpt><trkpt lat="58.04793" lon="38.859705"><ele>109.0</ele><time>2024-04-23T14:13:51Z</time></trkpt><trkpt lat="58.048007" lon="38.85977"><ele>109.6</ele><time>2024-04-23T14:13:54Z</time></trkpt><trkpt lat="58.048105" lon="38.859835"><ele>109.9</ele><time>2024-04-23T14:13:57Z</time></trkpt><trkpt lat="58.04817" lon="38.85989"><ele>110.3</ele><time>2024-04-23T14:13:59Z</time></trkpt><trkpt lat="58.04824" lon="38.859955"><ele>110.7</ele><time>2024-04-23T14:14:01Z</time></trkpt><trkpt lat="58.04831" lon="38.859997"><ele>111.3</ele><time>2024-04-23T14:14:03Z</time></trkpt><trkpt lat="58.0484" lon="38.86005"><ele>112.2</ele><time>2024-04-23T14:14:06Z</time></trkpt><trkpt lat="58.04848" lon="38.860115"><ele>111.8</ele><time>2024-04-23T14:14:09Z</time></trkpt><trkpt lat="58.04855" lon="38.86016"><ele>111.8</ele><time>2024-04-23T14:14:11Z</time></trkpt><trkpt lat="58.048622" lon="38.8602"><ele>112.1</ele><time>2024-04-23T14:14:13Z</time></trkpt><trkpt lat="58.048697" lon="38.86025"><ele>112.5</ele><time>2024-04-23T14:14:15Z</time></trkpt><trkpt lat="58.048762" lon="38.860305"><ele>113.0</ele><time>2024-04-23T14:14:17Z</time></trkpt><trkpt lat="58.048845" lon="38.86038"><ele>113.2</ele><time>2024-04-23T14:14:20Z</time></trkpt><trkpt lat="58.048932" lon="38.86041"><ele>113.9</ele><time>2024-04-23T14:14:23Z</time></trkpt><trkpt lat="58.049002" lon="38.860452"><ele>114.3</ele><time>2024-04-23T14:14:25Z</time></trkpt><trkpt lat="58.04907" lon="38.860522"><ele>114.6</ele><time>2024-04-23T14:14:27Z</time></trkpt><trkpt lat="58.049148" lon="38.86057"><ele>114.1</ele><time>2024-04-23T14:14:29Z</time></trkpt><trkpt lat="58.049232" lon="38.860622"><ele>114.5</ele><time>2024-04-23T14:14:31Z</time></trkpt><trkpt lat="58.04931" lon="38.860675"><ele>114.7</ele><time>2024-04-23T14:14:33Z</time></trkpt><trkpt lat="58.049385" lon="38.86074"><ele>115.2</ele><time>2024-04-23T14:14:35Z</time></trkpt><trkpt lat="58.04947" lon="38.860795"><ele>115.8</ele><time>2024-04-23T14:14:37Z</time></trkpt><trkpt lat="58.049555" lon="38.860835"><ele>115.7</ele><time>2024-04-23T14:14:39Z</time></trkpt><trkpt lat="58.04963" lon="38.860857"><ele>116.7</ele><time>2024-04-23T14:14:41Z</time></trkpt><trkpt lat="58.049697" lon="38.8609"><ele>117.2</ele><time>2024-04-23T14:14:43Z</time></trkpt><trkpt lat="58.04977" lon="38.86096"><ele>117.4</ele><time>2024-04-23T14:14:45Z</time></trkpt><trkpt lat="58.04985" lon="38.861"><ele>117.4</ele><time>2024-04-23T14:14:47Z</time></trkpt><trkpt lat="58.049935" lon="38.86105"><ele>117.5</ele><time>2024-04-23T14:14:49Z</time></trkpt><trkpt lat="58.05001" lon="38.86111"><ele>117.2</ele><time>2024-04-23T14:14:51Z</time></trkpt><trkpt lat="58.05008" lon="38.861165"><ele>117.4</ele><time>2024-04-23T14:14:53Z</time></trkpt><trkpt lat="58.050148" lon="38.861215"><ele>117.2</ele><time>2024-04-23T14:14:55Z</time></trkpt><trkpt lat="58.050225" lon="38.86127"><ele>117.3</ele><time>2024-04-23T14:14:57Z</time></trkpt><trkpt lat="58.050325" lon="38.86134"><ele>117.3</ele><time>2024-04-23T14:15:00Z</time></trkpt><trkpt lat="58.050415" lon="38.8614"><ele>117.2</ele><time>2024-04-23T14:15:03Z</time></trkpt><trkpt lat="58.050522" lon="38.86146"><ele>115.8</ele><time>2024-04-23T14:15:06Z</time></trkpt><trkpt lat="58.050592" lon="38.861515"><ele>115.6</ele><time>2024-04-23T14:15:08Z</time></trkpt><trkpt lat="58.05066" lon="38.86156"><ele>115.8</ele><time>2024-04-23T14:15:10Z</time></trkpt><trkpt lat="58.050745" lon="38.861595"><ele>116.4</ele><time>2024-04-23T14:15:13Z</time></trkpt><trkpt lat="58.050835" lon="38.861645"><ele>116.9</ele><time>2024-04-23T14:15:18Z</time></trkpt><trkpt lat="58.05093" lon="38.861745"><ele>116.9</ele><time>2024-04-23T14:15:21Z</time></trkpt><trkpt lat="58.051032" lon="38.86181"><ele>117.2</ele><time>2024-04-23T14:15:23Z</time></trkpt><trkpt lat="58.05116" lon="38.861887"><ele>116.6</ele><time>2024-04-23T14:15:25Z</time></trkpt><trkpt lat="58.05128" lon="38.861955"><ele>117.6</ele><time>2024-04-23T14:15:27Z</time></trkpt><trkpt lat="58.051392" lon="38.862022"><ele>117.0</ele><time>2024-04-23T14:15:29Z</time></trkpt><trkpt lat="58.05151" lon="38.862112"><ele>116.8</ele><time>2024-04-23T14:15:31Z</time></trkpt><trkpt lat="58.05162" lon="38.862195"><ele>117.1</ele><time>2024-04-23T14:15:33Z</time></trkpt><trkpt lat="58.051723" lon="38.862287"><ele>117.0</ele><time>2024-04-23T14:15:35Z</time></trkpt><trkpt lat="58.051832" lon="38.862335"><ele>116.7</ele><time>2024-04-23T14:15:37Z</time></trkpt><trkpt lat="58.051935" lon="38.86241"><ele>116.2</ele><time>2024-04-23T14:15:39Z</time></trkpt><trkpt lat="58.052045" lon="38.86248"><ele>115.7</ele><time>2024-04-23T14:15:41Z</time></trkpt><trkpt lat="58.05215" lon="38.862545"><ele>116.5</ele><time>2024-04-23T14:15:43Z</time></trkpt><trkpt lat="58.05225" lon="38.862612"><ele>116.3</ele><time>2024-04-23T14:15:45Z</time></trkpt><trkpt lat="58.052347" lon="38.86269"><ele>115.5</ele><time>2024-04-23T14:15:47Z</time></trkpt><trkpt lat="58.05245" lon="38.862747"><ele>114.9</ele><time>2024-04-23T14:15:49Z</time></trkpt><trkpt lat="58.052553" lon="38.862817"><ele>115.0</ele><time>2024-04-23T14:15:51Z</time></trkpt><trkpt lat="58.05266" lon="38.86289"><ele>115.4</ele><time>2024-04-23T14:15:53Z</time></trkpt><trkpt lat="58.052755" lon="38.86295"><ele>114.7</ele><time>2024-04-23T14:15:55Z</time></trkpt><trkpt lat="58.052845" lon="38.862995"><ele>114.9</ele><time>2024-04-23T14:15:57Z</time></trkpt><trkpt lat="58.05293" lon="38.863075"><ele>115.3</ele><time>2024-04-23T14:15:59Z</time></trkpt><trkpt lat="58.053015" lon="38.863132"><ele>114.7</ele><time>2024-04-23T14:16:01Z</time></trkpt><trkpt lat="58.053105" lon="38.8632"><ele>114.6</ele><time>2024-04-23T14:16:03Z</time></trkpt><trkpt lat="58.053197" lon="38.863245"><ele>114.5</ele><time>2024-04-23T14:16:05Z</time></trkpt><trkpt lat="58.053285" lon="38.863322"><ele>114.5</ele><time>2024-04-23T14:16:07Z</time></trkpt><trkpt lat="58.053385" lon="38.863385"><ele>114.5</ele><time>2024-04-23T14:16:09Z</time></trkpt><trkpt lat="58.053475" lon="38.863447"><ele>114.2</ele><time>2024-04-23T14:16:11Z</time></trkpt><trkpt lat="58.05356" lon="38.86349"><ele>113.7</ele><time>2024-04-23T14:16:13Z</time></trkpt><trkpt lat="58.05365" lon="38.86356"><ele>113.8</ele><time>2024-04-23T14:16:15Z</time></trkpt><trkpt lat="58.05374" lon="38.863615"><ele>113.9</ele><time>2024-04-23T14:16:17Z</time></trkpt><trkpt lat="58.053825" lon="38.86366"><ele>112.9</ele><time>2024-04-23T14:16:19Z</time></trkpt><trkpt lat="58.05389" lon="38.863707"><ele>112.7</ele><time>2024-04-23T14:16:21Z</time></trkpt><trkpt lat="58.053987" lon="38.86379"><ele>112.8</ele><time>2024-04-23T14:16:24Z</time></trkpt><trkpt lat="58.054067" lon="38.86384"><ele>112.6</ele><time>2024-04-23T14:16:26Z</time></trkpt><trkpt lat="58.054152" lon="38.86387"><ele>113.1</ele><time>2024-04-23T14:16:28Z</time></trkpt><trkpt lat="58.054235" lon="38.86392"><ele>112.6</ele><time>2024-04-23T14:16:30Z</time></trkpt><trkpt lat="58.05432" lon="38.86398"><ele>112.7</ele><time>2024-04-23T14:16:32Z</time></trkpt><trkpt lat="58.05439" lon="38.864015"><ele>111.1</ele><time>2024-04-23T14:16:34Z</time></trkpt><trkpt lat="58.054485" lon="38.864085"><ele>110.8</ele><time>2024-04-23T14:16:37Z</time></trkpt><trkpt lat="58.05456" lon="38.864112"><ele>110.1</ele><time>2024-04-23T14:16:40Z</time></trkpt><trkpt lat="58.054635" lon="38.864167"><ele>109.2</ele><time>2024-04-23T14:16:42Z</time></trkpt><trkpt lat="58.054735" lon="38.864255"><ele>108.6</ele><time>2024-04-23T14:16:44Z</time></trkpt><trkpt lat="58.05487" lon="38.864345"><ele>108.2</ele><time>2024-04-23T14:16:46Z</time></trkpt><trkpt lat="58.054945" lon="38.864395"><ele>108.3</ele><time>2024-04-23T14:16:47Z</time></trkpt><trkpt lat="58.055015" lon="38.864445"><ele>107.9</ele><time>2024-04-23T14:16:48Z</time></trkpt><trkpt lat="58.05509" lon="38.864485"><ele>107.5</ele><time>2024-04-23T14:16:49Z</time></trkpt><trkpt lat="58.05516" lon="38.864535"><ele>107.1</ele><time>2024-04-23T14:16:50Z</time></trkpt><trkpt lat="58.05528" lon="38.864615"><ele>106.7</ele><time>2024-04-23T14:16:52Z</time></trkpt><trkpt lat="58.055363" lon="38.864667"><ele>106.0</ele><time>2024-04-23T14:16:54Z</time></trkpt><trkpt lat="58.055437" lon="38.864722"><ele>105.7</ele><time>2024-04-23T14:16:57Z</time></trkpt><trkpt lat="58.055525" lon="38.86476"><ele>106.0</ele><time>2024-04-23T14:17:00Z</time></trkpt><trkpt lat="58.0556" lon="38.86475"><ele>105.6</ele><time>2024-04-23T14:17:02Z</time></trkpt><trkpt lat="58.055667" lon="38.8647"><ele>105.3</ele><time>2024-04-23T14:17:04Z</time></trkpt><trkpt lat="58.055717" lon="38.8646"><ele>105.3</ele><time>2024-04-23T14:17:06Z</time></trkpt><trkpt lat="58.055732" lon="38.864422"><ele>104.9</ele><time>2024-04-23T14:17:08Z</time></trkpt><trkpt lat="58.055715" lon="38.86424"><ele>104.6</ele><time>2024-04-23T14:17:10Z</time></trkpt><trkpt lat="58.055685" lon="38.864065"><ele>104.6</ele><time>2024-04-23T14:17:12Z</time></trkpt><trkpt lat="58.055625" lon="38.863915"><ele>105.0</ele><time>2024-04-23T14:17:14Z</time></trkpt><trkpt lat="58.055555" lon="38.863807"><ele>105.1</ele><time>2024-04-23T14:17:16Z</time></trkpt><trkpt lat="58.055495" lon="38.86369"><ele>105.7</ele><time>2024-04-23T14:17:18Z</time></trkpt><trkpt lat="58.055433" lon="38.86359"><ele>105.8</ele><time>2024-04-23T14:17:20Z</time></trkpt><trkpt lat="58.05538" lon="38.863475"><ele>106.2</ele><time>2024-04-23T14:17:22Z</time></trkpt><trkpt lat="58.05531" lon="38.863325"><ele>105.4</ele><time>2024-04-23T14:17:25Z</time></trkpt><trkpt lat="58.05526" lon="38.863225"><ele>104.9</ele><time>2024-04-23T14:17:27Z</time></trkpt><trkpt lat="58.0552" lon="38.863097"><ele>104.9</ele><time>2024-04-23T14:17:30Z</time></trkpt><trkpt lat="58.05515" lon="38.863"><ele>104.6</ele><time>2024-04-23T14:17:33Z</time></trkpt><trkpt lat="58.0551" lon="38.862897"><ele>104.8</ele><time>2024-04-23T14:17:38Z</time></trkpt><trkpt lat="58.05503" lon="38.862795"><ele>105.7</ele><time>2024-04-23T14:17:41Z</time></trkpt><trkpt lat="58.054945" lon="38.862692"><ele>105.5</ele><time>2024-04-23T14:17:44Z</time></trkpt><trkpt lat="58.05488" lon="38.8626"><ele>105.6</ele><time>2024-04-23T14:17:47Z</time></trkpt><trkpt lat="58.054827" lon="38.86252"><ele>104.9</ele><time>2024-04-23T14:17:54Z</time></trkpt><trkpt lat="58.054865" lon="38.862395"><ele>105.2</ele><time>2024-04-23T14:18:01Z</time></trkpt><trkpt lat="58.054895" lon="38.862265"><ele>105.6</ele><time>2024-04-23T14:18:04Z</time></trkpt><trkpt lat="58.054895" lon="38.862115"><ele>106.2</ele><time>2024-04-23T14:18:09Z</time></trkpt><trkpt lat="58.054917" lon="38.861972"><ele>105.8</ele><time>2024-04-23T14:18:14Z</time></trkpt><trkpt lat="58.05496" lon="38.8618"><ele>105.3</ele><time>2024-04-23T14:18:17Z</time></trkpt><trkpt lat="58.054983" lon="38.86165"><ele>105.2</ele><time>2024-04-23T14:18:20Z</time></trkpt><trkpt lat="58.055007" lon="38.861468"><ele>104.9</ele><time>2024-04-23T14:18:23Z</time></trkpt><trkpt lat="58.055042" lon="38.86129"><ele>104.7</ele><time>2024-04-23T14:18:26Z</time></trkpt><trkpt lat="58.055073" lon="38.861115"><ele>104.6</ele><time>2024-04-23T14:18:29Z</time></trkpt><trkpt lat="58.05512" lon="38.860945"><ele>104.2</ele><time>2024-04-23T14:18:32Z</time></trkpt><trkpt lat="58.05514" lon="38.86081"><ele>104.2</ele><time>2024-04-23T14:18:34Z</time></trkpt><trkpt lat="58.05517" lon="38.86067"><ele>104.9</ele><time>2024-04-23T14:18:36Z</time></trkpt><trkpt lat="58.055195" lon="38.860535"><ele>104.9</ele><time>2024-04-23T14:18:38Z</time></trkpt><trkpt lat="58.05522" lon="38.860385"><ele>104.7</ele><time>2024-04-23T14:18:40Z</time></trkpt><trkpt lat="58.055235" lon="38.86024"><ele>104.4</ele><time>2024-04-23T14:18:42Z</time></trkpt><trkpt lat="58.05525" lon="38.86006"><ele>103.9</ele><time>2024-04-23T14:18:44Z</time></trkpt><trkpt lat="58.055277" lon="38.859885"><ele>104.7</ele><time>2024-04-23T14:18:46Z</time></trkpt><trkpt lat="58.055305" lon="38.859715"><ele>104.6</ele><time>2024-04-23T14:18:48Z</time></trkpt><trkpt lat="58.05533" lon="38.859552"><ele>104.8</ele><time>2024-04-23T14:18:50Z</time></trkpt><trkpt lat="58.055357" lon="38.859392"><ele>105.1</ele><time>2024-04-23T14:18:52Z</time></trkpt><trkpt lat="58.055382" lon="38.859245"><ele>104.8</ele><time>2024-04-23T14:18:54Z</time></trkpt><trkpt lat="58.05541" lon="38.859105"><ele>104.2</ele><time>2024-04-23T14:18:56Z</time></trkpt><trkpt lat="58.055445" lon="38.85897"><ele>104.1</ele><time>2024-04-23T14:18:58Z</time></trkpt><trkpt lat="58.055477" lon="38.85884"><ele>104.1</ele><time>2024-04-23T14:19:00Z</time></trkpt><trkpt lat="58.055505" lon="38.858707"><ele>103.9</ele><time>2024-04-23T14:19:02Z</time></trkpt><trkpt lat="58.05554" lon="38.858565"><ele>104.2</ele><time>2024-04-23T14:19:04Z</time></trkpt><trkpt lat="58.055575" lon="38.85844"><ele>104.0</ele><time>2024-04-23T14:19:06Z</time></trkpt><trkpt lat="58.055615" lon="38.858305"><ele>104.3</ele><time>2024-04-23T14:19:08Z</time></trkpt><trkpt lat="58.055657" lon="38.858165"><ele>103.4</ele><time>2024-04-23T14:19:10Z</time></trkpt><trkpt lat="58.0557" lon="38.85803"><ele>103.5</ele><time>2024-04-23T14:19:12Z</time></trkpt><trkpt lat="58.055737" lon="38.857892"><ele>103.7</ele><time>2024-04-23T14:19:14Z</time></trkpt><trkpt lat="58.055785" lon="38.85776"><ele>103.8</ele><time>2024-04-23T14:19:16Z</time></trkpt><trkpt lat="58.05583" lon="38.85761"><ele>104.5</ele><time>2024-04-23T14:19:18Z</time></trkpt><trkpt lat="58.055887" lon="38.85747"><ele>104.4</ele><time>2024-04-23T14:19:20Z</time></trkpt><trkpt lat="58.055945" lon="38.85732"><ele>103.8</ele><time>2024-04-23T14:19:22Z</time></trkpt><trkpt lat="58.056005" lon="38.857187"><ele>103.7</ele><time>2024-04-23T14:19:24Z</time></trkpt><trkpt lat="58.056067" lon="38.857065"><ele>104.0</ele><time>2024-04-23T14:19:26Z</time></trkpt><trkpt lat="58.056135" lon="38.85695"><ele>103.8</ele><time>2024-04-23T14:19:28Z</time></trkpt><trkpt lat="58.056205" lon="38.85685"><ele>103.4</ele><time>2024-04-23T14:19:30Z</time></trkpt><trkpt lat="58.056275" lon="38.856745"><ele>103.9</ele><time>2024-04-23T14:19:32Z</time></trkpt><trkpt lat="58.056345" lon="38.85665"><ele>104.0</ele><time>2024-04-23T14:19:34Z</time></trkpt><trkpt lat="58.056422" lon="38.85655"><ele>103.0</ele><time>2024-04-23T14:19:36Z</time></trkpt><trkpt lat="58.0565" lon="38.85644"><ele>104.0</ele><time>2024-04-23T14:19:38Z</time></trkpt><trkpt lat="58.05657" lon="38.856325"><ele>104.1</ele><time>2024-04-23T14:19:40Z</time></trkpt><trkpt lat="58.056647" lon="38.856225"><ele>105.0</ele><time>2024-04-23T14:19:42Z</time></trkpt><trkpt lat="58.056717" lon="38.85613"><ele>105.2</ele><time>2024-04-23T14:19:44Z</time></trkpt><trkpt lat="58.05679" lon="38.85602"><ele>105.2</ele><time>2024-04-23T14:19:46Z</time></trkpt><trkpt lat="58.05687" lon="38.855915"><ele>105.0</ele><time>2024-04-23T14:19:48Z</time></trkpt><trkpt lat="58.056945" lon="38.85581"><ele>104.6</ele><time>2024-04-23T14:19:50Z</time></trkpt><trkpt lat="58.057025" lon="38.85571"><ele>104.0</ele><time>2024-04-23T14:19:52Z</time></trkpt><trkpt lat="58.057098" lon="38.85561"><ele>103.5</ele><time>2024-04-23T14:19:54Z</time></trkpt><trkpt lat="58.057175" lon="38.85551"><ele>103.7</ele><time>2024-04-23T14:19:56Z</time></trkpt><trkpt lat="58.057205" lon="38.855355"><ele>103.9</ele><time>2024-04-23T14:19:58Z</time></trkpt><trkpt lat="58.05726" lon="38.85519"><ele>104.2</ele><time>2024-04-23T14:20:01Z</time></trkpt><trkpt lat="58.057222" lon="38.854995"><ele>104.0</ele><time>2024-04-23T14:20:04Z</time></trkpt><trkpt lat="58.05716" lon="38.854895"><ele>103.7</ele><time>2024-04-23T14:20:06Z</time></trkpt><trkpt lat="58.05709" lon="38.854795"><ele>104.1</ele><time>2024-04-23T14:20:08Z</time></trkpt><trkpt lat="58.057022" lon="38.854705"><ele>104.4</ele><time>2024-04-23T14:20:10Z</time></trkpt><trkpt lat="58.056965" lon="38.85461"><ele>104.0</ele><time>2024-04-23T14:20:12Z</time></trkpt><trkpt lat="58.0569" lon="38.854532"><ele>103.9</ele><time>2024-04-23T14:20:14Z</time></trkpt><trkpt lat="58.056835" lon="38.854405"><ele>103.6</ele><time>2024-04-23T14:20:17Z</time></trkpt><trkpt lat="58.05684" lon="38.85423"><ele>102.8</ele><time>2024-04-23T14:20:20Z</time></trkpt><trkpt lat="58.056882" lon="38.854115"><ele>102.8</ele><time>2024-04-23T14:20:22Z</time></trkpt><trkpt lat="58.056917" lon="38.853965"><ele>103.5</ele><time>2024-04-23T14:20:24Z</time></trkpt><trkpt lat="58.056945" lon="38.8538"><ele>103.9</ele><time>2024-04-23T14:20:26Z</time></trkpt><trkpt lat="58.05697" lon="38.853667"><ele>104.1</ele><time>2024-04-23T14:20:28Z</time></trkpt><trkpt lat="58.057015" lon="38.853535"><ele>104.4</ele><time>2024-04-23T14:20:30Z</time></trkpt><trkpt lat="58.057055" lon="38.85342"><ele>105.7</ele><time>2024-04-23T14:20:32Z</time></trkpt><trkpt lat="58.057097" lon="38.8533"><ele>107.3</ele><time>2024-04-23T14:20:34Z</time></trkpt><trkpt lat="58.057145" lon="38.853175"><ele>106.7</ele><time>2024-04-23T14:20:36Z</time></trkpt><trkpt lat="58.057187" lon="38.85305"><ele>107.4</ele><time>2024-04-23T14:20:38Z</time></trkpt><trkpt lat="58.057222" lon="38.852905"><ele>106.8</ele><time>2024-04-23T14:20:40Z</time></trkpt><trkpt lat="58.057262" lon="38.852765"><ele>106.0</ele><time>2024-04-23T14:20:42Z</time></trkpt><trkpt lat="58.0573" lon="38.85262"><ele>106.1</ele><time>2024-04-23T14:20:44Z</time></trkpt><trkpt lat="58.05735" lon="38.8525"><ele>105.6</ele><time>2024-04-23T14:20:46Z</time></trkpt><trkpt lat="58.057402" lon="38.85239"><ele>104.6</ele><time>2024-04-23T14:20:48Z</time></trkpt><trkpt lat="58.057465" lon="38.852265"><ele>104.1</ele><time>2024-04-23T14:20:51Z</time></trkpt><trkpt lat="58.05752" lon="38.85211"><ele>104.1</ele><time>2024-04-23T14:20:54Z</time></trkpt><trkpt lat="58.057562" lon="38.851962"><ele>103.9</ele><time>2024-04-23T14:20:56Z</time></trkpt><trkpt lat="58.057605" lon="38.851837"><ele>103.5</ele><time>2024-04-23T14:20:58Z</time></trkpt><trkpt lat="58.05766" lon="38.851665"><ele>103.5</ele><time>2024-04-23T14:21:01Z</time></trkpt><trkpt lat="58.057705" lon="38.851532"><ele>105.4</ele><time>2024-04-23T14:21:03Z</time></trkpt><trkpt lat="58.057755" lon="38.851405"><ele>104.7</ele><time>2024-04-23T14:21:05Z</time></trkpt><trkpt lat="58.057802" lon="38.8513"><ele>104.8</ele><time>2024-04-23T14:21:07Z</time></trkpt><trkpt lat="58.057885" lon="38.85116"><ele>104.0</ele><time>2024-04-23T14:21:10Z</time></trkpt><trkpt lat="58.05793" lon="38.85105"><ele>104.4</ele><time>2024-04-23T14:21:12Z</time></trkpt><trkpt lat="58.057947" lon="38.850915"><ele>103.6</ele><time>2024-04-23T14:21:14Z</time></trkpt><trkpt lat="58.057937" lon="38.8507"><ele>101.7</ele><time>2024-04-23T14:21:17Z</time></trkpt><trkpt lat="58.057935" lon="38.85053"><ele>101.4</ele><time>2024-04-23T14:21:19Z</time></trkpt><trkpt lat="58.05796" lon="38.850372"><ele>101.4</ele><time>2024-04-23T14:21:21Z</time></trkpt><trkpt lat="58.058012" lon="38.85021"><ele>101.1</ele><time>2024-04-23T14:21:24Z</time></trkpt><trkpt lat="58.05807" lon="38.850105"><ele>101.9</ele><time>2024-04-23T14:21:26Z</time></trkpt><trkpt lat="58.05813" lon="38.85001"><ele>101.9</ele><time>2024-04-23T14:21:28Z</time></trkpt><trkpt lat="58.0582" lon="38.849912"><ele>103.1</ele><time>2024-04-23T14:21:30Z</time></trkpt><trkpt lat="58.05826" lon="38.84984"><ele>102.7</ele><time>2024-04-23T14:21:32Z</time></trkpt><trkpt lat="58.058347" lon="38.849717"><ele>103.7</ele><time>2024-04-23T14:21:35Z</time></trkpt><trkpt lat="58.058425" lon="38.849585"><ele>102.8</ele><time>2024-04-23T14:21:38Z</time></trkpt><trkpt lat="58.058487" lon="38.849487"><ele>103.3</ele><time>2024-04-23T14:21:40Z</time></trkpt><trkpt lat="58.058542" lon="38.8494"><ele>104.8</ele><time>2024-04-23T14:21:42Z</time></trkpt><trkpt lat="58.058595" lon="38.84924"><ele>105.4</ele><time>2024-04-23T14:21:45Z</time></trkpt><trkpt lat="58.05864" lon="38.84909"><ele>105.4</ele><time>2024-04-23T14:21:48Z</time></trkpt><trkpt lat="58.058697" lon="38.848942"><ele>106.1</ele><time>2024-04-23T14:21:51Z</time></trkpt><trkpt lat="58.05875" lon="38.848772"><ele>107.2</ele><time>2024-04-23T14:21:54Z</time></trkpt><trkpt lat="58.058805" lon="38.848655"><ele>106.2</ele><time>2024-04-23T14:21:56Z</time></trkpt><trkpt lat="58.058875" lon="38.848512"><ele>105.7</ele><time>2024-04-23T14:21:59Z</time></trkpt><trkpt lat="58.05894" lon="38.848425"><ele>105.3</ele><time>2024-04-23T14:22:01Z</time></trkpt><trkpt lat="58.058995" lon="38.848315"><ele>104.8</ele><time>2024-04-23T14:22:03Z</time></trkpt><trkpt lat="58.059035" lon="38.848197"><ele>103.8</ele><time>2024-04-23T14:22:05Z</time></trkpt><trkpt lat="58.0591" lon="38.848053"><ele>104.2</ele><time>2024-04-23T14:22:08Z</time></trkpt><trkpt lat="58.05915" lon="38.84796"><ele>104.8</ele><time>2024-04-23T14:22:10Z</time></trkpt><trkpt lat="58.059195" lon="38.84785"><ele>104.3</ele><time>2024-04-23T14:22:12Z</time></trkpt><trkpt lat="58.05924" lon="38.847742"><ele>105.0</ele><time>2024-04-23T14:22:14Z</time></trkpt><trkpt lat="58.05931" lon="38.84759"><ele>104.5</ele><time>2024-04-23T14:22:17Z</time></trkpt><trkpt lat="58.059362" lon="38.84749"><ele>104.6</ele><time>2024-04-23T14:22:19Z</time></trkpt><trkpt lat="58.059425" lon="38.847335"><ele>105.6</ele><time>2024-04-23T14:22:22Z</time></trkpt><trkpt lat="58.05948" lon="38.8472"><ele>105.4</ele><time>2024-04-23T14:22:25Z</time></trkpt><trkpt lat="58.059547" lon="38.847067"><ele>104.8</ele><time>2024-04-23T14:22:28Z</time></trkpt><trkpt lat="58.059612" lon="38.84695"><ele>105.7</ele><time>2024-04-23T14:22:31Z</time></trkpt><trkpt lat="58.059655" lon="38.84682"><ele>105.1</ele><time>2024-04-23T14:22:34Z</time></trkpt><trkpt lat="58.059727" lon="38.846685"><ele>104.7</ele><time>2024-04-23T14:22:37Z</time></trkpt><trkpt lat="58.059772" lon="38.846565"><ele>105.9</ele><time>2024-04-23T14:22:40Z</time></trkpt><trkpt lat="58.059825" lon="38.846445"><ele>107.2</ele><time>2024-04-23T14:22:43Z</time></trkpt><trkpt lat="58.05989" lon="38.846328"><ele>106.9</ele><time>2024-04-23T14:22:46Z</time></trkpt><trkpt lat="58.05995" lon="38.84618"><ele>105.2</ele><time>2024-04-23T14:22:49Z</time></trkpt><trkpt lat="58.060015" lon="38.846045"><ele>105.2</ele><time>2024-04-23T14:22:52Z</time></trkpt><trkpt lat="58.06008" lon="38.84592"><ele>105.9</ele><time>2024-04-23T14:22:55Z</time></trkpt><trkpt lat="58.060125" lon="38.845787"><ele>106.6</ele><time>2024-04-23T14:22:58Z</time></trkpt><trkpt lat="58.06018" lon="38.845645"><ele>106.3</ele><time>2024-04-23T14:23:01Z</time></trkpt><trkpt lat="58.060222" lon="38.845505"><ele>104.7</ele><time>2024-04-23T14:23:04Z</time></trkpt><trkpt lat="58.0603" lon="38.84544"><ele>105.8</ele><time>2024-04-23T14:23:07Z</time></trkpt><trkpt lat="58.06037" lon="38.84554"><ele>107.5</ele><time>2024-04-23T14:23:11Z</time></trkpt><trkpt lat="58.060443" lon="38.84562"><ele>109.1</ele><time>2024-04-23T14:23:15Z</time></trkpt><trkpt lat="58.060518" lon="38.84563"><ele>110.1</ele><time>2024-04-23T14:23:18Z</time></trkpt><trkpt lat="58.0606" lon="38.845595"><ele>111.2</ele><time>2024-04-23T14:23:21Z</time></trkpt><trkpt lat="58.06068" lon="38.845568"><ele>113.4</ele><time>2024-04-23T14:23:24Z</time></trkpt><trkpt lat="58.06077" lon="38.84549"><ele>112.8</ele><time>2024-04-23T14:23:29Z</time></trkpt><trkpt lat="58.06084" lon="38.84543"><ele>112.1</ele><time>2024-04-23T14:23:32Z</time></trkpt><trkpt lat="58.06092" lon="38.845402"><ele>111.5</ele><time>2024-04-23T14:23:36Z</time></trkpt><trkpt lat="58.061" lon="38.84542"><ele>112.5</ele><time>2024-04-23T14:23:38Z</time></trkpt><trkpt lat="58.06107" lon="38.84546"><ele>112.2</ele><time>2024-04-23T14:23:40Z</time></trkpt><trkpt lat="58.06116" lon="38.845525"><ele>112.1</ele><time>2024-04-23T14:23:43Z</time></trkpt><trkpt lat="58.061242" lon="38.845553"><ele>114.3</ele><time>2024-04-23T14:23:46Z</time></trkpt><trkpt lat="58.061335" lon="38.845605"><ele>114.1</ele><time>2024-04-23T14:23:50Z</time></trkpt><trkpt lat="58.061418" lon="38.84563"><ele>114.5</ele><time>2024-04-23T14:23:53Z</time></trkpt><trkpt lat="58.061497" lon="38.84565"><ele>116.7</ele><time>2024-04-23T14:23:56Z</time></trkpt><trkpt lat="58.061595" lon="38.84568"><ele>117.5</ele><time>2024-04-23T14:23:59Z</time></trkpt><trkpt lat="58.061665" lon="38.84563"><ele>115.0</ele><time>2024-04-23T14:24:02Z</time></trkpt><trkpt lat="58.061755" lon="38.845545"><ele>112.3</ele><time>2024-04-23T14:24:05Z</time></trkpt><trkpt lat="58.061825" lon="38.845477"><ele>112.4</ele><time>2024-04-23T14:24:07Z</time></trkpt><trkpt lat="58.06189" lon="38.84538"><ele>114.1</ele><time>2024-04-23T14:24:10Z</time></trkpt><trkpt lat="58.061945" lon="38.84527"><ele>113.9</ele><time>2024-04-23T14:24:14Z</time></trkpt><trkpt lat="58.062027" lon="38.845292"><ele>111.8</ele><time>2024-04-23T14:24:17Z</time></trkpt><trkpt lat="58.062125" lon="38.84521"><ele>109.3</ele><time>2024-04-23T14:24:20Z</time></trkpt><trkpt lat="58.062205" lon="38.84514"><ele>108.8</ele><time>2024-04-23T14:24:22Z</time></trkpt><trkpt lat="58.06227" lon="38.845052"><ele>107.6</ele><time>2024-04-23T14:24:24Z</time></trkpt><trkpt lat="58.06234" lon="38.84497"><ele>108.3</ele><time>2024-04-23T14:24:26Z</time></trkpt><trkpt lat="58.06241" lon="38.844902"><ele>109.0</ele><time>2024-04-23T14:24:28Z</time></trkpt><trkpt lat="58.062475" lon="38.844807"><ele>110.2</ele><time>2024-04-23T14:24:30Z</time></trkpt><trkpt lat="58.062547" lon="38.844735"><ele>111.7</ele><time>2024-04-23T14:24:32Z</time></trkpt><trkpt lat="58.06262" lon="38.84466"><ele>111.6</ele><time>2024-04-23T14:24:34Z</time></trkpt><trkpt lat="58.06271" lon="38.844555"><ele>110.5</ele><time>2024-04-23T14:24:37Z</time></trkpt><trkpt lat="58.062777" lon="38.84449"><ele>111.4</ele><time>2024-04-23T14:24:39Z</time></trkpt><trkpt lat="58.06285" lon="38.844405"><ele>112.2</ele><time>2024-04-23T14:24:41Z</time></trkpt><trkpt lat="58.06292" lon="38.844325"><ele>112.2</ele><time>2024-04-23T14:24:43Z</time></trkpt><trkpt lat="58.063005" lon="38.844225"><ele>112.4</ele><time>2024-04-23T14:24:46Z</time></trkpt><trkpt lat="58.063087" lon="38.84414"><ele>112.2</ele><time>2024-04-23T14:24:49Z</time></trkpt><trkpt lat="58.063177" lon="38.844047"><ele>111.1</ele><time>2024-04-23T14:24:52Z</time></trkpt><trkpt lat="58.063255" lon="38.84394"><ele>110.9</ele><time>2024-04-23T14:24:55Z</time></trkpt><trkpt lat="58.063315" lon="38.84382"><ele>110.7</ele><time>2024-04-23T14:24:58Z</time></trkpt><trkpt lat="58.063342" lon="38.843695"><ele>111.0</ele><time>2024-04-23T14:25:02Z</time></trkpt><trkpt lat="58.06336" lon="38.843547"><ele>110.4</ele><time>2024-04-23T14:25:06Z</time></trkpt><trkpt lat="58.063345" lon="38.843372"><ele>109.2</ele><time>2024-04-23T14:25:10Z</time></trkpt><trkpt lat="58.06334" lon="38.843217"><ele>109.3</ele><time>2024-04-23T14:25:13Z</time></trkpt><trkpt lat="58.06333" lon="38.843035"><ele>109.6</ele><time>2024-04-23T14:25:17Z</time></trkpt><trkpt lat="58.063375" lon="38.842895"><ele>110.4</ele><time>2024-04-23T14:25:20Z</time></trkpt><trkpt lat="58.063412" lon="38.84275"><ele>110.6</ele><time>2024-04-23T14:25:23Z</time></trkpt><trkpt lat="58.063397" lon="38.842615"><ele>110.1</ele><time>2024-04-23T14:25:26Z</time></trkpt><trkpt lat="58.063385" lon="38.84247"><ele>110.1</ele><time>2024-04-23T14:25:29Z</time></trkpt><trkpt lat="58.063377" lon="38.842332"><ele>109.9</ele><time>2024-04-23T14:25:33Z</time></trkpt><trkpt lat="58.063415" lon="38.842372"><ele>109.5</ele><time>2024-04-23T14:25:40Z</time></trkpt><trkpt lat="58.06342" lon="38.842367"><ele>109.5</ele><time>2024-04-23T14:25:43Z</time></trkpt></trkseg></trk></gpx>