<?xml version="1.0" encoding="UTF-8" standalone="no"?><gpx xmlns="http://www.topografix.com/GPX/1/1" xmlns:gpxtpx="http://www.garmin.com/xmlschemas/TrackPointExtension/v1" xmlns:xsi="http://www.w3.org/2001/XMLSchema-instance" creator="Sports Tracker" version="1.1" xsi:schemaLocation="http://www.topografix.com/GPX/1/1 http://www.topografix.com/GPX/1/1/gpx.xsd http://www.garmin.com/xmlschemas/TrackPointExtension/v1 http://www.garmin.com/xmlschemas/TrackPointExtensionv1.xsd"><metadata><name>24.04.2024 11:15</name><desc/><author><name>Александр</name></author></metadata><trk><name>24.04.2024 11:15</name><trkseg><trkpt lat="58.05883" lon="38.81673"><ele>118.4</ele><time>2024-04-24T08:15:42Z</time></trkpt><trkpt lat="58.05883" lon="38.81673"><ele>118.4</ele><time>2024-04-24T08:15:46Z</time></trkpt><trkpt lat="58.05874" lon="38.816745"><ele>118.9</ele><time>2024-04-24T08:15:47Z</time></trkpt><trkpt lat="58.05881" lon="38.816775"><ele>137.0</ele><time>2024-04-24T08:15:49Z</time></trkpt><trkpt lat="58.058735" lon="38.81676"><ele>116.8</ele><time>2024-04-24T08:15:54Z</time></trkpt><trkpt lat="58.058712" lon="38.816827"><ele>116.9</ele><time>2024-04-24T08:16:01Z</time></trkpt><trkpt lat="58.05874" lon="38.81691"><ele>113.1</ele><time>2024-04-24T08:16:08Z</time></trkpt><trkpt lat="58.05873" lon="38.816965"><ele>109.4</ele><time>2024-04-24T08:16:15Z</time></trkpt><trkpt lat="58.058735" lon="38.817115"><ele>109.3</ele><time>2024-04-24T08:16:17Z</time></trkpt><trkpt lat="58.058765" lon="38.817252"><ele>107.5</ele><time>2024-04-24T08:16:20Z</time></trkpt><trkpt lat="58.05897" lon="38.817415"><ele>107.8</ele><time>2024-04-24T08:16:22Z</time></trkpt><trkpt lat="58.05906" lon="38.817433"><ele>111.8</ele><time>2024-04-24T08:16:24Z</time></trkpt><trkpt lat="58.059717" lon="38.817662"><ele>111.2</ele><time>2024-04-24T08:16:54Z</time></trkpt><trkpt lat="58.059785" lon="38.81772"><ele>111.4</ele><time>2024-04-24T08:16:57Z</time></trkpt><trkpt lat="58.059805" lon="38.817695"><ele>110.2</ele><time>2024-04-24T08:17:04Z</time></trkpt><trkpt lat="58.059805" lon="38.817695"><ele>110.1</ele><time>2024-04-24T08:17:05Z</time></trkpt><trkpt lat="58.059815" lon="38.81769"><ele>113.4</ele><time>2024-04-24T08:17:20Z</time></trkpt><trkpt lat="58.059815" lon="38.817687"><ele>113.4</ele><time>2024-04-24T08:17:21Z</time></trkpt><trkpt lat="58.05989" lon="38.817748"><ele>111.0</ele><time>2024-04-24T08:17:45Z</time></trkpt><trkpt lat="58.05998" lon="38.817815"><ele>111.9</ele><time>2024-04-24T08:17:47Z</time></trkpt><trkpt lat="58.059982" lon="38.817967"><ele>111.7</ele><time>2024-04-24T08:17:49Z</time></trkpt><trkpt lat="58.05997" lon="38.818145"><ele>111.2</ele><time>2024-04-24T08:17:51Z</time></trkpt><trkpt lat="58.05995" lon="38.81834"><ele>112.2</ele><time>2024-04-24T08:17:53Z</time></trkpt><trkpt lat="58.059942" lon="38.81854"><ele>112.1</ele><time>2024-04-24T08:17:55Z</time></trkpt><trkpt lat="58.059925" lon="38.818725"><ele>112.4</ele><time>2024-04-24T08:17:57Z</time></trkpt><trkpt lat="58.059907" lon="38.8189"><ele>112.6</ele><time>2024-04-24T08:17:59Z</time></trkpt><trkpt lat="58.059895" lon="38.81907"><ele>111.4</ele><time>2024-04-24T08:18:01Z</time></trkpt><trkpt lat="58.05989" lon="38.819253"><ele>111.5</ele><time>2024-04-24T08:18:03Z</time></trkpt><trkpt lat="58.05989" lon="38.819455"><ele>111.1</ele><time>2024-04-24T08:18:05Z</time></trkpt><trkpt lat="58.05988" lon="38.819652"><ele>111.1</ele><time>2024-04-24T08:18:07Z</time></trkpt><trkpt lat="58.05987" lon="38.819845"><ele>110.8</ele><time>2024-04-24T08:18:09Z</time></trkpt><trkpt lat="58.059855" lon="38.820027"><ele>110.1</ele><time>2024-04-24T08:18:11Z</time></trkpt><trkpt lat="58.059855" lon="38.82019"><ele>107.5</ele><time>2024-04-24T08:18:13Z</time></trkpt><trkpt lat="58.05985" lon="38.82035"><ele>106.9</ele><time>2024-04-24T08:18:15Z</time></trkpt><trkpt lat="58.05984" lon="38.820505"><ele>107.9</ele><time>2024-04-24T08:18:17Z</time></trkpt><trkpt lat="58.059885" lon="38.82065"><ele>109.1</ele><time>2024-04-24T08:18:19Z</time></trkpt><trkpt lat="58.059945" lon="38.820795"><ele>109.0</ele><time>2024-04-24T08:18:22Z</time></trkpt><trkpt lat="58.05999" lon="38.820927"><ele>110.8</ele><time>2024-04-24T08:18:27Z</time></trkpt><trkpt lat="58.059977" lon="38.82104"><ele>111.1</ele><time>2024-04-24T08:18:34Z</time></trkpt><trkpt lat="58.059975" lon="38.82103"><ele>112.0</ele><time>2024-04-24T08:18:37Z</time></trkpt><trkpt lat="58.06002" lon="38.82076"><ele>112.3</ele><time>2024-04-24T08:18:56Z</time></trkpt><trkpt lat="58.059937" lon="38.821175"><ele>124.7</ele><time>2024-04-24T08:20:38Z</time></trkpt><trkpt lat="58.059925" lon="38.821055"><ele>119.8</ele><time>2024-04-24T08:20:45Z</time></trkpt><trkpt lat="58.05993" lon="38.821082"><ele>119.0</ele><time>2024-04-24T08:20:50Z</time></trkpt><trkpt lat="58.059955" lon="38.82106"><ele>117.7</ele><time>2024-04-24T08:20:57Z</time></trkpt><trkpt lat="58.059955" lon="38.821065"><ele>117.8</ele><time>2024-04-24T08:20:59Z</time></trkpt><trkpt lat="58.059962" lon="38.821102"><ele>113.9</ele><time>2024-04-24T08:21:08Z</time></trkpt><trkpt lat="58.059955" lon="38.821082"><ele>114.2</ele><time>2024-04-24T08:21:15Z</time></trkpt><trkpt lat="58.059927" lon="38.82127"><ele>113.8</ele><time>2024-04-24T08:21:19Z</time></trkpt><trkpt lat="58.059837" lon="38.821372"><ele>118.1</ele><time>2024-04-24T08:21:22Z</time></trkpt><trkpt lat="58.059765" lon="38.821375"><ele>116.4</ele><time>2024-04-24T08:21:24Z</time></trkpt><trkpt lat="58.059742" lon="38.821245"><ele>114.8</ele><time>2024-04-24T08:21:29Z</time></trkpt><trkpt lat="58.059747" lon="38.821235"><ele>113.5</ele><time>2024-04-24T08:21:35Z</time></trkpt><trkpt lat="58.05974" lon="38.821245"><ele>113.5</ele><time>2024-04-24T08:21:53Z</time></trkpt><trkpt lat="58.05974" lon="38.821245"><ele>113.4</ele><time>2024-04-24T08:21:54Z</time></trkpt><trkpt lat="58.059645" lon="38.821245"><ele>112.5</ele><time>2024-04-24T08:22:08Z</time></trkpt><trkpt lat="58.059565" lon="38.82123"><ele>111.7</ele><time>2024-04-24T08:22:10Z</time></trkpt><trkpt lat="58.05949" lon="38.8212"><ele>110.0</ele><time>2024-04-24T08:22:12Z</time></trkpt><trkpt lat="58.059412" lon="38.821145"><ele>107.5</ele><time>2024-04-24T08:22:15Z</time></trkpt><trkpt lat="58.059302" lon="38.821105"><ele>107.3</ele><time>2024-04-24T08:22:17Z</time></trkpt><trkpt lat="58.059202" lon="38.82106"><ele>107.1</ele><time>2024-04-24T08:22:19Z</time></trkpt><trkpt lat="58.059105" lon="38.821045"><ele>106.6</ele><time>2024-04-24T08:22:21Z</time></trkpt><trkpt lat="58.059025" lon="38.821065"><ele>104.9</ele><time>2024-04-24T08:22:23Z</time></trkpt><trkpt lat="58.05894" lon="38.82102"><ele>104.3</ele><time>2024-04-24T08:22:25Z</time></trkpt><trkpt lat="58.05884" lon="38.821035"><ele>105.4</ele><time>2024-04-24T08:22:27Z</time></trkpt><trkpt lat="58.058715" lon="38.821005"><ele>108.0</ele><time>2024-04-24T08:22:29Z</time></trkpt><trkpt lat="58.058645" lon="38.820987"><ele>108.7</ele><time>2024-04-24T08:22:31Z</time></trkpt><trkpt lat="58.058565" lon="38.820998"><ele>108.4</ele><time>2024-04-24T08:22:36Z</time></trkpt><trkpt lat="58.058472" lon="38.82106"><ele>107.8</ele><time>2024-04-24T08:22:42Z</time></trkpt><trkpt lat="58.0584" lon="38.82112"><ele>108.4</ele><time>2024-04-24T08:22:44Z</time></trkpt><trkpt lat="58.058318" lon="38.821135"><ele>109.5</ele><time>2024-04-24T08:22:46Z</time></trkpt><trkpt lat="58.058242" lon="38.821105"><ele>110.3</ele><time>2024-04-24T08:22:48Z</time></trkpt><trkpt lat="58.058145" lon="38.821107"><ele>110.2</ele><time>2024-04-24T08:22:51Z</time></trkpt><trkpt lat="58.058065" lon="38.82112"><ele>111.1</ele><time>2024-04-24T08:22:53Z</time></trkpt><trkpt lat="58.05798" lon="38.8211"><ele>110.4</ele><time>2024-04-24T08:22:55Z</time></trkpt><trkpt lat="58.0579" lon="38.82107"><ele>108.4</ele><time>2024-04-24T08:22:57Z</time></trkpt><trkpt lat="58.0578" lon="38.82103"><ele>108.4</ele><time>2024-04-24T08:23:00Z</time></trkpt><trkpt lat="58.05773" lon="38.82101"><ele>108.3</ele><time>2024-04-24T08:23:03Z</time></trkpt><trkpt lat="58.057655" lon="38.821012"><ele>109.0</ele><time>2024-04-24T08:23:07Z</time></trkpt><trkpt lat="58.057577" lon="38.820985"><ele>108.4</ele><time>2024-04-24T08:23:11Z</time></trkpt><trkpt lat="58.05751" lon="38.820922"><ele>109.1</ele><time>2024-04-24T08:23:13Z</time></trkpt><trkpt lat="58.057425" lon="38.820885"><ele>108.6</ele><time>2024-04-24T08:23:15Z</time></trkpt><trkpt lat="58.05735" lon="38.820895"><ele>107.1</ele><time>2024-04-24T08:23:17Z</time></trkpt><trkpt lat="58.057272" lon="38.820865"><ele>107.5</ele><time>2024-04-24T08:23:19Z</time></trkpt><trkpt lat="58.057182" lon="38.82085"><ele>107.5</ele><time>2024-04-24T08:23:21Z</time></trkpt><trkpt lat="58.05709" lon="38.82085"><ele>107.2</ele><time>2024-04-24T08:23:23Z</time></trkpt><trkpt lat="58.057015" lon="38.82084"><ele>106.1</ele><time>2024-04-24T08:23:25Z</time></trkpt><trkpt lat="58.056925" lon="38.82082"><ele>105.7</ele><time>2024-04-24T08:23:27Z</time></trkpt><trkpt lat="58.05685" lon="38.82085"><ele>105.9</ele><time>2024-04-24T08:23:29Z</time></trkpt><trkpt lat="58.056757" lon="38.820947"><ele>106.3</ele><time>2024-04-24T08:23:32Z</time></trkpt><trkpt lat="58.05667" lon="38.82098"><ele>106.1</ele><time>2024-04-24T08:23:35Z</time></trkpt><trkpt lat="58.056585" lon="38.820965"><ele>106.4</ele><time>2024-04-24T08:23:37Z</time></trkpt><trkpt lat="58.0565" lon="38.820955"><ele>107.1</ele><time>2024-04-24T08:23:39Z</time></trkpt><trkpt lat="58.056405" lon="38.820915"><ele>107.6</ele><time>2024-04-24T08:23:41Z</time></trkpt><trkpt lat="58.056302" lon="38.820887"><ele>107.6</ele><time>2024-04-24T08:23:43Z</time></trkpt><trkpt lat="58.056215" lon="38.82083"><ele>107.5</ele><time>2024-04-24T08:23:45Z</time></trkpt><trkpt lat="58.05614" lon="38.820812"><ele>107.7</ele><time>2024-04-24T08:23:47Z</time></trkpt><trkpt lat="58.056015" lon="38.820785"><ele>107.4</ele><time>2024-04-24T08:23:50Z</time></trkpt><trkpt lat="58.055925" lon="38.8208"><ele>108.0</ele><time>2024-04-24T08:23:52Z</time></trkpt><trkpt lat="58.055825" lon="38.820842"><ele>108.4</ele><time>2024-04-24T08:23:54Z</time></trkpt><trkpt lat="58.05572" lon="38.820795"><ele>108.8</ele><time>2024-04-24T08:23:56Z</time></trkpt><trkpt lat="58.055605" lon="38.82076"><ele>109.2</ele><time>2024-04-24T08:23:58Z</time></trkpt><trkpt lat="58.055482" lon="38.82077"><ele>108.5</ele><time>2024-04-24T08:24:00Z</time></trkpt><trkpt lat="58.05541" lon="38.8208"><ele>108.1</ele><time>2024-04-24T08:24:01Z</time></trkpt><trkpt lat="58.055292" lon="38.820855"><ele>108.8</ele><time>2024-04-24T08:24:03Z</time></trkpt><trkpt lat="58.055185" lon="38.820995"><ele>110.6</ele><time>2024-04-24T08:24:05Z</time></trkpt><trkpt lat="58.055212" lon="38.821205"><ele>108.8</ele><time>2024-04-24T08:24:08Z</time></trkpt><trkpt lat="58.05518" lon="38.821402"><ele>107.5</ele><time>2024-04-24T08:24:10Z</time></trkpt><trkpt lat="58.055135" lon="38.82155"><ele>106.2</ele><time>2024-04-24T08:24:12Z</time></trkpt><trkpt lat="58.05511" lon="38.82171"><ele>107.1</ele><time>2024-04-24T08:24:14Z</time></trkpt><trkpt lat="58.05507" lon="38.82185"><ele>107.5</ele><time>2024-04-24T08:24:16Z</time></trkpt><trkpt lat="58.055" lon="38.821925"><ele>108.8</ele><time>2024-04-24T08:24:18Z</time></trkpt><trkpt lat="58.054902" lon="38.821925"><ele>110.1</ele><time>2024-04-24T08:24:21Z</time></trkpt><trkpt lat="58.054827" lon="38.821932"><ele>110.4</ele><time>2024-04-24T08:24:24Z</time></trkpt><trkpt lat="58.054747" lon="38.821922"><ele>111.3</ele><time>2024-04-24T08:24:31Z</time></trkpt><trkpt lat="58.054665" lon="38.8219"><ele>112.0</ele><time>2024-04-24T08:24:35Z</time></trkpt><trkpt lat="58.054595" lon="38.821828"><ele>111.1</ele><time>2024-04-24T08:24:39Z</time></trkpt><trkpt lat="58.054603" lon="38.821727"><ele>111.2</ele><time>2024-04-24T08:24:46Z</time></trkpt><trkpt lat="58.054622" lon="38.82173"><ele>111.9</ele><time>2024-04-24T08:24:50Z</time></trkpt><trkpt lat="58.054622" lon="38.82174"><ele>111.7</ele><time>2024-04-24T08:24:59Z</time></trkpt><trkpt lat="58.054622" lon="38.821737"><ele>111.7</ele><time>2024-04-24T08:25:00Z</time></trkpt><trkpt lat="58.054615" lon="38.82173"><ele>109.5</ele><time>2024-04-24T08:25:20Z</time></trkpt><trkpt lat="58.054615" lon="38.82173"><ele>109.5</ele><time>2024-04-24T08:25:21Z</time></trkpt><trkpt lat="58.05465" lon="38.8216"><ele>109.4</ele><time>2024-04-24T08:25:35Z</time></trkpt><trkpt lat="58.05466" lon="38.821445"><ele>109.2</ele><time>2024-04-24T08:25:39Z</time></trkpt><trkpt lat="58.054665" lon="38.82128"><ele>109.5</ele><time>2024-04-24T08:25:42Z</time></trkpt><trkpt lat="58.05467" lon="38.821115"><ele>109.9</ele><time>2024-04-24T08:25:46Z</time></trkpt><trkpt lat="58.054678" lon="38.820935"><ele>109.5</ele><time>2024-04-24T08:25:50Z</time></trkpt><trkpt lat="58.054692" lon="38.820787"><ele>110.0</ele><time>2024-04-24T08:25:53Z</time></trkpt><trkpt lat="58.054705" lon="38.82065"><ele>113.0</ele><time>2024-04-24T08:25:56Z</time></trkpt><trkpt lat="58.05473" lon="38.820515"><ele>114.3</ele><time>2024-04-24T08:25:59Z</time></trkpt><trkpt lat="58.054747" lon="38.820382"><ele>114.0</ele><time>2024-04-24T08:26:01Z</time></trkpt><trkpt lat="58.054752" lon="38.820237"><ele>112.0</ele><time>2024-04-24T08:26:03Z</time></trkpt><trkpt lat="58.054757" lon="38.820095"><ele>112.4</ele><time>2024-04-24T08:26:05Z</time></trkpt><trkpt lat="58.054765" lon="38.81992"><ele>112.6</ele><time>2024-04-24T08:26:08Z</time></trkpt><trkpt lat="58.054775" lon="38.81976"><ele>110.5</ele><time>2024-04-24T08:26:11Z</time></trkpt><trkpt lat="58.054797" lon="38.81959"><ele>111.4</ele><time>2024-04-24T08:26:14Z</time></trkpt><trkpt lat="58.0548" lon="38.819445"><ele>113.2</ele><time>2024-04-24T08:26:18Z</time></trkpt><trkpt lat="58.054795" lon="38.819275"><ele>114.6</ele><time>2024-04-24T08:26:22Z</time></trkpt><trkpt lat="58.054805" lon="38.819105"><ele>113.9</ele><time>2024-04-24T08:26:26Z</time></trkpt><trkpt lat="58.054795" lon="38.81893"><ele>114.9</ele><time>2024-04-24T08:26:29Z</time></trkpt><trkpt lat="58.054765" lon="38.81878"><ele>113.1</ele><time>2024-04-24T08:26:32Z</time></trkpt><trkpt lat="58.054745" lon="38.818675"><ele>111.2</ele><time>2024-04-24T08:26:39Z</time></trkpt><trkpt lat="58.054747" lon="38.818675"><ele>111.1</ele><time>2024-04-24T08:26:42Z</time></trkpt><trkpt lat="58.054735" lon="38.81871"><ele>110.8</ele><time>2024-04-24T08:27:16Z</time></trkpt><trkpt lat="58.054735" lon="38.818715"><ele>110.5</ele><time>2024-04-24T08:27:17Z</time></trkpt><trkpt lat="58.054745" lon="38.81872"><ele>112.5</ele><time>2024-04-24T08:27:28Z</time></trkpt><trkpt lat="58.054745" lon="38.81872"><ele>112.5</ele><time>2024-04-24T08:27:29Z</time></trkpt><trkpt lat="58.054755" lon="38.81873"><ele>114.1</ele><time>2024-04-24T08:30:41Z</time></trkpt><trkpt lat="58.054755" lon="38.81873"><ele>114.1</ele><time>2024-04-24T08:30:42Z</time></trkpt><trkpt lat="58.054742" lon="38.81875"><ele>118.0</ele><time>2024-04-24T08:35:01Z</time></trkpt><trkpt lat="58.054742" lon="38.81875"><ele>117.9</ele><time>2024-04-24T08:35:02Z</time></trkpt><trkpt lat="58.054747" lon="38.818715"><ele>113.5</ele><time>2024-04-24T08:37:06Z</time></trkpt><trkpt lat="58.054745" lon="38.818715"><ele>113.4</ele><time>2024-04-24T08:37:07Z</time></trkpt><trkpt lat="58.054762" lon="38.818722"><ele>114.1</ele><time>2024-04-24T08:37:16Z</time></trkpt><trkpt lat="58.054762" lon="38.818725"><ele>114.0</ele><time>2024-04-24T08:37:17Z</time></trkpt><trkpt lat="58.054792" lon="38.81867"><ele>111.8</ele><time>2024-04-24T08:37:39Z</time></trkpt><trkpt lat="58.054847" lon="38.81877"><ele>112.1</ele><time>2024-04-24T08:37:42Z</time></trkpt><trkpt lat="58.054828" lon="38.818905"><ele>112.3</ele><time>2024-04-24T08:37:44Z</time></trkpt><trkpt lat="58.054805" lon="38.819085"><ele>111.7</ele><time>2024-04-24T08:37:47Z</time></trkpt><trkpt lat="58.054802" lon="38.81924"><ele>111.1</ele><time>2024-04-24T08:37:49Z</time></trkpt><trkpt lat="58.05479" lon="38.819395"><ele>112.2</ele><time>2024-04-24T08:37:51Z</time></trkpt><trkpt lat="58.054777" lon="38.81955"><ele>111.1</ele><time>2024-04-24T08:37:53Z</time></trkpt><trkpt lat="58.05477" lon="38.819717"><ele>111.2</ele><time>2024-04-24T08:37:55Z</time></trkpt><trkpt lat="58.054762" lon="38.819897"><ele>110.6</ele><time>2024-04-24T08:37:57Z</time></trkpt><trkpt lat="58.054755" lon="38.820092"><ele>110.1</ele><time>2024-04-24T08:37:59Z</time></trkpt><trkpt lat="58.05476" lon="38.820265"><ele>109.9</ele><time>2024-04-24T08:38:01Z</time></trkpt><trkpt lat="58.054748" lon="38.820408"><ele>109.4</ele><time>2024-04-24T08:38:03Z</time></trkpt><trkpt lat="58.054755" lon="38.820595"><ele>108.9</ele><time>2024-04-24T08:38:05Z</time></trkpt><trkpt lat="58.05473" lon="38.82079"><ele>108.5</ele><time>2024-04-24T08:38:07Z</time></trkpt><trkpt lat="58.05471" lon="38.82104"><ele>108.1</ele><time>2024-04-24T08:38:09Z</time></trkpt><trkpt lat="58.054695" lon="38.821172"><ele>108.5</ele><time>2024-04-24T08:38:10Z</time></trkpt><trkpt lat="58.05469" lon="38.821308"><ele>108.6</ele><time>2024-04-24T08:38:11Z</time></trkpt><trkpt lat="58.054673" lon="38.82145"><ele>108.6</ele><time>2024-04-24T08:38:12Z</time></trkpt><trkpt lat="58.054657" lon="38.821585"><ele>108.1</ele><time>2024-04-24T08:38:13Z</time></trkpt><trkpt lat="58.054637" lon="38.82173"><ele>108.3</ele><time>2024-04-24T08:38:14Z</time></trkpt><trkpt lat="58.05462" lon="38.821865"><ele>109.0</ele><time>2024-04-24T08:38:15Z</time></trkpt><trkpt lat="58.05458" lon="38.822105"><ele>110.0</ele><time>2024-04-24T08:38:17Z</time></trkpt><trkpt lat="58.054545" lon="38.822325"><ele>110.3</ele><time>2024-04-24T08:38:19Z</time></trkpt><trkpt lat="58.0545" lon="38.822505"><ele>110.2</ele><time>2024-04-24T08:38:21Z</time></trkpt><trkpt lat="58.054453" lon="38.82266"><ele>110.6</ele><time>2024-04-24T08:38:23Z</time></trkpt><trkpt lat="58.054435" lon="38.82286"><ele>111.5</ele><time>2024-04-24T08:38:25Z</time></trkpt><trkpt lat="58.054407" lon="38.823052"><ele>110.7</ele><time>2024-04-24T08:38:27Z</time></trkpt><trkpt lat="58.05438" lon="38.82325"><ele>111.6</ele><time>2024-04-24T08:38:29Z</time></trkpt><trkpt lat="58.054342" lon="38.82344"><ele>112.8</ele><time>2024-04-24T08:38:31Z</time></trkpt><trkpt lat="58.054275" lon="38.823565"><ele>111.6</ele><time>2024-04-24T08:38:33Z</time></trkpt><trkpt lat="58.054215" lon="38.823682"><ele>113.4</ele><time>2024-04-24T08:38:35Z</time></trkpt><trkpt lat="58.054175" lon="38.8238"><ele>113.1</ele><time>2024-04-24T08:38:37Z</time></trkpt><trkpt lat="58.054125" lon="38.823945"><ele>113.5</ele><time>2024-04-24T08:38:39Z</time></trkpt><trkpt lat="58.054112" lon="38.82409"><ele>112.6</ele><time>2024-04-24T08:38:41Z</time></trkpt><trkpt lat="58.054137" lon="38.824285"><ele>112.6</ele><time>2024-04-24T08:38:43Z</time></trkpt><trkpt lat="58.054125" lon="38.824515"><ele>112.1</ele><time>2024-04-24T08:38:45Z</time></trkpt><trkpt lat="58.054105" lon="38.824735"><ele>109.5</ele><time>2024-04-24T08:38:47Z</time></trkpt><trkpt lat="58.05406" lon="38.824962"><ele>109.0</ele><time>2024-04-24T08:38:49Z</time></trkpt><trkpt lat="58.054025" lon="38.82517"><ele>108.9</ele><time>2024-04-24T08:38:51Z</time></trkpt><trkpt lat="58.05398" lon="38.82538"><ele>109.8</ele><time>2024-04-24T08:38:53Z</time></trkpt><trkpt lat="58.05394" lon="38.825585"><ele>109.1</ele><time>2024-04-24T08:38:55Z</time></trkpt><trkpt lat="58.053905" lon="38.825775"><ele>109.6</ele><time>2024-04-24T08:38:57Z</time></trkpt><trkpt lat="58.053867" lon="38.825962"><ele>108.2</ele><time>2024-04-24T08:38:59Z</time></trkpt><trkpt lat="58.053845" lon="38.826093"><ele>109.0</ele><time>2024-04-24T08:39:01Z</time></trkpt><trkpt lat="58.053802" lon="38.82622"><ele>107.5</ele><time>2024-04-24T08:39:03Z</time></trkpt><trkpt lat="58.053755" lon="38.826247"><ele>106.9</ele><time>2024-04-24T08:39:10Z</time></trkpt><trkpt lat="58.053747" lon="38.826265"><ele>106.4</ele><time>2024-04-24T08:39:12Z</time></trkpt><trkpt lat="58.05372" lon="38.826425"><ele>105.4</ele><time>2024-04-24T08:39:19Z</time></trkpt><trkpt lat="58.053685" lon="38.826585"><ele>107.1</ele><time>2024-04-24T08:39:21Z</time></trkpt><trkpt lat="58.05366" lon="38.82674"><ele>106.8</ele><time>2024-04-24T08:39:23Z</time></trkpt><trkpt lat="58.053622" lon="38.826922"><ele>106.6</ele><time>2024-04-24T08:39:25Z</time></trkpt><trkpt lat="58.053585" lon="38.82709"><ele>106.2</ele><time>2024-04-24T08:39:27Z</time></trkpt><trkpt lat="58.053517" lon="38.827305"><ele>108.0</ele><time>2024-04-24T08:39:29Z</time></trkpt><trkpt lat="58.053467" lon="38.827513"><ele>109.9</ele><time>2024-04-24T08:39:31Z</time></trkpt><trkpt lat="58.05345" lon="38.827715"><ele>108.9</ele><time>2024-04-24T08:39:33Z</time></trkpt><trkpt lat="58.053435" lon="38.827877"><ele>109.4</ele><time>2024-04-24T08:39:35Z</time></trkpt><trkpt lat="58.053405" lon="38.82802"><ele>107.9</ele><time>2024-04-24T08:39:37Z</time></trkpt><trkpt lat="58.053385" lon="38.82817"><ele>106.6</ele><time>2024-04-24T08:39:39Z</time></trkpt><trkpt lat="58.05335" lon="38.828375"><ele>106.0</ele><time>2024-04-24T08:39:41Z</time></trkpt><trkpt lat="58.053317" lon="38.828525"><ele>105.4</ele><time>2024-04-24T08:39:43Z</time></trkpt><trkpt lat="58.053297" lon="38.828675"><ele>106.5</ele><time>2024-04-24T08:39:45Z</time></trkpt><trkpt lat="58.05329" lon="38.82884"><ele>106.4</ele><time>2024-04-24T08:39:47Z</time></trkpt><trkpt lat="58.05327" lon="38.829015"><ele>107.3</ele><time>2024-04-24T08:39:49Z</time></trkpt><trkpt lat="58.053237" lon="38.82918"><ele>106.6</ele><time>2024-04-24T08:39:51Z</time></trkpt><trkpt lat="58.053215" lon="38.829385"><ele>108.0</ele><time>2024-04-24T08:39:53Z</time></trkpt><trkpt lat="58.053175" lon="38.829565"><ele>107.8</ele><time>2024-04-24T08:39:55Z</time></trkpt><trkpt lat="58.053125" lon="38.82973"><ele>107.6</ele><time>2024-04-24T08:39:57Z</time></trkpt><trkpt lat="58.053082" lon="38.829932"><ele>107.7</ele><time>2024-04-24T08:39:59Z</time></trkpt><trkpt lat="58.053055" lon="38.830115"><ele>106.9</ele><time>2024-04-24T08:40:01Z</time></trkpt><trkpt lat="58.05304" lon="38.83026"><ele>106.2</ele><time>2024-04-24T08:40:03Z</time></trkpt><trkpt lat="58.053015" lon="38.830412"><ele>106.6</ele><time>2024-04-24T08:40:05Z</time></trkpt><trkpt lat="58.05298" lon="38.830567"><ele>106.0</ele><time>2024-04-24T08:40:07Z</time></trkpt><trkpt lat="58.05296" lon="38.830708"><ele>106.8</ele><time>2024-04-24T08:40:09Z</time></trkpt><trkpt lat="58.052942" lon="38.830845"><ele>106.3</ele><time>2024-04-24T08:40:11Z</time></trkpt><trkpt lat="58.0529" lon="38.830998"><ele>105.6</ele><time>2024-04-24T08:40:13Z</time></trkpt><trkpt lat="58.052875" lon="38.83114"><ele>105.6</ele><time>2024-04-24T08:40:15Z</time></trkpt><trkpt lat="58.052835" lon="38.831317"><ele>104.2</ele><time>2024-04-24T08:40:17Z</time></trkpt><trkpt lat="58.052805" lon="38.831502"><ele>105.5</ele><time>2024-04-24T08:40:19Z</time></trkpt><trkpt lat="58.05277" lon="38.8317"><ele>107.1</ele><time>2024-04-24T08:40:21Z</time></trkpt><trkpt lat="58.05273" lon="38.83184"><ele>106.5</ele><time>2024-04-24T08:40:23Z</time></trkpt><trkpt lat="58.052703" lon="38.831975"><ele>106.6</ele><time>2024-04-24T08:40:25Z</time></trkpt><trkpt lat="58.052702" lon="38.832135"><ele>106.5</ele><time>2024-04-24T08:40:27Z</time></trkpt><trkpt lat="58.05263" lon="38.83232"><ele>105.0</ele><time>2024-04-24T08:40:30Z</time></trkpt><trkpt lat="58.052597" lon="38.832515"><ele>104.5</ele><time>2024-04-24T08:40:32Z</time></trkpt><trkpt lat="58.052553" lon="38.83271"><ele>106.2</ele><time>2024-04-24T08:40:34Z</time></trkpt><trkpt lat="58.052535" lon="38.832885"><ele>106.0</ele><time>2024-04-24T08:40:36Z</time></trkpt><trkpt lat="58.05251" lon="38.833035"><ele>106.7</ele><time>2024-04-24T08:40:38Z</time></trkpt><trkpt lat="58.052497" lon="38.833235"><ele>109.4</ele><time>2024-04-24T08:40:40Z</time></trkpt><trkpt lat="58.052465" lon="38.833395"><ele>108.1</ele><time>2024-04-24T08:40:42Z</time></trkpt><trkpt lat="58.05243" lon="38.833555"><ele>108.6</ele><time>2024-04-24T08:40:44Z</time></trkpt><trkpt lat="58.052413" lon="38.8337"><ele>109.3</ele><time>2024-04-24T08:40:46Z</time></trkpt><trkpt lat="58.05236" lon="38.8338"><ele>110.0</ele><time>2024-04-24T08:40:49Z</time></trkpt><trkpt lat="58.05232" lon="38.83393"><ele>110.3</ele><time>2024-04-24T08:40:54Z</time></trkpt><trkpt lat="58.05236" lon="38.834112"><ele>110.3</ele><time>2024-04-24T08:40:57Z</time></trkpt><trkpt lat="58.052415" lon="38.834217"><ele>110.4</ele><time>2024-04-24T08:40:59Z</time></trkpt><trkpt lat="58.05249" lon="38.834292"><ele>110.7</ele><time>2024-04-24T08:41:01Z</time></trkpt><trkpt lat="58.05258" lon="38.83435"><ele>111.0</ele><time>2024-04-24T08:41:03Z</time></trkpt><trkpt lat="58.052667" lon="38.83439"><ele>112.9</ele><time>2024-04-24T08:41:05Z</time></trkpt><trkpt lat="58.052745" lon="38.834445"><ele>113.3</ele><time>2024-04-24T08:41:07Z</time></trkpt><trkpt lat="58.052822" lon="38.834502"><ele>114.8</ele><time>2024-04-24T08:41:09Z</time></trkpt><trkpt lat="58.0529" lon="38.834527"><ele>114.8</ele><time>2024-04-24T08:41:12Z</time></trkpt><trkpt lat="58.05297" lon="38.834585"><ele>113.4</ele><time>2024-04-24T08:41:15Z</time></trkpt><trkpt lat="58.053055" lon="38.83465"><ele>113.7</ele><time>2024-04-24T08:41:18Z</time></trkpt><trkpt lat="58.053125" lon="38.834712"><ele>113.5</ele><time>2024-04-24T08:41:21Z</time></trkpt><trkpt lat="58.053215" lon="38.834767"><ele>114.6</ele><time>2024-04-24T08:41:24Z</time></trkpt><trkpt lat="58.053312" lon="38.834835"><ele>113.6</ele><time>2024-04-24T08:41:27Z</time></trkpt><trkpt lat="58.053385" lon="38.834872"><ele>111.1</ele><time>2024-04-24T08:41:29Z</time></trkpt><trkpt lat="58.053485" lon="38.83491"><ele>110.1</ele><time>2024-04-24T08:41:32Z</time></trkpt><trkpt lat="58.05358" lon="38.83498"><ele>109.0</ele><time>2024-04-24T08:41:35Z</time></trkpt><trkpt lat="58.053675" lon="38.83503"><ele>109.6</ele><time>2024-04-24T08:41:37Z</time></trkpt><trkpt lat="58.05375" lon="38.83508"><ele>110.5</ele><time>2024-04-24T08:41:39Z</time></trkpt><trkpt lat="58.053847" lon="38.83512"><ele>112.6</ele><time>2024-04-24T08:41:41Z</time></trkpt><trkpt lat="58.053945" lon="38.835187"><ele>115.8</ele><time>2024-04-24T08:41:43Z</time></trkpt><trkpt lat="58.054025" lon="38.835232"><ele>116.3</ele><time>2024-04-24T08:41:45Z</time></trkpt><trkpt lat="58.054115" lon="38.83531"><ele>115.3</ele><time>2024-04-24T08:41:47Z</time></trkpt><trkpt lat="58.054195" lon="38.835415"><ele>115.0</ele><time>2024-04-24T08:41:49Z</time></trkpt><trkpt lat="58.05426" lon="38.835505"><ele>113.0</ele><time>2024-04-24T08:41:51Z</time></trkpt><trkpt lat="58.05434" lon="38.835582"><ele>111.4</ele><time>2024-04-24T08:41:53Z</time></trkpt><trkpt lat="58.054415" lon="38.83567"><ele>109.5</ele><time>2024-04-24T08:41:55Z</time></trkpt><trkpt lat="58.054487" lon="38.83567"><ele>112.1</ele><time>2024-04-24T08:42:01Z</time></trkpt><trkpt lat="58.054565" lon="38.835718"><ele>109.4</ele><time>2024-04-24T08:42:06Z</time></trkpt><trkpt lat="58.05465" lon="38.83581"><ele>107.6</ele><time>2024-04-24T08:42:11Z</time></trkpt><trkpt lat="58.054735" lon="38.83588"><ele>108.9</ele><time>2024-04-24T08:42:13Z</time></trkpt><trkpt lat="58.05482" lon="38.835967"><ele>107.9</ele><time>2024-04-24T08:42:15Z</time></trkpt><trkpt lat="58.054895" lon="38.83606"><ele>106.8</ele><time>2024-04-24T08:42:17Z</time></trkpt><trkpt lat="58.054987" lon="38.836152"><ele>106.7</ele><time>2024-04-24T08:42:19Z</time></trkpt><trkpt lat="58.055095" lon="38.836225"><ele>104.4</ele><time>2024-04-24T08:42:21Z</time></trkpt><trkpt lat="58.05519" lon="38.83633"><ele>102.1</ele><time>2024-04-24T08:42:23Z</time></trkpt><trkpt lat="58.05528" lon="38.836432"><ele>100.4</ele><time>2024-04-24T08:42:25Z</time></trkpt><trkpt lat="58.05536" lon="38.83651"><ele>101.0</ele><time>2024-04-24T08:42:27Z</time></trkpt><trkpt lat="58.05538" lon="38.83666"><ele>101.8</ele><time>2024-04-24T08:42:29Z</time></trkpt><trkpt lat="58.05532" lon="38.83679"><ele>101.6</ele><time>2024-04-24T08:42:31Z</time></trkpt><trkpt lat="58.055282" lon="38.836947"><ele>102.6</ele><time>2024-04-24T08:42:33Z</time></trkpt><trkpt lat="58.055245" lon="38.83716"><ele>102.7</ele><time>2024-04-24T08:42:35Z</time></trkpt><trkpt lat="58.05519" lon="38.837307"><ele>102.0</ele><time>2024-04-24T08:42:37Z</time></trkpt><trkpt lat="58.055135" lon="38.837437"><ele>102.5</ele><time>2024-04-24T08:42:39Z</time></trkpt><trkpt lat="58.055085" lon="38.837615"><ele>102.2</ele><time>2024-04-24T08:42:41Z</time></trkpt><trkpt lat="58.055025" lon="38.837805"><ele>102.0</ele><time>2024-04-24T08:42:43Z</time></trkpt><trkpt lat="58.054955" lon="38.837995"><ele>100.6</ele><time>2024-04-24T08:42:45Z</time></trkpt><trkpt lat="58.05488" lon="38.838215"><ele>100.7</ele><time>2024-04-24T08:42:47Z</time></trkpt><trkpt lat="58.05481" lon="38.83842"><ele>101.9</ele><time>2024-04-24T08:42:49Z</time></trkpt><trkpt lat="58.05473" lon="38.83863"><ele>101.0</ele><time>2024-04-24T08:42:51Z</time></trkpt><trkpt lat="58.054655" lon="38.838845"><ele>101.8</ele><time>2024-04-24T08:42:53Z</time></trkpt><trkpt lat="58.05458" lon="38.839053"><ele>101.8</ele><time>2024-04-24T08:42:55Z</time></trkpt><trkpt lat="58.054505" lon="38.83926"><ele>101.7</ele><time>2024-04-24T08:42:57Z</time></trkpt><trkpt lat="58.05444" lon="38.839455"><ele>100.9</ele><time>2024-04-24T08:42:59Z</time></trkpt><trkpt lat="58.054372" lon="38.839665"><ele>100.7</ele><time>2024-04-24T08:43:01Z</time></trkpt><trkpt lat="58.054332" lon="38.83978"><ele>101.4</ele><time>2024-04-24T08:43:02Z</time></trkpt><trkpt lat="58.054255" lon="38.839985"><ele>101.3</ele><time>2024-04-24T08:43:04Z</time></trkpt><trkpt lat="58.054195" lon="38.840195"><ele>100.6</ele><time>2024-04-24T08:43:06Z</time></trkpt><trkpt lat="58.054125" lon="38.840395"><ele>101.5</ele><time>2024-04-24T08:43:08Z</time></trkpt><trkpt lat="58.054045" lon="38.840605"><ele>102.5</ele><time>2024-04-24T08:43:10Z</time></trkpt><trkpt lat="58.053975" lon="38.8408"><ele>102.4</ele><time>2024-04-24T08:43:12Z</time></trkpt><trkpt lat="58.05391" lon="38.841"><ele>103.0</ele><time>2024-04-24T08:43:14Z</time></trkpt><trkpt lat="58.05384" lon="38.84119"><ele>102.8</ele><time>2024-04-24T08:43:16Z</time></trkpt><trkpt lat="58.05378" lon="38.84148"><ele>105.6</ele><time>2024-04-24T08:43:18Z</time></trkpt><trkpt lat="58.05372" lon="38.841625"><ele>106.0</ele><time>2024-04-24T08:43:20Z</time></trkpt><trkpt lat="58.053652" lon="38.841815"><ele>103.7</ele><time>2024-04-24T08:43:22Z</time></trkpt><trkpt lat="58.053575" lon="38.842005"><ele>102.6</ele><time>2024-04-24T08:43:24Z</time></trkpt><trkpt lat="58.053495" lon="38.8422"><ele>102.5</ele><time>2024-04-24T08:43:26Z</time></trkpt><trkpt lat="58.053455" lon="38.842312"><ele>102.9</ele><time>2024-04-24T08:43:27Z</time></trkpt><trkpt lat="58.053415" lon="38.84243"><ele>103.1</ele><time>2024-04-24T08:43:28Z</time></trkpt><trkpt lat="58.053335" lon="38.84264"><ele>103.2</ele><time>2024-04-24T08:43:30Z</time></trkpt><trkpt lat="58.053267" lon="38.842865"><ele>103.9</ele><time>2024-04-24T08:43:32Z</time></trkpt><trkpt lat="58.05318" lon="38.84307"><ele>104.0</ele><time>2024-04-24T08:43:34Z</time></trkpt><trkpt lat="58.053095" lon="38.843273"><ele>105.1</ele><time>2024-04-24T08:43:36Z</time></trkpt><trkpt lat="58.053085" lon="38.84346"><ele>104.0</ele><time>2024-04-24T08:43:37Z</time></trkpt><trkpt lat="58.05305" lon="38.84358"><ele>104.3</ele><time>2024-04-24T08:43:38Z</time></trkpt><trkpt lat="58.05299" lon="38.84371"><ele>101.3</ele><time>2024-04-24T08:43:40Z</time></trkpt><trkpt lat="58.052905" lon="38.84392"><ele>101.2</ele><time>2024-04-24T08:43:42Z</time></trkpt><trkpt lat="58.05284" lon="38.8441"><ele>99.3</ele><time>2024-04-24T08:43:44Z</time></trkpt><trkpt lat="58.052775" lon="38.844273"><ele>99.3</ele><time>2024-04-24T08:43:46Z</time></trkpt><trkpt lat="58.052715" lon="38.844465"><ele>98.3</ele><time>2024-04-24T08:43:48Z</time></trkpt><trkpt lat="58.052645" lon="38.844645"><ele>97.5</ele><time>2024-04-24T08:43:50Z</time></trkpt><trkpt lat="58.05259" lon="38.844835"><ele>97.1</ele><time>2024-04-24T08:43:52Z</time></trkpt><trkpt lat="58.05253" lon="38.845042"><ele>97.9</ele><time>2024-04-24T08:43:54Z</time></trkpt><trkpt lat="58.05249" lon="38.84528"><ele>96.9</ele><time>2024-04-24T08:43:56Z</time></trkpt><trkpt lat="58.052445" lon="38.845552"><ele>95.7</ele><time>2024-04-24T08:43:58Z</time></trkpt><trkpt lat="58.052435" lon="38.845703"><ele>95.3</ele><time>2024-04-24T08:43:59Z</time></trkpt><trkpt lat="58.052412" lon="38.84587"><ele>96.7</ele><time>2024-04-24T08:44:00Z</time></trkpt><trkpt lat="58.05238" lon="38.846018"><ele>96.2</ele><time>2024-04-24T08:44:01Z</time></trkpt><trkpt lat="58.052342" lon="38.846173"><ele>96.4</ele><time>2024-04-24T08:44:02Z</time></trkpt><trkpt lat="58.052295" lon="38.84633"><ele>97.0</ele><time>2024-04-24T08:44:03Z</time></trkpt><trkpt lat="58.05224" lon="38.84648"><ele>98.3</ele><time>2024-04-24T08:44:04Z</time></trkpt><trkpt lat="58.052182" lon="38.84663"><ele>98.5</ele><time>2024-04-24T08:44:05Z</time></trkpt><trkpt lat="58.052135" lon="38.846778"><ele>98.5</ele><time>2024-04-24T08:44:06Z</time></trkpt><trkpt lat="58.052085" lon="38.846912"><ele>98.9</ele><time>2024-04-24T08:44:07Z</time></trkpt><trkpt lat="58.052045" lon="38.84705"><ele>98.2</ele><time>2024-04-24T08:44:08Z</time></trkpt><trkpt lat="58.05202" lon="38.8472"><ele>97.6</ele><time>2024-04-24T08:44:09Z</time></trkpt><trkpt lat="58.05199" lon="38.84734"><ele>97.3</ele><time>2024-04-24T08:44:10Z</time></trkpt><trkpt lat="58.051958" lon="38.8475"><ele>97.0</ele><time>2024-04-24T08:44:11Z</time></trkpt><trkpt lat="58.051965" lon="38.847645"><ele>97.3</ele><time>2024-04-24T08:44:12Z</time></trkpt><trkpt lat="58.051945" lon="38.84778"><ele>97.3</ele><time>2024-04-24T08:44:13Z</time></trkpt><trkpt lat="58.05189" lon="38.84802"><ele>98.5</ele><time>2024-04-24T08:44:15Z</time></trkpt><trkpt lat="58.05185" lon="38.848265"><ele>100.7</ele><time>2024-04-24T08:44:17Z</time></trkpt><trkpt lat="58.05182" lon="38.848392"><ele>101.3</ele><time>2024-04-24T08:44:18Z</time></trkpt><trkpt lat="58.0518" lon="38.848545"><ele>100.4</ele><time>2024-04-24T08:44:19Z</time></trkpt><trkpt lat="58.05178" lon="38.84879"><ele>100.6</ele><time>2024-04-24T08:44:21Z</time></trkpt><trkpt lat="58.051755" lon="38.84892"><ele>100.3</ele><time>2024-04-24T08:44:22Z</time></trkpt><trkpt lat="58.05172" lon="38.849037"><ele>99.9</ele><time>2024-04-24T08:44:23Z</time></trkpt><trkpt lat="58.05164" lon="38.849252"><ele>100.3</ele><time>2024-04-24T08:44:25Z</time></trkpt><trkpt lat="58.051595" lon="38.849362"><ele>100.7</ele><time>2024-04-24T08:44:26Z</time></trkpt><trkpt lat="58.051525" lon="38.849567"><ele>100.8</ele><time>2024-04-24T08:44:28Z</time></trkpt><trkpt lat="58.05146" lon="38.84977"><ele>101.6</ele><time>2024-04-24T08:44:30Z</time></trkpt><trkpt lat="58.0514" lon="38.849975"><ele>100.5</ele><time>2024-04-24T08:44:32Z</time></trkpt><trkpt lat="58.051337" lon="38.850135"><ele>99.1</ele><time>2024-04-24T08:44:34Z</time></trkpt><trkpt lat="58.05128" lon="38.850345"><ele>99.2</ele><time>2024-04-24T08:44:36Z</time></trkpt><trkpt lat="58.0512" lon="38.850525"><ele>98.3</ele><time>2024-04-24T08:44:38Z</time></trkpt><trkpt lat="58.051125" lon="38.850725"><ele>98.9</ele><time>2024-04-24T08:44:40Z</time></trkpt><trkpt lat="58.05107" lon="38.850932"><ele>99.6</ele><time>2024-04-24T08:44:42Z</time></trkpt><trkpt lat="58.05099" lon="38.85113"><ele>98.7</ele><time>2024-04-24T08:44:44Z</time></trkpt><trkpt lat="58.050945" lon="38.85125"><ele>99.2</ele><time>2024-04-24T08:44:45Z</time></trkpt><trkpt lat="58.05087" lon="38.85147"><ele>100.3</ele><time>2024-04-24T08:44:47Z</time></trkpt><trkpt lat="58.050805" lon="38.851645"><ele>99.8</ele><time>2024-04-24T08:44:49Z</time></trkpt><trkpt lat="58.05076" lon="38.851843"><ele>98.8</ele><time>2024-04-24T08:44:51Z</time></trkpt><trkpt lat="58.05071" lon="38.85203"><ele>98.1</ele><time>2024-04-24T08:44:53Z</time></trkpt><trkpt lat="58.05064" lon="38.85218"><ele>99.0</ele><time>2024-04-24T08:44:55Z</time></trkpt><trkpt lat="58.050575" lon="38.85236"><ele>99.9</ele><time>2024-04-24T08:44:57Z</time></trkpt><trkpt lat="58.05053" lon="38.85249"><ele>99.0</ele><time>2024-04-24T08:44:59Z</time></trkpt><trkpt lat="58.05046" lon="38.852665"><ele>100.1</ele><time>2024-04-24T08:45:01Z</time></trkpt><trkpt lat="58.0504" lon="38.85285"><ele>100.9</ele><time>2024-04-24T08:45:03Z</time></trkpt><trkpt lat="58.050345" lon="38.852987"><ele>101.6</ele><time>2024-04-24T08:45:05Z</time></trkpt><trkpt lat="58.050302" lon="38.853137"><ele>100.9</ele><time>2024-04-24T08:45:07Z</time></trkpt><trkpt lat="58.050275" lon="38.853285"><ele>100.6</ele><time>2024-04-24T08:45:09Z</time></trkpt><trkpt lat="58.05024" lon="38.853415"><ele>100.9</ele><time>2024-04-24T08:45:11Z</time></trkpt><trkpt lat="58.050207" lon="38.85357"><ele>101.5</ele><time>2024-04-24T08:45:13Z</time></trkpt><trkpt lat="58.050195" lon="38.85372"><ele>101.2</ele><time>2024-04-24T08:45:15Z</time></trkpt><trkpt lat="58.05017" lon="38.853877"><ele>101.5</ele><time>2024-04-24T08:45:17Z</time></trkpt><trkpt lat="58.050145" lon="38.854025"><ele>101.1</ele><time>2024-04-24T08:45:19Z</time></trkpt><trkpt lat="58.050115" lon="38.85417"><ele>101.8</ele><time>2024-04-24T08:45:21Z</time></trkpt><trkpt lat="58.05009" lon="38.85431"><ele>101.5</ele><time>2024-04-24T08:45:23Z</time></trkpt><trkpt lat="58.05006" lon="38.85445"><ele>101.6</ele><time>2024-04-24T08:45:25Z</time></trkpt><trkpt lat="58.050035" lon="38.854585"><ele>102.0</ele><time>2024-04-24T08:45:27Z</time></trkpt><trkpt lat="58.050015" lon="38.85476"><ele>102.1</ele><time>2024-04-24T08:45:30Z</time></trkpt><trkpt lat="58.050015" lon="38.854915"><ele>101.8</ele><time>2024-04-24T08:45:32Z</time></trkpt><trkpt lat="58.049992" lon="38.855085"><ele>101.2</ele><time>2024-04-24T08:45:34Z</time></trkpt><trkpt lat="58.049965" lon="38.855225"><ele>100.6</ele><time>2024-04-24T08:45:36Z</time></trkpt><trkpt lat="58.04994" lon="38.85535"><ele>100.1</ele><time>2024-04-24T08:45:38Z</time></trkpt><trkpt lat="58.049917" lon="38.85551"><ele>99.4</ele><time>2024-04-24T08:45:41Z</time></trkpt><trkpt lat="58.049892" lon="38.855655"><ele>98.5</ele><time>2024-04-24T08:45:44Z</time></trkpt><trkpt lat="58.049865" lon="38.855802"><ele>98.3</ele><time>2024-04-24T08:45:47Z</time></trkpt><trkpt lat="58.04983" lon="38.85596"><ele>98.1</ele><time>2024-04-24T08:45:51Z</time></trkpt><trkpt lat="58.049802" lon="38.856105"><ele>96.7</ele><time>2024-04-24T08:45:55Z</time></trkpt><trkpt lat="58.049767" lon="38.85623"><ele>96.1</ele><time>2024-04-24T08:45:58Z</time></trkpt><trkpt lat="58.049742" lon="38.85637"><ele>97.1</ele><time>2024-04-24T08:46:00Z</time></trkpt><trkpt lat="58.049722" lon="38.85652"><ele>97.3</ele><time>2024-04-24T08:46:02Z</time></trkpt><trkpt lat="58.049705" lon="38.856685"><ele>96.9</ele><time>2024-04-24T08:46:04Z</time></trkpt><trkpt lat="58.049655" lon="38.85686"><ele>97.1</ele><time>2024-04-24T08:46:06Z</time></trkpt><trkpt lat="58.049597" lon="38.857085"><ele>96.5</ele><time>2024-04-24T08:46:08Z</time></trkpt><trkpt lat="58.04955" lon="38.857205"><ele>95.8</ele><time>2024-04-24T08:46:09Z</time></trkpt><trkpt lat="58.049505" lon="38.85733"><ele>95.8</ele><time>2024-04-24T08:46:10Z</time></trkpt><trkpt lat="58.049457" lon="38.85747"><ele>95.3</ele><time>2024-04-24T08:46:11Z</time></trkpt><trkpt lat="58.049407" lon="38.857605"><ele>95.0</ele><time>2024-04-24T08:46:12Z</time></trkpt><trkpt lat="58.04937" lon="38.85773"><ele>95.1</ele><time>2024-04-24T08:46:13Z</time></trkpt><trkpt lat="58.049327" lon="38.85786"><ele>95.6</ele><time>2024-04-24T08:46:14Z</time></trkpt><trkpt lat="58.04925" lon="38.858065"><ele>95.9</ele><time>2024-04-24T08:46:16Z</time></trkpt><trkpt lat="58.04918" lon="38.858225"><ele>97.1</ele><time>2024-04-24T08:46:18Z</time></trkpt><trkpt lat="58.049127" lon="38.858395"><ele>98.9</ele><time>2024-04-24T08:46:20Z</time></trkpt><trkpt lat="58.049078" lon="38.858525"><ele>99.1</ele><time>2024-04-24T08:46:22Z</time></trkpt><trkpt lat="58.048992" lon="38.85855"><ele>100.3</ele><time>2024-04-24T08:46:25Z</time></trkpt><trkpt lat="58.0489" lon="38.85861"><ele>103.9</ele><time>2024-04-24T08:46:29Z</time></trkpt><trkpt lat="58.04882" lon="38.858692"><ele>104.1</ele><time>2024-04-24T08:46:32Z</time></trkpt><trkpt lat="58.04873" lon="38.858753"><ele>107.4</ele><time>2024-04-24T08:46:36Z</time></trkpt><trkpt lat="58.048695" lon="38.858875"><ele>108.2</ele><time>2024-04-24T08:46:38Z</time></trkpt><trkpt lat="58.04868" lon="38.859015"><ele>109.3</ele><time>2024-04-24T08:46:40Z</time></trkpt><trkpt lat="58.048675" lon="38.859165"><ele>107.8</ele><time>2024-04-24T08:46:42Z</time></trkpt><trkpt lat="58.04869" lon="38.859325"><ele>105.4</ele><time>2024-04-24T08:46:44Z</time></trkpt><trkpt lat="58.048585" lon="38.859432"><ele>103.7</ele><time>2024-04-24T08:46:47Z</time></trkpt><trkpt lat="58.048502" lon="38.859445"><ele>103.4</ele><time>2024-04-24T08:46:49Z</time></trkpt><trkpt lat="58.048382" lon="38.859455"><ele>104.3</ele><time>2024-04-24T08:46:52Z</time></trkpt><trkpt lat="58.048295" lon="38.85942"><ele>105.1</ele><time>2024-04-24T08:46:54Z</time></trkpt><trkpt lat="58.048232" lon="38.859343"><ele>105.6</ele><time>2024-04-24T08:46:56Z</time></trkpt><trkpt lat="58.048155" lon="38.8593"><ele>105.2</ele><time>2024-04-24T08:46:59Z</time></trkpt><trkpt lat="58.048082" lon="38.85928"><ele>105.9</ele><time>2024-04-24T08:47:01Z</time></trkpt><trkpt lat="58.048" lon="38.859265"><ele>107.2</ele><time>2024-04-24T08:47:07Z</time></trkpt><trkpt lat="58.047955" lon="38.8594"><ele>108.6</ele><time>2024-04-24T08:47:11Z</time></trkpt><trkpt lat="58.04798" lon="38.859567"><ele>109.5</ele><time>2024-04-24T08:47:14Z</time></trkpt><trkpt lat="58.04804" lon="38.859723"><ele>110.3</ele><time>2024-04-24T08:47:17Z</time></trkpt><trkpt lat="58.0481" lon="38.859807"><ele>109.5</ele><time>2024-04-24T08:47:19Z</time></trkpt><trkpt lat="58.048167" lon="38.85986"><ele>110.4</ele><time>2024-04-24T08:47:21Z</time></trkpt><trkpt lat="58.04824" lon="38.859895"><ele>110.9</ele><time>2024-04-24T08:47:23Z</time></trkpt><trkpt lat="58.04833" lon="38.859975"><ele>110.8</ele><time>2024-04-24T08:47:26Z</time></trkpt><trkpt lat="58.0484" lon="38.86003"><ele>112.8</ele><time>2024-04-24T08:47:29Z</time></trkpt><trkpt lat="58.048475" lon="38.86009"><ele>112.0</ele><time>2024-04-24T08:47:32Z</time></trkpt><trkpt lat="58.04857" lon="38.86017"><ele>109.3</ele><time>2024-04-24T08:47:35Z</time></trkpt><trkpt lat="58.048645" lon="38.86022"><ele>108.3</ele><time>2024-04-24T08:47:38Z</time></trkpt><trkpt lat="58.048715" lon="38.86024"><ele>109.3</ele><time>2024-04-24T08:47:41Z</time></trkpt><trkpt lat="58.0488" lon="38.8603"><ele>110.2</ele><time>2024-04-24T08:47:44Z</time></trkpt><trkpt lat="58.0489" lon="38.86036"><ele>111.4</ele><time>2024-04-24T08:47:47Z</time></trkpt><trkpt lat="58.049" lon="38.86041"><ele>110.9</ele><time>2024-04-24T08:47:50Z</time></trkpt><trkpt lat="58.04909" lon="38.860487"><ele>109.3</ele><time>2024-04-24T08:47:53Z</time></trkpt><trkpt lat="58.049175" lon="38.860552"><ele>109.5</ele><time>2024-04-24T08:47:56Z</time></trkpt><trkpt lat="58.049275" lon="38.86061"><ele>108.1</ele><time>2024-04-24T08:47:59Z</time></trkpt><trkpt lat="58.049345" lon="38.860672"><ele>109.0</ele><time>2024-04-24T08:48:02Z</time></trkpt><trkpt lat="58.04944" lon="38.860745"><ele>108.3</ele><time>2024-04-24T08:48:06Z</time></trkpt><trkpt lat="58.049535" lon="38.860805"><ele>107.3</ele><time>2024-04-24T08:48:09Z</time></trkpt><trkpt lat="58.049617" lon="38.860845"><ele>109.8</ele><time>2024-04-24T08:48:13Z</time></trkpt><trkpt lat="58.049695" lon="38.860885"><ele>111.8</ele><time>2024-04-24T08:48:17Z</time></trkpt><trkpt lat="58.049765" lon="38.86094"><ele>112.5</ele><time>2024-04-24T08:48:22Z</time></trkpt><trkpt lat="58.049855" lon="38.860985"><ele>114.5</ele><time>2024-04-24T08:48:27Z</time></trkpt><trkpt lat="58.049935" lon="38.861025"><ele>115.7</ele><time>2024-04-24T08:48:32Z</time></trkpt><trkpt lat="58.050025" lon="38.86108"><ele>114.0</ele><time>2024-04-24T08:48:37Z</time></trkpt><trkpt lat="58.050097" lon="38.86113"><ele>114.1</ele><time>2024-04-24T08:48:40Z</time></trkpt><trkpt lat="58.050182" lon="38.86119"><ele>114.6</ele><time>2024-04-24T08:48:42Z</time></trkpt><trkpt lat="58.050288" lon="38.861275"><ele>114.2</ele><time>2024-04-24T08:48:44Z</time></trkpt><trkpt lat="58.050385" lon="38.86131"><ele>115.7</ele><time>2024-04-24T08:48:46Z</time></trkpt><trkpt lat="58.050462" lon="38.861365"><ele>115.9</ele><time>2024-04-24T08:48:49Z</time></trkpt><trkpt lat="58.05054" lon="38.86142"><ele>115.7</ele><time>2024-04-24T08:48:52Z</time></trkpt><trkpt lat="58.050617" lon="38.861472"><ele>115.1</ele><time>2024-04-24T08:48:55Z</time></trkpt><trkpt lat="58.05071" lon="38.861538"><ele>114.6</ele><time>2024-04-24T08:48:58Z</time></trkpt><trkpt lat="58.05079" lon="38.86156"><ele>114.2</ele><time>2024-04-24T08:49:00Z</time></trkpt><trkpt lat="58.05087" lon="38.861617"><ele>116.0</ele><time>2024-04-24T08:49:02Z</time></trkpt><trkpt lat="58.05094" lon="38.86169"><ele>116.6</ele><time>2024-04-24T08:49:04Z</time></trkpt><trkpt lat="58.05101" lon="38.86175"><ele>116.0</ele><time>2024-04-24T08:49:06Z</time></trkpt><trkpt lat="58.051082" lon="38.861815"><ele>115.4</ele><time>2024-04-24T08:49:08Z</time></trkpt><trkpt lat="58.05117" lon="38.861895"><ele>115.2</ele><time>2024-04-24T08:49:10Z</time></trkpt><trkpt lat="58.05125" lon="38.861935"><ele>112.6</ele><time>2024-04-24T08:49:12Z</time></trkpt><trkpt lat="58.051322" lon="38.862002"><ele>110.1</ele><time>2024-04-24T08:49:14Z</time></trkpt><trkpt lat="58.05141" lon="38.862062"><ele>109.6</ele><time>2024-04-24T08:49:16Z</time></trkpt><trkpt lat="58.051493" lon="38.86211"><ele>110.5</ele><time>2024-04-24T08:49:18Z</time></trkpt><trkpt lat="58.051568" lon="38.862157"><ele>110.9</ele><time>2024-04-24T08:49:20Z</time></trkpt><trkpt lat="58.051647" lon="38.86222"><ele>111.5</ele><time>2024-04-24T08:49:22Z</time></trkpt><trkpt lat="58.051723" lon="38.862285"><ele>109.7</ele><time>2024-04-24T08:49:24Z</time></trkpt><trkpt lat="58.051803" lon="38.86233"><ele>109.9</ele><time>2024-04-24T08:49:26Z</time></trkpt><trkpt lat="58.051885" lon="38.862382"><ele>108.9</ele><time>2024-04-24T08:49:28Z</time></trkpt><trkpt lat="58.051975" lon="38.86244"><ele>109.8</ele><time>2024-04-24T08:49:30Z</time></trkpt><trkpt lat="58.052075" lon="38.86248"><ele>109.7</ele><time>2024-04-24T08:49:32Z</time></trkpt><trkpt lat="58.052155" lon="38.86255"><ele>109.3</ele><time>2024-04-24T08:49:34Z</time></trkpt><trkpt lat="58.052257" lon="38.862592"><ele>111.0</ele><time>2024-04-24T08:49:36Z</time></trkpt><trkpt lat="58.052345" lon="38.86266"><ele>111.5</ele><time>2024-04-24T08:49:38Z</time></trkpt><trkpt lat="58.052417" lon="38.862725"><ele>112.5</ele><time>2024-04-24T08:49:40Z</time></trkpt><trkpt lat="58.05251" lon="38.862772"><ele>113.9</ele><time>2024-04-24T08:49:42Z</time></trkpt><trkpt lat="58.052605" lon="38.862845"><ele>112.3</ele><time>2024-04-24T08:49:44Z</time></trkpt><trkpt lat="58.052702" lon="38.86292"><ele>111.8</ele><time>2024-04-24T08:49:46Z</time></trkpt><trkpt lat="58.05281" lon="38.862983"><ele>111.4</ele><time>2024-04-24T08:49:48Z</time></trkpt><trkpt lat="58.052905" lon="38.86304"><ele>111.1</ele><time>2024-04-24T08:49:50Z</time></trkpt><trkpt lat="58.053005" lon="38.86311"><ele>111.1</ele><time>2024-04-24T08:49:52Z</time></trkpt><trkpt lat="58.053102" lon="38.86317"><ele>109.3</ele><time>2024-04-24T08:49:54Z</time></trkpt><trkpt lat="58.05321" lon="38.863212"><ele>108.8</ele><time>2024-04-24T08:49:56Z</time></trkpt><trkpt lat="58.053305" lon="38.863282"><ele>109.9</ele><time>2024-04-24T08:49:58Z</time></trkpt><trkpt lat="58.05341" lon="38.863355"><ele>110.6</ele><time>2024-04-24T08:50:00Z</time></trkpt><trkpt lat="58.05351" lon="38.863415"><ele>111.7</ele><time>2024-04-24T08:50:02Z</time></trkpt><trkpt lat="58.05361" lon="38.86348"><ele>111.2</ele><time>2024-04-24T08:50:04Z</time></trkpt><trkpt lat="58.05371" lon="38.863552"><ele>111.3</ele><time>2024-04-24T08:50:06Z</time></trkpt><trkpt lat="58.053815" lon="38.86361"><ele>111.0</ele><time>2024-04-24T08:50:08Z</time></trkpt><trkpt lat="58.053925" lon="38.863662"><ele>110.6</ele><time>2024-04-24T08:50:10Z</time></trkpt><trkpt lat="58.054002" lon="38.863732"><ele>109.4</ele><time>2024-04-24T08:50:12Z</time></trkpt><trkpt lat="58.054097" lon="38.8638"><ele>108.1</ele><time>2024-04-24T08:50:14Z</time></trkpt><trkpt lat="58.054195" lon="38.863867"><ele>109.4</ele><time>2024-04-24T08:50:16Z</time></trkpt><trkpt lat="58.05427" lon="38.8639"><ele>109.0</ele><time>2024-04-24T08:50:18Z</time></trkpt><trkpt lat="58.05437" lon="38.863968"><ele>108.8</ele><time>2024-04-24T08:50:20Z</time></trkpt><trkpt lat="58.05446" lon="38.864027"><ele>109.2</ele><time>2024-04-24T08:50:22Z</time></trkpt><trkpt lat="58.054562" lon="38.86408"><ele>110.5</ele><time>2024-04-24T08:50:24Z</time></trkpt><trkpt lat="58.054665" lon="38.864155"><ele>109.2</ele><time>2024-04-24T08:50:26Z</time></trkpt><trkpt lat="58.05477" lon="38.864222"><ele>109.0</ele><time>2024-04-24T08:50:28Z</time></trkpt><trkpt lat="58.05489" lon="38.864287"><ele>107.3</ele><time>2024-04-24T08:50:30Z</time></trkpt><trkpt lat="58.05502" lon="38.86438"><ele>108.5</ele><time>2024-04-24T08:50:32Z</time></trkpt><trkpt lat="58.055142" lon="38.86446"><ele>108.8</ele><time>2024-04-24T08:50:34Z</time></trkpt><trkpt lat="58.055265" lon="38.864545"><ele>108.1</ele><time>2024-04-24T08:50:36Z</time></trkpt><trkpt lat="58.05537" lon="38.86464"><ele>106.6</ele><time>2024-04-24T08:50:38Z</time></trkpt><trkpt lat="58.055492" lon="38.86471"><ele>105.7</ele><time>2024-04-24T08:50:40Z</time></trkpt><trkpt lat="58.0556" lon="38.864772"><ele>105.6</ele><time>2024-04-24T08:50:42Z</time></trkpt><trkpt lat="58.055705" lon="38.864725"><ele>104.5</ele><time>2024-04-24T08:50:45Z</time></trkpt><trkpt lat="58.055755" lon="38.864542"><ele>105.2</ele><time>2024-04-24T08:50:48Z</time></trkpt><trkpt lat="58.055755" lon="38.8644"><ele>103.7</ele><time>2024-04-24T08:50:50Z</time></trkpt><trkpt lat="58.055745" lon="38.864205"><ele>103.4</ele><time>2024-04-24T08:50:53Z</time></trkpt><trkpt lat="58.055715" lon="38.86407"><ele>104.4</ele><time>2024-04-24T08:50:55Z</time></trkpt><trkpt lat="58.055675" lon="38.86392"><ele>105.9</ele><time>2024-04-24T08:50:57Z</time></trkpt><trkpt lat="58.055585" lon="38.863745"><ele>105.3</ele><time>2024-04-24T08:51:00Z</time></trkpt><trkpt lat="58.055505" lon="38.863625"><ele>105.5</ele><time>2024-04-24T08:51:02Z</time></trkpt><trkpt lat="58.055433" lon="38.86352"><ele>107.0</ele><time>2024-04-24T08:51:05Z</time></trkpt><trkpt lat="58.055465" lon="38.863475"><ele>106.4</ele><time>2024-04-24T08:51:12Z</time></trkpt><trkpt lat="58.05553" lon="38.863392"><ele>107.2</ele><time>2024-04-24T08:51:16Z</time></trkpt><trkpt lat="58.0555" lon="38.86326"><ele>105.0</ele><time>2024-04-24T08:51:21Z</time></trkpt><trkpt lat="58.055485" lon="38.863245"><ele>104.6</ele><time>2024-04-24T08:51:28Z</time></trkpt><trkpt lat="58.05541" lon="38.8631"><ele>104.3</ele><time>2024-04-24T08:51:33Z</time></trkpt><trkpt lat="58.05535" lon="38.862992"><ele>103.5</ele><time>2024-04-24T08:51:35Z</time></trkpt><trkpt lat="58.055283" lon="38.862895"><ele>103.8</ele><time>2024-04-24T08:51:37Z</time></trkpt><trkpt lat="58.05522" lon="38.8628"><ele>103.4</ele><time>2024-04-24T08:51:39Z</time></trkpt><trkpt lat="58.055145" lon="38.862692"><ele>103.2</ele><time>2024-04-24T08:51:41Z</time></trkpt><trkpt lat="58.05508" lon="38.86259"><ele>102.5</ele><time>2024-04-24T08:51:43Z</time></trkpt><trkpt lat="58.05502" lon="38.862465"><ele>101.9</ele><time>2024-04-24T08:51:45Z</time></trkpt><trkpt lat="58.05495" lon="38.862345"><ele>102.5</ele><time>2024-04-24T08:51:47Z</time></trkpt><trkpt lat="58.054912" lon="38.862185"><ele>101.9</ele><time>2024-04-24T08:51:49Z</time></trkpt><trkpt lat="58.054917" lon="38.861995"><ele>102.6</ele><time>2024-04-24T08:51:51Z</time></trkpt><trkpt lat="58.05497" lon="38.86182"><ele>102.9</ele><time>2024-04-24T08:51:53Z</time></trkpt><trkpt lat="58.055" lon="38.861652"><ele>102.8</ele><time>2024-04-24T08:51:55Z</time></trkpt><trkpt lat="58.05503" lon="38.861467"><ele>102.9</ele><time>2024-04-24T08:51:57Z</time></trkpt><trkpt lat="58.05505" lon="38.861265"><ele>104.5</ele><time>2024-04-24T08:51:59Z</time></trkpt><trkpt lat="58.05508" lon="38.86107"><ele>105.1</ele><time>2024-04-24T08:52:01Z</time></trkpt><trkpt lat="58.055125" lon="38.86087"><ele>105.9</ele><time>2024-04-24T08:52:03Z</time></trkpt><trkpt lat="58.05516" lon="38.86069"><ele>105.4</ele><time>2024-04-24T08:52:05Z</time></trkpt><trkpt lat="58.055195" lon="38.86047"><ele>107.9</ele><time>2024-04-24T08:52:07Z</time></trkpt><trkpt lat="58.055247" lon="38.860305"><ele>105.9</ele><time>2024-04-24T08:52:09Z</time></trkpt><trkpt lat="58.055275" lon="38.860115"><ele>105.2</ele><time>2024-04-24T08:52:11Z</time></trkpt><trkpt lat="58.055307" lon="38.85993"><ele>106.7</ele><time>2024-04-24T08:52:13Z</time></trkpt><trkpt lat="58.05533" lon="38.85978"><ele>107.0</ele><time>2024-04-24T08:52:15Z</time></trkpt><trkpt lat="58.055365" lon="38.859602"><ele>105.0</ele><time>2024-04-24T08:52:17Z</time></trkpt><trkpt lat="58.05539" lon="38.85941"><ele>106.0</ele><time>2024-04-24T08:52:19Z</time></trkpt><trkpt lat="58.055425" lon="38.85922"><ele>105.8</ele><time>2024-04-24T08:52:21Z</time></trkpt><trkpt lat="58.055455" lon="38.859055"><ele>106.2</ele><time>2024-04-24T08:52:23Z</time></trkpt><trkpt lat="58.055495" lon="38.858892"><ele>106.2</ele><time>2024-04-24T08:52:25Z</time></trkpt><trkpt lat="58.055525" lon="38.858732"><ele>104.3</ele><time>2024-04-24T08:52:27Z</time></trkpt><trkpt lat="58.055555" lon="38.85858"><ele>105.7</ele><time>2024-04-24T08:52:29Z</time></trkpt><trkpt lat="58.055605" lon="38.85845"><ele>104.6</ele><time>2024-04-24T08:52:31Z</time></trkpt><trkpt lat="58.055652" lon="38.858312"><ele>105.5</ele><time>2024-04-24T08:52:33Z</time></trkpt><trkpt lat="58.05572" lon="38.858145"><ele>102.9</ele><time>2024-04-24T08:52:36Z</time></trkpt><trkpt lat="58.05577" lon="38.85799"><ele>103.6</ele><time>2024-04-24T08:52:38Z</time></trkpt><trkpt lat="58.05581" lon="38.85787"><ele>101.9</ele><time>2024-04-24T08:52:40Z</time></trkpt><trkpt lat="58.05586" lon="38.857715"><ele>103.9</ele><time>2024-04-24T08:52:43Z</time></trkpt><trkpt lat="58.05591" lon="38.857598"><ele>103.9</ele><time>2024-04-24T08:52:45Z</time></trkpt><trkpt lat="58.05594" lon="38.857455"><ele>105.7</ele><time>2024-04-24T08:52:47Z</time></trkpt><trkpt lat="58.05594" lon="38.85726"><ele>104.7</ele><time>2024-04-24T08:52:50Z</time></trkpt><trkpt lat="58.055945" lon="38.857115"><ele>104.9</ele><time>2024-04-24T08:52:52Z</time></trkpt><trkpt lat="58.055972" lon="38.856965"><ele>105.3</ele><time>2024-04-24T08:52:54Z</time></trkpt><trkpt lat="58.055987" lon="38.856805"><ele>106.3</ele><time>2024-04-24T08:52:56Z</time></trkpt><trkpt lat="58.056057" lon="38.85674"><ele>106.8</ele><time>2024-04-24T08:52:59Z</time></trkpt><trkpt lat="58.05614" lon="38.856725"><ele>107.1</ele><time>2024-04-24T08:53:02Z</time></trkpt><trkpt lat="58.056235" lon="38.856625"><ele>103.6</ele><time>2024-04-24T08:53:05Z</time></trkpt><trkpt lat="58.05631" lon="38.856575"><ele>103.9</ele><time>2024-04-24T08:53:07Z</time></trkpt><trkpt lat="58.05636" lon="38.856473"><ele>103.5</ele><time>2024-04-24T08:53:09Z</time></trkpt><trkpt lat="58.056422" lon="38.856383"><ele>105.2</ele><time>2024-04-24T08:53:11Z</time></trkpt><trkpt lat="58.056487" lon="38.85631"><ele>105.2</ele><time>2024-04-24T08:53:13Z</time></trkpt><trkpt lat="58.05655" lon="38.856215"><ele>105.5</ele><time>2024-04-24T08:53:15Z</time></trkpt><trkpt lat="58.056605" lon="38.85613"><ele>106.2</ele><time>2024-04-24T08:53:17Z</time></trkpt><trkpt lat="58.056685" lon="38.856025"><ele>106.4</ele><time>2024-04-24T08:53:20Z</time></trkpt><trkpt lat="58.056765" lon="38.855925"><ele>107.4</ele><time>2024-04-24T08:53:23Z</time></trkpt><trkpt lat="58.05684" lon="38.85581"><ele>107.6</ele><time>2024-04-24T08:53:26Z</time></trkpt><trkpt lat="58.056905" lon="38.85572"><ele>108.5</ele><time>2024-04-24T08:53:29Z</time></trkpt><trkpt lat="58.056967" lon="38.855628"><ele>107.6</ele><time>2024-04-24T08:53:32Z</time></trkpt><trkpt lat="58.057055" lon="38.85552"><ele>106.7</ele><time>2024-04-24T08:53:35Z</time></trkpt><trkpt lat="58.05713" lon="38.855435"><ele>106.2</ele><time>2024-04-24T08:53:37Z</time></trkpt><trkpt lat="58.057195" lon="38.855333"><ele>107.0</ele><time>2024-04-24T08:53:39Z</time></trkpt><trkpt lat="58.057267" lon="38.855195"><ele>105.0</ele><time>2024-04-24T08:53:42Z</time></trkpt><trkpt lat="58.05735" lon="38.85508"><ele>104.9</ele><time>2024-04-24T08:53:45Z</time></trkpt><trkpt lat="58.05743" lon="38.855015"><ele>105.9</ele><time>2024-04-24T08:53:47Z</time></trkpt><trkpt lat="58.057495" lon="38.85494"><ele>106.6</ele><time>2024-04-24T08:53:49Z</time></trkpt><trkpt lat="58.057575" lon="38.85482"><ele>107.4</ele><time>2024-04-24T08:53:52Z</time></trkpt><trkpt lat="58.057655" lon="38.854695"><ele>107.7</ele><time>2024-04-24T08:53:55Z</time></trkpt><trkpt lat="58.05774" lon="38.854595"><ele>109.4</ele><time>2024-04-24T08:53:58Z</time></trkpt><trkpt lat="58.057812" lon="38.854495"><ele>109.3</ele><time>2024-04-24T08:54:01Z</time></trkpt><trkpt lat="58.057895" lon="38.85437"><ele>107.7</ele><time>2024-04-24T08:54:04Z</time></trkpt><trkpt lat="58.057957" lon="38.854285"><ele>109.1</ele><time>2024-04-24T08:54:06Z</time></trkpt><trkpt lat="58.05802" lon="38.854205"><ele>110.1</ele><time>2024-04-24T08:54:08Z</time></trkpt><trkpt lat="58.058082" lon="38.854115"><ele>109.3</ele><time>2024-04-24T08:54:10Z</time></trkpt><trkpt lat="58.058145" lon="38.854032"><ele>107.6</ele><time>2024-04-24T08:54:12Z</time></trkpt><trkpt lat="58.058225" lon="38.853925"><ele>107.9</ele><time>2024-04-24T08:54:15Z</time></trkpt><trkpt lat="58.058305" lon="38.85379"><ele>106.5</ele><time>2024-04-24T08:54:18Z</time></trkpt><trkpt lat="58.058365" lon="38.853695"><ele>107.5</ele><time>2024-04-24T08:54:20Z</time></trkpt><trkpt lat="58.05846" lon="38.853585"><ele>107.1</ele><time>2024-04-24T08:54:23Z</time></trkpt><trkpt lat="58.05852" lon="38.853502"><ele>107.5</ele><time>2024-04-24T08:54:25Z</time></trkpt><trkpt lat="58.05859" lon="38.853417"><ele>108.8</ele><time>2024-04-24T08:54:27Z</time></trkpt><trkpt lat="58.058665" lon="38.853277"><ele>108.7</ele><time>2024-04-24T08:54:29Z</time></trkpt><trkpt lat="58.05875" lon="38.853157"><ele>108.8</ele><time>2024-04-24T08:54:31Z</time></trkpt><trkpt lat="58.05884" lon="38.853045"><ele>108.3</ele><time>2024-04-24T08:54:33Z</time></trkpt><trkpt lat="58.05891" lon="38.852935"><ele>109.3</ele><time>2024-04-24T08:54:35Z</time></trkpt><trkpt lat="58.05898" lon="38.852845"><ele>111.0</ele><time>2024-04-24T08:54:37Z</time></trkpt><trkpt lat="58.059065" lon="38.852757"><ele>110.4</ele><time>2024-04-24T08:54:39Z</time></trkpt><trkpt lat="58.059142" lon="38.852672"><ele>109.9</ele><time>2024-04-24T08:54:41Z</time></trkpt><trkpt lat="58.05922" lon="38.85258"><ele>109.7</ele><time>2024-04-24T08:54:43Z</time></trkpt><trkpt lat="58.05929" lon="38.852485"><ele>108.7</ele><time>2024-04-24T08:54:45Z</time></trkpt><trkpt lat="58.05934" lon="38.852377"><ele>109.7</ele><time>2024-04-24T08:54:47Z</time></trkpt><trkpt lat="58.05941" lon="38.852285"><ele>110.3</ele><time>2024-04-24T08:54:49Z</time></trkpt><trkpt lat="58.05947" lon="38.852175"><ele>110.5</ele><time>2024-04-24T08:54:51Z</time></trkpt><trkpt lat="58.059528" lon="38.852083"><ele>110.9</ele><time>2024-04-24T08:54:53Z</time></trkpt><trkpt lat="58.059598" lon="38.851995"><ele>111.0</ele><time>2024-04-24T08:54:55Z</time></trkpt><trkpt lat="58.059665" lon="38.8519"><ele>111.5</ele><time>2024-04-24T08:54:57Z</time></trkpt><trkpt lat="58.059725" lon="38.851825"><ele>111.2</ele><time>2024-04-24T08:54:59Z</time></trkpt><trkpt lat="58.059785" lon="38.85174"><ele>112.8</ele><time>2024-04-24T08:55:01Z</time></trkpt><trkpt lat="58.059842" lon="38.851645"><ele>113.0</ele><time>2024-04-24T08:55:03Z</time></trkpt><trkpt lat="58.059905" lon="38.851575"><ele>113.4</ele><time>2024-04-24T08:55:05Z</time></trkpt><trkpt lat="58.059987" lon="38.85145"><ele>115.3</ele><time>2024-04-24T08:55:08Z</time></trkpt><trkpt lat="58.060045" lon="38.85136"><ele>116.2</ele><time>2024-04-24T08:55:10Z</time></trkpt><trkpt lat="58.06011" lon="38.85128"><ele>115.2</ele><time>2024-04-24T08:55:12Z</time></trkpt><trkpt lat="58.060165" lon="38.85119"><ele>114.7</ele><time>2024-04-24T08:55:14Z</time></trkpt><trkpt lat="58.060212" lon="38.851072"><ele>115.2</ele><time>2024-04-24T08:55:16Z</time></trkpt><trkpt lat="58.06027" lon="38.850965"><ele>113.3</ele><time>2024-04-24T08:55:18Z</time></trkpt><trkpt lat="58.060345" lon="38.850895"><ele>113.2</ele><time>2024-04-24T08:55:20Z</time></trkpt><trkpt lat="58.06042" lon="38.850855"><ele>113.0</ele><time>2024-04-24T08:55:22Z</time></trkpt><trkpt lat="58.06051" lon="38.85076"><ele>115.9</ele><time>2024-04-24T08:55:25Z</time></trkpt><trkpt lat="58.060595" lon="38.850655"><ele>115.8</ele><time>2024-04-24T08:55:28Z</time></trkpt><trkpt lat="58.06068" lon="38.85056"><ele>116.0</ele><time>2024-04-24T08:55:31Z</time></trkpt><trkpt lat="58.06075" lon="38.850487"><ele>116.1</ele><time>2024-04-24T08:55:33Z</time></trkpt><trkpt lat="58.060825" lon="38.85036"><ele>115.9</ele><time>2024-04-24T08:55:35Z</time></trkpt><trkpt lat="58.060885" lon="38.85027"><ele>116.1</ele><time>2024-04-24T08:55:37Z</time></trkpt><trkpt lat="58.060955" lon="38.85013"><ele>116.6</ele><time>2024-04-24T08:55:40Z</time></trkpt><trkpt lat="58.061032" lon="38.85001"><ele>117.0</ele><time>2024-04-24T08:55:43Z</time></trkpt><trkpt lat="58.061085" lon="38.84988"><ele>114.1</ele><time>2024-04-24T08:55:46Z</time></trkpt><trkpt lat="58.061175" lon="38.84982"><ele>112.9</ele><time>2024-04-24T08:55:49Z</time></trkpt><trkpt lat="58.06126" lon="38.84974"><ele>113.2</ele><time>2024-04-24T08:55:52Z</time></trkpt><trkpt lat="58.061335" lon="38.849615"><ele>113.5</ele><time>2024-04-24T08:55:55Z</time></trkpt><trkpt lat="58.06139" lon="38.84953"><ele>113.9</ele><time>2024-04-24T08:55:57Z</time></trkpt><trkpt lat="58.06145" lon="38.84944"><ele>113.4</ele><time>2024-04-24T08:55:59Z</time></trkpt><trkpt lat="58.061512" lon="38.849345"><ele>114.0</ele><time>2024-04-24T08:56:01Z</time></trkpt><trkpt lat="58.06157" lon="38.849255"><ele>111.9</ele><time>2024-04-24T08:56:03Z</time></trkpt><trkpt lat="58.06164" lon="38.849152"><ele>112.1</ele><time>2024-04-24T08:56:05Z</time></trkpt><trkpt lat="58.061727" lon="38.84903"><ele>112.4</ele><time>2024-04-24T08:56:08Z</time></trkpt><trkpt lat="58.061807" lon="38.848902"><ele>114.4</ele><time>2024-04-24T08:56:10Z</time></trkpt><trkpt lat="58.06188" lon="38.84883"><ele>114.7</ele><time>2024-04-24T08:56:12Z</time></trkpt><trkpt lat="58.061952" lon="38.84874"><ele>115.4</ele><time>2024-04-24T08:56:14Z</time></trkpt><trkpt lat="58.062022" lon="38.848625"><ele>114.7</ele><time>2024-04-24T08:56:16Z</time></trkpt><trkpt lat="58.062095" lon="38.848505"><ele>115.0</ele><time>2024-04-24T08:56:18Z</time></trkpt><trkpt lat="58.062165" lon="38.8484"><ele>115.8</ele><time>2024-04-24T08:56:20Z</time></trkpt><trkpt lat="58.06223" lon="38.848315"><ele>115.8</ele><time>2024-04-24T08:56:22Z</time></trkpt><trkpt lat="58.06229" lon="38.848235"><ele>116.4</ele><time>2024-04-24T08:56:24Z</time></trkpt><trkpt lat="58.062345" lon="38.84814"><ele>117.6</ele><time>2024-04-24T08:56:26Z</time></trkpt><trkpt lat="58.06241" lon="38.84802"><ele>117.4</ele><time>2024-04-24T08:56:28Z</time></trkpt><trkpt lat="58.062485" lon="38.847915"><ele>117.5</ele><time>2024-04-24T08:56:31Z</time></trkpt><trkpt lat="58.062558" lon="38.84776"><ele>117.2</ele><time>2024-04-24T08:56:34Z</time></trkpt><trkpt lat="58.062642" lon="38.84767"><ele>116.5</ele><time>2024-04-24T08:56:36Z</time></trkpt><trkpt lat="58.062712" lon="38.84758"><ele>115.0</ele><time>2024-04-24T08:56:38Z</time></trkpt><trkpt lat="58.06278" lon="38.847502"><ele>114.1</ele><time>2024-04-24T08:56:40Z</time></trkpt><trkpt lat="58.06284" lon="38.84741"><ele>113.5</ele><time>2024-04-24T08:56:42Z</time></trkpt><trkpt lat="58.062905" lon="38.84731"><ele>113.6</ele><time>2024-04-24T08:56:44Z</time></trkpt><trkpt lat="58.062972" lon="38.84722"><ele>112.6</ele><time>2024-04-24T08:56:46Z</time></trkpt><trkpt lat="58.063023" lon="38.847115"><ele>110.0</ele><time>2024-04-24T08:56:48Z</time></trkpt><trkpt lat="58.063082" lon="38.847012"><ele>111.6</ele><time>2024-04-24T08:56:50Z</time></trkpt><trkpt lat="58.063167" lon="38.846937"><ele>113.5</ele><time>2024-04-24T08:56:52Z</time></trkpt><trkpt lat="58.063255" lon="38.846865"><ele>113.6</ele><time>2024-04-24T08:56:54Z</time></trkpt><trkpt lat="58.063345" lon="38.84681"><ele>112.4</ele><time>2024-04-24T08:56:56Z</time></trkpt><trkpt lat="58.063435" lon="38.846775"><ele>110.5</ele><time>2024-04-24T08:56:58Z</time></trkpt><trkpt lat="58.063522" lon="38.846735"><ele>110.3</ele><time>2024-04-24T08:57:00Z</time></trkpt><trkpt lat="58.063623" lon="38.8467"><ele>111.2</ele><time>2024-04-24T08:57:02Z</time></trkpt><trkpt lat="58.063725" lon="38.846665"><ele>111.8</ele><time>2024-04-24T08:57:04Z</time></trkpt><trkpt lat="58.06383" lon="38.84662"><ele>110.1</ele><time>2024-04-24T08:57:06Z</time></trkpt><trkpt lat="58.063932" lon="38.84659"><ele>107.3</ele><time>2024-04-24T08:57:08Z</time></trkpt><trkpt lat="58.064025" lon="38.846555"><ele>106.7</ele><time>2024-04-24T08:57:10Z</time></trkpt><trkpt lat="58.064105" lon="38.84651"><ele>106.8</ele><time>2024-04-24T08:57:12Z</time></trkpt><trkpt lat="58.064202" lon="38.846468"><ele>104.1</ele><time>2024-04-24T08:57:14Z</time></trkpt><trkpt lat="58.06431" lon="38.846425"><ele>103.9</ele><time>2024-04-24T08:57:16Z</time></trkpt><trkpt lat="58.06441" lon="38.84637"><ele>103.9</ele><time>2024-04-24T08:57:18Z</time></trkpt><trkpt lat="58.06451" lon="38.846332"><ele>105.2</ele><time>2024-04-24T08:57:20Z</time></trkpt><trkpt lat="58.06459" lon="38.846297"><ele>105.4</ele><time>2024-04-24T08:57:22Z</time></trkpt><trkpt lat="58.064665" lon="38.84629"><ele>104.6</ele><time>2024-04-24T08:57:24Z</time></trkpt><trkpt lat="58.064725" lon="38.84619"><ele>105.6</ele><time>2024-04-24T08:57:27Z</time></trkpt><trkpt lat="58.064715" lon="38.846025"><ele>107.2</ele><time>2024-04-24T08:57:30Z</time></trkpt><trkpt lat="58.064695" lon="38.845862"><ele>107.2</ele><time>2024-04-24T08:57:33Z</time></trkpt><trkpt lat="58.064675" lon="38.84573"><ele>106.5</ele><time>2024-04-24T08:57:38Z</time></trkpt><trkpt lat="58.064665" lon="38.845725"><ele>107.1</ele><time>2024-04-24T08:57:44Z</time></trkpt><trkpt lat="58.064605" lon="38.845585"><ele>110.6</ele><time>2024-04-24T08:57:58Z</time></trkpt><trkpt lat="58.06457" lon="38.845405"><ele>109.1</ele><time>2024-04-24T08:58:01Z</time></trkpt><trkpt lat="58.06452" lon="38.845227"><ele>109.1</ele><time>2024-04-24T08:58:04Z</time></trkpt><trkpt lat="58.064487" lon="38.84507"><ele>109.8</ele><time>2024-04-24T08:58:06Z</time></trkpt><trkpt lat="58.064445" lon="38.844902"><ele>108.9</ele><time>2024-04-24T08:58:08Z</time></trkpt><trkpt lat="58.0644" lon="38.844735"><ele>110.0</ele><time>2024-04-24T08:58:10Z</time></trkpt><trkpt lat="58.064337" lon="38.844545"><ele>111.3</ele><time>2024-04-24T08:58:12Z</time></trkpt><trkpt lat="58.06429" lon="38.844395"><ele>110.9</ele><time>2024-04-24T08:58:14Z</time></trkpt><trkpt lat="58.064245" lon="38.84423"><ele>110.7</ele><time>2024-04-24T08:58:16Z</time></trkpt><trkpt lat="58.06418" lon="38.844052"><ele>112.6</ele><time>2024-04-24T08:58:18Z</time></trkpt><trkpt lat="58.06412" lon="38.843885"><ele>114.2</ele><time>2024-04-24T08:58:20Z</time></trkpt><trkpt lat="58.06409" lon="38.84371"><ele>114.1</ele><time>2024-04-24T08:58:22Z</time></trkpt><trkpt lat="58.064045" lon="38.843577"><ele>113.0</ele><time>2024-04-24T08:58:24Z</time></trkpt><trkpt lat="58.06399" lon="38.843437"><ele>113.4</ele><time>2024-04-24T08:58:26Z</time></trkpt><trkpt lat="58.063935" lon="38.843315"><ele>113.0</ele><time>2024-04-24T08:58:28Z</time></trkpt><trkpt lat="58.063905" lon="38.84318"><ele>113.2</ele><time>2024-04-24T08:58:30Z</time></trkpt><trkpt lat="58.06388" lon="38.843017"><ele>112.5</ele><time>2024-04-24T08:58:32Z</time></trkpt><trkpt lat="58.063832" lon="38.842885"><ele>113.3</ele><time>2024-04-24T08:58:34Z</time></trkpt><trkpt lat="58.063785" lon="38.842725"><ele>113.6</ele><time>2024-04-24T08:58:36Z</time></trkpt><trkpt lat="58.063745" lon="38.84259"><ele>115.0</ele><time>2024-04-24T08:58:38Z</time></trkpt><trkpt lat="58.063705" lon="38.842475"><ele>114.0</ele><time>2024-04-24T08:58:40Z</time></trkpt><trkpt lat="58.063667" lon="38.84235"><ele>113.7</ele><time>2024-04-24T08:58:42Z</time></trkpt><trkpt lat="58.063605" lon="38.84217"><ele>113.7</ele><time>2024-04-24T08:58:45Z</time></trkpt><trkpt lat="58.06353" lon="38.842157"><ele>113.0</ele><time>2024-04-24T08:58:47Z</time></trkpt><trkpt lat="58.063472" lon="38.8423"><ele>111.8</ele><time>2024-04-24T08:58:51Z</time></trkpt><trkpt lat="58.063467" lon="38.842337"><ele>111.1</ele><time>2024-04-24T08:58:58Z</time></trkpt><trkpt lat="58.063465" lon="38.842337"><ele>111.1</ele><time>2024-04-24T08:58:59Z</time></trkpt><trkpt lat="58.063485" lon="38.842255"><ele>112.9</ele><time>2024-04-24T08:59:22Z</time></trkpt><trkpt lat="58.06367" lon="38.842822"><ele>106.8</ele><time>2024-04-24T09:00:25Z</time></trkpt><trkpt lat="58.063905" lon="38.842605"><ele>113.7</ele><time>2024-04-24T09:00:31Z</time></trkpt><trkpt lat="58.063717" lon="38.842835"><ele>113.2</ele><time>2024-04-24T09:00:34Z</time></trkpt><trkpt lat="58.063697" lon="38.84268"><ele>113.0</ele><time>2024-04-24T09:00:37Z</time></trkpt><trkpt lat="58.06367" lon="38.842683"><ele>113.5</ele><time>2024-04-24T09:00:44Z</time></trkpt><trkpt lat="58.063692" lon="38.84257"><ele>117.7</ele><time>2024-04-24T09:00:51Z</time></trkpt><trkpt lat="58.063655" lon="38.842443"><ele>117.0</ele><time>2024-04-24T09:00:58Z</time></trkpt><trkpt lat="58.063652" lon="38.84248"><ele>118.0</ele><time>2024-04-24T09:01:04Z</time></trkpt><trkpt lat="58.063682" lon="38.842545"><ele>120.5</ele><time>2024-04-24T09:01:13Z</time></trkpt><trkpt lat="58.06371" lon="38.842535"><ele>124.0</ele><time>2024-04-24T09:01:20Z</time></trkpt><trkpt lat="58.063722" lon="38.842527"><ele>122.1</ele><time>2024-04-24T09:01:27Z</time></trkpt><trkpt lat="58.063815" lon="38.842575"><ele>125.1</ele><time>2024-04-24T09:01:35Z</time></trkpt><trkpt lat="58.063732" lon="38.842635"><ele>140.1</ele><time>2024-04-24T09:01:40Z</time></trkpt><trkpt lat="58.063387" lon="38.84236"><ele>49.6</ele><time>2024-04-24T09:01:43Z</time></trkpt><trkpt lat="58.0635" lon="38.84248"><ele>36.9</ele><time>2024-04-24T09:01:45Z</time></trkpt><trkpt lat="58.063635" lon="38.8424"><ele>121.4</ele><time>2024-04-24T09:01:46Z</time></trkpt><trkpt lat="58.063687" lon="38.842287"><ele>120.7</ele><time>2024-04-24T09:01:53Z</time></trkpt><trkpt lat="58.06361" lon="38.842227"><ele>119.6</ele><time>2024-04-24T09:01:57Z</time></trkpt><trkpt lat="58.063585" lon="38.842437"><ele>119.5</ele><time>2024-04-24T09:02:05Z</time></trkpt><trkpt lat="58.063465" lon="38.84236"><ele>79.8</ele><time>2024-04-24T09:02:09Z</time></trkpt><trkpt lat="58.06374" lon="38.842477"><ele>123.0</ele><time>2024-04-24T09:02:12Z</time></trkpt></trkseg></trk></gpx>