<?xml version="1.0" encoding="UTF-8" standalone="no"?><gpx xmlns="http://www.topografix.com/GPX/1/1" xmlns:gpxtpx="http://www.garmin.com/xmlschemas/TrackPointExtension/v1" xmlns:xsi="http://www.w3.org/2001/XMLSchema-instance" creator="Sports Tracker" version="1.1" xsi:schemaLocation="http://www.topografix.com/GPX/1/1 http://www.topografix.com/GPX/1/1/gpx.xsd http://www.garmin.com/xmlschemas/TrackPointExtension/v1 http://www.garmin.com/xmlschemas/TrackPointExtensionv1.xsd"><metadata><name/><desc/><author><name>Александр</name></author></metadata><trk><name/><trkseg><trkpt lat="58.058745" lon="38.807562"><ele>112.4</ele><time>2023-08-31T20:28:31Z</time></trkpt><trkpt lat="58.058703" lon="38.807745"><ele>105.6</ele><time>2023-08-31T20:28:32Z</time></trkpt><trkpt lat="58.058648" lon="38.807848"><ele>105.1</ele><time>2023-08-31T20:28:37Z</time></trkpt><trkpt lat="58.05863" lon="38.80803"><ele>105.3</ele><time>2023-08-31T20:28:40Z</time></trkpt><trkpt lat="58.058617" lon="38.808188"><ele>106.2</ele><time>2023-08-31T20:28:43Z</time></trkpt><trkpt lat="58.058597" lon="38.808338"><ele>107.2</ele><time>2023-08-31T20:28:46Z</time></trkpt><trkpt lat="58.058567" lon="38.808497"><ele>107.4</ele><time>2023-08-31T20:28:49Z</time></trkpt><trkpt lat="58.058532" lon="38.80864"><ele>107.1</ele><time>2023-08-31T20:28:54Z</time></trkpt><trkpt lat="58.058495" lon="38.808813"><ele>107.4</ele><time>2023-08-31T20:28:58Z</time></trkpt><trkpt lat="58.058485" lon="38.80899"><ele>108.2</ele><time>2023-08-31T20:29:01Z</time></trkpt><trkpt lat="58.058467" lon="38.80918"><ele>108.6</ele><time>2023-08-31T20:29:04Z</time></trkpt><trkpt lat="58.058452" lon="38.809357"><ele>108.9</ele><time>2023-08-31T20:29:07Z</time></trkpt><trkpt lat="58.058482" lon="38.809502"><ele>107.6</ele><time>2023-08-31T20:29:27Z</time></trkpt><trkpt lat="58.058482" lon="38.809652"><ele>107.3</ele><time>2023-08-31T20:29:31Z</time></trkpt><trkpt lat="58.058537" lon="38.809775"><ele>107.4</ele><time>2023-08-31T20:29:34Z</time></trkpt><trkpt lat="58.058618" lon="38.809763"><ele>107.4</ele><time>2023-08-31T20:29:36Z</time></trkpt><trkpt lat="58.058698" lon="38.809757"><ele>107.4</ele><time>2023-08-31T20:29:38Z</time></trkpt><trkpt lat="58.058798" lon="38.809823"><ele>106.9</ele><time>2023-08-31T20:29:41Z</time></trkpt><trkpt lat="58.058883" lon="38.809908"><ele>106.3</ele><time>2023-08-31T20:29:44Z</time></trkpt><trkpt lat="58.058908" lon="38.810062"><ele>106.1</ele><time>2023-08-31T20:29:47Z</time></trkpt><trkpt lat="58.058892" lon="38.810263"><ele>106.5</ele><time>2023-08-31T20:29:49Z</time></trkpt><trkpt lat="58.058862" lon="38.810453"><ele>106.6</ele><time>2023-08-31T20:29:51Z</time></trkpt><trkpt lat="58.058825" lon="38.81064"><ele>106.4</ele><time>2023-08-31T20:29:53Z</time></trkpt><trkpt lat="58.058797" lon="38.810803"><ele>106.6</ele><time>2023-08-31T20:29:55Z</time></trkpt><trkpt lat="58.058777" lon="38.810955"><ele>106.6</ele><time>2023-08-31T20:29:57Z</time></trkpt><trkpt lat="58.058753" lon="38.811135"><ele>107.1</ele><time>2023-08-31T20:29:59Z</time></trkpt><trkpt lat="58.058793" lon="38.811282"><ele>107.1</ele><time>2023-08-31T20:30:02Z</time></trkpt><trkpt lat="58.058898" lon="38.811313"><ele>106.7</ele><time>2023-08-31T20:30:05Z</time></trkpt><trkpt lat="58.058978" lon="38.811327"><ele>106.7</ele><time>2023-08-31T20:30:07Z</time></trkpt><trkpt lat="58.059067" lon="38.811328"><ele>106.7</ele><time>2023-08-31T20:30:09Z</time></trkpt><trkpt lat="58.059157" lon="38.811323"><ele>106.9</ele><time>2023-08-31T20:30:11Z</time></trkpt><trkpt lat="58.059247" lon="38.811342"><ele>106.6</ele><time>2023-08-31T20:30:13Z</time></trkpt><trkpt lat="58.059345" lon="38.811372"><ele>105.8</ele><time>2023-08-31T20:30:15Z</time></trkpt><trkpt lat="58.059435" lon="38.811393"><ele>105.9</ele><time>2023-08-31T20:30:17Z</time></trkpt><trkpt lat="58.059565" lon="38.81145"><ele>105.5</ele><time>2023-08-31T20:30:19Z</time></trkpt><trkpt lat="58.059647" lon="38.81143"><ele>104.6</ele><time>2023-08-31T20:30:21Z</time></trkpt><trkpt lat="58.059732" lon="38.81144"><ele>104.1</ele><time>2023-08-31T20:30:23Z</time></trkpt><trkpt lat="58.059823" lon="38.811452"><ele>104.1</ele><time>2023-08-31T20:30:25Z</time></trkpt><trkpt lat="58.05991" lon="38.81146"><ele>103.9</ele><time>2023-08-31T20:30:27Z</time></trkpt><trkpt lat="58.060018" lon="38.811433"><ele>104.0</ele><time>2023-08-31T20:30:30Z</time></trkpt><trkpt lat="58.060107" lon="38.81149"><ele>103.3</ele><time>2023-08-31T20:30:32Z</time></trkpt><trkpt lat="58.060207" lon="38.811523"><ele>102.8</ele><time>2023-08-31T20:30:35Z</time></trkpt><trkpt lat="58.060217" lon="38.811732"><ele>103.1</ele><time>2023-08-31T20:30:38Z</time></trkpt><trkpt lat="58.060187" lon="38.811865"><ele>103.0</ele><time>2023-08-31T20:30:40Z</time></trkpt><trkpt lat="58.06015" lon="38.812008"><ele>103.1</ele><time>2023-08-31T20:30:43Z</time></trkpt><trkpt lat="58.060098" lon="38.812117"><ele>103.1</ele><time>2023-08-31T20:30:46Z</time></trkpt><trkpt lat="58.06008" lon="38.812255"><ele>103.5</ele><time>2023-08-31T20:30:49Z</time></trkpt><trkpt lat="58.060068" lon="38.812393"><ele>103.5</ele><time>2023-08-31T20:30:52Z</time></trkpt><trkpt lat="58.060048" lon="38.81256"><ele>103.2</ele><time>2023-08-31T20:30:55Z</time></trkpt><trkpt lat="58.060037" lon="38.812698"><ele>103.5</ele><time>2023-08-31T20:30:57Z</time></trkpt><trkpt lat="58.060027" lon="38.812843"><ele>104.9</ele><time>2023-08-31T20:30:59Z</time></trkpt><trkpt lat="58.060018" lon="38.812985"><ele>104.6</ele><time>2023-08-31T20:31:01Z</time></trkpt><trkpt lat="58.060002" lon="38.813173"><ele>104.1</ele><time>2023-08-31T20:31:04Z</time></trkpt><trkpt lat="58.059983" lon="38.813347"><ele>104.2</ele><time>2023-08-31T20:31:07Z</time></trkpt><trkpt lat="58.059975" lon="38.813522"><ele>104.5</ele><time>2023-08-31T20:31:10Z</time></trkpt><trkpt lat="58.059977" lon="38.813658"><ele>104.3</ele><time>2023-08-31T20:31:13Z</time></trkpt><trkpt lat="58.059967" lon="38.813822"><ele>103.8</ele><time>2023-08-31T20:31:17Z</time></trkpt><trkpt lat="58.059955" lon="38.813997"><ele>104.2</ele><time>2023-08-31T20:31:20Z</time></trkpt><trkpt lat="58.059947" lon="38.814185"><ele>105.2</ele><time>2023-08-31T20:31:23Z</time></trkpt><trkpt lat="58.059928" lon="38.814325"><ele>105.0</ele><time>2023-08-31T20:31:25Z</time></trkpt><trkpt lat="58.05991" lon="38.814477"><ele>104.4</ele><time>2023-08-31T20:31:27Z</time></trkpt><trkpt lat="58.059912" lon="38.814658"><ele>104.1</ele><time>2023-08-31T20:31:29Z</time></trkpt><trkpt lat="58.059892" lon="38.814805"><ele>104.3</ele><time>2023-08-31T20:31:31Z</time></trkpt><trkpt lat="58.05988" lon="38.81494"><ele>103.6</ele><time>2023-08-31T20:31:33Z</time></trkpt><trkpt lat="58.059873" lon="38.815097"><ele>103.4</ele><time>2023-08-31T20:31:35Z</time></trkpt><trkpt lat="58.059852" lon="38.815228"><ele>103.7</ele><time>2023-08-31T20:31:37Z</time></trkpt><trkpt lat="58.059833" lon="38.815378"><ele>103.5</ele><time>2023-08-31T20:31:39Z</time></trkpt><trkpt lat="58.059812" lon="38.815532"><ele>103.5</ele><time>2023-08-31T20:31:41Z</time></trkpt><trkpt lat="58.059795" lon="38.815687"><ele>103.2</ele><time>2023-08-31T20:31:43Z</time></trkpt><trkpt lat="58.059777" lon="38.815835"><ele>103.0</ele><time>2023-08-31T20:31:45Z</time></trkpt><trkpt lat="58.059755" lon="38.81599"><ele>102.6</ele><time>2023-08-31T20:31:47Z</time></trkpt><trkpt lat="58.059735" lon="38.816153"><ele>102.8</ele><time>2023-08-31T20:31:49Z</time></trkpt><trkpt lat="58.059725" lon="38.81634"><ele>102.6</ele><time>2023-08-31T20:31:51Z</time></trkpt><trkpt lat="58.059713" lon="38.81652"><ele>102.5</ele><time>2023-08-31T20:31:53Z</time></trkpt><trkpt lat="58.059705" lon="38.816713"><ele>102.1</ele><time>2023-08-31T20:31:55Z</time></trkpt><trkpt lat="58.059698" lon="38.816878"><ele>101.6</ele><time>2023-08-31T20:31:57Z</time></trkpt><trkpt lat="58.059708" lon="38.817042"><ele>101.5</ele><time>2023-08-31T20:31:59Z</time></trkpt><trkpt lat="58.059718" lon="38.81721"><ele>101.3</ele><time>2023-08-31T20:32:01Z</time></trkpt><trkpt lat="58.059723" lon="38.817367"><ele>100.9</ele><time>2023-08-31T20:32:03Z</time></trkpt><trkpt lat="58.059713" lon="38.817518"><ele>100.7</ele><time>2023-08-31T20:32:05Z</time></trkpt><trkpt lat="58.059723" lon="38.81769"><ele>99.7</ele><time>2023-08-31T20:32:08Z</time></trkpt><trkpt lat="58.059808" lon="38.817788"><ele>100.5</ele><time>2023-08-31T20:32:11Z</time></trkpt><trkpt lat="58.059898" lon="38.817835"><ele>100.4</ele><time>2023-08-31T20:32:13Z</time></trkpt><trkpt lat="58.059947" lon="38.817943"><ele>100.1</ele><time>2023-08-31T20:32:15Z</time></trkpt><trkpt lat="58.05993" lon="38.818125"><ele>100.1</ele><time>2023-08-31T20:32:17Z</time></trkpt><trkpt lat="58.059917" lon="38.81828"><ele>100.7</ele><time>2023-08-31T20:32:19Z</time></trkpt><trkpt lat="58.059902" lon="38.818463"><ele>100.8</ele><time>2023-08-31T20:32:21Z</time></trkpt><trkpt lat="58.059887" lon="38.818628"><ele>100.8</ele><time>2023-08-31T20:32:23Z</time></trkpt><trkpt lat="58.059868" lon="38.818797"><ele>100.8</ele><time>2023-08-31T20:32:25Z</time></trkpt><trkpt lat="58.059847" lon="38.818952"><ele>100.3</ele><time>2023-08-31T20:32:27Z</time></trkpt><trkpt lat="58.059838" lon="38.819122"><ele>100.7</ele><time>2023-08-31T20:32:29Z</time></trkpt><trkpt lat="58.059822" lon="38.819318"><ele>101.2</ele><time>2023-08-31T20:32:31Z</time></trkpt><trkpt lat="58.059795" lon="38.819518"><ele>101.2</ele><time>2023-08-31T20:32:33Z</time></trkpt><trkpt lat="58.05977" lon="38.819702"><ele>100.1</ele><time>2023-08-31T20:32:35Z</time></trkpt><trkpt lat="58.059758" lon="38.81991"><ele>99.9</ele><time>2023-08-31T20:32:37Z</time></trkpt><trkpt lat="58.059742" lon="38.820105"><ele>100.0</ele><time>2023-08-31T20:32:39Z</time></trkpt><trkpt lat="58.05973" lon="38.820275"><ele>99.5</ele><time>2023-08-31T20:32:41Z</time></trkpt><trkpt lat="58.05974" lon="38.820458"><ele>99.5</ele><time>2023-08-31T20:32:44Z</time></trkpt><trkpt lat="58.059798" lon="38.820563"><ele>98.9</ele><time>2023-08-31T20:32:47Z</time></trkpt><trkpt lat="58.059888" lon="38.820623"><ele>99.5</ele><time>2023-08-31T20:32:51Z</time></trkpt><trkpt lat="58.059948" lon="38.820727"><ele>100.1</ele><time>2023-08-31T20:32:55Z</time></trkpt><trkpt lat="58.059935" lon="38.820862"><ele>99.7</ele><time>2023-08-31T20:32:58Z</time></trkpt><trkpt lat="58.059987" lon="38.820957"><ele>98.4</ele><time>2023-08-31T20:33:22Z</time></trkpt><trkpt lat="58.059877" lon="38.820945"><ele>97.3</ele><time>2023-08-31T20:34:14Z</time></trkpt><trkpt lat="58.059928" lon="38.821468"><ele>98.6</ele><time>2023-08-31T20:35:35Z</time></trkpt><trkpt lat="58.059923" lon="38.821307"><ele>96.9</ele><time>2023-08-31T20:35:38Z</time></trkpt><trkpt lat="58.059947" lon="38.821108"><ele>96.5</ele><time>2023-08-31T20:35:43Z</time></trkpt><trkpt lat="58.059913" lon="38.821235"><ele>98.5</ele><time>2023-08-31T20:36:23Z</time></trkpt><trkpt lat="58.059863" lon="38.82134"><ele>98.6</ele><time>2023-08-31T20:36:25Z</time></trkpt><trkpt lat="58.0598" lon="38.821427"><ele>98.2</ele><time>2023-08-31T20:36:27Z</time></trkpt><trkpt lat="58.05972" lon="38.821565"><ele>98.8</ele><time>2023-08-31T20:36:30Z</time></trkpt><trkpt lat="58.059692" lon="38.821708"><ele>99.1</ele><time>2023-08-31T20:36:32Z</time></trkpt><trkpt lat="58.059685" lon="38.821867"><ele>99.4</ele><time>2023-08-31T20:36:34Z</time></trkpt><trkpt lat="58.059672" lon="38.822027"><ele>99.7</ele><time>2023-08-31T20:36:36Z</time></trkpt><trkpt lat="58.059662" lon="38.822183"><ele>100.2</ele><time>2023-08-31T20:36:38Z</time></trkpt><trkpt lat="58.059653" lon="38.822343"><ele>99.9</ele><time>2023-08-31T20:36:40Z</time></trkpt><trkpt lat="58.05965" lon="38.822503"><ele>99.8</ele><time>2023-08-31T20:36:42Z</time></trkpt><trkpt lat="58.059665" lon="38.822652"><ele>99.5</ele><time>2023-08-31T20:36:44Z</time></trkpt><trkpt lat="58.059648" lon="38.8228"><ele>98.8</ele><time>2023-08-31T20:36:46Z</time></trkpt><trkpt lat="58.059632" lon="38.822965"><ele>99.0</ele><time>2023-08-31T20:36:48Z</time></trkpt><trkpt lat="58.059582" lon="38.823147"><ele>99.3</ele><time>2023-08-31T20:36:50Z</time></trkpt><trkpt lat="58.05954" lon="38.823318"><ele>99.0</ele><time>2023-08-31T20:36:52Z</time></trkpt><trkpt lat="58.059485" lon="38.823492"><ele>98.6</ele><time>2023-08-31T20:36:54Z</time></trkpt><trkpt lat="58.059397" lon="38.823628"><ele>98.9</ele><time>2023-08-31T20:36:56Z</time></trkpt><trkpt lat="58.059315" lon="38.823803"><ele>98.0</ele><time>2023-08-31T20:36:58Z</time></trkpt><trkpt lat="58.059225" lon="38.823982"><ele>97.6</ele><time>2023-08-31T20:37:00Z</time></trkpt><trkpt lat="58.059148" lon="38.824117"><ele>98.1</ele><time>2023-08-31T20:37:02Z</time></trkpt><trkpt lat="58.059083" lon="38.824287"><ele>98.1</ele><time>2023-08-31T20:37:04Z</time></trkpt><trkpt lat="58.059068" lon="38.824483"><ele>97.4</ele><time>2023-08-31T20:37:06Z</time></trkpt><trkpt lat="58.059113" lon="38.824697"><ele>97.0</ele><time>2023-08-31T20:37:08Z</time></trkpt><trkpt lat="58.059163" lon="38.824863"><ele>97.2</ele><time>2023-08-31T20:37:10Z</time></trkpt><trkpt lat="58.05923" lon="38.825045"><ele>97.9</ele><time>2023-08-31T20:37:12Z</time></trkpt><trkpt lat="58.059295" lon="38.82523"><ele>97.9</ele><time>2023-08-31T20:37:14Z</time></trkpt><trkpt lat="58.059333" lon="38.825448"><ele>98.6</ele><time>2023-08-31T20:37:16Z</time></trkpt><trkpt lat="58.059372" lon="38.825628"><ele>98.3</ele><time>2023-08-31T20:37:18Z</time></trkpt><trkpt lat="58.059372" lon="38.825818"><ele>98.9</ele><time>2023-08-31T20:37:20Z</time></trkpt><trkpt lat="58.059428" lon="38.826005"><ele>98.8</ele><time>2023-08-31T20:37:22Z</time></trkpt><trkpt lat="58.059442" lon="38.826162"><ele>99.1</ele><time>2023-08-31T20:37:24Z</time></trkpt><trkpt lat="58.05945" lon="38.826298"><ele>100.1</ele><time>2023-08-31T20:37:26Z</time></trkpt><trkpt lat="58.059447" lon="38.826452"><ele>100.4</ele><time>2023-08-31T20:37:28Z</time></trkpt><trkpt lat="58.059388" lon="38.826582"><ele>101.3</ele><time>2023-08-31T20:37:30Z</time></trkpt><trkpt lat="58.059293" lon="38.826725"><ele>102.0</ele><time>2023-08-31T20:37:32Z</time></trkpt><trkpt lat="58.059227" lon="38.826883"><ele>101.0</ele><time>2023-08-31T20:37:34Z</time></trkpt><trkpt lat="58.059197" lon="38.827025"><ele>100.9</ele><time>2023-08-31T20:37:36Z</time></trkpt><trkpt lat="58.05914" lon="38.827207"><ele>100.7</ele><time>2023-08-31T20:37:38Z</time></trkpt><trkpt lat="58.059077" lon="38.827368"><ele>100.5</ele><time>2023-08-31T20:37:40Z</time></trkpt><trkpt lat="58.059025" lon="38.82752"><ele>101.0</ele><time>2023-08-31T20:37:42Z</time></trkpt><trkpt lat="58.05897" lon="38.827665"><ele>101.1</ele><time>2023-08-31T20:37:44Z</time></trkpt><trkpt lat="58.058912" lon="38.827827"><ele>101.6</ele><time>2023-08-31T20:37:46Z</time></trkpt><trkpt lat="58.058852" lon="38.827985"><ele>100.7</ele><time>2023-08-31T20:37:48Z</time></trkpt><trkpt lat="58.058805" lon="38.828148"><ele>100.0</ele><time>2023-08-31T20:37:50Z</time></trkpt><trkpt lat="58.058765" lon="38.82831"><ele>100.8</ele><time>2023-08-31T20:37:52Z</time></trkpt><trkpt lat="58.05873" lon="38.828458"><ele>101.1</ele><time>2023-08-31T20:37:54Z</time></trkpt><trkpt lat="58.058667" lon="38.828613"><ele>100.7</ele><time>2023-08-31T20:37:57Z</time></trkpt><trkpt lat="58.05861" lon="38.828728"><ele>97.6</ele><time>2023-08-31T20:37:59Z</time></trkpt><trkpt lat="58.058557" lon="38.828888"><ele>97.3</ele><time>2023-08-31T20:38:01Z</time></trkpt><trkpt lat="58.058483" lon="38.829042"><ele>96.8</ele><time>2023-08-31T20:38:03Z</time></trkpt><trkpt lat="58.058395" lon="38.829165"><ele>95.5</ele><time>2023-08-31T20:38:05Z</time></trkpt><trkpt lat="58.058312" lon="38.829278"><ele>95.4</ele><time>2023-08-31T20:38:07Z</time></trkpt><trkpt lat="58.05824" lon="38.829383"><ele>95.6</ele><time>2023-08-31T20:38:09Z</time></trkpt><trkpt lat="58.058158" lon="38.8295"><ele>94.9</ele><time>2023-08-31T20:38:11Z</time></trkpt><trkpt lat="58.058085" lon="38.82962"><ele>94.8</ele><time>2023-08-31T20:38:13Z</time></trkpt><trkpt lat="58.058013" lon="38.82974"><ele>94.5</ele><time>2023-08-31T20:38:15Z</time></trkpt><trkpt lat="58.057943" lon="38.829858"><ele>94.0</ele><time>2023-08-31T20:38:17Z</time></trkpt><trkpt lat="58.057882" lon="38.829958"><ele>92.8</ele><time>2023-08-31T20:38:19Z</time></trkpt><trkpt lat="58.057802" lon="38.830085"><ele>92.3</ele><time>2023-08-31T20:38:21Z</time></trkpt><trkpt lat="58.057722" lon="38.830167"><ele>92.3</ele><time>2023-08-31T20:38:23Z</time></trkpt><trkpt lat="58.05765" lon="38.83028"><ele>93.7</ele><time>2023-08-31T20:38:25Z</time></trkpt><trkpt lat="58.05757" lon="38.830387"><ele>94.1</ele><time>2023-08-31T20:38:27Z</time></trkpt><trkpt lat="58.057527" lon="38.830497"><ele>94.6</ele><time>2023-08-31T20:38:29Z</time></trkpt><trkpt lat="58.057477" lon="38.830623"><ele>94.7</ele><time>2023-08-31T20:38:31Z</time></trkpt><trkpt lat="58.057423" lon="38.830745"><ele>94.5</ele><time>2023-08-31T20:38:33Z</time></trkpt><trkpt lat="58.057352" lon="38.830877"><ele>94.1</ele><time>2023-08-31T20:38:35Z</time></trkpt><trkpt lat="58.057272" lon="38.830992"><ele>93.3</ele><time>2023-08-31T20:38:37Z</time></trkpt><trkpt lat="58.057183" lon="38.831115"><ele>93.0</ele><time>2023-08-31T20:38:39Z</time></trkpt><trkpt lat="58.0571" lon="38.831205"><ele>92.8</ele><time>2023-08-31T20:38:41Z</time></trkpt><trkpt lat="58.057022" lon="38.831298"><ele>92.9</ele><time>2023-08-31T20:38:43Z</time></trkpt><trkpt lat="58.056947" lon="38.831422"><ele>92.8</ele><time>2023-08-31T20:38:45Z</time></trkpt><trkpt lat="58.056885" lon="38.831563"><ele>92.7</ele><time>2023-08-31T20:38:48Z</time></trkpt><trkpt lat="58.056827" lon="38.831718"><ele>92.5</ele><time>2023-08-31T20:38:50Z</time></trkpt><trkpt lat="58.056763" lon="38.831888"><ele>92.9</ele><time>2023-08-31T20:38:52Z</time></trkpt><trkpt lat="58.056718" lon="38.832068"><ele>93.1</ele><time>2023-08-31T20:38:54Z</time></trkpt><trkpt lat="58.056667" lon="38.832232"><ele>93.7</ele><time>2023-08-31T20:38:56Z</time></trkpt><trkpt lat="58.056617" lon="38.832397"><ele>94.9</ele><time>2023-08-31T20:38:58Z</time></trkpt><trkpt lat="58.05657" lon="38.832553"><ele>94.6</ele><time>2023-08-31T20:39:00Z</time></trkpt><trkpt lat="58.056518" lon="38.83271"><ele>93.5</ele><time>2023-08-31T20:39:02Z</time></trkpt><trkpt lat="58.056472" lon="38.832855"><ele>94.5</ele><time>2023-08-31T20:39:04Z</time></trkpt><trkpt lat="58.056428" lon="38.832992"><ele>94.6</ele><time>2023-08-31T20:39:06Z</time></trkpt><trkpt lat="58.056388" lon="38.833127"><ele>95.0</ele><time>2023-08-31T20:39:08Z</time></trkpt><trkpt lat="58.056342" lon="38.833267"><ele>95.5</ele><time>2023-08-31T20:39:10Z</time></trkpt><trkpt lat="58.056292" lon="38.833437"><ele>95.0</ele><time>2023-08-31T20:39:12Z</time></trkpt><trkpt lat="58.05624" lon="38.833592"><ele>94.4</ele><time>2023-08-31T20:39:14Z</time></trkpt><trkpt lat="58.056193" lon="38.833755"><ele>94.2</ele><time>2023-08-31T20:39:16Z</time></trkpt><trkpt lat="58.05615" lon="38.83392"><ele>94.4</ele><time>2023-08-31T20:39:18Z</time></trkpt><trkpt lat="58.056095" lon="38.834085"><ele>94.3</ele><time>2023-08-31T20:39:20Z</time></trkpt><trkpt lat="58.056047" lon="38.834245"><ele>94.5</ele><time>2023-08-31T20:39:22Z</time></trkpt><trkpt lat="58.056003" lon="38.834397"><ele>94.4</ele><time>2023-08-31T20:39:24Z</time></trkpt><trkpt lat="58.055957" lon="38.834545"><ele>94.6</ele><time>2023-08-31T20:39:26Z</time></trkpt><trkpt lat="58.055913" lon="38.834697"><ele>94.2</ele><time>2023-08-31T20:39:28Z</time></trkpt><trkpt lat="58.055867" lon="38.834847"><ele>94.0</ele><time>2023-08-31T20:39:30Z</time></trkpt><trkpt lat="58.055827" lon="38.834998"><ele>94.0</ele><time>2023-08-31T20:39:32Z</time></trkpt><trkpt lat="58.05578" lon="38.835147"><ele>94.0</ele><time>2023-08-31T20:39:34Z</time></trkpt><trkpt lat="58.055727" lon="38.835293"><ele>94.2</ele><time>2023-08-31T20:39:36Z</time></trkpt><trkpt lat="58.055683" lon="38.835443"><ele>94.7</ele><time>2023-08-31T20:39:38Z</time></trkpt><trkpt lat="58.055627" lon="38.835595"><ele>94.7</ele><time>2023-08-31T20:39:40Z</time></trkpt><trkpt lat="58.055578" lon="38.835748"><ele>94.1</ele><time>2023-08-31T20:39:42Z</time></trkpt><trkpt lat="58.055528" lon="38.8359"><ele>94.0</ele><time>2023-08-31T20:39:44Z</time></trkpt><trkpt lat="58.055472" lon="38.836037"><ele>94.0</ele><time>2023-08-31T20:39:46Z</time></trkpt><trkpt lat="58.055425" lon="38.836188"><ele>94.0</ele><time>2023-08-31T20:39:48Z</time></trkpt><trkpt lat="58.05538" lon="38.83634"><ele>93.9</ele><time>2023-08-31T20:39:50Z</time></trkpt><trkpt lat="58.05533" lon="38.836488"><ele>93.9</ele><time>2023-08-31T20:39:52Z</time></trkpt><trkpt lat="58.055287" lon="38.836647"><ele>93.5</ele><time>2023-08-31T20:39:54Z</time></trkpt><trkpt lat="58.055247" lon="38.83678"><ele>93.6</ele><time>2023-08-31T20:39:56Z</time></trkpt><trkpt lat="58.055198" lon="38.836915"><ele>93.1</ele><time>2023-08-31T20:39:58Z</time></trkpt><trkpt lat="58.055153" lon="38.837063"><ele>93.1</ele><time>2023-08-31T20:40:00Z</time></trkpt><trkpt lat="58.0551" lon="38.837217"><ele>93.3</ele><time>2023-08-31T20:40:02Z</time></trkpt><trkpt lat="58.055082" lon="38.837355"><ele>92.7</ele><time>2023-08-31T20:40:04Z</time></trkpt><trkpt lat="58.055037" lon="38.837498"><ele>93.1</ele><time>2023-08-31T20:40:06Z</time></trkpt><trkpt lat="58.054997" lon="38.83764"><ele>92.6</ele><time>2023-08-31T20:40:08Z</time></trkpt><trkpt lat="58.054958" lon="38.837803"><ele>92.8</ele><time>2023-08-31T20:40:10Z</time></trkpt><trkpt lat="58.054907" lon="38.837945"><ele>92.4</ele><time>2023-08-31T20:40:12Z</time></trkpt><trkpt lat="58.054852" lon="38.838087"><ele>92.9</ele><time>2023-08-31T20:40:14Z</time></trkpt><trkpt lat="58.054803" lon="38.838235"><ele>93.3</ele><time>2023-08-31T20:40:16Z</time></trkpt><trkpt lat="58.054748" lon="38.838395"><ele>93.7</ele><time>2023-08-31T20:40:18Z</time></trkpt><trkpt lat="58.0547" lon="38.838512"><ele>93.7</ele><time>2023-08-31T20:40:20Z</time></trkpt><trkpt lat="58.054658" lon="38.838662"><ele>93.9</ele><time>2023-08-31T20:40:22Z</time></trkpt><trkpt lat="58.054603" lon="38.838802"><ele>94.4</ele><time>2023-08-31T20:40:24Z</time></trkpt><trkpt lat="58.05456" lon="38.838945"><ele>93.5</ele><time>2023-08-31T20:40:26Z</time></trkpt><trkpt lat="58.054512" lon="38.839092"><ele>93.4</ele><time>2023-08-31T20:40:28Z</time></trkpt><trkpt lat="58.054435" lon="38.83925"><ele>93.2</ele><time>2023-08-31T20:40:30Z</time></trkpt><trkpt lat="58.05439" lon="38.839373"><ele>92.3</ele><time>2023-08-31T20:40:32Z</time></trkpt><trkpt lat="58.054347" lon="38.839518"><ele>92.5</ele><time>2023-08-31T20:40:34Z</time></trkpt><trkpt lat="58.054297" lon="38.839665"><ele>92.7</ele><time>2023-08-31T20:40:36Z</time></trkpt><trkpt lat="58.054252" lon="38.83982"><ele>93.2</ele><time>2023-08-31T20:40:38Z</time></trkpt><trkpt lat="58.0542" lon="38.839967"><ele>93.3</ele><time>2023-08-31T20:40:40Z</time></trkpt><trkpt lat="58.054162" lon="38.840107"><ele>93.7</ele><time>2023-08-31T20:40:42Z</time></trkpt><trkpt lat="58.054115" lon="38.840252"><ele>93.7</ele><time>2023-08-31T20:40:44Z</time></trkpt><trkpt lat="58.05406" lon="38.840392"><ele>93.7</ele><time>2023-08-31T20:40:46Z</time></trkpt><trkpt lat="58.054005" lon="38.840528"><ele>93.7</ele><time>2023-08-31T20:40:48Z</time></trkpt><trkpt lat="58.05394" lon="38.840663"><ele>93.2</ele><time>2023-08-31T20:40:50Z</time></trkpt><trkpt lat="58.053903" lon="38.84083"><ele>94.1</ele><time>2023-08-31T20:40:52Z</time></trkpt><trkpt lat="58.05385" lon="38.840958"><ele>94.0</ele><time>2023-08-31T20:40:54Z</time></trkpt><trkpt lat="58.053797" lon="38.84108"><ele>93.3</ele><time>2023-08-31T20:40:56Z</time></trkpt><trkpt lat="58.05374" lon="38.841202"><ele>92.9</ele><time>2023-08-31T20:40:58Z</time></trkpt><trkpt lat="58.053675" lon="38.841335"><ele>93.0</ele><time>2023-08-31T20:41:00Z</time></trkpt><trkpt lat="58.053627" lon="38.841482"><ele>93.0</ele><time>2023-08-31T20:41:02Z</time></trkpt><trkpt lat="58.053567" lon="38.84164"><ele>93.7</ele><time>2023-08-31T20:41:04Z</time></trkpt><trkpt lat="58.05353" lon="38.841788"><ele>93.1</ele><time>2023-08-31T20:41:06Z</time></trkpt><trkpt lat="58.053478" lon="38.84194"><ele>92.6</ele><time>2023-08-31T20:41:08Z</time></trkpt><trkpt lat="58.053418" lon="38.842087"><ele>93.0</ele><time>2023-08-31T20:41:10Z</time></trkpt><trkpt lat="58.053377" lon="38.84224"><ele>93.5</ele><time>2023-08-31T20:41:12Z</time></trkpt><trkpt lat="58.053355" lon="38.842403"><ele>93.7</ele><time>2023-08-31T20:41:14Z</time></trkpt><trkpt lat="58.053313" lon="38.842535"><ele>93.2</ele><time>2023-08-31T20:41:16Z</time></trkpt><trkpt lat="58.05327" lon="38.842683"><ele>93.0</ele><time>2023-08-31T20:41:18Z</time></trkpt><trkpt lat="58.053217" lon="38.842833"><ele>92.3</ele><time>2023-08-31T20:41:20Z</time></trkpt><trkpt lat="58.053165" lon="38.842995"><ele>92.3</ele><time>2023-08-31T20:41:22Z</time></trkpt><trkpt lat="58.053113" lon="38.84315"><ele>92.8</ele><time>2023-08-31T20:41:24Z</time></trkpt><trkpt lat="58.053063" lon="38.843298"><ele>92.9</ele><time>2023-08-31T20:41:26Z</time></trkpt><trkpt lat="58.053032" lon="38.843443"><ele>93.2</ele><time>2023-08-31T20:41:28Z</time></trkpt><trkpt lat="58.052992" lon="38.843583"><ele>93.1</ele><time>2023-08-31T20:41:30Z</time></trkpt><trkpt lat="58.052933" lon="38.843712"><ele>92.8</ele><time>2023-08-31T20:41:32Z</time></trkpt><trkpt lat="58.052867" lon="38.843835"><ele>92.1</ele><time>2023-08-31T20:41:34Z</time></trkpt><trkpt lat="58.052835" lon="38.843992"><ele>92.6</ele><time>2023-08-31T20:41:36Z</time></trkpt><trkpt lat="58.052783" lon="38.844108"><ele>93.4</ele><time>2023-08-31T20:41:38Z</time></trkpt><trkpt lat="58.052717" lon="38.844237"><ele>92.8</ele><time>2023-08-31T20:41:40Z</time></trkpt><trkpt lat="58.05267" lon="38.84439"><ele>93.3</ele><time>2023-08-31T20:41:42Z</time></trkpt><trkpt lat="58.052608" lon="38.844493"><ele>92.6</ele><time>2023-08-31T20:41:44Z</time></trkpt><trkpt lat="58.052552" lon="38.844602"><ele>91.9</ele><time>2023-08-31T20:41:46Z</time></trkpt><trkpt lat="58.05249" lon="38.844768"><ele>92.9</ele><time>2023-08-31T20:41:49Z</time></trkpt><trkpt lat="58.052438" lon="38.844877"><ele>92.1</ele><time>2023-08-31T20:41:51Z</time></trkpt><trkpt lat="58.052393" lon="38.844988"><ele>93.5</ele><time>2023-08-31T20:41:53Z</time></trkpt><trkpt lat="58.052358" lon="38.845177"><ele>94.6</ele><time>2023-08-31T20:41:56Z</time></trkpt><trkpt lat="58.052338" lon="38.84534"><ele>93.9</ele><time>2023-08-31T20:41:58Z</time></trkpt><trkpt lat="58.052332" lon="38.845535"><ele>93.4</ele><time>2023-08-31T20:42:00Z</time></trkpt><trkpt lat="58.052312" lon="38.845707"><ele>93.3</ele><time>2023-08-31T20:42:02Z</time></trkpt><trkpt lat="58.052293" lon="38.845873"><ele>92.3</ele><time>2023-08-31T20:42:04Z</time></trkpt><trkpt lat="58.052282" lon="38.846057"><ele>92.2</ele><time>2023-08-31T20:42:06Z</time></trkpt><trkpt lat="58.052232" lon="38.846225"><ele>92.5</ele><time>2023-08-31T20:42:08Z</time></trkpt><trkpt lat="58.052188" lon="38.846385"><ele>93.1</ele><time>2023-08-31T20:42:10Z</time></trkpt><trkpt lat="58.052147" lon="38.846538"><ele>93.8</ele><time>2023-08-31T20:42:12Z</time></trkpt><trkpt lat="58.05212" lon="38.846675"><ele>93.9</ele><time>2023-08-31T20:42:14Z</time></trkpt><trkpt lat="58.05208" lon="38.846813"><ele>94.2</ele><time>2023-08-31T20:42:16Z</time></trkpt><trkpt lat="58.052032" lon="38.846968"><ele>95.0</ele><time>2023-08-31T20:42:18Z</time></trkpt><trkpt lat="58.051997" lon="38.847123"><ele>94.2</ele><time>2023-08-31T20:42:20Z</time></trkpt><trkpt lat="58.051955" lon="38.847255"><ele>94.1</ele><time>2023-08-31T20:42:22Z</time></trkpt><trkpt lat="58.051938" lon="38.847423"><ele>94.1</ele><time>2023-08-31T20:42:24Z</time></trkpt><trkpt lat="58.051908" lon="38.847613"><ele>95.0</ele><time>2023-08-31T20:42:26Z</time></trkpt><trkpt lat="58.051887" lon="38.84781"><ele>95.5</ele><time>2023-08-31T20:42:28Z</time></trkpt><trkpt lat="58.05185" lon="38.84801"><ele>95.1</ele><time>2023-08-31T20:42:30Z</time></trkpt><trkpt lat="58.051822" lon="38.848202"><ele>95.2</ele><time>2023-08-31T20:42:32Z</time></trkpt><trkpt lat="58.051768" lon="38.84839"><ele>94.5</ele><time>2023-08-31T20:42:34Z</time></trkpt><trkpt lat="58.051727" lon="38.848583"><ele>93.9</ele><time>2023-08-31T20:42:36Z</time></trkpt><trkpt lat="58.051678" lon="38.848757"><ele>92.9</ele><time>2023-08-31T20:42:38Z</time></trkpt><trkpt lat="58.051637" lon="38.848912"><ele>92.3</ele><time>2023-08-31T20:42:40Z</time></trkpt><trkpt lat="58.051592" lon="38.849052"><ele>92.5</ele><time>2023-08-31T20:42:42Z</time></trkpt><trkpt lat="58.051552" lon="38.849207"><ele>92.3</ele><time>2023-08-31T20:42:44Z</time></trkpt><trkpt lat="58.051518" lon="38.849358"><ele>92.7</ele><time>2023-08-31T20:42:46Z</time></trkpt><trkpt lat="58.051465" lon="38.849522"><ele>92.3</ele><time>2023-08-31T20:42:48Z</time></trkpt><trkpt lat="58.051407" lon="38.849673"><ele>91.7</ele><time>2023-08-31T20:42:50Z</time></trkpt><trkpt lat="58.051357" lon="38.84982"><ele>93.1</ele><time>2023-08-31T20:42:52Z</time></trkpt><trkpt lat="58.051308" lon="38.850003"><ele>93.0</ele><time>2023-08-31T20:42:54Z</time></trkpt><trkpt lat="58.051255" lon="38.850167"><ele>93.0</ele><time>2023-08-31T20:42:56Z</time></trkpt><trkpt lat="58.051207" lon="38.85033"><ele>93.7</ele><time>2023-08-31T20:42:58Z</time></trkpt><trkpt lat="58.051158" lon="38.85049"><ele>93.7</ele><time>2023-08-31T20:43:00Z</time></trkpt><trkpt lat="58.051107" lon="38.850635"><ele>93.0</ele><time>2023-08-31T20:43:02Z</time></trkpt><trkpt lat="58.051065" lon="38.850772"><ele>92.9</ele><time>2023-08-31T20:43:04Z</time></trkpt><trkpt lat="58.051023" lon="38.850912"><ele>93.1</ele><time>2023-08-31T20:43:06Z</time></trkpt><trkpt lat="58.05097" lon="38.851058"><ele>94.2</ele><time>2023-08-31T20:43:08Z</time></trkpt><trkpt lat="58.050922" lon="38.851202"><ele>93.4</ele><time>2023-08-31T20:43:10Z</time></trkpt><trkpt lat="58.050885" lon="38.851337"><ele>94.3</ele><time>2023-08-31T20:43:12Z</time></trkpt><trkpt lat="58.050825" lon="38.85148"><ele>94.5</ele><time>2023-08-31T20:43:14Z</time></trkpt><trkpt lat="58.050778" lon="38.85164"><ele>95.1</ele><time>2023-08-31T20:43:16Z</time></trkpt><trkpt lat="58.050735" lon="38.851795"><ele>94.8</ele><time>2023-08-31T20:43:18Z</time></trkpt><trkpt lat="58.050698" lon="38.851928"><ele>94.3</ele><time>2023-08-31T20:43:20Z</time></trkpt><trkpt lat="58.050658" lon="38.852072"><ele>94.1</ele><time>2023-08-31T20:43:22Z</time></trkpt><trkpt lat="58.050612" lon="38.852195"><ele>93.9</ele><time>2023-08-31T20:43:24Z</time></trkpt><trkpt lat="58.05056" lon="38.852302"><ele>94.0</ele><time>2023-08-31T20:43:27Z</time></trkpt><trkpt lat="58.050497" lon="38.852447"><ele>94.0</ele><time>2023-08-31T20:43:30Z</time></trkpt><trkpt lat="58.05045" lon="38.852557"><ele>95.1</ele><time>2023-08-31T20:43:32Z</time></trkpt><trkpt lat="58.050412" lon="38.852677"><ele>94.9</ele><time>2023-08-31T20:43:34Z</time></trkpt><trkpt lat="58.050367" lon="38.852837"><ele>94.5</ele><time>2023-08-31T20:43:37Z</time></trkpt><trkpt lat="58.050318" lon="38.852945"><ele>93.7</ele><time>2023-08-31T20:43:42Z</time></trkpt><trkpt lat="58.050272" lon="38.853072"><ele>92.7</ele><time>2023-08-31T20:43:46Z</time></trkpt><trkpt lat="58.050243" lon="38.853203"><ele>93.0</ele><time>2023-08-31T20:43:49Z</time></trkpt><trkpt lat="58.050215" lon="38.853355"><ele>94.0</ele><time>2023-08-31T20:43:52Z</time></trkpt><trkpt lat="58.050198" lon="38.85354"><ele>94.5</ele><time>2023-08-31T20:43:55Z</time></trkpt><trkpt lat="58.050177" lon="38.853742"><ele>95.3</ele><time>2023-08-31T20:43:58Z</time></trkpt><trkpt lat="58.050157" lon="38.853887"><ele>95.9</ele><time>2023-08-31T20:44:00Z</time></trkpt><trkpt lat="58.050137" lon="38.854032"><ele>96.1</ele><time>2023-08-31T20:44:02Z</time></trkpt><trkpt lat="58.050112" lon="38.854167"><ele>96.0</ele><time>2023-08-31T20:44:04Z</time></trkpt><trkpt lat="58.050093" lon="38.8543"><ele>96.3</ele><time>2023-08-31T20:44:06Z</time></trkpt><trkpt lat="58.05007" lon="38.854433"><ele>96.3</ele><time>2023-08-31T20:44:08Z</time></trkpt><trkpt lat="58.050033" lon="38.854608"><ele>95.8</ele><time>2023-08-31T20:44:11Z</time></trkpt><trkpt lat="58.050007" lon="38.854768"><ele>96.1</ele><time>2023-08-31T20:44:13Z</time></trkpt><trkpt lat="58.050005" lon="38.854943"><ele>96.2</ele><time>2023-08-31T20:44:15Z</time></trkpt><trkpt lat="58.049992" lon="38.85512"><ele>96.4</ele><time>2023-08-31T20:44:17Z</time></trkpt><trkpt lat="58.049962" lon="38.85527"><ele>96.3</ele><time>2023-08-31T20:44:19Z</time></trkpt><trkpt lat="58.049923" lon="38.85544"><ele>95.7</ele><time>2023-08-31T20:44:21Z</time></trkpt><trkpt lat="58.0499" lon="38.855605"><ele>96.1</ele><time>2023-08-31T20:44:23Z</time></trkpt><trkpt lat="58.049867" lon="38.855788"><ele>96.5</ele><time>2023-08-31T20:44:25Z</time></trkpt><trkpt lat="58.049835" lon="38.855965"><ele>95.9</ele><time>2023-08-31T20:44:27Z</time></trkpt><trkpt lat="58.049792" lon="38.856115"><ele>96.0</ele><time>2023-08-31T20:44:29Z</time></trkpt><trkpt lat="58.049748" lon="38.856265"><ele>95.8</ele><time>2023-08-31T20:44:31Z</time></trkpt><trkpt lat="58.049712" lon="38.856417"><ele>96.5</ele><time>2023-08-31T20:44:33Z</time></trkpt><trkpt lat="58.04969" lon="38.856563"><ele>96.2</ele><time>2023-08-31T20:44:35Z</time></trkpt><trkpt lat="58.04967" lon="38.856708"><ele>96.0</ele><time>2023-08-31T20:44:37Z</time></trkpt><trkpt lat="58.049638" lon="38.856842"><ele>95.2</ele><time>2023-08-31T20:44:39Z</time></trkpt><trkpt lat="58.049597" lon="38.857018"><ele>95.2</ele><time>2023-08-31T20:44:42Z</time></trkpt><trkpt lat="58.049555" lon="38.857152"><ele>94.7</ele><time>2023-08-31T20:44:45Z</time></trkpt><trkpt lat="58.049508" lon="38.857258"><ele>96.1</ele><time>2023-08-31T20:44:49Z</time></trkpt><trkpt lat="58.049538" lon="38.857385"><ele>96.8</ele><time>2023-08-31T20:44:55Z</time></trkpt><trkpt lat="58.049555" lon="38.857252"><ele>97.5</ele><time>2023-08-31T20:44:59Z</time></trkpt><trkpt lat="58.049575" lon="38.85711"><ele>97.0</ele><time>2023-08-31T20:45:03Z</time></trkpt><trkpt lat="58.049513" lon="38.857188"><ele>96.9</ele><time>2023-08-31T20:45:06Z</time></trkpt><trkpt lat="58.049465" lon="38.857347"><ele>97.3</ele><time>2023-08-31T20:45:08Z</time></trkpt><trkpt lat="58.049383" lon="38.85754"><ele>97.0</ele><time>2023-08-31T20:45:10Z</time></trkpt><trkpt lat="58.049337" lon="38.857697"><ele>96.8</ele><time>2023-08-31T20:45:12Z</time></trkpt><trkpt lat="58.049277" lon="38.857838"><ele>97.1</ele><time>2023-08-31T20:45:14Z</time></trkpt><trkpt lat="58.049217" lon="38.857957"><ele>97.6</ele><time>2023-08-31T20:45:16Z</time></trkpt><trkpt lat="58.04917" lon="38.858092"><ele>98.1</ele><time>2023-08-31T20:45:18Z</time></trkpt><trkpt lat="58.049132" lon="38.858227"><ele>98.0</ele><time>2023-08-31T20:45:20Z</time></trkpt><trkpt lat="58.049092" lon="38.858352"><ele>98.2</ele><time>2023-08-31T20:45:22Z</time></trkpt><trkpt lat="58.04904" lon="38.858522"><ele>99.1</ele><time>2023-08-31T20:45:25Z</time></trkpt><trkpt lat="58.04899" lon="38.858638"><ele>99.9</ele><time>2023-08-31T20:45:28Z</time></trkpt><trkpt lat="58.048943" lon="38.858767"><ele>100.6</ele><time>2023-08-31T20:45:36Z</time></trkpt><trkpt lat="58.04892" lon="38.858922"><ele>100.1</ele><time>2023-08-31T20:45:40Z</time></trkpt><trkpt lat="58.048835" lon="38.858945"><ele>99.3</ele><time>2023-08-31T20:45:45Z</time></trkpt><trkpt lat="58.048758" lon="38.858832"><ele>99.4</ele><time>2023-08-31T20:45:48Z</time></trkpt><trkpt lat="58.048685" lon="38.858807"><ele>100.2</ele><time>2023-08-31T20:45:52Z</time></trkpt><trkpt lat="58.048645" lon="38.858923"><ele>100.1</ele><time>2023-08-31T20:45:55Z</time></trkpt><trkpt lat="58.04862" lon="38.859095"><ele>100.2</ele><time>2023-08-31T20:45:58Z</time></trkpt><trkpt lat="58.048592" lon="38.859258"><ele>99.9</ele><time>2023-08-31T20:46:01Z</time></trkpt><trkpt lat="58.048558" lon="38.859408"><ele>99.0</ele><time>2023-08-31T20:46:04Z</time></trkpt><trkpt lat="58.048528" lon="38.859552"><ele>99.1</ele><time>2023-08-31T20:46:07Z</time></trkpt><trkpt lat="58.048495" lon="38.859682"><ele>98.9</ele><time>2023-08-31T20:46:10Z</time></trkpt><trkpt lat="58.048462" lon="38.859847"><ele>99.0</ele><time>2023-08-31T20:46:14Z</time></trkpt><trkpt lat="58.048412" lon="38.859992"><ele>99.3</ele><time>2023-08-31T20:46:18Z</time></trkpt><trkpt lat="58.048373" lon="38.860137"><ele>99.7</ele><time>2023-08-31T20:46:24Z</time></trkpt><trkpt lat="58.048378" lon="38.860292"><ele>99.8</ele><time>2023-08-31T20:46:29Z</time></trkpt><trkpt lat="58.048363" lon="38.860457"><ele>99.7</ele><time>2023-08-31T20:46:33Z</time></trkpt><trkpt lat="58.048342" lon="38.860642"><ele>101.0</ele><time>2023-08-31T20:46:36Z</time></trkpt><trkpt lat="58.048318" lon="38.860792"><ele>100.0</ele><time>2023-08-31T20:46:38Z</time></trkpt><trkpt lat="58.048283" lon="38.860935"><ele>100.1</ele><time>2023-08-31T20:46:40Z</time></trkpt><trkpt lat="58.048247" lon="38.86108"><ele>99.6</ele><time>2023-08-31T20:46:42Z</time></trkpt><trkpt lat="58.048207" lon="38.861235"><ele>99.6</ele><time>2023-08-31T20:46:44Z</time></trkpt><trkpt lat="58.048175" lon="38.861393"><ele>99.7</ele><time>2023-08-31T20:46:46Z</time></trkpt><trkpt lat="58.048143" lon="38.861548"><ele>99.9</ele><time>2023-08-31T20:46:48Z</time></trkpt><trkpt lat="58.048115" lon="38.861698"><ele>100.4</ele><time>2023-08-31T20:46:50Z</time></trkpt><trkpt lat="58.048092" lon="38.861842"><ele>100.8</ele><time>2023-08-31T20:46:52Z</time></trkpt><trkpt lat="58.048063" lon="38.861985"><ele>100.6</ele><time>2023-08-31T20:46:54Z</time></trkpt><trkpt lat="58.048035" lon="38.862127"><ele>100.8</ele><time>2023-08-31T20:46:56Z</time></trkpt><trkpt lat="58.048" lon="38.862268"><ele>100.5</ele><time>2023-08-31T20:46:58Z</time></trkpt><trkpt lat="58.047972" lon="38.862407"><ele>100.5</ele><time>2023-08-31T20:47:00Z</time></trkpt><trkpt lat="58.047948" lon="38.862557"><ele>100.6</ele><time>2023-08-31T20:47:02Z</time></trkpt><trkpt lat="58.047923" lon="38.862705"><ele>100.4</ele><time>2023-08-31T20:47:04Z</time></trkpt><trkpt lat="58.047898" lon="38.862857"><ele>100.6</ele><time>2023-08-31T20:47:06Z</time></trkpt><trkpt lat="58.047873" lon="38.863003"><ele>100.9</ele><time>2023-08-31T20:47:08Z</time></trkpt><trkpt lat="58.047837" lon="38.863137"><ele>99.8</ele><time>2023-08-31T20:47:10Z</time></trkpt><trkpt lat="58.047802" lon="38.863267"><ele>99.8</ele><time>2023-08-31T20:47:12Z</time></trkpt><trkpt lat="58.047768" lon="38.863447"><ele>99.9</ele><time>2023-08-31T20:47:15Z</time></trkpt><trkpt lat="58.047742" lon="38.863617"><ele>100.4</ele><time>2023-08-31T20:47:18Z</time></trkpt><trkpt lat="58.047708" lon="38.863805"><ele>100.3</ele><time>2023-08-31T20:47:21Z</time></trkpt><trkpt lat="58.047668" lon="38.863975"><ele>100.3</ele><time>2023-08-31T20:47:24Z</time></trkpt><trkpt lat="58.047637" lon="38.864157"><ele>100.3</ele><time>2023-08-31T20:47:27Z</time></trkpt><trkpt lat="58.047608" lon="38.864292"><ele>100.6</ele><time>2023-08-31T20:47:29Z</time></trkpt><trkpt lat="58.047585" lon="38.864435"><ele>101.3</ele><time>2023-08-31T20:47:31Z</time></trkpt><trkpt lat="58.047565" lon="38.864582"><ele>102.0</ele><time>2023-08-31T20:47:33Z</time></trkpt><trkpt lat="58.047537" lon="38.864723"><ele>102.7</ele><time>2023-08-31T20:47:35Z</time></trkpt><trkpt lat="58.047503" lon="38.864845"><ele>103.5</ele><time>2023-08-31T20:47:37Z</time></trkpt><trkpt lat="58.04747" lon="38.865022"><ele>101.4</ele><time>2023-08-31T20:47:40Z</time></trkpt><trkpt lat="58.047447" lon="38.865192"><ele>101.5</ele><time>2023-08-31T20:47:43Z</time></trkpt><trkpt lat="58.047412" lon="38.865365"><ele>100.7</ele><time>2023-08-31T20:47:46Z</time></trkpt><trkpt lat="58.047382" lon="38.865522"><ele>100.4</ele><time>2023-08-31T20:47:49Z</time></trkpt><trkpt lat="58.047355" lon="38.865662"><ele>100.1</ele><time>2023-08-31T20:47:52Z</time></trkpt><trkpt lat="58.047322" lon="38.865815"><ele>99.8</ele><time>2023-08-31T20:47:56Z</time></trkpt><trkpt lat="58.047278" lon="38.865963"><ele>98.5</ele><time>2023-08-31T20:48:01Z</time></trkpt><trkpt lat="58.047268" lon="38.86612"><ele>98.3</ele><time>2023-08-31T20:48:04Z</time></trkpt><trkpt lat="58.047233" lon="38.866297"><ele>99.1</ele><time>2023-08-31T20:48:07Z</time></trkpt><trkpt lat="58.0472" lon="38.866472"><ele>99.2</ele><time>2023-08-31T20:48:10Z</time></trkpt><trkpt lat="58.047173" lon="38.866633"><ele>99.1</ele><time>2023-08-31T20:48:13Z</time></trkpt><trkpt lat="58.047145" lon="38.866763"><ele>100.9</ele><time>2023-08-31T20:48:16Z</time></trkpt><trkpt lat="58.047115" lon="38.866888"><ele>100.5</ele><time>2023-08-31T20:48:19Z</time></trkpt><trkpt lat="58.04709" lon="38.867038"><ele>101.6</ele><time>2023-08-31T20:48:23Z</time></trkpt><trkpt lat="58.047057" lon="38.867162"><ele>101.0</ele><time>2023-08-31T20:48:26Z</time></trkpt><trkpt lat="58.047012" lon="38.867318"><ele>100.8</ele><time>2023-08-31T20:48:29Z</time></trkpt><trkpt lat="58.047015" lon="38.86751"><ele>100.4</ele><time>2023-08-31T20:48:32Z</time></trkpt><trkpt lat="58.047025" lon="38.867697"><ele>100.2</ele><time>2023-08-31T20:48:35Z</time></trkpt><trkpt lat="58.047005" lon="38.867863"><ele>99.7</ele><time>2023-08-31T20:48:38Z</time></trkpt><trkpt lat="58.046995" lon="38.868007"><ele>99.4</ele><time>2023-08-31T20:48:40Z</time></trkpt><trkpt lat="58.046985" lon="38.868237"><ele>98.6</ele><time>2023-08-31T20:48:42Z</time></trkpt><trkpt lat="58.046962" lon="38.868513"><ele>97.5</ele><time>2023-08-31T20:48:44Z</time></trkpt><trkpt lat="58.046953" lon="38.868667"><ele>96.9</ele><time>2023-08-31T20:48:45Z</time></trkpt><trkpt lat="58.046947" lon="38.868823"><ele>96.3</ele><time>2023-08-31T20:48:46Z</time></trkpt><trkpt lat="58.046932" lon="38.868972"><ele>95.8</ele><time>2023-08-31T20:48:47Z</time></trkpt><trkpt lat="58.046912" lon="38.869107"><ele>95.8</ele><time>2023-08-31T20:48:48Z</time></trkpt><trkpt lat="58.046885" lon="38.86924"><ele>95.4</ele><time>2023-08-31T20:48:49Z</time></trkpt><trkpt lat="58.046833" lon="38.869463"><ele>94.4</ele><time>2023-08-31T20:48:51Z</time></trkpt><trkpt lat="58.04679" lon="38.869662"><ele>93.9</ele><time>2023-08-31T20:48:53Z</time></trkpt><trkpt lat="58.046752" lon="38.869858"><ele>94.0</ele><time>2023-08-31T20:48:55Z</time></trkpt><trkpt lat="58.046707" lon="38.870035"><ele>94.4</ele><time>2023-08-31T20:48:57Z</time></trkpt><trkpt lat="58.046663" lon="38.87021"><ele>94.3</ele><time>2023-08-31T20:48:59Z</time></trkpt><trkpt lat="58.04662" lon="38.870372"><ele>94.4</ele><time>2023-08-31T20:49:01Z</time></trkpt><trkpt lat="58.04659" lon="38.870543"><ele>93.9</ele><time>2023-08-31T20:49:03Z</time></trkpt><trkpt lat="58.046563" lon="38.870707"><ele>94.4</ele><time>2023-08-31T20:49:05Z</time></trkpt><trkpt lat="58.046527" lon="38.87086"><ele>94.6</ele><time>2023-08-31T20:49:07Z</time></trkpt><trkpt lat="58.046493" lon="38.871003"><ele>94.6</ele><time>2023-08-31T20:49:09Z</time></trkpt><trkpt lat="58.046467" lon="38.871163"><ele>94.6</ele><time>2023-08-31T20:49:11Z</time></trkpt><trkpt lat="58.046437" lon="38.871333"><ele>94.5</ele><time>2023-08-31T20:49:13Z</time></trkpt><trkpt lat="58.046403" lon="38.871498"><ele>94.2</ele><time>2023-08-31T20:49:15Z</time></trkpt><trkpt lat="58.046377" lon="38.87165"><ele>94.1</ele><time>2023-08-31T20:49:17Z</time></trkpt><trkpt lat="58.046345" lon="38.871783"><ele>94.6</ele><time>2023-08-31T20:49:19Z</time></trkpt><trkpt lat="58.046312" lon="38.871907"><ele>94.4</ele><time>2023-08-31T20:49:21Z</time></trkpt><trkpt lat="58.046277" lon="38.87203"><ele>94.2</ele><time>2023-08-31T20:49:23Z</time></trkpt><trkpt lat="58.046247" lon="38.872155"><ele>93.6</ele><time>2023-08-31T20:49:25Z</time></trkpt><trkpt lat="58.046215" lon="38.87228"><ele>93.5</ele><time>2023-08-31T20:49:27Z</time></trkpt><trkpt lat="58.04618" lon="38.872418"><ele>93.3</ele><time>2023-08-31T20:49:29Z</time></trkpt><trkpt lat="58.046143" lon="38.87257"><ele>93.2</ele><time>2023-08-31T20:49:31Z</time></trkpt><trkpt lat="58.046102" lon="38.872733"><ele>92.9</ele><time>2023-08-31T20:49:33Z</time></trkpt><trkpt lat="58.046062" lon="38.872888"><ele>92.7</ele><time>2023-08-31T20:49:35Z</time></trkpt><trkpt lat="58.046025" lon="38.87306"><ele>92.6</ele><time>2023-08-31T20:49:37Z</time></trkpt><trkpt lat="58.045988" lon="38.873242"><ele>92.3</ele><time>2023-08-31T20:49:39Z</time></trkpt><trkpt lat="58.045953" lon="38.87342"><ele>92.4</ele><time>2023-08-31T20:49:41Z</time></trkpt><trkpt lat="58.045948" lon="38.873557"><ele>92.8</ele><time>2023-08-31T20:49:44Z</time></trkpt><trkpt lat="58.045957" lon="38.873698"><ele>93.0</ele><time>2023-08-31T20:50:19Z</time></trkpt><trkpt lat="58.045938" lon="38.873842"><ele>93.5</ele><time>2023-08-31T20:50:38Z</time></trkpt><trkpt lat="58.045915" lon="38.873982"><ele>93.8</ele><time>2023-08-31T20:50:42Z</time></trkpt><trkpt lat="58.045892" lon="38.874122"><ele>93.7</ele><time>2023-08-31T20:50:45Z</time></trkpt><trkpt lat="58.045865" lon="38.87429"><ele>93.7</ele><time>2023-08-31T20:50:48Z</time></trkpt><trkpt lat="58.045843" lon="38.874448"><ele>93.8</ele><time>2023-08-31T20:50:51Z</time></trkpt><trkpt lat="58.045825" lon="38.874585"><ele>93.8</ele><time>2023-08-31T20:50:54Z</time></trkpt><trkpt lat="58.045807" lon="38.87474"><ele>93.8</ele><time>2023-08-31T20:50:58Z</time></trkpt><trkpt lat="58.045795" lon="38.874875"><ele>92.8</ele><time>2023-08-31T20:51:29Z</time></trkpt><trkpt lat="58.045775" lon="38.87504"><ele>92.8</ele><time>2023-08-31T20:51:33Z</time></trkpt><trkpt lat="58.045762" lon="38.875188"><ele>92.8</ele><time>2023-08-31T20:51:37Z</time></trkpt><trkpt lat="58.045747" lon="38.875362"><ele>93.0</ele><time>2023-08-31T20:51:41Z</time></trkpt><trkpt lat="58.04574" lon="38.875503"><ele>93.4</ele><time>2023-08-31T20:51:44Z</time></trkpt><trkpt lat="58.04574" lon="38.875668"><ele>93.8</ele><time>2023-08-31T20:51:47Z</time></trkpt><trkpt lat="58.045735" lon="38.875808"><ele>93.9</ele><time>2023-08-31T20:51:49Z</time></trkpt><trkpt lat="58.045727" lon="38.875958"><ele>92.9</ele><time>2023-08-31T20:51:51Z</time></trkpt><trkpt lat="58.045723" lon="38.876113"><ele>92.2</ele><time>2023-08-31T20:51:53Z</time></trkpt><trkpt lat="58.04572" lon="38.876273"><ele>92.0</ele><time>2023-08-31T20:51:55Z</time></trkpt><trkpt lat="58.045717" lon="38.876448"><ele>91.4</ele><time>2023-08-31T20:51:57Z</time></trkpt><trkpt lat="58.04573" lon="38.876623"><ele>91.2</ele><time>2023-08-31T20:51:59Z</time></trkpt><trkpt lat="58.04573" lon="38.876778"><ele>91.4</ele><time>2023-08-31T20:52:01Z</time></trkpt><trkpt lat="58.045733" lon="38.876923"><ele>92.2</ele><time>2023-08-31T20:52:03Z</time></trkpt><trkpt lat="58.045747" lon="38.87711"><ele>91.8</ele><time>2023-08-31T20:52:06Z</time></trkpt><trkpt lat="58.045757" lon="38.877292"><ele>92.0</ele><time>2023-08-31T20:52:09Z</time></trkpt><trkpt lat="58.045752" lon="38.877443"><ele>92.8</ele><time>2023-08-31T20:52:12Z</time></trkpt><trkpt lat="58.045737" lon="38.877595"><ele>93.2</ele><time>2023-08-31T20:52:15Z</time></trkpt><trkpt lat="58.0457" lon="38.877748"><ele>93.2</ele><time>2023-08-31T20:52:18Z</time></trkpt><trkpt lat="58.045665" lon="38.877882"><ele>93.4</ele><time>2023-08-31T20:52:21Z</time></trkpt><trkpt lat="58.045637" lon="38.878042"><ele>94.0</ele><time>2023-08-31T20:52:25Z</time></trkpt><trkpt lat="58.045632" lon="38.878213"><ele>92.9</ele><time>2023-08-31T20:53:53Z</time></trkpt><trkpt lat="58.045662" lon="38.87809"><ele>93.5</ele><time>2023-08-31T21:30:53Z</time></trkpt><trkpt lat="58.045695" lon="38.87793"><ele>93.9</ele><time>2023-08-31T21:30:57Z</time></trkpt><trkpt lat="58.045728" lon="38.877765"><ele>93.5</ele><time>2023-08-31T21:31:01Z</time></trkpt><trkpt lat="58.04576" lon="38.877602"><ele>93.1</ele><time>2023-08-31T21:31:05Z</time></trkpt><trkpt lat="58.045785" lon="38.877462"><ele>93.2</ele><time>2023-08-31T21:31:08Z</time></trkpt><trkpt lat="58.0458" lon="38.87731"><ele>93.0</ele><time>2023-08-31T21:31:11Z</time></trkpt><trkpt lat="58.045798" lon="38.877152"><ele>93.1</ele><time>2023-08-31T21:31:14Z</time></trkpt><trkpt lat="58.045793" lon="38.877003"><ele>92.8</ele><time>2023-08-31T21:31:17Z</time></trkpt><trkpt lat="58.045792" lon="38.876838"><ele>91.6</ele><time>2023-08-31T21:31:20Z</time></trkpt><trkpt lat="58.045783" lon="38.876688"><ele>91.7</ele><time>2023-08-31T21:31:23Z</time></trkpt><trkpt lat="58.045782" lon="38.87653"><ele>91.9</ele><time>2023-08-31T21:31:26Z</time></trkpt><trkpt lat="58.045773" lon="38.876367"><ele>91.8</ele><time>2023-08-31T21:31:29Z</time></trkpt><trkpt lat="58.045767" lon="38.876218"><ele>91.8</ele><time>2023-08-31T21:31:32Z</time></trkpt><trkpt lat="58.045767" lon="38.876078"><ele>91.9</ele><time>2023-08-31T21:31:35Z</time></trkpt><trkpt lat="58.045772" lon="38.875942"><ele>91.9</ele><time>2023-08-31T21:31:38Z</time></trkpt><trkpt lat="58.045773" lon="38.87579"><ele>91.9</ele><time>2023-08-31T21:31:41Z</time></trkpt><trkpt lat="58.045773" lon="38.87563"><ele>91.5</ele><time>2023-08-31T21:31:44Z</time></trkpt><trkpt lat="58.045783" lon="38.875448"><ele>91.3</ele><time>2023-08-31T21:31:47Z</time></trkpt><trkpt lat="58.045793" lon="38.875268"><ele>91.4</ele><time>2023-08-31T21:31:50Z</time></trkpt><trkpt lat="58.045807" lon="38.875108"><ele>91.3</ele><time>2023-08-31T21:31:53Z</time></trkpt><trkpt lat="58.045818" lon="38.874958"><ele>91.4</ele><time>2023-08-31T21:31:56Z</time></trkpt><trkpt lat="58.045832" lon="38.874822"><ele>91.6</ele><time>2023-08-31T21:31:59Z</time></trkpt><trkpt lat="58.045848" lon="38.874672"><ele>91.7</ele><time>2023-08-31T21:32:02Z</time></trkpt><trkpt lat="58.045868" lon="38.874488"><ele>92.0</ele><time>2023-08-31T21:32:05Z</time></trkpt><trkpt lat="58.045888" lon="38.874328"><ele>92.3</ele><time>2023-08-31T21:32:08Z</time></trkpt><trkpt lat="58.045907" lon="38.87418"><ele>92.0</ele><time>2023-08-31T21:32:11Z</time></trkpt><trkpt lat="58.045933" lon="38.874013"><ele>92.1</ele><time>2023-08-31T21:32:15Z</time></trkpt><trkpt lat="58.045955" lon="38.87388"><ele>92.0</ele><time>2023-08-31T21:32:19Z</time></trkpt><trkpt lat="58.045982" lon="38.87375"><ele>90.6</ele><time>2023-08-31T21:32:25Z</time></trkpt><trkpt lat="58.046005" lon="38.873618"><ele>91.1</ele><time>2023-08-31T21:32:35Z</time></trkpt><trkpt lat="58.046033" lon="38.873492"><ele>90.3</ele><time>2023-08-31T21:32:43Z</time></trkpt><trkpt lat="58.046057" lon="38.873357"><ele>90.9</ele><time>2023-08-31T21:32:51Z</time></trkpt><trkpt lat="58.04608" lon="38.873193"><ele>90.0</ele><time>2023-08-31T21:33:00Z</time></trkpt><trkpt lat="58.046118" lon="38.87303"><ele>91.2</ele><time>2023-08-31T21:33:04Z</time></trkpt><trkpt lat="58.046155" lon="38.872885"><ele>91.9</ele><time>2023-08-31T21:33:07Z</time></trkpt><trkpt lat="58.046178" lon="38.872722"><ele>91.8</ele><time>2023-08-31T21:33:10Z</time></trkpt><trkpt lat="58.046208" lon="38.872543"><ele>91.6</ele><time>2023-08-31T21:33:13Z</time></trkpt><trkpt lat="58.04625" lon="38.872363"><ele>91.7</ele><time>2023-08-31T21:33:16Z</time></trkpt><trkpt lat="58.046278" lon="38.872237"><ele>91.7</ele><time>2023-08-31T21:33:18Z</time></trkpt><trkpt lat="58.04631" lon="38.872102"><ele>91.5</ele><time>2023-08-31T21:33:20Z</time></trkpt><trkpt lat="58.04634" lon="38.871963"><ele>91.4</ele><time>2023-08-31T21:33:22Z</time></trkpt><trkpt lat="58.046367" lon="38.871827"><ele>91.8</ele><time>2023-08-31T21:33:24Z</time></trkpt><trkpt lat="58.046402" lon="38.871645"><ele>92.2</ele><time>2023-08-31T21:33:27Z</time></trkpt><trkpt lat="58.046443" lon="38.871465"><ele>91.6</ele><time>2023-08-31T21:33:30Z</time></trkpt><trkpt lat="58.046495" lon="38.871283"><ele>91.6</ele><time>2023-08-31T21:33:33Z</time></trkpt><trkpt lat="58.046527" lon="38.871142"><ele>91.3</ele><time>2023-08-31T21:33:35Z</time></trkpt><trkpt lat="58.04655" lon="38.870988"><ele>91.3</ele><time>2023-08-31T21:33:37Z</time></trkpt><trkpt lat="58.046577" lon="38.870833"><ele>91.7</ele><time>2023-08-31T21:33:39Z</time></trkpt><trkpt lat="58.046613" lon="38.870687"><ele>92.4</ele><time>2023-08-31T21:33:41Z</time></trkpt><trkpt lat="58.046653" lon="38.870543"><ele>92.7</ele><time>2023-08-31T21:33:43Z</time></trkpt><trkpt lat="58.046692" lon="38.870402"><ele>92.6</ele><time>2023-08-31T21:33:45Z</time></trkpt><trkpt lat="58.046732" lon="38.87026"><ele>92.3</ele><time>2023-08-31T21:33:47Z</time></trkpt><trkpt lat="58.046777" lon="38.870108"><ele>92.5</ele><time>2023-08-31T21:33:49Z</time></trkpt><trkpt lat="58.046818" lon="38.869917"><ele>93.6</ele><time>2023-08-31T21:33:51Z</time></trkpt><trkpt lat="58.046853" lon="38.869687"><ele>93.5</ele><time>2023-08-31T21:33:53Z</time></trkpt><trkpt lat="58.046915" lon="38.869472"><ele>93.5</ele><time>2023-08-31T21:33:55Z</time></trkpt><trkpt lat="58.046952" lon="38.869258"><ele>94.4</ele><time>2023-08-31T21:33:57Z</time></trkpt><trkpt lat="58.046993" lon="38.869085"><ele>94.6</ele><time>2023-08-31T21:33:59Z</time></trkpt><trkpt lat="58.047027" lon="38.868913"><ele>94.4</ele><time>2023-08-31T21:34:01Z</time></trkpt><trkpt lat="58.047027" lon="38.868743"><ele>94.7</ele><time>2023-08-31T21:34:03Z</time></trkpt><trkpt lat="58.047013" lon="38.868543"><ele>95.1</ele><time>2023-08-31T21:34:05Z</time></trkpt><trkpt lat="58.047022" lon="38.868372"><ele>95.9</ele><time>2023-08-31T21:34:07Z</time></trkpt><trkpt lat="58.047022" lon="38.868212"><ele>96.1</ele><time>2023-08-31T21:34:09Z</time></trkpt><trkpt lat="58.047012" lon="38.868048"><ele>97.4</ele><time>2023-08-31T21:34:12Z</time></trkpt><trkpt lat="58.046988" lon="38.8679"><ele>98.3</ele><time>2023-08-31T21:34:17Z</time></trkpt><trkpt lat="58.04697" lon="38.867735"><ele>98.0</ele><time>2023-08-31T21:34:23Z</time></trkpt><trkpt lat="58.046997" lon="38.867567"><ele>97.6</ele><time>2023-08-31T21:34:26Z</time></trkpt><trkpt lat="58.047032" lon="38.867385"><ele>97.6</ele><time>2023-08-31T21:34:29Z</time></trkpt><trkpt lat="58.04707" lon="38.86722"><ele>97.7</ele><time>2023-08-31T21:34:32Z</time></trkpt><trkpt lat="58.047107" lon="38.867088"><ele>97.7</ele><time>2023-08-31T21:34:34Z</time></trkpt><trkpt lat="58.047148" lon="38.86692"><ele>96.8</ele><time>2023-08-31T21:34:37Z</time></trkpt><trkpt lat="58.047183" lon="38.866793"><ele>96.2</ele><time>2023-08-31T21:34:39Z</time></trkpt><trkpt lat="58.04721" lon="38.866663"><ele>96.4</ele><time>2023-08-31T21:34:41Z</time></trkpt><trkpt lat="58.047238" lon="38.866497"><ele>97.2</ele><time>2023-08-31T21:34:44Z</time></trkpt><trkpt lat="58.047267" lon="38.866353"><ele>97.5</ele><time>2023-08-31T21:34:47Z</time></trkpt><trkpt lat="58.047288" lon="38.866218"><ele>98.0</ele><time>2023-08-31T21:34:50Z</time></trkpt><trkpt lat="58.047315" lon="38.866077"><ele>97.6</ele><time>2023-08-31T21:34:53Z</time></trkpt><trkpt lat="58.047355" lon="38.865895"><ele>98.2</ele><time>2023-08-31T21:34:56Z</time></trkpt><trkpt lat="58.047397" lon="38.865753"><ele>98.9</ele><time>2023-08-31T21:34:58Z</time></trkpt><trkpt lat="58.047435" lon="38.865607"><ele>99.5</ele><time>2023-08-31T21:35:00Z</time></trkpt><trkpt lat="58.047468" lon="38.865453"><ele>99.1</ele><time>2023-08-31T21:35:02Z</time></trkpt><trkpt lat="58.047492" lon="38.865323"><ele>99.3</ele><time>2023-08-31T21:35:04Z</time></trkpt><trkpt lat="58.047518" lon="38.865193"><ele>99.5</ele><time>2023-08-31T21:35:06Z</time></trkpt><trkpt lat="58.047558" lon="38.865058"><ele>99.5</ele><time>2023-08-31T21:35:08Z</time></trkpt><trkpt lat="58.04759" lon="38.86485"><ele>100.5</ele><time>2023-08-31T21:35:10Z</time></trkpt><trkpt lat="58.047615" lon="38.864645"><ele>100.5</ele><time>2023-08-31T21:35:12Z</time></trkpt><trkpt lat="58.04764" lon="38.864405"><ele>100.2</ele><time>2023-08-31T21:35:14Z</time></trkpt><trkpt lat="58.047673" lon="38.864207"><ele>96.9</ele><time>2023-08-31T21:35:16Z</time></trkpt><trkpt lat="58.047755" lon="38.864068"><ele>98.3</ele><time>2023-08-31T21:35:18Z</time></trkpt><trkpt lat="58.0478" lon="38.863905"><ele>99.5</ele><time>2023-08-31T21:35:20Z</time></trkpt><trkpt lat="58.047822" lon="38.86375"><ele>99.2</ele><time>2023-08-31T21:35:22Z</time></trkpt><trkpt lat="58.047853" lon="38.863607"><ele>99.5</ele><time>2023-08-31T21:35:24Z</time></trkpt><trkpt lat="58.047892" lon="38.863473"><ele>99.3</ele><time>2023-08-31T21:35:26Z</time></trkpt><trkpt lat="58.047933" lon="38.863298"><ele>99.3</ele><time>2023-08-31T21:35:28Z</time></trkpt><trkpt lat="58.047978" lon="38.863133"><ele>99.9</ele><time>2023-08-31T21:35:31Z</time></trkpt><trkpt lat="58.048032" lon="38.862952"><ele>99.9</ele><time>2023-08-31T21:35:34Z</time></trkpt><trkpt lat="58.048078" lon="38.862778"><ele>100.2</ele><time>2023-08-31T21:35:37Z</time></trkpt><trkpt lat="58.048107" lon="38.862625"><ele>100.2</ele><time>2023-08-31T21:35:40Z</time></trkpt><trkpt lat="58.048145" lon="38.862505"><ele>99.4</ele><time>2023-08-31T21:35:43Z</time></trkpt><trkpt lat="58.04819" lon="38.862348"><ele>99.6</ele><time>2023-08-31T21:35:47Z</time></trkpt><trkpt lat="58.04822" lon="38.862198"><ele>99.3</ele><time>2023-08-31T21:35:50Z</time></trkpt><trkpt lat="58.048257" lon="38.862028"><ele>100.4</ele><time>2023-08-31T21:35:53Z</time></trkpt><trkpt lat="58.048293" lon="38.861848"><ele>101.8</ele><time>2023-08-31T21:35:56Z</time></trkpt><trkpt lat="58.048325" lon="38.861658"><ele>100.8</ele><time>2023-08-31T21:35:59Z</time></trkpt><trkpt lat="58.048355" lon="38.861532"><ele>101.2</ele><time>2023-08-31T21:36:01Z</time></trkpt><trkpt lat="58.048397" lon="38.861357"><ele>102.2</ele><time>2023-08-31T21:36:04Z</time></trkpt><trkpt lat="58.048425" lon="38.861167"><ele>101.7</ele><time>2023-08-31T21:36:07Z</time></trkpt><trkpt lat="58.048447" lon="38.860988"><ele>102.1</ele><time>2023-08-31T21:36:11Z</time></trkpt><trkpt lat="58.048435" lon="38.860837"><ele>102.8</ele><time>2023-08-31T21:36:14Z</time></trkpt><trkpt lat="58.048423" lon="38.860677"><ele>102.2</ele><time>2023-08-31T21:36:18Z</time></trkpt><trkpt lat="58.04843" lon="38.86054"><ele>101.2</ele><time>2023-08-31T21:36:22Z</time></trkpt><trkpt lat="58.048433" lon="38.860378"><ele>99.4</ele><time>2023-08-31T21:36:30Z</time></trkpt><trkpt lat="58.048435" lon="38.860205"><ele>99.9</ele><time>2023-08-31T21:36:35Z</time></trkpt><trkpt lat="58.048415" lon="38.860067"><ele>99.7</ele><time>2023-08-31T21:36:38Z</time></trkpt><trkpt lat="58.048448" lon="38.859915"><ele>99.3</ele><time>2023-08-31T21:36:43Z</time></trkpt><trkpt lat="58.048488" lon="38.859788"><ele>99.2</ele><time>2023-08-31T21:36:46Z</time></trkpt><trkpt lat="58.048542" lon="38.85967"><ele>100.7</ele><time>2023-08-31T21:36:51Z</time></trkpt><trkpt lat="58.048577" lon="38.859543"><ele>100.6</ele><time>2023-08-31T21:36:54Z</time></trkpt><trkpt lat="58.048607" lon="38.859373"><ele>99.5</ele><time>2023-08-31T21:36:57Z</time></trkpt><trkpt lat="58.048635" lon="38.859245"><ele>100.9</ele><time>2023-08-31T21:36:59Z</time></trkpt><trkpt lat="58.048667" lon="38.859102"><ele>101.2</ele><time>2023-08-31T21:37:01Z</time></trkpt><trkpt lat="58.048692" lon="38.858948"><ele>101.7</ele><time>2023-08-31T21:37:03Z</time></trkpt><trkpt lat="58.048712" lon="38.858797"><ele>101.9</ele><time>2023-08-31T21:37:05Z</time></trkpt><trkpt lat="58.048725" lon="38.858658"><ele>101.7</ele><time>2023-08-31T21:37:07Z</time></trkpt><trkpt lat="58.048732" lon="38.85851"><ele>101.3</ele><time>2023-08-31T21:37:09Z</time></trkpt><trkpt lat="58.048742" lon="38.858327"><ele>100.9</ele><time>2023-08-31T21:37:12Z</time></trkpt><trkpt lat="58.048685" lon="38.858228"><ele>101.4</ele><time>2023-08-31T21:37:15Z</time></trkpt><trkpt lat="58.048648" lon="38.858098"><ele>101.8</ele><time>2023-08-31T21:37:20Z</time></trkpt><trkpt lat="58.048692" lon="38.857955"><ele>101.3</ele><time>2023-08-31T21:37:24Z</time></trkpt><trkpt lat="58.048748" lon="38.857863"><ele>100.6</ele><time>2023-08-31T21:37:27Z</time></trkpt><trkpt lat="58.048672" lon="38.857917"><ele>101.1</ele><time>2023-08-31T21:42:09Z</time></trkpt><trkpt lat="58.0486" lon="38.85786"><ele>101.1</ele><time>2023-08-31T21:42:12Z</time></trkpt><trkpt lat="58.048517" lon="38.857798"><ele>100.6</ele><time>2023-08-31T21:42:15Z</time></trkpt><trkpt lat="58.048448" lon="38.85769"><ele>100.2</ele><time>2023-08-31T21:42:18Z</time></trkpt><trkpt lat="58.04838" lon="38.857627"><ele>100.1</ele><time>2023-08-31T21:42:21Z</time></trkpt><trkpt lat="58.048305" lon="38.85756"><ele>100.0</ele><time>2023-08-31T21:42:25Z</time></trkpt><trkpt lat="58.048298" lon="38.857395"><ele>101.2</ele><time>2023-08-31T21:42:30Z</time></trkpt><trkpt lat="58.048328" lon="38.857238"><ele>101.1</ele><time>2023-08-31T21:42:34Z</time></trkpt><trkpt lat="58.048355" lon="38.857072"><ele>101.1</ele><time>2023-08-31T21:42:39Z</time></trkpt><trkpt lat="58.048388" lon="38.856932"><ele>101.8</ele><time>2023-08-31T21:42:42Z</time></trkpt><trkpt lat="58.04838" lon="38.856752"><ele>100.6</ele><time>2023-08-31T21:42:55Z</time></trkpt><trkpt lat="58.048423" lon="38.856627"><ele>100.7</ele><time>2023-08-31T21:43:01Z</time></trkpt><trkpt lat="58.048457" lon="38.856477"><ele>101.3</ele><time>2023-08-31T21:43:06Z</time></trkpt><trkpt lat="58.048502" lon="38.856363"><ele>102.1</ele><time>2023-08-31T21:43:11Z</time></trkpt><trkpt lat="58.048537" lon="38.85623"><ele>102.0</ele><time>2023-08-31T21:43:18Z</time></trkpt><trkpt lat="58.048567" lon="38.85608"><ele>101.5</ele><time>2023-08-31T21:43:26Z</time></trkpt><trkpt lat="58.048587" lon="38.855927"><ele>101.8</ele><time>2023-08-31T21:43:31Z</time></trkpt><trkpt lat="58.048617" lon="38.855772"><ele>102.2</ele><time>2023-08-31T21:43:36Z</time></trkpt><trkpt lat="58.048618" lon="38.855625"><ele>102.2</ele><time>2023-08-31T21:43:40Z</time></trkpt><trkpt lat="58.048652" lon="38.855488"><ele>101.3</ele><time>2023-08-31T21:44:39Z</time></trkpt><trkpt lat="58.048678" lon="38.855352"><ele>101.1</ele><time>2023-08-31T21:44:43Z</time></trkpt><trkpt lat="58.04871" lon="38.855202"><ele>101.2</ele><time>2023-08-31T21:44:48Z</time></trkpt><trkpt lat="58.048722" lon="38.85503"><ele>101.1</ele><time>2023-08-31T21:44:53Z</time></trkpt><trkpt lat="58.048753" lon="38.854878"><ele>100.8</ele><time>2023-08-31T21:44:58Z</time></trkpt><trkpt lat="58.048777" lon="38.854742"><ele>101.2</ele><time>2023-08-31T21:45:04Z</time></trkpt><trkpt lat="58.048758" lon="38.8546"><ele>101.4</ele><time>2023-08-31T21:46:01Z</time></trkpt><trkpt lat="58.048783" lon="38.854445"><ele>101.2</ele><time>2023-08-31T21:46:05Z</time></trkpt><trkpt lat="58.048837" lon="38.854297"><ele>100.9</ele><time>2023-08-31T21:46:08Z</time></trkpt><trkpt lat="58.04888" lon="38.85418"><ele>101.0</ele><time>2023-08-31T21:46:10Z</time></trkpt><trkpt lat="58.04892" lon="38.854035"><ele>100.9</ele><time>2023-08-31T21:46:12Z</time></trkpt><trkpt lat="58.049002" lon="38.853917"><ele>101.3</ele><time>2023-08-31T21:46:14Z</time></trkpt><trkpt lat="58.049045" lon="38.853745"><ele>101.0</ele><time>2023-08-31T21:46:16Z</time></trkpt><trkpt lat="58.049082" lon="38.85356"><ele>100.5</ele><time>2023-08-31T21:46:18Z</time></trkpt><trkpt lat="58.04911" lon="38.853388"><ele>100.2</ele><time>2023-08-31T21:46:20Z</time></trkpt><trkpt lat="58.049137" lon="38.853227"><ele>100.2</ele><time>2023-08-31T21:46:22Z</time></trkpt><trkpt lat="58.049155" lon="38.853037"><ele>100.6</ele><time>2023-08-31T21:46:24Z</time></trkpt><trkpt lat="58.049185" lon="38.852867"><ele>100.9</ele><time>2023-08-31T21:46:26Z</time></trkpt><trkpt lat="58.049188" lon="38.852707"><ele>100.9</ele><time>2023-08-31T21:46:28Z</time></trkpt><trkpt lat="58.049208" lon="38.852508"><ele>100.6</ele><time>2023-08-31T21:46:31Z</time></trkpt><trkpt lat="58.049282" lon="38.852423"><ele>101.0</ele><time>2023-08-31T21:46:34Z</time></trkpt><trkpt lat="58.049333" lon="38.85252"><ele>100.7</ele><time>2023-08-31T21:46:38Z</time></trkpt><trkpt lat="58.04925" lon="38.852572"><ele>100.2</ele><time>2023-08-31T21:46:42Z</time></trkpt><trkpt lat="58.049202" lon="38.852445"><ele>100.3</ele><time>2023-08-31T21:46:45Z</time></trkpt><trkpt lat="58.049198" lon="38.8523"><ele>100.2</ele><time>2023-08-31T21:46:48Z</time></trkpt><trkpt lat="58.049208" lon="38.852163"><ele>101.9</ele><time>2023-08-31T21:48:43Z</time></trkpt><trkpt lat="58.049248" lon="38.85204"><ele>102.1</ele><time>2023-08-31T21:51:48Z</time></trkpt><trkpt lat="58.049265" lon="38.851877"><ele>100.3</ele><time>2023-08-31T21:51:53Z</time></trkpt><trkpt lat="58.049275" lon="38.851703"><ele>100.6</ele><time>2023-08-31T21:51:57Z</time></trkpt><trkpt lat="58.049305" lon="38.851533"><ele>101.4</ele><time>2023-08-31T21:52:01Z</time></trkpt><trkpt lat="58.049347" lon="38.851417"><ele>102.2</ele><time>2023-08-31T21:52:04Z</time></trkpt><trkpt lat="58.049388" lon="38.851302"><ele>101.6</ele><time>2023-08-31T21:52:07Z</time></trkpt><trkpt lat="58.049438" lon="38.851143"><ele>101.6</ele><time>2023-08-31T21:52:11Z</time></trkpt><trkpt lat="58.049473" lon="38.851022"><ele>101.2</ele><time>2023-08-31T21:52:15Z</time></trkpt><trkpt lat="58.049527" lon="38.850898"><ele>101.4</ele><time>2023-08-31T21:52:18Z</time></trkpt><trkpt lat="58.049563" lon="38.850768"><ele>100.7</ele><time>2023-08-31T21:52:21Z</time></trkpt><trkpt lat="58.049597" lon="38.850603"><ele>100.9</ele><time>2023-08-31T21:52:24Z</time></trkpt><trkpt lat="58.04963" lon="38.850472"><ele>101.6</ele><time>2023-08-31T21:52:26Z</time></trkpt><trkpt lat="58.049662" lon="38.850322"><ele>101.4</ele><time>2023-08-31T21:52:28Z</time></trkpt><trkpt lat="58.049695" lon="38.850117"><ele>101.3</ele><time>2023-08-31T21:52:30Z</time></trkpt><trkpt lat="58.049745" lon="38.849917"><ele>100.5</ele><time>2023-08-31T21:52:32Z</time></trkpt><trkpt lat="58.049792" lon="38.849722"><ele>100.0</ele><time>2023-08-31T21:52:34Z</time></trkpt><trkpt lat="58.049818" lon="38.849588"><ele>100.5</ele><time>2023-08-31T21:52:35Z</time></trkpt><trkpt lat="58.049852" lon="38.849377"><ele>101.4</ele><time>2023-08-31T21:52:37Z</time></trkpt><trkpt lat="58.0499" lon="38.84919"><ele>101.0</ele><time>2023-08-31T21:52:39Z</time></trkpt><trkpt lat="58.049917" lon="38.848938"><ele>101.0</ele><time>2023-08-31T21:52:41Z</time></trkpt><trkpt lat="58.049933" lon="38.848688"><ele>101.0</ele><time>2023-08-31T21:52:43Z</time></trkpt><trkpt lat="58.049962" lon="38.84845"><ele>101.2</ele><time>2023-08-31T21:52:45Z</time></trkpt><trkpt lat="58.049993" lon="38.848215"><ele>101.1</ele><time>2023-08-31T21:52:47Z</time></trkpt><trkpt lat="58.050037" lon="38.848005"><ele>100.4</ele><time>2023-08-31T21:52:49Z</time></trkpt><trkpt lat="58.050077" lon="38.847765"><ele>99.8</ele><time>2023-08-31T21:52:51Z</time></trkpt><trkpt lat="58.050148" lon="38.847685"><ele>99.9</ele><time>2023-08-31T21:52:52Z</time></trkpt><trkpt lat="58.050147" lon="38.847423"><ele>99.1</ele><time>2023-08-31T21:52:54Z</time></trkpt><trkpt lat="58.050175" lon="38.847203"><ele>99.3</ele><time>2023-08-31T21:52:56Z</time></trkpt><trkpt lat="58.050215" lon="38.847017"><ele>99.3</ele><time>2023-08-31T21:52:58Z</time></trkpt><trkpt lat="58.050273" lon="38.846837"><ele>99.0</ele><time>2023-08-31T21:53:00Z</time></trkpt><trkpt lat="58.050347" lon="38.84669"><ele>99.2</ele><time>2023-08-31T21:53:02Z</time></trkpt><trkpt lat="58.050375" lon="38.846523"><ele>99.3</ele><time>2023-08-31T21:53:04Z</time></trkpt><trkpt lat="58.050397" lon="38.846345"><ele>99.0</ele><time>2023-08-31T21:53:06Z</time></trkpt><trkpt lat="58.05037" lon="38.846163"><ele>97.7</ele><time>2023-08-31T21:53:08Z</time></trkpt><trkpt lat="58.050405" lon="38.846028"><ele>97.0</ele><time>2023-08-31T21:53:10Z</time></trkpt><trkpt lat="58.050418" lon="38.845863"><ele>96.8</ele><time>2023-08-31T21:53:12Z</time></trkpt><trkpt lat="58.050435" lon="38.845672"><ele>97.1</ele><time>2023-08-31T21:53:14Z</time></trkpt><trkpt lat="58.050455" lon="38.84547"><ele>98.0</ele><time>2023-08-31T21:53:16Z</time></trkpt><trkpt lat="58.050485" lon="38.845293"><ele>98.3</ele><time>2023-08-31T21:53:18Z</time></trkpt><trkpt lat="58.05052" lon="38.845112"><ele>98.2</ele><time>2023-08-31T21:53:20Z</time></trkpt><trkpt lat="58.050568" lon="38.844927"><ele>98.3</ele><time>2023-08-31T21:53:22Z</time></trkpt><trkpt lat="58.050598" lon="38.844742"><ele>98.2</ele><time>2023-08-31T21:53:24Z</time></trkpt><trkpt lat="58.050623" lon="38.84455"><ele>98.0</ele><time>2023-08-31T21:53:26Z</time></trkpt><trkpt lat="58.050647" lon="38.844357"><ele>99.1</ele><time>2023-08-31T21:53:28Z</time></trkpt><trkpt lat="58.050682" lon="38.844175"><ele>99.1</ele><time>2023-08-31T21:53:30Z</time></trkpt><trkpt lat="58.05071" lon="38.844005"><ele>99.2</ele><time>2023-08-31T21:53:32Z</time></trkpt><trkpt lat="58.050742" lon="38.84386"><ele>98.9</ele><time>2023-08-31T21:53:34Z</time></trkpt><trkpt lat="58.05077" lon="38.843677"><ele>99.2</ele><time>2023-08-31T21:53:36Z</time></trkpt><trkpt lat="58.050798" lon="38.843512"><ele>99.2</ele><time>2023-08-31T21:53:38Z</time></trkpt><trkpt lat="58.05081" lon="38.843315"><ele>99.9</ele><time>2023-08-31T21:53:40Z</time></trkpt><trkpt lat="58.050835" lon="38.843127"><ele>99.9</ele><time>2023-08-31T21:53:42Z</time></trkpt><trkpt lat="58.050882" lon="38.842945"><ele>100.1</ele><time>2023-08-31T21:53:44Z</time></trkpt><trkpt lat="58.050902" lon="38.842738"><ele>100.2</ele><time>2023-08-31T21:53:46Z</time></trkpt><trkpt lat="58.05094" lon="38.842568"><ele>100.0</ele><time>2023-08-31T21:53:48Z</time></trkpt><trkpt lat="58.050992" lon="38.842415"><ele>99.8</ele><time>2023-08-31T21:53:50Z</time></trkpt><trkpt lat="58.051027" lon="38.842248"><ele>99.7</ele><time>2023-08-31T21:53:52Z</time></trkpt><trkpt lat="58.051055" lon="38.842077"><ele>99.6</ele><time>2023-08-31T21:53:54Z</time></trkpt><trkpt lat="58.051095" lon="38.84191"><ele>99.7</ele><time>2023-08-31T21:53:56Z</time></trkpt><trkpt lat="58.051127" lon="38.841755"><ele>99.9</ele><time>2023-08-31T21:53:58Z</time></trkpt><trkpt lat="58.05116" lon="38.841555"><ele>99.5</ele><time>2023-08-31T21:54:00Z</time></trkpt><trkpt lat="58.051192" lon="38.841383"><ele>99.2</ele><time>2023-08-31T21:54:02Z</time></trkpt><trkpt lat="58.051235" lon="38.841195"><ele>99.1</ele><time>2023-08-31T21:54:04Z</time></trkpt><trkpt lat="58.051273" lon="38.841008"><ele>98.6</ele><time>2023-08-31T21:54:06Z</time></trkpt><trkpt lat="58.051308" lon="38.840807"><ele>98.2</ele><time>2023-08-31T21:54:08Z</time></trkpt><trkpt lat="58.05135" lon="38.840608"><ele>98.2</ele><time>2023-08-31T21:54:10Z</time></trkpt><trkpt lat="58.051373" lon="38.840403"><ele>98.5</ele><time>2023-08-31T21:54:12Z</time></trkpt><trkpt lat="58.051423" lon="38.84029"><ele>97.9</ele><time>2023-08-31T21:54:14Z</time></trkpt><trkpt lat="58.051455" lon="38.840092"><ele>97.7</ele><time>2023-08-31T21:54:16Z</time></trkpt><trkpt lat="58.05149" lon="38.8399"><ele>98.0</ele><time>2023-08-31T21:54:18Z</time></trkpt><trkpt lat="58.051522" lon="38.839717"><ele>98.2</ele><time>2023-08-31T21:54:20Z</time></trkpt><trkpt lat="58.051552" lon="38.839512"><ele>98.3</ele><time>2023-08-31T21:54:22Z</time></trkpt><trkpt lat="58.051568" lon="38.839367"><ele>98.3</ele><time>2023-08-31T21:54:24Z</time></trkpt><trkpt lat="58.051623" lon="38.839212"><ele>98.4</ele><time>2023-08-31T21:54:26Z</time></trkpt><trkpt lat="58.051648" lon="38.839018"><ele>98.3</ele><time>2023-08-31T21:54:28Z</time></trkpt><trkpt lat="58.051695" lon="38.838857"><ele>97.9</ele><time>2023-08-31T21:54:30Z</time></trkpt><trkpt lat="58.051712" lon="38.838695"><ele>97.7</ele><time>2023-08-31T21:54:32Z</time></trkpt><trkpt lat="58.051708" lon="38.838542"><ele>97.8</ele><time>2023-08-31T21:54:34Z</time></trkpt><trkpt lat="58.05172" lon="38.838335"><ele>97.8</ele><time>2023-08-31T21:54:36Z</time></trkpt><trkpt lat="58.05179" lon="38.838222"><ele>97.3</ele><time>2023-08-31T21:54:38Z</time></trkpt><trkpt lat="58.051823" lon="38.83807"><ele>97.0</ele><time>2023-08-31T21:54:40Z</time></trkpt><trkpt lat="58.051845" lon="38.837878"><ele>97.2</ele><time>2023-08-31T21:54:42Z</time></trkpt><trkpt lat="58.051872" lon="38.837698"><ele>97.4</ele><time>2023-08-31T21:54:44Z</time></trkpt><trkpt lat="58.051915" lon="38.837542"><ele>97.6</ele><time>2023-08-31T21:54:46Z</time></trkpt><trkpt lat="58.051948" lon="38.837358"><ele>98.4</ele><time>2023-08-31T21:54:48Z</time></trkpt><trkpt lat="58.051945" lon="38.83717"><ele>98.8</ele><time>2023-08-31T21:54:50Z</time></trkpt><trkpt lat="58.051978" lon="38.837008"><ele>98.9</ele><time>2023-08-31T21:54:52Z</time></trkpt><trkpt lat="58.052013" lon="38.836837"><ele>99.1</ele><time>2023-08-31T21:54:54Z</time></trkpt><trkpt lat="58.052038" lon="38.836667"><ele>99.1</ele><time>2023-08-31T21:54:56Z</time></trkpt><trkpt lat="58.052068" lon="38.836478"><ele>99.2</ele><time>2023-08-31T21:54:58Z</time></trkpt><trkpt lat="58.052108" lon="38.836315"><ele>99.4</ele><time>2023-08-31T21:55:00Z</time></trkpt><trkpt lat="58.052145" lon="38.836152"><ele>98.9</ele><time>2023-08-31T21:55:02Z</time></trkpt><trkpt lat="58.05217" lon="38.835958"><ele>99.5</ele><time>2023-08-31T21:55:04Z</time></trkpt><trkpt lat="58.052202" lon="38.835773"><ele>99.7</ele><time>2023-08-31T21:55:06Z</time></trkpt><trkpt lat="58.052243" lon="38.835632"><ele>99.3</ele><time>2023-08-31T21:55:08Z</time></trkpt><trkpt lat="58.05228" lon="38.835443"><ele>99.4</ele><time>2023-08-31T21:55:10Z</time></trkpt><trkpt lat="58.052313" lon="38.835242"><ele>99.6</ele><time>2023-08-31T21:55:12Z</time></trkpt><trkpt lat="58.052365" lon="38.835055"><ele>99.2</ele><time>2023-08-31T21:55:14Z</time></trkpt><trkpt lat="58.052358" lon="38.834862"><ele>98.8</ele><time>2023-08-31T21:55:16Z</time></trkpt><trkpt lat="58.052403" lon="38.834657"><ele>98.0</ele><time>2023-08-31T21:55:18Z</time></trkpt><trkpt lat="58.052435" lon="38.834472"><ele>98.6</ele><time>2023-08-31T21:55:20Z</time></trkpt><trkpt lat="58.052475" lon="38.834283"><ele>98.1</ele><time>2023-08-31T21:55:22Z</time></trkpt><trkpt lat="58.052505" lon="38.834063"><ele>98.0</ele><time>2023-08-31T21:55:24Z</time></trkpt><trkpt lat="58.052547" lon="38.833848"><ele>97.5</ele><time>2023-08-31T21:55:26Z</time></trkpt><trkpt lat="58.052593" lon="38.83365"><ele>97.7</ele><time>2023-08-31T21:55:28Z</time></trkpt><trkpt lat="58.052632" lon="38.833458"><ele>97.6</ele><time>2023-08-31T21:55:30Z</time></trkpt><trkpt lat="58.052677" lon="38.833235"><ele>97.1</ele><time>2023-08-31T21:55:32Z</time></trkpt><trkpt lat="58.052705" lon="38.833015"><ele>97.8</ele><time>2023-08-31T21:55:34Z</time></trkpt><trkpt lat="58.052742" lon="38.83281"><ele>98.0</ele><time>2023-08-31T21:55:36Z</time></trkpt><trkpt lat="58.052782" lon="38.832592"><ele>98.3</ele><time>2023-08-31T21:55:38Z</time></trkpt><trkpt lat="58.052822" lon="38.832388"><ele>98.7</ele><time>2023-08-31T21:55:40Z</time></trkpt><trkpt lat="58.052857" lon="38.83218"><ele>99.1</ele><time>2023-08-31T21:55:42Z</time></trkpt><trkpt lat="58.052905" lon="38.83198"><ele>99.1</ele><time>2023-08-31T21:55:44Z</time></trkpt><trkpt lat="58.052935" lon="38.831767"><ele>99.0</ele><time>2023-08-31T21:55:46Z</time></trkpt><trkpt lat="58.052967" lon="38.831555"><ele>99.0</ele><time>2023-08-31T21:55:48Z</time></trkpt><trkpt lat="58.052998" lon="38.831352"><ele>99.2</ele><time>2023-08-31T21:55:50Z</time></trkpt><trkpt lat="58.053035" lon="38.831157"><ele>99.0</ele><time>2023-08-31T21:55:52Z</time></trkpt><trkpt lat="58.053068" lon="38.830968"><ele>99.1</ele><time>2023-08-31T21:55:54Z</time></trkpt><trkpt lat="58.053102" lon="38.830805"><ele>99.4</ele><time>2023-08-31T21:55:56Z</time></trkpt><trkpt lat="58.053135" lon="38.830675"><ele>100.0</ele><time>2023-08-31T21:55:59Z</time></trkpt><trkpt lat="58.053168" lon="38.830482"><ele>99.7</ele><time>2023-08-31T21:56:02Z</time></trkpt><trkpt lat="58.053197" lon="38.83034"><ele>99.5</ele><time>2023-08-31T21:56:04Z</time></trkpt><trkpt lat="58.053228" lon="38.830212"><ele>99.5</ele><time>2023-08-31T21:56:06Z</time></trkpt><trkpt lat="58.053273" lon="38.830068"><ele>99.5</ele><time>2023-08-31T21:56:08Z</time></trkpt><trkpt lat="58.053303" lon="38.82992"><ele>99.5</ele><time>2023-08-31T21:56:10Z</time></trkpt><trkpt lat="58.053333" lon="38.829737"><ele>99.6</ele><time>2023-08-31T21:56:12Z</time></trkpt><trkpt lat="58.05336" lon="38.829543"><ele>99.2</ele><time>2023-08-31T21:56:14Z</time></trkpt><trkpt lat="58.05341" lon="38.829365"><ele>98.4</ele><time>2023-08-31T21:56:16Z</time></trkpt><trkpt lat="58.053432" lon="38.82919"><ele>97.9</ele><time>2023-08-31T21:56:18Z</time></trkpt><trkpt lat="58.053452" lon="38.829002"><ele>97.3</ele><time>2023-08-31T21:56:20Z</time></trkpt><trkpt lat="58.053477" lon="38.828817"><ele>97.3</ele><time>2023-08-31T21:56:22Z</time></trkpt><trkpt lat="58.053493" lon="38.828658"><ele>96.4</ele><time>2023-08-31T21:56:24Z</time></trkpt><trkpt lat="58.053533" lon="38.828465"><ele>97.1</ele><time>2023-08-31T21:56:26Z</time></trkpt><trkpt lat="58.053565" lon="38.828292"><ele>97.0</ele><time>2023-08-31T21:56:28Z</time></trkpt><trkpt lat="58.053598" lon="38.828113"><ele>97.0</ele><time>2023-08-31T21:56:30Z</time></trkpt><trkpt lat="58.05364" lon="38.827938"><ele>96.6</ele><time>2023-08-31T21:56:32Z</time></trkpt><trkpt lat="58.053678" lon="38.827777"><ele>96.5</ele><time>2023-08-31T21:56:34Z</time></trkpt><trkpt lat="58.053712" lon="38.827577"><ele>96.2</ele><time>2023-08-31T21:56:36Z</time></trkpt><trkpt lat="58.053738" lon="38.827388"><ele>96.7</ele><time>2023-08-31T21:56:38Z</time></trkpt><trkpt lat="58.053777" lon="38.827207"><ele>96.0</ele><time>2023-08-31T21:56:40Z</time></trkpt><trkpt lat="58.05381" lon="38.826995"><ele>96.9</ele><time>2023-08-31T21:56:42Z</time></trkpt><trkpt lat="58.05383" lon="38.82683"><ele>97.3</ele><time>2023-08-31T21:56:44Z</time></trkpt><trkpt lat="58.053877" lon="38.826672"><ele>97.8</ele><time>2023-08-31T21:56:47Z</time></trkpt><trkpt lat="58.05392" lon="38.82654"><ele>97.2</ele><time>2023-08-31T21:56:49Z</time></trkpt><trkpt lat="58.053957" lon="38.826405"><ele>97.9</ele><time>2023-08-31T21:56:51Z</time></trkpt><trkpt lat="58.053985" lon="38.826237"><ele>98.5</ele><time>2023-08-31T21:56:53Z</time></trkpt><trkpt lat="58.054012" lon="38.826058"><ele>99.0</ele><time>2023-08-31T21:56:55Z</time></trkpt><trkpt lat="58.054042" lon="38.825908"><ele>99.4</ele><time>2023-08-31T21:56:57Z</time></trkpt><trkpt lat="58.054092" lon="38.82578"><ele>99.7</ele><time>2023-08-31T21:56:59Z</time></trkpt><trkpt lat="58.054115" lon="38.825603"><ele>100.0</ele><time>2023-08-31T21:57:01Z</time></trkpt><trkpt lat="58.054148" lon="38.825427"><ele>100.3</ele><time>2023-08-31T21:57:03Z</time></trkpt><trkpt lat="58.05417" lon="38.825282"><ele>100.6</ele><time>2023-08-31T21:57:05Z</time></trkpt><trkpt lat="58.054195" lon="38.825153"><ele>100.9</ele><time>2023-08-31T21:57:07Z</time></trkpt><trkpt lat="58.05424" lon="38.825037"><ele>100.8</ele><time>2023-08-31T21:57:09Z</time></trkpt><trkpt lat="58.054258" lon="38.82489"><ele>100.9</ele><time>2023-08-31T21:57:11Z</time></trkpt><trkpt lat="58.054283" lon="38.824745"><ele>101.0</ele><time>2023-08-31T21:57:13Z</time></trkpt><trkpt lat="58.054298" lon="38.824592"><ele>100.7</ele><time>2023-08-31T21:57:15Z</time></trkpt><trkpt lat="58.054325" lon="38.824442"><ele>100.9</ele><time>2023-08-31T21:57:17Z</time></trkpt><trkpt lat="58.054353" lon="38.824255"><ele>101.4</ele><time>2023-08-31T21:57:19Z</time></trkpt><trkpt lat="58.054375" lon="38.824082"><ele>101.1</ele><time>2023-08-31T21:57:21Z</time></trkpt><trkpt lat="58.054408" lon="38.823947"><ele>101.3</ele><time>2023-08-31T21:57:23Z</time></trkpt><trkpt lat="58.054433" lon="38.823723"><ele>101.2</ele><time>2023-08-31T21:57:25Z</time></trkpt><trkpt lat="58.054493" lon="38.82352"><ele>100.4</ele><time>2023-08-31T21:57:27Z</time></trkpt><trkpt lat="58.054542" lon="38.823313"><ele>100.5</ele><time>2023-08-31T21:57:29Z</time></trkpt><trkpt lat="58.054603" lon="38.823142"><ele>99.9</ele><time>2023-08-31T21:57:31Z</time></trkpt><trkpt lat="58.054643" lon="38.822948"><ele>100.2</ele><time>2023-08-31T21:57:33Z</time></trkpt><trkpt lat="58.054692" lon="38.822768"><ele>100.2</ele><time>2023-08-31T21:57:35Z</time></trkpt><trkpt lat="58.05473" lon="38.822598"><ele>100.9</ele><time>2023-08-31T21:57:37Z</time></trkpt><trkpt lat="58.054767" lon="38.822415"><ele>101.4</ele><time>2023-08-31T21:57:39Z</time></trkpt><trkpt lat="58.054808" lon="38.822245"><ele>100.7</ele><time>2023-08-31T21:57:41Z</time></trkpt><trkpt lat="58.054835" lon="38.822068"><ele>100.6</ele><time>2023-08-31T21:57:43Z</time></trkpt><trkpt lat="58.054875" lon="38.821887"><ele>100.0</ele><time>2023-08-31T21:57:45Z</time></trkpt><trkpt lat="58.05489" lon="38.82172"><ele>100.2</ele><time>2023-08-31T21:57:47Z</time></trkpt><trkpt lat="58.054898" lon="38.821533"><ele>100.3</ele><time>2023-08-31T21:57:49Z</time></trkpt><trkpt lat="58.054912" lon="38.82137"><ele>100.2</ele><time>2023-08-31T21:57:51Z</time></trkpt><trkpt lat="58.054915" lon="38.821198"><ele>99.6</ele><time>2023-08-31T21:57:53Z</time></trkpt><trkpt lat="58.054918" lon="38.821013"><ele>99.0</ele><time>2023-08-31T21:57:55Z</time></trkpt><trkpt lat="58.05493" lon="38.820828"><ele>98.4</ele><time>2023-08-31T21:57:57Z</time></trkpt><trkpt lat="58.054957" lon="38.820645"><ele>98.0</ele><time>2023-08-31T21:57:59Z</time></trkpt><trkpt lat="58.05497" lon="38.8205"><ele>98.1</ele><time>2023-08-31T21:58:01Z</time></trkpt><trkpt lat="58.054977" lon="38.82033"><ele>96.8</ele><time>2023-08-31T21:58:03Z</time></trkpt><trkpt lat="58.054988" lon="38.820183"><ele>97.5</ele><time>2023-08-31T21:58:05Z</time></trkpt><trkpt lat="58.054993" lon="38.819995"><ele>96.7</ele><time>2023-08-31T21:58:07Z</time></trkpt><trkpt lat="58.055002" lon="38.819847"><ele>97.6</ele><time>2023-08-31T21:58:09Z</time></trkpt><trkpt lat="58.055025" lon="38.819698"><ele>97.1</ele><time>2023-08-31T21:58:11Z</time></trkpt><trkpt lat="58.055038" lon="38.819537"><ele>97.7</ele><time>2023-08-31T21:58:13Z</time></trkpt><trkpt lat="58.055048" lon="38.819373"><ele>97.4</ele><time>2023-08-31T21:58:15Z</time></trkpt><trkpt lat="58.05506" lon="38.819195"><ele>95.7</ele><time>2023-08-31T21:58:17Z</time></trkpt><trkpt lat="58.055075" lon="38.819023"><ele>96.6</ele><time>2023-08-31T21:58:19Z</time></trkpt><trkpt lat="58.055082" lon="38.81887"><ele>98.1</ele><time>2023-08-31T21:58:21Z</time></trkpt><trkpt lat="58.055095" lon="38.818712"><ele>98.5</ele><time>2023-08-31T21:58:23Z</time></trkpt><trkpt lat="58.055113" lon="38.81854"><ele>98.4</ele><time>2023-08-31T21:58:25Z</time></trkpt><trkpt lat="58.055113" lon="38.818393"><ele>98.5</ele><time>2023-08-31T21:58:27Z</time></trkpt><trkpt lat="58.055122" lon="38.818223"><ele>98.8</ele><time>2023-08-31T21:58:29Z</time></trkpt><trkpt lat="58.055127" lon="38.818075"><ele>98.7</ele><time>2023-08-31T21:58:31Z</time></trkpt><trkpt lat="58.05513" lon="38.817907"><ele>97.9</ele><time>2023-08-31T21:58:33Z</time></trkpt><trkpt lat="58.055128" lon="38.817755"><ele>97.6</ele><time>2023-08-31T21:58:35Z</time></trkpt><trkpt lat="58.055135" lon="38.817553"><ele>97.6</ele><time>2023-08-31T21:58:38Z</time></trkpt><trkpt lat="58.055132" lon="38.817397"><ele>97.5</ele><time>2023-08-31T21:58:40Z</time></trkpt><trkpt lat="58.055127" lon="38.817237"><ele>97.7</ele><time>2023-08-31T21:58:42Z</time></trkpt><trkpt lat="58.05516" lon="38.817037"><ele>97.0</ele><time>2023-08-31T21:58:44Z</time></trkpt><trkpt lat="58.05518" lon="38.816827"><ele>97.5</ele><time>2023-08-31T21:58:46Z</time></trkpt><trkpt lat="58.055202" lon="38.816655"><ele>97.5</ele><time>2023-08-31T21:58:48Z</time></trkpt><trkpt lat="58.055222" lon="38.816475"><ele>98.6</ele><time>2023-08-31T21:58:50Z</time></trkpt><trkpt lat="58.05524" lon="38.816295"><ele>98.8</ele><time>2023-08-31T21:58:52Z</time></trkpt><trkpt lat="58.055248" lon="38.81613"><ele>97.9</ele><time>2023-08-31T21:58:54Z</time></trkpt><trkpt lat="58.055258" lon="38.81598"><ele>98.2</ele><time>2023-08-31T21:58:56Z</time></trkpt><trkpt lat="58.05527" lon="38.815817"><ele>98.5</ele><time>2023-08-31T21:58:58Z</time></trkpt><trkpt lat="58.05528" lon="38.815657"><ele>99.2</ele><time>2023-08-31T21:59:00Z</time></trkpt><trkpt lat="58.055282" lon="38.815492"><ele>100.0</ele><time>2023-08-31T21:59:02Z</time></trkpt><trkpt lat="58.055297" lon="38.81534"><ele>100.1</ele><time>2023-08-31T21:59:04Z</time></trkpt><trkpt lat="58.055302" lon="38.815187"><ele>100.0</ele><time>2023-08-31T21:59:06Z</time></trkpt><trkpt lat="58.055323" lon="38.815042"><ele>99.7</ele><time>2023-08-31T21:59:08Z</time></trkpt><trkpt lat="58.055337" lon="38.814887"><ele>99.6</ele><time>2023-08-31T21:59:10Z</time></trkpt><trkpt lat="58.055362" lon="38.814752"><ele>99.6</ele><time>2023-08-31T21:59:12Z</time></trkpt><trkpt lat="58.05537" lon="38.814588"><ele>98.7</ele><time>2023-08-31T21:59:14Z</time></trkpt><trkpt lat="58.055378" lon="38.814427"><ele>99.4</ele><time>2023-08-31T21:59:16Z</time></trkpt><trkpt lat="58.055378" lon="38.814238"><ele>99.6</ele><time>2023-08-31T21:59:17Z</time></trkpt><trkpt lat="58.055387" lon="38.814042"><ele>101.0</ele><time>2023-08-31T21:59:19Z</time></trkpt><trkpt lat="58.055393" lon="38.813858"><ele>100.5</ele><time>2023-08-31T21:59:21Z</time></trkpt><trkpt lat="58.055387" lon="38.813672"><ele>100.1</ele><time>2023-08-31T21:59:23Z</time></trkpt><trkpt lat="58.055405" lon="38.813467"><ele>100.3</ele><time>2023-08-31T21:59:25Z</time></trkpt><trkpt lat="58.055413" lon="38.813282"><ele>100.9</ele><time>2023-08-31T21:59:27Z</time></trkpt><trkpt lat="58.055433" lon="38.813073"><ele>101.1</ele><time>2023-08-31T21:59:29Z</time></trkpt><trkpt lat="58.055448" lon="38.81289"><ele>101.0</ele><time>2023-08-31T21:59:31Z</time></trkpt><trkpt lat="58.055473" lon="38.812722"><ele>101.6</ele><time>2023-08-31T21:59:33Z</time></trkpt><trkpt lat="58.055487" lon="38.812538"><ele>102.3</ele><time>2023-08-31T21:59:35Z</time></trkpt><trkpt lat="58.055505" lon="38.81237"><ele>102.0</ele><time>2023-08-31T21:59:37Z</time></trkpt><trkpt lat="58.055512" lon="38.812213"><ele>101.9</ele><time>2023-08-31T21:59:39Z</time></trkpt><trkpt lat="58.055508" lon="38.812057"><ele>102.1</ele><time>2023-08-31T21:59:41Z</time></trkpt><trkpt lat="58.05552" lon="38.811913"><ele>102.2</ele><time>2023-08-31T21:59:43Z</time></trkpt><trkpt lat="58.055525" lon="38.811753"><ele>101.9</ele><time>2023-08-31T21:59:45Z</time></trkpt><trkpt lat="58.055532" lon="38.811598"><ele>101.8</ele><time>2023-08-31T21:59:47Z</time></trkpt><trkpt lat="58.055535" lon="38.811418"><ele>101.8</ele><time>2023-08-31T21:59:49Z</time></trkpt><trkpt lat="58.055537" lon="38.811242"><ele>101.3</ele><time>2023-08-31T21:59:51Z</time></trkpt><trkpt lat="58.055545" lon="38.811092"><ele>101.9</ele><time>2023-08-31T21:59:53Z</time></trkpt><trkpt lat="58.055567" lon="38.810887"><ele>102.3</ele><time>2023-08-31T21:59:56Z</time></trkpt><trkpt lat="58.055563" lon="38.810665"><ele>102.2</ele><time>2023-08-31T21:59:58Z</time></trkpt><trkpt lat="58.055595" lon="38.810475"><ele>102.3</ele><time>2023-08-31T22:00:00Z</time></trkpt><trkpt lat="58.055673" lon="38.8104"><ele>102.3</ele><time>2023-08-31T22:00:02Z</time></trkpt><trkpt lat="58.055773" lon="38.810408"><ele>102.2</ele><time>2023-08-31T22:00:04Z</time></trkpt><trkpt lat="58.055867" lon="38.810445"><ele>102.4</ele><time>2023-08-31T22:00:06Z</time></trkpt><trkpt lat="58.055973" lon="38.810447"><ele>102.6</ele><time>2023-08-31T22:00:08Z</time></trkpt><trkpt lat="58.056087" lon="38.81047"><ele>102.9</ele><time>2023-08-31T22:00:10Z</time></trkpt><trkpt lat="58.05618" lon="38.810473"><ele>103.4</ele><time>2023-08-31T22:00:12Z</time></trkpt><trkpt lat="58.056267" lon="38.810487"><ele>103.5</ele><time>2023-08-31T22:00:14Z</time></trkpt><trkpt lat="58.056363" lon="38.810548"><ele>103.7</ele><time>2023-08-31T22:00:16Z</time></trkpt><trkpt lat="58.05645" lon="38.810562"><ele>103.5</ele><time>2023-08-31T22:00:18Z</time></trkpt><trkpt lat="58.056547" lon="38.81061"><ele>103.0</ele><time>2023-08-31T22:00:20Z</time></trkpt><trkpt lat="58.056665" lon="38.81058"><ele>103.2</ele><time>2023-08-31T22:00:22Z</time></trkpt><trkpt lat="58.056715" lon="38.810382"><ele>102.9</ele><time>2023-08-31T22:00:24Z</time></trkpt><trkpt lat="58.056725" lon="38.810167"><ele>102.8</ele><time>2023-08-31T22:00:26Z</time></trkpt><trkpt lat="58.056728" lon="38.809982"><ele>102.2</ele><time>2023-08-31T22:00:28Z</time></trkpt><trkpt lat="58.05676" lon="38.809805"><ele>101.7</ele><time>2023-08-31T22:00:30Z</time></trkpt><trkpt lat="58.056768" lon="38.809633"><ele>101.3</ele><time>2023-08-31T22:00:32Z</time></trkpt><trkpt lat="58.056833" lon="38.80947"><ele>102.6</ele><time>2023-08-31T22:00:35Z</time></trkpt><trkpt lat="58.056917" lon="38.80952"><ele>103.2</ele><time>2023-08-31T22:00:38Z</time></trkpt><trkpt lat="58.057002" lon="38.809543"><ele>103.7</ele><time>2023-08-31T22:00:40Z</time></trkpt><trkpt lat="58.057082" lon="38.809497"><ele>104.6</ele><time>2023-08-31T22:00:42Z</time></trkpt><trkpt lat="58.057143" lon="38.809353"><ele>104.2</ele><time>2023-08-31T22:00:45Z</time></trkpt><trkpt lat="58.057183" lon="38.809205"><ele>104.9</ele><time>2023-08-31T22:00:48Z</time></trkpt><trkpt lat="58.057228" lon="38.809078"><ele>104.9</ele><time>2023-08-31T22:00:52Z</time></trkpt><trkpt lat="58.057298" lon="38.809007"><ele>103.3</ele><time>2023-08-31T22:00:57Z</time></trkpt><trkpt lat="58.057365" lon="38.808928"><ele>103.3</ele><time>2023-08-31T22:01:00Z</time></trkpt><trkpt lat="58.057452" lon="38.808865"><ele>102.9</ele><time>2023-08-31T22:01:03Z</time></trkpt><trkpt lat="58.057528" lon="38.808788"><ele>103.0</ele><time>2023-08-31T22:01:06Z</time></trkpt><trkpt lat="58.05761" lon="38.808712"><ele>104.2</ele><time>2023-08-31T22:01:09Z</time></trkpt><trkpt lat="58.05769" lon="38.808682"><ele>104.8</ele><time>2023-08-31T22:01:12Z</time></trkpt><trkpt lat="58.057777" lon="38.808702"><ele>105.1</ele><time>2023-08-31T22:01:16Z</time></trkpt><trkpt lat="58.057833" lon="38.808795"><ele>105.9</ele><time>2023-08-31T22:01:25Z</time></trkpt><trkpt lat="58.057892" lon="38.80892"><ele>107.4</ele><time>2023-08-31T22:02:29Z</time></trkpt><trkpt lat="58.057978" lon="38.80895"><ele>107.9</ele><time>2023-08-31T22:02:33Z</time></trkpt><trkpt lat="58.058063" lon="38.808948"><ele>107.4</ele><time>2023-08-31T22:02:37Z</time></trkpt><trkpt lat="58.05815" lon="38.808932"><ele>107.6</ele><time>2023-08-31T22:02:41Z</time></trkpt><trkpt lat="58.058233" lon="38.808952"><ele>107.8</ele><time>2023-08-31T22:02:45Z</time></trkpt><trkpt lat="58.058315" lon="38.808963"><ele>107.6</ele><time>2023-08-31T22:02:49Z</time></trkpt><trkpt lat="58.058393" lon="38.808948"><ele>107.7</ele><time>2023-08-31T22:02:53Z</time></trkpt><trkpt lat="58.058472" lon="38.809005"><ele>107.7</ele><time>2023-08-31T22:02:57Z</time></trkpt><trkpt lat="58.058552" lon="38.809045"><ele>107.5</ele><time>2023-08-31T22:03:01Z</time></trkpt><trkpt lat="58.05863" lon="38.808928"><ele>106.9</ele><time>2023-08-31T22:03:05Z</time></trkpt><trkpt lat="58.058647" lon="38.808733"><ele>106.9</ele><time>2023-08-31T22:03:08Z</time></trkpt><trkpt lat="58.058648" lon="38.808573"><ele>106.6</ele><time>2023-08-31T22:03:11Z</time></trkpt><trkpt lat="58.058652" lon="38.808428"><ele>106.5</ele><time>2023-08-31T22:03:14Z</time></trkpt><trkpt lat="58.058667" lon="38.808282"><ele>106.9</ele><time>2023-08-31T22:03:17Z</time></trkpt><trkpt lat="58.058693" lon="38.808133"><ele>105.9</ele><time>2023-08-31T22:03:21Z</time></trkpt><trkpt lat="58.058702" lon="38.807963"><ele>105.6</ele><time>2023-08-31T22:03:25Z</time></trkpt><trkpt lat="58.058707" lon="38.807823"><ele>105.3</ele><time>2023-08-31T22:03:28Z</time></trkpt><trkpt lat="58.058717" lon="38.807675"><ele>105.4</ele><time>2023-08-31T22:03:32Z</time></trkpt></trkseg></trk></gpx>