<?xml version="1.0" encoding="UTF-8" standalone="no"?><gpx xmlns="http://www.topografix.com/GPX/1/1" xmlns:gpxtpx="http://www.garmin.com/xmlschemas/TrackPointExtension/v1" xmlns:xsi="http://www.w3.org/2001/XMLSchema-instance" creator="Sports Tracker" version="1.1" xsi:schemaLocation="http://www.topografix.com/GPX/1/1 http://www.topografix.com/GPX/1/1/gpx.xsd http://www.garmin.com/xmlschemas/TrackPointExtension/v1 http://www.garmin.com/xmlschemas/TrackPointExtensionv1.xsd"><metadata><name/><desc/><author><name>Александр</name></author></metadata><trk><name/><trkseg><trkpt lat="58.03659" lon="39.11397"><ele>89.7</ele><time>2024-09-07T08:00:00Z</time></trkpt><trkpt lat="58.035882" lon="39.113153"><ele>90.1</ele><time>2024-09-07T08:00:00Z</time></trkpt><trkpt lat="58.035625" lon="39.112703"><ele>91.6</ele><time>2024-09-07T08:00:00Z</time></trkpt><trkpt lat="58.035475" lon="39.112273"><ele>93.1</ele><time>2024-09-07T08:00:00Z</time></trkpt><trkpt lat="58.035388" lon="39.112123"><ele>93.5</ele><time>2024-09-07T08:00:00Z</time></trkpt><trkpt lat="58.035067" lon="39.11178"><ele>94.5</ele><time>2024-09-07T08:00:00Z</time></trkpt><trkpt lat="58.035023" lon="39.111502"><ele>95.4</ele><time>2024-09-07T08:00:00Z</time></trkpt><trkpt lat="58.035045" lon="39.111093"><ele>96.3</ele><time>2024-09-07T08:00:00Z</time></trkpt><trkpt lat="58.035195" lon="39.110493"><ele>97.8</ele><time>2024-09-07T08:00:00Z</time></trkpt><trkpt lat="58.035217" lon="39.110235"><ele>98.6</ele><time>2024-09-07T08:00:00Z</time></trkpt><trkpt lat="58.035217" lon="39.110042"><ele>99.3</ele><time>2024-09-07T08:00:00Z</time></trkpt><trkpt lat="58.035152" lon="39.10985"><ele>100.4</ele><time>2024-09-07T08:00:00Z</time></trkpt><trkpt lat="58.035023" lon="39.109827"><ele>100.8</ele><time>2024-09-07T08:00:00Z</time></trkpt><trkpt lat="58.034552" lon="39.109913"><ele>106.8</ele><time>2024-09-07T08:00:00Z</time></trkpt><trkpt lat="58.03408" lon="39.109892"><ele>112.1</ele><time>2024-09-07T08:00:00Z</time></trkpt><trkpt lat="58.033865" lon="39.109742"><ele>112.0</ele><time>2024-09-07T08:00:00Z</time></trkpt><trkpt lat="58.03378" lon="39.109807"><ele>111.6</ele><time>2024-09-07T08:00:00Z</time></trkpt><trkpt lat="58.033587" lon="39.109827"><ele>111.2</ele><time>2024-09-07T08:00:00Z</time></trkpt><trkpt lat="58.033457" lon="39.109827"><ele>110.9</ele><time>2024-09-07T08:00:00Z</time></trkpt><trkpt lat="58.033415" lon="39.109763"><ele>111.0</ele><time>2024-09-07T08:00:00Z</time></trkpt><trkpt lat="58.033607" lon="39.10927"><ele>113.0</ele><time>2024-09-07T08:00:00Z</time></trkpt><trkpt lat="58.033607" lon="39.108477"><ele>112.2</ele><time>2024-09-07T08:00:00Z</time></trkpt><trkpt lat="58.033587" lon="39.10839"><ele>112.1</ele><time>2024-09-07T08:00:00Z</time></trkpt><trkpt lat="58.033457" lon="39.108218"><ele>111.9</ele><time>2024-09-07T08:00:00Z</time></trkpt><trkpt lat="58.033522" lon="39.108047"><ele>111.7</ele><time>2024-09-07T08:00:00Z</time></trkpt><trkpt lat="58.033693" lon="39.10779"><ele>111.3</ele><time>2024-09-07T08:00:00Z</time></trkpt><trkpt lat="58.03363" lon="39.107425"><ele>110.5</ele><time>2024-09-07T08:00:00Z</time></trkpt><trkpt lat="58.033587" lon="39.106802"><ele>106.5</ele><time>2024-09-07T08:00:00Z</time></trkpt><trkpt lat="58.03335" lon="39.10678"><ele>105.9</ele><time>2024-09-07T08:00:00Z</time></trkpt><trkpt lat="58.033178" lon="39.10691"><ele>105.5</ele><time>2024-09-07T08:00:00Z</time></trkpt><trkpt lat="58.032835" lon="39.10781"><ele>109.9</ele><time>2024-09-07T08:00:00Z</time></trkpt><trkpt lat="58.03277" lon="39.108733"><ele>111.2</ele><time>2024-09-07T08:00:00Z</time></trkpt><trkpt lat="58.032792" lon="39.109657"><ele>107.9</ele><time>2024-09-07T08:00:00Z</time></trkpt><trkpt lat="58.032685" lon="39.109935"><ele>105.7</ele><time>2024-09-07T08:00:00Z</time></trkpt><trkpt lat="58.032577" lon="39.109978"><ele>104.7</ele><time>2024-09-07T08:00:00Z</time></trkpt><trkpt lat="58.032448" lon="39.10985"><ele>104.0</ele><time>2024-09-07T08:00:00Z</time></trkpt><trkpt lat="58.032235" lon="39.109785"><ele>100.8</ele><time>2024-09-07T08:00:00Z</time></trkpt><trkpt lat="58.031998" lon="39.109913"><ele>96.1</ele><time>2024-09-07T08:00:00Z</time></trkpt><trkpt lat="58.031912" lon="39.1106"><ele>90.2</ele><time>2024-09-07T08:00:00Z</time></trkpt><trkpt lat="58.031955" lon="39.111458"><ele>85.8</ele><time>2024-09-07T08:00:00Z</time></trkpt><trkpt lat="58.032062" lon="39.11176"><ele>85.2</ele><time>2024-09-07T08:00:00Z</time></trkpt><trkpt lat="58.032255" lon="39.111952"><ele>86.0</ele><time>2024-09-07T08:00:00Z</time></trkpt><trkpt lat="58.032385" lon="39.111952"><ele>86.7</ele><time>2024-09-07T08:00:00Z</time></trkpt><trkpt lat="58.032448" lon="39.111995"><ele>86.9</ele><time>2024-09-07T08:00:00Z</time></trkpt><trkpt lat="58.032985" lon="39.11266"><ele>86.8</ele><time>2024-09-07T08:00:00Z</time></trkpt><trkpt lat="58.033072" lon="39.112575"><ele>87.2</ele><time>2024-09-07T08:00:00Z</time></trkpt><trkpt lat="58.033285" lon="39.11251"><ele>87.9</ele><time>2024-09-07T08:00:00Z</time></trkpt><trkpt lat="58.033415" lon="39.112425"><ele>88.8</ele><time>2024-09-07T08:00:00Z</time></trkpt><trkpt lat="58.03365" lon="39.112445"><ele>89.8</ele><time>2024-09-07T08:00:00Z</time></trkpt><trkpt lat="58.0338" lon="39.112553"><ele>90.0</ele><time>2024-09-07T08:00:00Z</time></trkpt><trkpt lat="58.034102" lon="39.112638"><ele>90.9</ele><time>2024-09-07T08:00:00Z</time></trkpt><trkpt lat="58.03453" lon="39.112295"><ele>92.8</ele><time>2024-09-07T08:00:00Z</time></trkpt><trkpt lat="58.03481" lon="39.112317"><ele>92.2</ele><time>2024-09-07T08:00:00Z</time></trkpt><trkpt lat="58.035152" lon="39.11251"><ele>91.3</ele><time>2024-09-07T08:00:00Z</time></trkpt><trkpt lat="58.035152" lon="39.112617"><ele>90.9</ele><time>2024-09-07T08:00:00Z</time></trkpt><trkpt lat="58.035023" lon="39.113068"><ele>89.0</ele><time>2024-09-07T08:00:00Z</time></trkpt><trkpt lat="58.035067" lon="39.113262"><ele>88.3</ele><time>2024-09-07T08:00:00Z</time></trkpt><trkpt lat="58.03541" lon="39.113777"><ele>87.4</ele><time>2024-09-07T08:00:00Z</time></trkpt><trkpt lat="58.035603" lon="39.114227"><ele>86.7</ele><time>2024-09-07T08:00:00Z</time></trkpt><trkpt lat="58.035688" lon="39.114312"><ele>86.8</ele><time>2024-09-07T08:00:00Z</time></trkpt><trkpt lat="58.035797" lon="39.114292"><ele>87.0</ele><time>2024-09-07T08:00:00Z</time></trkpt><trkpt lat="58.035947" lon="39.11399"><ele>87.8</ele><time>2024-09-07T08:00:00Z</time></trkpt><trkpt lat="58.036997" lon="39.114935"><ele>89.5</ele><time>2024-09-07T08:00:00Z</time></trkpt><trkpt lat="58.037018" lon="39.115085"><ele>89.4</ele><time>2024-09-07T08:00:00Z</time></trkpt><trkpt lat="58.036912" lon="39.115322"><ele>89.2</ele><time>2024-09-07T08:00:00Z</time></trkpt><trkpt lat="58.036612" lon="39.115685"><ele>88.9</ele><time>2024-09-07T08:00:00Z</time></trkpt><trkpt lat="58.036462" lon="39.1156"><ele>88.5</ele><time>2024-09-07T08:00:00Z</time></trkpt><trkpt lat="58.035882" lon="39.115127"><ele>87.1</ele><time>2024-09-07T08:00:00Z</time></trkpt><trkpt lat="58.035797" lon="39.115127"><ele>86.9</ele><time>2024-09-07T08:00:00Z</time></trkpt><trkpt lat="58.035775" lon="39.115257"><ele>86.9</ele><time>2024-09-07T08:00:00Z</time></trkpt><trkpt lat="58.03599" lon="39.116608"><ele>85.5</ele><time>2024-09-07T08:00:00Z</time></trkpt><trkpt lat="58.036097" lon="39.116908"><ele>85.5</ele><time>2024-09-07T08:00:00Z</time></trkpt><trkpt lat="58.036182" lon="39.117037"><ele>85.7</ele><time>2024-09-07T08:00:00Z</time></trkpt><trkpt lat="58.03629" lon="39.117102"><ele>85.8</ele><time>2024-09-07T08:00:00Z</time></trkpt><trkpt lat="58.036397" lon="39.117102"><ele>86.0</ele><time>2024-09-07T08:00:00Z</time></trkpt><trkpt lat="58.036482" lon="39.116887"><ele>86.3</ele><time>2024-09-07T08:00:00Z</time></trkpt><trkpt lat="58.036482" lon="39.11663"><ele>86.6</ele><time>2024-09-07T08:00:00Z</time></trkpt><trkpt lat="58.036097" lon="39.115943"><ele>87.4</ele><time>2024-09-07T08:00:00Z</time></trkpt><trkpt lat="58.036075" lon="39.115728"><ele>87.6</ele><time>2024-09-07T08:00:00Z</time></trkpt><trkpt lat="58.036118" lon="39.115578"><ele>87.7</ele><time>2024-09-07T08:00:00Z</time></trkpt><trkpt lat="58.036203" lon="39.115557"><ele>87.9</ele><time>2024-09-07T08:00:00Z</time></trkpt><trkpt lat="58.036397" lon="39.115665"><ele>88.4</ele><time>2024-09-07T08:00:00Z</time></trkpt><trkpt lat="58.036805" lon="39.116072"><ele>88.5</ele><time>2024-09-07T08:00:00Z</time></trkpt><trkpt lat="58.03689" lon="39.116437"><ele>87.9</ele><time>2024-09-07T08:00:00Z</time></trkpt><trkpt lat="58.036827" lon="39.116758"><ele>87.4</ele><time>2024-09-07T08:00:00Z</time></trkpt><trkpt lat="58.03674" lon="39.116952"><ele>87.0</ele><time>2024-09-07T08:00:00Z</time></trkpt><trkpt lat="58.036462" lon="39.117252"><ele>86.0</ele><time>2024-09-07T08:00:00Z</time></trkpt><trkpt lat="58.03629" lon="39.117338"><ele>85.7</ele><time>2024-09-07T08:00:00Z</time></trkpt><trkpt lat="58.036097" lon="39.117338"><ele>85.4</ele><time>2024-09-07T08:00:00Z</time></trkpt><trkpt lat="58.035967" lon="39.117252"><ele>85.2</ele><time>2024-09-07T08:00:00Z</time></trkpt><trkpt lat="58.035882" lon="39.117123"><ele>85.1</ele><time>2024-09-07T08:00:00Z</time></trkpt><trkpt lat="58.035688" lon="39.115278"><ele>86.8</ele><time>2024-09-07T08:00:00Z</time></trkpt><trkpt lat="58.035732" lon="39.114655"><ele>86.8</ele><time>2024-09-07T08:00:00Z</time></trkpt><trkpt lat="58.035647" lon="39.114485"><ele>86.7</ele><time>2024-09-07T08:00:00Z</time></trkpt><trkpt lat="58.034573" lon="39.116608"><ele>92.3</ele><time>2024-09-07T08:00:00Z</time></trkpt><trkpt lat="58.034487" lon="39.116652"><ele>93.0</ele><time>2024-09-07T08:00:00Z</time></trkpt><trkpt lat="58.034208" lon="39.116545"><ele>94.0</ele><time>2024-09-07T08:00:00Z</time></trkpt><trkpt lat="58.033972" lon="39.116737"><ele>93.7</ele><time>2024-09-07T08:00:00Z</time></trkpt><trkpt lat="58.03365" lon="39.117338"><ele>93.1</ele><time>2024-09-07T08:00:00Z</time></trkpt><trkpt lat="58.033328" lon="39.117788"><ele>92.7</ele><time>2024-09-07T08:00:00Z</time></trkpt><trkpt lat="58.033135" lon="39.118453"><ele>92.2</ele><time>2024-09-07T08:00:00Z</time></trkpt><trkpt lat="58.032878" lon="39.120042"><ele>91.6</ele><time>2024-09-07T08:00:00Z</time></trkpt><trkpt lat="58.03277" lon="39.121587"><ele>91.9</ele><time>2024-09-07T08:00:00Z</time></trkpt><trkpt lat="58.03277" lon="39.122167"><ele>92.7</ele><time>2024-09-07T08:00:00Z</time></trkpt><trkpt lat="58.032835" lon="39.122487"><ele>94.0</ele><time>2024-09-07T08:00:00Z</time></trkpt><trkpt lat="58.032985" lon="39.122788"><ele>96.8</ele><time>2024-09-07T08:00:00Z</time></trkpt><trkpt lat="58.033672" lon="39.123432"><ele>109.5</ele><time>2024-09-07T08:00:00Z</time></trkpt><trkpt lat="58.0338" lon="39.123625"><ele>112.7</ele><time>2024-09-07T08:00:00Z</time></trkpt><trkpt lat="58.033822" lon="39.123818"><ele>114.3</ele><time>2024-09-07T08:00:00Z</time></trkpt><trkpt lat="58.033737" lon="39.124118"><ele>115.0</ele><time>2024-09-07T08:00:00Z</time></trkpt><trkpt lat="58.033522" lon="39.124462"><ele>113.5</ele><time>2024-09-07T08:00:00Z</time></trkpt><trkpt lat="58.033372" lon="39.12459"><ele>111.7</ele><time>2024-09-07T08:00:00Z</time></trkpt><trkpt lat="58.033328" lon="39.124783"><ele>111.9</ele><time>2024-09-07T08:00:00Z</time></trkpt><trkpt lat="58.033393" lon="39.124935"><ele>113.7</ele><time>2024-09-07T08:00:00Z</time></trkpt><trkpt lat="58.033478" lon="39.12502"><ele>115.5</ele><time>2024-09-07T08:00:00Z</time></trkpt><trkpt lat="58.0338" lon="39.124912"><ele>120.4</ele><time>2024-09-07T08:00:00Z</time></trkpt><trkpt lat="58.034058" lon="39.124698"><ele>123.4</ele><time>2024-09-07T08:00:00Z</time></trkpt><trkpt lat="58.034187" lon="39.124655"><ele>125.0</ele><time>2024-09-07T08:00:00Z</time></trkpt><trkpt lat="58.034508" lon="39.124633"><ele>126.0</ele><time>2024-09-07T08:00:00Z</time></trkpt><trkpt lat="58.03483" lon="39.124355"><ele>126.0</ele><time>2024-09-07T08:00:00Z</time></trkpt><trkpt lat="58.035238" lon="39.123905"><ele>125.0</ele><time>2024-09-07T08:00:00Z</time></trkpt><trkpt lat="58.03526" lon="39.123517"><ele>124.3</ele><time>2024-09-07T08:00:00Z</time></trkpt><trkpt lat="58.035195" lon="39.12326"><ele>123.9</ele><time>2024-09-07T08:00:00Z</time></trkpt><trkpt lat="58.034937" lon="39.122745"><ele>121.8</ele><time>2024-09-07T08:00:00Z</time></trkpt><trkpt lat="58.033285" lon="39.121243"><ele>99.3</ele><time>2024-09-07T08:00:00Z</time></trkpt><trkpt lat="58.033135" lon="39.120922"><ele>97.2</ele><time>2024-09-07T08:00:00Z</time></trkpt><trkpt lat="58.033157" lon="39.120578"><ele>96.7</ele><time>2024-09-07T08:00:00Z</time></trkpt><trkpt lat="58.033393" lon="39.120213"><ele>98.3</ele><time>2024-09-07T08:00:00Z</time></trkpt><trkpt lat="58.033757" lon="39.120235"><ele>101.6</ele><time>2024-09-07T08:00:00Z</time></trkpt><trkpt lat="58.033907" lon="39.120363"><ele>103.4</ele><time>2024-09-07T08:00:00Z</time></trkpt><trkpt lat="58.034015" lon="39.120513"><ele>105.1</ele><time>2024-09-07T08:00:00Z</time></trkpt><trkpt lat="58.034165" lon="39.12047"><ele>106.3</ele><time>2024-09-07T08:00:00Z</time></trkpt><trkpt lat="58.034208" lon="39.120127"><ele>105.0</ele><time>2024-09-07T08:00:00Z</time></trkpt><trkpt lat="58.034295" lon="39.12015"><ele>105.9</ele><time>2024-09-07T08:00:00Z</time></trkpt><trkpt lat="58.034487" lon="39.120385"><ele>109.1</ele><time>2024-09-07T08:00:00Z</time></trkpt><trkpt lat="58.03483" lon="39.120665"><ele>114.7</ele><time>2024-09-07T08:00:00Z</time></trkpt><trkpt lat="58.03511" lon="39.121028"><ele>119.0</ele><time>2024-09-07T08:00:00Z</time></trkpt><trkpt lat="58.035217" lon="39.121007"><ele>119.4</ele><time>2024-09-07T08:00:00Z</time></trkpt><trkpt lat="58.03526" lon="39.120878"><ele>119.3</ele><time>2024-09-07T08:00:00Z</time></trkpt><trkpt lat="58.035217" lon="39.120772"><ele>118.6</ele><time>2024-09-07T08:00:00Z</time></trkpt><trkpt lat="58.034787" lon="39.120235"><ele>111.0</ele><time>2024-09-07T08:00:00Z</time></trkpt><trkpt lat="58.034358" lon="39.119827"><ele>104.5</ele><time>2024-09-07T08:00:00Z</time></trkpt><trkpt lat="58.034315" lon="39.119483"><ele>102.0</ele><time>2024-09-07T08:00:00Z</time></trkpt><trkpt lat="58.034508" lon="39.118797"><ele>99.0</ele><time>2024-09-07T08:00:00Z</time></trkpt><trkpt lat="58.034595" lon="39.118732"><ele>98.9</ele><time>2024-09-07T08:00:00Z</time></trkpt><trkpt lat="58.03468" lon="39.118818"><ele>99.9</ele><time>2024-09-07T08:00:00Z</time></trkpt><trkpt lat="58.035753" lon="39.120428"><ele>119.5</ele><time>2024-09-07T08:00:00Z</time></trkpt><trkpt lat="58.035797" lon="39.12032"><ele>119.3</ele><time>2024-09-07T08:00:00Z</time></trkpt><trkpt lat="58.03468" lon="39.118562"><ele>97.8</ele><time>2024-09-07T08:00:00Z</time></trkpt><trkpt lat="58.03468" lon="39.118303"><ele>95.9</ele><time>2024-09-07T08:00:00Z</time></trkpt><trkpt lat="58.034508" lon="39.117897"><ele>94.9</ele><time>2024-09-07T08:00:00Z</time></trkpt><trkpt lat="58.034573" lon="39.116867"><ele>92.8</ele><time>2024-09-07T08:00:00Z</time></trkpt><trkpt lat="58.034617" lon="39.11678"><ele>92.4</ele><time>2024-09-07T08:00:00Z</time></trkpt><trkpt lat="58.035088" lon="39.117252"><ele>90.1</ele><time>2024-09-07T08:00:00Z</time></trkpt><trkpt lat="58.035753" lon="39.11824"><ele>89.2</ele><time>2024-09-07T08:00:00Z</time></trkpt><trkpt lat="58.03599" lon="39.118453"><ele>91.4</ele><time>2024-09-07T08:00:00Z</time></trkpt><trkpt lat="58.036268" lon="39.118368"><ele>90.1</ele><time>2024-09-07T08:00:00Z</time></trkpt><trkpt lat="58.036332" lon="39.118497"><ele>92.2</ele><time>2024-09-07T08:00:00Z</time></trkpt><trkpt lat="58.036268" lon="39.118925"><ele>99.0</ele><time>2024-09-07T08:00:00Z</time></trkpt><trkpt lat="58.03614" lon="39.118883"><ele>98.7</ele><time>2024-09-07T08:00:00Z</time></trkpt><trkpt lat="58.035217" lon="39.117745"><ele>90.8</ele><time>2024-09-07T08:00:00Z</time></trkpt><trkpt lat="58.035088" lon="39.117745"><ele>91.8</ele><time>2024-09-07T08:00:00Z</time></trkpt><trkpt lat="58.03496" lon="39.117832"><ele>93.1</ele><time>2024-09-07T08:00:00Z</time></trkpt><trkpt lat="58.034767" lon="39.118217"><ele>95.5</ele><time>2024-09-07T08:00:00Z</time></trkpt><trkpt lat="58.03481" lon="39.11841"><ele>96.7</ele><time>2024-09-07T08:00:00Z</time></trkpt><trkpt lat="58.034917" lon="39.118625"><ele>99.0</ele><time>2024-09-07T08:00:00Z</time></trkpt><trkpt lat="58.03526" lon="39.119162"><ele>105.0</ele><time>2024-09-07T08:00:00Z</time></trkpt><trkpt lat="58.036053" lon="39.120127"><ele>118.7</ele><time>2024-09-07T08:00:00Z</time></trkpt><trkpt lat="58.036268" lon="39.1203"><ele>120.0</ele><time>2024-09-07T08:00:00Z</time></trkpt><trkpt lat="58.036505" lon="39.120385"><ele>121.0</ele><time>2024-09-07T08:00:00Z</time></trkpt><trkpt lat="58.036933" lon="39.120407"><ele>122.1</ele><time>2024-09-07T08:00:00Z</time></trkpt><trkpt lat="58.037062" lon="39.120642"><ele>124.1</ele><time>2024-09-07T08:00:00Z</time></trkpt><trkpt lat="58.037062" lon="39.120792"><ele>125.2</ele><time>2024-09-07T08:00:00Z</time></trkpt><trkpt lat="58.036955" lon="39.121007"><ele>125.0</ele><time>2024-09-07T08:00:00Z</time></trkpt><trkpt lat="58.036655" lon="39.12133"><ele>123.8</ele><time>2024-09-07T08:00:00Z</time></trkpt><trkpt lat="58.036612" lon="39.1215"><ele>123.4</ele><time>2024-09-07T08:00:00Z</time></trkpt><trkpt lat="58.036762" lon="39.122595"><ele>124.1</ele><time>2024-09-07T08:00:00Z</time></trkpt><trkpt lat="58.036718" lon="39.12296"><ele>124.5</ele><time>2024-09-07T08:00:00Z</time></trkpt><trkpt lat="58.03659" lon="39.12339"><ele>125.0</ele><time>2024-09-07T08:00:00Z</time></trkpt><trkpt lat="58.03644" lon="39.123647"><ele>125.0</ele><time>2024-09-07T08:00:00Z</time></trkpt><trkpt lat="58.036075" lon="39.123775"><ele>124.5</ele><time>2024-09-07T08:00:00Z</time></trkpt><trkpt lat="58.035538" lon="39.123647"><ele>124.3</ele><time>2024-09-07T08:00:00Z</time></trkpt><trkpt lat="58.035388" lon="39.123732"><ele>124.5</ele><time>2024-09-07T08:00:00Z</time></trkpt><trkpt lat="58.035345" lon="39.12384"><ele>124.7</ele><time>2024-09-07T08:00:00Z</time></trkpt><trkpt lat="58.035217" lon="39.124848"><ele>128.2</ele><time>2024-09-07T08:00:00Z</time></trkpt><trkpt lat="58.035217" lon="39.125148"><ele>129.2</ele><time>2024-09-07T08:00:00Z</time></trkpt><trkpt lat="58.035345" lon="39.12547"><ele>130.1</ele><time>2024-09-07T08:00:00Z</time></trkpt><trkpt lat="58.035775" lon="39.126135"><ele>129.8</ele><time>2024-09-07T08:00:00Z</time></trkpt><trkpt lat="58.035903" lon="39.1262"><ele>129.4</ele><time>2024-09-07T08:00:00Z</time></trkpt><trkpt lat="58.036312" lon="39.12663"><ele>128.4</ele><time>2024-09-07T08:00:00Z</time></trkpt><trkpt lat="58.036375" lon="39.126758"><ele>128.8</ele><time>2024-09-07T08:00:00Z</time></trkpt><trkpt lat="58.036312" lon="39.127122"><ele>130.4</ele><time>2024-09-07T08:00:00Z</time></trkpt><trkpt lat="58.036203" lon="39.12738"><ele>131.5</ele><time>2024-09-07T08:00:00Z</time></trkpt><trkpt lat="58.036162" lon="39.127637"><ele>132.7</ele><time>2024-09-07T08:00:00Z</time></trkpt><trkpt lat="58.036225" lon="39.127723"><ele>133.1</ele><time>2024-09-07T08:00:00Z</time></trkpt><trkpt lat="58.036633" lon="39.127702"><ele>133.0</ele><time>2024-09-07T08:00:00Z</time></trkpt><trkpt lat="58.036783" lon="39.127445"><ele>131.9</ele><time>2024-09-07T08:00:00Z</time></trkpt><trkpt lat="58.037105" lon="39.12663"><ele>128.5</ele><time>2024-09-07T08:00:00Z</time></trkpt><trkpt lat="58.037535" lon="39.125685"><ele>126.7</ele><time>2024-09-07T08:00:00Z</time></trkpt><trkpt lat="58.037857" lon="39.124075"><ele>125.4</ele><time>2024-09-07T08:00:00Z</time></trkpt><trkpt lat="58.037942" lon="39.123818"><ele>125.3</ele><time>2024-09-07T08:00:00Z</time></trkpt><trkpt lat="58.038113" lon="39.12384"><ele>125.5</ele><time>2024-09-07T08:00:00Z</time></trkpt><trkpt lat="58.038372" lon="39.124118"><ele>126.0</ele><time>2024-09-07T08:00:00Z</time></trkpt><trkpt lat="58.038972" lon="39.124205"><ele>126.8</ele><time>2024-09-07T08:00:00Z</time></trkpt><trkpt lat="58.039143" lon="39.124268"><ele>127.0</ele><time>2024-09-07T08:00:00Z</time></trkpt><trkpt lat="58.039873" lon="39.124698"><ele>128.1</ele><time>2024-09-07T08:00:00Z</time></trkpt><trkpt lat="58.040087" lon="39.124677"><ele>128.3</ele><time>2024-09-07T08:00:00Z</time></trkpt><trkpt lat="58.04026" lon="39.12459"><ele>128.3</ele><time>2024-09-07T08:00:00Z</time></trkpt><trkpt lat="58.040452" lon="39.124312"><ele>127.9</ele><time>2024-09-07T08:00:00Z</time></trkpt><trkpt lat="58.040732" lon="39.124312"><ele>128.2</ele><time>2024-09-07T08:00:00Z</time></trkpt><trkpt lat="58.040775" lon="39.124227"><ele>128.1</ele><time>2024-09-07T08:00:00Z</time></trkpt><trkpt lat="58.040775" lon="39.12399"><ele>127.7</ele><time>2024-09-07T08:00:00Z</time></trkpt><trkpt lat="58.040432" lon="39.123197"><ele>126.4</ele><time>2024-09-07T08:00:00Z</time></trkpt><trkpt lat="58.040388" lon="39.122917"><ele>126.2</ele><time>2024-09-07T08:00:00Z</time></trkpt><trkpt lat="58.040367" lon="39.122682"><ele>126.0</ele><time>2024-09-07T08:00:00Z</time></trkpt><trkpt lat="58.040475" lon="39.12193"><ele>124.5</ele><time>2024-09-07T08:00:00Z</time></trkpt><trkpt lat="58.040452" lon="39.121715"><ele>123.8</ele><time>2024-09-07T08:00:00Z</time></trkpt><trkpt lat="58.04028" lon="39.121587"><ele>122.7</ele><time>2024-09-07T08:00:00Z</time></trkpt><trkpt lat="58.039787" lon="39.121372"><ele>121.2</ele><time>2024-09-07T08:00:00Z</time></trkpt><trkpt lat="58.039658" lon="39.121457"><ele>121.7</ele><time>2024-09-07T08:00:00Z</time></trkpt><trkpt lat="58.039165" lon="39.121522"><ele>122.5</ele><time>2024-09-07T08:00:00Z</time></trkpt><trkpt lat="58.038822" lon="39.12163"><ele>123.3</ele><time>2024-09-07T08:00:00Z</time></trkpt><trkpt lat="58.038607" lon="39.12163"><ele>123.7</ele><time>2024-09-07T08:00:00Z</time></trkpt><trkpt lat="58.038263" lon="39.121565"><ele>124.2</ele><time>2024-09-07T08:00:00Z</time></trkpt><trkpt lat="58.0382" lon="39.12148"><ele>124.4</ele><time>2024-09-07T08:00:00Z</time></trkpt><trkpt lat="58.038178" lon="39.121307"><ele>124.6</ele><time>2024-09-07T08:00:00Z</time></trkpt><trkpt lat="58.038307" lon="39.119785"><ele>123.1</ele><time>2024-09-07T08:00:00Z</time></trkpt><trkpt lat="58.038628" lon="39.118368"><ele>108.6</ele><time>2024-09-07T08:00:00Z</time></trkpt><trkpt lat="58.0388" lon="39.117767"><ele>102.0</ele><time>2024-09-07T08:00:00Z</time></trkpt><trkpt lat="58.038843" lon="39.117725"><ele>101.6</ele><time>2024-09-07T08:00:00Z</time></trkpt><trkpt lat="58.038907" lon="39.117745"><ele>101.7</ele><time>2024-09-07T08:00:00Z</time></trkpt><trkpt lat="58.03893" lon="39.11781"><ele>102.2</ele><time>2024-09-07T08:00:00Z</time></trkpt><trkpt lat="58.03895" lon="39.118605"><ele>108.7</ele><time>2024-09-07T08:00:00Z</time></trkpt><trkpt lat="58.038778" lon="39.12047"><ele>121.2</ele><time>2024-09-07T08:00:00Z</time></trkpt><trkpt lat="58.038822" lon="39.120835"><ele>122.1</ele><time>2024-09-07T08:00:00Z</time></trkpt><trkpt lat="58.03893" lon="39.120942"><ele>121.7</ele><time>2024-09-07T08:00:00Z</time></trkpt><trkpt lat="58.039037" lon="39.120878"><ele>120.9</ele><time>2024-09-07T08:00:00Z</time></trkpt><trkpt lat="58.039165" lon="39.120728"><ele>119.5</ele><time>2024-09-07T08:00:00Z</time></trkpt><trkpt lat="58.039658" lon="39.120578"><ele>118.2</ele><time>2024-09-07T08:00:00Z</time></trkpt><trkpt lat="58.039745" lon="39.120665"><ele>118.5</ele><time>2024-09-07T08:00:00Z</time></trkpt><trkpt lat="58.039852" lon="39.1212"><ele>120.5</ele><time>2024-09-07T08:00:00Z</time></trkpt><trkpt lat="58.039937" lon="39.121265"><ele>120.6</ele><time>2024-09-07T08:00:00Z</time></trkpt><trkpt lat="58.040582" lon="39.120363"><ele>118.1</ele><time>2024-09-07T08:00:00Z</time></trkpt><trkpt lat="58.040625" lon="39.120448"><ele>118.7</ele><time>2024-09-07T08:00:00Z</time></trkpt><trkpt lat="58.040602" lon="39.12075"><ele>120.6</ele><time>2024-09-07T08:00:00Z</time></trkpt><trkpt lat="58.040517" lon="39.121137"><ele>122.0</ele><time>2024-09-07T08:00:00Z</time></trkpt><trkpt lat="58.04056" lon="39.121307"><ele>122.7</ele><time>2024-09-07T08:00:00Z</time></trkpt><trkpt lat="58.040625" lon="39.121372"><ele>123.2</ele><time>2024-09-07T08:00:00Z</time></trkpt><trkpt lat="58.040732" lon="39.121307"><ele>123.3</ele><time>2024-09-07T08:00:00Z</time></trkpt><trkpt lat="58.040817" lon="39.121072"><ele>122.8</ele><time>2024-09-07T08:00:00Z</time></trkpt><trkpt lat="58.040925" lon="39.120042"><ele>115.1</ele><time>2024-09-07T08:00:00Z</time></trkpt><trkpt lat="58.040667" lon="39.118818"><ele>105.1</ele><time>2024-09-07T08:00:00Z</time></trkpt><trkpt lat="58.040432" lon="39.118475"><ele>103.2</ele><time>2024-09-07T08:00:00Z</time></trkpt><trkpt lat="58.040045" lon="39.118047"><ele>102.3</ele><time>2024-09-07T08:00:00Z</time></trkpt><trkpt lat="58.03983" lon="39.117617"><ele>99.3</ele><time>2024-09-07T08:00:00Z</time></trkpt><trkpt lat="58.039723" lon="39.117295"><ele>97.8</ele><time>2024-09-07T08:00:00Z</time></trkpt><trkpt lat="58.039208" lon="39.115"><ele>93.2</ele><time>2024-09-07T08:00:00Z</time></trkpt><trkpt lat="58.039122" lon="39.114742"><ele>92.5</ele><time>2024-09-07T08:00:00Z</time></trkpt><trkpt lat="58.038735" lon="39.114248"><ele>90.0</ele><time>2024-09-07T08:00:00Z</time></trkpt><trkpt lat="58.038672" lon="39.114248"><ele>89.7</ele><time>2024-09-07T08:00:00Z</time></trkpt><trkpt lat="58.038628" lon="39.114355"><ele>89.7</ele><time>2024-09-07T08:00:00Z</time></trkpt><trkpt lat="58.038542" lon="39.115192"><ele>90.4</ele><time>2024-09-07T08:00:00Z</time></trkpt><trkpt lat="58.038457" lon="39.115298"><ele>90.3</ele><time>2024-09-07T08:00:00Z</time></trkpt><trkpt lat="58.038328" lon="39.115213"><ele>89.5</ele><time>2024-09-07T08:00:00Z</time></trkpt><trkpt lat="58.038307" lon="39.114957"><ele>89.0</ele><time>2024-09-07T08:00:00Z</time></trkpt><trkpt lat="58.038522" lon="39.114162"><ele>88.9</ele><time>2024-09-07T08:00:00Z</time></trkpt><trkpt lat="58.038865" lon="39.113605"><ele>91.2</ele><time>2024-09-07T08:00:00Z</time></trkpt><trkpt lat="58.038907" lon="39.113412"><ele>91.7</ele><time>2024-09-07T08:00:00Z</time></trkpt><trkpt lat="58.03893" lon="39.112917"><ele>93.3</ele><time>2024-09-07T08:00:00Z</time></trkpt><trkpt lat="58.038865" lon="39.112595"><ele>93.8</ele><time>2024-09-07T08:00:00Z</time></trkpt><trkpt lat="58.038693" lon="39.112295"><ele>94.1</ele><time>2024-09-07T08:00:00Z</time></trkpt><trkpt lat="58.038607" lon="39.11221"><ele>94.0</ele><time>2024-09-07T08:00:00Z</time></trkpt><trkpt lat="58.038415" lon="39.112188"><ele>92.1</ele><time>2024-09-07T08:00:00Z</time></trkpt><trkpt lat="58.038263" lon="39.112338"><ele>90.3</ele><time>2024-09-07T08:00:00Z</time></trkpt><trkpt lat="58.03822" lon="39.112488"><ele>89.3</ele><time>2024-09-07T08:00:00Z</time></trkpt><trkpt lat="58.0382" lon="39.112747"><ele>89.4</ele><time>2024-09-07T08:00:00Z</time></trkpt><trkpt lat="58.03835" lon="39.113583"><ele>88.8</ele><time>2024-09-07T08:00:00Z</time></trkpt><trkpt lat="58.038372" lon="39.114012"><ele>88.4</ele><time>2024-09-07T08:00:00Z</time></trkpt><trkpt lat="58.03805" lon="39.115622"><ele>90.1</ele><time>2024-09-07T08:00:00Z</time></trkpt><trkpt lat="58.03792" lon="39.115622"><ele>89.9</ele><time>2024-09-07T08:00:00Z</time></trkpt><trkpt lat="58.037512" lon="39.114935"><ele>90.1</ele><time>2024-09-07T08:00:00Z</time></trkpt><trkpt lat="58.037148" lon="39.11399"><ele>91.2</ele><time>2024-09-07T08:00:00Z</time></trkpt><trkpt lat="58.036655" lon="39.113475"><ele>92.3</ele><time>2024-09-07T08:00:00Z</time></trkpt></trkseg></trk></gpx>