<?xml version="1.0" encoding="UTF-8" standalone="no"?><gpx xmlns="http://www.topografix.com/GPX/1/1" xmlns:gpxtpx="http://www.garmin.com/xmlschemas/TrackPointExtension/v1" xmlns:xsi="http://www.w3.org/2001/XMLSchema-instance" creator="Sports Tracker" version="1.1" xsi:schemaLocation="http://www.topografix.com/GPX/1/1 http://www.topografix.com/GPX/1/1/gpx.xsd http://www.garmin.com/xmlschemas/TrackPointExtension/v1 http://www.garmin.com/xmlschemas/TrackPointExtensionv1.xsd"><metadata><name/><desc/><author><name>Александр</name></author></metadata><trk><name/><trkseg><trkpt lat="58.05862" lon="38.807715"><ele>102.7</ele><time>2023-08-21T13:45:08Z</time></trkpt><trkpt lat="58.058557" lon="38.807568"><ele>105.5</ele><time>2023-08-21T13:45:20Z</time></trkpt><trkpt lat="58.058633" lon="38.807978"><ele>109.7</ele><time>2023-08-21T13:45:22Z</time></trkpt><trkpt lat="58.058668" lon="38.808213"><ele>110.9</ele><time>2023-08-21T13:45:26Z</time></trkpt><trkpt lat="58.0586" lon="38.808288"><ele>99.7</ele><time>2023-08-21T13:45:29Z</time></trkpt><trkpt lat="58.058587" lon="38.808443"><ele>107.7</ele><time>2023-08-21T13:45:31Z</time></trkpt><trkpt lat="58.058627" lon="38.808793"><ele>105.7</ele><time>2023-08-21T13:45:32Z</time></trkpt><trkpt lat="58.058542" lon="38.808673"><ele>105.6</ele><time>2023-08-21T13:45:34Z</time></trkpt><trkpt lat="58.05854" lon="38.808858"><ele>105.5</ele><time>2023-08-21T13:45:36Z</time></trkpt><trkpt lat="58.058455" lon="38.808877"><ele>104.2</ele><time>2023-08-21T13:45:40Z</time></trkpt><trkpt lat="58.058375" lon="38.808882"><ele>103.7</ele><time>2023-08-21T13:45:42Z</time></trkpt><trkpt lat="58.058293" lon="38.808885"><ele>103.6</ele><time>2023-08-21T13:45:44Z</time></trkpt><trkpt lat="58.058215" lon="38.808885"><ele>103.9</ele><time>2023-08-21T13:45:46Z</time></trkpt><trkpt lat="58.058135" lon="38.808887"><ele>103.9</ele><time>2023-08-21T13:45:48Z</time></trkpt><trkpt lat="58.058053" lon="38.80887"><ele>104.0</ele><time>2023-08-21T13:45:50Z</time></trkpt><trkpt lat="58.057973" lon="38.808837"><ele>104.0</ele><time>2023-08-21T13:45:52Z</time></trkpt><trkpt lat="58.057902" lon="38.808818"><ele>104.5</ele><time>2023-08-21T13:45:54Z</time></trkpt><trkpt lat="58.057793" lon="38.808815"><ele>105.1</ele><time>2023-08-21T13:45:57Z</time></trkpt><trkpt lat="58.057715" lon="38.808813"><ele>105.4</ele><time>2023-08-21T13:45:59Z</time></trkpt><trkpt lat="58.057643" lon="38.808843"><ele>106.1</ele><time>2023-08-21T13:46:01Z</time></trkpt><trkpt lat="58.057573" lon="38.808887"><ele>105.8</ele><time>2023-08-21T13:46:03Z</time></trkpt><trkpt lat="58.057493" lon="38.809"><ele>106.1</ele><time>2023-08-21T13:46:06Z</time></trkpt><trkpt lat="58.057415" lon="38.809088"><ele>106.2</ele><time>2023-08-21T13:46:09Z</time></trkpt><trkpt lat="58.057333" lon="38.809152"><ele>106.4</ele><time>2023-08-21T13:46:12Z</time></trkpt><trkpt lat="58.057263" lon="38.8092"><ele>106.0</ele><time>2023-08-21T13:46:14Z</time></trkpt><trkpt lat="58.057173" lon="38.809288"><ele>106.2</ele><time>2023-08-21T13:46:17Z</time></trkpt><trkpt lat="58.057095" lon="38.809415"><ele>105.6</ele><time>2023-08-21T13:46:20Z</time></trkpt><trkpt lat="58.057065" lon="38.809557"><ele>105.9</ele><time>2023-08-21T13:46:22Z</time></trkpt><trkpt lat="58.057013" lon="38.809673"><ele>105.8</ele><time>2023-08-21T13:46:24Z</time></trkpt><trkpt lat="58.056913" lon="38.809655"><ele>105.5</ele><time>2023-08-21T13:46:26Z</time></trkpt><trkpt lat="58.056807" lon="38.809645"><ele>104.9</ele><time>2023-08-21T13:46:28Z</time></trkpt><trkpt lat="58.056748" lon="38.80974"><ele>103.6</ele><time>2023-08-21T13:46:33Z</time></trkpt><trkpt lat="58.056727" lon="38.809875"><ele>102.7</ele><time>2023-08-21T13:46:35Z</time></trkpt><trkpt lat="58.056718" lon="38.810033"><ele>101.7</ele><time>2023-08-21T13:46:37Z</time></trkpt><trkpt lat="58.056678" lon="38.8102"><ele>101.6</ele><time>2023-08-21T13:46:39Z</time></trkpt><trkpt lat="58.056673" lon="38.810353"><ele>102.0</ele><time>2023-08-21T13:46:44Z</time></trkpt><trkpt lat="58.056655" lon="38.810498"><ele>103.2</ele><time>2023-08-21T13:46:47Z</time></trkpt><trkpt lat="58.05663" lon="38.810718"><ele>103.9</ele><time>2023-08-21T13:46:49Z</time></trkpt><trkpt lat="58.056612" lon="38.810853"><ele>104.0</ele><time>2023-08-21T13:46:51Z</time></trkpt><trkpt lat="58.056533" lon="38.810958"><ele>103.9</ele><time>2023-08-21T13:46:54Z</time></trkpt><trkpt lat="58.056447" lon="38.810923"><ele>104.3</ele><time>2023-08-21T13:46:56Z</time></trkpt><trkpt lat="58.056322" lon="38.810862"><ele>104.5</ele><time>2023-08-21T13:46:59Z</time></trkpt><trkpt lat="58.056185" lon="38.81084"><ele>104.4</ele><time>2023-08-21T13:47:01Z</time></trkpt><trkpt lat="58.056088" lon="38.81088"><ele>103.5</ele><time>2023-08-21T13:47:03Z</time></trkpt><trkpt lat="58.056007" lon="38.81088"><ele>103.3</ele><time>2023-08-21T13:47:05Z</time></trkpt><trkpt lat="58.05594" lon="38.81103"><ele>103.3</ele><time>2023-08-21T13:47:08Z</time></trkpt><trkpt lat="58.055973" lon="38.811227"><ele>102.8</ele><time>2023-08-21T13:47:10Z</time></trkpt><trkpt lat="58.055967" lon="38.811402"><ele>102.6</ele><time>2023-08-21T13:47:12Z</time></trkpt><trkpt lat="58.055955" lon="38.811583"><ele>102.6</ele><time>2023-08-21T13:47:14Z</time></trkpt><trkpt lat="58.055945" lon="38.811775"><ele>102.8</ele><time>2023-08-21T13:47:16Z</time></trkpt><trkpt lat="58.055927" lon="38.811938"><ele>102.4</ele><time>2023-08-21T13:47:18Z</time></trkpt><trkpt lat="58.055915" lon="38.81209"><ele>102.8</ele><time>2023-08-21T13:47:20Z</time></trkpt><trkpt lat="58.055913" lon="38.812292"><ele>102.5</ele><time>2023-08-21T13:47:22Z</time></trkpt><trkpt lat="58.0559" lon="38.81251"><ele>102.3</ele><time>2023-08-21T13:47:24Z</time></trkpt><trkpt lat="58.055905" lon="38.812692"><ele>103.3</ele><time>2023-08-21T13:47:26Z</time></trkpt><trkpt lat="58.055893" lon="38.812858"><ele>103.0</ele><time>2023-08-21T13:47:28Z</time></trkpt><trkpt lat="58.055892" lon="38.813042"><ele>103.9</ele><time>2023-08-21T13:47:30Z</time></trkpt><trkpt lat="58.055873" lon="38.813223"><ele>104.1</ele><time>2023-08-21T13:47:32Z</time></trkpt><trkpt lat="58.055845" lon="38.813443"><ele>104.0</ele><time>2023-08-21T13:47:34Z</time></trkpt><trkpt lat="58.055828" lon="38.813598"><ele>104.2</ele><time>2023-08-21T13:47:36Z</time></trkpt><trkpt lat="58.055827" lon="38.813755"><ele>104.2</ele><time>2023-08-21T13:47:38Z</time></trkpt><trkpt lat="58.05583" lon="38.813947"><ele>104.4</ele><time>2023-08-21T13:47:40Z</time></trkpt><trkpt lat="58.055832" lon="38.814203"><ele>105.8</ele><time>2023-08-21T13:47:42Z</time></trkpt><trkpt lat="58.055807" lon="38.814427"><ele>106.7</ele><time>2023-08-21T13:47:44Z</time></trkpt><trkpt lat="58.055768" lon="38.814662"><ele>106.2</ele><time>2023-08-21T13:47:46Z</time></trkpt><trkpt lat="58.055742" lon="38.814812"><ele>104.6</ele><time>2023-08-21T13:47:48Z</time></trkpt><trkpt lat="58.055747" lon="38.814978"><ele>105.1</ele><time>2023-08-21T13:47:50Z</time></trkpt><trkpt lat="58.055707" lon="38.815098"><ele>104.4</ele><time>2023-08-21T13:47:52Z</time></trkpt><trkpt lat="58.055655" lon="38.81524"><ele>103.4</ele><time>2023-08-21T13:47:54Z</time></trkpt><trkpt lat="58.055608" lon="38.815352"><ele>103.6</ele><time>2023-08-21T13:47:56Z</time></trkpt><trkpt lat="58.055543" lon="38.815488"><ele>104.3</ele><time>2023-08-21T13:47:58Z</time></trkpt><trkpt lat="58.05547" lon="38.815613"><ele>103.9</ele><time>2023-08-21T13:48:00Z</time></trkpt><trkpt lat="58.055393" lon="38.815715"><ele>104.7</ele><time>2023-08-21T13:48:02Z</time></trkpt><trkpt lat="58.055345" lon="38.81587"><ele>104.4</ele><time>2023-08-21T13:48:04Z</time></trkpt><trkpt lat="58.055303" lon="38.816023"><ele>103.5</ele><time>2023-08-21T13:48:06Z</time></trkpt><trkpt lat="58.055305" lon="38.816208"><ele>103.9</ele><time>2023-08-21T13:48:09Z</time></trkpt><trkpt lat="58.055318" lon="38.816357"><ele>105.0</ele><time>2023-08-21T13:49:18Z</time></trkpt><trkpt lat="58.055293" lon="38.816563"><ele>104.4</ele><time>2023-08-21T13:49:21Z</time></trkpt><trkpt lat="58.05526" lon="38.816782"><ele>104.2</ele><time>2023-08-21T13:49:23Z</time></trkpt><trkpt lat="58.05524" lon="38.81705"><ele>104.2</ele><time>2023-08-21T13:49:25Z</time></trkpt><trkpt lat="58.05523" lon="38.817197"><ele>103.9</ele><time>2023-08-21T13:49:26Z</time></trkpt><trkpt lat="58.055218" lon="38.817342"><ele>103.7</ele><time>2023-08-21T13:49:27Z</time></trkpt><trkpt lat="58.055208" lon="38.817488"><ele>104.1</ele><time>2023-08-21T13:49:28Z</time></trkpt><trkpt lat="58.05521" lon="38.817653"><ele>104.2</ele><time>2023-08-21T13:49:29Z</time></trkpt><trkpt lat="58.055193" lon="38.817792"><ele>103.2</ele><time>2023-08-21T13:49:30Z</time></trkpt><trkpt lat="58.055175" lon="38.818055"><ele>103.5</ele><time>2023-08-21T13:49:32Z</time></trkpt><trkpt lat="58.055155" lon="38.818313"><ele>103.2</ele><time>2023-08-21T13:49:34Z</time></trkpt><trkpt lat="58.055135" lon="38.818543"><ele>103.8</ele><time>2023-08-21T13:49:36Z</time></trkpt><trkpt lat="58.055115" lon="38.818768"><ele>103.2</ele><time>2023-08-21T13:49:38Z</time></trkpt><trkpt lat="58.055098" lon="38.818962"><ele>102.8</ele><time>2023-08-21T13:49:40Z</time></trkpt><trkpt lat="58.055088" lon="38.819173"><ele>102.2</ele><time>2023-08-21T13:49:42Z</time></trkpt><trkpt lat="58.055072" lon="38.819395"><ele>102.1</ele><time>2023-08-21T13:49:44Z</time></trkpt><trkpt lat="58.055067" lon="38.819592"><ele>102.0</ele><time>2023-08-21T13:49:46Z</time></trkpt><trkpt lat="58.055067" lon="38.819773"><ele>101.8</ele><time>2023-08-21T13:49:48Z</time></trkpt><trkpt lat="58.055067" lon="38.81995"><ele>101.5</ele><time>2023-08-21T13:49:50Z</time></trkpt><trkpt lat="58.05506" lon="38.82014"><ele>101.9</ele><time>2023-08-21T13:49:53Z</time></trkpt><trkpt lat="58.055037" lon="38.820317"><ele>101.5</ele><time>2023-08-21T13:49:56Z</time></trkpt><trkpt lat="58.054975" lon="38.820438"><ele>101.0</ele><time>2023-08-21T13:49:58Z</time></trkpt><trkpt lat="58.054923" lon="38.820633"><ele>100.5</ele><time>2023-08-21T13:50:00Z</time></trkpt><trkpt lat="58.054903" lon="38.820875"><ele>100.3</ele><time>2023-08-21T13:50:02Z</time></trkpt><trkpt lat="58.054893" lon="38.821117"><ele>101.2</ele><time>2023-08-21T13:50:04Z</time></trkpt><trkpt lat="58.05487" lon="38.821367"><ele>101.8</ele><time>2023-08-21T13:50:06Z</time></trkpt><trkpt lat="58.054855" lon="38.821607"><ele>101.1</ele><time>2023-08-21T13:50:08Z</time></trkpt><trkpt lat="58.054845" lon="38.82184"><ele>99.5</ele><time>2023-08-21T13:50:10Z</time></trkpt><trkpt lat="58.054807" lon="38.822035"><ele>99.9</ele><time>2023-08-21T13:50:12Z</time></trkpt><trkpt lat="58.054753" lon="38.822233"><ele>100.4</ele><time>2023-08-21T13:50:14Z</time></trkpt><trkpt lat="58.054703" lon="38.82246"><ele>100.9</ele><time>2023-08-21T13:50:16Z</time></trkpt><trkpt lat="58.054662" lon="38.822688"><ele>101.3</ele><time>2023-08-21T13:50:18Z</time></trkpt><trkpt lat="58.054617" lon="38.8229"><ele>101.4</ele><time>2023-08-21T13:50:20Z</time></trkpt><trkpt lat="58.054583" lon="38.823092"><ele>101.1</ele><time>2023-08-21T13:50:22Z</time></trkpt><trkpt lat="58.054553" lon="38.823293"><ele>101.3</ele><time>2023-08-21T13:50:24Z</time></trkpt><trkpt lat="58.054528" lon="38.823478"><ele>101.4</ele><time>2023-08-21T13:50:26Z</time></trkpt><trkpt lat="58.054503" lon="38.823662"><ele>101.3</ele><time>2023-08-21T13:50:28Z</time></trkpt><trkpt lat="58.054493" lon="38.823807"><ele>101.7</ele><time>2023-08-21T13:50:32Z</time></trkpt><trkpt lat="58.054462" lon="38.82395"><ele>103.3</ele><time>2023-08-21T13:50:36Z</time></trkpt><trkpt lat="58.054422" lon="38.824083"><ele>103.2</ele><time>2023-08-21T13:50:38Z</time></trkpt><trkpt lat="58.05436" lon="38.824262"><ele>102.7</ele><time>2023-08-21T13:50:40Z</time></trkpt><trkpt lat="58.054348" lon="38.824397"><ele>103.2</ele><time>2023-08-21T13:50:41Z</time></trkpt><trkpt lat="58.05432" lon="38.824553"><ele>104.0</ele><time>2023-08-21T13:50:43Z</time></trkpt><trkpt lat="58.054318" lon="38.824728"><ele>103.9</ele><time>2023-08-21T13:50:45Z</time></trkpt><trkpt lat="58.054283" lon="38.824893"><ele>104.0</ele><time>2023-08-21T13:50:47Z</time></trkpt><trkpt lat="58.054242" lon="38.82509"><ele>104.0</ele><time>2023-08-21T13:50:49Z</time></trkpt><trkpt lat="58.054217" lon="38.825265"><ele>104.7</ele><time>2023-08-21T13:50:51Z</time></trkpt><trkpt lat="58.054197" lon="38.825448"><ele>104.9</ele><time>2023-08-21T13:50:53Z</time></trkpt><trkpt lat="58.054188" lon="38.825652"><ele>104.0</ele><time>2023-08-21T13:50:55Z</time></trkpt><trkpt lat="58.054187" lon="38.825837"><ele>102.7</ele><time>2023-08-21T13:50:57Z</time></trkpt><trkpt lat="58.054165" lon="38.82598"><ele>102.7</ele><time>2023-08-21T13:50:58Z</time></trkpt><trkpt lat="58.054122" lon="38.826157"><ele>102.5</ele><time>2023-08-21T13:51:00Z</time></trkpt><trkpt lat="58.054048" lon="38.826313"><ele>102.6</ele><time>2023-08-21T13:51:02Z</time></trkpt><trkpt lat="58.054018" lon="38.826438"><ele>102.3</ele><time>2023-08-21T13:51:04Z</time></trkpt><trkpt lat="58.053967" lon="38.826553"><ele>101.7</ele><time>2023-08-21T13:51:06Z</time></trkpt><trkpt lat="58.05392" lon="38.82674"><ele>100.5</ele><time>2023-08-21T13:51:09Z</time></trkpt><trkpt lat="58.053867" lon="38.826917"><ele>99.1</ele><time>2023-08-21T13:51:11Z</time></trkpt><trkpt lat="58.053842" lon="38.827108"><ele>97.9</ele><time>2023-08-21T13:51:13Z</time></trkpt><trkpt lat="58.053805" lon="38.827345"><ele>97.4</ele><time>2023-08-21T13:51:15Z</time></trkpt><trkpt lat="58.05375" lon="38.82755"><ele>97.3</ele><time>2023-08-21T13:51:17Z</time></trkpt><trkpt lat="58.053705" lon="38.827753"><ele>98.4</ele><time>2023-08-21T13:51:19Z</time></trkpt><trkpt lat="58.053665" lon="38.827952"><ele>98.0</ele><time>2023-08-21T13:51:21Z</time></trkpt><trkpt lat="58.053632" lon="38.828147"><ele>97.8</ele><time>2023-08-21T13:51:23Z</time></trkpt><trkpt lat="58.053595" lon="38.82835"><ele>97.6</ele><time>2023-08-21T13:51:25Z</time></trkpt><trkpt lat="58.053553" lon="38.82854"><ele>98.2</ele><time>2023-08-21T13:51:27Z</time></trkpt><trkpt lat="58.053507" lon="38.828733"><ele>98.6</ele><time>2023-08-21T13:51:29Z</time></trkpt><trkpt lat="58.053478" lon="38.828957"><ele>99.0</ele><time>2023-08-21T13:51:31Z</time></trkpt><trkpt lat="58.053457" lon="38.829152"><ele>98.5</ele><time>2023-08-21T13:51:33Z</time></trkpt><trkpt lat="58.053412" lon="38.829347"><ele>98.3</ele><time>2023-08-21T13:51:36Z</time></trkpt><trkpt lat="58.053383" lon="38.829552"><ele>98.5</ele><time>2023-08-21T13:51:38Z</time></trkpt><trkpt lat="58.053338" lon="38.829662"><ele>98.8</ele><time>2023-08-21T13:51:40Z</time></trkpt><trkpt lat="58.053315" lon="38.829855"><ele>99.2</ele><time>2023-08-21T13:51:42Z</time></trkpt><trkpt lat="58.05328" lon="38.83004"><ele>99.6</ele><time>2023-08-21T13:51:44Z</time></trkpt><trkpt lat="58.053222" lon="38.830165"><ele>100.4</ele><time>2023-08-21T13:51:46Z</time></trkpt><trkpt lat="58.053198" lon="38.830325"><ele>99.1</ele><time>2023-08-21T13:51:48Z</time></trkpt><trkpt lat="58.053152" lon="38.83052"><ele>99.5</ele><time>2023-08-21T13:51:51Z</time></trkpt><trkpt lat="58.053123" lon="38.830675"><ele>99.5</ele><time>2023-08-21T13:51:53Z</time></trkpt><trkpt lat="58.053077" lon="38.830877"><ele>100.3</ele><time>2023-08-21T13:51:55Z</time></trkpt><trkpt lat="58.053048" lon="38.831058"><ele>100.9</ele><time>2023-08-21T13:51:57Z</time></trkpt><trkpt lat="58.053017" lon="38.831252"><ele>101.1</ele><time>2023-08-21T13:51:59Z</time></trkpt><trkpt lat="58.052998" lon="38.831435"><ele>101.4</ele><time>2023-08-21T13:52:01Z</time></trkpt><trkpt lat="58.052972" lon="38.83162"><ele>101.3</ele><time>2023-08-21T13:52:03Z</time></trkpt><trkpt lat="58.052937" lon="38.831762"><ele>101.1</ele><time>2023-08-21T13:52:05Z</time></trkpt><trkpt lat="58.052922" lon="38.831897"><ele>100.8</ele><time>2023-08-21T13:52:07Z</time></trkpt><trkpt lat="58.052893" lon="38.83209"><ele>100.7</ele><time>2023-08-21T13:52:09Z</time></trkpt><trkpt lat="58.052857" lon="38.832272"><ele>100.7</ele><time>2023-08-21T13:52:11Z</time></trkpt><trkpt lat="58.052815" lon="38.832443"><ele>101.2</ele><time>2023-08-21T13:52:13Z</time></trkpt><trkpt lat="58.052772" lon="38.832635"><ele>101.0</ele><time>2023-08-21T13:52:15Z</time></trkpt><trkpt lat="58.052748" lon="38.832817"><ele>100.9</ele><time>2023-08-21T13:52:17Z</time></trkpt><trkpt lat="58.05272" lon="38.832987"><ele>100.8</ele><time>2023-08-21T13:52:19Z</time></trkpt><trkpt lat="58.052687" lon="38.833152"><ele>100.8</ele><time>2023-08-21T13:52:22Z</time></trkpt><trkpt lat="58.052663" lon="38.833363"><ele>101.2</ele><time>2023-08-21T13:52:24Z</time></trkpt><trkpt lat="58.052623" lon="38.833598"><ele>100.9</ele><time>2023-08-21T13:52:26Z</time></trkpt><trkpt lat="58.052575" lon="38.833808"><ele>100.9</ele><time>2023-08-21T13:52:28Z</time></trkpt><trkpt lat="58.052542" lon="38.834005"><ele>101.1</ele><time>2023-08-21T13:52:30Z</time></trkpt><trkpt lat="58.052487" lon="38.834155"><ele>101.1</ele><time>2023-08-21T13:52:32Z</time></trkpt><trkpt lat="58.0524" lon="38.83421"><ele>101.2</ele><time>2023-08-21T13:52:34Z</time></trkpt><trkpt lat="58.052313" lon="38.834207"><ele>101.7</ele><time>2023-08-21T13:52:36Z</time></trkpt><trkpt lat="58.05223" lon="38.834222"><ele>101.7</ele><time>2023-08-21T13:52:38Z</time></trkpt><trkpt lat="58.052138" lon="38.834177"><ele>101.6</ele><time>2023-08-21T13:52:40Z</time></trkpt><trkpt lat="58.052067" lon="38.834122"><ele>102.4</ele><time>2023-08-21T13:52:42Z</time></trkpt><trkpt lat="58.051983" lon="38.83402"><ele>101.9</ele><time>2023-08-21T13:52:44Z</time></trkpt><trkpt lat="58.05189" lon="38.833962"><ele>101.2</ele><time>2023-08-21T13:52:46Z</time></trkpt><trkpt lat="58.051787" lon="38.833885"><ele>101.3</ele><time>2023-08-21T13:52:48Z</time></trkpt><trkpt lat="58.051698" lon="38.833812"><ele>100.9</ele><time>2023-08-21T13:52:50Z</time></trkpt><trkpt lat="58.051555" lon="38.83375"><ele>100.8</ele><time>2023-08-21T13:52:53Z</time></trkpt><trkpt lat="58.051473" lon="38.833682"><ele>100.6</ele><time>2023-08-21T13:52:55Z</time></trkpt><trkpt lat="58.051398" lon="38.833643"><ele>100.5</ele><time>2023-08-21T13:52:57Z</time></trkpt><trkpt lat="58.051308" lon="38.833632"><ele>100.6</ele><time>2023-08-21T13:53:00Z</time></trkpt><trkpt lat="58.051235" lon="38.833565"><ele>100.7</ele><time>2023-08-21T13:53:04Z</time></trkpt><trkpt lat="58.051153" lon="38.833525"><ele>100.5</ele><time>2023-08-21T13:53:08Z</time></trkpt><trkpt lat="58.051078" lon="38.833595"><ele>100.5</ele><time>2023-08-21T13:53:13Z</time></trkpt><trkpt lat="58.050988" lon="38.833613"><ele>101.0</ele><time>2023-08-21T13:53:17Z</time></trkpt><trkpt lat="58.050903" lon="38.833565"><ele>100.9</ele><time>2023-08-21T13:53:21Z</time></trkpt><trkpt lat="58.050828" lon="38.833515"><ele>100.9</ele><time>2023-08-21T13:53:26Z</time></trkpt><trkpt lat="58.050745" lon="38.833467"><ele>100.3</ele><time>2023-08-21T13:53:30Z</time></trkpt><trkpt lat="58.050653" lon="38.833415"><ele>100.4</ele><time>2023-08-21T13:53:33Z</time></trkpt><trkpt lat="58.050575" lon="38.833355"><ele>100.4</ele><time>2023-08-21T13:53:36Z</time></trkpt><trkpt lat="58.050503" lon="38.833323"><ele>100.7</ele><time>2023-08-21T13:53:39Z</time></trkpt><trkpt lat="58.050445" lon="38.833238"><ele>101.0</ele><time>2023-08-21T13:53:41Z</time></trkpt><trkpt lat="58.050385" lon="38.8331"><ele>101.0</ele><time>2023-08-21T13:53:43Z</time></trkpt><trkpt lat="58.050305" lon="38.833005"><ele>100.6</ele><time>2023-08-21T13:53:45Z</time></trkpt><trkpt lat="58.050212" lon="38.832953"><ele>100.1</ele><time>2023-08-21T13:53:47Z</time></trkpt><trkpt lat="58.050127" lon="38.832908"><ele>100.4</ele><time>2023-08-21T13:53:48Z</time></trkpt><trkpt lat="58.050018" lon="38.832862"><ele>100.0</ele><time>2023-08-21T13:53:51Z</time></trkpt><trkpt lat="58.049943" lon="38.832807"><ele>99.4</ele><time>2023-08-21T13:53:53Z</time></trkpt><trkpt lat="58.049875" lon="38.832695"><ele>99.3</ele><time>2023-08-21T13:53:56Z</time></trkpt><trkpt lat="58.049798" lon="38.832603"><ele>99.0</ele><time>2023-08-21T13:53:59Z</time></trkpt><trkpt lat="58.049712" lon="38.832527"><ele>99.0</ele><time>2023-08-21T13:54:02Z</time></trkpt><trkpt lat="58.049608" lon="38.83247"><ele>99.4</ele><time>2023-08-21T13:54:05Z</time></trkpt><trkpt lat="58.049532" lon="38.832473"><ele>99.7</ele><time>2023-08-21T13:54:07Z</time></trkpt><trkpt lat="58.049435" lon="38.832495"><ele>99.3</ele><time>2023-08-21T13:54:10Z</time></trkpt><trkpt lat="58.049357" lon="38.83254"><ele>99.6</ele><time>2023-08-21T13:54:12Z</time></trkpt><trkpt lat="58.049315" lon="38.832668"><ele>99.8</ele><time>2023-08-21T13:54:14Z</time></trkpt><trkpt lat="58.049293" lon="38.832818"><ele>99.3</ele><time>2023-08-21T13:54:16Z</time></trkpt><trkpt lat="58.049247" lon="38.832987"><ele>99.6</ele><time>2023-08-21T13:54:19Z</time></trkpt><trkpt lat="58.049167" lon="38.833082"><ele>99.9</ele><time>2023-08-21T13:54:22Z</time></trkpt><trkpt lat="58.049092" lon="38.833055"><ele>100.0</ele><time>2023-08-21T13:54:24Z</time></trkpt><trkpt lat="58.049028" lon="38.832993"><ele>99.9</ele><time>2023-08-21T13:54:26Z</time></trkpt><trkpt lat="58.048952" lon="38.832932"><ele>100.5</ele><time>2023-08-21T13:54:29Z</time></trkpt><trkpt lat="58.048862" lon="38.832875"><ele>100.6</ele><time>2023-08-21T13:54:33Z</time></trkpt><trkpt lat="58.048758" lon="38.832872"><ele>101.0</ele><time>2023-08-21T13:54:36Z</time></trkpt><trkpt lat="58.048623" lon="38.83274"><ele>101.2</ele><time>2023-08-21T13:54:38Z</time></trkpt><trkpt lat="58.048558" lon="38.832678"><ele>101.5</ele><time>2023-08-21T13:54:39Z</time></trkpt><trkpt lat="58.048452" lon="38.83271"><ele>102.3</ele><time>2023-08-21T13:54:41Z</time></trkpt><trkpt lat="58.048383" lon="38.832598"><ele>102.8</ele><time>2023-08-21T13:54:43Z</time></trkpt><trkpt lat="58.048302" lon="38.832518"><ele>103.2</ele><time>2023-08-21T13:54:45Z</time></trkpt><trkpt lat="58.048213" lon="38.83245"><ele>102.1</ele><time>2023-08-21T13:54:47Z</time></trkpt><trkpt lat="58.048133" lon="38.832413"><ele>102.9</ele><time>2023-08-21T13:54:49Z</time></trkpt><trkpt lat="58.048052" lon="38.832393"><ele>100.9</ele><time>2023-08-21T13:54:51Z</time></trkpt><trkpt lat="58.047998" lon="38.8325"><ele>101.2</ele><time>2023-08-21T13:54:53Z</time></trkpt><trkpt lat="58.047958" lon="38.832658"><ele>100.6</ele><time>2023-08-21T13:54:55Z</time></trkpt><trkpt lat="58.047938" lon="38.832795"><ele>100.9</ele><time>2023-08-21T13:54:56Z</time></trkpt><trkpt lat="58.0479" lon="38.832955"><ele>101.0</ele><time>2023-08-21T13:54:58Z</time></trkpt><trkpt lat="58.047867" lon="38.833147"><ele>101.3</ele><time>2023-08-21T13:55:01Z</time></trkpt><trkpt lat="58.047852" lon="38.83335"><ele>101.7</ele><time>2023-08-21T13:55:03Z</time></trkpt><trkpt lat="58.04782" lon="38.83348"><ele>101.2</ele><time>2023-08-21T13:55:05Z</time></trkpt><trkpt lat="58.047793" lon="38.83365"><ele>100.8</ele><time>2023-08-21T13:55:07Z</time></trkpt><trkpt lat="58.047725" lon="38.83381"><ele>101.0</ele><time>2023-08-21T13:55:10Z</time></trkpt><trkpt lat="58.047688" lon="38.833955"><ele>101.1</ele><time>2023-08-21T13:55:13Z</time></trkpt><trkpt lat="58.047667" lon="38.834158"><ele>101.5</ele><time>2023-08-21T13:55:16Z</time></trkpt><trkpt lat="58.047638" lon="38.83431"><ele>101.5</ele><time>2023-08-21T13:55:18Z</time></trkpt><trkpt lat="58.04762" lon="38.834498"><ele>102.4</ele><time>2023-08-21T13:55:20Z</time></trkpt><trkpt lat="58.047563" lon="38.834677"><ele>101.5</ele><time>2023-08-21T13:55:23Z</time></trkpt><trkpt lat="58.04754" lon="38.834823"><ele>101.3</ele><time>2023-08-21T13:55:25Z</time></trkpt><trkpt lat="58.047458" lon="38.834893"><ele>100.7</ele><time>2023-08-21T13:55:28Z</time></trkpt><trkpt lat="58.0474" lon="38.8348"><ele>100.4</ele><time>2023-08-21T13:55:31Z</time></trkpt><trkpt lat="58.04733" lon="38.834743"><ele>100.7</ele><time>2023-08-21T13:55:34Z</time></trkpt><trkpt lat="58.047228" lon="38.834705"><ele>100.8</ele><time>2023-08-21T13:55:37Z</time></trkpt><trkpt lat="58.04715" lon="38.834678"><ele>100.9</ele><time>2023-08-21T13:55:39Z</time></trkpt><trkpt lat="58.047072" lon="38.834662"><ele>100.8</ele><time>2023-08-21T13:55:41Z</time></trkpt><trkpt lat="58.046978" lon="38.834618"><ele>101.0</ele><time>2023-08-21T13:55:43Z</time></trkpt><trkpt lat="58.046892" lon="38.83456"><ele>100.8</ele><time>2023-08-21T13:55:45Z</time></trkpt><trkpt lat="58.046812" lon="38.834515"><ele>100.6</ele><time>2023-08-21T13:55:47Z</time></trkpt><trkpt lat="58.046743" lon="38.834472"><ele>100.1</ele><time>2023-08-21T13:55:49Z</time></trkpt><trkpt lat="58.046663" lon="38.834403"><ele>99.7</ele><time>2023-08-21T13:55:52Z</time></trkpt><trkpt lat="58.046647" lon="38.834258"><ele>99.1</ele><time>2023-08-21T13:55:55Z</time></trkpt><trkpt lat="58.046695" lon="38.834078"><ele>99.6</ele><time>2023-08-21T13:55:58Z</time></trkpt><trkpt lat="58.04674" lon="38.833938"><ele>100.0</ele><time>2023-08-21T13:56:01Z</time></trkpt><trkpt lat="58.046723" lon="38.833788"><ele>100.5</ele><time>2023-08-21T13:56:06Z</time></trkpt><trkpt lat="58.046727" lon="38.833848"><ele>100.6</ele><time>2023-08-21T15:57:27Z</time></trkpt><trkpt lat="58.046852" lon="38.834303"><ele>101.8</ele><time>2023-08-21T15:57:30Z</time></trkpt><trkpt lat="58.046753" lon="38.834085"><ele>101.8</ele><time>2023-08-21T15:57:31Z</time></trkpt><trkpt lat="58.04676" lon="38.834233"><ele>101.5</ele><time>2023-08-21T15:57:36Z</time></trkpt><trkpt lat="58.046758" lon="38.834373"><ele>101.6</ele><time>2023-08-21T15:57:39Z</time></trkpt><trkpt lat="58.046775" lon="38.834518"><ele>102.2</ele><time>2023-08-21T15:57:43Z</time></trkpt><trkpt lat="58.046852" lon="38.834562"><ele>102.0</ele><time>2023-08-21T15:57:47Z</time></trkpt><trkpt lat="58.046958" lon="38.83461"><ele>101.8</ele><time>2023-08-21T15:57:50Z</time></trkpt><trkpt lat="58.04704" lon="38.83467"><ele>101.8</ele><time>2023-08-21T15:57:53Z</time></trkpt><trkpt lat="58.04712" lon="38.834742"><ele>102.0</ele><time>2023-08-21T15:57:55Z</time></trkpt><trkpt lat="58.047193" lon="38.834805"><ele>101.9</ele><time>2023-08-21T15:57:57Z</time></trkpt><trkpt lat="58.047262" lon="38.834887"><ele>102.2</ele><time>2023-08-21T15:57:59Z</time></trkpt><trkpt lat="58.047342" lon="38.834953"><ele>101.7</ele><time>2023-08-21T15:58:03Z</time></trkpt><trkpt lat="58.047407" lon="38.835035"><ele>101.1</ele><time>2023-08-21T15:58:10Z</time></trkpt><trkpt lat="58.04749" lon="38.835068"><ele>100.4</ele><time>2023-08-21T15:58:17Z</time></trkpt><trkpt lat="58.047582" lon="38.835087"><ele>100.3</ele><time>2023-08-21T15:58:21Z</time></trkpt><trkpt lat="58.047675" lon="38.835125"><ele>100.7</ele><time>2023-08-21T15:58:25Z</time></trkpt><trkpt lat="58.047777" lon="38.835147"><ele>101.5</ele><time>2023-08-21T15:58:28Z</time></trkpt><trkpt lat="58.04787" lon="38.835242"><ele>101.9</ele><time>2023-08-21T15:58:31Z</time></trkpt><trkpt lat="58.047935" lon="38.835345"><ele>101.5</ele><time>2023-08-21T15:58:35Z</time></trkpt><trkpt lat="58.048008" lon="38.835462"><ele>100.9</ele><time>2023-08-21T15:58:38Z</time></trkpt><trkpt lat="58.048078" lon="38.835515"><ele>101.0</ele><time>2023-08-21T15:58:40Z</time></trkpt><trkpt lat="58.048153" lon="38.835568"><ele>101.0</ele><time>2023-08-21T15:58:42Z</time></trkpt><trkpt lat="58.048218" lon="38.835637"><ele>101.1</ele><time>2023-08-21T15:58:44Z</time></trkpt><trkpt lat="58.04831" lon="38.83572"><ele>101.0</ele><time>2023-08-21T15:58:47Z</time></trkpt><trkpt lat="58.048373" lon="38.835783"><ele>100.8</ele><time>2023-08-21T15:58:50Z</time></trkpt><trkpt lat="58.048445" lon="38.835842"><ele>101.6</ele><time>2023-08-21T16:00:37Z</time></trkpt><trkpt lat="58.048518" lon="38.835915"><ele>102.9</ele><time>2023-08-21T16:00:41Z</time></trkpt><trkpt lat="58.048592" lon="38.835958"><ele>102.7</ele><time>2023-08-21T16:00:44Z</time></trkpt><trkpt lat="58.048665" lon="38.835968"><ele>102.4</ele><time>2023-08-21T16:00:48Z</time></trkpt><trkpt lat="58.048752" lon="38.835985"><ele>102.0</ele><time>2023-08-21T16:00:52Z</time></trkpt><trkpt lat="58.04883" lon="38.835977"><ele>102.0</ele><time>2023-08-21T16:00:56Z</time></trkpt><trkpt lat="58.048905" lon="38.835908"><ele>102.4</ele><time>2023-08-21T16:01:00Z</time></trkpt><trkpt lat="58.048977" lon="38.835852"><ele>103.0</ele><time>2023-08-21T16:02:02Z</time></trkpt><trkpt lat="58.049055" lon="38.835985"><ele>102.8</ele><time>2023-08-21T16:02:05Z</time></trkpt><trkpt lat="58.049132" lon="38.836042"><ele>102.5</ele><time>2023-08-21T16:02:07Z</time></trkpt><trkpt lat="58.04923" lon="38.83604"><ele>103.0</ele><time>2023-08-21T16:02:10Z</time></trkpt><trkpt lat="58.049285" lon="38.835935"><ele>102.6</ele><time>2023-08-21T16:02:16Z</time></trkpt><trkpt lat="58.049287" lon="38.835798"><ele>103.3</ele><time>2023-08-21T16:04:17Z</time></trkpt><trkpt lat="58.049292" lon="38.835658"><ele>102.9</ele><time>2023-08-21T16:04:20Z</time></trkpt><trkpt lat="58.049303" lon="38.835507"><ele>102.9</ele><time>2023-08-21T16:04:23Z</time></trkpt><trkpt lat="58.04932" lon="38.835372"><ele>102.4</ele><time>2023-08-21T16:04:26Z</time></trkpt><trkpt lat="58.049362" lon="38.835255"><ele>102.3</ele><time>2023-08-21T16:04:29Z</time></trkpt><trkpt lat="58.049402" lon="38.835107"><ele>102.0</ele><time>2023-08-21T16:04:33Z</time></trkpt><trkpt lat="58.049425" lon="38.834975"><ele>102.1</ele><time>2023-08-21T16:04:37Z</time></trkpt><trkpt lat="58.049452" lon="38.834847"><ele>102.0</ele><time>2023-08-21T16:04:41Z</time></trkpt><trkpt lat="58.049472" lon="38.83471"><ele>101.5</ele><time>2023-08-21T16:04:45Z</time></trkpt><trkpt lat="58.049502" lon="38.834563"><ele>100.7</ele><time>2023-08-21T16:04:49Z</time></trkpt><trkpt lat="58.049522" lon="38.834418"><ele>101.1</ele><time>2023-08-21T16:04:53Z</time></trkpt><trkpt lat="58.049553" lon="38.834255"><ele>101.1</ele><time>2023-08-21T16:04:57Z</time></trkpt><trkpt lat="58.04958" lon="38.834128"><ele>100.5</ele><time>2023-08-21T16:05:00Z</time></trkpt><trkpt lat="58.04961" lon="38.83397"><ele>100.7</ele><time>2023-08-21T16:05:04Z</time></trkpt><trkpt lat="58.049647" lon="38.833842"><ele>100.8</ele><time>2023-08-21T16:05:07Z</time></trkpt><trkpt lat="58.049693" lon="38.833722"><ele>100.7</ele><time>2023-08-21T16:05:10Z</time></trkpt><trkpt lat="58.049713" lon="38.833563"><ele>100.1</ele><time>2023-08-21T16:05:14Z</time></trkpt><trkpt lat="58.049725" lon="38.833423"><ele>100.0</ele><time>2023-08-21T16:05:18Z</time></trkpt><trkpt lat="58.049743" lon="38.833273"><ele>98.7</ele><time>2023-08-21T16:05:22Z</time></trkpt><trkpt lat="58.049777" lon="38.833125"><ele>97.9</ele><time>2023-08-21T16:05:26Z</time></trkpt><trkpt lat="58.049798" lon="38.832995"><ele>97.8</ele><time>2023-08-21T16:05:29Z</time></trkpt><trkpt lat="58.049832" lon="38.832828"><ele>98.1</ele><time>2023-08-21T16:05:33Z</time></trkpt><trkpt lat="58.049877" lon="38.832712"><ele>98.0</ele><time>2023-08-21T16:05:39Z</time></trkpt><trkpt lat="58.049943" lon="38.832798"><ele>99.5</ele><time>2023-08-21T16:06:56Z</time></trkpt><trkpt lat="58.049995" lon="38.832905"><ele>99.7</ele><time>2023-08-21T16:07:12Z</time></trkpt><trkpt lat="58.050063" lon="38.832953"><ele>99.5</ele><time>2023-08-21T16:07:20Z</time></trkpt><trkpt lat="58.050015" lon="38.832822"><ele>99.4</ele><time>2023-08-21T16:07:44Z</time></trkpt><trkpt lat="58.050027" lon="38.832655"><ele>99.0</ele><time>2023-08-21T16:07:48Z</time></trkpt><trkpt lat="58.050015" lon="38.83279"><ele>99.1</ele><time>2023-08-21T16:07:58Z</time></trkpt><trkpt lat="58.049745" lon="38.832695"><ele>99.9</ele><time>2023-08-21T16:18:29Z</time></trkpt><trkpt lat="58.049828" lon="38.83263"><ele>99.9</ele><time>2023-08-21T16:20:26Z</time></trkpt><trkpt lat="58.0498" lon="38.832467"><ele>100.0</ele><time>2023-08-21T16:28:12Z</time></trkpt><trkpt lat="58.049763" lon="38.832308"><ele>100.1</ele><time>2023-08-21T16:29:35Z</time></trkpt><trkpt lat="58.049843" lon="38.832263"><ele>100.1</ele><time>2023-08-21T16:34:14Z</time></trkpt><trkpt lat="58.049905" lon="38.832338"><ele>100.2</ele><time>2023-08-21T16:37:35Z</time></trkpt><trkpt lat="58.049983" lon="38.832445"><ele>99.8</ele><time>2023-08-21T16:37:45Z</time></trkpt><trkpt lat="58.049912" lon="38.832417"><ele>99.8</ele><time>2023-08-21T16:38:06Z</time></trkpt><trkpt lat="58.049913" lon="38.832553"><ele>99.9</ele><time>2023-08-21T16:38:54Z</time></trkpt><trkpt lat="58.04996" lon="38.832722"><ele>98.8</ele><time>2023-08-21T16:39:36Z</time></trkpt><trkpt lat="58.050028" lon="38.832793"><ele>99.0</ele><time>2023-08-21T16:39:38Z</time></trkpt><trkpt lat="58.050108" lon="38.832863"><ele>98.7</ele><time>2023-08-21T16:39:40Z</time></trkpt><trkpt lat="58.050178" lon="38.832927"><ele>98.9</ele><time>2023-08-21T16:39:42Z</time></trkpt><trkpt lat="58.050252" lon="38.83299"><ele>98.9</ele><time>2023-08-21T16:39:44Z</time></trkpt><trkpt lat="58.050323" lon="38.833042"><ele>99.5</ele><time>2023-08-21T16:39:46Z</time></trkpt><trkpt lat="58.050398" lon="38.833102"><ele>100.0</ele><time>2023-08-21T16:39:48Z</time></trkpt><trkpt lat="58.05047" lon="38.833167"><ele>99.6</ele><time>2023-08-21T16:39:50Z</time></trkpt><trkpt lat="58.050532" lon="38.83329"><ele>98.6</ele><time>2023-08-21T16:39:52Z</time></trkpt><trkpt lat="58.050562" lon="38.833462"><ele>99.0</ele><time>2023-08-21T16:39:54Z</time></trkpt><trkpt lat="58.05062" lon="38.833573"><ele>99.0</ele><time>2023-08-21T16:39:58Z</time></trkpt><trkpt lat="58.050717" lon="38.833602"><ele>99.8</ele><time>2023-08-21T16:40:01Z</time></trkpt><trkpt lat="58.05082" lon="38.833617"><ele>100.3</ele><time>2023-08-21T16:40:04Z</time></trkpt><trkpt lat="58.050917" lon="38.83365"><ele>99.6</ele><time>2023-08-21T16:40:07Z</time></trkpt><trkpt lat="58.050987" lon="38.833717"><ele>99.9</ele><time>2023-08-21T16:40:10Z</time></trkpt><trkpt lat="58.051065" lon="38.833738"><ele>100.9</ele><time>2023-08-21T16:40:14Z</time></trkpt><trkpt lat="58.05114" lon="38.83366"><ele>101.2</ele><time>2023-08-21T16:40:17Z</time></trkpt><trkpt lat="58.051232" lon="38.833648"><ele>100.6</ele><time>2023-08-21T16:40:21Z</time></trkpt><trkpt lat="58.051318" lon="38.833642"><ele>100.7</ele><time>2023-08-21T16:40:24Z</time></trkpt><trkpt lat="58.051415" lon="38.833665"><ele>101.7</ele><time>2023-08-21T16:40:28Z</time></trkpt><trkpt lat="58.051512" lon="38.833732"><ele>101.1</ele><time>2023-08-21T16:40:31Z</time></trkpt><trkpt lat="58.051583" lon="38.833777"><ele>100.7</ele><time>2023-08-21T16:40:33Z</time></trkpt><trkpt lat="58.051662" lon="38.833815"><ele>100.1</ele><time>2023-08-21T16:40:35Z</time></trkpt><trkpt lat="58.051738" lon="38.833855"><ele>99.2</ele><time>2023-08-21T16:40:37Z</time></trkpt><trkpt lat="58.051813" lon="38.8339"><ele>99.7</ele><time>2023-08-21T16:40:39Z</time></trkpt><trkpt lat="58.051897" lon="38.833945"><ele>99.8</ele><time>2023-08-21T16:40:41Z</time></trkpt><trkpt lat="58.051993" lon="38.834023"><ele>100.1</ele><time>2023-08-21T16:40:44Z</time></trkpt><trkpt lat="58.052075" lon="38.83411"><ele>100.4</ele><time>2023-08-21T16:40:47Z</time></trkpt><trkpt lat="58.052158" lon="38.834182"><ele>100.6</ele><time>2023-08-21T16:40:50Z</time></trkpt><trkpt lat="58.052242" lon="38.83424"><ele>101.2</ele><time>2023-08-21T16:40:53Z</time></trkpt><trkpt lat="58.052317" lon="38.834203"><ele>99.9</ele><time>2023-08-21T16:41:19Z</time></trkpt><trkpt lat="58.052403" lon="38.834242"><ele>100.0</ele><time>2023-08-21T16:41:22Z</time></trkpt><trkpt lat="58.052483" lon="38.834322"><ele>100.8</ele><time>2023-08-21T16:41:25Z</time></trkpt><trkpt lat="58.052553" lon="38.834387"><ele>100.0</ele><time>2023-08-21T16:41:29Z</time></trkpt><trkpt lat="58.052638" lon="38.83443"><ele>100.1</ele><time>2023-08-21T16:41:32Z</time></trkpt><trkpt lat="58.052707" lon="38.834472"><ele>100.2</ele><time>2023-08-21T16:41:34Z</time></trkpt><trkpt lat="58.052778" lon="38.834493"><ele>100.2</ele><time>2023-08-21T16:41:36Z</time></trkpt><trkpt lat="58.052855" lon="38.834533"><ele>99.6</ele><time>2023-08-21T16:41:38Z</time></trkpt><trkpt lat="58.052925" lon="38.83458"><ele>99.4</ele><time>2023-08-21T16:41:40Z</time></trkpt><trkpt lat="58.053015" lon="38.834637"><ele>99.4</ele><time>2023-08-21T16:41:43Z</time></trkpt><trkpt lat="58.05311" lon="38.83467"><ele>99.9</ele><time>2023-08-21T16:41:46Z</time></trkpt><trkpt lat="58.053193" lon="38.83471"><ele>100.0</ele><time>2023-08-21T16:41:49Z</time></trkpt><trkpt lat="58.05328" lon="38.834782"><ele>100.4</ele><time>2023-08-21T16:41:53Z</time></trkpt><trkpt lat="58.05337" lon="38.83482"><ele>100.6</ele><time>2023-08-21T16:41:57Z</time></trkpt><trkpt lat="58.053457" lon="38.834852"><ele>102.0</ele><time>2023-08-21T16:42:01Z</time></trkpt><trkpt lat="58.053533" lon="38.834873"><ele>101.5</ele><time>2023-08-21T16:42:04Z</time></trkpt><trkpt lat="58.053632" lon="38.834903"><ele>101.5</ele><time>2023-08-21T16:42:07Z</time></trkpt><trkpt lat="58.053718" lon="38.834962"><ele>100.7</ele><time>2023-08-21T16:42:10Z</time></trkpt><trkpt lat="58.053817" lon="38.835028"><ele>100.7</ele><time>2023-08-21T16:42:13Z</time></trkpt><trkpt lat="58.053903" lon="38.835088"><ele>101.1</ele><time>2023-08-21T16:42:16Z</time></trkpt><trkpt lat="58.053975" lon="38.835125"><ele>102.0</ele><time>2023-08-21T16:42:19Z</time></trkpt><trkpt lat="58.054057" lon="38.835183"><ele>101.2</ele><time>2023-08-21T16:42:22Z</time></trkpt><trkpt lat="58.054132" lon="38.835235"><ele>100.6</ele><time>2023-08-21T16:42:24Z</time></trkpt><trkpt lat="58.054213" lon="38.835303"><ele>101.1</ele><time>2023-08-21T16:42:26Z</time></trkpt><trkpt lat="58.054287" lon="38.835385"><ele>100.2</ele><time>2023-08-21T16:42:28Z</time></trkpt><trkpt lat="58.05436" lon="38.835455"><ele>99.7</ele><time>2023-08-21T16:42:30Z</time></trkpt><trkpt lat="58.054428" lon="38.835548"><ele>98.5</ele><time>2023-08-21T16:42:33Z</time></trkpt><trkpt lat="58.054482" lon="38.835672"><ele>98.0</ele><time>2023-08-21T16:42:42Z</time></trkpt><trkpt lat="58.05456" lon="38.835695"><ele>97.7</ele><time>2023-08-21T16:42:45Z</time></trkpt><trkpt lat="58.05465" lon="38.835788"><ele>98.7</ele><time>2023-08-21T16:42:48Z</time></trkpt><trkpt lat="58.05472" lon="38.835863"><ele>98.6</ele><time>2023-08-21T16:42:50Z</time></trkpt><trkpt lat="58.054787" lon="38.83593"><ele>99.1</ele><time>2023-08-21T16:42:52Z</time></trkpt><trkpt lat="58.054867" lon="38.836008"><ele>99.1</ele><time>2023-08-21T16:42:54Z</time></trkpt><trkpt lat="58.054945" lon="38.83609"><ele>98.4</ele><time>2023-08-21T16:42:56Z</time></trkpt><trkpt lat="58.055" lon="38.836183"><ele>98.3</ele><time>2023-08-21T16:42:58Z</time></trkpt><trkpt lat="58.05508" lon="38.836227"><ele>98.0</ele><time>2023-08-21T16:43:00Z</time></trkpt><trkpt lat="58.055152" lon="38.836288"><ele>97.3</ele><time>2023-08-21T16:43:02Z</time></trkpt><trkpt lat="58.055237" lon="38.836392"><ele>95.4</ele><time>2023-08-21T16:43:05Z</time></trkpt><trkpt lat="58.05532" lon="38.836458"><ele>94.1</ele><time>2023-08-21T16:43:20Z</time></trkpt><trkpt lat="58.055398" lon="38.836488"><ele>91.9</ele><time>2023-08-21T16:43:23Z</time></trkpt><trkpt lat="58.055467" lon="38.83625"><ele>92.0</ele><time>2023-08-21T16:43:26Z</time></trkpt><trkpt lat="58.055535" lon="38.836065"><ele>92.8</ele><time>2023-08-21T16:43:28Z</time></trkpt><trkpt lat="58.055593" lon="38.835872"><ele>93.0</ele><time>2023-08-21T16:43:30Z</time></trkpt><trkpt lat="58.055637" lon="38.835723"><ele>94.8</ele><time>2023-08-21T16:43:32Z</time></trkpt><trkpt lat="58.055687" lon="38.8356"><ele>94.7</ele><time>2023-08-21T16:43:33Z</time></trkpt><trkpt lat="58.055742" lon="38.835453"><ele>95.4</ele><time>2023-08-21T16:43:35Z</time></trkpt><trkpt lat="58.055788" lon="38.835332"><ele>95.5</ele><time>2023-08-21T16:43:37Z</time></trkpt><trkpt lat="58.055832" lon="38.835175"><ele>94.8</ele><time>2023-08-21T16:43:39Z</time></trkpt><trkpt lat="58.055882" lon="38.835008"><ele>94.6</ele><time>2023-08-21T16:43:41Z</time></trkpt><trkpt lat="58.055933" lon="38.834833"><ele>94.3</ele><time>2023-08-21T16:43:43Z</time></trkpt><trkpt lat="58.05598" lon="38.834722"><ele>94.1</ele><time>2023-08-21T16:43:44Z</time></trkpt><trkpt lat="58.05604" lon="38.83452"><ele>93.6</ele><time>2023-08-21T16:43:46Z</time></trkpt><trkpt lat="58.056112" lon="38.834313"><ele>93.2</ele><time>2023-08-21T16:43:48Z</time></trkpt><trkpt lat="58.056172" lon="38.834122"><ele>93.1</ele><time>2023-08-21T16:43:50Z</time></trkpt><trkpt lat="58.056227" lon="38.833945"><ele>92.6</ele><time>2023-08-21T16:43:52Z</time></trkpt><trkpt lat="58.056292" lon="38.833755"><ele>92.6</ele><time>2023-08-21T16:43:54Z</time></trkpt><trkpt lat="58.056358" lon="38.83357"><ele>92.1</ele><time>2023-08-21T16:43:56Z</time></trkpt><trkpt lat="58.056413" lon="38.833382"><ele>92.2</ele><time>2023-08-21T16:43:58Z</time></trkpt><trkpt lat="58.056452" lon="38.83318"><ele>91.3</ele><time>2023-08-21T16:44:00Z</time></trkpt><trkpt lat="58.056502" lon="38.833022"><ele>91.8</ele><time>2023-08-21T16:44:02Z</time></trkpt><trkpt lat="58.056548" lon="38.832882"><ele>92.2</ele><time>2023-08-21T16:44:04Z</time></trkpt><trkpt lat="58.056582" lon="38.832742"><ele>92.7</ele><time>2023-08-21T16:44:06Z</time></trkpt><trkpt lat="58.056618" lon="38.832595"><ele>92.8</ele><time>2023-08-21T16:44:08Z</time></trkpt><trkpt lat="58.056673" lon="38.832448"><ele>92.9</ele><time>2023-08-21T16:44:10Z</time></trkpt><trkpt lat="58.05672" lon="38.832268"><ele>93.2</ele><time>2023-08-21T16:44:12Z</time></trkpt><trkpt lat="58.056753" lon="38.832068"><ele>94.4</ele><time>2023-08-21T16:44:14Z</time></trkpt><trkpt lat="58.05681" lon="38.831898"><ele>95.1</ele><time>2023-08-21T16:44:16Z</time></trkpt><trkpt lat="58.05686" lon="38.831765"><ele>95.2</ele><time>2023-08-21T16:44:18Z</time></trkpt><trkpt lat="58.056913" lon="38.831655"><ele>94.7</ele><time>2023-08-21T16:44:20Z</time></trkpt><trkpt lat="58.056965" lon="38.831492"><ele>93.9</ele><time>2023-08-21T16:44:23Z</time></trkpt><trkpt lat="58.057005" lon="38.83135"><ele>92.8</ele><time>2023-08-21T16:44:26Z</time></trkpt><trkpt lat="58.057075" lon="38.83131"><ele>92.3</ele><time>2023-08-21T16:44:29Z</time></trkpt><trkpt lat="58.05711" lon="38.831437"><ele>92.1</ele><time>2023-08-21T16:44:33Z</time></trkpt><trkpt lat="58.057097" lon="38.831278"><ele>91.8</ele><time>2023-08-21T16:48:05Z</time></trkpt><trkpt lat="58.057173" lon="38.831123"><ele>92.8</ele><time>2023-08-21T16:48:08Z</time></trkpt><trkpt lat="58.057278" lon="38.831065"><ele>93.4</ele><time>2023-08-21T16:48:10Z</time></trkpt><trkpt lat="58.057383" lon="38.830942"><ele>93.1</ele><time>2023-08-21T16:48:12Z</time></trkpt><trkpt lat="58.057473" lon="38.830777"><ele>92.4</ele><time>2023-08-21T16:48:14Z</time></trkpt><trkpt lat="58.05756" lon="38.830622"><ele>92.9</ele><time>2023-08-21T16:48:16Z</time></trkpt><trkpt lat="58.057632" lon="38.830485"><ele>93.2</ele><time>2023-08-21T16:48:18Z</time></trkpt><trkpt lat="58.057695" lon="38.830365"><ele>92.6</ele><time>2023-08-21T16:48:20Z</time></trkpt><trkpt lat="58.057795" lon="38.830235"><ele>92.4</ele><time>2023-08-21T16:48:22Z</time></trkpt><trkpt lat="58.05789" lon="38.830128"><ele>93.6</ele><time>2023-08-21T16:48:24Z</time></trkpt><trkpt lat="58.057972" lon="38.829963"><ele>93.4</ele><time>2023-08-21T16:48:26Z</time></trkpt><trkpt lat="58.058083" lon="38.829787"><ele>92.9</ele><time>2023-08-21T16:48:28Z</time></trkpt><trkpt lat="58.058133" lon="38.829675"><ele>92.7</ele><time>2023-08-21T16:48:29Z</time></trkpt><trkpt lat="58.058195" lon="38.829595"><ele>92.1</ele><time>2023-08-21T16:48:30Z</time></trkpt><trkpt lat="58.058255" lon="38.829503"><ele>90.5</ele><time>2023-08-21T16:48:31Z</time></trkpt><trkpt lat="58.058355" lon="38.82935"><ele>90.5</ele><time>2023-08-21T16:48:33Z</time></trkpt><trkpt lat="58.058483" lon="38.829228"><ele>91.1</ele><time>2023-08-21T16:48:35Z</time></trkpt><trkpt lat="58.058587" lon="38.829097"><ele>92.4</ele><time>2023-08-21T16:48:37Z</time></trkpt><trkpt lat="58.058652" lon="38.82891"><ele>92.5</ele><time>2023-08-21T16:48:39Z</time></trkpt><trkpt lat="58.058692" lon="38.828765"><ele>94.0</ele><time>2023-08-21T16:48:41Z</time></trkpt><trkpt lat="58.058733" lon="38.82861"><ele>94.4</ele><time>2023-08-21T16:48:43Z</time></trkpt><trkpt lat="58.058787" lon="38.828443"><ele>94.8</ele><time>2023-08-21T16:48:45Z</time></trkpt><trkpt lat="58.058825" lon="38.828285"><ele>94.4</ele><time>2023-08-21T16:48:47Z</time></trkpt><trkpt lat="58.058857" lon="38.828147"><ele>95.0</ele><time>2023-08-21T16:48:49Z</time></trkpt><trkpt lat="58.058907" lon="38.828028"><ele>95.1</ele><time>2023-08-21T16:48:51Z</time></trkpt><trkpt lat="58.058957" lon="38.827888"><ele>95.9</ele><time>2023-08-21T16:48:53Z</time></trkpt><trkpt lat="58.059" lon="38.827763"><ele>95.7</ele><time>2023-08-21T16:48:55Z</time></trkpt><trkpt lat="58.059048" lon="38.827643"><ele>96.1</ele><time>2023-08-21T16:48:57Z</time></trkpt><trkpt lat="58.059092" lon="38.827515"><ele>96.5</ele><time>2023-08-21T16:48:59Z</time></trkpt><trkpt lat="58.059137" lon="38.827387"><ele>96.4</ele><time>2023-08-21T16:49:01Z</time></trkpt><trkpt lat="58.059185" lon="38.827205"><ele>97.3</ele><time>2023-08-21T16:49:04Z</time></trkpt><trkpt lat="58.059232" lon="38.827023"><ele>95.9</ele><time>2023-08-21T16:49:07Z</time></trkpt><trkpt lat="58.05929" lon="38.826877"><ele>95.9</ele><time>2023-08-21T16:49:10Z</time></trkpt><trkpt lat="58.059343" lon="38.826732"><ele>96.4</ele><time>2023-08-21T16:49:13Z</time></trkpt><trkpt lat="58.059392" lon="38.826598"><ele>96.4</ele><time>2023-08-21T16:49:16Z</time></trkpt><trkpt lat="58.05944" lon="38.826472"><ele>96.7</ele><time>2023-08-21T16:49:19Z</time></trkpt><trkpt lat="58.05947" lon="38.826332"><ele>96.2</ele><time>2023-08-21T16:49:22Z</time></trkpt><trkpt lat="58.059445" lon="38.826197"><ele>96.2</ele><time>2023-08-21T16:49:25Z</time></trkpt><trkpt lat="58.059415" lon="38.826063"><ele>96.5</ele><time>2023-08-21T16:49:28Z</time></trkpt><trkpt lat="58.059405" lon="38.825913"><ele>97.0</ele><time>2023-08-21T16:49:32Z</time></trkpt><trkpt lat="58.059422" lon="38.82577"><ele>97.3</ele><time>2023-08-21T16:49:35Z</time></trkpt><trkpt lat="58.059417" lon="38.82562"><ele>97.6</ele><time>2023-08-21T16:49:38Z</time></trkpt><trkpt lat="58.059373" lon="38.825508"><ele>97.7</ele><time>2023-08-21T16:49:41Z</time></trkpt><trkpt lat="58.059323" lon="38.82541"><ele>97.9</ele><time>2023-08-21T16:49:44Z</time></trkpt><trkpt lat="58.059273" lon="38.825292"><ele>98.6</ele><time>2023-08-21T16:49:47Z</time></trkpt><trkpt lat="58.059237" lon="38.82517"><ele>98.8</ele><time>2023-08-21T16:49:50Z</time></trkpt><trkpt lat="58.059185" lon="38.825038"><ele>99.0</ele><time>2023-08-21T16:49:54Z</time></trkpt><trkpt lat="58.059152" lon="38.824873"><ele>99.0</ele><time>2023-08-21T16:49:58Z</time></trkpt><trkpt lat="58.0591" lon="38.824752"><ele>99.2</ele><time>2023-08-21T16:50:01Z</time></trkpt><trkpt lat="58.059018" lon="38.824652"><ele>98.4</ele><time>2023-08-21T16:50:04Z</time></trkpt><trkpt lat="58.058995" lon="38.82451"><ele>98.2</ele><time>2023-08-21T16:50:07Z</time></trkpt><trkpt lat="58.059062" lon="38.824347"><ele>98.3</ele><time>2023-08-21T16:50:10Z</time></trkpt><trkpt lat="58.059123" lon="38.824248"><ele>97.3</ele><time>2023-08-21T16:50:12Z</time></trkpt><trkpt lat="58.059192" lon="38.824127"><ele>97.4</ele><time>2023-08-21T16:50:14Z</time></trkpt><trkpt lat="58.059253" lon="38.824025"><ele>96.0</ele><time>2023-08-21T16:50:16Z</time></trkpt><trkpt lat="58.059337" lon="38.823863"><ele>95.5</ele><time>2023-08-21T16:50:18Z</time></trkpt><trkpt lat="58.059435" lon="38.823693"><ele>94.9</ele><time>2023-08-21T16:50:20Z</time></trkpt><trkpt lat="58.059503" lon="38.8235"><ele>95.3</ele><time>2023-08-21T16:50:22Z</time></trkpt><trkpt lat="58.059552" lon="38.82329"><ele>95.1</ele><time>2023-08-21T16:50:24Z</time></trkpt><trkpt lat="58.05961" lon="38.82305"><ele>95.6</ele><time>2023-08-21T16:50:26Z</time></trkpt><trkpt lat="58.059628" lon="38.822813"><ele>95.9</ele><time>2023-08-21T16:50:28Z</time></trkpt><trkpt lat="58.059643" lon="38.822563"><ele>96.0</ele><time>2023-08-21T16:50:30Z</time></trkpt><trkpt lat="58.059662" lon="38.82234"><ele>96.1</ele><time>2023-08-21T16:50:32Z</time></trkpt><trkpt lat="58.059675" lon="38.822122"><ele>96.6</ele><time>2023-08-21T16:50:34Z</time></trkpt><trkpt lat="58.0597" lon="38.82194"><ele>96.8</ele><time>2023-08-21T16:50:36Z</time></trkpt><trkpt lat="58.059722" lon="38.821767"><ele>97.5</ele><time>2023-08-21T16:50:38Z</time></trkpt><trkpt lat="58.059747" lon="38.821597"><ele>97.8</ele><time>2023-08-21T16:50:40Z</time></trkpt><trkpt lat="58.059782" lon="38.821472"><ele>98.0</ele><time>2023-08-21T16:50:42Z</time></trkpt><trkpt lat="58.059808" lon="38.821343"><ele>101.6</ele><time>2023-08-21T16:51:23Z</time></trkpt><trkpt lat="58.059797" lon="38.821132"><ele>101.6</ele><time>2023-08-21T16:51:26Z</time></trkpt><trkpt lat="58.059805" lon="38.820912"><ele>100.5</ele><time>2023-08-21T16:51:28Z</time></trkpt><trkpt lat="58.059827" lon="38.820645"><ele>100.8</ele><time>2023-08-21T16:51:30Z</time></trkpt><trkpt lat="58.059848" lon="38.820387"><ele>100.7</ele><time>2023-08-21T16:51:32Z</time></trkpt><trkpt lat="58.059875" lon="38.820127"><ele>100.0</ele><time>2023-08-21T16:51:34Z</time></trkpt><trkpt lat="58.059898" lon="38.819868"><ele>99.6</ele><time>2023-08-21T16:51:36Z</time></trkpt><trkpt lat="58.05988" lon="38.819708"><ele>99.3</ele><time>2023-08-21T16:51:37Z</time></trkpt><trkpt lat="58.059893" lon="38.819463"><ele>99.5</ele><time>2023-08-21T16:51:39Z</time></trkpt><trkpt lat="58.059923" lon="38.819222"><ele>99.2</ele><time>2023-08-21T16:51:41Z</time></trkpt><trkpt lat="58.059918" lon="38.818983"><ele>99.2</ele><time>2023-08-21T16:51:43Z</time></trkpt><trkpt lat="58.059952" lon="38.8188"><ele>99.8</ele><time>2023-08-21T16:51:45Z</time></trkpt><trkpt lat="58.059968" lon="38.818607"><ele>99.5</ele><time>2023-08-21T16:51:47Z</time></trkpt><trkpt lat="58.059977" lon="38.818395"><ele>99.4</ele><time>2023-08-21T16:51:49Z</time></trkpt><trkpt lat="58.059988" lon="38.818177"><ele>99.7</ele><time>2023-08-21T16:51:51Z</time></trkpt><trkpt lat="58.060008" lon="38.817995"><ele>99.5</ele><time>2023-08-21T16:51:53Z</time></trkpt><trkpt lat="58.060012" lon="38.817808"><ele>100.6</ele><time>2023-08-21T16:51:56Z</time></trkpt><trkpt lat="58.059973" lon="38.817683"><ele>100.2</ele><time>2023-08-21T16:52:00Z</time></trkpt><trkpt lat="58.059897" lon="38.817702"><ele>100.6</ele><time>2023-08-21T16:52:04Z</time></trkpt><trkpt lat="58.059815" lon="38.81768"><ele>101.3</ele><time>2023-08-21T16:52:06Z</time></trkpt><trkpt lat="58.059748" lon="38.817615"><ele>101.7</ele><time>2023-08-21T16:52:08Z</time></trkpt><trkpt lat="58.059687" lon="38.817483"><ele>102.4</ele><time>2023-08-21T16:52:11Z</time></trkpt><trkpt lat="58.059603" lon="38.817425"><ele>101.3</ele><time>2023-08-21T16:52:14Z</time></trkpt><trkpt lat="58.05951" lon="38.817407"><ele>101.5</ele><time>2023-08-21T16:52:17Z</time></trkpt><trkpt lat="58.059417" lon="38.817397"><ele>101.3</ele><time>2023-08-21T16:52:19Z</time></trkpt><trkpt lat="58.059318" lon="38.817395"><ele>101.2</ele><time>2023-08-21T16:52:21Z</time></trkpt><trkpt lat="58.059207" lon="38.817412"><ele>100.7</ele><time>2023-08-21T16:52:23Z</time></trkpt><trkpt lat="58.05912" lon="38.817405"><ele>101.3</ele><time>2023-08-21T16:52:25Z</time></trkpt><trkpt lat="58.059015" lon="38.817408"><ele>100.9</ele><time>2023-08-21T16:52:28Z</time></trkpt><trkpt lat="58.058942" lon="38.817395"><ele>101.0</ele><time>2023-08-21T16:52:30Z</time></trkpt><trkpt lat="58.058875" lon="38.817315"><ele>101.0</ele><time>2023-08-21T16:52:33Z</time></trkpt><trkpt lat="58.058848" lon="38.81715"><ele>101.7</ele><time>2023-08-21T16:53:46Z</time></trkpt><trkpt lat="58.058745" lon="38.817033"><ele>101.6</ele><time>2023-08-21T16:53:49Z</time></trkpt><trkpt lat="58.058657" lon="38.816902"><ele>102.2</ele><time>2023-08-21T16:53:51Z</time></trkpt><trkpt lat="58.05856" lon="38.816902"><ele>102.7</ele><time>2023-08-21T16:53:53Z</time></trkpt><trkpt lat="58.05848" lon="38.816897"><ele>102.8</ele><time>2023-08-21T16:53:55Z</time></trkpt><trkpt lat="58.058458" lon="38.816743"><ele>101.9</ele><time>2023-08-21T16:53:58Z</time></trkpt><trkpt lat="58.058467" lon="38.816607"><ele>101.6</ele><time>2023-08-21T16:54:00Z</time></trkpt><trkpt lat="58.058462" lon="38.816455"><ele>102.2</ele><time>2023-08-21T16:54:02Z</time></trkpt><trkpt lat="58.058463" lon="38.816295"><ele>102.8</ele><time>2023-08-21T16:54:04Z</time></trkpt><trkpt lat="58.058462" lon="38.816145"><ele>103.8</ele><time>2023-08-21T16:54:06Z</time></trkpt><trkpt lat="58.058457" lon="38.815983"><ele>104.6</ele><time>2023-08-21T16:54:08Z</time></trkpt><trkpt lat="58.058472" lon="38.815812"><ele>104.7</ele><time>2023-08-21T16:54:10Z</time></trkpt><trkpt lat="58.058487" lon="38.815655"><ele>105.1</ele><time>2023-08-21T16:54:12Z</time></trkpt><trkpt lat="58.058542" lon="38.815527"><ele>103.3</ele><time>2023-08-21T16:54:14Z</time></trkpt><trkpt lat="58.058558" lon="38.815393"><ele>103.4</ele><time>2023-08-21T16:54:16Z</time></trkpt><trkpt lat="58.058587" lon="38.815223"><ele>102.2</ele><time>2023-08-21T16:54:19Z</time></trkpt><trkpt lat="58.058577" lon="38.815085"><ele>102.8</ele><time>2023-08-21T16:54:21Z</time></trkpt><trkpt lat="58.058565" lon="38.8149"><ele>104.1</ele><time>2023-08-21T16:54:24Z</time></trkpt><trkpt lat="58.058555" lon="38.814693"><ele>104.2</ele><time>2023-08-21T16:54:27Z</time></trkpt><trkpt lat="58.058557" lon="38.814545"><ele>104.7</ele><time>2023-08-21T16:54:29Z</time></trkpt><trkpt lat="58.058555" lon="38.814388"><ele>104.5</ele><time>2023-08-21T16:54:31Z</time></trkpt><trkpt lat="58.058568" lon="38.814233"><ele>104.3</ele><time>2023-08-21T16:54:33Z</time></trkpt><trkpt lat="58.058583" lon="38.814085"><ele>104.2</ele><time>2023-08-21T16:54:35Z</time></trkpt><trkpt lat="58.0586" lon="38.813933"><ele>103.8</ele><time>2023-08-21T16:54:37Z</time></trkpt><trkpt lat="58.058613" lon="38.813785"><ele>103.6</ele><time>2023-08-21T16:54:39Z</time></trkpt><trkpt lat="58.058618" lon="38.813647"><ele>103.3</ele><time>2023-08-21T16:54:41Z</time></trkpt><trkpt lat="58.058625" lon="38.813503"><ele>103.6</ele><time>2023-08-21T16:54:43Z</time></trkpt><trkpt lat="58.058632" lon="38.813362"><ele>103.6</ele><time>2023-08-21T16:54:45Z</time></trkpt><trkpt lat="58.058652" lon="38.813182"><ele>103.9</ele><time>2023-08-21T16:54:48Z</time></trkpt><trkpt lat="58.058685" lon="38.812998"><ele>104.1</ele><time>2023-08-21T16:54:51Z</time></trkpt><trkpt lat="58.058708" lon="38.81285"><ele>104.2</ele><time>2023-08-21T16:54:54Z</time></trkpt><trkpt lat="58.058737" lon="38.8127"><ele>104.4</ele><time>2023-08-21T16:54:57Z</time></trkpt><trkpt lat="58.058753" lon="38.81254"><ele>104.8</ele><time>2023-08-21T16:55:00Z</time></trkpt><trkpt lat="58.058765" lon="38.812395"><ele>105.5</ele><time>2023-08-21T16:55:03Z</time></trkpt><trkpt lat="58.058758" lon="38.81224"><ele>105.3</ele><time>2023-08-21T16:55:06Z</time></trkpt><trkpt lat="58.058757" lon="38.812077"><ele>105.2</ele><time>2023-08-21T16:55:09Z</time></trkpt><trkpt lat="58.058758" lon="38.811888"><ele>105.4</ele><time>2023-08-21T16:55:12Z</time></trkpt><trkpt lat="58.058765" lon="38.811752"><ele>106.2</ele><time>2023-08-21T16:55:14Z</time></trkpt><trkpt lat="58.058787" lon="38.811553"><ele>105.3</ele><time>2023-08-21T16:55:17Z</time></trkpt><trkpt lat="58.058803" lon="38.81141"><ele>105.6</ele><time>2023-08-21T16:55:19Z</time></trkpt><trkpt lat="58.058815" lon="38.811265"><ele>105.7</ele><time>2023-08-21T16:55:21Z</time></trkpt><trkpt lat="58.058822" lon="38.811078"><ele>106.2</ele><time>2023-08-21T16:55:24Z</time></trkpt><trkpt lat="58.05879" lon="38.810932"><ele>104.5</ele><time>2023-08-21T16:55:27Z</time></trkpt><trkpt lat="58.05872" lon="38.810812"><ele>105.1</ele><time>2023-08-21T16:55:29Z</time></trkpt><trkpt lat="58.058665" lon="38.810715"><ele>105.2</ele><time>2023-08-21T16:55:30Z</time></trkpt><trkpt lat="58.058683" lon="38.81058"><ele>104.2</ele><time>2023-08-21T16:55:32Z</time></trkpt><trkpt lat="58.058702" lon="38.81044"><ele>103.1</ele><time>2023-08-21T16:55:34Z</time></trkpt><trkpt lat="58.058717" lon="38.810295"><ele>103.4</ele><time>2023-08-21T16:55:36Z</time></trkpt><trkpt lat="58.058717" lon="38.810142"><ele>104.1</ele><time>2023-08-21T16:55:38Z</time></trkpt><trkpt lat="58.058695" lon="38.810008"><ele>103.5</ele><time>2023-08-21T16:55:40Z</time></trkpt><trkpt lat="58.05873" lon="38.809857"><ele>104.1</ele><time>2023-08-21T16:55:43Z</time></trkpt><trkpt lat="58.058748" lon="38.809695"><ele>104.8</ele><time>2023-08-21T16:55:46Z</time></trkpt><trkpt lat="58.058753" lon="38.809557"><ele>104.6</ele><time>2023-08-21T16:55:49Z</time></trkpt><trkpt lat="58.058773" lon="38.809407"><ele>104.3</ele><time>2023-08-21T16:55:52Z</time></trkpt><trkpt lat="58.058787" lon="38.809262"><ele>104.5</ele><time>2023-08-21T16:55:55Z</time></trkpt><trkpt lat="58.058792" lon="38.809112"><ele>105.1</ele><time>2023-08-21T16:55:58Z</time></trkpt><trkpt lat="58.058805" lon="38.808958"><ele>105.7</ele><time>2023-08-21T16:56:01Z</time></trkpt><trkpt lat="58.058812" lon="38.808755"><ele>106.0</ele><time>2023-08-21T16:56:04Z</time></trkpt><trkpt lat="58.058818" lon="38.808603"><ele>105.9</ele><time>2023-08-21T16:56:06Z</time></trkpt><trkpt lat="58.058822" lon="38.80845"><ele>105.2</ele><time>2023-08-21T16:56:08Z</time></trkpt><trkpt lat="58.058843" lon="38.808265"><ele>104.4</ele><time>2023-08-21T16:56:11Z</time></trkpt><trkpt lat="58.058855" lon="38.808117"><ele>105.5</ele><time>2023-08-21T16:56:13Z</time></trkpt><trkpt lat="58.058863" lon="38.807977"><ele>105.2</ele><time>2023-08-21T16:56:15Z</time></trkpt><trkpt lat="58.058865" lon="38.807832"><ele>105.7</ele><time>2023-08-21T16:56:17Z</time></trkpt><trkpt lat="58.058877" lon="38.80765"><ele>105.7</ele><time>2023-08-21T16:56:20Z</time></trkpt><trkpt lat="58.058863" lon="38.807513"><ele>106.5</ele><time>2023-08-21T16:56:23Z</time></trkpt><trkpt lat="58.058787" lon="38.8075"><ele>107.1</ele><time>2023-08-21T16:56:28Z</time></trkpt><trkpt lat="58.058715" lon="38.807545"><ele>106.6</ele><time>2023-08-21T16:56:35Z</time></trkpt><trkpt lat="58.058692" lon="38.80768"><ele>107.2</ele><time>2023-08-21T16:56:41Z</time></trkpt><trkpt lat="58.058613" lon="38.80769"><ele>105.4</ele><time>2023-08-21T16:57:26Z</time></trkpt></trkseg></trk></gpx>