<?xml version="1.0" encoding="UTF-8" standalone="no"?><gpx xmlns="http://www.topografix.com/GPX/1/1" xmlns:gpxtpx="http://www.garmin.com/xmlschemas/TrackPointExtension/v1" xmlns:xsi="http://www.w3.org/2001/XMLSchema-instance" creator="Sports Tracker" version="1.1" xsi:schemaLocation="http://www.topografix.com/GPX/1/1 http://www.topografix.com/GPX/1/1/gpx.xsd http://www.garmin.com/xmlschemas/TrackPointExtension/v1 http://www.garmin.com/xmlschemas/TrackPointExtensionv1.xsd"><metadata><name/><desc/><author><name>Александр</name></author></metadata><trk><name/><trkseg><trkpt lat="58.058538" lon="38.807753"><ele>116.8</ele><time>2023-08-19T07:52:12Z</time></trkpt><trkpt lat="58.058677" lon="38.807768"><ele>118.6</ele><time>2023-08-19T07:52:14Z</time></trkpt><trkpt lat="58.058648" lon="38.8079"><ele>105.9</ele><time>2023-08-19T07:52:48Z</time></trkpt><trkpt lat="58.058652" lon="38.80808"><ele>105.0</ele><time>2023-08-19T07:52:51Z</time></trkpt><trkpt lat="58.058652" lon="38.80824"><ele>103.9</ele><time>2023-08-19T07:52:54Z</time></trkpt><trkpt lat="58.058635" lon="38.80839"><ele>104.1</ele><time>2023-08-19T07:52:57Z</time></trkpt><trkpt lat="58.058618" lon="38.80855"><ele>103.2</ele><time>2023-08-19T07:53:01Z</time></trkpt><trkpt lat="58.058603" lon="38.808683"><ele>103.2</ele><time>2023-08-19T07:53:04Z</time></trkpt><trkpt lat="58.058595" lon="38.808847"><ele>102.9</ele><time>2023-08-19T07:53:07Z</time></trkpt><trkpt lat="58.058587" lon="38.809025"><ele>102.5</ele><time>2023-08-19T07:53:10Z</time></trkpt><trkpt lat="58.05858" lon="38.809185"><ele>102.5</ele><time>2023-08-19T07:53:13Z</time></trkpt><trkpt lat="58.058572" lon="38.809363"><ele>101.9</ele><time>2023-08-19T07:53:16Z</time></trkpt><trkpt lat="58.058558" lon="38.809537"><ele>102.2</ele><time>2023-08-19T07:53:19Z</time></trkpt><trkpt lat="58.05858" lon="38.809727"><ele>102.9</ele><time>2023-08-19T07:53:22Z</time></trkpt><trkpt lat="58.058643" lon="38.809795"><ele>102.8</ele><time>2023-08-19T07:53:24Z</time></trkpt><trkpt lat="58.058737" lon="38.809828"><ele>102.7</ele><time>2023-08-19T07:53:27Z</time></trkpt><trkpt lat="58.058773" lon="38.809985"><ele>101.7</ele><time>2023-08-19T07:53:30Z</time></trkpt><trkpt lat="58.058757" lon="38.810123"><ele>101.7</ele><time>2023-08-19T07:53:32Z</time></trkpt><trkpt lat="58.058733" lon="38.810313"><ele>102.4</ele><time>2023-08-19T07:53:35Z</time></trkpt><trkpt lat="58.058715" lon="38.810482"><ele>103.0</ele><time>2023-08-19T07:53:38Z</time></trkpt><trkpt lat="58.0587" lon="38.810668"><ele>103.6</ele><time>2023-08-19T07:53:41Z</time></trkpt><trkpt lat="58.058688" lon="38.810827"><ele>104.2</ele><time>2023-08-19T07:53:44Z</time></trkpt><trkpt lat="58.058755" lon="38.810895"><ele>103.7</ele><time>2023-08-19T07:53:47Z</time></trkpt><trkpt lat="58.058835" lon="38.81091"><ele>103.4</ele><time>2023-08-19T07:53:51Z</time></trkpt><trkpt lat="58.058855" lon="38.811072"><ele>104.4</ele><time>2023-08-19T07:53:55Z</time></trkpt><trkpt lat="58.058833" lon="38.811212"><ele>104.6</ele><time>2023-08-19T07:53:57Z</time></trkpt><trkpt lat="58.058817" lon="38.811353"><ele>103.6</ele><time>2023-08-19T07:53:59Z</time></trkpt><trkpt lat="58.058808" lon="38.811492"><ele>103.6</ele><time>2023-08-19T07:54:01Z</time></trkpt><trkpt lat="58.058803" lon="38.81163"><ele>103.6</ele><time>2023-08-19T07:54:03Z</time></trkpt><trkpt lat="58.058795" lon="38.811805"><ele>103.3</ele><time>2023-08-19T07:54:06Z</time></trkpt><trkpt lat="58.058777" lon="38.811955"><ele>102.9</ele><time>2023-08-19T07:54:09Z</time></trkpt><trkpt lat="58.05878" lon="38.812118"><ele>103.3</ele><time>2023-08-19T07:54:11Z</time></trkpt><trkpt lat="58.058767" lon="38.812327"><ele>103.1</ele><time>2023-08-19T07:54:13Z</time></trkpt><trkpt lat="58.058758" lon="38.812548"><ele>102.7</ele><time>2023-08-19T07:54:15Z</time></trkpt><trkpt lat="58.058743" lon="38.812757"><ele>102.8</ele><time>2023-08-19T07:54:17Z</time></trkpt><trkpt lat="58.058742" lon="38.812953"><ele>102.9</ele><time>2023-08-19T07:54:19Z</time></trkpt><trkpt lat="58.058735" lon="38.813163"><ele>102.7</ele><time>2023-08-19T07:54:21Z</time></trkpt><trkpt lat="58.058718" lon="38.813352"><ele>102.2</ele><time>2023-08-19T07:54:23Z</time></trkpt><trkpt lat="58.058703" lon="38.81357"><ele>102.0</ele><time>2023-08-19T07:54:25Z</time></trkpt><trkpt lat="58.05869" lon="38.813837"><ele>101.9</ele><time>2023-08-19T07:54:27Z</time></trkpt><trkpt lat="58.058685" lon="38.813983"><ele>102.1</ele><time>2023-08-19T07:54:28Z</time></trkpt><trkpt lat="58.058675" lon="38.814237"><ele>102.1</ele><time>2023-08-19T07:54:30Z</time></trkpt><trkpt lat="58.058667" lon="38.814463"><ele>102.2</ele><time>2023-08-19T07:54:32Z</time></trkpt><trkpt lat="58.058652" lon="38.814672"><ele>103.0</ele><time>2023-08-19T07:54:34Z</time></trkpt><trkpt lat="58.05864" lon="38.81481"><ele>103.1</ele><time>2023-08-19T07:54:35Z</time></trkpt><trkpt lat="58.058643" lon="38.814985"><ele>101.2</ele><time>2023-08-19T07:54:37Z</time></trkpt><trkpt lat="58.058635" lon="38.815182"><ele>102.3</ele><time>2023-08-19T07:54:40Z</time></trkpt><trkpt lat="58.058633" lon="38.815392"><ele>102.3</ele><time>2023-08-19T07:54:42Z</time></trkpt><trkpt lat="58.058618" lon="38.815593"><ele>100.5</ele><time>2023-08-19T07:54:44Z</time></trkpt><trkpt lat="58.05861" lon="38.815823"><ele>100.2</ele><time>2023-08-19T07:54:46Z</time></trkpt><trkpt lat="58.0586" lon="38.81601"><ele>100.4</ele><time>2023-08-19T07:54:48Z</time></trkpt><trkpt lat="58.05858" lon="38.8162"><ele>99.3</ele><time>2023-08-19T07:54:50Z</time></trkpt><trkpt lat="58.058557" lon="38.816367"><ele>98.9</ele><time>2023-08-19T07:54:52Z</time></trkpt><trkpt lat="58.058538" lon="38.81654"><ele>98.7</ele><time>2023-08-19T07:54:54Z</time></trkpt><trkpt lat="58.058528" lon="38.816725"><ele>97.2</ele><time>2023-08-19T07:54:56Z</time></trkpt><trkpt lat="58.058533" lon="38.81689"><ele>96.9</ele><time>2023-08-19T07:54:58Z</time></trkpt><trkpt lat="58.05859" lon="38.817015"><ele>95.0</ele><time>2023-08-19T07:55:01Z</time></trkpt><trkpt lat="58.058665" lon="38.817053"><ele>94.9</ele><time>2023-08-19T07:55:04Z</time></trkpt><trkpt lat="58.058728" lon="38.817148"><ele>94.8</ele><time>2023-08-19T07:55:10Z</time></trkpt><trkpt lat="58.058713" lon="38.8173"><ele>94.4</ele><time>2023-08-19T07:55:13Z</time></trkpt><trkpt lat="58.058808" lon="38.817393"><ele>92.8</ele><time>2023-08-19T07:55:16Z</time></trkpt><trkpt lat="58.058908" lon="38.817412"><ele>92.6</ele><time>2023-08-19T07:55:18Z</time></trkpt><trkpt lat="58.059025" lon="38.817452"><ele>92.8</ele><time>2023-08-19T07:55:20Z</time></trkpt><trkpt lat="58.059163" lon="38.817473"><ele>93.7</ele><time>2023-08-19T07:55:22Z</time></trkpt><trkpt lat="58.059237" lon="38.817495"><ele>93.0</ele><time>2023-08-19T07:55:23Z</time></trkpt><trkpt lat="58.059312" lon="38.817515"><ele>92.8</ele><time>2023-08-19T07:55:24Z</time></trkpt><trkpt lat="58.059437" lon="38.817552"><ele>92.4</ele><time>2023-08-19T07:55:26Z</time></trkpt><trkpt lat="58.059528" lon="38.817557"><ele>92.9</ele><time>2023-08-19T07:55:28Z</time></trkpt><trkpt lat="58.059608" lon="38.81757"><ele>92.5</ele><time>2023-08-19T07:55:30Z</time></trkpt><trkpt lat="58.059712" lon="38.817598"><ele>92.7</ele><time>2023-08-19T07:55:32Z</time></trkpt><trkpt lat="58.059782" lon="38.81768"><ele>93.7</ele><time>2023-08-19T07:55:34Z</time></trkpt><trkpt lat="58.059867" lon="38.817767"><ele>93.8</ele><time>2023-08-19T07:55:36Z</time></trkpt><trkpt lat="58.059957" lon="38.817787"><ele>93.0</ele><time>2023-08-19T07:55:38Z</time></trkpt><trkpt lat="58.060005" lon="38.817898"><ele>94.3</ele><time>2023-08-19T07:55:40Z</time></trkpt><trkpt lat="58.059997" lon="38.818043"><ele>95.0</ele><time>2023-08-19T07:55:42Z</time></trkpt><trkpt lat="58.059962" lon="38.818265"><ele>94.6</ele><time>2023-08-19T07:55:44Z</time></trkpt><trkpt lat="58.059952" lon="38.818498"><ele>94.4</ele><time>2023-08-19T07:55:46Z</time></trkpt><trkpt lat="58.059938" lon="38.818753"><ele>95.0</ele><time>2023-08-19T07:55:48Z</time></trkpt><trkpt lat="58.059927" lon="38.818993"><ele>94.5</ele><time>2023-08-19T07:55:50Z</time></trkpt><trkpt lat="58.059912" lon="38.81921"><ele>94.7</ele><time>2023-08-19T07:55:52Z</time></trkpt><trkpt lat="58.0599" lon="38.819448"><ele>94.5</ele><time>2023-08-19T07:55:54Z</time></trkpt><trkpt lat="58.05989" lon="38.819687"><ele>95.0</ele><time>2023-08-19T07:55:56Z</time></trkpt><trkpt lat="58.059882" lon="38.819915"><ele>95.3</ele><time>2023-08-19T07:55:58Z</time></trkpt><trkpt lat="58.059872" lon="38.820163"><ele>95.4</ele><time>2023-08-19T07:56:00Z</time></trkpt><trkpt lat="58.059858" lon="38.82037"><ele>95.0</ele><time>2023-08-19T07:56:02Z</time></trkpt><trkpt lat="58.059847" lon="38.82056"><ele>95.1</ele><time>2023-08-19T07:56:04Z</time></trkpt><trkpt lat="58.059827" lon="38.82074"><ele>95.3</ele><time>2023-08-19T07:56:06Z</time></trkpt><trkpt lat="58.059822" lon="38.820917"><ele>95.5</ele><time>2023-08-19T07:56:08Z</time></trkpt><trkpt lat="58.05981" lon="38.821107"><ele>95.4</ele><time>2023-08-19T07:56:10Z</time></trkpt><trkpt lat="58.059805" lon="38.821313"><ele>94.6</ele><time>2023-08-19T07:56:12Z</time></trkpt><trkpt lat="58.0598" lon="38.821518"><ele>94.5</ele><time>2023-08-19T07:56:14Z</time></trkpt><trkpt lat="58.059778" lon="38.821692"><ele>94.1</ele><time>2023-08-19T07:56:16Z</time></trkpt><trkpt lat="58.059758" lon="38.821888"><ele>94.2</ele><time>2023-08-19T07:56:18Z</time></trkpt><trkpt lat="58.059743" lon="38.822088"><ele>93.6</ele><time>2023-08-19T07:56:20Z</time></trkpt><trkpt lat="58.05973" lon="38.822282"><ele>93.8</ele><time>2023-08-19T07:56:22Z</time></trkpt><trkpt lat="58.059715" lon="38.822482"><ele>94.1</ele><time>2023-08-19T07:56:24Z</time></trkpt><trkpt lat="58.0597" lon="38.822657"><ele>93.8</ele><time>2023-08-19T07:56:26Z</time></trkpt><trkpt lat="58.05969" lon="38.822853"><ele>94.2</ele><time>2023-08-19T07:56:28Z</time></trkpt><trkpt lat="58.059658" lon="38.823048"><ele>93.5</ele><time>2023-08-19T07:56:30Z</time></trkpt><trkpt lat="58.05962" lon="38.823237"><ele>93.6</ele><time>2023-08-19T07:56:32Z</time></trkpt><trkpt lat="58.059572" lon="38.8234"><ele>93.6</ele><time>2023-08-19T07:56:34Z</time></trkpt><trkpt lat="58.059513" lon="38.823588"><ele>93.4</ele><time>2023-08-19T07:56:36Z</time></trkpt><trkpt lat="58.059442" lon="38.823727"><ele>93.9</ele><time>2023-08-19T07:56:38Z</time></trkpt><trkpt lat="58.059353" lon="38.823857"><ele>94.1</ele><time>2023-08-19T07:56:40Z</time></trkpt><trkpt lat="58.059257" lon="38.824032"><ele>94.4</ele><time>2023-08-19T07:56:42Z</time></trkpt><trkpt lat="58.059205" lon="38.824128"><ele>94.6</ele><time>2023-08-19T07:56:43Z</time></trkpt><trkpt lat="58.059125" lon="38.824315"><ele>94.6</ele><time>2023-08-19T07:56:45Z</time></trkpt><trkpt lat="58.059127" lon="38.824533"><ele>94.0</ele><time>2023-08-19T07:56:47Z</time></trkpt><trkpt lat="58.059183" lon="38.824722"><ele>94.3</ele><time>2023-08-19T07:56:49Z</time></trkpt><trkpt lat="58.059228" lon="38.824892"><ele>94.7</ele><time>2023-08-19T07:56:51Z</time></trkpt><trkpt lat="58.059248" lon="38.825078"><ele>94.2</ele><time>2023-08-19T07:56:53Z</time></trkpt><trkpt lat="58.059278" lon="38.825267"><ele>94.0</ele><time>2023-08-19T07:56:55Z</time></trkpt><trkpt lat="58.059322" lon="38.82542"><ele>93.2</ele><time>2023-08-19T07:56:57Z</time></trkpt><trkpt lat="58.059383" lon="38.825567"><ele>93.2</ele><time>2023-08-19T07:56:59Z</time></trkpt><trkpt lat="58.059413" lon="38.825707"><ele>92.9</ele><time>2023-08-19T07:57:01Z</time></trkpt><trkpt lat="58.059452" lon="38.825863"><ele>92.8</ele><time>2023-08-19T07:57:03Z</time></trkpt><trkpt lat="58.059448" lon="38.826022"><ele>92.2</ele><time>2023-08-19T07:57:05Z</time></trkpt><trkpt lat="58.059477" lon="38.82622"><ele>92.3</ele><time>2023-08-19T07:57:08Z</time></trkpt><trkpt lat="58.059485" lon="38.826418"><ele>91.5</ele><time>2023-08-19T07:57:11Z</time></trkpt><trkpt lat="58.059438" lon="38.826547"><ele>91.8</ele><time>2023-08-19T07:57:13Z</time></trkpt><trkpt lat="58.05935" lon="38.826685"><ele>91.5</ele><time>2023-08-19T07:57:15Z</time></trkpt><trkpt lat="58.059273" lon="38.826842"><ele>91.9</ele><time>2023-08-19T07:57:17Z</time></trkpt><trkpt lat="58.059207" lon="38.827033"><ele>92.3</ele><time>2023-08-19T07:57:19Z</time></trkpt><trkpt lat="58.059133" lon="38.827243"><ele>92.7</ele><time>2023-08-19T07:57:21Z</time></trkpt><trkpt lat="58.059072" lon="38.827415"><ele>93.3</ele><time>2023-08-19T07:57:23Z</time></trkpt><trkpt lat="58.059012" lon="38.827587"><ele>94.0</ele><time>2023-08-19T07:57:25Z</time></trkpt><trkpt lat="58.05896" lon="38.827742"><ele>94.8</ele><time>2023-08-19T07:57:27Z</time></trkpt><trkpt lat="58.058893" lon="38.827902"><ele>95.0</ele><time>2023-08-19T07:57:29Z</time></trkpt><trkpt lat="58.058833" lon="38.828085"><ele>95.7</ele><time>2023-08-19T07:57:31Z</time></trkpt><trkpt lat="58.058768" lon="38.828267"><ele>95.7</ele><time>2023-08-19T07:57:33Z</time></trkpt><trkpt lat="58.058707" lon="38.828465"><ele>95.0</ele><time>2023-08-19T07:57:35Z</time></trkpt><trkpt lat="58.058648" lon="38.828667"><ele>94.3</ele><time>2023-08-19T07:57:37Z</time></trkpt><trkpt lat="58.058583" lon="38.828865"><ele>93.6</ele><time>2023-08-19T07:57:39Z</time></trkpt><trkpt lat="58.058493" lon="38.829038"><ele>93.3</ele><time>2023-08-19T07:57:41Z</time></trkpt><trkpt lat="58.058385" lon="38.829195"><ele>93.4</ele><time>2023-08-19T07:57:43Z</time></trkpt><trkpt lat="58.058277" lon="38.829357"><ele>93.3</ele><time>2023-08-19T07:57:45Z</time></trkpt><trkpt lat="58.058227" lon="38.829462"><ele>93.2</ele><time>2023-08-19T07:57:46Z</time></trkpt><trkpt lat="58.058133" lon="38.82965"><ele>93.4</ele><time>2023-08-19T07:57:48Z</time></trkpt><trkpt lat="58.058027" lon="38.829828"><ele>92.6</ele><time>2023-08-19T07:57:50Z</time></trkpt><trkpt lat="58.05793" lon="38.83001"><ele>91.7</ele><time>2023-08-19T07:57:52Z</time></trkpt><trkpt lat="58.057833" lon="38.830173"><ele>91.5</ele><time>2023-08-19T07:57:54Z</time></trkpt><trkpt lat="58.057747" lon="38.830308"><ele>92.5</ele><time>2023-08-19T07:57:56Z</time></trkpt><trkpt lat="58.057678" lon="38.830418"><ele>93.6</ele><time>2023-08-19T07:57:58Z</time></trkpt><trkpt lat="58.057602" lon="38.830502"><ele>93.9</ele><time>2023-08-19T07:58:00Z</time></trkpt><trkpt lat="58.057528" lon="38.830625"><ele>93.9</ele><time>2023-08-19T07:58:02Z</time></trkpt><trkpt lat="58.057437" lon="38.830798"><ele>93.2</ele><time>2023-08-19T07:58:04Z</time></trkpt><trkpt lat="58.057335" lon="38.830945"><ele>93.4</ele><time>2023-08-19T07:58:06Z</time></trkpt><trkpt lat="58.05722" lon="38.83103"><ele>92.8</ele><time>2023-08-19T07:58:08Z</time></trkpt><trkpt lat="58.057148" lon="38.831083"><ele>92.4</ele><time>2023-08-19T07:58:09Z</time></trkpt><trkpt lat="58.057045" lon="38.831208"><ele>91.7</ele><time>2023-08-19T07:58:11Z</time></trkpt><trkpt lat="58.056963" lon="38.831407"><ele>91.3</ele><time>2023-08-19T07:58:13Z</time></trkpt><trkpt lat="58.056895" lon="38.831608"><ele>91.8</ele><time>2023-08-19T07:58:15Z</time></trkpt><trkpt lat="58.056828" lon="38.831822"><ele>92.5</ele><time>2023-08-19T07:58:17Z</time></trkpt><trkpt lat="58.056767" lon="38.832038"><ele>93.7</ele><time>2023-08-19T07:58:19Z</time></trkpt><trkpt lat="58.056693" lon="38.832218"><ele>95.1</ele><time>2023-08-19T07:58:21Z</time></trkpt><trkpt lat="58.056623" lon="38.83238"><ele>96.2</ele><time>2023-08-19T07:58:23Z</time></trkpt><trkpt lat="58.056562" lon="38.832563"><ele>95.8</ele><time>2023-08-19T07:58:25Z</time></trkpt><trkpt lat="58.056505" lon="38.832757"><ele>94.9</ele><time>2023-08-19T07:58:27Z</time></trkpt><trkpt lat="58.056457" lon="38.832923"><ele>94.9</ele><time>2023-08-19T07:58:29Z</time></trkpt><trkpt lat="58.0564" lon="38.833088"><ele>95.1</ele><time>2023-08-19T07:58:31Z</time></trkpt><trkpt lat="58.056343" lon="38.833235"><ele>95.7</ele><time>2023-08-19T07:58:33Z</time></trkpt><trkpt lat="58.056313" lon="38.833402"><ele>95.4</ele><time>2023-08-19T07:58:35Z</time></trkpt><trkpt lat="58.056302" lon="38.833572"><ele>95.8</ele><time>2023-08-19T07:58:56Z</time></trkpt><trkpt lat="58.056263" lon="38.83371"><ele>95.4</ele><time>2023-08-19T07:58:59Z</time></trkpt><trkpt lat="58.056205" lon="38.833868"><ele>95.6</ele><time>2023-08-19T07:59:01Z</time></trkpt><trkpt lat="58.056148" lon="38.834052"><ele>95.3</ele><time>2023-08-19T07:59:03Z</time></trkpt><trkpt lat="58.056067" lon="38.834268"><ele>95.2</ele><time>2023-08-19T07:59:05Z</time></trkpt><trkpt lat="58.056033" lon="38.83439"><ele>95.5</ele><time>2023-08-19T07:59:06Z</time></trkpt><trkpt lat="58.055962" lon="38.834625"><ele>95.5</ele><time>2023-08-19T07:59:08Z</time></trkpt><trkpt lat="58.055952" lon="38.834782"><ele>95.2</ele><time>2023-08-19T07:59:09Z</time></trkpt><trkpt lat="58.055887" lon="38.834987"><ele>95.4</ele><time>2023-08-19T07:59:11Z</time></trkpt><trkpt lat="58.055833" lon="38.835178"><ele>95.6</ele><time>2023-08-19T07:59:13Z</time></trkpt><trkpt lat="58.055745" lon="38.835362"><ele>95.5</ele><time>2023-08-19T07:59:15Z</time></trkpt><trkpt lat="58.055685" lon="38.835553"><ele>93.8</ele><time>2023-08-19T07:59:17Z</time></trkpt><trkpt lat="58.055625" lon="38.835748"><ele>94.0</ele><time>2023-08-19T07:59:19Z</time></trkpt><trkpt lat="58.055565" lon="38.835943"><ele>94.3</ele><time>2023-08-19T07:59:21Z</time></trkpt><trkpt lat="58.055497" lon="38.83613"><ele>93.9</ele><time>2023-08-19T07:59:23Z</time></trkpt><trkpt lat="58.055433" lon="38.836292"><ele>94.3</ele><time>2023-08-19T07:59:25Z</time></trkpt><trkpt lat="58.055383" lon="38.836477"><ele>94.7</ele><time>2023-08-19T07:59:27Z</time></trkpt><trkpt lat="58.055307" lon="38.836668"><ele>93.6</ele><time>2023-08-19T07:59:29Z</time></trkpt><trkpt lat="58.055242" lon="38.836883"><ele>92.7</ele><time>2023-08-19T07:59:31Z</time></trkpt><trkpt lat="58.055183" lon="38.83707"><ele>92.2</ele><time>2023-08-19T07:59:33Z</time></trkpt><trkpt lat="58.055122" lon="38.837247"><ele>93.3</ele><time>2023-08-19T07:59:35Z</time></trkpt><trkpt lat="58.055075" lon="38.837417"><ele>92.5</ele><time>2023-08-19T07:59:37Z</time></trkpt><trkpt lat="58.055032" lon="38.837543"><ele>92.8</ele><time>2023-08-19T07:59:39Z</time></trkpt><trkpt lat="58.054985" lon="38.837692"><ele>93.1</ele><time>2023-08-19T07:59:41Z</time></trkpt><trkpt lat="58.054947" lon="38.837838"><ele>93.5</ele><time>2023-08-19T07:59:43Z</time></trkpt><trkpt lat="58.054907" lon="38.83798"><ele>93.7</ele><time>2023-08-19T07:59:45Z</time></trkpt><trkpt lat="58.05485" lon="38.838127"><ele>94.3</ele><time>2023-08-19T07:59:47Z</time></trkpt><trkpt lat="58.054807" lon="38.838287"><ele>94.2</ele><time>2023-08-19T07:59:49Z</time></trkpt><trkpt lat="58.054747" lon="38.838473"><ele>93.5</ele><time>2023-08-19T07:59:51Z</time></trkpt><trkpt lat="58.054693" lon="38.838643"><ele>93.7</ele><time>2023-08-19T07:59:53Z</time></trkpt><trkpt lat="58.054632" lon="38.838833"><ele>93.5</ele><time>2023-08-19T07:59:55Z</time></trkpt><trkpt lat="58.054557" lon="38.839013"><ele>92.7</ele><time>2023-08-19T07:59:57Z</time></trkpt><trkpt lat="58.054483" lon="38.839198"><ele>92.5</ele><time>2023-08-19T07:59:59Z</time></trkpt><trkpt lat="58.054425" lon="38.839403"><ele>92.6</ele><time>2023-08-19T08:00:01Z</time></trkpt><trkpt lat="58.054357" lon="38.839568"><ele>92.4</ele><time>2023-08-19T08:00:03Z</time></trkpt><trkpt lat="58.05429" lon="38.83975"><ele>92.6</ele><time>2023-08-19T08:00:05Z</time></trkpt><trkpt lat="58.054197" lon="38.839793"><ele>93.2</ele><time>2023-08-19T08:00:07Z</time></trkpt><trkpt lat="58.05411" lon="38.839802"><ele>93.4</ele><time>2023-08-19T08:00:09Z</time></trkpt><trkpt lat="58.054038" lon="38.839852"><ele>93.4</ele><time>2023-08-19T08:00:11Z</time></trkpt><trkpt lat="58.053945" lon="38.83992"><ele>93.8</ele><time>2023-08-19T08:00:14Z</time></trkpt><trkpt lat="58.053858" lon="38.839918"><ele>93.1</ele><time>2023-08-19T08:00:16Z</time></trkpt><trkpt lat="58.05377" lon="38.839882"><ele>93.2</ele><time>2023-08-19T08:00:18Z</time></trkpt><trkpt lat="58.053692" lon="38.839827"><ele>94.3</ele><time>2023-08-19T08:00:20Z</time></trkpt><trkpt lat="58.053595" lon="38.839743"><ele>95.5</ele><time>2023-08-19T08:00:23Z</time></trkpt><trkpt lat="58.053513" lon="38.839703"><ele>96.6</ele><time>2023-08-19T08:00:25Z</time></trkpt><trkpt lat="58.053432" lon="38.839628"><ele>96.8</ele><time>2023-08-19T08:00:27Z</time></trkpt><trkpt lat="58.053355" lon="38.83957"><ele>96.6</ele><time>2023-08-19T08:00:29Z</time></trkpt><trkpt lat="58.053267" lon="38.839497"><ele>96.6</ele><time>2023-08-19T08:00:31Z</time></trkpt><trkpt lat="58.053168" lon="38.839437"><ele>94.8</ele><time>2023-08-19T08:00:33Z</time></trkpt><trkpt lat="58.053108" lon="38.839357"><ele>94.7</ele><time>2023-08-19T08:00:35Z</time></trkpt><trkpt lat="58.053013" lon="38.839247"><ele>95.5</ele><time>2023-08-19T08:00:38Z</time></trkpt><trkpt lat="58.052938" lon="38.839197"><ele>96.6</ele><time>2023-08-19T08:00:40Z</time></trkpt><trkpt lat="58.052862" lon="38.83914"><ele>96.9</ele><time>2023-08-19T08:00:42Z</time></trkpt><trkpt lat="58.052788" lon="38.839055"><ele>96.5</ele><time>2023-08-19T08:00:45Z</time></trkpt><trkpt lat="58.052702" lon="38.838977"><ele>98.9</ele><time>2023-08-19T08:00:49Z</time></trkpt><trkpt lat="58.052607" lon="38.838918"><ele>99.4</ele><time>2023-08-19T08:00:52Z</time></trkpt><trkpt lat="58.052553" lon="38.838825"><ele>98.3</ele><time>2023-08-19T08:00:58Z</time></trkpt><trkpt lat="58.052587" lon="38.838665"><ele>97.6</ele><time>2023-08-19T08:01:02Z</time></trkpt><trkpt lat="58.052522" lon="38.838547"><ele>98.0</ele><time>2023-08-19T08:01:06Z</time></trkpt><trkpt lat="58.05245" lon="38.838525"><ele>98.3</ele><time>2023-08-19T08:01:08Z</time></trkpt><trkpt lat="58.052352" lon="38.83848"><ele>98.3</ele><time>2023-08-19T08:01:11Z</time></trkpt><trkpt lat="58.052258" lon="38.838422"><ele>97.9</ele><time>2023-08-19T08:01:14Z</time></trkpt><trkpt lat="58.05224" lon="38.838275"><ele>95.9</ele><time>2023-08-19T08:01:26Z</time></trkpt><trkpt lat="58.052232" lon="38.838123"><ele>97.0</ele><time>2023-08-19T08:01:30Z</time></trkpt><trkpt lat="58.052167" lon="38.838067"><ele>98.5</ele><time>2023-08-19T08:01:33Z</time></trkpt><trkpt lat="58.05208" lon="38.837987"><ele>99.6</ele><time>2023-08-19T08:01:36Z</time></trkpt><trkpt lat="58.052015" lon="38.837915"><ele>101.1</ele><time>2023-08-19T08:01:39Z</time></trkpt><trkpt lat="58.051953" lon="38.837798"><ele>100.8</ele><time>2023-08-19T08:01:43Z</time></trkpt><trkpt lat="58.051933" lon="38.837618"><ele>100.1</ele><time>2023-08-19T08:01:47Z</time></trkpt><trkpt lat="58.051967" lon="38.837453"><ele>100.6</ele><time>2023-08-19T08:01:50Z</time></trkpt><trkpt lat="58.052003" lon="38.837333"><ele>99.9</ele><time>2023-08-19T08:01:52Z</time></trkpt><trkpt lat="58.052033" lon="38.837197"><ele>99.6</ele><time>2023-08-19T08:01:54Z</time></trkpt><trkpt lat="58.052055" lon="38.83705"><ele>99.7</ele><time>2023-08-19T08:01:56Z</time></trkpt><trkpt lat="58.05209" lon="38.83687"><ele>101.4</ele><time>2023-08-19T08:01:59Z</time></trkpt><trkpt lat="58.05211" lon="38.836713"><ele>102.2</ele><time>2023-08-19T08:02:02Z</time></trkpt><trkpt lat="58.052118" lon="38.836565"><ele>102.1</ele><time>2023-08-19T08:02:04Z</time></trkpt><trkpt lat="58.052137" lon="38.836423"><ele>102.6</ele><time>2023-08-19T08:02:06Z</time></trkpt><trkpt lat="58.05217" lon="38.836257"><ele>102.7</ele><time>2023-08-19T08:02:08Z</time></trkpt><trkpt lat="58.052218" lon="38.836098"><ele>102.2</ele><time>2023-08-19T08:02:10Z</time></trkpt><trkpt lat="58.052255" lon="38.835917"><ele>102.5</ele><time>2023-08-19T08:02:12Z</time></trkpt><trkpt lat="58.052288" lon="38.835725"><ele>102.0</ele><time>2023-08-19T08:02:14Z</time></trkpt><trkpt lat="58.052307" lon="38.835557"><ele>102.5</ele><time>2023-08-19T08:02:16Z</time></trkpt><trkpt lat="58.052357" lon="38.835367"><ele>102.4</ele><time>2023-08-19T08:02:18Z</time></trkpt><trkpt lat="58.052382" lon="38.835203"><ele>102.5</ele><time>2023-08-19T08:02:20Z</time></trkpt><trkpt lat="58.052367" lon="38.835042"><ele>101.9</ele><time>2023-08-19T08:02:22Z</time></trkpt><trkpt lat="58.052393" lon="38.834877"><ele>103.3</ele><time>2023-08-19T08:02:24Z</time></trkpt><trkpt lat="58.05242" lon="38.83473"><ele>103.1</ele><time>2023-08-19T08:02:26Z</time></trkpt><trkpt lat="58.052445" lon="38.83454"><ele>104.1</ele><time>2023-08-19T08:02:29Z</time></trkpt><trkpt lat="58.052493" lon="38.834392"><ele>103.3</ele><time>2023-08-19T08:02:31Z</time></trkpt><trkpt lat="58.052417" lon="38.834265"><ele>101.7</ele><time>2023-08-19T08:02:34Z</time></trkpt><trkpt lat="58.05233" lon="38.834242"><ele>101.3</ele><time>2023-08-19T08:02:36Z</time></trkpt><trkpt lat="58.052232" lon="38.83421"><ele>101.0</ele><time>2023-08-19T08:02:39Z</time></trkpt><trkpt lat="58.052167" lon="38.834148"><ele>101.6</ele><time>2023-08-19T08:02:41Z</time></trkpt><trkpt lat="58.05209" lon="38.834087"><ele>101.7</ele><time>2023-08-19T08:02:44Z</time></trkpt><trkpt lat="58.052035" lon="38.83396"><ele>101.7</ele><time>2023-08-19T08:02:48Z</time></trkpt><trkpt lat="58.051965" lon="38.833902"><ele>101.7</ele><time>2023-08-19T08:02:50Z</time></trkpt><trkpt lat="58.051887" lon="38.833843"><ele>101.9</ele><time>2023-08-19T08:02:52Z</time></trkpt><trkpt lat="58.051812" lon="38.833793"><ele>102.2</ele><time>2023-08-19T08:02:54Z</time></trkpt><trkpt lat="58.051723" lon="38.833738"><ele>101.2</ele><time>2023-08-19T08:02:56Z</time></trkpt><trkpt lat="58.051638" lon="38.833697"><ele>101.1</ele><time>2023-08-19T08:02:58Z</time></trkpt><trkpt lat="58.051545" lon="38.833653"><ele>100.9</ele><time>2023-08-19T08:03:01Z</time></trkpt><trkpt lat="58.051477" lon="38.833602"><ele>100.8</ele><time>2023-08-19T08:03:05Z</time></trkpt><trkpt lat="58.051392" lon="38.833587"><ele>100.5</ele><time>2023-08-19T08:03:11Z</time></trkpt><trkpt lat="58.051308" lon="38.833598"><ele>99.2</ele><time>2023-08-19T08:03:17Z</time></trkpt><trkpt lat="58.051227" lon="38.83359"><ele>100.0</ele><time>2023-08-19T08:03:23Z</time></trkpt><trkpt lat="58.05114" lon="38.833648"><ele>100.4</ele><time>2023-08-19T08:03:28Z</time></trkpt><trkpt lat="58.05107" lon="38.833628"><ele>100.3</ele><time>2023-08-19T08:03:30Z</time></trkpt><trkpt lat="58.050995" lon="38.833592"><ele>100.7</ele><time>2023-08-19T08:03:32Z</time></trkpt><trkpt lat="58.050915" lon="38.833515"><ele>101.7</ele><time>2023-08-19T08:03:36Z</time></trkpt><trkpt lat="58.050837" lon="38.83346"><ele>102.2</ele><time>2023-08-19T08:03:40Z</time></trkpt><trkpt lat="58.050747" lon="38.833407"><ele>101.9</ele><time>2023-08-19T08:03:44Z</time></trkpt><trkpt lat="58.050662" lon="38.833337"><ele>103.1</ele><time>2023-08-19T08:03:47Z</time></trkpt><trkpt lat="58.050598" lon="38.833252"><ele>103.3</ele><time>2023-08-19T08:03:50Z</time></trkpt><trkpt lat="58.050535" lon="38.833095"><ele>103.7</ele><time>2023-08-19T08:03:54Z</time></trkpt><trkpt lat="58.050463" lon="38.833047"><ele>104.3</ele><time>2023-08-19T08:03:56Z</time></trkpt><trkpt lat="58.050355" lon="38.83297"><ele>103.8</ele><time>2023-08-19T08:03:58Z</time></trkpt><trkpt lat="58.050283" lon="38.832937"><ele>103.4</ele><time>2023-08-19T08:04:00Z</time></trkpt><trkpt lat="58.05015" lon="38.832887"><ele>103.0</ele><time>2023-08-19T08:04:02Z</time></trkpt><trkpt lat="58.05003" lon="38.832803"><ele>103.8</ele><time>2023-08-19T08:04:04Z</time></trkpt><trkpt lat="58.049955" lon="38.832792"><ele>104.0</ele><time>2023-08-19T08:04:05Z</time></trkpt><trkpt lat="58.049857" lon="38.832735"><ele>103.6</ele><time>2023-08-19T08:04:06Z</time></trkpt><trkpt lat="58.049753" lon="38.832615"><ele>103.5</ele><time>2023-08-19T08:04:08Z</time></trkpt><trkpt lat="58.049655" lon="38.832568"><ele>103.2</ele><time>2023-08-19T08:04:10Z</time></trkpt><trkpt lat="58.049573" lon="38.832505"><ele>103.1</ele><time>2023-08-19T08:04:12Z</time></trkpt><trkpt lat="58.049515" lon="38.832422"><ele>103.7</ele><time>2023-08-19T08:04:14Z</time></trkpt><trkpt lat="58.049487" lon="38.83228"><ele>103.6</ele><time>2023-08-19T08:04:17Z</time></trkpt><trkpt lat="58.04942" lon="38.832115"><ele>104.3</ele><time>2023-08-19T08:04:20Z</time></trkpt><trkpt lat="58.049315" lon="38.83207"><ele>104.1</ele><time>2023-08-19T08:04:22Z</time></trkpt><trkpt lat="58.049228" lon="38.831983"><ele>104.0</ele><time>2023-08-19T08:04:24Z</time></trkpt><trkpt lat="58.049148" lon="38.83192"><ele>104.1</ele><time>2023-08-19T08:04:26Z</time></trkpt><trkpt lat="58.049048" lon="38.83189"><ele>104.0</ele><time>2023-08-19T08:04:28Z</time></trkpt><trkpt lat="58.048958" lon="38.831797"><ele>105.0</ele><time>2023-08-19T08:04:31Z</time></trkpt><trkpt lat="58.048885" lon="38.831738"><ele>105.3</ele><time>2023-08-19T08:04:33Z</time></trkpt><trkpt lat="58.048828" lon="38.831613"><ele>104.9</ele><time>2023-08-19T08:04:35Z</time></trkpt><trkpt lat="58.048845" lon="38.831452"><ele>104.0</ele><time>2023-08-19T08:04:38Z</time></trkpt><trkpt lat="58.04882" lon="38.831322"><ele>104.7</ele><time>2023-08-19T08:04:40Z</time></trkpt><trkpt lat="58.048758" lon="38.831183"><ele>105.0</ele><time>2023-08-19T08:04:43Z</time></trkpt><trkpt lat="58.048663" lon="38.831163"><ele>104.8</ele><time>2023-08-19T08:04:45Z</time></trkpt><trkpt lat="58.04858" lon="38.831198"><ele>105.7</ele><time>2023-08-19T08:04:47Z</time></trkpt><trkpt lat="58.048497" lon="38.831175"><ele>103.9</ele><time>2023-08-19T08:04:50Z</time></trkpt><trkpt lat="58.048435" lon="38.831058"><ele>101.4</ele><time>2023-08-19T08:04:53Z</time></trkpt><trkpt lat="58.04844" lon="38.830912"><ele>101.4</ele><time>2023-08-19T08:04:56Z</time></trkpt><trkpt lat="58.048462" lon="38.830747"><ele>99.9</ele><time>2023-08-19T08:05:00Z</time></trkpt><trkpt lat="58.048452" lon="38.83061"><ele>100.3</ele><time>2023-08-19T08:05:03Z</time></trkpt><trkpt lat="58.048432" lon="38.830463"><ele>103.0</ele><time>2023-08-19T08:05:07Z</time></trkpt><trkpt lat="58.04837" lon="38.830323"><ele>104.1</ele><time>2023-08-19T08:05:12Z</time></trkpt><trkpt lat="58.048295" lon="38.830275"><ele>104.3</ele><time>2023-08-19T08:05:14Z</time></trkpt><trkpt lat="58.048217" lon="38.830218"><ele>103.6</ele><time>2023-08-19T08:05:17Z</time></trkpt><trkpt lat="58.048148" lon="38.830128"><ele>103.7</ele><time>2023-08-19T08:05:20Z</time></trkpt><trkpt lat="58.048082" lon="38.830043"><ele>103.4</ele><time>2023-08-19T08:05:25Z</time></trkpt><trkpt lat="58.048008" lon="38.829953"><ele>103.6</ele><time>2023-08-19T08:05:30Z</time></trkpt><trkpt lat="58.04784" lon="38.829865"><ele>103.8</ele><time>2023-08-19T08:05:33Z</time></trkpt><trkpt lat="58.047732" lon="38.829812"><ele>102.6</ele><time>2023-08-19T08:05:34Z</time></trkpt><trkpt lat="58.047667" lon="38.829737"><ele>102.7</ele><time>2023-08-19T08:05:36Z</time></trkpt><trkpt lat="58.047602" lon="38.82968"><ele>103.7</ele><time>2023-08-19T08:05:38Z</time></trkpt><trkpt lat="58.047525" lon="38.829635"><ele>104.8</ele><time>2023-08-19T08:05:40Z</time></trkpt><trkpt lat="58.047442" lon="38.82962"><ele>105.3</ele><time>2023-08-19T08:05:43Z</time></trkpt><trkpt lat="58.04768" lon="38.829558"><ele>103.6</ele><time>2023-08-19T11:44:37Z</time></trkpt><trkpt lat="58.047413" lon="38.829658"><ele>103.6</ele><time>2023-08-19T11:44:41Z</time></trkpt><trkpt lat="58.047335" lon="38.829548"><ele>103.7</ele><time>2023-08-19T11:44:42Z</time></trkpt><trkpt lat="58.047173" lon="38.8294"><ele>104.8</ele><time>2023-08-19T11:44:44Z</time></trkpt><trkpt lat="58.047222" lon="38.829697"><ele>103.2</ele><time>2023-08-19T11:44:45Z</time></trkpt><trkpt lat="58.04728" lon="38.829778"><ele>101.6</ele><time>2023-08-19T11:45:31Z</time></trkpt><trkpt lat="58.047362" lon="38.829852"><ele>101.4</ele><time>2023-08-19T11:45:33Z</time></trkpt><trkpt lat="58.047463" lon="38.82995"><ele>101.0</ele><time>2023-08-19T11:45:35Z</time></trkpt><trkpt lat="58.047582" lon="38.830038"><ele>100.5</ele><time>2023-08-19T11:45:37Z</time></trkpt><trkpt lat="58.047688" lon="38.830107"><ele>100.4</ele><time>2023-08-19T11:45:39Z</time></trkpt><trkpt lat="58.047793" lon="38.830153"><ele>100.7</ele><time>2023-08-19T11:45:41Z</time></trkpt><trkpt lat="58.047885" lon="38.830212"><ele>100.9</ele><time>2023-08-19T11:45:43Z</time></trkpt><trkpt lat="58.04798" lon="38.830288"><ele>100.8</ele><time>2023-08-19T11:45:45Z</time></trkpt><trkpt lat="58.048067" lon="38.830347"><ele>100.6</ele><time>2023-08-19T11:45:47Z</time></trkpt><trkpt lat="58.048153" lon="38.830373"><ele>100.5</ele><time>2023-08-19T11:45:49Z</time></trkpt><trkpt lat="58.048243" lon="38.83041"><ele>100.3</ele><time>2023-08-19T11:45:52Z</time></trkpt><trkpt lat="58.048307" lon="38.830503"><ele>99.9</ele><time>2023-08-19T11:45:54Z</time></trkpt><trkpt lat="58.048382" lon="38.830552"><ele>99.5</ele><time>2023-08-19T11:45:57Z</time></trkpt><trkpt lat="58.048422" lon="38.83069"><ele>100.2</ele><time>2023-08-19T11:46:00Z</time></trkpt><trkpt lat="58.048375" lon="38.830822"><ele>100.3</ele><time>2023-08-19T11:46:02Z</time></trkpt><trkpt lat="58.048333" lon="38.830965"><ele>100.3</ele><time>2023-08-19T11:46:04Z</time></trkpt><trkpt lat="58.048292" lon="38.831152"><ele>100.8</ele><time>2023-08-19T11:46:06Z</time></trkpt><trkpt lat="58.048308" lon="38.831293"><ele>99.9</ele><time>2023-08-19T11:46:10Z</time></trkpt><trkpt lat="58.04839" lon="38.83128"><ele>101.8</ele><time>2023-08-19T11:46:15Z</time></trkpt><trkpt lat="58.048452" lon="38.831385"><ele>102.7</ele><time>2023-08-19T11:46:19Z</time></trkpt><trkpt lat="58.048527" lon="38.831555"><ele>103.8</ele><time>2023-08-19T11:46:22Z</time></trkpt><trkpt lat="58.04863" lon="38.831662"><ele>102.8</ele><time>2023-08-19T11:46:24Z</time></trkpt><trkpt lat="58.048743" lon="38.831753"><ele>103.1</ele><time>2023-08-19T11:46:26Z</time></trkpt><trkpt lat="58.048887" lon="38.831817"><ele>102.8</ele><time>2023-08-19T11:46:28Z</time></trkpt><trkpt lat="58.049017" lon="38.831905"><ele>102.4</ele><time>2023-08-19T11:46:30Z</time></trkpt><trkpt lat="58.049145" lon="38.831973"><ele>102.5</ele><time>2023-08-19T11:46:32Z</time></trkpt><trkpt lat="58.04925" lon="38.832085"><ele>102.4</ele><time>2023-08-19T11:46:34Z</time></trkpt><trkpt lat="58.049333" lon="38.832137"><ele>102.6</ele><time>2023-08-19T11:46:36Z</time></trkpt><trkpt lat="58.049408" lon="38.832198"><ele>102.5</ele><time>2023-08-19T11:46:38Z</time></trkpt><trkpt lat="58.04949" lon="38.83229"><ele>102.8</ele><time>2023-08-19T11:46:41Z</time></trkpt><trkpt lat="58.049528" lon="38.832427"><ele>103.1</ele><time>2023-08-19T11:46:48Z</time></trkpt><trkpt lat="58.049598" lon="38.832543"><ele>103.9</ele><time>2023-08-19T11:46:53Z</time></trkpt><trkpt lat="58.049693" lon="38.832638"><ele>103.6</ele><time>2023-08-19T11:46:56Z</time></trkpt><trkpt lat="58.049768" lon="38.832663"><ele>103.6</ele><time>2023-08-19T11:46:58Z</time></trkpt><trkpt lat="58.049842" lon="38.83272"><ele>104.1</ele><time>2023-08-19T11:47:01Z</time></trkpt><trkpt lat="58.049912" lon="38.83279"><ele>103.8</ele><time>2023-08-19T11:47:03Z</time></trkpt><trkpt lat="58.049988" lon="38.83285"><ele>103.4</ele><time>2023-08-19T11:47:05Z</time></trkpt><trkpt lat="58.05009" lon="38.83296"><ele>103.1</ele><time>2023-08-19T11:47:08Z</time></trkpt><trkpt lat="58.050182" lon="38.833015"><ele>102.7</ele><time>2023-08-19T11:47:10Z</time></trkpt><trkpt lat="58.050275" lon="38.83303"><ele>102.8</ele><time>2023-08-19T11:47:12Z</time></trkpt><trkpt lat="58.05035" lon="38.833085"><ele>103.2</ele><time>2023-08-19T11:47:14Z</time></trkpt><trkpt lat="58.050425" lon="38.83315"><ele>103.3</ele><time>2023-08-19T11:47:16Z</time></trkpt><trkpt lat="58.050517" lon="38.833162"><ele>104.0</ele><time>2023-08-19T11:47:18Z</time></trkpt><trkpt lat="58.050618" lon="38.833238"><ele>104.4</ele><time>2023-08-19T11:47:20Z</time></trkpt><trkpt lat="58.050735" lon="38.833312"><ele>104.6</ele><time>2023-08-19T11:47:22Z</time></trkpt><trkpt lat="58.050833" lon="38.833397"><ele>105.2</ele><time>2023-08-19T11:47:24Z</time></trkpt><trkpt lat="58.050912" lon="38.833475"><ele>105.5</ele><time>2023-08-19T11:47:26Z</time></trkpt><trkpt lat="58.050995" lon="38.833532"><ele>105.6</ele><time>2023-08-19T11:47:28Z</time></trkpt><trkpt lat="58.051065" lon="38.833597"><ele>105.3</ele><time>2023-08-19T11:47:30Z</time></trkpt><trkpt lat="58.051145" lon="38.833617"><ele>104.3</ele><time>2023-08-19T11:47:32Z</time></trkpt><trkpt lat="58.051228" lon="38.833613"><ele>104.0</ele><time>2023-08-19T11:47:35Z</time></trkpt><trkpt lat="58.051303" lon="38.833605"><ele>103.4</ele><time>2023-08-19T11:47:39Z</time></trkpt><trkpt lat="58.05138" lon="38.83356"><ele>106.7</ele><time>2023-08-19T11:47:48Z</time></trkpt><trkpt lat="58.051448" lon="38.83364"><ele>106.2</ele><time>2023-08-19T11:47:50Z</time></trkpt><trkpt lat="58.051528" lon="38.833723"><ele>107.1</ele><time>2023-08-19T11:47:52Z</time></trkpt><trkpt lat="58.051607" lon="38.833802"><ele>107.2</ele><time>2023-08-19T11:47:54Z</time></trkpt><trkpt lat="58.051685" lon="38.833863"><ele>106.5</ele><time>2023-08-19T11:47:56Z</time></trkpt><trkpt lat="58.051763" lon="38.83392"><ele>107.3</ele><time>2023-08-19T11:47:58Z</time></trkpt><trkpt lat="58.051833" lon="38.833975"><ele>108.2</ele><time>2023-08-19T11:48:00Z</time></trkpt><trkpt lat="58.051908" lon="38.834035"><ele>108.6</ele><time>2023-08-19T11:48:02Z</time></trkpt><trkpt lat="58.05197" lon="38.834122"><ele>107.1</ele><time>2023-08-19T11:48:05Z</time></trkpt><trkpt lat="58.05204" lon="38.834212"><ele>109.3</ele><time>2023-08-19T11:48:10Z</time></trkpt><trkpt lat="58.052125" lon="38.834267"><ele>109.7</ele><time>2023-08-19T11:48:13Z</time></trkpt><trkpt lat="58.052202" lon="38.834243"><ele>109.0</ele><time>2023-08-19T11:48:16Z</time></trkpt><trkpt lat="58.05226" lon="38.83416"><ele>107.9</ele><time>2023-08-19T11:48:28Z</time></trkpt><trkpt lat="58.05234" lon="38.83418"><ele>107.7</ele><time>2023-08-19T11:48:39Z</time></trkpt><trkpt lat="58.052412" lon="38.83422"><ele>106.8</ele><time>2023-08-19T11:48:41Z</time></trkpt><trkpt lat="58.052482" lon="38.834282"><ele>107.8</ele><time>2023-08-19T11:48:43Z</time></trkpt><trkpt lat="58.052573" lon="38.834357"><ele>107.7</ele><time>2023-08-19T11:48:46Z</time></trkpt><trkpt lat="58.05265" lon="38.83441"><ele>107.6</ele><time>2023-08-19T11:48:49Z</time></trkpt><trkpt lat="58.052732" lon="38.834503"><ele>107.2</ele><time>2023-08-19T11:48:52Z</time></trkpt><trkpt lat="58.05282" lon="38.834572"><ele>105.6</ele><time>2023-08-19T11:48:55Z</time></trkpt><trkpt lat="58.052912" lon="38.834618"><ele>106.0</ele><time>2023-08-19T11:48:58Z</time></trkpt><trkpt lat="58.052992" lon="38.834665"><ele>104.7</ele><time>2023-08-19T11:49:01Z</time></trkpt><trkpt lat="58.053063" lon="38.834715"><ele>105.3</ele><time>2023-08-19T11:49:04Z</time></trkpt><trkpt lat="58.053153" lon="38.834767"><ele>105.3</ele><time>2023-08-19T11:49:07Z</time></trkpt><trkpt lat="58.053227" lon="38.834803"><ele>105.4</ele><time>2023-08-19T11:49:10Z</time></trkpt><trkpt lat="58.053297" lon="38.834855"><ele>106.3</ele><time>2023-08-19T11:49:12Z</time></trkpt><trkpt lat="58.053382" lon="38.834917"><ele>106.5</ele><time>2023-08-19T11:49:14Z</time></trkpt><trkpt lat="58.053463" lon="38.834967"><ele>106.8</ele><time>2023-08-19T11:49:16Z</time></trkpt><trkpt lat="58.053535" lon="38.834997"><ele>105.9</ele><time>2023-08-19T11:49:18Z</time></trkpt><trkpt lat="58.053622" lon="38.835027"><ele>104.8</ele><time>2023-08-19T11:49:22Z</time></trkpt><trkpt lat="58.053717" lon="38.835095"><ele>104.3</ele><time>2023-08-19T11:49:25Z</time></trkpt><trkpt lat="58.053797" lon="38.83516"><ele>104.1</ele><time>2023-08-19T11:49:27Z</time></trkpt><trkpt lat="58.053867" lon="38.835225"><ele>104.0</ele><time>2023-08-19T11:49:29Z</time></trkpt><trkpt lat="58.053953" lon="38.835317"><ele>106.9</ele><time>2023-08-19T11:49:32Z</time></trkpt><trkpt lat="58.054037" lon="38.835382"><ele>104.9</ele><time>2023-08-19T11:49:34Z</time></trkpt><trkpt lat="58.054113" lon="38.835443"><ele>104.0</ele><time>2023-08-19T11:49:36Z</time></trkpt><trkpt lat="58.05418" lon="38.835523"><ele>104.2</ele><time>2023-08-19T11:49:38Z</time></trkpt><trkpt lat="58.054272" lon="38.835598"><ele>103.1</ele><time>2023-08-19T11:49:40Z</time></trkpt><trkpt lat="58.054365" lon="38.835662"><ele>101.8</ele><time>2023-08-19T11:49:43Z</time></trkpt><trkpt lat="58.054435" lon="38.835707"><ele>101.1</ele><time>2023-08-19T11:49:45Z</time></trkpt><trkpt lat="58.05452" lon="38.835752"><ele>100.6</ele><time>2023-08-19T11:49:47Z</time></trkpt><trkpt lat="58.054597" lon="38.835798"><ele>101.1</ele><time>2023-08-19T11:49:49Z</time></trkpt><trkpt lat="58.054677" lon="38.835878"><ele>100.8</ele><time>2023-08-19T11:49:51Z</time></trkpt><trkpt lat="58.054757" lon="38.835965"><ele>99.9</ele><time>2023-08-19T11:49:53Z</time></trkpt><trkpt lat="58.054832" lon="38.836047"><ele>99.6</ele><time>2023-08-19T11:49:55Z</time></trkpt><trkpt lat="58.0549" lon="38.836112"><ele>99.1</ele><time>2023-08-19T11:49:57Z</time></trkpt><trkpt lat="58.054973" lon="38.836177"><ele>98.7</ele><time>2023-08-19T11:50:00Z</time></trkpt><trkpt lat="58.055058" lon="38.836278"><ele>98.9</ele><time>2023-08-19T11:50:04Z</time></trkpt><trkpt lat="58.05513" lon="38.836375"><ele>98.2</ele><time>2023-08-19T11:50:07Z</time></trkpt><trkpt lat="58.055207" lon="38.836463"><ele>96.8</ele><time>2023-08-19T11:50:10Z</time></trkpt><trkpt lat="58.05529" lon="38.836537"><ele>94.6</ele><time>2023-08-19T11:50:13Z</time></trkpt><trkpt lat="58.05539" lon="38.836542"><ele>93.1</ele><time>2023-08-19T11:50:16Z</time></trkpt><trkpt lat="58.055422" lon="38.836407"><ele>92.6</ele><time>2023-08-19T11:50:17Z</time></trkpt><trkpt lat="58.055478" lon="38.836245"><ele>92.7</ele><time>2023-08-19T11:50:19Z</time></trkpt><trkpt lat="58.055522" lon="38.836127"><ele>93.7</ele><time>2023-08-19T11:50:20Z</time></trkpt><trkpt lat="58.055583" lon="38.835918"><ele>94.6</ele><time>2023-08-19T11:50:22Z</time></trkpt><trkpt lat="58.055648" lon="38.835732"><ele>94.9</ele><time>2023-08-19T11:50:24Z</time></trkpt><trkpt lat="58.055722" lon="38.835538"><ele>96.8</ele><time>2023-08-19T11:50:26Z</time></trkpt><trkpt lat="58.055772" lon="38.835308"><ele>96.5</ele><time>2023-08-19T11:50:28Z</time></trkpt><trkpt lat="58.055845" lon="38.83507"><ele>96.5</ele><time>2023-08-19T11:50:30Z</time></trkpt><trkpt lat="58.055885" lon="38.834957"><ele>96.4</ele><time>2023-08-19T11:50:31Z</time></trkpt><trkpt lat="58.055923" lon="38.83483"><ele>96.1</ele><time>2023-08-19T11:50:32Z</time></trkpt><trkpt lat="58.055963" lon="38.834707"><ele>96.3</ele><time>2023-08-19T11:50:33Z</time></trkpt><trkpt lat="58.056008" lon="38.834578"><ele>96.5</ele><time>2023-08-19T11:50:34Z</time></trkpt><trkpt lat="58.056053" lon="38.83445"><ele>96.2</ele><time>2023-08-19T11:50:35Z</time></trkpt><trkpt lat="58.056093" lon="38.834315"><ele>95.8</ele><time>2023-08-19T11:50:36Z</time></trkpt><trkpt lat="58.05616" lon="38.834085"><ele>96.0</ele><time>2023-08-19T11:50:38Z</time></trkpt><trkpt lat="58.056175" lon="38.833942"><ele>95.6</ele><time>2023-08-19T11:50:39Z</time></trkpt><trkpt lat="58.056222" lon="38.833765"><ele>94.6</ele><time>2023-08-19T11:50:41Z</time></trkpt><trkpt lat="58.056283" lon="38.833577"><ele>94.4</ele><time>2023-08-19T11:50:43Z</time></trkpt><trkpt lat="58.056357" lon="38.833365"><ele>94.6</ele><time>2023-08-19T11:50:45Z</time></trkpt><trkpt lat="58.05644" lon="38.833135"><ele>94.3</ele><time>2023-08-19T11:50:47Z</time></trkpt><trkpt lat="58.056513" lon="38.832917"><ele>95.2</ele><time>2023-08-19T11:50:49Z</time></trkpt><trkpt lat="58.056565" lon="38.832727"><ele>94.7</ele><time>2023-08-19T11:50:51Z</time></trkpt><trkpt lat="58.05662" lon="38.832553"><ele>95.0</ele><time>2023-08-19T11:50:53Z</time></trkpt><trkpt lat="58.056657" lon="38.832325"><ele>94.9</ele><time>2023-08-19T11:50:55Z</time></trkpt><trkpt lat="58.056718" lon="38.832153"><ele>93.1</ele><time>2023-08-19T11:50:57Z</time></trkpt><trkpt lat="58.05678" lon="38.831962"><ele>94.6</ele><time>2023-08-19T11:50:59Z</time></trkpt><trkpt lat="58.05685" lon="38.831757"><ele>94.9</ele><time>2023-08-19T11:51:01Z</time></trkpt><trkpt lat="58.056927" lon="38.831552"><ele>93.8</ele><time>2023-08-19T11:51:03Z</time></trkpt><trkpt lat="58.056995" lon="38.83136"><ele>92.7</ele><time>2023-08-19T11:51:05Z</time></trkpt><trkpt lat="58.057088" lon="38.831217"><ele>92.7</ele><time>2023-08-19T11:51:07Z</time></trkpt><trkpt lat="58.05719" lon="38.831118"><ele>92.5</ele><time>2023-08-19T11:51:09Z</time></trkpt><trkpt lat="58.057285" lon="38.831022"><ele>93.6</ele><time>2023-08-19T11:51:11Z</time></trkpt><trkpt lat="58.057373" lon="38.83092"><ele>93.5</ele><time>2023-08-19T11:51:13Z</time></trkpt><trkpt lat="58.057455" lon="38.830803"><ele>94.1</ele><time>2023-08-19T11:51:15Z</time></trkpt><trkpt lat="58.057528" lon="38.830688"><ele>94.7</ele><time>2023-08-19T11:51:17Z</time></trkpt><trkpt lat="58.0576" lon="38.830543"><ele>95.5</ele><time>2023-08-19T11:51:19Z</time></trkpt><trkpt lat="58.05768" lon="38.830392"><ele>95.5</ele><time>2023-08-19T11:51:21Z</time></trkpt><trkpt lat="58.057758" lon="38.830268"><ele>95.7</ele><time>2023-08-19T11:51:23Z</time></trkpt><trkpt lat="58.057835" lon="38.830152"><ele>95.8</ele><time>2023-08-19T11:51:25Z</time></trkpt><trkpt lat="58.057902" lon="38.830018"><ele>96.1</ele><time>2023-08-19T11:51:27Z</time></trkpt><trkpt lat="58.057978" lon="38.829902"><ele>95.7</ele><time>2023-08-19T11:51:29Z</time></trkpt><trkpt lat="58.058055" lon="38.829797"><ele>95.6</ele><time>2023-08-19T11:51:31Z</time></trkpt><trkpt lat="58.058125" lon="38.82968"><ele>95.1</ele><time>2023-08-19T11:51:33Z</time></trkpt><trkpt lat="58.058212" lon="38.829537"><ele>95.0</ele><time>2023-08-19T11:51:35Z</time></trkpt><trkpt lat="58.0583" lon="38.829373"><ele>94.8</ele><time>2023-08-19T11:51:37Z</time></trkpt><trkpt lat="58.058395" lon="38.829242"><ele>95.4</ele><time>2023-08-19T11:51:39Z</time></trkpt><trkpt lat="58.058485" lon="38.829122"><ele>96.3</ele><time>2023-08-19T11:51:41Z</time></trkpt><trkpt lat="58.058573" lon="38.828968"><ele>96.6</ele><time>2023-08-19T11:51:43Z</time></trkpt><trkpt lat="58.058627" lon="38.828798"><ele>95.8</ele><time>2023-08-19T11:51:45Z</time></trkpt><trkpt lat="58.05868" lon="38.828632"><ele>97.6</ele><time>2023-08-19T11:51:47Z</time></trkpt><trkpt lat="58.058748" lon="38.828467"><ele>98.3</ele><time>2023-08-19T11:51:49Z</time></trkpt><trkpt lat="58.058803" lon="38.828305"><ele>98.7</ele><time>2023-08-19T11:51:51Z</time></trkpt><trkpt lat="58.058863" lon="38.828187"><ele>99.3</ele><time>2023-08-19T11:51:53Z</time></trkpt><trkpt lat="58.058907" lon="38.828043"><ele>100.0</ele><time>2023-08-19T11:51:55Z</time></trkpt><trkpt lat="58.058965" lon="38.827885"><ele>99.5</ele><time>2023-08-19T11:51:57Z</time></trkpt><trkpt lat="58.059023" lon="38.827727"><ele>99.4</ele><time>2023-08-19T11:51:59Z</time></trkpt><trkpt lat="58.059073" lon="38.827555"><ele>99.6</ele><time>2023-08-19T11:52:01Z</time></trkpt><trkpt lat="58.059115" lon="38.82743"><ele>100.0</ele><time>2023-08-19T11:52:03Z</time></trkpt><trkpt lat="58.05917" lon="38.827243"><ele>99.9</ele><time>2023-08-19T11:52:06Z</time></trkpt><trkpt lat="58.059215" lon="38.82709"><ele>100.5</ele><time>2023-08-19T11:52:08Z</time></trkpt><trkpt lat="58.059257" lon="38.826915"><ele>100.6</ele><time>2023-08-19T11:52:10Z</time></trkpt><trkpt lat="58.059302" lon="38.826783"><ele>98.9</ele><time>2023-08-19T11:52:12Z</time></trkpt><trkpt lat="58.059355" lon="38.82665"><ele>99.1</ele><time>2023-08-19T11:52:14Z</time></trkpt><trkpt lat="58.059413" lon="38.826502"><ele>97.5</ele><time>2023-08-19T11:52:16Z</time></trkpt><trkpt lat="58.059452" lon="38.826373"><ele>97.5</ele><time>2023-08-19T11:52:18Z</time></trkpt><trkpt lat="58.059447" lon="38.826223"><ele>97.5</ele><time>2023-08-19T11:52:20Z</time></trkpt><trkpt lat="58.059417" lon="38.826078"><ele>96.8</ele><time>2023-08-19T11:52:22Z</time></trkpt><trkpt lat="58.05938" lon="38.825933"><ele>97.9</ele><time>2023-08-19T11:52:25Z</time></trkpt><trkpt lat="58.059328" lon="38.825778"><ele>99.2</ele><time>2023-08-19T11:52:28Z</time></trkpt><trkpt lat="58.059272" lon="38.825632"><ele>99.1</ele><time>2023-08-19T11:52:31Z</time></trkpt><trkpt lat="58.059228" lon="38.825523"><ele>98.7</ele><time>2023-08-19T11:52:33Z</time></trkpt><trkpt lat="58.05917" lon="38.825393"><ele>99.4</ele><time>2023-08-19T11:52:35Z</time></trkpt><trkpt lat="58.059103" lon="38.82524"><ele>98.7</ele><time>2023-08-19T11:52:37Z</time></trkpt><trkpt lat="58.059045" lon="38.825143"><ele>98.8</ele><time>2023-08-19T11:52:39Z</time></trkpt><trkpt lat="58.058997" lon="38.825028"><ele>99.5</ele><time>2023-08-19T11:52:41Z</time></trkpt><trkpt lat="58.058975" lon="38.824862"><ele>99.2</ele><time>2023-08-19T11:52:43Z</time></trkpt><trkpt lat="58.058975" lon="38.824678"><ele>99.0</ele><time>2023-08-19T11:52:45Z</time></trkpt><trkpt lat="58.059013" lon="38.824522"><ele>99.1</ele><time>2023-08-19T11:52:47Z</time></trkpt><trkpt lat="58.059077" lon="38.824392"><ele>99.8</ele><time>2023-08-19T11:52:49Z</time></trkpt><trkpt lat="58.059142" lon="38.824253"><ele>100.1</ele><time>2023-08-19T11:52:51Z</time></trkpt><trkpt lat="58.059212" lon="38.824107"><ele>99.3</ele><time>2023-08-19T11:52:53Z</time></trkpt><trkpt lat="58.059288" lon="38.823937"><ele>99.2</ele><time>2023-08-19T11:52:55Z</time></trkpt><trkpt lat="58.059363" lon="38.8238"><ele>98.2</ele><time>2023-08-19T11:52:57Z</time></trkpt><trkpt lat="58.059443" lon="38.823617"><ele>98.1</ele><time>2023-08-19T11:52:59Z</time></trkpt><trkpt lat="58.05949" lon="38.823448"><ele>98.1</ele><time>2023-08-19T11:53:01Z</time></trkpt><trkpt lat="58.059538" lon="38.823238"><ele>96.9</ele><time>2023-08-19T11:53:03Z</time></trkpt><trkpt lat="58.059582" lon="38.823068"><ele>96.9</ele><time>2023-08-19T11:53:05Z</time></trkpt><trkpt lat="58.059612" lon="38.822863"><ele>98.2</ele><time>2023-08-19T11:53:07Z</time></trkpt><trkpt lat="58.059613" lon="38.822665"><ele>98.3</ele><time>2023-08-19T11:53:09Z</time></trkpt><trkpt lat="58.059618" lon="38.822498"><ele>98.0</ele><time>2023-08-19T11:53:11Z</time></trkpt><trkpt lat="58.0597" lon="38.822368"><ele>99.5</ele><time>2023-08-19T11:53:14Z</time></trkpt><trkpt lat="58.059763" lon="38.82222"><ele>101.1</ele><time>2023-08-19T11:53:17Z</time></trkpt><trkpt lat="58.05979" lon="38.822055"><ele>102.6</ele><time>2023-08-19T11:53:19Z</time></trkpt><trkpt lat="58.059798" lon="38.82187"><ele>102.3</ele><time>2023-08-19T11:53:21Z</time></trkpt><trkpt lat="58.059813" lon="38.82171"><ele>102.6</ele><time>2023-08-19T11:53:24Z</time></trkpt><trkpt lat="58.059813" lon="38.82157"><ele>103.4</ele><time>2023-08-19T11:53:31Z</time></trkpt><trkpt lat="58.059862" lon="38.821463"><ele>104.8</ele><time>2023-08-19T11:53:34Z</time></trkpt><trkpt lat="58.059845" lon="38.821278"><ele>104.4</ele><time>2023-08-19T11:53:37Z</time></trkpt><trkpt lat="58.059785" lon="38.821175"><ele>104.2</ele><time>2023-08-19T11:53:39Z</time></trkpt><trkpt lat="58.059782" lon="38.821007"><ele>103.9</ele><time>2023-08-19T11:53:41Z</time></trkpt><trkpt lat="58.059797" lon="38.820852"><ele>104.3</ele><time>2023-08-19T11:53:43Z</time></trkpt><trkpt lat="58.059805" lon="38.82067"><ele>104.4</ele><time>2023-08-19T11:53:45Z</time></trkpt><trkpt lat="58.059825" lon="38.820495"><ele>104.1</ele><time>2023-08-19T11:53:47Z</time></trkpt><trkpt lat="58.059827" lon="38.820323"><ele>104.2</ele><time>2023-08-19T11:53:49Z</time></trkpt><trkpt lat="58.059827" lon="38.820135"><ele>102.9</ele><time>2023-08-19T11:53:51Z</time></trkpt><trkpt lat="58.059838" lon="38.819907"><ele>103.2</ele><time>2023-08-19T11:53:53Z</time></trkpt><trkpt lat="58.059847" lon="38.819707"><ele>102.9</ele><time>2023-08-19T11:53:55Z</time></trkpt><trkpt lat="58.059845" lon="38.81955"><ele>102.0</ele><time>2023-08-19T11:53:57Z</time></trkpt><trkpt lat="58.05986" lon="38.819387"><ele>102.5</ele><time>2023-08-19T11:53:59Z</time></trkpt><trkpt lat="58.059897" lon="38.81921"><ele>103.3</ele><time>2023-08-19T11:54:01Z</time></trkpt><trkpt lat="58.059907" lon="38.819048"><ele>103.2</ele><time>2023-08-19T11:54:03Z</time></trkpt><trkpt lat="58.059918" lon="38.818868"><ele>103.3</ele><time>2023-08-19T11:54:05Z</time></trkpt><trkpt lat="58.059923" lon="38.818722"><ele>103.2</ele><time>2023-08-19T11:54:07Z</time></trkpt><trkpt lat="58.059933" lon="38.818575"><ele>103.9</ele><time>2023-08-19T11:54:09Z</time></trkpt><trkpt lat="58.059933" lon="38.818433"><ele>103.8</ele><time>2023-08-19T11:54:11Z</time></trkpt><trkpt lat="58.059942" lon="38.818285"><ele>104.2</ele><time>2023-08-19T11:54:13Z</time></trkpt><trkpt lat="58.059952" lon="38.81813"><ele>104.2</ele><time>2023-08-19T11:54:15Z</time></trkpt><trkpt lat="58.05996" lon="38.817993"><ele>104.7</ele><time>2023-08-19T11:54:17Z</time></trkpt><trkpt lat="58.059965" lon="38.817807"><ele>103.7</ele><time>2023-08-19T11:54:20Z</time></trkpt><trkpt lat="58.059982" lon="38.81762"><ele>103.5</ele><time>2023-08-19T11:54:23Z</time></trkpt><trkpt lat="58.06001" lon="38.817425"><ele>104.7</ele><time>2023-08-19T11:54:26Z</time></trkpt><trkpt lat="58.060018" lon="38.817275"><ele>104.7</ele><time>2023-08-19T11:54:28Z</time></trkpt><trkpt lat="58.060007" lon="38.817133"><ele>104.2</ele><time>2023-08-19T11:54:30Z</time></trkpt><trkpt lat="58.059998" lon="38.816995"><ele>103.4</ele><time>2023-08-19T11:54:32Z</time></trkpt><trkpt lat="58.060005" lon="38.816858"><ele>103.5</ele><time>2023-08-19T11:54:34Z</time></trkpt><trkpt lat="58.060017" lon="38.816677"><ele>103.6</ele><time>2023-08-19T11:54:37Z</time></trkpt><trkpt lat="58.060028" lon="38.816477"><ele>102.8</ele><time>2023-08-19T11:54:40Z</time></trkpt><trkpt lat="58.060037" lon="38.816337"><ele>102.7</ele><time>2023-08-19T11:54:42Z</time></trkpt><trkpt lat="58.060048" lon="38.81619"><ele>103.0</ele><time>2023-08-19T11:54:44Z</time></trkpt><trkpt lat="58.060053" lon="38.816037"><ele>102.9</ele><time>2023-08-19T11:54:46Z</time></trkpt><trkpt lat="58.060055" lon="38.815882"><ele>102.6</ele><time>2023-08-19T11:54:48Z</time></trkpt><trkpt lat="58.060062" lon="38.815738"><ele>104.0</ele><time>2023-08-19T11:54:50Z</time></trkpt><trkpt lat="58.060087" lon="38.815558"><ele>104.6</ele><time>2023-08-19T11:54:53Z</time></trkpt><trkpt lat="58.060105" lon="38.815407"><ele>105.0</ele><time>2023-08-19T11:54:56Z</time></trkpt><trkpt lat="58.060115" lon="38.815212"><ele>105.0</ele><time>2023-08-19T11:54:59Z</time></trkpt><trkpt lat="58.060118" lon="38.815072"><ele>104.9</ele><time>2023-08-19T11:55:01Z</time></trkpt><trkpt lat="58.06011" lon="38.814932"><ele>104.2</ele><time>2023-08-19T11:55:03Z</time></trkpt><trkpt lat="58.060107" lon="38.814737"><ele>104.1</ele><time>2023-08-19T11:55:06Z</time></trkpt><trkpt lat="58.060118" lon="38.814557"><ele>103.6</ele><time>2023-08-19T11:55:09Z</time></trkpt><trkpt lat="58.060135" lon="38.814375"><ele>102.7</ele><time>2023-08-19T11:55:12Z</time></trkpt><trkpt lat="58.060152" lon="38.814222"><ele>103.3</ele><time>2023-08-19T11:55:14Z</time></trkpt><trkpt lat="58.060143" lon="38.814032"><ele>103.6</ele><time>2023-08-19T11:55:17Z</time></trkpt><trkpt lat="58.060073" lon="38.813937"><ele>104.1</ele><time>2023-08-19T11:55:19Z</time></trkpt><trkpt lat="58.060002" lon="38.813847"><ele>103.6</ele><time>2023-08-19T11:55:21Z</time></trkpt><trkpt lat="58.059978" lon="38.813715"><ele>103.7</ele><time>2023-08-19T11:55:23Z</time></trkpt><trkpt lat="58.059993" lon="38.813562"><ele>103.4</ele><time>2023-08-19T11:55:25Z</time></trkpt><trkpt lat="58.060012" lon="38.813408"><ele>103.4</ele><time>2023-08-19T11:55:27Z</time></trkpt><trkpt lat="58.060032" lon="38.81322"><ele>104.0</ele><time>2023-08-19T11:55:30Z</time></trkpt><trkpt lat="58.06004" lon="38.813038"><ele>103.8</ele><time>2023-08-19T11:55:33Z</time></trkpt><trkpt lat="58.060045" lon="38.812878"><ele>104.1</ele><time>2023-08-19T11:55:36Z</time></trkpt><trkpt lat="58.060055" lon="38.81271"><ele>104.2</ele><time>2023-08-19T11:55:39Z</time></trkpt><trkpt lat="58.060065" lon="38.812555"><ele>104.7</ele><time>2023-08-19T11:55:42Z</time></trkpt><trkpt lat="58.060083" lon="38.812413"><ele>105.4</ele><time>2023-08-19T11:55:46Z</time></trkpt><trkpt lat="58.060097" lon="38.812272"><ele>107.4</ele><time>2023-08-19T11:55:50Z</time></trkpt><trkpt lat="58.060113" lon="38.812122"><ele>106.9</ele><time>2023-08-19T11:55:55Z</time></trkpt><trkpt lat="58.060138" lon="38.811987"><ele>106.5</ele><time>2023-08-19T11:56:02Z</time></trkpt><trkpt lat="58.060148" lon="38.811822"><ele>105.2</ele><time>2023-08-19T11:56:07Z</time></trkpt><trkpt lat="58.060143" lon="38.811673"><ele>104.9</ele><time>2023-08-19T11:56:12Z</time></trkpt><trkpt lat="58.060113" lon="38.811527"><ele>104.5</ele><time>2023-08-19T11:56:16Z</time></trkpt><trkpt lat="58.060032" lon="38.811493"><ele>104.6</ele><time>2023-08-19T11:56:20Z</time></trkpt><trkpt lat="58.05995" lon="38.811463"><ele>104.6</ele><time>2023-08-19T11:56:24Z</time></trkpt><trkpt lat="58.059865" lon="38.811447"><ele>104.7</ele><time>2023-08-19T11:56:27Z</time></trkpt><trkpt lat="58.05979" lon="38.811445"><ele>104.5</ele><time>2023-08-19T11:56:30Z</time></trkpt><trkpt lat="58.0597" lon="38.811443"><ele>103.8</ele><time>2023-08-19T11:56:33Z</time></trkpt><trkpt lat="58.059595" lon="38.811428"><ele>105.0</ele><time>2023-08-19T11:56:36Z</time></trkpt><trkpt lat="58.059497" lon="38.811407"><ele>105.0</ele><time>2023-08-19T11:56:39Z</time></trkpt><trkpt lat="58.059423" lon="38.811375"><ele>104.7</ele><time>2023-08-19T11:56:41Z</time></trkpt><trkpt lat="58.059343" lon="38.811352"><ele>104.4</ele><time>2023-08-19T11:56:43Z</time></trkpt><trkpt lat="58.059263" lon="38.81134"><ele>104.9</ele><time>2023-08-19T11:56:45Z</time></trkpt><trkpt lat="58.059187" lon="38.811327"><ele>104.9</ele><time>2023-08-19T11:56:47Z</time></trkpt><trkpt lat="58.059112" lon="38.811307"><ele>104.5</ele><time>2023-08-19T11:56:49Z</time></trkpt><trkpt lat="58.059032" lon="38.811288"><ele>104.8</ele><time>2023-08-19T11:56:51Z</time></trkpt><trkpt lat="58.058957" lon="38.811273"><ele>104.2</ele><time>2023-08-19T11:56:53Z</time></trkpt><trkpt lat="58.058862" lon="38.811267"><ele>105.1</ele><time>2023-08-19T11:56:56Z</time></trkpt><trkpt lat="58.058793" lon="38.8112"><ele>106.3</ele><time>2023-08-19T11:56:59Z</time></trkpt><trkpt lat="58.058802" lon="38.811017"><ele>108.0</ele><time>2023-08-19T11:57:02Z</time></trkpt><trkpt lat="58.058778" lon="38.810883"><ele>107.7</ele><time>2023-08-19T11:57:05Z</time></trkpt><trkpt lat="58.058698" lon="38.810847"><ele>107.4</ele><time>2023-08-19T11:57:08Z</time></trkpt><trkpt lat="58.058677" lon="38.810685"><ele>107.7</ele><time>2023-08-19T11:57:11Z</time></trkpt><trkpt lat="58.058687" lon="38.810548"><ele>107.2</ele><time>2023-08-19T11:57:13Z</time></trkpt><trkpt lat="58.058703" lon="38.810365"><ele>106.6</ele><time>2023-08-19T11:57:16Z</time></trkpt><trkpt lat="58.058725" lon="38.810182"><ele>106.9</ele><time>2023-08-19T11:57:19Z</time></trkpt><trkpt lat="58.058725" lon="38.810035"><ele>106.2</ele><time>2023-08-19T11:57:21Z</time></trkpt><trkpt lat="58.058725" lon="38.809893"><ele>107.1</ele><time>2023-08-19T11:57:23Z</time></trkpt><trkpt lat="58.058732" lon="38.809698"><ele>107.7</ele><time>2023-08-19T11:57:26Z</time></trkpt><trkpt lat="58.058738" lon="38.809522"><ele>107.8</ele><time>2023-08-19T11:57:29Z</time></trkpt><trkpt lat="58.058753" lon="38.809367"><ele>107.7</ele><time>2023-08-19T11:57:32Z</time></trkpt><trkpt lat="58.058765" lon="38.809172"><ele>107.5</ele><time>2023-08-19T11:57:35Z</time></trkpt><trkpt lat="58.058777" lon="38.808985"><ele>107.3</ele><time>2023-08-19T11:57:38Z</time></trkpt><trkpt lat="58.058783" lon="38.80881"><ele>107.2</ele><time>2023-08-19T11:57:41Z</time></trkpt><trkpt lat="58.058795" lon="38.80864"><ele>106.7</ele><time>2023-08-19T11:57:44Z</time></trkpt><trkpt lat="58.058802" lon="38.808492"><ele>106.5</ele><time>2023-08-19T11:57:46Z</time></trkpt><trkpt lat="58.058815" lon="38.808355"><ele>106.9</ele><time>2023-08-19T11:57:48Z</time></trkpt><trkpt lat="58.058818" lon="38.808168"><ele>105.7</ele><time>2023-08-19T11:57:51Z</time></trkpt><trkpt lat="58.058838" lon="38.807997"><ele>106.5</ele><time>2023-08-19T11:57:55Z</time></trkpt><trkpt lat="58.058857" lon="38.807832"><ele>106.3</ele><time>2023-08-19T11:57:59Z</time></trkpt><trkpt lat="58.058858" lon="38.807697"><ele>106.7</ele><time>2023-08-19T11:58:02Z</time></trkpt><trkpt lat="58.058828" lon="38.807565"><ele>106.8</ele><time>2023-08-19T11:58:06Z</time></trkpt><trkpt lat="58.058753" lon="38.807567"><ele>106.4</ele><time>2023-08-19T11:58:09Z</time></trkpt><trkpt lat="58.058665" lon="38.807552"><ele>106.6</ele><time>2023-08-19T11:58:13Z</time></trkpt><trkpt lat="58.058637" lon="38.807682"><ele>105.5</ele><time>2023-08-19T11:58:17Z</time></trkpt></trkseg></trk></gpx>