<?xml version="1.0" encoding="UTF-8" standalone="no"?><gpx xmlns="http://www.topografix.com/GPX/1/1" xmlns:gpxtpx="http://www.garmin.com/xmlschemas/TrackPointExtension/v1" xmlns:xsi="http://www.w3.org/2001/XMLSchema-instance" creator="Sports Tracker" version="1.1" xsi:schemaLocation="http://www.topografix.com/GPX/1/1 http://www.topografix.com/GPX/1/1/gpx.xsd http://www.garmin.com/xmlschemas/TrackPointExtension/v1 http://www.garmin.com/xmlschemas/TrackPointExtensionv1.xsd"><metadata><name>23.09.2025 18:29</name><desc/><author><name>Александр</name></author></metadata><trk><name>23.09.2025 18:29</name><trkseg><trkpt lat="58.03075" lon="38.86088"><ele>107.4</ele><time>2025-09-23T15:29:33Z</time></trkpt><trkpt lat="58.03075" lon="38.86088"><ele>107.4</ele><time>2025-09-23T15:39:31Z</time></trkpt><trkpt lat="58.031015" lon="38.86106"><ele>110.0</ele><time>2025-09-23T15:39:31Z</time></trkpt><trkpt lat="58.031155" lon="38.861125"><ele>109.7</ele><time>2025-09-23T15:39:31Z</time></trkpt><trkpt lat="58.03123" lon="38.861225"><ele>107.7</ele><time>2025-09-23T15:39:31Z</time></trkpt><trkpt lat="58.0314" lon="38.861435"><ele>107.5</ele><time>2025-09-23T15:39:31Z</time></trkpt><trkpt lat="58.03155" lon="38.861525"><ele>107.5</ele><time>2025-09-23T15:39:31Z</time></trkpt><trkpt lat="58.03172" lon="38.86148"><ele>107.1</ele><time>2025-09-23T15:39:31Z</time></trkpt><trkpt lat="58.03183" lon="38.861455"><ele>105.7</ele><time>2025-09-23T15:39:31Z</time></trkpt><trkpt lat="58.032085" lon="38.861545"><ele>108.5</ele><time>2025-09-23T15:39:31Z</time></trkpt></trkseg></trk></gpx>