<?xml version="1.0" encoding="UTF-8" standalone="no"?><gpx xmlns="http://www.topografix.com/GPX/1/1" xmlns:gpxtpx="http://www.garmin.com/xmlschemas/TrackPointExtension/v1" xmlns:xsi="http://www.w3.org/2001/XMLSchema-instance" creator="Sports Tracker" version="1.1" xsi:schemaLocation="http://www.topografix.com/GPX/1/1 http://www.topografix.com/GPX/1/1/gpx.xsd http://www.garmin.com/xmlschemas/TrackPointExtension/v1 http://www.garmin.com/xmlschemas/TrackPointExtensionv1.xsd"><metadata><name>22.03.2026 15:12</name><desc/><author><name>Александр</name></author></metadata><trk><name>22.03.2026 15:12</name><trkseg><trkpt lat="58.03803" lon="39.115687"><ele>110.8</ele><time>2026-03-22T12:12:24Z</time></trkpt><trkpt lat="58.038035" lon="39.1157"><ele>113.2</ele><time>2026-03-22T12:12:25Z</time></trkpt><trkpt lat="58.03802" lon="39.11572"><ele>111.2</ele><time>2026-03-22T12:12:32Z</time></trkpt><trkpt lat="58.037965" lon="39.115605"><ele>107.3</ele><time>2026-03-22T12:12:41Z</time></trkpt><trkpt lat="58.037915" lon="39.115505"><ele>108.5</ele><time>2026-03-22T12:12:44Z</time></trkpt><trkpt lat="58.037847" lon="39.1154"><ele>107.3</ele><time>2026-03-22T12:12:48Z</time></trkpt><trkpt lat="58.037795" lon="39.115325"><ele>107.3</ele><time>2026-03-22T12:12:55Z</time></trkpt><trkpt lat="58.037715" lon="39.11527"><ele>107.1</ele><time>2026-03-22T12:14:49Z</time></trkpt><trkpt lat="58.03765" lon="39.11518"><ele>107.8</ele><time>2026-03-22T12:14:52Z</time></trkpt><trkpt lat="58.03759" lon="39.1151"><ele>108.8</ele><time>2026-03-22T12:14:55Z</time></trkpt><trkpt lat="58.03752" lon="39.11502"><ele>107.6</ele><time>2026-03-22T12:14:58Z</time></trkpt><trkpt lat="58.037435" lon="39.1149"><ele>107.3</ele><time>2026-03-22T12:15:01Z</time></trkpt><trkpt lat="58.03737" lon="39.11483"><ele>106.8</ele><time>2026-03-22T12:15:03Z</time></trkpt><trkpt lat="58.037305" lon="39.114763"><ele>106.2</ele><time>2026-03-22T12:15:05Z</time></trkpt><trkpt lat="58.037217" lon="39.114655"><ele>105.9</ele><time>2026-03-22T12:15:08Z</time></trkpt><trkpt lat="58.037135" lon="39.11459"><ele>103.4</ele><time>2026-03-22T12:15:11Z</time></trkpt><trkpt lat="58.037057" lon="39.114545"><ele>103.2</ele><time>2026-03-22T12:15:14Z</time></trkpt><trkpt lat="58.036985" lon="39.11449"><ele>102.7</ele><time>2026-03-22T12:15:17Z</time></trkpt><trkpt lat="58.036905" lon="39.114435"><ele>103.3</ele><time>2026-03-22T12:15:20Z</time></trkpt><trkpt lat="58.03683" lon="39.114375"><ele>102.8</ele><time>2026-03-22T12:15:23Z</time></trkpt><trkpt lat="58.03675" lon="39.114307"><ele>102.7</ele><time>2026-03-22T12:15:26Z</time></trkpt><trkpt lat="58.036675" lon="39.114242"><ele>103.4</ele><time>2026-03-22T12:15:29Z</time></trkpt><trkpt lat="58.03661" lon="39.114182"><ele>102.7</ele><time>2026-03-22T12:15:32Z</time></trkpt><trkpt lat="58.03653" lon="39.114115"><ele>103.2</ele><time>2026-03-22T12:15:35Z</time></trkpt><trkpt lat="58.036455" lon="39.114037"><ele>102.7</ele><time>2026-03-22T12:15:38Z</time></trkpt><trkpt lat="58.036385" lon="39.11397"><ele>101.6</ele><time>2026-03-22T12:15:41Z</time></trkpt><trkpt lat="58.036305" lon="39.1139"><ele>101.5</ele><time>2026-03-22T12:15:44Z</time></trkpt><trkpt lat="58.036225" lon="39.11383"><ele>99.8</ele><time>2026-03-22T12:15:47Z</time></trkpt><trkpt lat="58.036133" lon="39.113805"><ele>100.1</ele><time>2026-03-22T12:15:50Z</time></trkpt><trkpt lat="58.036045" lon="39.113847"><ele>100.1</ele><time>2026-03-22T12:15:53Z</time></trkpt><trkpt lat="58.035975" lon="39.1139"><ele>100.3</ele><time>2026-03-22T12:15:56Z</time></trkpt><trkpt lat="58.03589" lon="39.114"><ele>100.2</ele><time>2026-03-22T12:16:00Z</time></trkpt><trkpt lat="58.035823" lon="39.11408"><ele>100.3</ele><time>2026-03-22T12:16:03Z</time></trkpt><trkpt lat="58.035765" lon="39.114167"><ele>101.5</ele><time>2026-03-22T12:16:06Z</time></trkpt><trkpt lat="58.035715" lon="39.114265"><ele>102.1</ele><time>2026-03-22T12:16:09Z</time></trkpt><trkpt lat="58.03566" lon="39.114365"><ele>103.2</ele><time>2026-03-22T12:16:12Z</time></trkpt><trkpt lat="58.03559" lon="39.114495"><ele>105.1</ele><time>2026-03-22T12:16:16Z</time></trkpt><trkpt lat="58.035537" lon="39.11461"><ele>105.5</ele><time>2026-03-22T12:16:19Z</time></trkpt><trkpt lat="58.03549" lon="39.11473"><ele>105.5</ele><time>2026-03-22T12:16:22Z</time></trkpt><trkpt lat="58.035425" lon="39.114855"><ele>106.1</ele><time>2026-03-22T12:16:26Z</time></trkpt><trkpt lat="58.035365" lon="39.11495"><ele>106.4</ele><time>2026-03-22T12:16:30Z</time></trkpt><trkpt lat="58.035305" lon="39.115065"><ele>107.3</ele><time>2026-03-22T12:16:34Z</time></trkpt><trkpt lat="58.03525" lon="39.115185"><ele>107.2</ele><time>2026-03-22T12:16:38Z</time></trkpt><trkpt lat="58.035197" lon="39.115295"><ele>107.2</ele><time>2026-03-22T12:16:41Z</time></trkpt><trkpt lat="58.035145" lon="39.11541"><ele>107.0</ele><time>2026-03-22T12:16:44Z</time></trkpt><trkpt lat="58.035085" lon="39.115537"><ele>106.5</ele><time>2026-03-22T12:16:48Z</time></trkpt><trkpt lat="58.035022" lon="39.11566"><ele>106.6</ele><time>2026-03-22T12:16:52Z</time></trkpt><trkpt lat="58.03496" lon="39.115772"><ele>106.5</ele><time>2026-03-22T12:16:56Z</time></trkpt><trkpt lat="58.0349" lon="39.115895"><ele>106.6</ele><time>2026-03-22T12:17:00Z</time></trkpt><trkpt lat="58.034842" lon="39.11602"><ele>106.3</ele><time>2026-03-22T12:17:04Z</time></trkpt><trkpt lat="58.03479" lon="39.116128"><ele>106.2</ele><time>2026-03-22T12:17:08Z</time></trkpt><trkpt lat="58.034735" lon="39.116245"><ele>107.4</ele><time>2026-03-22T12:17:12Z</time></trkpt><trkpt lat="58.034668" lon="39.116355"><ele>108.5</ele><time>2026-03-22T12:17:16Z</time></trkpt><trkpt lat="58.034597" lon="39.116475"><ele>109.2</ele><time>2026-03-22T12:17:20Z</time></trkpt><trkpt lat="58.03452" lon="39.116565"><ele>109.7</ele><time>2026-03-22T12:17:24Z</time></trkpt><trkpt lat="58.034437" lon="39.116602"><ele>110.7</ele><time>2026-03-22T12:17:28Z</time></trkpt><trkpt lat="58.03435" lon="39.1166"><ele>110.2</ele><time>2026-03-22T12:17:32Z</time></trkpt><trkpt lat="58.03427" lon="39.116607"><ele>110.2</ele><time>2026-03-22T12:17:35Z</time></trkpt><trkpt lat="58.0342" lon="39.116635"><ele>109.3</ele><time>2026-03-22T12:17:38Z</time></trkpt><trkpt lat="58.03413" lon="39.116672"><ele>109.7</ele><time>2026-03-22T12:17:42Z</time></trkpt><trkpt lat="58.034082" lon="39.116705"><ele>109.3</ele><time>2026-03-22T12:17:49Z</time></trkpt><trkpt lat="58.034055" lon="39.116715"><ele>109.5</ele><time>2026-03-22T12:18:32Z</time></trkpt><trkpt lat="58.03398" lon="39.116765"><ele>109.5</ele><time>2026-03-22T12:19:55Z</time></trkpt><trkpt lat="58.033912" lon="39.11684"><ele>108.6</ele><time>2026-03-22T12:20:00Z</time></trkpt><trkpt lat="58.03385" lon="39.116965"><ele>108.1</ele><time>2026-03-22T12:20:04Z</time></trkpt><trkpt lat="58.033853" lon="39.11698"><ele>107.9</ele><time>2026-03-22T12:20:11Z</time></trkpt><trkpt lat="58.033795" lon="39.117087"><ele>108.2</ele><time>2026-03-22T12:20:31Z</time></trkpt><trkpt lat="58.03373" lon="39.11719"><ele>107.3</ele><time>2026-03-22T12:20:36Z</time></trkpt><trkpt lat="58.03367" lon="39.1173"><ele>107.7</ele><time>2026-03-22T12:20:41Z</time></trkpt><trkpt lat="58.033625" lon="39.11738"><ele>107.7</ele><time>2026-03-22T12:20:48Z</time></trkpt><trkpt lat="58.03356" lon="39.117475"><ele>107.1</ele><time>2026-03-22T12:21:56Z</time></trkpt><trkpt lat="58.0335" lon="39.117578"><ele>106.4</ele><time>2026-03-22T12:22:00Z</time></trkpt><trkpt lat="58.033437" lon="39.11767"><ele>105.5</ele><time>2026-03-22T12:22:04Z</time></trkpt><trkpt lat="58.033375" lon="39.117775"><ele>103.4</ele><time>2026-03-22T12:22:08Z</time></trkpt><trkpt lat="58.03334" lon="39.117905"><ele>103.3</ele><time>2026-03-22T12:22:12Z</time></trkpt><trkpt lat="58.033347" lon="39.118097"><ele>102.5</ele><time>2026-03-22T12:22:17Z</time></trkpt><trkpt lat="58.033387" lon="39.118225"><ele>102.4</ele><time>2026-03-22T12:22:20Z</time></trkpt><trkpt lat="58.033427" lon="39.11834"><ele>101.6</ele><time>2026-03-22T12:22:23Z</time></trkpt><trkpt lat="58.03348" lon="39.118462"><ele>101.5</ele><time>2026-03-22T12:22:27Z</time></trkpt><trkpt lat="58.03352" lon="39.118575"><ele>102.9</ele><time>2026-03-22T12:22:31Z</time></trkpt><trkpt lat="58.033547" lon="39.118717"><ele>104.7</ele><time>2026-03-22T12:22:36Z</time></trkpt><trkpt lat="58.03357" lon="39.11881"><ele>106.3</ele><time>2026-03-22T12:22:43Z</time></trkpt><trkpt lat="58.033635" lon="39.118967"><ele>105.8</ele><time>2026-03-22T12:22:47Z</time></trkpt><trkpt lat="58.033677" lon="39.119105"><ele>105.5</ele><time>2026-03-22T12:22:50Z</time></trkpt><trkpt lat="58.03372" lon="39.119237"><ele>106.5</ele><time>2026-03-22T12:22:55Z</time></trkpt><trkpt lat="58.033775" lon="39.119335"><ele>106.2</ele><time>2026-03-22T12:22:59Z</time></trkpt><trkpt lat="58.033832" lon="39.11946"><ele>106.5</ele><time>2026-03-22T12:23:04Z</time></trkpt><trkpt lat="58.033887" lon="39.119585"><ele>106.0</ele><time>2026-03-22T12:23:10Z</time></trkpt><trkpt lat="58.033955" lon="39.11967"><ele>104.9</ele><time>2026-03-22T12:23:15Z</time></trkpt><trkpt lat="58.034015" lon="39.119765"><ele>104.9</ele><time>2026-03-22T12:23:22Z</time></trkpt><trkpt lat="58.034077" lon="39.119843"><ele>104.3</ele><time>2026-03-22T12:23:27Z</time></trkpt><trkpt lat="58.03414" lon="39.119917"><ele>107.1</ele><time>2026-03-22T12:23:33Z</time></trkpt><trkpt lat="58.034185" lon="39.11999"><ele>107.5</ele><time>2026-03-22T12:23:40Z</time></trkpt><trkpt lat="58.034255" lon="39.120068"><ele>107.9</ele><time>2026-03-22T12:23:45Z</time></trkpt><trkpt lat="58.034317" lon="39.120135"><ele>110.8</ele><time>2026-03-22T12:23:50Z</time></trkpt><trkpt lat="58.034387" lon="39.120205"><ele>112.3</ele><time>2026-03-22T12:23:55Z</time></trkpt><trkpt lat="58.034453" lon="39.120267"><ele>114.2</ele><time>2026-03-22T12:24:00Z</time></trkpt><trkpt lat="58.034453" lon="39.120305"><ele>114.4</ele><time>2026-03-22T12:24:07Z</time></trkpt><trkpt lat="58.034528" lon="39.120365"><ele>115.6</ele><time>2026-03-22T12:24:26Z</time></trkpt><trkpt lat="58.034605" lon="39.120442"><ele>117.1</ele><time>2026-03-22T12:24:32Z</time></trkpt><trkpt lat="58.034665" lon="39.12051"><ele>119.4</ele><time>2026-03-22T12:24:37Z</time></trkpt><trkpt lat="58.034675" lon="39.120545"><ele>117.2</ele><time>2026-03-22T12:24:44Z</time></trkpt><trkpt lat="58.03475" lon="39.120615"><ele>118.2</ele><time>2026-03-22T12:25:03Z</time></trkpt><trkpt lat="58.034815" lon="39.120688"><ele>120.0</ele><time>2026-03-22T12:25:09Z</time></trkpt><trkpt lat="58.03488" lon="39.120717"><ele>123.5</ele><time>2026-03-22T12:25:16Z</time></trkpt><trkpt lat="58.034945" lon="39.12081"><ele>122.9</ele><time>2026-03-22T12:25:23Z</time></trkpt><trkpt lat="58.034997" lon="39.120912"><ele>125.9</ele><time>2026-03-22T12:25:30Z</time></trkpt><trkpt lat="58.035025" lon="39.120995"><ele>127.8</ele><time>2026-03-22T12:25:37Z</time></trkpt><trkpt lat="58.035085" lon="39.121075"><ele>130.3</ele><time>2026-03-22T12:25:44Z</time></trkpt><trkpt lat="58.03515" lon="39.121125"><ele>128.9</ele><time>2026-03-22T12:25:51Z</time></trkpt><trkpt lat="58.035215" lon="39.121192"><ele>127.4</ele><time>2026-03-22T12:25:57Z</time></trkpt><trkpt lat="58.035277" lon="39.121275"><ele>124.8</ele><time>2026-03-22T12:26:04Z</time></trkpt><trkpt lat="58.03533" lon="39.121357"><ele>123.2</ele><time>2026-03-22T12:26:11Z</time></trkpt><trkpt lat="58.035385" lon="39.121455"><ele>124.7</ele><time>2026-03-22T12:26:17Z</time></trkpt><trkpt lat="58.035427" lon="39.121535"><ele>126.7</ele><time>2026-03-22T12:26:24Z</time></trkpt><trkpt lat="58.035495" lon="39.12162"><ele>129.9</ele><time>2026-03-22T12:26:31Z</time></trkpt><trkpt lat="58.035552" lon="39.12168"><ele>131.5</ele><time>2026-03-22T12:26:38Z</time></trkpt><trkpt lat="58.03556" lon="39.121755"><ele>136.8</ele><time>2026-03-22T12:28:03Z</time></trkpt><trkpt lat="58.035565" lon="39.12177"><ele>136.8</ele><time>2026-03-22T12:30:04Z</time></trkpt><trkpt lat="58.03557" lon="39.12173"><ele>135.0</ele><time>2026-03-22T12:30:20Z</time></trkpt><trkpt lat="58.03557" lon="39.121712"><ele>134.6</ele><time>2026-03-22T12:30:27Z</time></trkpt><trkpt lat="58.0356" lon="39.12175"><ele>136.1</ele><time>2026-03-22T12:30:46Z</time></trkpt><trkpt lat="58.03564" lon="39.121827"><ele>135.9</ele><time>2026-03-22T12:30:53Z</time></trkpt><trkpt lat="58.035685" lon="39.121907"><ele>137.2</ele><time>2026-03-22T12:31:00Z</time></trkpt><trkpt lat="58.035747" lon="39.121995"><ele>138.6</ele><time>2026-03-22T12:31:07Z</time></trkpt><trkpt lat="58.03582" lon="39.12206"><ele>137.0</ele><time>2026-03-22T12:31:11Z</time></trkpt><trkpt lat="58.035892" lon="39.122092"><ele>137.1</ele><time>2026-03-22T12:31:15Z</time></trkpt><trkpt lat="58.035963" lon="39.12213"><ele>137.7</ele><time>2026-03-22T12:31:19Z</time></trkpt><trkpt lat="58.03604" lon="39.122192"><ele>142.2</ele><time>2026-03-22T12:31:26Z</time></trkpt><trkpt lat="58.036125" lon="39.122225"><ele>142.3</ele><time>2026-03-22T12:31:31Z</time></trkpt><trkpt lat="58.036197" lon="39.12225"><ele>143.5</ele><time>2026-03-22T12:31:35Z</time></trkpt><trkpt lat="58.036273" lon="39.122297"><ele>142.8</ele><time>2026-03-22T12:31:40Z</time></trkpt><trkpt lat="58.03635" lon="39.122347"><ele>141.6</ele><time>2026-03-22T12:31:45Z</time></trkpt><trkpt lat="58.036425" lon="39.122367"><ele>142.7</ele><time>2026-03-22T12:31:49Z</time></trkpt><trkpt lat="58.036498" lon="39.12239"><ele>145.1</ele><time>2026-03-22T12:31:53Z</time></trkpt><trkpt lat="58.036575" lon="39.122432"><ele>144.1</ele><time>2026-03-22T12:31:57Z</time></trkpt><trkpt lat="58.036648" lon="39.122497"><ele>143.7</ele><time>2026-03-22T12:32:02Z</time></trkpt><trkpt lat="58.036715" lon="39.122567"><ele>143.0</ele><time>2026-03-22T12:32:07Z</time></trkpt><trkpt lat="58.036802" lon="39.1226"><ele>142.0</ele><time>2026-03-22T12:32:12Z</time></trkpt><trkpt lat="58.036872" lon="39.122647"><ele>142.3</ele><time>2026-03-22T12:32:17Z</time></trkpt><trkpt lat="58.03694" lon="39.122695"><ele>142.7</ele><time>2026-03-22T12:32:21Z</time></trkpt><trkpt lat="58.037015" lon="39.122745"><ele>142.9</ele><time>2026-03-22T12:32:25Z</time></trkpt><trkpt lat="58.037087" lon="39.122802"><ele>142.8</ele><time>2026-03-22T12:32:29Z</time></trkpt><trkpt lat="58.037172" lon="39.122882"><ele>141.6</ele><time>2026-03-22T12:32:33Z</time></trkpt><trkpt lat="58.037255" lon="39.12295"><ele>142.6</ele><time>2026-03-22T12:32:37Z</time></trkpt><trkpt lat="58.037325" lon="39.123005"><ele>142.6</ele><time>2026-03-22T12:32:40Z</time></trkpt><trkpt lat="58.037395" lon="39.123055"><ele>142.2</ele><time>2026-03-22T12:32:43Z</time></trkpt><trkpt lat="58.037455" lon="39.123125"><ele>142.0</ele><time>2026-03-22T12:32:46Z</time></trkpt><trkpt lat="58.037532" lon="39.123225"><ele>142.5</ele><time>2026-03-22T12:32:49Z</time></trkpt><trkpt lat="58.037577" lon="39.12334"><ele>142.7</ele><time>2026-03-22T12:32:52Z</time></trkpt><trkpt lat="58.037605" lon="39.123505"><ele>142.5</ele><time>2026-03-22T12:32:56Z</time></trkpt><trkpt lat="58.03763" lon="39.123635"><ele>143.1</ele><time>2026-03-22T12:33:00Z</time></trkpt><trkpt lat="58.037637" lon="39.12379"><ele>143.2</ele><time>2026-03-22T12:33:05Z</time></trkpt><trkpt lat="58.037632" lon="39.123938"><ele>143.0</ele><time>2026-03-22T12:33:09Z</time></trkpt><trkpt lat="58.037627" lon="39.124092"><ele>142.4</ele><time>2026-03-22T12:33:13Z</time></trkpt><trkpt lat="58.037622" lon="39.124227"><ele>141.8</ele><time>2026-03-22T12:33:17Z</time></trkpt><trkpt lat="58.037605" lon="39.124385"><ele>142.7</ele><time>2026-03-22T12:33:21Z</time></trkpt><trkpt lat="58.037565" lon="39.12453"><ele>142.0</ele><time>2026-03-22T12:33:25Z</time></trkpt><trkpt lat="58.03752" lon="39.12467"><ele>141.8</ele><time>2026-03-22T12:33:29Z</time></trkpt><trkpt lat="58.03747" lon="39.124815"><ele>142.0</ele><time>2026-03-22T12:33:33Z</time></trkpt><trkpt lat="58.037417" lon="39.12493"><ele>142.3</ele><time>2026-03-22T12:33:36Z</time></trkpt><trkpt lat="58.037365" lon="39.125045"><ele>141.9</ele><time>2026-03-22T12:33:39Z</time></trkpt><trkpt lat="58.037312" lon="39.125182"><ele>140.7</ele><time>2026-03-22T12:33:43Z</time></trkpt><trkpt lat="58.037265" lon="39.1253"><ele>140.6</ele><time>2026-03-22T12:33:48Z</time></trkpt><trkpt lat="58.037205" lon="39.125417"><ele>140.3</ele><time>2026-03-22T12:33:53Z</time></trkpt><trkpt lat="58.037145" lon="39.12552"><ele>139.2</ele><time>2026-03-22T12:33:57Z</time></trkpt><trkpt lat="58.0371" lon="39.125655"><ele>141.9</ele><time>2026-03-22T12:34:02Z</time></trkpt><trkpt lat="58.03704" lon="39.12578"><ele>141.0</ele><time>2026-03-22T12:34:08Z</time></trkpt><trkpt lat="58.037" lon="39.1259"><ele>142.1</ele><time>2026-03-22T12:34:12Z</time></trkpt><trkpt lat="58.036952" lon="39.126025"><ele>141.3</ele><time>2026-03-22T12:34:16Z</time></trkpt><trkpt lat="58.036892" lon="39.126145"><ele>139.8</ele><time>2026-03-22T12:34:20Z</time></trkpt><trkpt lat="58.036835" lon="39.126245"><ele>138.8</ele><time>2026-03-22T12:34:23Z</time></trkpt><trkpt lat="58.036775" lon="39.12635"><ele>141.3</ele><time>2026-03-22T12:34:26Z</time></trkpt><trkpt lat="58.036685" lon="39.126435"><ele>141.3</ele><time>2026-03-22T12:34:29Z</time></trkpt><trkpt lat="58.0366" lon="39.126512"><ele>140.8</ele><time>2026-03-22T12:34:32Z</time></trkpt><trkpt lat="58.03653" lon="39.126593"><ele>139.4</ele><time>2026-03-22T12:34:35Z</time></trkpt><trkpt lat="58.036475" lon="39.126682"><ele>139.8</ele><time>2026-03-22T12:34:38Z</time></trkpt><trkpt lat="58.036422" lon="39.126792"><ele>139.0</ele><time>2026-03-22T12:34:41Z</time></trkpt><trkpt lat="58.03637" lon="39.126908"><ele>138.6</ele><time>2026-03-22T12:34:45Z</time></trkpt><trkpt lat="58.03632" lon="39.12701"><ele>138.1</ele><time>2026-03-22T12:34:49Z</time></trkpt><trkpt lat="58.036273" lon="39.127117"><ele>138.4</ele><time>2026-03-22T12:34:53Z</time></trkpt><trkpt lat="58.03623" lon="39.12725"><ele>139.3</ele><time>2026-03-22T12:34:57Z</time></trkpt><trkpt lat="58.036187" lon="39.12737"><ele>139.3</ele><time>2026-03-22T12:35:00Z</time></trkpt><trkpt lat="58.03614" lon="39.127497"><ele>138.0</ele><time>2026-03-22T12:35:04Z</time></trkpt><trkpt lat="58.036085" lon="39.127625"><ele>137.8</ele><time>2026-03-22T12:35:08Z</time></trkpt><trkpt lat="58.03604" lon="39.12779"><ele>140.1</ele><time>2026-03-22T12:35:11Z</time></trkpt><trkpt lat="58.036005" lon="39.12791"><ele>141.9</ele><time>2026-03-22T12:35:13Z</time></trkpt><trkpt lat="58.035957" lon="39.12807"><ele>141.1</ele><time>2026-03-22T12:35:16Z</time></trkpt><trkpt lat="58.03592" lon="39.12822"><ele>137.9</ele><time>2026-03-22T12:35:21Z</time></trkpt><trkpt lat="58.03589" lon="39.128355"><ele>138.8</ele><time>2026-03-22T12:35:23Z</time></trkpt><trkpt lat="58.03585" lon="39.12854"><ele>139.6</ele><time>2026-03-22T12:35:26Z</time></trkpt><trkpt lat="58.035817" lon="39.128675"><ele>139.6</ele><time>2026-03-22T12:35:28Z</time></trkpt><trkpt lat="58.035775" lon="39.12884"><ele>141.8</ele><time>2026-03-22T12:35:31Z</time></trkpt><trkpt lat="58.035737" lon="39.128977"><ele>141.8</ele><time>2026-03-22T12:35:33Z</time></trkpt><trkpt lat="58.035705" lon="39.12914"><ele>139.4</ele><time>2026-03-22T12:35:36Z</time></trkpt><trkpt lat="58.03568" lon="39.129267"><ele>139.7</ele><time>2026-03-22T12:35:39Z</time></trkpt><trkpt lat="58.035647" lon="39.129405"><ele>139.1</ele><time>2026-03-22T12:35:42Z</time></trkpt><trkpt lat="58.035627" lon="39.129552"><ele>140.2</ele><time>2026-03-22T12:35:45Z</time></trkpt><trkpt lat="58.03562" lon="39.12971"><ele>141.8</ele><time>2026-03-22T12:35:48Z</time></trkpt><trkpt lat="58.03562" lon="39.129847"><ele>144.2</ele><time>2026-03-22T12:35:51Z</time></trkpt><trkpt lat="58.03562" lon="39.130003"><ele>144.3</ele><time>2026-03-22T12:35:55Z</time></trkpt><trkpt lat="58.03561" lon="39.13015"><ele>144.9</ele><time>2026-03-22T12:35:59Z</time></trkpt><trkpt lat="58.03559" lon="39.130298"><ele>143.1</ele><time>2026-03-22T12:36:03Z</time></trkpt><trkpt lat="58.03555" lon="39.130432"><ele>140.6</ele><time>2026-03-22T12:36:08Z</time></trkpt><trkpt lat="58.035508" lon="39.13058"><ele>140.7</ele><time>2026-03-22T12:36:12Z</time></trkpt><trkpt lat="58.03548" lon="39.130725"><ele>140.5</ele><time>2026-03-22T12:36:16Z</time></trkpt><trkpt lat="58.035435" lon="39.13088"><ele>139.7</ele><time>2026-03-22T12:36:20Z</time></trkpt><trkpt lat="58.035405" lon="39.131015"><ele>139.0</ele><time>2026-03-22T12:36:23Z</time></trkpt><trkpt lat="58.035365" lon="39.13118"><ele>138.0</ele><time>2026-03-22T12:36:27Z</time></trkpt><trkpt lat="58.035325" lon="39.13135"><ele>140.9</ele><time>2026-03-22T12:36:30Z</time></trkpt><trkpt lat="58.035288" lon="39.131485"><ele>142.3</ele><time>2026-03-22T12:36:33Z</time></trkpt><trkpt lat="58.03526" lon="39.13164"><ele>143.6</ele><time>2026-03-22T12:36:36Z</time></trkpt><trkpt lat="58.03523" lon="39.13177"><ele>144.3</ele><time>2026-03-22T12:36:39Z</time></trkpt><trkpt lat="58.035195" lon="39.13191"><ele>144.8</ele><time>2026-03-22T12:36:42Z</time></trkpt><trkpt lat="58.03516" lon="39.132047"><ele>144.7</ele><time>2026-03-22T12:36:45Z</time></trkpt><trkpt lat="58.035127" lon="39.132185"><ele>145.1</ele><time>2026-03-22T12:36:48Z</time></trkpt><trkpt lat="58.035102" lon="39.13232"><ele>144.5</ele><time>2026-03-22T12:36:52Z</time></trkpt><trkpt lat="58.03507" lon="39.13248"><ele>145.1</ele><time>2026-03-22T12:36:59Z</time></trkpt><trkpt lat="58.03503" lon="39.132642"><ele>143.8</ele><time>2026-03-22T12:37:03Z</time></trkpt><trkpt lat="58.034995" lon="39.132807"><ele>144.0</ele><time>2026-03-22T12:37:07Z</time></trkpt><trkpt lat="58.034965" lon="39.13295"><ele>144.1</ele><time>2026-03-22T12:37:10Z</time></trkpt><trkpt lat="58.034935" lon="39.133095"><ele>144.0</ele><time>2026-03-22T12:37:13Z</time></trkpt><trkpt lat="58.034902" lon="39.133235"><ele>144.2</ele><time>2026-03-22T12:37:16Z</time></trkpt><trkpt lat="58.03487" lon="39.133355"><ele>146.2</ele><time>2026-03-22T12:37:19Z</time></trkpt><trkpt lat="58.034837" lon="39.13351"><ele>147.3</ele><time>2026-03-22T12:37:22Z</time></trkpt><trkpt lat="58.034807" lon="39.13368"><ele>145.5</ele><time>2026-03-22T12:37:26Z</time></trkpt><trkpt lat="58.03478" lon="39.133825"><ele>147.0</ele><time>2026-03-22T12:37:29Z</time></trkpt><trkpt lat="58.034748" lon="39.133985"><ele>146.7</ele><time>2026-03-22T12:37:32Z</time></trkpt><trkpt lat="58.034705" lon="39.134125"><ele>146.9</ele><time>2026-03-22T12:37:35Z</time></trkpt><trkpt lat="58.034665" lon="39.134255"><ele>146.7</ele><time>2026-03-22T12:37:38Z</time></trkpt><trkpt lat="58.034632" lon="39.134382"><ele>145.3</ele><time>2026-03-22T12:37:41Z</time></trkpt><trkpt lat="58.034585" lon="39.134515"><ele>144.0</ele><time>2026-03-22T12:37:45Z</time></trkpt><trkpt lat="58.034528" lon="39.134615"><ele>142.6</ele><time>2026-03-22T12:37:48Z</time></trkpt><trkpt lat="58.034475" lon="39.13472"><ele>142.0</ele><time>2026-03-22T12:37:51Z</time></trkpt><trkpt lat="58.034415" lon="39.134805"><ele>142.0</ele><time>2026-03-22T12:37:54Z</time></trkpt><trkpt lat="58.034345" lon="39.13491"><ele>141.0</ele><time>2026-03-22T12:37:59Z</time></trkpt><trkpt lat="58.034275" lon="39.135005"><ele>139.9</ele><time>2026-03-22T12:38:02Z</time></trkpt><trkpt lat="58.034205" lon="39.135105"><ele>139.6</ele><time>2026-03-22T12:38:05Z</time></trkpt><trkpt lat="58.03413" lon="39.13519"><ele>139.5</ele><time>2026-03-22T12:38:09Z</time></trkpt><trkpt lat="58.034045" lon="39.13529"><ele>139.2</ele><time>2026-03-22T12:38:12Z</time></trkpt><trkpt lat="58.03397" lon="39.135335"><ele>138.5</ele><time>2026-03-22T12:38:13Z</time></trkpt><trkpt lat="58.033935" lon="39.13547"><ele>137.6</ele><time>2026-03-22T12:38:16Z</time></trkpt><trkpt lat="58.0339" lon="39.135607"><ele>138.8</ele><time>2026-03-22T12:38:19Z</time></trkpt><trkpt lat="58.03388" lon="39.135745"><ele>134.7</ele><time>2026-03-22T12:38:22Z</time></trkpt><trkpt lat="58.033848" lon="39.135885"><ele>133.5</ele><time>2026-03-22T12:38:25Z</time></trkpt><trkpt lat="58.03385" lon="39.136055"><ele>133.2</ele><time>2026-03-22T12:38:28Z</time></trkpt><trkpt lat="58.033862" lon="39.13622"><ele>135.3</ele><time>2026-03-22T12:38:31Z</time></trkpt><trkpt lat="58.033875" lon="39.13626"><ele>138.2</ele><time>2026-03-22T12:38:38Z</time></trkpt><trkpt lat="58.0339" lon="39.136415"><ele>139.1</ele><time>2026-03-22T12:39:29Z</time></trkpt><trkpt lat="58.033935" lon="39.136555"><ele>141.1</ele><time>2026-03-22T12:39:35Z</time></trkpt><trkpt lat="58.033945" lon="39.136695"><ele>142.1</ele><time>2026-03-22T12:39:41Z</time></trkpt><trkpt lat="58.033965" lon="39.136827"><ele>143.3</ele><time>2026-03-22T12:39:55Z</time></trkpt><trkpt lat="58.03399" lon="39.136955"><ele>144.2</ele><time>2026-03-22T12:40:02Z</time></trkpt><trkpt lat="58.034012" lon="39.137065"><ele>141.2</ele><time>2026-03-22T12:40:09Z</time></trkpt><trkpt lat="58.034037" lon="39.137175"><ele>141.0</ele><time>2026-03-22T12:40:16Z</time></trkpt><trkpt lat="58.03406" lon="39.1373"><ele>139.9</ele><time>2026-03-22T12:40:23Z</time></trkpt><trkpt lat="58.03405" lon="39.137347"><ele>139.8</ele><time>2026-03-22T12:40:30Z</time></trkpt><trkpt lat="58.03409" lon="39.13744"><ele>140.2</ele><time>2026-03-22T12:40:51Z</time></trkpt><trkpt lat="58.034148" lon="39.13756"><ele>140.8</ele><time>2026-03-22T12:40:57Z</time></trkpt><trkpt lat="58.03416" lon="39.1377"><ele>140.6</ele><time>2026-03-22T12:41:01Z</time></trkpt><trkpt lat="58.03417" lon="39.137805"><ele>140.2</ele><time>2026-03-22T12:41:08Z</time></trkpt><trkpt lat="58.03421" lon="39.137805"><ele>141.7</ele><time>2026-03-22T12:45:27Z</time></trkpt><trkpt lat="58.03421" lon="39.1378"><ele>143.0</ele><time>2026-03-22T12:53:16Z</time></trkpt><trkpt lat="58.034222" lon="39.13793"><ele>142.6</ele><time>2026-03-22T12:54:34Z</time></trkpt><trkpt lat="58.03426" lon="39.13805"><ele>141.6</ele><time>2026-03-22T12:54:41Z</time></trkpt><trkpt lat="58.034315" lon="39.138177"><ele>141.8</ele><time>2026-03-22T12:54:46Z</time></trkpt><trkpt lat="58.034382" lon="39.138317"><ele>141.6</ele><time>2026-03-22T12:54:50Z</time></trkpt><trkpt lat="58.034442" lon="39.138457"><ele>140.8</ele><time>2026-03-22T12:54:53Z</time></trkpt><trkpt lat="58.03449" lon="39.138565"><ele>140.0</ele><time>2026-03-22T12:54:55Z</time></trkpt><trkpt lat="58.03455" lon="39.13867"><ele>136.9</ele><time>2026-03-22T12:54:58Z</time></trkpt><trkpt lat="58.034605" lon="39.138765"><ele>134.5</ele><time>2026-03-22T12:55:03Z</time></trkpt><trkpt lat="58.03462" lon="39.138907"><ele>130.5</ele><time>2026-03-22T12:55:08Z</time></trkpt><trkpt lat="58.034622" lon="39.139367"><ele>130.4</ele><time>2026-03-22T12:55:10Z</time></trkpt><trkpt lat="58.034602" lon="39.139532"><ele>126.9</ele><time>2026-03-22T12:55:12Z</time></trkpt><trkpt lat="58.03454" lon="39.140215"><ele>127.7</ele><time>2026-03-22T12:55:14Z</time></trkpt><trkpt lat="58.034512" lon="39.1404"><ele>128.0</ele><time>2026-03-22T12:55:15Z</time></trkpt><trkpt lat="58.03449" lon="39.140535"><ele>128.1</ele><time>2026-03-22T12:55:16Z</time></trkpt><trkpt lat="58.03443" lon="39.140655"><ele>126.9</ele><time>2026-03-22T12:55:18Z</time></trkpt><trkpt lat="58.03438" lon="39.140805"><ele>128.4</ele><time>2026-03-22T12:55:21Z</time></trkpt><trkpt lat="58.034315" lon="39.140885"><ele>126.6</ele><time>2026-03-22T12:55:25Z</time></trkpt><trkpt lat="58.03426" lon="39.141005"><ele>127.9</ele><time>2026-03-22T12:55:29Z</time></trkpt><trkpt lat="58.034212" lon="39.14114"><ele>129.0</ele><time>2026-03-22T12:55:34Z</time></trkpt><trkpt lat="58.03417" lon="39.141285"><ele>129.9</ele><time>2026-03-22T12:55:39Z</time></trkpt><trkpt lat="58.03414" lon="39.141435"><ele>130.8</ele><time>2026-03-22T12:55:44Z</time></trkpt><trkpt lat="58.034115" lon="39.141527"><ele>130.7</ele><time>2026-03-22T12:55:51Z</time></trkpt><trkpt lat="58.034115" lon="39.141565"><ele>132.6</ele><time>2026-03-22T12:56:13Z</time></trkpt><trkpt lat="58.034075" lon="39.1417"><ele>131.9</ele><time>2026-03-22T12:56:17Z</time></trkpt><trkpt lat="58.034035" lon="39.141815"><ele>130.8</ele><time>2026-03-22T12:56:21Z</time></trkpt><trkpt lat="58.033992" lon="39.14195"><ele>131.1</ele><time>2026-03-22T12:56:25Z</time></trkpt><trkpt lat="58.033945" lon="39.142095"><ele>131.0</ele><time>2026-03-22T12:56:29Z</time></trkpt><trkpt lat="58.0339" lon="39.14225"><ele>130.9</ele><time>2026-03-22T12:56:33Z</time></trkpt><trkpt lat="58.03387" lon="39.14242"><ele>130.6</ele><time>2026-03-22T12:56:36Z</time></trkpt><trkpt lat="58.033842" lon="39.142555"><ele>130.4</ele><time>2026-03-22T12:56:39Z</time></trkpt><trkpt lat="58.03382" lon="39.14269"><ele>131.1</ele><time>2026-03-22T12:56:43Z</time></trkpt><trkpt lat="58.033805" lon="39.142835"><ele>131.0</ele><time>2026-03-22T12:56:46Z</time></trkpt><trkpt lat="58.03378" lon="39.14297"><ele>132.0</ele><time>2026-03-22T12:56:48Z</time></trkpt><trkpt lat="58.033745" lon="39.14316"><ele>132.3</ele><time>2026-03-22T12:56:51Z</time></trkpt><trkpt lat="58.033698" lon="39.143335"><ele>132.5</ele><time>2026-03-22T12:56:54Z</time></trkpt><trkpt lat="58.03367" lon="39.143495"><ele>132.0</ele><time>2026-03-22T12:56:57Z</time></trkpt><trkpt lat="58.033645" lon="39.143625"><ele>131.4</ele><time>2026-03-22T12:57:00Z</time></trkpt><trkpt lat="58.033627" lon="39.143765"><ele>131.7</ele><time>2026-03-22T12:57:03Z</time></trkpt><trkpt lat="58.033585" lon="39.14392"><ele>130.7</ele><time>2026-03-22T12:57:07Z</time></trkpt><trkpt lat="58.03359" lon="39.14399"><ele>130.3</ele><time>2026-03-22T12:57:14Z</time></trkpt><trkpt lat="58.03359" lon="39.144145"><ele>130.4</ele><time>2026-03-22T12:57:51Z</time></trkpt><trkpt lat="58.033572" lon="39.144295"><ele>131.2</ele><time>2026-03-22T12:57:56Z</time></trkpt><trkpt lat="58.033555" lon="39.144465"><ele>132.6</ele><time>2026-03-22T12:58:01Z</time></trkpt><trkpt lat="58.033543" lon="39.14462"><ele>131.8</ele><time>2026-03-22T12:58:06Z</time></trkpt><trkpt lat="58.033538" lon="39.14474"><ele>132.3</ele><time>2026-03-22T12:58:13Z</time></trkpt><trkpt lat="58.033565" lon="39.144887"><ele>134.2</ele><time>2026-03-22T12:58:20Z</time></trkpt><trkpt lat="58.033577" lon="39.14504"><ele>135.4</ele><time>2026-03-22T12:58:26Z</time></trkpt><trkpt lat="58.033602" lon="39.145182"><ele>135.1</ele><time>2026-03-22T12:58:32Z</time></trkpt><trkpt lat="58.03362" lon="39.145312"><ele>136.1</ele><time>2026-03-22T12:58:39Z</time></trkpt><trkpt lat="58.033627" lon="39.145355"><ele>136.9</ele><time>2026-03-22T12:58:46Z</time></trkpt><trkpt lat="58.033675" lon="39.145505"><ele>138.2</ele><time>2026-03-22T12:58:53Z</time></trkpt><trkpt lat="58.033715" lon="39.14563"><ele>138.9</ele><time>2026-03-22T12:58:57Z</time></trkpt><trkpt lat="58.033765" lon="39.145757"><ele>140.1</ele><time>2026-03-22T12:59:02Z</time></trkpt><trkpt lat="58.033795" lon="39.145845"><ele>140.0</ele><time>2026-03-22T12:59:09Z</time></trkpt><trkpt lat="58.033875" lon="39.14611"><ele>139.3</ele><time>2026-03-22T12:59:41Z</time></trkpt><trkpt lat="58.033955" lon="39.146115"><ele>137.7</ele><time>2026-03-22T12:59:42Z</time></trkpt><trkpt lat="58.03398" lon="39.146265"><ele>140.4</ele><time>2026-03-22T12:59:43Z</time></trkpt><trkpt lat="58.033985" lon="39.146425"><ele>142.3</ele><time>2026-03-22T12:59:45Z</time></trkpt><trkpt lat="58.034055" lon="39.146552"><ele>148.5</ele><time>2026-03-22T12:59:52Z</time></trkpt><trkpt lat="58.034087" lon="39.146667"><ele>146.3</ele><time>2026-03-22T12:59:59Z</time></trkpt><trkpt lat="58.0341" lon="39.146815"><ele>144.9</ele><time>2026-03-22T13:00:03Z</time></trkpt><trkpt lat="58.0341" lon="39.146987"><ele>143.4</ele><time>2026-03-22T13:00:07Z</time></trkpt><trkpt lat="58.034077" lon="39.147177"><ele>141.8</ele><time>2026-03-22T13:00:10Z</time></trkpt><trkpt lat="58.03406" lon="39.147315"><ele>140.6</ele><time>2026-03-22T13:00:13Z</time></trkpt><trkpt lat="58.03404" lon="39.147455"><ele>139.1</ele><time>2026-03-22T13:00:19Z</time></trkpt><trkpt lat="58.03402" lon="39.147605"><ele>141.7</ele><time>2026-03-22T13:00:25Z</time></trkpt><trkpt lat="58.034025" lon="39.14775"><ele>142.8</ele><time>2026-03-22T13:00:32Z</time></trkpt><trkpt lat="58.034005" lon="39.14791"><ele>143.0</ele><time>2026-03-22T13:00:39Z</time></trkpt><trkpt lat="58.03399" lon="39.148055"><ele>144.1</ele><time>2026-03-22T13:00:44Z</time></trkpt><trkpt lat="58.033975" lon="39.14821"><ele>144.0</ele><time>2026-03-22T13:00:49Z</time></trkpt><trkpt lat="58.03396" lon="39.148345"><ele>145.2</ele><time>2026-03-22T13:00:53Z</time></trkpt><trkpt lat="58.03394" lon="39.1485"><ele>145.6</ele><time>2026-03-22T13:00:58Z</time></trkpt><trkpt lat="58.033922" lon="39.14865"><ele>146.9</ele><time>2026-03-22T13:01:03Z</time></trkpt><trkpt lat="58.033907" lon="39.1488"><ele>147.8</ele><time>2026-03-22T13:01:08Z</time></trkpt><trkpt lat="58.03389" lon="39.148947"><ele>147.5</ele><time>2026-03-22T13:01:13Z</time></trkpt><trkpt lat="58.033875" lon="39.14911"><ele>147.3</ele><time>2026-03-22T13:01:18Z</time></trkpt><trkpt lat="58.03387" lon="39.14926"><ele>148.1</ele><time>2026-03-22T13:01:23Z</time></trkpt><trkpt lat="58.033877" lon="39.149307"><ele>148.2</ele><time>2026-03-22T13:01:30Z</time></trkpt><trkpt lat="58.033865" lon="39.14935"><ele>147.2</ele><time>2026-03-22T13:03:00Z</time></trkpt><trkpt lat="58.033865" lon="39.149312"><ele>148.2</ele><time>2026-03-22T13:05:00Z</time></trkpt><trkpt lat="58.033847" lon="39.149342"><ele>147.5</ele><time>2026-03-22T13:05:07Z</time></trkpt><trkpt lat="58.033825" lon="39.14945"><ele>146.3</ele><time>2026-03-22T13:05:14Z</time></trkpt><trkpt lat="58.03387" lon="39.149555"><ele>147.2</ele><time>2026-03-22T13:05:20Z</time></trkpt><trkpt lat="58.033922" lon="39.14965"><ele>147.8</ele><time>2026-03-22T13:05:27Z</time></trkpt><trkpt lat="58.03395" lon="39.149652"><ele>148.9</ele><time>2026-03-22T13:05:48Z</time></trkpt><trkpt lat="58.033993" lon="39.14978"><ele>149.9</ele><time>2026-03-22T13:06:50Z</time></trkpt><trkpt lat="58.033945" lon="39.14981"><ele>148.0</ele><time>2026-03-22T13:06:57Z</time></trkpt><trkpt lat="58.033992" lon="39.14994"><ele>147.8</ele><time>2026-03-22T13:07:04Z</time></trkpt><trkpt lat="58.03406" lon="39.150032"><ele>148.1</ele><time>2026-03-22T13:07:06Z</time></trkpt><trkpt lat="58.034148" lon="39.150137"><ele>149.3</ele><time>2026-03-22T13:07:09Z</time></trkpt><trkpt lat="58.034245" lon="39.150167"><ele>150.6</ele><time>2026-03-22T13:07:10Z</time></trkpt><trkpt lat="58.034267" lon="39.150307"><ele>149.8</ele><time>2026-03-22T13:07:12Z</time></trkpt><trkpt lat="58.03433" lon="39.150377"><ele>149.7</ele><time>2026-03-22T13:07:15Z</time></trkpt><trkpt lat="58.034355" lon="39.150522"><ele>151.0</ele><time>2026-03-22T13:07:22Z</time></trkpt><trkpt lat="58.034405" lon="39.150618"><ele>151.7</ele><time>2026-03-22T13:07:26Z</time></trkpt><trkpt lat="58.034457" lon="39.15073"><ele>153.5</ele><time>2026-03-22T13:07:32Z</time></trkpt><trkpt lat="58.03445" lon="39.150797"><ele>153.4</ele><time>2026-03-22T13:07:39Z</time></trkpt><trkpt lat="58.03451" lon="39.15091"><ele>153.8</ele><time>2026-03-22T13:07:45Z</time></trkpt><trkpt lat="58.03457" lon="39.15102"><ele>155.0</ele><time>2026-03-22T13:07:49Z</time></trkpt><trkpt lat="58.03464" lon="39.151095"><ele>155.9</ele><time>2026-03-22T13:07:53Z</time></trkpt><trkpt lat="58.034712" lon="39.151172"><ele>154.4</ele><time>2026-03-22T13:07:58Z</time></trkpt><trkpt lat="58.034785" lon="39.15126"><ele>154.3</ele><time>2026-03-22T13:08:02Z</time></trkpt><trkpt lat="58.03486" lon="39.151325"><ele>152.9</ele><time>2026-03-22T13:08:06Z</time></trkpt><trkpt lat="58.03494" lon="39.151355"><ele>153.7</ele><time>2026-03-22T13:08:10Z</time></trkpt><trkpt lat="58.035035" lon="39.151377"><ele>154.5</ele><time>2026-03-22T13:08:14Z</time></trkpt><trkpt lat="58.035132" lon="39.151385"><ele>152.2</ele><time>2026-03-22T13:08:18Z</time></trkpt><trkpt lat="58.035225" lon="39.151363"><ele>152.5</ele><time>2026-03-22T13:08:22Z</time></trkpt><trkpt lat="58.03531" lon="39.15134"><ele>151.4</ele><time>2026-03-22T13:08:26Z</time></trkpt><trkpt lat="58.03541" lon="39.151297"><ele>153.5</ele><time>2026-03-22T13:08:29Z</time></trkpt><trkpt lat="58.035502" lon="39.151232"><ele>152.8</ele><time>2026-03-22T13:08:32Z</time></trkpt><trkpt lat="58.035595" lon="39.15115"><ele>153.9</ele><time>2026-03-22T13:08:35Z</time></trkpt><trkpt lat="58.035665" lon="39.15111"><ele>155.3</ele><time>2026-03-22T13:08:37Z</time></trkpt><trkpt lat="58.035732" lon="39.151045"><ele>156.1</ele><time>2026-03-22T13:08:39Z</time></trkpt><trkpt lat="58.035822" lon="39.150957"><ele>154.6</ele><time>2026-03-22T13:08:42Z</time></trkpt><trkpt lat="58.035892" lon="39.150862"><ele>153.7</ele><time>2026-03-22T13:08:45Z</time></trkpt><trkpt lat="58.035958" lon="39.15072"><ele>152.8</ele><time>2026-03-22T13:08:48Z</time></trkpt><trkpt lat="58.03599" lon="39.150565"><ele>149.7</ele><time>2026-03-22T13:08:53Z</time></trkpt><trkpt lat="58.036032" lon="39.150425"><ele>151.2</ele><time>2026-03-22T13:08:58Z</time></trkpt><trkpt lat="58.036085" lon="39.1503"><ele>151.3</ele><time>2026-03-22T13:09:03Z</time></trkpt><trkpt lat="58.03614" lon="39.15018"><ele>150.4</ele><time>2026-03-22T13:09:08Z</time></trkpt><trkpt lat="58.036188" lon="39.15007"><ele>149.7</ele><time>2026-03-22T13:09:13Z</time></trkpt><trkpt lat="58.036245" lon="39.149952"><ele>148.9</ele><time>2026-03-22T13:09:17Z</time></trkpt><trkpt lat="58.036302" lon="39.149835"><ele>146.7</ele><time>2026-03-22T13:09:21Z</time></trkpt><trkpt lat="58.036357" lon="39.149722"><ele>148.6</ele><time>2026-03-22T13:09:24Z</time></trkpt><trkpt lat="58.036397" lon="39.149595"><ele>148.6</ele><time>2026-03-22T13:09:27Z</time></trkpt><trkpt lat="58.03645" lon="39.14946"><ele>148.5</ele><time>2026-03-22T13:09:30Z</time></trkpt><trkpt lat="58.036495" lon="39.14935"><ele>148.5</ele><time>2026-03-22T13:09:33Z</time></trkpt><trkpt lat="58.036557" lon="39.149217"><ele>147.8</ele><time>2026-03-22T13:09:37Z</time></trkpt><trkpt lat="58.03662" lon="39.149105"><ele>148.7</ele><time>2026-03-22T13:09:41Z</time></trkpt><trkpt lat="58.036685" lon="39.14901"><ele>148.6</ele><time>2026-03-22T13:09:45Z</time></trkpt><trkpt lat="58.036742" lon="39.148925"><ele>149.4</ele><time>2026-03-22T13:09:49Z</time></trkpt><trkpt lat="58.036807" lon="39.148825"><ele>149.6</ele><time>2026-03-22T13:09:53Z</time></trkpt><trkpt lat="58.036862" lon="39.148718"><ele>148.8</ele><time>2026-03-22T13:09:57Z</time></trkpt><trkpt lat="58.03693" lon="39.14863"><ele>149.7</ele><time>2026-03-22T13:10:01Z</time></trkpt><trkpt lat="58.037" lon="39.14857"><ele>150.9</ele><time>2026-03-22T13:10:05Z</time></trkpt><trkpt lat="58.037085" lon="39.148512"><ele>152.4</ele><time>2026-03-22T13:10:09Z</time></trkpt><trkpt lat="58.037155" lon="39.1485"><ele>150.1</ele><time>2026-03-22T13:10:13Z</time></trkpt><trkpt lat="58.037245" lon="39.148535"><ele>152.3</ele><time>2026-03-22T13:10:17Z</time></trkpt><trkpt lat="58.037328" lon="39.14859"><ele>153.4</ele><time>2026-03-22T13:10:21Z</time></trkpt><trkpt lat="58.037397" lon="39.148652"><ele>152.6</ele><time>2026-03-22T13:10:24Z</time></trkpt><trkpt lat="58.037467" lon="39.148713"><ele>152.7</ele><time>2026-03-22T13:10:27Z</time></trkpt><trkpt lat="58.03754" lon="39.148787"><ele>153.1</ele><time>2026-03-22T13:10:31Z</time></trkpt><trkpt lat="58.03762" lon="39.14882"><ele>152.2</ele><time>2026-03-22T13:10:35Z</time></trkpt><trkpt lat="58.037708" lon="39.14883"><ele>151.8</ele><time>2026-03-22T13:10:39Z</time></trkpt><trkpt lat="58.0378" lon="39.14885"><ele>149.1</ele><time>2026-03-22T13:10:44Z</time></trkpt><trkpt lat="58.03789" lon="39.148852"><ele>148.8</ele><time>2026-03-22T13:10:49Z</time></trkpt><trkpt lat="58.03798" lon="39.148857"><ele>150.5</ele><time>2026-03-22T13:10:53Z</time></trkpt><trkpt lat="58.03806" lon="39.14888"><ele>150.7</ele><time>2026-03-22T13:10:57Z</time></trkpt><trkpt lat="58.038135" lon="39.148915"><ele>150.9</ele><time>2026-03-22T13:11:02Z</time></trkpt><trkpt lat="58.038205" lon="39.148958"><ele>149.6</ele><time>2026-03-22T13:11:06Z</time></trkpt><trkpt lat="58.03828" lon="39.149025"><ele>149.6</ele><time>2026-03-22T13:11:10Z</time></trkpt><trkpt lat="58.038362" lon="39.149105"><ele>147.1</ele><time>2026-03-22T13:11:14Z</time></trkpt><trkpt lat="58.038425" lon="39.14919"><ele>146.7</ele><time>2026-03-22T13:11:17Z</time></trkpt><trkpt lat="58.038485" lon="39.14928"><ele>146.2</ele><time>2026-03-22T13:11:20Z</time></trkpt><trkpt lat="58.03855" lon="39.149405"><ele>145.7</ele><time>2026-03-22T13:11:24Z</time></trkpt><trkpt lat="58.038615" lon="39.14953"><ele>144.5</ele><time>2026-03-22T13:11:28Z</time></trkpt><trkpt lat="58.03866" lon="39.149655"><ele>144.1</ele><time>2026-03-22T13:11:32Z</time></trkpt><trkpt lat="58.038715" lon="39.149805"><ele>143.7</ele><time>2026-03-22T13:11:36Z</time></trkpt><trkpt lat="58.03877" lon="39.14992"><ele>145.2</ele><time>2026-03-22T13:11:39Z</time></trkpt><trkpt lat="58.038835" lon="39.15003"><ele>145.1</ele><time>2026-03-22T13:11:43Z</time></trkpt><trkpt lat="58.03889" lon="39.15015"><ele>146.4</ele><time>2026-03-22T13:11:47Z</time></trkpt><trkpt lat="58.03896" lon="39.150275"><ele>149.9</ele><time>2026-03-22T13:11:51Z</time></trkpt><trkpt lat="58.039015" lon="39.150365"><ele>151.6</ele><time>2026-03-22T13:11:54Z</time></trkpt><trkpt lat="58.039072" lon="39.15048"><ele>150.3</ele><time>2026-03-22T13:11:58Z</time></trkpt><trkpt lat="58.03914" lon="39.150575"><ele>148.8</ele><time>2026-03-22T13:12:02Z</time></trkpt><trkpt lat="58.0392" lon="39.150647"><ele>149.2</ele><time>2026-03-22T13:12:05Z</time></trkpt><trkpt lat="58.039265" lon="39.150715"><ele>150.0</ele><time>2026-03-22T13:12:08Z</time></trkpt><trkpt lat="58.039345" lon="39.15081"><ele>150.4</ele><time>2026-03-22T13:12:12Z</time></trkpt><trkpt lat="58.039407" lon="39.150912"><ele>148.8</ele><time>2026-03-22T13:12:16Z</time></trkpt><trkpt lat="58.039468" lon="39.15101"><ele>149.1</ele><time>2026-03-22T13:12:20Z</time></trkpt><trkpt lat="58.039517" lon="39.15112"><ele>149.4</ele><time>2026-03-22T13:12:23Z</time></trkpt><trkpt lat="58.03958" lon="39.151245"><ele>149.0</ele><time>2026-03-22T13:12:27Z</time></trkpt><trkpt lat="58.03964" lon="39.151355"><ele>150.0</ele><time>2026-03-22T13:12:31Z</time></trkpt><trkpt lat="58.039705" lon="39.151445"><ele>148.8</ele><time>2026-03-22T13:12:35Z</time></trkpt><trkpt lat="58.039765" lon="39.15156"><ele>149.1</ele><time>2026-03-22T13:12:40Z</time></trkpt><trkpt lat="58.03983" lon="39.151665"><ele>147.2</ele><time>2026-03-22T13:12:45Z</time></trkpt><trkpt lat="58.039885" lon="39.15177"><ele>147.2</ele><time>2026-03-22T13:12:49Z</time></trkpt><trkpt lat="58.039935" lon="39.151892"><ele>147.6</ele><time>2026-03-22T13:12:53Z</time></trkpt><trkpt lat="58.039983" lon="39.152025"><ele>146.7</ele><time>2026-03-22T13:12:58Z</time></trkpt><trkpt lat="58.040055" lon="39.15213"><ele>149.3</ele><time>2026-03-22T13:13:02Z</time></trkpt><trkpt lat="58.04012" lon="39.152215"><ele>147.9</ele><time>2026-03-22T13:13:06Z</time></trkpt><trkpt lat="58.040185" lon="39.15233"><ele>147.3</ele><time>2026-03-22T13:13:09Z</time></trkpt><trkpt lat="58.04026" lon="39.15245"><ele>146.8</ele><time>2026-03-22T13:13:13Z</time></trkpt><trkpt lat="58.040305" lon="39.152565"><ele>145.2</ele><time>2026-03-22T13:13:16Z</time></trkpt><trkpt lat="58.04036" lon="39.152697"><ele>143.5</ele><time>2026-03-22T13:13:20Z</time></trkpt><trkpt lat="58.040415" lon="39.152785"><ele>143.2</ele><time>2026-03-22T13:13:24Z</time></trkpt><trkpt lat="58.04048" lon="39.152898"><ele>142.1</ele><time>2026-03-22T13:13:28Z</time></trkpt><trkpt lat="58.040545" lon="39.153055"><ele>144.5</ele><time>2026-03-22T13:13:31Z</time></trkpt><trkpt lat="58.040587" lon="39.153255"><ele>146.9</ele><time>2026-03-22T13:13:32Z</time></trkpt><trkpt lat="58.04064" lon="39.15345"><ele>148.5</ele><time>2026-03-22T13:13:34Z</time></trkpt><trkpt lat="58.04068" lon="39.153562"><ele>148.8</ele><time>2026-03-22T13:13:36Z</time></trkpt><trkpt lat="58.040727" lon="39.15373"><ele>150.2</ele><time>2026-03-22T13:13:38Z</time></trkpt><trkpt lat="58.040802" lon="39.153798"><ele>150.0</ele><time>2026-03-22T13:13:41Z</time></trkpt><trkpt lat="58.040875" lon="39.15386"><ele>149.6</ele><time>2026-03-22T13:13:43Z</time></trkpt><trkpt lat="58.04094" lon="39.153965"><ele>149.8</ele><time>2026-03-22T13:13:45Z</time></trkpt><trkpt lat="58.040995" lon="39.154065"><ele>146.4</ele><time>2026-03-22T13:13:48Z</time></trkpt><trkpt lat="58.041055" lon="39.154202"><ele>146.5</ele><time>2026-03-22T13:13:51Z</time></trkpt><trkpt lat="58.041105" lon="39.154317"><ele>145.3</ele><time>2026-03-22T13:13:53Z</time></trkpt><trkpt lat="58.04115" lon="39.154425"><ele>146.5</ele><time>2026-03-22T13:13:55Z</time></trkpt><trkpt lat="58.041192" lon="39.154545"><ele>147.2</ele><time>2026-03-22T13:13:57Z</time></trkpt><trkpt lat="58.041225" lon="39.154665"><ele>148.4</ele><time>2026-03-22T13:13:59Z</time></trkpt><trkpt lat="58.04126" lon="39.154795"><ele>149.7</ele><time>2026-03-22T13:14:01Z</time></trkpt><trkpt lat="58.0413" lon="39.154933"><ele>150.4</ele><time>2026-03-22T13:14:04Z</time></trkpt><trkpt lat="58.04135" lon="39.155055"><ele>151.7</ele><time>2026-03-22T13:14:07Z</time></trkpt><trkpt lat="58.0414" lon="39.155155"><ele>152.4</ele><time>2026-03-22T13:14:10Z</time></trkpt><trkpt lat="58.04146" lon="39.15524"><ele>153.2</ele><time>2026-03-22T13:14:16Z</time></trkpt><trkpt lat="58.041535" lon="39.15524"><ele>151.7</ele><time>2026-03-22T13:14:21Z</time></trkpt><trkpt lat="58.04161" lon="39.155162"><ele>151.4</ele><time>2026-03-22T13:14:28Z</time></trkpt><trkpt lat="58.04164" lon="39.155005"><ele>150.1</ele><time>2026-03-22T13:14:33Z</time></trkpt><trkpt lat="58.041657" lon="39.154875"><ele>150.0</ele><time>2026-03-22T13:14:36Z</time></trkpt><trkpt lat="58.041687" lon="39.15472"><ele>148.8</ele><time>2026-03-22T13:14:40Z</time></trkpt><trkpt lat="58.041737" lon="39.1546"><ele>148.7</ele><time>2026-03-22T13:14:43Z</time></trkpt><trkpt lat="58.04178" lon="39.15446"><ele>148.8</ele><time>2026-03-22T13:14:46Z</time></trkpt><trkpt lat="58.041825" lon="39.154305"><ele>149.2</ele><time>2026-03-22T13:14:49Z</time></trkpt><trkpt lat="58.041872" lon="39.154165"><ele>149.6</ele><time>2026-03-22T13:14:52Z</time></trkpt><trkpt lat="58.041915" lon="39.154005"><ele>149.1</ele><time>2026-03-22T13:14:55Z</time></trkpt><trkpt lat="58.041975" lon="39.15384"><ele>150.3</ele><time>2026-03-22T13:14:58Z</time></trkpt><trkpt lat="58.042015" lon="39.153725"><ele>151.9</ele><time>2026-03-22T13:15:00Z</time></trkpt><trkpt lat="58.042065" lon="39.153568"><ele>151.4</ele><time>2026-03-22T13:15:03Z</time></trkpt><trkpt lat="58.042135" lon="39.15345"><ele>151.6</ele><time>2026-03-22T13:15:06Z</time></trkpt><trkpt lat="58.0422" lon="39.153367"><ele>151.5</ele><time>2026-03-22T13:15:09Z</time></trkpt><trkpt lat="58.042265" lon="39.153275"><ele>151.0</ele><time>2026-03-22T13:15:13Z</time></trkpt><trkpt lat="58.042327" lon="39.153165"><ele>151.8</ele><time>2026-03-22T13:15:17Z</time></trkpt><trkpt lat="58.042347" lon="39.15303"><ele>149.7</ele><time>2026-03-22T13:15:21Z</time></trkpt><trkpt lat="58.0423" lon="39.152907"><ele>146.0</ele><time>2026-03-22T13:15:27Z</time></trkpt><trkpt lat="58.042235" lon="39.152825"><ele>144.7</ele><time>2026-03-22T13:15:32Z</time></trkpt><trkpt lat="58.04222" lon="39.15263"><ele>144.5</ele><time>2026-03-22T13:15:36Z</time></trkpt><trkpt lat="58.042212" lon="39.152487"><ele>145.6</ele><time>2026-03-22T13:15:38Z</time></trkpt><trkpt lat="58.042195" lon="39.15234"><ele>147.0</ele><time>2026-03-22T13:15:40Z</time></trkpt><trkpt lat="58.042178" lon="39.152207"><ele>145.8</ele><time>2026-03-22T13:15:42Z</time></trkpt><trkpt lat="58.04215" lon="39.152035"><ele>145.2</ele><time>2026-03-22T13:15:45Z</time></trkpt><trkpt lat="58.042125" lon="39.15189"><ele>147.3</ele><time>2026-03-22T13:15:48Z</time></trkpt><trkpt lat="58.042107" lon="39.151735"><ele>149.5</ele><time>2026-03-22T13:15:52Z</time></trkpt><trkpt lat="58.042105" lon="39.151585"><ele>149.4</ele><time>2026-03-22T13:15:55Z</time></trkpt><trkpt lat="58.042075" lon="39.15144"><ele>148.2</ele><time>2026-03-22T13:15:59Z</time></trkpt><trkpt lat="58.042045" lon="39.1513"><ele>147.6</ele><time>2026-03-22T13:16:02Z</time></trkpt><trkpt lat="58.04201" lon="39.15112"><ele>146.9</ele><time>2026-03-22T13:16:05Z</time></trkpt><trkpt lat="58.041995" lon="39.15096"><ele>144.8</ele><time>2026-03-22T13:16:08Z</time></trkpt><trkpt lat="58.04198" lon="39.150825"><ele>143.7</ele><time>2026-03-22T13:16:12Z</time></trkpt><trkpt lat="58.04197" lon="39.150685"><ele>144.9</ele><time>2026-03-22T13:16:16Z</time></trkpt><trkpt lat="58.041943" lon="39.150532"><ele>145.6</ele><time>2026-03-22T13:16:18Z</time></trkpt><trkpt lat="58.041905" lon="39.1504"><ele>145.9</ele><time>2026-03-22T13:16:20Z</time></trkpt><trkpt lat="58.04187" lon="39.150255"><ele>146.8</ele><time>2026-03-22T13:16:23Z</time></trkpt><trkpt lat="58.041845" lon="39.1501"><ele>144.6</ele><time>2026-03-22T13:16:27Z</time></trkpt><trkpt lat="58.041795" lon="39.14994"><ele>145.2</ele><time>2026-03-22T13:16:32Z</time></trkpt><trkpt lat="58.04174" lon="39.149835"><ele>145.4</ele><time>2026-03-22T13:16:34Z</time></trkpt><trkpt lat="58.041687" lon="39.14972"><ele>145.1</ele><time>2026-03-22T13:16:37Z</time></trkpt><trkpt lat="58.041615" lon="39.149675"><ele>142.8</ele><time>2026-03-22T13:16:41Z</time></trkpt><trkpt lat="58.041535" lon="39.149592"><ele>142.8</ele><time>2026-03-22T13:16:44Z</time></trkpt><trkpt lat="58.041465" lon="39.149495"><ele>143.0</ele><time>2026-03-22T13:16:47Z</time></trkpt><trkpt lat="58.041375" lon="39.14938"><ele>146.6</ele><time>2026-03-22T13:16:50Z</time></trkpt><trkpt lat="58.0413" lon="39.149242"><ele>148.8</ele><time>2026-03-22T13:16:51Z</time></trkpt><trkpt lat="58.04124" lon="39.149135"><ele>150.2</ele><time>2026-03-22T13:16:55Z</time></trkpt><trkpt lat="58.04118" lon="39.149035"><ele>150.4</ele><time>2026-03-22T13:16:58Z</time></trkpt><trkpt lat="58.04111" lon="39.148935"><ele>150.4</ele><time>2026-03-22T13:17:03Z</time></trkpt><trkpt lat="58.041057" lon="39.148832"><ele>151.3</ele><time>2026-03-22T13:17:07Z</time></trkpt><trkpt lat="58.041007" lon="39.148717"><ele>150.7</ele><time>2026-03-22T13:17:12Z</time></trkpt><trkpt lat="58.04095" lon="39.148582"><ele>147.1</ele><time>2026-03-22T13:17:16Z</time></trkpt><trkpt lat="58.040902" lon="39.14848"><ele>147.5</ele><time>2026-03-22T13:17:19Z</time></trkpt><trkpt lat="58.040842" lon="39.148353"><ele>144.8</ele><time>2026-03-22T13:17:23Z</time></trkpt><trkpt lat="58.040782" lon="39.148215"><ele>145.8</ele><time>2026-03-22T13:17:26Z</time></trkpt><trkpt lat="58.04073" lon="39.148043"><ele>147.5</ele><time>2026-03-22T13:17:29Z</time></trkpt><trkpt lat="58.04069" lon="39.147905"><ele>147.5</ele><time>2026-03-22T13:17:32Z</time></trkpt><trkpt lat="58.040655" lon="39.147765"><ele>147.1</ele><time>2026-03-22T13:17:36Z</time></trkpt><trkpt lat="58.040625" lon="39.147615"><ele>144.4</ele><time>2026-03-22T13:17:39Z</time></trkpt><trkpt lat="58.040595" lon="39.14744"><ele>145.9</ele><time>2026-03-22T13:17:42Z</time></trkpt><trkpt lat="58.040565" lon="39.14727"><ele>145.3</ele><time>2026-03-22T13:17:46Z</time></trkpt><trkpt lat="58.040545" lon="39.147115"><ele>146.3</ele><time>2026-03-22T13:17:50Z</time></trkpt><trkpt lat="58.040527" lon="39.14698"><ele>147.4</ele><time>2026-03-22T13:17:53Z</time></trkpt><trkpt lat="58.040502" lon="39.14685"><ele>147.3</ele><time>2026-03-22T13:17:56Z</time></trkpt><trkpt lat="58.04047" lon="39.146705"><ele>146.5</ele><time>2026-03-22T13:17:59Z</time></trkpt><trkpt lat="58.040438" lon="39.146575"><ele>145.5</ele><time>2026-03-22T13:18:02Z</time></trkpt><trkpt lat="58.04041" lon="39.14642"><ele>144.5</ele><time>2026-03-22T13:18:06Z</time></trkpt><trkpt lat="58.04039" lon="39.146275"><ele>143.9</ele><time>2026-03-22T13:18:09Z</time></trkpt><trkpt lat="58.040362" lon="39.14612"><ele>144.8</ele><time>2026-03-22T13:18:12Z</time></trkpt><trkpt lat="58.040325" lon="39.145955"><ele>144.5</ele><time>2026-03-22T13:18:15Z</time></trkpt><trkpt lat="58.040295" lon="39.145762"><ele>145.8</ele><time>2026-03-22T13:18:18Z</time></trkpt><trkpt lat="58.040295" lon="39.145587"><ele>146.8</ele><time>2026-03-22T13:18:21Z</time></trkpt><trkpt lat="58.040307" lon="39.145425"><ele>146.9</ele><time>2026-03-22T13:18:24Z</time></trkpt><trkpt lat="58.04031" lon="39.14529"><ele>146.5</ele><time>2026-03-22T13:18:27Z</time></trkpt><trkpt lat="58.04032" lon="39.14512"><ele>147.5</ele><time>2026-03-22T13:18:31Z</time></trkpt><trkpt lat="58.04033" lon="39.14497"><ele>147.2</ele><time>2026-03-22T13:18:34Z</time></trkpt><trkpt lat="58.040335" lon="39.144815"><ele>145.3</ele><time>2026-03-22T13:18:38Z</time></trkpt><trkpt lat="58.040337" lon="39.144665"><ele>143.6</ele><time>2026-03-22T13:18:42Z</time></trkpt><trkpt lat="58.04034" lon="39.144502"><ele>143.0</ele><time>2026-03-22T13:18:46Z</time></trkpt><trkpt lat="58.040335" lon="39.144312"><ele>143.0</ele><time>2026-03-22T13:18:49Z</time></trkpt><trkpt lat="58.04035" lon="39.14413"><ele>143.6</ele><time>2026-03-22T13:18:52Z</time></trkpt><trkpt lat="58.040353" lon="39.143947"><ele>143.5</ele><time>2026-03-22T13:18:55Z</time></trkpt><trkpt lat="58.040375" lon="39.143755"><ele>143.0</ele><time>2026-03-22T13:18:58Z</time></trkpt><trkpt lat="58.04038" lon="39.14356"><ele>143.7</ele><time>2026-03-22T13:19:01Z</time></trkpt><trkpt lat="58.04042" lon="39.143395"><ele>144.9</ele><time>2026-03-22T13:19:04Z</time></trkpt><trkpt lat="58.040432" lon="39.14323"><ele>143.9</ele><time>2026-03-22T13:19:07Z</time></trkpt><trkpt lat="58.040437" lon="39.143072"><ele>141.4</ele><time>2026-03-22T13:19:10Z</time></trkpt><trkpt lat="58.040455" lon="39.14294"><ele>141.2</ele><time>2026-03-22T13:19:12Z</time></trkpt><trkpt lat="58.040495" lon="39.142815"><ele>141.4</ele><time>2026-03-22T13:19:14Z</time></trkpt><trkpt lat="58.04049" lon="39.142652"><ele>138.9</ele><time>2026-03-22T13:19:17Z</time></trkpt><trkpt lat="58.040512" lon="39.142498"><ele>140.0</ele><time>2026-03-22T13:19:21Z</time></trkpt><trkpt lat="58.040565" lon="39.142405"><ele>142.5</ele><time>2026-03-22T13:19:28Z</time></trkpt><trkpt lat="58.040585" lon="39.142273"><ele>144.1</ele><time>2026-03-22T13:19:35Z</time></trkpt><trkpt lat="58.040575" lon="39.14228"><ele>145.5</ele><time>2026-03-22T13:20:38Z</time></trkpt><trkpt lat="58.040577" lon="39.142325"><ele>146.2</ele><time>2026-03-22T13:20:45Z</time></trkpt><trkpt lat="58.040597" lon="39.14227"><ele>145.5</ele><time>2026-03-22T13:20:59Z</time></trkpt><trkpt lat="58.040587" lon="39.142132"><ele>148.1</ele><time>2026-03-22T13:21:06Z</time></trkpt><trkpt lat="58.040592" lon="39.142185"><ele>148.1</ele><time>2026-03-22T13:21:13Z</time></trkpt><trkpt lat="58.040585" lon="39.14221"><ele>144.9</ele><time>2026-03-22T13:21:20Z</time></trkpt><trkpt lat="58.040682" lon="39.141978"><ele>144.7</ele><time>2026-03-22T13:24:52Z</time></trkpt><trkpt lat="58.040765" lon="39.141885"><ele>144.1</ele><time>2026-03-22T13:24:53Z</time></trkpt><trkpt lat="58.040835" lon="39.141752"><ele>145.1</ele><time>2026-03-22T13:24:54Z</time></trkpt><trkpt lat="58.040895" lon="39.14163"><ele>143.3</ele><time>2026-03-22T13:24:55Z</time></trkpt><trkpt lat="58.04095" lon="39.141535"><ele>142.2</ele><time>2026-03-22T13:24:56Z</time></trkpt><trkpt lat="58.041007" lon="39.14142"><ele>140.2</ele><time>2026-03-22T13:24:59Z</time></trkpt><trkpt lat="58.041038" lon="39.141402"><ele>139.3</ele><time>2026-03-22T13:25:06Z</time></trkpt><trkpt lat="58.041105" lon="39.141357"><ele>137.0</ele><time>2026-03-22T13:26:42Z</time></trkpt><trkpt lat="58.04117" lon="39.141295"><ele>136.3</ele><time>2026-03-22T13:26:49Z</time></trkpt><trkpt lat="58.04121" lon="39.14126"><ele>139.2</ele><time>2026-03-22T13:26:56Z</time></trkpt><trkpt lat="58.04129" lon="39.141218"><ele>140.2</ele><time>2026-03-22T13:27:02Z</time></trkpt><trkpt lat="58.041365" lon="39.141225"><ele>140.3</ele><time>2026-03-22T13:27:08Z</time></trkpt><trkpt lat="58.041445" lon="39.141217"><ele>139.3</ele><time>2026-03-22T13:27:13Z</time></trkpt><trkpt lat="58.041535" lon="39.141202"><ele>142.4</ele><time>2026-03-22T13:27:17Z</time></trkpt><trkpt lat="58.041615" lon="39.141185"><ele>142.2</ele><time>2026-03-22T13:27:22Z</time></trkpt><trkpt lat="58.0417" lon="39.141165"><ele>144.8</ele><time>2026-03-22T13:27:28Z</time></trkpt><trkpt lat="58.04177" lon="39.141133"><ele>144.8</ele><time>2026-03-22T13:27:32Z</time></trkpt><trkpt lat="58.041845" lon="39.141105"><ele>145.8</ele><time>2026-03-22T13:27:39Z</time></trkpt><trkpt lat="58.041925" lon="39.14104"><ele>147.1</ele><time>2026-03-22T13:27:44Z</time></trkpt><trkpt lat="58.04204" lon="39.140985"><ele>146.4</ele><time>2026-03-22T13:27:58Z</time></trkpt><trkpt lat="58.04212" lon="39.140955"><ele>146.3</ele><time>2026-03-22T13:28:05Z</time></trkpt><trkpt lat="58.042165" lon="39.14089"><ele>144.6</ele><time>2026-03-22T13:28:12Z</time></trkpt><trkpt lat="58.042225" lon="39.140777"><ele>142.5</ele><time>2026-03-22T13:28:19Z</time></trkpt><trkpt lat="58.04229" lon="39.140697"><ele>142.6</ele><time>2026-03-22T13:28:25Z</time></trkpt><trkpt lat="58.042355" lon="39.14067"><ele>145.3</ele><time>2026-03-22T13:28:32Z</time></trkpt><trkpt lat="58.042423" lon="39.140605"><ele>146.7</ele><time>2026-03-22T13:28:39Z</time></trkpt><trkpt lat="58.0425" lon="39.140542"><ele>149.9</ele><time>2026-03-22T13:28:46Z</time></trkpt><trkpt lat="58.04256" lon="39.140447"><ele>151.3</ele><time>2026-03-22T13:28:53Z</time></trkpt><trkpt lat="58.04261" lon="39.140385"><ele>148.6</ele><time>2026-03-22T13:29:00Z</time></trkpt><trkpt lat="58.04266" lon="39.140285"><ele>147.9</ele><time>2026-03-22T13:29:07Z</time></trkpt><trkpt lat="58.042725" lon="39.14022"><ele>147.7</ele><time>2026-03-22T13:29:12Z</time></trkpt><trkpt lat="58.042785" lon="39.140117"><ele>146.2</ele><time>2026-03-22T13:29:18Z</time></trkpt><trkpt lat="58.04285" lon="39.140007"><ele>144.5</ele><time>2026-03-22T13:29:23Z</time></trkpt><trkpt lat="58.04291" lon="39.139905"><ele>143.9</ele><time>2026-03-22T13:29:28Z</time></trkpt><trkpt lat="58.04305" lon="39.13969"><ele>142.1</ele><time>2026-03-22T13:29:56Z</time></trkpt><trkpt lat="58.043115" lon="39.139587"><ele>143.7</ele><time>2026-03-22T13:30:00Z</time></trkpt><trkpt lat="58.043175" lon="39.139465"><ele>148.0</ele><time>2026-03-22T13:30:04Z</time></trkpt><trkpt lat="58.043215" lon="39.139325"><ele>146.7</ele><time>2026-03-22T13:30:08Z</time></trkpt><trkpt lat="58.04322" lon="39.139162"><ele>145.7</ele><time>2026-03-22T13:30:12Z</time></trkpt><trkpt lat="58.043205" lon="39.138992"><ele>146.0</ele><time>2026-03-22T13:30:16Z</time></trkpt><trkpt lat="58.043162" lon="39.138867"><ele>144.1</ele><time>2026-03-22T13:30:19Z</time></trkpt><trkpt lat="58.043097" lon="39.13874"><ele>144.2</ele><time>2026-03-22T13:30:23Z</time></trkpt><trkpt lat="58.043037" lon="39.13862"><ele>144.2</ele><time>2026-03-22T13:30:27Z</time></trkpt><trkpt lat="58.042977" lon="39.138542"><ele>143.1</ele><time>2026-03-22T13:30:31Z</time></trkpt><trkpt lat="58.04291" lon="39.138455"><ele>141.2</ele><time>2026-03-22T13:30:34Z</time></trkpt><trkpt lat="58.042847" lon="39.13836"><ele>139.7</ele><time>2026-03-22T13:30:37Z</time></trkpt><trkpt lat="58.042782" lon="39.13827"><ele>140.9</ele><time>2026-03-22T13:30:40Z</time></trkpt><trkpt lat="58.042707" lon="39.138177"><ele>141.4</ele><time>2026-03-22T13:30:43Z</time></trkpt><trkpt lat="58.042645" lon="39.138102"><ele>140.7</ele><time>2026-03-22T13:30:46Z</time></trkpt><trkpt lat="58.04257" lon="39.13802"><ele>138.5</ele><time>2026-03-22T13:30:50Z</time></trkpt><trkpt lat="58.042502" lon="39.137947"><ele>139.3</ele><time>2026-03-22T13:30:53Z</time></trkpt><trkpt lat="58.042423" lon="39.13784"><ele>139.9</ele><time>2026-03-22T13:30:56Z</time></trkpt><trkpt lat="58.04234" lon="39.137728"><ele>139.9</ele><time>2026-03-22T13:30:59Z</time></trkpt><trkpt lat="58.04227" lon="39.137635"><ele>138.1</ele><time>2026-03-22T13:31:02Z</time></trkpt><trkpt lat="58.042205" lon="39.137545"><ele>138.0</ele><time>2026-03-22T13:31:05Z</time></trkpt><trkpt lat="58.04213" lon="39.137445"><ele>138.3</ele><time>2026-03-22T13:31:08Z</time></trkpt><trkpt lat="58.042065" lon="39.13738"><ele>140.4</ele><time>2026-03-22T13:31:11Z</time></trkpt><trkpt lat="58.041995" lon="39.13731"><ele>139.4</ele><time>2026-03-22T13:31:14Z</time></trkpt><trkpt lat="58.041925" lon="39.137205"><ele>137.6</ele><time>2026-03-22T13:31:18Z</time></trkpt><trkpt lat="58.041867" lon="39.137117"><ele>136.9</ele><time>2026-03-22T13:31:22Z</time></trkpt><trkpt lat="58.041798" lon="39.137052"><ele>139.4</ele><time>2026-03-22T13:31:26Z</time></trkpt><trkpt lat="58.041745" lon="39.13694"><ele>136.4</ele><time>2026-03-22T13:31:30Z</time></trkpt><trkpt lat="58.04168" lon="39.136875"><ele>139.0</ele><time>2026-03-22T13:31:33Z</time></trkpt><trkpt lat="58.04161" lon="39.136795"><ele>138.1</ele><time>2026-03-22T13:31:36Z</time></trkpt><trkpt lat="58.04154" lon="39.13667"><ele>137.7</ele><time>2026-03-22T13:31:40Z</time></trkpt><trkpt lat="58.04147" lon="39.13658"><ele>134.1</ele><time>2026-03-22T13:31:44Z</time></trkpt><trkpt lat="58.041405" lon="39.136495"><ele>133.9</ele><time>2026-03-22T13:31:47Z</time></trkpt><trkpt lat="58.041347" lon="39.136407"><ele>138.3</ele><time>2026-03-22T13:31:51Z</time></trkpt><trkpt lat="58.041287" lon="39.136297"><ele>134.2</ele><time>2026-03-22T13:31:56Z</time></trkpt><trkpt lat="58.041235" lon="39.13619"><ele>133.2</ele><time>2026-03-22T13:32:00Z</time></trkpt><trkpt lat="58.041165" lon="39.136068"><ele>133.5</ele><time>2026-03-22T13:32:04Z</time></trkpt><trkpt lat="58.04111" lon="39.13597"><ele>138.1</ele><time>2026-03-22T13:32:08Z</time></trkpt><trkpt lat="58.041042" lon="39.13586"><ele>139.8</ele><time>2026-03-22T13:32:12Z</time></trkpt><trkpt lat="58.040975" lon="39.13575"><ele>140.6</ele><time>2026-03-22T13:32:16Z</time></trkpt><trkpt lat="58.040925" lon="39.135637"><ele>141.4</ele><time>2026-03-22T13:32:21Z</time></trkpt><trkpt lat="58.040857" lon="39.13554"><ele>142.3</ele><time>2026-03-22T13:32:26Z</time></trkpt><trkpt lat="58.04078" lon="39.135447"><ele>140.9</ele><time>2026-03-22T13:32:30Z</time></trkpt><trkpt lat="58.040685" lon="39.135377"><ele>142.2</ele><time>2026-03-22T13:32:34Z</time></trkpt><trkpt lat="58.040605" lon="39.135315"><ele>142.6</ele><time>2026-03-22T13:32:38Z</time></trkpt><trkpt lat="58.040522" lon="39.135237"><ele>141.9</ele><time>2026-03-22T13:32:42Z</time></trkpt><trkpt lat="58.04045" lon="39.135187"><ele>142.2</ele><time>2026-03-22T13:32:45Z</time></trkpt><trkpt lat="58.04038" lon="39.135115"><ele>142.7</ele><time>2026-03-22T13:32:49Z</time></trkpt><trkpt lat="58.040307" lon="39.13503"><ele>142.9</ele><time>2026-03-22T13:32:54Z</time></trkpt><trkpt lat="58.040212" lon="39.134965"><ele>141.7</ele><time>2026-03-22T13:32:58Z</time></trkpt><trkpt lat="58.04016" lon="39.134855"><ele>139.9</ele><time>2026-03-22T13:33:02Z</time></trkpt><trkpt lat="58.04008" lon="39.134795"><ele>141.0</ele><time>2026-03-22T13:33:06Z</time></trkpt><trkpt lat="58.04002" lon="39.134703"><ele>139.5</ele><time>2026-03-22T13:33:08Z</time></trkpt><trkpt lat="58.03993" lon="39.1346"><ele>138.6</ele><time>2026-03-22T13:33:10Z</time></trkpt><trkpt lat="58.039775" lon="39.13438"><ele>138.9</ele><time>2026-03-22T13:33:12Z</time></trkpt><trkpt lat="58.039758" lon="39.134543"><ele>139.8</ele><time>2026-03-22T13:33:13Z</time></trkpt><trkpt lat="58.03969" lon="39.134408"><ele>141.3</ele><time>2026-03-22T13:33:14Z</time></trkpt><trkpt lat="58.039645" lon="39.134302"><ele>141.5</ele><time>2026-03-22T13:33:15Z</time></trkpt><trkpt lat="58.039685" lon="39.1345"><ele>141.1</ele><time>2026-03-22T13:33:16Z</time></trkpt><trkpt lat="58.03959" lon="39.134552"><ele>141.0</ele><time>2026-03-22T13:33:20Z</time></trkpt><trkpt lat="58.03951" lon="39.13453"><ele>141.3</ele><time>2026-03-22T13:33:23Z</time></trkpt><trkpt lat="58.039405" lon="39.13452"><ele>141.1</ele><time>2026-03-22T13:33:26Z</time></trkpt><trkpt lat="58.039322" lon="39.1345"><ele>142.3</ele><time>2026-03-22T13:33:29Z</time></trkpt><trkpt lat="58.03925" lon="39.134497"><ele>143.4</ele><time>2026-03-22T13:33:32Z</time></trkpt><trkpt lat="58.039162" lon="39.134505"><ele>140.7</ele><time>2026-03-22T13:33:36Z</time></trkpt><trkpt lat="58.03908" lon="39.134495"><ele>138.0</ele><time>2026-03-22T13:33:40Z</time></trkpt><trkpt lat="58.038995" lon="39.134472"><ele>138.2</ele><time>2026-03-22T13:33:43Z</time></trkpt><trkpt lat="58.038925" lon="39.13443"><ele>141.3</ele><time>2026-03-22T13:33:46Z</time></trkpt><trkpt lat="58.038847" lon="39.134377"><ele>144.1</ele><time>2026-03-22T13:33:49Z</time></trkpt><trkpt lat="58.038775" lon="39.134335"><ele>144.5</ele><time>2026-03-22T13:33:51Z</time></trkpt><trkpt lat="58.0387" lon="39.13431"><ele>144.7</ele><time>2026-03-22T13:33:54Z</time></trkpt><trkpt lat="58.038615" lon="39.13427"><ele>143.8</ele><time>2026-03-22T13:33:57Z</time></trkpt><trkpt lat="58.03852" lon="39.13428"><ele>141.4</ele><time>2026-03-22T13:34:01Z</time></trkpt><trkpt lat="58.038435" lon="39.134253"><ele>142.6</ele><time>2026-03-22T13:34:04Z</time></trkpt><trkpt lat="58.03835" lon="39.134225"><ele>139.6</ele><time>2026-03-22T13:34:08Z</time></trkpt><trkpt lat="58.038265" lon="39.13423"><ele>137.1</ele><time>2026-03-22T13:34:12Z</time></trkpt><trkpt lat="58.03817" lon="39.134215"><ele>137.8</ele><time>2026-03-22T13:34:16Z</time></trkpt><trkpt lat="58.038088" lon="39.134225"><ele>138.4</ele><time>2026-03-22T13:34:19Z</time></trkpt><trkpt lat="58.038012" lon="39.134225"><ele>137.2</ele><time>2026-03-22T13:34:22Z</time></trkpt><trkpt lat="58.03793" lon="39.13422"><ele>136.5</ele><time>2026-03-22T13:34:25Z</time></trkpt><trkpt lat="58.03784" lon="39.13419"><ele>137.7</ele><time>2026-03-22T13:34:28Z</time></trkpt><trkpt lat="58.03776" lon="39.134265"><ele>141.3</ele><time>2026-03-22T13:34:33Z</time></trkpt><trkpt lat="58.037685" lon="39.134305"><ele>143.8</ele><time>2026-03-22T13:34:36Z</time></trkpt><trkpt lat="58.0376" lon="39.13433"><ele>146.0</ele><time>2026-03-22T13:34:39Z</time></trkpt><trkpt lat="58.037525" lon="39.134345"><ele>145.7</ele><time>2026-03-22T13:34:42Z</time></trkpt><trkpt lat="58.037442" lon="39.134385"><ele>144.2</ele><time>2026-03-22T13:34:46Z</time></trkpt><trkpt lat="58.037365" lon="39.134407"><ele>145.7</ele><time>2026-03-22T13:34:49Z</time></trkpt><trkpt lat="58.03728" lon="39.134425"><ele>146.3</ele><time>2026-03-22T13:34:52Z</time></trkpt><trkpt lat="58.037195" lon="39.134415"><ele>142.4</ele><time>2026-03-22T13:34:56Z</time></trkpt><trkpt lat="58.037115" lon="39.134412"><ele>143.8</ele><time>2026-03-22T13:34:59Z</time></trkpt><trkpt lat="58.037037" lon="39.134425"><ele>144.1</ele><time>2026-03-22T13:35:02Z</time></trkpt><trkpt lat="58.036952" lon="39.13443"><ele>142.6</ele><time>2026-03-22T13:35:05Z</time></trkpt><trkpt lat="58.036867" lon="39.134432"><ele>142.4</ele><time>2026-03-22T13:35:08Z</time></trkpt><trkpt lat="58.03678" lon="39.134465"><ele>141.6</ele><time>2026-03-22T13:35:11Z</time></trkpt><trkpt lat="58.0367" lon="39.134478"><ele>140.6</ele><time>2026-03-22T13:35:14Z</time></trkpt><trkpt lat="58.036605" lon="39.134487"><ele>141.1</ele><time>2026-03-22T13:35:17Z</time></trkpt><trkpt lat="58.03653" lon="39.1345"><ele>139.1</ele><time>2026-03-22T13:35:20Z</time></trkpt><trkpt lat="58.036455" lon="39.134515"><ele>137.5</ele><time>2026-03-22T13:35:23Z</time></trkpt><trkpt lat="58.03637" lon="39.134515"><ele>140.8</ele><time>2026-03-22T13:35:26Z</time></trkpt><trkpt lat="58.036292" lon="39.13453"><ele>140.4</ele><time>2026-03-22T13:35:29Z</time></trkpt><trkpt lat="58.03622" lon="39.134548"><ele>140.5</ele><time>2026-03-22T13:35:32Z</time></trkpt><trkpt lat="58.036145" lon="39.134585"><ele>142.8</ele><time>2026-03-22T13:35:35Z</time></trkpt><trkpt lat="58.036055" lon="39.13463"><ele>145.1</ele><time>2026-03-22T13:35:38Z</time></trkpt><trkpt lat="58.035955" lon="39.134645"><ele>145.5</ele><time>2026-03-22T13:35:41Z</time></trkpt><trkpt lat="58.035847" lon="39.134645"><ele>145.0</ele><time>2026-03-22T13:35:44Z</time></trkpt><trkpt lat="58.035745" lon="39.13467"><ele>143.2</ele><time>2026-03-22T13:35:47Z</time></trkpt><trkpt lat="58.03564" lon="39.134685"><ele>144.0</ele><time>2026-03-22T13:35:50Z</time></trkpt><trkpt lat="58.035545" lon="39.134695"><ele>145.4</ele><time>2026-03-22T13:35:53Z</time></trkpt><trkpt lat="58.03547" lon="39.134695"><ele>143.3</ele><time>2026-03-22T13:35:56Z</time></trkpt><trkpt lat="58.035382" lon="39.13468"><ele>142.3</ele><time>2026-03-22T13:36:00Z</time></trkpt><trkpt lat="58.035305" lon="39.1347"><ele>142.0</ele><time>2026-03-22T13:36:04Z</time></trkpt><trkpt lat="58.03521" lon="39.134702"><ele>142.2</ele><time>2026-03-22T13:36:08Z</time></trkpt><trkpt lat="58.035127" lon="39.134703"><ele>140.4</ele><time>2026-03-22T13:36:11Z</time></trkpt><trkpt lat="58.035047" lon="39.13471"><ele>138.9</ele><time>2026-03-22T13:36:14Z</time></trkpt><trkpt lat="58.034972" lon="39.134675"><ele>139.1</ele><time>2026-03-22T13:36:17Z</time></trkpt><trkpt lat="58.034897" lon="39.134632"><ele>141.3</ele><time>2026-03-22T13:36:20Z</time></trkpt><trkpt lat="58.03482" lon="39.134565"><ele>138.9</ele><time>2026-03-22T13:36:24Z</time></trkpt><trkpt lat="58.034765" lon="39.134465"><ele>140.1</ele><time>2026-03-22T13:36:28Z</time></trkpt><trkpt lat="58.034768" lon="39.134317"><ele>139.7</ele><time>2026-03-22T13:36:32Z</time></trkpt><trkpt lat="58.03477" lon="39.134168"><ele>140.7</ele><time>2026-03-22T13:36:37Z</time></trkpt><trkpt lat="58.03478" lon="39.134"><ele>140.7</ele><time>2026-03-22T13:36:42Z</time></trkpt><trkpt lat="58.034805" lon="39.133837"><ele>138.8</ele><time>2026-03-22T13:36:46Z</time></trkpt><trkpt lat="58.034792" lon="39.13377"><ele>136.7</ele><time>2026-03-22T13:36:53Z</time></trkpt><trkpt lat="58.034872" lon="39.133675"><ele>137.0</ele><time>2026-03-22T13:36:56Z</time></trkpt><trkpt lat="58.034895" lon="39.1335"><ele>137.0</ele><time>2026-03-22T13:36:58Z</time></trkpt><trkpt lat="58.034915" lon="39.13335"><ele>138.8</ele><time>2026-03-22T13:37:00Z</time></trkpt><trkpt lat="58.034945" lon="39.13321"><ele>140.0</ele><time>2026-03-22T13:37:03Z</time></trkpt><trkpt lat="58.034977" lon="39.13305"><ele>138.5</ele><time>2026-03-22T13:37:06Z</time></trkpt><trkpt lat="58.035015" lon="39.13287"><ele>137.6</ele><time>2026-03-22T13:37:09Z</time></trkpt><trkpt lat="58.035047" lon="39.13271"><ele>137.2</ele><time>2026-03-22T13:37:12Z</time></trkpt><trkpt lat="58.035075" lon="39.132532"><ele>140.1</ele><time>2026-03-22T13:37:15Z</time></trkpt><trkpt lat="58.035105" lon="39.132365"><ele>137.1</ele><time>2026-03-22T13:37:18Z</time></trkpt><trkpt lat="58.035133" lon="39.13221"><ele>136.8</ele><time>2026-03-22T13:37:21Z</time></trkpt><trkpt lat="58.03518" lon="39.132057"><ele>140.7</ele><time>2026-03-22T13:37:24Z</time></trkpt><trkpt lat="58.035227" lon="39.13192"><ele>143.1</ele><time>2026-03-22T13:37:28Z</time></trkpt><trkpt lat="58.035265" lon="39.131755"><ele>139.6</ele><time>2026-03-22T13:37:32Z</time></trkpt><trkpt lat="58.0353" lon="39.131607"><ele>138.0</ele><time>2026-03-22T13:37:35Z</time></trkpt><trkpt lat="58.035265" lon="39.131445"><ele>135.4</ele><time>2026-03-22T13:37:39Z</time></trkpt><trkpt lat="58.035292" lon="39.1313"><ele>135.7</ele><time>2026-03-22T13:37:42Z</time></trkpt><trkpt lat="58.03534" lon="39.131142"><ele>135.2</ele><time>2026-03-22T13:37:45Z</time></trkpt><trkpt lat="58.035385" lon="39.13097"><ele>135.4</ele><time>2026-03-22T13:37:48Z</time></trkpt><trkpt lat="58.035435" lon="39.130815"><ele>134.5</ele><time>2026-03-22T13:37:51Z</time></trkpt><trkpt lat="58.035465" lon="39.130678"><ele>132.1</ele><time>2026-03-22T13:37:54Z</time></trkpt><trkpt lat="58.03548" lon="39.13053"><ele>132.9</ele><time>2026-03-22T13:37:58Z</time></trkpt><trkpt lat="58.035507" lon="39.13039"><ele>137.0</ele><time>2026-03-22T13:38:01Z</time></trkpt><trkpt lat="58.035545" lon="39.130252"><ele>140.8</ele><time>2026-03-22T13:38:04Z</time></trkpt><trkpt lat="58.035575" lon="39.130112"><ele>141.5</ele><time>2026-03-22T13:38:06Z</time></trkpt><trkpt lat="58.03562" lon="39.129952"><ele>141.6</ele><time>2026-03-22T13:38:10Z</time></trkpt><trkpt lat="58.035615" lon="39.129765"><ele>138.6</ele><time>2026-03-22T13:38:14Z</time></trkpt><trkpt lat="58.035625" lon="39.12963"><ele>139.1</ele><time>2026-03-22T13:38:16Z</time></trkpt><trkpt lat="58.035652" lon="39.129477"><ele>135.0</ele><time>2026-03-22T13:38:20Z</time></trkpt><trkpt lat="58.035675" lon="39.12933"><ele>135.1</ele><time>2026-03-22T13:38:25Z</time></trkpt><trkpt lat="58.035652" lon="39.129168"><ele>136.8</ele><time>2026-03-22T13:38:28Z</time></trkpt><trkpt lat="58.03568" lon="39.128977"><ele>138.4</ele><time>2026-03-22T13:38:30Z</time></trkpt><trkpt lat="58.035745" lon="39.128735"><ele>137.7</ele><time>2026-03-22T13:38:31Z</time></trkpt><trkpt lat="58.035818" lon="39.12862"><ele>139.2</ele><time>2026-03-22T13:38:34Z</time></trkpt><trkpt lat="58.03588" lon="39.128425"><ele>137.6</ele><time>2026-03-22T13:38:38Z</time></trkpt><trkpt lat="58.035942" lon="39.12823"><ele>138.3</ele><time>2026-03-22T13:38:41Z</time></trkpt><trkpt lat="58.03599" lon="39.12813"><ele>139.7</ele><time>2026-03-22T13:38:45Z</time></trkpt><trkpt lat="58.03605" lon="39.128"><ele>139.8</ele><time>2026-03-22T13:38:48Z</time></trkpt><trkpt lat="58.0361" lon="39.127845"><ele>141.1</ele><time>2026-03-22T13:38:51Z</time></trkpt><trkpt lat="58.03616" lon="39.127772"><ele>140.8</ele><time>2026-03-22T13:38:55Z</time></trkpt><trkpt lat="58.036245" lon="39.12775"><ele>139.1</ele><time>2026-03-22T13:39:01Z</time></trkpt><trkpt lat="58.036237" lon="39.127645"><ele>138.1</ele><time>2026-03-22T13:39:08Z</time></trkpt><trkpt lat="58.03631" lon="39.127635"><ele>137.1</ele><time>2026-03-22T13:39:09Z</time></trkpt><trkpt lat="58.03639" lon="39.12762"><ele>135.6</ele><time>2026-03-22T13:39:14Z</time></trkpt><trkpt lat="58.036497" lon="39.12752"><ele>137.1</ele><time>2026-03-22T13:39:16Z</time></trkpt><trkpt lat="58.0366" lon="39.127485"><ele>138.5</ele><time>2026-03-22T13:39:19Z</time></trkpt><trkpt lat="58.036665" lon="39.127407"><ele>139.3</ele><time>2026-03-22T13:39:23Z</time></trkpt><trkpt lat="58.036735" lon="39.1273"><ele>142.4</ele><time>2026-03-22T13:39:27Z</time></trkpt><trkpt lat="58.036785" lon="39.127185"><ele>141.9</ele><time>2026-03-22T13:39:30Z</time></trkpt><trkpt lat="58.03686" lon="39.127105"><ele>141.4</ele><time>2026-03-22T13:39:34Z</time></trkpt><trkpt lat="58.03694" lon="39.126962"><ele>143.6</ele><time>2026-03-22T13:39:38Z</time></trkpt><trkpt lat="58.036995" lon="39.126823"><ele>141.1</ele><time>2026-03-22T13:39:40Z</time></trkpt><trkpt lat="58.037055" lon="39.126705"><ele>141.2</ele><time>2026-03-22T13:39:43Z</time></trkpt><trkpt lat="58.037125" lon="39.12657"><ele>143.3</ele><time>2026-03-22T13:39:47Z</time></trkpt><trkpt lat="58.037187" lon="39.126455"><ele>143.6</ele><time>2026-03-22T13:39:50Z</time></trkpt><trkpt lat="58.037245" lon="39.126355"><ele>144.2</ele><time>2026-03-22T13:39:53Z</time></trkpt><trkpt lat="58.037305" lon="39.126217"><ele>143.8</ele><time>2026-03-22T13:39:56Z</time></trkpt><trkpt lat="58.037355" lon="39.12608"><ele>142.7</ele><time>2026-03-22T13:39:59Z</time></trkpt><trkpt lat="58.037407" lon="39.12596"><ele>140.4</ele><time>2026-03-22T13:40:02Z</time></trkpt><trkpt lat="58.037455" lon="39.12583"><ele>139.4</ele><time>2026-03-22T13:40:05Z</time></trkpt><trkpt lat="58.037507" lon="39.125692"><ele>138.9</ele><time>2026-03-22T13:40:08Z</time></trkpt><trkpt lat="58.037545" lon="39.125567"><ele>139.5</ele><time>2026-03-22T13:40:11Z</time></trkpt><trkpt lat="58.037595" lon="39.12543"><ele>139.2</ele><time>2026-03-22T13:40:14Z</time></trkpt><trkpt lat="58.037635" lon="39.125275"><ele>139.0</ele><time>2026-03-22T13:40:17Z</time></trkpt><trkpt lat="58.03767" lon="39.125115"><ele>138.6</ele><time>2026-03-22T13:40:20Z</time></trkpt><trkpt lat="58.0377" lon="39.124965"><ele>137.6</ele><time>2026-03-22T13:40:23Z</time></trkpt><trkpt lat="58.037727" lon="39.124805"><ele>138.3</ele><time>2026-03-22T13:40:26Z</time></trkpt><trkpt lat="58.037755" lon="39.124652"><ele>138.8</ele><time>2026-03-22T13:40:30Z</time></trkpt><trkpt lat="58.03777" lon="39.12451"><ele>137.6</ele><time>2026-03-22T13:40:33Z</time></trkpt><trkpt lat="58.037792" lon="39.124365"><ele>136.5</ele><time>2026-03-22T13:40:36Z</time></trkpt><trkpt lat="58.037815" lon="39.12422"><ele>135.6</ele><time>2026-03-22T13:40:39Z</time></trkpt><trkpt lat="58.037835" lon="39.12409"><ele>137.4</ele><time>2026-03-22T13:40:42Z</time></trkpt><trkpt lat="58.03784" lon="39.123905"><ele>137.5</ele><time>2026-03-22T13:40:46Z</time></trkpt><trkpt lat="58.037827" lon="39.12377"><ele>138.8</ele><time>2026-03-22T13:40:49Z</time></trkpt><trkpt lat="58.037787" lon="39.123635"><ele>138.4</ele><time>2026-03-22T13:40:52Z</time></trkpt><trkpt lat="58.037745" lon="39.12351"><ele>137.5</ele><time>2026-03-22T13:40:57Z</time></trkpt><trkpt lat="58.037702" lon="39.123382"><ele>139.3</ele><time>2026-03-22T13:41:40Z</time></trkpt><trkpt lat="58.03765" lon="39.12329"><ele>139.9</ele><time>2026-03-22T13:41:43Z</time></trkpt><trkpt lat="58.037595" lon="39.12319"><ele>139.7</ele><time>2026-03-22T13:41:46Z</time></trkpt><trkpt lat="58.037552" lon="39.123062"><ele>139.6</ele><time>2026-03-22T13:41:49Z</time></trkpt><trkpt lat="58.037525" lon="39.122925"><ele>139.3</ele><time>2026-03-22T13:41:52Z</time></trkpt><trkpt lat="58.037502" lon="39.122797"><ele>139.6</ele><time>2026-03-22T13:41:55Z</time></trkpt><trkpt lat="58.03749" lon="39.12263"><ele>137.8</ele><time>2026-03-22T13:41:59Z</time></trkpt><trkpt lat="58.037455" lon="39.122465"><ele>137.9</ele><time>2026-03-22T13:42:03Z</time></trkpt><trkpt lat="58.03743" lon="39.122325"><ele>137.5</ele><time>2026-03-22T13:42:07Z</time></trkpt><trkpt lat="58.037435" lon="39.12217"><ele>137.2</ele><time>2026-03-22T13:42:11Z</time></trkpt><trkpt lat="58.037413" lon="39.12202"><ele>137.4</ele><time>2026-03-22T13:42:14Z</time></trkpt><trkpt lat="58.03736" lon="39.12189"><ele>137.5</ele><time>2026-03-22T13:42:18Z</time></trkpt><trkpt lat="58.03727" lon="39.121825"><ele>135.8</ele><time>2026-03-22T13:42:22Z</time></trkpt><trkpt lat="58.037195" lon="39.1218"><ele>135.3</ele><time>2026-03-22T13:42:25Z</time></trkpt><trkpt lat="58.037118" lon="39.12179"><ele>136.1</ele><time>2026-03-22T13:42:28Z</time></trkpt><trkpt lat="58.03704" lon="39.12179"><ele>135.3</ele><time>2026-03-22T13:42:32Z</time></trkpt><trkpt lat="58.036955" lon="39.121797"><ele>135.6</ele><time>2026-03-22T13:42:36Z</time></trkpt><trkpt lat="58.036875" lon="39.121797"><ele>135.3</ele><time>2026-03-22T13:42:39Z</time></trkpt><trkpt lat="58.03679" lon="39.121797"><ele>132.9</ele><time>2026-03-22T13:42:43Z</time></trkpt><trkpt lat="58.036715" lon="39.1218"><ele>133.1</ele><time>2026-03-22T13:42:46Z</time></trkpt><trkpt lat="58.036632" lon="39.12177"><ele>131.5</ele><time>2026-03-22T13:42:50Z</time></trkpt><trkpt lat="58.036537" lon="39.12177"><ele>132.6</ele><time>2026-03-22T13:42:54Z</time></trkpt><trkpt lat="58.036455" lon="39.121742"><ele>134.0</ele><time>2026-03-22T13:42:58Z</time></trkpt><trkpt lat="58.03639" lon="39.121672"><ele>134.7</ele><time>2026-03-22T13:43:02Z</time></trkpt><trkpt lat="58.036342" lon="39.121692"><ele>135.1</ele><time>2026-03-22T13:43:09Z</time></trkpt><trkpt lat="58.03634" lon="39.12163"><ele>135.2</ele><time>2026-03-22T13:44:17Z</time></trkpt><trkpt lat="58.036322" lon="39.12156"><ele>136.6</ele><time>2026-03-22T13:46:44Z</time></trkpt><trkpt lat="58.036245" lon="39.121467"><ele>136.0</ele><time>2026-03-22T13:46:49Z</time></trkpt><trkpt lat="58.036172" lon="39.121455"><ele>136.2</ele><time>2026-03-22T13:46:53Z</time></trkpt><trkpt lat="58.036105" lon="39.121395"><ele>134.7</ele><time>2026-03-22T13:46:58Z</time></trkpt><trkpt lat="58.03605" lon="39.121275"><ele>133.4</ele><time>2026-03-22T13:47:02Z</time></trkpt><trkpt lat="58.035982" lon="39.12116"><ele>132.2</ele><time>2026-03-22T13:47:05Z</time></trkpt><trkpt lat="58.035892" lon="39.121052"><ele>130.8</ele><time>2026-03-22T13:47:08Z</time></trkpt><trkpt lat="58.035808" lon="39.12094"><ele>129.5</ele><time>2026-03-22T13:47:10Z</time></trkpt><trkpt lat="58.035715" lon="39.120815"><ele>128.5</ele><time>2026-03-22T13:47:12Z</time></trkpt><trkpt lat="58.035652" lon="39.120735"><ele>126.4</ele><time>2026-03-22T13:47:13Z</time></trkpt><trkpt lat="58.03559" lon="39.12066"><ele>125.2</ele><time>2026-03-22T13:47:14Z</time></trkpt><trkpt lat="58.035525" lon="39.120575"><ele>125.0</ele><time>2026-03-22T13:47:15Z</time></trkpt><trkpt lat="58.035465" lon="39.120495"><ele>123.2</ele><time>2026-03-22T13:47:16Z</time></trkpt><trkpt lat="58.035395" lon="39.120405"><ele>122.1</ele><time>2026-03-22T13:47:17Z</time></trkpt><trkpt lat="58.035325" lon="39.12029"><ele>119.6</ele><time>2026-03-22T13:47:18Z</time></trkpt><trkpt lat="58.035252" lon="39.12018"><ele>118.6</ele><time>2026-03-22T13:47:19Z</time></trkpt><trkpt lat="58.03516" lon="39.120083"><ele>116.4</ele><time>2026-03-22T13:47:20Z</time></trkpt><trkpt lat="58.03508" lon="39.119992"><ele>115.6</ele><time>2026-03-22T13:47:21Z</time></trkpt><trkpt lat="58.034995" lon="39.119895"><ele>114.9</ele><time>2026-03-22T13:47:22Z</time></trkpt><trkpt lat="58.034915" lon="39.119795"><ele>113.5</ele><time>2026-03-22T13:47:23Z</time></trkpt><trkpt lat="58.034827" lon="39.1197"><ele>112.5</ele><time>2026-03-22T13:47:24Z</time></trkpt><trkpt lat="58.034745" lon="39.119605"><ele>111.2</ele><time>2026-03-22T13:47:25Z</time></trkpt><trkpt lat="58.03466" lon="39.11952"><ele>109.7</ele><time>2026-03-22T13:47:26Z</time></trkpt><trkpt lat="58.03458" lon="39.119435"><ele>109.3</ele><time>2026-03-22T13:47:27Z</time></trkpt><trkpt lat="58.03451" lon="39.119332"><ele>109.0</ele><time>2026-03-22T13:47:28Z</time></trkpt><trkpt lat="58.034435" lon="39.11927"><ele>109.0</ele><time>2026-03-22T13:47:29Z</time></trkpt><trkpt lat="58.034365" lon="39.119177"><ele>108.9</ele><time>2026-03-22T13:47:30Z</time></trkpt><trkpt lat="58.034297" lon="39.119115"><ele>108.8</ele><time>2026-03-22T13:47:31Z</time></trkpt><trkpt lat="58.034185" lon="39.11899"><ele>108.4</ele><time>2026-03-22T13:47:33Z</time></trkpt><trkpt lat="58.034082" lon="39.118857"><ele>108.9</ele><time>2026-03-22T13:47:35Z</time></trkpt><trkpt lat="58.033993" lon="39.11874"><ele>109.7</ele><time>2026-03-22T13:47:37Z</time></trkpt><trkpt lat="58.033915" lon="39.11863"><ele>109.5</ele><time>2026-03-22T13:47:39Z</time></trkpt><trkpt lat="58.033837" lon="39.11852"><ele>109.7</ele><time>2026-03-22T13:47:42Z</time></trkpt><trkpt lat="58.033782" lon="39.118407"><ele>110.5</ele><time>2026-03-22T13:47:48Z</time></trkpt><trkpt lat="58.033735" lon="39.11828"><ele>111.5</ele><time>2026-03-22T13:47:53Z</time></trkpt><trkpt lat="58.03372" lon="39.11814"><ele>111.7</ele><time>2026-03-22T13:48:00Z</time></trkpt><trkpt lat="58.03374" lon="39.118075"><ele>112.7</ele><time>2026-03-22T13:48:07Z</time></trkpt><trkpt lat="58.033768" lon="39.117995"><ele>112.6</ele><time>2026-03-22T13:52:55Z</time></trkpt><trkpt lat="58.03378" lon="39.11785"><ele>112.7</ele><time>2026-03-22T13:52:58Z</time></trkpt><trkpt lat="58.03381" lon="39.117705"><ele>112.8</ele><time>2026-03-22T13:53:01Z</time></trkpt><trkpt lat="58.033855" lon="39.11754"><ele>112.7</ele><time>2026-03-22T13:53:04Z</time></trkpt><trkpt lat="58.0339" lon="39.117423"><ele>112.0</ele><time>2026-03-22T13:53:06Z</time></trkpt><trkpt lat="58.03397" lon="39.1173"><ele>110.7</ele><time>2026-03-22T13:53:08Z</time></trkpt><trkpt lat="58.034045" lon="39.11717"><ele>110.3</ele><time>2026-03-22T13:53:10Z</time></trkpt><trkpt lat="58.03412" lon="39.11709"><ele>109.9</ele><time>2026-03-22T13:53:12Z</time></trkpt><trkpt lat="58.03419" lon="39.117015"><ele>110.5</ele><time>2026-03-22T13:53:14Z</time></trkpt><trkpt lat="58.03427" lon="39.116945"><ele>110.1</ele><time>2026-03-22T13:53:17Z</time></trkpt><trkpt lat="58.034325" lon="39.11685"><ele>108.9</ele><time>2026-03-22T13:53:20Z</time></trkpt><trkpt lat="58.03434" lon="39.116707"><ele>108.5</ele><time>2026-03-22T13:53:24Z</time></trkpt><trkpt lat="58.034287" lon="39.1166"><ele>107.7</ele><time>2026-03-22T13:53:28Z</time></trkpt><trkpt lat="58.0342" lon="39.116585"><ele>106.9</ele><time>2026-03-22T13:53:31Z</time></trkpt><trkpt lat="58.03413" lon="39.116617"><ele>106.6</ele><time>2026-03-22T13:53:34Z</time></trkpt><trkpt lat="58.034062" lon="39.11669"><ele>106.8</ele><time>2026-03-22T13:53:38Z</time></trkpt><trkpt lat="58.03405" lon="39.116705"><ele>107.0</ele><time>2026-03-22T13:53:45Z</time></trkpt><trkpt lat="58.03398" lon="39.116752"><ele>105.0</ele><time>2026-03-22T13:54:00Z</time></trkpt><trkpt lat="58.033905" lon="39.11686"><ele>104.1</ele><time>2026-03-22T13:54:03Z</time></trkpt><trkpt lat="58.033847" lon="39.116955"><ele>104.3</ele><time>2026-03-22T13:54:05Z</time></trkpt><trkpt lat="58.03379" lon="39.11705"><ele>103.6</ele><time>2026-03-22T13:54:07Z</time></trkpt><trkpt lat="58.033722" lon="39.11715"><ele>103.1</ele><time>2026-03-22T13:54:09Z</time></trkpt><trkpt lat="58.033665" lon="39.117255"><ele>103.5</ele><time>2026-03-22T13:54:11Z</time></trkpt><trkpt lat="58.033608" lon="39.117365"><ele>103.3</ele><time>2026-03-22T13:54:13Z</time></trkpt><trkpt lat="58.033555" lon="39.117475"><ele>102.8</ele><time>2026-03-22T13:54:15Z</time></trkpt><trkpt lat="58.033485" lon="39.117615"><ele>103.1</ele><time>2026-03-22T13:54:18Z</time></trkpt><trkpt lat="58.033425" lon="39.11774"><ele>103.7</ele><time>2026-03-22T13:54:21Z</time></trkpt><trkpt lat="58.03337" lon="39.117845"><ele>104.4</ele><time>2026-03-22T13:54:25Z</time></trkpt><trkpt lat="58.033318" lon="39.11797"><ele>104.6</ele><time>2026-03-22T13:54:29Z</time></trkpt><trkpt lat="58.03326" lon="39.118098"><ele>104.5</ele><time>2026-03-22T13:54:32Z</time></trkpt><trkpt lat="58.033215" lon="39.118217"><ele>104.5</ele><time>2026-03-22T13:54:34Z</time></trkpt><trkpt lat="58.03316" lon="39.11839"><ele>105.9</ele><time>2026-03-22T13:54:37Z</time></trkpt><trkpt lat="58.033115" lon="39.118572"><ele>105.9</ele><time>2026-03-22T13:54:40Z</time></trkpt><trkpt lat="58.033085" lon="39.11875"><ele>106.9</ele><time>2026-03-22T13:54:43Z</time></trkpt><trkpt lat="58.03305" lon="39.11891"><ele>107.0</ele><time>2026-03-22T13:54:46Z</time></trkpt><trkpt lat="58.033012" lon="39.119082"><ele>105.9</ele><time>2026-03-22T13:54:49Z</time></trkpt><trkpt lat="58.03298" lon="39.119265"><ele>105.5</ele><time>2026-03-22T13:54:52Z</time></trkpt><trkpt lat="58.032957" lon="39.119392"><ele>105.4</ele><time>2026-03-22T13:54:54Z</time></trkpt><trkpt lat="58.032933" lon="39.119532"><ele>103.4</ele><time>2026-03-22T13:54:56Z</time></trkpt><trkpt lat="58.03292" lon="39.119735"><ele>103.4</ele><time>2026-03-22T13:54:58Z</time></trkpt><trkpt lat="58.032902" lon="39.119915"><ele>103.5</ele><time>2026-03-22T13:55:00Z</time></trkpt><trkpt lat="58.032887" lon="39.120075"><ele>103.7</ele><time>2026-03-22T13:55:02Z</time></trkpt><trkpt lat="58.032875" lon="39.120222"><ele>103.9</ele><time>2026-03-22T13:55:04Z</time></trkpt><trkpt lat="58.03285" lon="39.1204"><ele>103.8</ele><time>2026-03-22T13:55:07Z</time></trkpt><trkpt lat="58.032847" lon="39.12057"><ele>104.8</ele><time>2026-03-22T13:55:10Z</time></trkpt><trkpt lat="58.03283" lon="39.12073"><ele>103.4</ele><time>2026-03-22T13:55:14Z</time></trkpt><trkpt lat="58.032825" lon="39.12088"><ele>103.6</ele><time>2026-03-22T13:55:17Z</time></trkpt><trkpt lat="58.03282" lon="39.121035"><ele>104.7</ele><time>2026-03-22T13:55:20Z</time></trkpt><trkpt lat="58.03281" lon="39.1212"><ele>105.4</ele><time>2026-03-22T13:55:23Z</time></trkpt><trkpt lat="58.032798" lon="39.12137"><ele>104.7</ele><time>2026-03-22T13:55:26Z</time></trkpt><trkpt lat="58.03279" lon="39.121525"><ele>104.8</ele><time>2026-03-22T13:55:29Z</time></trkpt><trkpt lat="58.032787" lon="39.121665"><ele>104.8</ele><time>2026-03-22T13:55:32Z</time></trkpt><trkpt lat="58.032795" lon="39.121822"><ele>105.6</ele><time>2026-03-22T13:55:36Z</time></trkpt><trkpt lat="58.032807" lon="39.12199"><ele>105.3</ele><time>2026-03-22T13:55:40Z</time></trkpt><trkpt lat="58.03283" lon="39.122122"><ele>105.9</ele><time>2026-03-22T13:55:43Z</time></trkpt><trkpt lat="58.032852" lon="39.122272"><ele>106.4</ele><time>2026-03-22T13:55:48Z</time></trkpt><trkpt lat="58.032867" lon="39.122385"><ele>106.7</ele><time>2026-03-22T13:55:55Z</time></trkpt><trkpt lat="58.032915" lon="39.12253"><ele>107.2</ele><time>2026-03-22T13:56:14Z</time></trkpt><trkpt lat="58.032965" lon="39.122642"><ele>106.7</ele><time>2026-03-22T13:56:18Z</time></trkpt><trkpt lat="58.033025" lon="39.122723"><ele>106.1</ele><time>2026-03-22T13:56:23Z</time></trkpt><trkpt lat="58.033072" lon="39.12277"><ele>105.9</ele><time>2026-03-22T13:56:30Z</time></trkpt><trkpt lat="58.033145" lon="39.122845"><ele>109.0</ele><time>2026-03-22T13:56:41Z</time></trkpt><trkpt lat="58.03322" lon="39.122915"><ele>108.7</ele><time>2026-03-22T13:56:46Z</time></trkpt><trkpt lat="58.03328" lon="39.123"><ele>110.2</ele><time>2026-03-22T13:56:50Z</time></trkpt><trkpt lat="58.03334" lon="39.123085"><ele>110.6</ele><time>2026-03-22T13:56:55Z</time></trkpt><trkpt lat="58.033415" lon="39.123145"><ele>111.4</ele><time>2026-03-22T13:57:01Z</time></trkpt><trkpt lat="58.033485" lon="39.123212"><ele>112.3</ele><time>2026-03-22T13:57:07Z</time></trkpt><trkpt lat="58.033555" lon="39.123285"><ele>110.1</ele><time>2026-03-22T13:57:12Z</time></trkpt><trkpt lat="58.033635" lon="39.123357"><ele>112.5</ele><time>2026-03-22T13:57:16Z</time></trkpt><trkpt lat="58.033717" lon="39.123415"><ele>112.8</ele><time>2026-03-22T13:57:21Z</time></trkpt><trkpt lat="58.03379" lon="39.1234"><ele>113.4</ele><time>2026-03-22T13:57:25Z</time></trkpt><trkpt lat="58.033847" lon="39.123305"><ele>112.0</ele><time>2026-03-22T13:57:32Z</time></trkpt><trkpt lat="58.033885" lon="39.12316"><ele>111.4</ele><time>2026-03-22T13:57:37Z</time></trkpt><trkpt lat="58.0339" lon="39.123007"><ele>110.3</ele><time>2026-03-22T13:57:40Z</time></trkpt><trkpt lat="58.033885" lon="39.122855"><ele>111.4</ele><time>2026-03-22T13:57:43Z</time></trkpt><trkpt lat="58.033847" lon="39.122722"><ele>110.8</ele><time>2026-03-22T13:57:46Z</time></trkpt><trkpt lat="58.03378" lon="39.122615"><ele>110.1</ele><time>2026-03-22T13:57:49Z</time></trkpt><trkpt lat="58.03371" lon="39.12254"><ele>111.7</ele><time>2026-03-22T13:57:51Z</time></trkpt><trkpt lat="58.033645" lon="39.122475"><ele>110.8</ele><time>2026-03-22T13:57:53Z</time></trkpt><trkpt lat="58.033555" lon="39.122355"><ele>109.7</ele><time>2026-03-22T13:57:56Z</time></trkpt><trkpt lat="58.03349" lon="39.122265"><ele>110.4</ele><time>2026-03-22T13:57:59Z</time></trkpt><trkpt lat="58.03343" lon="39.122185"><ele>110.7</ele><time>2026-03-22T13:58:02Z</time></trkpt><trkpt lat="58.03336" lon="39.12207"><ele>110.4</ele><time>2026-03-22T13:58:06Z</time></trkpt><trkpt lat="58.033305" lon="39.121975"><ele>110.9</ele><time>2026-03-22T13:58:09Z</time></trkpt><trkpt lat="58.033255" lon="39.121855"><ele>110.1</ele><time>2026-03-22T13:58:12Z</time></trkpt><trkpt lat="58.03321" lon="39.121743"><ele>110.7</ele><time>2026-03-22T13:58:14Z</time></trkpt><trkpt lat="58.033052" lon="39.121377"><ele>110.6</ele><time>2026-03-22T13:58:21Z</time></trkpt><trkpt lat="58.033087" lon="39.120465"><ele>108.8</ele><time>2026-03-22T13:58:27Z</time></trkpt><trkpt lat="58.033052" lon="39.120315"><ele>106.8</ele><time>2026-03-22T13:58:28Z</time></trkpt><trkpt lat="58.033035" lon="39.120115"><ele>105.2</ele><time>2026-03-22T13:58:29Z</time></trkpt><trkpt lat="58.03305" lon="39.119852"><ele>105.5</ele><time>2026-03-22T13:58:31Z</time></trkpt><trkpt lat="58.033055" lon="39.119665"><ele>102.7</ele><time>2026-03-22T13:58:33Z</time></trkpt><trkpt lat="58.033075" lon="39.1195"><ele>101.4</ele><time>2026-03-22T13:58:35Z</time></trkpt><trkpt lat="58.033115" lon="39.119385"><ele>101.1</ele><time>2026-03-22T13:58:37Z</time></trkpt><trkpt lat="58.033145" lon="39.11926"><ele>102.6</ele><time>2026-03-22T13:58:40Z</time></trkpt><trkpt lat="58.033155" lon="39.1191"><ele>104.1</ele><time>2026-03-22T13:58:44Z</time></trkpt><trkpt lat="58.03318" lon="39.118962"><ele>105.3</ele><time>2026-03-22T13:58:50Z</time></trkpt><trkpt lat="58.03318" lon="39.118915"><ele>105.4</ele><time>2026-03-22T13:58:57Z</time></trkpt><trkpt lat="58.033145" lon="39.118755"><ele>105.5</ele><time>2026-03-22T13:59:01Z</time></trkpt><trkpt lat="58.033155" lon="39.118582"><ele>104.0</ele><time>2026-03-22T13:59:05Z</time></trkpt><trkpt lat="58.03318" lon="39.118435"><ele>105.4</ele><time>2026-03-22T13:59:08Z</time></trkpt><trkpt lat="58.03321" lon="39.118287"><ele>106.3</ele><time>2026-03-22T13:59:11Z</time></trkpt><trkpt lat="58.033245" lon="39.118145"><ele>105.6</ele><time>2026-03-22T13:59:14Z</time></trkpt><trkpt lat="58.03329" lon="39.118032"><ele>106.0</ele><time>2026-03-22T13:59:17Z</time></trkpt><trkpt lat="58.033342" lon="39.117905"><ele>107.3</ele><time>2026-03-22T13:59:21Z</time></trkpt><trkpt lat="58.033402" lon="39.11778"><ele>105.2</ele><time>2026-03-22T13:59:24Z</time></trkpt><trkpt lat="58.03347" lon="39.11762"><ele>104.0</ele><time>2026-03-22T13:59:27Z</time></trkpt><trkpt lat="58.033535" lon="39.11751"><ele>103.5</ele><time>2026-03-22T13:59:29Z</time></trkpt><trkpt lat="58.033595" lon="39.117395"><ele>102.7</ele><time>2026-03-22T13:59:31Z</time></trkpt><trkpt lat="58.03365" lon="39.117292"><ele>102.3</ele><time>2026-03-22T13:59:33Z</time></trkpt><trkpt lat="58.033705" lon="39.117195"><ele>103.6</ele><time>2026-03-22T13:59:35Z</time></trkpt><trkpt lat="58.033775" lon="39.117067"><ele>104.3</ele><time>2026-03-22T13:59:38Z</time></trkpt><trkpt lat="58.033835" lon="39.116968"><ele>105.2</ele><time>2026-03-22T13:59:41Z</time></trkpt><trkpt lat="58.033892" lon="39.11688"><ele>105.8</ele><time>2026-03-22T13:59:44Z</time></trkpt><trkpt lat="58.033945" lon="39.11679"><ele>106.2</ele><time>2026-03-22T13:59:47Z</time></trkpt><trkpt lat="58.034025" lon="39.11669"><ele>107.8</ele><time>2026-03-22T13:59:51Z</time></trkpt><trkpt lat="58.034095" lon="39.116655"><ele>109.0</ele><time>2026-03-22T13:59:54Z</time></trkpt><trkpt lat="58.03418" lon="39.11672"><ele>110.0</ele><time>2026-03-22T13:59:57Z</time></trkpt><trkpt lat="58.034245" lon="39.116872"><ele>110.1</ele><time>2026-03-22T14:00:00Z</time></trkpt><trkpt lat="58.0343" lon="39.116995"><ele>110.3</ele><time>2026-03-22T14:00:03Z</time></trkpt><trkpt lat="58.034367" lon="39.11705"><ele>107.9</ele><time>2026-03-22T14:00:07Z</time></trkpt><trkpt lat="58.03444" lon="39.117092"><ele>107.5</ele><time>2026-03-22T14:00:11Z</time></trkpt><trkpt lat="58.034515" lon="39.117122"><ele>106.8</ele><time>2026-03-22T14:00:14Z</time></trkpt><trkpt lat="58.034598" lon="39.117145"><ele>106.7</ele><time>2026-03-22T14:00:17Z</time></trkpt><trkpt lat="58.034695" lon="39.11718"><ele>104.8</ele><time>2026-03-22T14:00:20Z</time></trkpt><trkpt lat="58.0348" lon="39.117225"><ele>104.2</ele><time>2026-03-22T14:00:22Z</time></trkpt><trkpt lat="58.03489" lon="39.11729"><ele>102.4</ele><time>2026-03-22T14:00:24Z</time></trkpt><trkpt lat="58.035005" lon="39.117405"><ele>101.5</ele><time>2026-03-22T14:00:26Z</time></trkpt><trkpt lat="58.03507" lon="39.11747"><ele>101.7</ele><time>2026-03-22T14:00:27Z</time></trkpt><trkpt lat="58.03518" lon="39.1176"><ele>101.1</ele><time>2026-03-22T14:00:29Z</time></trkpt><trkpt lat="58.035275" lon="39.117745"><ele>102.1</ele><time>2026-03-22T14:00:31Z</time></trkpt><trkpt lat="58.035372" lon="39.11787"><ele>102.7</ele><time>2026-03-22T14:00:33Z</time></trkpt><trkpt lat="58.035467" lon="39.117995"><ele>102.6</ele><time>2026-03-22T14:00:35Z</time></trkpt><trkpt lat="58.035545" lon="39.118085"><ele>102.4</ele><time>2026-03-22T14:00:37Z</time></trkpt><trkpt lat="58.03563" lon="39.11816"><ele>102.3</ele><time>2026-03-22T14:00:39Z</time></trkpt><trkpt lat="58.0357" lon="39.118215"><ele>102.9</ele><time>2026-03-22T14:00:41Z</time></trkpt><trkpt lat="58.035775" lon="39.11828"><ele>102.9</ele><time>2026-03-22T14:00:43Z</time></trkpt><trkpt lat="58.03587" lon="39.11837"><ele>100.4</ele><time>2026-03-22T14:00:46Z</time></trkpt><trkpt lat="58.035957" lon="39.118435"><ele>100.5</ele><time>2026-03-22T14:00:49Z</time></trkpt><trkpt lat="58.03604" lon="39.118455"><ele>100.1</ele><time>2026-03-22T14:00:52Z</time></trkpt><trkpt lat="58.036117" lon="39.11844"><ele>100.9</ele><time>2026-03-22T14:00:55Z</time></trkpt><trkpt lat="58.036187" lon="39.1184"><ele>101.4</ele><time>2026-03-22T14:00:58Z</time></trkpt><trkpt lat="58.03628" lon="39.11835"><ele>101.9</ele><time>2026-03-22T14:01:02Z</time></trkpt><trkpt lat="58.036355" lon="39.11829"><ele>102.5</ele><time>2026-03-22T14:01:06Z</time></trkpt><trkpt lat="58.03644" lon="39.118232"><ele>103.0</ele><time>2026-03-22T14:01:10Z</time></trkpt><trkpt lat="58.03651" lon="39.11816"><ele>104.5</ele><time>2026-03-22T14:01:14Z</time></trkpt><trkpt lat="58.036583" lon="39.118085"><ele>104.8</ele><time>2026-03-22T14:01:18Z</time></trkpt><trkpt lat="58.036655" lon="39.118005"><ele>105.5</ele><time>2026-03-22T14:01:22Z</time></trkpt><trkpt lat="58.03673" lon="39.11795"><ele>104.6</ele><time>2026-03-22T14:01:26Z</time></trkpt><trkpt lat="58.03681" lon="39.11788"><ele>103.8</ele><time>2026-03-22T14:01:30Z</time></trkpt><trkpt lat="58.036875" lon="39.117817"><ele>104.3</ele><time>2026-03-22T14:01:33Z</time></trkpt><trkpt lat="58.036942" lon="39.11775"><ele>104.8</ele><time>2026-03-22T14:01:36Z</time></trkpt><trkpt lat="58.03701" lon="39.11768"><ele>105.6</ele><time>2026-03-22T14:01:39Z</time></trkpt><trkpt lat="58.03708" lon="39.117595"><ele>103.5</ele><time>2026-03-22T14:01:42Z</time></trkpt><trkpt lat="58.037155" lon="39.1175"><ele>102.7</ele><time>2026-03-22T14:01:45Z</time></trkpt><trkpt lat="58.037235" lon="39.117405"><ele>104.1</ele><time>2026-03-22T14:01:48Z</time></trkpt><trkpt lat="58.037297" lon="39.117325"><ele>104.4</ele><time>2026-03-22T14:01:50Z</time></trkpt><trkpt lat="58.037355" lon="39.11724"><ele>105.3</ele><time>2026-03-22T14:01:52Z</time></trkpt><trkpt lat="58.037407" lon="39.11714"><ele>105.4</ele><time>2026-03-22T14:01:54Z</time></trkpt><trkpt lat="58.037462" lon="39.117037"><ele>106.4</ele><time>2026-03-22T14:01:56Z</time></trkpt><trkpt lat="58.037535" lon="39.116912"><ele>106.9</ele><time>2026-03-22T14:01:59Z</time></trkpt><trkpt lat="58.03761" lon="39.11678"><ele>105.9</ele><time>2026-03-22T14:02:02Z</time></trkpt><trkpt lat="58.03768" lon="39.116632"><ele>104.7</ele><time>2026-03-22T14:02:05Z</time></trkpt><trkpt lat="58.03775" lon="39.116495"><ele>105.9</ele><time>2026-03-22T14:02:08Z</time></trkpt><trkpt lat="58.037812" lon="39.11636"><ele>107.2</ele><time>2026-03-22T14:02:11Z</time></trkpt><trkpt lat="58.03787" lon="39.11625"><ele>107.9</ele><time>2026-03-22T14:02:14Z</time></trkpt><trkpt lat="58.037922" lon="39.116142"><ele>107.4</ele><time>2026-03-22T14:02:17Z</time></trkpt><trkpt lat="58.03797" lon="39.116035"><ele>108.3</ele><time>2026-03-22T14:02:20Z</time></trkpt><trkpt lat="58.03803" lon="39.11589"><ele>108.7</ele><time>2026-03-22T14:02:24Z</time></trkpt><trkpt lat="58.03811" lon="39.115805"><ele>108.6</ele><time>2026-03-22T14:02:27Z</time></trkpt><trkpt lat="58.03819" lon="39.115875"><ele>107.4</ele><time>2026-03-22T14:02:31Z</time></trkpt><trkpt lat="58.038232" lon="39.116"><ele>107.0</ele><time>2026-03-22T14:02:35Z</time></trkpt><trkpt lat="58.038242" lon="39.11612"><ele>106.7</ele><time>2026-03-22T14:02:42Z</time></trkpt><trkpt lat="58.03828" lon="39.116235"><ele>106.0</ele><time>2026-03-22T14:02:49Z</time></trkpt><trkpt lat="58.038292" lon="39.11626"><ele>106.2</ele><time>2026-03-22T14:02:56Z</time></trkpt><trkpt lat="58.038325" lon="39.11631"><ele>107.3</ele><time>2026-03-22T14:03:07Z</time></trkpt></trkseg></trk></gpx>