<?xml version="1.0" encoding="UTF-8" standalone="no"?><gpx xmlns="http://www.topografix.com/GPX/1/1" xmlns:gpxtpx="http://www.garmin.com/xmlschemas/TrackPointExtension/v1" xmlns:xsi="http://www.w3.org/2001/XMLSchema-instance" creator="Sports Tracker" version="1.1" xsi:schemaLocation="http://www.topografix.com/GPX/1/1 http://www.topografix.com/GPX/1/1/gpx.xsd http://www.garmin.com/xmlschemas/TrackPointExtension/v1 http://www.garmin.com/xmlschemas/TrackPointExtensionv1.xsd"><metadata><name/><desc/><author><name>Александр</name></author></metadata><trk><name/><trkseg><trkpt lat="58.05909" lon="38.812482"><ele>102.9</ele><time>2022-01-24T07:42:49Z</time></trkpt><trkpt lat="58.05921" lon="38.812513"><ele>103.0</ele><time>2022-01-24T07:42:50Z</time></trkpt><trkpt lat="58.059353" lon="38.81262"><ele>103.1</ele><time>2022-01-24T07:42:51Z</time></trkpt><trkpt lat="58.059372" lon="38.812598"><ele>103.1</ele><time>2022-01-24T07:42:52Z</time></trkpt><trkpt lat="58.059372" lon="38.812578"><ele>103.1</ele><time>2022-01-24T07:42:53Z</time></trkpt><trkpt lat="58.059375" lon="38.812557"><ele>103.1</ele><time>2022-01-24T07:42:54Z</time></trkpt><trkpt lat="58.059377" lon="38.81254"><ele>103.1</ele><time>2022-01-24T07:42:55Z</time></trkpt><trkpt lat="58.059378" lon="38.81252"><ele>103.1</ele><time>2022-01-24T07:42:56Z</time></trkpt><trkpt lat="58.059385" lon="38.812498"><ele>103.1</ele><time>2022-01-24T07:42:57Z</time></trkpt><trkpt lat="58.0594" lon="38.81242"><ele>103.2</ele><time>2022-01-24T07:42:58Z</time></trkpt><trkpt lat="58.059407" lon="38.81238"><ele>103.2</ele><time>2022-01-24T07:42:59Z</time></trkpt><trkpt lat="58.059423" lon="38.81232"><ele>103.2</ele><time>2022-01-24T07:43:00Z</time></trkpt><trkpt lat="58.05943" lon="38.8123"><ele>103.2</ele><time>2022-01-24T07:43:01Z</time></trkpt><trkpt lat="58.059447" lon="38.812242"><ele>103.2</ele><time>2022-01-24T07:43:02Z</time></trkpt><trkpt lat="58.059452" lon="38.812225"><ele>103.3</ele><time>2022-01-24T07:43:03Z</time></trkpt><trkpt lat="58.059443" lon="38.812178"><ele>103.3</ele><time>2022-01-24T07:43:04Z</time></trkpt><trkpt lat="58.059445" lon="38.812182"><ele>103.3</ele><time>2022-01-24T07:43:05Z</time></trkpt><trkpt lat="58.059442" lon="38.812235"><ele>103.3</ele><time>2022-01-24T07:43:07Z</time></trkpt><trkpt lat="58.059442" lon="38.812245"><ele>103.3</ele><time>2022-01-24T07:43:08Z</time></trkpt><trkpt lat="58.05944" lon="38.812242"><ele>103.3</ele><time>2022-01-24T07:43:09Z</time></trkpt><trkpt lat="58.059437" lon="38.812242"><ele>103.3</ele><time>2022-01-24T07:43:11Z</time></trkpt><trkpt lat="58.05944" lon="38.81224"><ele>103.3</ele><time>2022-01-24T07:43:12Z</time></trkpt><trkpt lat="58.059453" lon="38.81224"><ele>103.3</ele><time>2022-01-24T07:43:14Z</time></trkpt><trkpt lat="58.059483" lon="38.812237"><ele>103.3</ele><time>2022-01-24T07:43:15Z</time></trkpt><trkpt lat="58.05951" lon="38.812232"><ele>103.4</ele><time>2022-01-24T07:43:16Z</time></trkpt><trkpt lat="58.059563" lon="38.812237"><ele>103.4</ele><time>2022-01-24T07:43:18Z</time></trkpt><trkpt lat="58.05962" lon="38.81223"><ele>103.4</ele><time>2022-01-24T07:43:19Z</time></trkpt><trkpt lat="58.059665" lon="38.812232"><ele>103.5</ele><time>2022-01-24T07:43:20Z</time></trkpt><trkpt lat="58.0597" lon="38.812235"><ele>103.5</ele><time>2022-01-24T07:43:21Z</time></trkpt><trkpt lat="58.059732" lon="38.812237"><ele>103.5</ele><time>2022-01-24T07:43:22Z</time></trkpt><trkpt lat="58.059762" lon="38.81224"><ele>103.5</ele><time>2022-01-24T07:43:23Z</time></trkpt><trkpt lat="58.05979" lon="38.812247"><ele>103.6</ele><time>2022-01-24T07:43:24Z</time></trkpt><trkpt lat="58.05982" lon="38.812257"><ele>103.6</ele><time>2022-01-24T07:43:25Z</time></trkpt><trkpt lat="58.059847" lon="38.81227"><ele>103.6</ele><time>2022-01-24T07:43:26Z</time></trkpt><trkpt lat="58.059887" lon="38.812283"><ele>103.6</ele><time>2022-01-24T07:43:27Z</time></trkpt><trkpt lat="58.0599" lon="38.81229"><ele>103.7</ele><time>2022-01-24T07:43:28Z</time></trkpt><trkpt lat="58.059925" lon="38.81232"><ele>103.7</ele><time>2022-01-24T07:43:29Z</time></trkpt><trkpt lat="58.059948" lon="38.812378"><ele>103.7</ele><time>2022-01-24T07:43:30Z</time></trkpt><trkpt lat="58.059955" lon="38.812402"><ele>103.7</ele><time>2022-01-24T07:43:31Z</time></trkpt><trkpt lat="58.059965" lon="38.812465"><ele>103.6</ele><time>2022-01-24T07:43:32Z</time></trkpt><trkpt lat="58.059972" lon="38.812532"><ele>103.6</ele><time>2022-01-24T07:43:33Z</time></trkpt><trkpt lat="58.059975" lon="38.812597"><ele>103.6</ele><time>2022-01-24T07:43:34Z</time></trkpt><trkpt lat="58.059972" lon="38.812662"><ele>103.5</ele><time>2022-01-24T07:43:35Z</time></trkpt><trkpt lat="58.059965" lon="38.812738"><ele>103.5</ele><time>2022-01-24T07:43:36Z</time></trkpt><trkpt lat="58.059958" lon="38.812817"><ele>103.4</ele><time>2022-01-24T07:43:37Z</time></trkpt><trkpt lat="58.05995" lon="38.812897"><ele>103.4</ele><time>2022-01-24T07:43:38Z</time></trkpt><trkpt lat="58.059945" lon="38.812978"><ele>103.3</ele><time>2022-01-24T07:43:39Z</time></trkpt><trkpt lat="58.05994" lon="38.81306"><ele>103.3</ele><time>2022-01-24T07:43:40Z</time></trkpt><trkpt lat="58.059933" lon="38.813142"><ele>103.2</ele><time>2022-01-24T07:43:41Z</time></trkpt><trkpt lat="58.05993" lon="38.813218"><ele>103.2</ele><time>2022-01-24T07:43:42Z</time></trkpt><trkpt lat="58.059925" lon="38.813282"><ele>103.1</ele><time>2022-01-24T07:43:43Z</time></trkpt><trkpt lat="58.05992" lon="38.813353"><ele>103.1</ele><time>2022-01-24T07:43:44Z</time></trkpt><trkpt lat="58.059913" lon="38.813425"><ele>103.0</ele><time>2022-01-24T07:43:45Z</time></trkpt><trkpt lat="58.059915" lon="38.813503"><ele>103.0</ele><time>2022-01-24T07:43:46Z</time></trkpt><trkpt lat="58.059912" lon="38.813563"><ele>102.9</ele><time>2022-01-24T07:43:47Z</time></trkpt><trkpt lat="58.059907" lon="38.813622"><ele>102.9</ele><time>2022-01-24T07:43:48Z</time></trkpt><trkpt lat="58.0599" lon="38.81368"><ele>102.9</ele><time>2022-01-24T07:43:49Z</time></trkpt><trkpt lat="58.05988" lon="38.813745"><ele>102.8</ele><time>2022-01-24T07:43:50Z</time></trkpt><trkpt lat="58.059872" lon="38.813765"><ele>102.8</ele><time>2022-01-24T07:43:51Z</time></trkpt><trkpt lat="58.059843" lon="38.813795"><ele>102.8</ele><time>2022-01-24T07:43:52Z</time></trkpt><trkpt lat="58.059833" lon="38.813802"><ele>102.7</ele><time>2022-01-24T07:43:53Z</time></trkpt><trkpt lat="58.059792" lon="38.813802"><ele>102.7</ele><time>2022-01-24T07:43:54Z</time></trkpt><trkpt lat="58.059777" lon="38.813802"><ele>102.7</ele><time>2022-01-24T07:43:55Z</time></trkpt><trkpt lat="58.059743" lon="38.813787"><ele>102.6</ele><time>2022-01-24T07:43:56Z</time></trkpt><trkpt lat="58.059717" lon="38.813765"><ele>102.6</ele><time>2022-01-24T07:43:57Z</time></trkpt><trkpt lat="58.059687" lon="38.813747"><ele>102.6</ele><time>2022-01-24T07:43:58Z</time></trkpt><trkpt lat="58.059647" lon="38.813725"><ele>102.5</ele><time>2022-01-24T07:43:59Z</time></trkpt><trkpt lat="58.059618" lon="38.813703"><ele>102.5</ele><time>2022-01-24T07:44:00Z</time></trkpt><trkpt lat="58.059593" lon="38.813673"><ele>102.5</ele><time>2022-01-24T07:44:01Z</time></trkpt><trkpt lat="58.059572" lon="38.81364"><ele>102.4</ele><time>2022-01-24T07:44:02Z</time></trkpt><trkpt lat="58.059542" lon="38.813612"><ele>102.4</ele><time>2022-01-24T07:44:03Z</time></trkpt><trkpt lat="58.059515" lon="38.813592"><ele>102.4</ele><time>2022-01-24T07:44:04Z</time></trkpt><trkpt lat="58.059477" lon="38.81357"><ele>102.3</ele><time>2022-01-24T07:44:06Z</time></trkpt><trkpt lat="58.059428" lon="38.813552"><ele>102.3</ele><time>2022-01-24T07:44:07Z</time></trkpt><trkpt lat="58.059392" lon="38.813542"><ele>102.2</ele><time>2022-01-24T07:44:08Z</time></trkpt><trkpt lat="58.05936" lon="38.813527"><ele>102.2</ele><time>2022-01-24T07:44:09Z</time></trkpt><trkpt lat="58.05931" lon="38.81348"><ele>102.1</ele><time>2022-01-24T07:44:11Z</time></trkpt><trkpt lat="58.059297" lon="38.81341"><ele>102.3</ele><time>2022-01-24T07:44:12Z</time></trkpt><trkpt lat="58.059295" lon="38.813378"><ele>102.3</ele><time>2022-01-24T07:44:13Z</time></trkpt><trkpt lat="58.059308" lon="38.81326"><ele>102.4</ele><time>2022-01-24T07:44:15Z</time></trkpt><trkpt lat="58.05932" lon="38.813207"><ele>102.4</ele><time>2022-01-24T07:44:16Z</time></trkpt><trkpt lat="58.059338" lon="38.813127"><ele>102.5</ele><time>2022-01-24T07:44:18Z</time></trkpt><trkpt lat="58.05935" lon="38.813067"><ele>102.5</ele><time>2022-01-24T07:44:19Z</time></trkpt><trkpt lat="58.059362" lon="38.812998"><ele>102.5</ele><time>2022-01-24T07:44:20Z</time></trkpt><trkpt lat="58.059365" lon="38.812977"><ele>102.6</ele><time>2022-01-24T07:44:21Z</time></trkpt><trkpt lat="58.05937" lon="38.812933"><ele>102.6</ele><time>2022-01-24T07:44:22Z</time></trkpt><trkpt lat="58.059365" lon="38.812892"><ele>102.6</ele><time>2022-01-24T07:44:24Z</time></trkpt><trkpt lat="58.059353" lon="38.812822"><ele>102.7</ele><time>2022-01-24T07:44:25Z</time></trkpt><trkpt lat="58.05935" lon="38.81279"><ele>102.7</ele><time>2022-01-24T07:44:26Z</time></trkpt><trkpt lat="58.059353" lon="38.812722"><ele>102.7</ele><time>2022-01-24T07:44:27Z</time></trkpt><trkpt lat="58.059355" lon="38.812702"><ele>102.7</ele><time>2022-01-24T07:44:28Z</time></trkpt><trkpt lat="58.059365" lon="38.812638"><ele>102.8</ele><time>2022-01-24T07:44:29Z</time></trkpt><trkpt lat="58.059367" lon="38.812617"><ele>102.8</ele><time>2022-01-24T07:44:30Z</time></trkpt><trkpt lat="58.05937" lon="38.812545"><ele>102.9</ele><time>2022-01-24T07:44:31Z</time></trkpt><trkpt lat="58.059372" lon="38.81252"><ele>102.9</ele><time>2022-01-24T07:44:32Z</time></trkpt><trkpt lat="58.059372" lon="38.812488"><ele>102.9</ele><time>2022-01-24T07:44:33Z</time></trkpt><trkpt lat="58.059368" lon="38.812437"><ele>102.9</ele><time>2022-01-24T07:44:35Z</time></trkpt><trkpt lat="58.059375" lon="38.8124"><ele>103.0</ele><time>2022-01-24T07:44:36Z</time></trkpt><trkpt lat="58.059378" lon="38.812382"><ele>103.0</ele><time>2022-01-24T07:44:37Z</time></trkpt><trkpt lat="58.059382" lon="38.812367"><ele>103.0</ele><time>2022-01-24T07:44:38Z</time></trkpt><trkpt lat="58.059385" lon="38.812342"><ele>103.0</ele><time>2022-01-24T07:44:39Z</time></trkpt><trkpt lat="58.059395" lon="38.81232"><ele>103.0</ele><time>2022-01-24T07:44:40Z</time></trkpt><trkpt lat="58.059407" lon="38.812307"><ele>103.0</ele><time>2022-01-24T07:44:41Z</time></trkpt><trkpt lat="58.059415" lon="38.812297"><ele>103.0</ele><time>2022-01-24T07:44:42Z</time></trkpt><trkpt lat="58.059422" lon="38.812288"><ele>103.0</ele><time>2022-01-24T07:44:43Z</time></trkpt><trkpt lat="58.05943" lon="38.812275"><ele>103.1</ele><time>2022-01-24T07:44:44Z</time></trkpt><trkpt lat="58.059452" lon="38.812267"><ele>103.1</ele><time>2022-01-24T07:44:46Z</time></trkpt><trkpt lat="58.059482" lon="38.81227"><ele>103.1</ele><time>2022-01-24T07:44:47Z</time></trkpt><trkpt lat="58.059518" lon="38.812283"><ele>103.2</ele><time>2022-01-24T07:44:48Z</time></trkpt><trkpt lat="58.059532" lon="38.812285"><ele>103.2</ele><time>2022-01-24T07:44:49Z</time></trkpt><trkpt lat="58.059555" lon="38.812292"><ele>103.2</ele><time>2022-01-24T07:44:50Z</time></trkpt><trkpt lat="58.059595" lon="38.81231"><ele>103.3</ele><time>2022-01-24T07:44:52Z</time></trkpt><trkpt lat="58.059625" lon="38.81231"><ele>103.3</ele><time>2022-01-24T07:44:53Z</time></trkpt><trkpt lat="58.059663" lon="38.812307"><ele>103.4</ele><time>2022-01-24T07:44:54Z</time></trkpt><trkpt lat="58.059678" lon="38.812307"><ele>103.4</ele><time>2022-01-24T07:44:55Z</time></trkpt><trkpt lat="58.059712" lon="38.81231"><ele>103.4</ele><time>2022-01-24T07:44:56Z</time></trkpt><trkpt lat="58.059723" lon="38.812308"><ele>103.4</ele><time>2022-01-24T07:44:57Z</time></trkpt><trkpt lat="58.059762" lon="38.812322"><ele>103.5</ele><time>2022-01-24T07:44:58Z</time></trkpt><trkpt lat="58.059773" lon="38.812323"><ele>103.5</ele><time>2022-01-24T07:44:59Z</time></trkpt><trkpt lat="58.0598" lon="38.812332"><ele>103.5</ele><time>2022-01-24T07:45:00Z</time></trkpt><trkpt lat="58.059828" lon="38.812337"><ele>103.6</ele><time>2022-01-24T07:45:01Z</time></trkpt><trkpt lat="58.059895" lon="38.812367"><ele>103.7</ele><time>2022-01-24T07:45:03Z</time></trkpt><trkpt lat="58.05994" lon="38.812392"><ele>103.7</ele><time>2022-01-24T07:45:04Z</time></trkpt><trkpt lat="58.059972" lon="38.812425"><ele>103.7</ele><time>2022-01-24T07:45:05Z</time></trkpt><trkpt lat="58.059997" lon="38.81251"><ele>103.6</ele><time>2022-01-24T07:45:06Z</time></trkpt><trkpt lat="58.060012" lon="38.812617"><ele>103.5</ele><time>2022-01-24T07:45:08Z</time></trkpt><trkpt lat="58.060005" lon="38.812672"><ele>103.5</ele><time>2022-01-24T07:45:09Z</time></trkpt><trkpt lat="58.05999" lon="38.81275"><ele>103.5</ele><time>2022-01-24T07:45:10Z</time></trkpt><trkpt lat="58.059983" lon="38.81278"><ele>103.4</ele><time>2022-01-24T07:45:11Z</time></trkpt><trkpt lat="58.059975" lon="38.812847"><ele>103.4</ele><time>2022-01-24T07:45:12Z</time></trkpt><trkpt lat="58.05996" lon="38.812938"><ele>103.3</ele><time>2022-01-24T07:45:14Z</time></trkpt><trkpt lat="58.059952" lon="38.813002"><ele>103.3</ele><time>2022-01-24T07:45:15Z</time></trkpt><trkpt lat="58.059947" lon="38.81311"><ele>103.2</ele><time>2022-01-24T07:45:16Z</time></trkpt><trkpt lat="58.05994" lon="38.813177"><ele>103.2</ele><time>2022-01-24T07:45:17Z</time></trkpt><trkpt lat="58.059933" lon="38.813237"><ele>103.2</ele><time>2022-01-24T07:45:18Z</time></trkpt><trkpt lat="58.059927" lon="38.813297"><ele>103.1</ele><time>2022-01-24T07:45:19Z</time></trkpt><trkpt lat="58.059925" lon="38.813357"><ele>103.1</ele><time>2022-01-24T07:45:20Z</time></trkpt><trkpt lat="58.059922" lon="38.813437"><ele>103.0</ele><time>2022-01-24T07:45:22Z</time></trkpt><trkpt lat="58.059917" lon="38.813487"><ele>103.0</ele><time>2022-01-24T07:45:23Z</time></trkpt><trkpt lat="58.059913" lon="38.813562"><ele>103.0</ele><time>2022-01-24T07:45:24Z</time></trkpt><trkpt lat="58.059908" lon="38.813635"><ele>102.9</ele><time>2022-01-24T07:45:25Z</time></trkpt><trkpt lat="58.059903" lon="38.81369"><ele>102.9</ele><time>2022-01-24T07:45:26Z</time></trkpt><trkpt lat="58.059897" lon="38.813745"><ele>102.8</ele><time>2022-01-24T07:45:27Z</time></trkpt><trkpt lat="58.05988" lon="38.813807"><ele>102.8</ele><time>2022-01-24T07:45:28Z</time></trkpt><trkpt lat="58.059872" lon="38.813827"><ele>102.8</ele><time>2022-01-24T07:45:29Z</time></trkpt><trkpt lat="58.05985" lon="38.813857"><ele>102.8</ele><time>2022-01-24T07:45:30Z</time></trkpt><trkpt lat="58.059842" lon="38.813865"><ele>102.8</ele><time>2022-01-24T07:45:31Z</time></trkpt><trkpt lat="58.059805" lon="38.813887"><ele>102.7</ele><time>2022-01-24T07:45:32Z</time></trkpt><trkpt lat="58.059792" lon="38.813892"><ele>102.7</ele><time>2022-01-24T07:45:33Z</time></trkpt><trkpt lat="58.059762" lon="38.813887"><ele>102.7</ele><time>2022-01-24T07:45:34Z</time></trkpt><trkpt lat="58.059728" lon="38.81389"><ele>102.6</ele><time>2022-01-24T07:45:35Z</time></trkpt><trkpt lat="58.059697" lon="38.813878"><ele>102.6</ele><time>2022-01-24T07:45:36Z</time></trkpt><trkpt lat="58.059667" lon="38.81387"><ele>102.6</ele><time>2022-01-24T07:45:37Z</time></trkpt><trkpt lat="58.059637" lon="38.813853"><ele>102.5</ele><time>2022-01-24T07:45:38Z</time></trkpt><trkpt lat="58.059605" lon="38.813823"><ele>102.5</ele><time>2022-01-24T07:45:39Z</time></trkpt><trkpt lat="58.059577" lon="38.8138"><ele>102.5</ele><time>2022-01-24T07:45:40Z</time></trkpt><trkpt lat="58.059547" lon="38.813762"><ele>102.4</ele><time>2022-01-24T07:45:41Z</time></trkpt><trkpt lat="58.059518" lon="38.813738"><ele>102.4</ele><time>2022-01-24T07:45:42Z</time></trkpt><trkpt lat="58.05949" lon="38.813713"><ele>102.3</ele><time>2022-01-24T07:45:43Z</time></trkpt><trkpt lat="58.059462" lon="38.81368"><ele>102.3</ele><time>2022-01-24T07:45:44Z</time></trkpt><trkpt lat="58.059433" lon="38.813662"><ele>102.3</ele><time>2022-01-24T07:45:45Z</time></trkpt><trkpt lat="58.059405" lon="38.81364"><ele>102.2</ele><time>2022-01-24T07:45:46Z</time></trkpt><trkpt lat="58.059377" lon="38.813633"><ele>102.2</ele><time>2022-01-24T07:45:47Z</time></trkpt><trkpt lat="58.059347" lon="38.81362"><ele>102.2</ele><time>2022-01-24T07:45:48Z</time></trkpt><trkpt lat="58.05931" lon="38.813592"><ele>102.1</ele><time>2022-01-24T07:45:49Z</time></trkpt><trkpt lat="58.059298" lon="38.813577"><ele>102.1</ele><time>2022-01-24T07:45:50Z</time></trkpt><trkpt lat="58.059272" lon="38.813533"><ele>102.2</ele><time>2022-01-24T07:45:52Z</time></trkpt><trkpt lat="58.059252" lon="38.81347"><ele>102.2</ele><time>2022-01-24T07:45:53Z</time></trkpt><trkpt lat="58.05924" lon="38.813372"><ele>102.3</ele><time>2022-01-24T07:45:55Z</time></trkpt><trkpt lat="58.059237" lon="38.813315"><ele>102.3</ele><time>2022-01-24T07:45:56Z</time></trkpt><trkpt lat="58.059243" lon="38.813202"><ele>102.4</ele><time>2022-01-24T07:45:58Z</time></trkpt><trkpt lat="58.059265" lon="38.813108"><ele>102.5</ele><time>2022-01-24T07:46:00Z</time></trkpt><trkpt lat="58.05928" lon="38.81305"><ele>102.5</ele><time>2022-01-24T07:46:01Z</time></trkpt><trkpt lat="58.0593" lon="38.812993"><ele>102.6</ele><time>2022-01-24T07:46:03Z</time></trkpt><trkpt lat="58.059307" lon="38.81293"><ele>102.6</ele><time>2022-01-24T07:46:04Z</time></trkpt><trkpt lat="58.059313" lon="38.812877"><ele>102.7</ele><time>2022-01-24T07:46:05Z</time></trkpt><trkpt lat="58.059317" lon="38.812828"><ele>102.7</ele><time>2022-01-24T07:46:06Z</time></trkpt><trkpt lat="58.059325" lon="38.812752"><ele>102.7</ele><time>2022-01-24T07:46:08Z</time></trkpt><trkpt lat="58.05933" lon="38.812695"><ele>102.8</ele><time>2022-01-24T07:46:09Z</time></trkpt><trkpt lat="58.059335" lon="38.812642"><ele>102.8</ele><time>2022-01-24T07:46:10Z</time></trkpt><trkpt lat="58.059338" lon="38.812578"><ele>102.9</ele><time>2022-01-24T07:46:11Z</time></trkpt><trkpt lat="58.05934" lon="38.812558"><ele>102.9</ele><time>2022-01-24T07:46:12Z</time></trkpt><trkpt lat="58.059352" lon="38.812487"><ele>102.9</ele><time>2022-01-24T07:46:14Z</time></trkpt><trkpt lat="58.059368" lon="38.812427"><ele>103.0</ele><time>2022-01-24T07:46:15Z</time></trkpt><trkpt lat="58.059373" lon="38.81241"><ele>103.0</ele><time>2022-01-24T07:46:16Z</time></trkpt><trkpt lat="58.059397" lon="38.81237"><ele>103.0</ele><time>2022-01-24T07:46:17Z</time></trkpt><trkpt lat="58.059405" lon="38.812358"><ele>103.0</ele><time>2022-01-24T07:46:18Z</time></trkpt><trkpt lat="58.059462" lon="38.81234"><ele>103.1</ele><time>2022-01-24T07:46:20Z</time></trkpt><trkpt lat="58.059507" lon="38.812347"><ele>103.2</ele><time>2022-01-24T07:46:22Z</time></trkpt><trkpt lat="58.059547" lon="38.812345"><ele>103.2</ele><time>2022-01-24T07:46:23Z</time></trkpt><trkpt lat="58.05958" lon="38.812345"><ele>103.3</ele><time>2022-01-24T07:46:24Z</time></trkpt><trkpt lat="58.05961" lon="38.812347"><ele>103.3</ele><time>2022-01-24T07:46:25Z</time></trkpt><trkpt lat="58.059643" lon="38.81235"><ele>103.3</ele><time>2022-01-24T07:46:26Z</time></trkpt><trkpt lat="58.059672" lon="38.812348"><ele>103.4</ele><time>2022-01-24T07:46:27Z</time></trkpt><trkpt lat="58.0597" lon="38.812357"><ele>103.4</ele><time>2022-01-24T07:46:28Z</time></trkpt><trkpt lat="58.059727" lon="38.81235"><ele>103.4</ele><time>2022-01-24T07:46:29Z</time></trkpt><trkpt lat="58.059753" lon="38.81235"><ele>103.5</ele><time>2022-01-24T07:46:30Z</time></trkpt><trkpt lat="58.059797" lon="38.81237"><ele>103.5</ele><time>2022-01-24T07:46:32Z</time></trkpt><trkpt lat="58.059838" lon="38.812383"><ele>103.6</ele><time>2022-01-24T07:46:33Z</time></trkpt><trkpt lat="58.05987" lon="38.812387"><ele>103.6</ele><time>2022-01-24T07:46:34Z</time></trkpt><trkpt lat="58.059898" lon="38.812393"><ele>103.7</ele><time>2022-01-24T07:46:35Z</time></trkpt><trkpt lat="58.059923" lon="38.812415"><ele>103.7</ele><time>2022-01-24T07:46:36Z</time></trkpt><trkpt lat="58.059952" lon="38.812467"><ele>103.7</ele><time>2022-01-24T07:46:37Z</time></trkpt><trkpt lat="58.05996" lon="38.812488"><ele>103.7</ele><time>2022-01-24T07:46:38Z</time></trkpt><trkpt lat="58.059962" lon="38.812517"><ele>103.7</ele><time>2022-01-24T07:46:39Z</time></trkpt><trkpt lat="58.059967" lon="38.812547"><ele>103.7</ele><time>2022-01-24T07:46:40Z</time></trkpt><trkpt lat="58.059965" lon="38.812602"><ele>103.6</ele><time>2022-01-24T07:46:41Z</time></trkpt><trkpt lat="58.059963" lon="38.81262"><ele>103.6</ele><time>2022-01-24T07:46:42Z</time></trkpt><trkpt lat="58.059962" lon="38.812652"><ele>103.6</ele><time>2022-01-24T07:46:43Z</time></trkpt><trkpt lat="58.05996" lon="38.812687"><ele>103.6</ele><time>2022-01-24T07:46:44Z</time></trkpt><trkpt lat="58.059962" lon="38.812725"><ele>103.5</ele><time>2022-01-24T07:46:45Z</time></trkpt><trkpt lat="58.059962" lon="38.81275"><ele>103.5</ele><time>2022-01-24T07:46:46Z</time></trkpt><trkpt lat="58.05996" lon="38.81277"><ele>103.5</ele><time>2022-01-24T07:46:47Z</time></trkpt><trkpt lat="58.059955" lon="38.812772"><ele>103.5</ele><time>2022-01-24T07:46:48Z</time></trkpt><trkpt lat="58.059952" lon="38.81278"><ele>103.5</ele><time>2022-01-24T07:46:49Z</time></trkpt><trkpt lat="58.05995" lon="38.812782"><ele>103.5</ele><time>2022-01-24T07:46:50Z</time></trkpt><trkpt lat="58.05995" lon="38.812788"><ele>103.5</ele><time>2022-01-24T07:46:51Z</time></trkpt><trkpt lat="58.059948" lon="38.812785"><ele>103.5</ele><time>2022-01-24T07:46:52Z</time></trkpt><trkpt lat="58.059948" lon="38.81278"><ele>103.5</ele><time>2022-01-24T07:46:53Z</time></trkpt><trkpt lat="58.059948" lon="38.812777"><ele>103.5</ele><time>2022-01-24T07:46:54Z</time></trkpt><trkpt lat="58.059947" lon="38.812777"><ele>103.5</ele><time>2022-01-24T07:46:55Z</time></trkpt><trkpt lat="58.059947" lon="38.812778"><ele>103.5</ele><time>2022-01-24T07:46:56Z</time></trkpt><trkpt lat="58.059947" lon="38.81278"><ele>103.5</ele><time>2022-01-24T07:46:57Z</time></trkpt><trkpt lat="58.059947" lon="38.812782"><ele>103.5</ele><time>2022-01-24T07:46:58Z</time></trkpt><trkpt lat="58.059945" lon="38.812783"><ele>103.5</ele><time>2022-01-24T07:46:59Z</time></trkpt><trkpt lat="58.059945" lon="38.81279"><ele>103.5</ele><time>2022-01-24T07:47:00Z</time></trkpt><trkpt lat="58.059945" lon="38.812795"><ele>103.5</ele><time>2022-01-24T07:47:01Z</time></trkpt><trkpt lat="58.059945" lon="38.812797"><ele>103.5</ele><time>2022-01-24T07:47:02Z</time></trkpt><trkpt lat="58.059942" lon="38.81279"><ele>103.5</ele><time>2022-01-24T07:47:03Z</time></trkpt><trkpt lat="58.05994" lon="38.812792"><ele>103.5</ele><time>2022-01-24T07:47:04Z</time></trkpt><trkpt lat="58.05994" lon="38.812797"><ele>103.5</ele><time>2022-01-24T07:47:05Z</time></trkpt><trkpt lat="58.05994" lon="38.8128"><ele>103.5</ele><time>2022-01-24T07:47:06Z</time></trkpt><trkpt lat="58.05994" lon="38.812803"><ele>103.5</ele><time>2022-01-24T07:47:07Z</time></trkpt><trkpt lat="58.059942" lon="38.812812"><ele>103.4</ele><time>2022-01-24T07:47:08Z</time></trkpt><trkpt lat="58.059942" lon="38.812823"><ele>103.4</ele><time>2022-01-24T07:47:09Z</time></trkpt><trkpt lat="58.059943" lon="38.812842"><ele>103.4</ele><time>2022-01-24T07:47:10Z</time></trkpt><trkpt lat="58.059943" lon="38.812855"><ele>103.4</ele><time>2022-01-24T07:47:11Z</time></trkpt><trkpt lat="58.059942" lon="38.812868"><ele>103.4</ele><time>2022-01-24T07:47:12Z</time></trkpt><trkpt lat="58.059942" lon="38.812877"><ele>103.4</ele><time>2022-01-24T07:47:13Z</time></trkpt><trkpt lat="58.059942" lon="38.812882"><ele>103.4</ele><time>2022-01-24T07:47:14Z</time></trkpt><trkpt lat="58.059943" lon="38.81289"><ele>103.4</ele><time>2022-01-24T07:47:15Z</time></trkpt><trkpt lat="58.059943" lon="38.81289"><ele>103.4</ele><time>2022-01-24T07:47:16Z</time></trkpt><trkpt lat="58.059943" lon="38.812887"><ele>103.4</ele><time>2022-01-24T07:47:17Z</time></trkpt><trkpt lat="58.059945" lon="38.812887"><ele>103.4</ele><time>2022-01-24T07:47:18Z</time></trkpt><trkpt lat="58.059945" lon="38.812887"><ele>103.4</ele><time>2022-01-24T07:47:19Z</time></trkpt><trkpt lat="58.059945" lon="38.812893"><ele>103.4</ele><time>2022-01-24T07:47:20Z</time></trkpt><trkpt lat="58.059945" lon="38.812897"><ele>103.4</ele><time>2022-01-24T07:47:21Z</time></trkpt><trkpt lat="58.059945" lon="38.8129"><ele>103.4</ele><time>2022-01-24T07:47:22Z</time></trkpt><trkpt lat="58.059947" lon="38.812902"><ele>103.4</ele><time>2022-01-24T07:47:23Z</time></trkpt><trkpt lat="58.059947" lon="38.812903"><ele>103.4</ele><time>2022-01-24T07:47:24Z</time></trkpt><trkpt lat="58.059947" lon="38.812905"><ele>103.4</ele><time>2022-01-24T07:47:25Z</time></trkpt><trkpt lat="58.059947" lon="38.812905"><ele>103.4</ele><time>2022-01-24T07:47:26Z</time></trkpt><trkpt lat="58.059947" lon="38.812907"><ele>103.4</ele><time>2022-01-24T07:47:27Z</time></trkpt><trkpt lat="58.059947" lon="38.812915"><ele>103.4</ele><time>2022-01-24T07:47:28Z</time></trkpt><trkpt lat="58.059947" lon="38.81292"><ele>103.4</ele><time>2022-01-24T07:47:29Z</time></trkpt><trkpt lat="58.059947" lon="38.812927"><ele>103.4</ele><time>2022-01-24T07:47:30Z</time></trkpt><trkpt lat="58.059945" lon="38.812933"><ele>103.4</ele><time>2022-01-24T07:47:31Z</time></trkpt><trkpt lat="58.059945" lon="38.81294"><ele>103.4</ele><time>2022-01-24T07:47:32Z</time></trkpt><trkpt lat="58.059945" lon="38.812945"><ele>103.4</ele><time>2022-01-24T07:47:33Z</time></trkpt><trkpt lat="58.059943" lon="38.812952"><ele>103.3</ele><time>2022-01-24T07:47:34Z</time></trkpt><trkpt lat="58.059943" lon="38.812958"><ele>103.3</ele><time>2022-01-24T07:47:35Z</time></trkpt><trkpt lat="58.059942" lon="38.812963"><ele>103.3</ele><time>2022-01-24T07:47:36Z</time></trkpt><trkpt lat="58.059942" lon="38.812972"><ele>103.3</ele><time>2022-01-24T07:47:37Z</time></trkpt><trkpt lat="58.059942" lon="38.812977"><ele>103.3</ele><time>2022-01-24T07:47:38Z</time></trkpt><trkpt lat="58.059942" lon="38.812983"><ele>103.3</ele><time>2022-01-24T07:47:39Z</time></trkpt><trkpt lat="58.05994" lon="38.81299"><ele>103.3</ele><time>2022-01-24T07:47:40Z</time></trkpt><trkpt lat="58.05994" lon="38.812997"><ele>103.3</ele><time>2022-01-24T07:47:41Z</time></trkpt><trkpt lat="58.05994" lon="38.813002"><ele>103.3</ele><time>2022-01-24T07:47:42Z</time></trkpt><trkpt lat="58.059938" lon="38.813008"><ele>103.3</ele><time>2022-01-24T07:47:43Z</time></trkpt><trkpt lat="58.059938" lon="38.813015"><ele>103.3</ele><time>2022-01-24T07:47:44Z</time></trkpt><trkpt lat="58.059937" lon="38.813022"><ele>103.3</ele><time>2022-01-24T07:47:45Z</time></trkpt><trkpt lat="58.059937" lon="38.813027"><ele>103.3</ele><time>2022-01-24T07:47:46Z</time></trkpt><trkpt lat="58.059937" lon="38.813033"><ele>103.3</ele><time>2022-01-24T07:47:47Z</time></trkpt><trkpt lat="58.059937" lon="38.81304"><ele>103.3</ele><time>2022-01-24T07:47:48Z</time></trkpt><trkpt lat="58.059935" lon="38.813047"><ele>103.3</ele><time>2022-01-24T07:47:49Z</time></trkpt><trkpt lat="58.059935" lon="38.813052"><ele>103.3</ele><time>2022-01-24T07:47:50Z</time></trkpt><trkpt lat="58.05993" lon="38.813082"><ele>103.3</ele><time>2022-01-24T07:47:51Z</time></trkpt><trkpt lat="58.05993" lon="38.813105"><ele>103.2</ele><time>2022-01-24T07:47:52Z</time></trkpt><trkpt lat="58.05993" lon="38.813165"><ele>103.2</ele><time>2022-01-24T07:47:53Z</time></trkpt><trkpt lat="58.059927" lon="38.81319"><ele>103.2</ele><time>2022-01-24T07:47:54Z</time></trkpt><trkpt lat="58.059925" lon="38.813255"><ele>103.1</ele><time>2022-01-24T07:47:55Z</time></trkpt><trkpt lat="58.059922" lon="38.813308"><ele>103.1</ele><time>2022-01-24T07:47:56Z</time></trkpt><trkpt lat="58.059922" lon="38.813362"><ele>103.1</ele><time>2022-01-24T07:47:57Z</time></trkpt><trkpt lat="58.059923" lon="38.813425"><ele>103.0</ele><time>2022-01-24T07:47:58Z</time></trkpt><trkpt lat="58.05992" lon="38.813488"><ele>103.0</ele><time>2022-01-24T07:47:59Z</time></trkpt><trkpt lat="58.059912" lon="38.813552"><ele>103.0</ele><time>2022-01-24T07:48:00Z</time></trkpt><trkpt lat="58.059903" lon="38.813617"><ele>102.9</ele><time>2022-01-24T07:48:01Z</time></trkpt><trkpt lat="58.059897" lon="38.813682"><ele>102.9</ele><time>2022-01-24T07:48:02Z</time></trkpt><trkpt lat="58.059887" lon="38.81374"><ele>102.8</ele><time>2022-01-24T07:48:03Z</time></trkpt><trkpt lat="58.05987" lon="38.813795"><ele>102.8</ele><time>2022-01-24T07:48:04Z</time></trkpt><trkpt lat="58.059848" lon="38.813835"><ele>102.8</ele><time>2022-01-24T07:48:05Z</time></trkpt><trkpt lat="58.059827" lon="38.81387"><ele>102.7</ele><time>2022-01-24T07:48:06Z</time></trkpt><trkpt lat="58.059792" lon="38.813892"><ele>102.7</ele><time>2022-01-24T07:48:07Z</time></trkpt><trkpt lat="58.059782" lon="38.813893"><ele>102.7</ele><time>2022-01-24T07:48:08Z</time></trkpt><trkpt lat="58.05975" lon="38.813878"><ele>102.7</ele><time>2022-01-24T07:48:09Z</time></trkpt><trkpt lat="58.05974" lon="38.813875"><ele>102.6</ele><time>2022-01-24T07:48:10Z</time></trkpt><trkpt lat="58.059708" lon="38.813855"><ele>102.6</ele><time>2022-01-24T07:48:11Z</time></trkpt><trkpt lat="58.059695" lon="38.813848"><ele>102.6</ele><time>2022-01-24T07:48:12Z</time></trkpt><trkpt lat="58.05966" lon="38.813842"><ele>102.6</ele><time>2022-01-24T07:48:13Z</time></trkpt><trkpt lat="58.059625" lon="38.813832"><ele>102.5</ele><time>2022-01-24T07:48:14Z</time></trkpt><trkpt lat="58.059585" lon="38.813812"><ele>102.5</ele><time>2022-01-24T07:48:15Z</time></trkpt><trkpt lat="58.059552" lon="38.81378"><ele>102.4</ele><time>2022-01-24T07:48:16Z</time></trkpt><trkpt lat="58.05949" lon="38.813722"><ele>102.3</ele><time>2022-01-24T07:48:18Z</time></trkpt><trkpt lat="58.05944" lon="38.813682"><ele>102.3</ele><time>2022-01-24T07:48:19Z</time></trkpt><trkpt lat="58.059398" lon="38.81366"><ele>102.2</ele><time>2022-01-24T07:48:20Z</time></trkpt><trkpt lat="58.05936" lon="38.81364"><ele>102.2</ele><time>2022-01-24T07:48:21Z</time></trkpt><trkpt lat="58.05932" lon="38.813622"><ele>102.1</ele><time>2022-01-24T07:48:22Z</time></trkpt><trkpt lat="58.059283" lon="38.8136"><ele>102.1</ele><time>2022-01-24T07:48:23Z</time></trkpt><trkpt lat="58.059253" lon="38.813552"><ele>102.2</ele><time>2022-01-24T07:48:24Z</time></trkpt><trkpt lat="58.059233" lon="38.813487"><ele>102.2</ele><time>2022-01-24T07:48:25Z</time></trkpt><trkpt lat="58.05922" lon="38.813423"><ele>102.2</ele><time>2022-01-24T07:48:26Z</time></trkpt><trkpt lat="58.059222" lon="38.813365"><ele>102.3</ele><time>2022-01-24T07:48:27Z</time></trkpt><trkpt lat="58.059215" lon="38.813287"><ele>102.3</ele><time>2022-01-24T07:48:28Z</time></trkpt><trkpt lat="58.05921" lon="38.813257"><ele>102.4</ele><time>2022-01-24T07:48:29Z</time></trkpt><trkpt lat="58.059215" lon="38.813197"><ele>102.4</ele><time>2022-01-24T07:48:30Z</time></trkpt><trkpt lat="58.059222" lon="38.81314"><ele>102.4</ele><time>2022-01-24T07:48:31Z</time></trkpt><trkpt lat="58.059237" lon="38.813087"><ele>102.5</ele><time>2022-01-24T07:48:32Z</time></trkpt><trkpt lat="58.059252" lon="38.813038"><ele>102.5</ele><time>2022-01-24T07:48:33Z</time></trkpt><trkpt lat="58.059267" lon="38.812993"><ele>102.5</ele><time>2022-01-24T07:48:34Z</time></trkpt><trkpt lat="58.05928" lon="38.812933"><ele>102.6</ele><time>2022-01-24T07:48:35Z</time></trkpt><trkpt lat="58.059283" lon="38.812915"><ele>102.6</ele><time>2022-01-24T07:48:36Z</time></trkpt><trkpt lat="58.059297" lon="38.812847"><ele>102.7</ele><time>2022-01-24T07:48:38Z</time></trkpt><trkpt lat="58.059298" lon="38.81282"><ele>102.7</ele><time>2022-01-24T07:48:39Z</time></trkpt><trkpt lat="58.059305" lon="38.812748"><ele>102.7</ele><time>2022-01-24T07:48:40Z</time></trkpt><trkpt lat="58.059307" lon="38.812723"><ele>102.7</ele><time>2022-01-24T07:48:41Z</time></trkpt><trkpt lat="58.059317" lon="38.812652"><ele>102.8</ele><time>2022-01-24T07:48:42Z</time></trkpt><trkpt lat="58.05932" lon="38.812627"><ele>102.8</ele><time>2022-01-24T07:48:43Z</time></trkpt><trkpt lat="58.059325" lon="38.812577"><ele>102.8</ele><time>2022-01-24T07:48:44Z</time></trkpt><trkpt lat="58.059333" lon="38.81251"><ele>102.9</ele><time>2022-01-24T07:48:45Z</time></trkpt><trkpt lat="58.059335" lon="38.81249"><ele>102.9</ele><time>2022-01-24T07:48:46Z</time></trkpt><trkpt lat="58.059355" lon="38.81245"><ele>102.9</ele><time>2022-01-24T07:48:48Z</time></trkpt><trkpt lat="58.059378" lon="38.812385"><ele>103.0</ele><time>2022-01-24T07:48:49Z</time></trkpt><trkpt lat="58.059412" lon="38.81234"><ele>103.0</ele><time>2022-01-24T07:48:50Z</time></trkpt><trkpt lat="58.059425" lon="38.81233"><ele>103.0</ele><time>2022-01-24T07:48:51Z</time></trkpt><trkpt lat="58.059462" lon="38.812312"><ele>103.1</ele><time>2022-01-24T07:48:52Z</time></trkpt><trkpt lat="58.059473" lon="38.812308"><ele>103.1</ele><time>2022-01-24T07:48:53Z</time></trkpt><trkpt lat="58.0595" lon="38.812302"><ele>103.1</ele><time>2022-01-24T07:48:54Z</time></trkpt><trkpt lat="58.059532" lon="38.812297"><ele>103.2</ele><time>2022-01-24T07:48:55Z</time></trkpt><trkpt lat="58.059563" lon="38.812293"><ele>103.2</ele><time>2022-01-24T07:48:56Z</time></trkpt><trkpt lat="58.059597" lon="38.812287"><ele>103.3</ele><time>2022-01-24T07:48:57Z</time></trkpt><trkpt lat="58.059635" lon="38.812278"><ele>103.3</ele><time>2022-01-24T07:48:58Z</time></trkpt><trkpt lat="58.059677" lon="38.81228"><ele>103.4</ele><time>2022-01-24T07:48:59Z</time></trkpt><trkpt lat="58.05972" lon="38.812282"><ele>103.4</ele><time>2022-01-24T07:49:00Z</time></trkpt><trkpt lat="58.059762" lon="38.812283"><ele>103.5</ele><time>2022-01-24T07:49:01Z</time></trkpt><trkpt lat="58.0598" lon="38.812288"><ele>103.5</ele><time>2022-01-24T07:49:02Z</time></trkpt><trkpt lat="58.059832" lon="38.812302"><ele>103.6</ele><time>2022-01-24T07:49:03Z</time></trkpt><trkpt lat="58.059862" lon="38.812315"><ele>103.6</ele><time>2022-01-24T07:49:04Z</time></trkpt><trkpt lat="58.059895" lon="38.812332"><ele>103.6</ele><time>2022-01-24T07:49:05Z</time></trkpt><trkpt lat="58.059927" lon="38.812362"><ele>103.7</ele><time>2022-01-24T07:49:06Z</time></trkpt><trkpt lat="58.059955" lon="38.812403"><ele>103.7</ele><time>2022-01-24T07:49:07Z</time></trkpt><trkpt lat="58.059977" lon="38.812457"><ele>103.7</ele><time>2022-01-24T07:49:08Z</time></trkpt><trkpt lat="58.059993" lon="38.812525"><ele>103.6</ele><time>2022-01-24T07:49:09Z</time></trkpt><trkpt lat="58.060005" lon="38.812607"><ele>103.6</ele><time>2022-01-24T07:49:10Z</time></trkpt><trkpt lat="58.060012" lon="38.812775"><ele>103.5</ele><time>2022-01-24T07:49:12Z</time></trkpt><trkpt lat="58.060015" lon="38.812845"><ele>103.4</ele><time>2022-01-24T07:49:13Z</time></trkpt><trkpt lat="58.060007" lon="38.812943"><ele>103.4</ele><time>2022-01-24T07:49:14Z</time></trkpt><trkpt lat="58.06" lon="38.813035"><ele>103.3</ele><time>2022-01-24T07:49:15Z</time></trkpt><trkpt lat="58.059992" lon="38.813125"><ele>103.3</ele><time>2022-01-24T07:49:16Z</time></trkpt><trkpt lat="58.059965" lon="38.813233"><ele>103.2</ele><time>2022-01-24T07:49:18Z</time></trkpt><trkpt lat="58.059957" lon="38.813367"><ele>103.1</ele><time>2022-01-24T07:49:19Z</time></trkpt><trkpt lat="58.059943" lon="38.813452"><ele>103.1</ele><time>2022-01-24T07:49:20Z</time></trkpt><trkpt lat="58.059938" lon="38.813527"><ele>103.0</ele><time>2022-01-24T07:49:21Z</time></trkpt><trkpt lat="58.059935" lon="38.8136"><ele>103.0</ele><time>2022-01-24T07:49:22Z</time></trkpt><trkpt lat="58.059927" lon="38.813667"><ele>103.0</ele><time>2022-01-24T07:49:23Z</time></trkpt><trkpt lat="58.059918" lon="38.813738"><ele>102.9</ele><time>2022-01-24T07:49:24Z</time></trkpt><trkpt lat="58.059907" lon="38.813807"><ele>102.9</ele><time>2022-01-24T07:49:25Z</time></trkpt><trkpt lat="58.05989" lon="38.813867"><ele>102.8</ele><time>2022-01-24T07:49:26Z</time></trkpt><trkpt lat="58.059863" lon="38.813917"><ele>102.8</ele><time>2022-01-24T07:49:27Z</time></trkpt><trkpt lat="58.05983" lon="38.813957"><ele>102.8</ele><time>2022-01-24T07:49:28Z</time></trkpt><trkpt lat="58.059797" lon="38.813978"><ele>102.7</ele><time>2022-01-24T07:49:29Z</time></trkpt><trkpt lat="58.059752" lon="38.813975"><ele>102.7</ele><time>2022-01-24T07:49:30Z</time></trkpt><trkpt lat="58.05972" lon="38.813977"><ele>102.6</ele><time>2022-01-24T07:49:31Z</time></trkpt><trkpt lat="58.059692" lon="38.81398"><ele>102.6</ele><time>2022-01-24T07:49:32Z</time></trkpt><trkpt lat="58.059665" lon="38.813977"><ele>102.6</ele><time>2022-01-24T07:49:33Z</time></trkpt><trkpt lat="58.05963" lon="38.813927"><ele>102.5</ele><time>2022-01-24T07:49:34Z</time></trkpt><trkpt lat="58.059617" lon="38.8139"><ele>102.5</ele><time>2022-01-24T07:49:35Z</time></trkpt><trkpt lat="58.059582" lon="38.813867"><ele>102.5</ele><time>2022-01-24T07:49:36Z</time></trkpt><trkpt lat="58.05957" lon="38.813852"><ele>102.4</ele><time>2022-01-24T07:49:37Z</time></trkpt><trkpt lat="58.059547" lon="38.813825"><ele>102.4</ele><time>2022-01-24T07:49:38Z</time></trkpt><trkpt lat="58.059512" lon="38.8138"><ele>102.4</ele><time>2022-01-24T07:49:39Z</time></trkpt><trkpt lat="58.0595" lon="38.813792"><ele>102.4</ele><time>2022-01-24T07:49:40Z</time></trkpt><trkpt lat="58.059467" lon="38.813765"><ele>102.3</ele><time>2022-01-24T07:49:41Z</time></trkpt><trkpt lat="58.059455" lon="38.813757"><ele>102.3</ele><time>2022-01-24T07:49:42Z</time></trkpt><trkpt lat="58.059422" lon="38.813722"><ele>102.3</ele><time>2022-01-24T07:49:43Z</time></trkpt><trkpt lat="58.05941" lon="38.813712"><ele>102.2</ele><time>2022-01-24T07:49:44Z</time></trkpt><trkpt lat="58.059362" lon="38.813677"><ele>102.2</ele><time>2022-01-24T07:49:46Z</time></trkpt><trkpt lat="58.059325" lon="38.813638"><ele>102.1</ele><time>2022-01-24T07:49:48Z</time></trkpt><trkpt lat="58.059295" lon="38.813613"><ele>102.1</ele><time>2022-01-24T07:49:49Z</time></trkpt><trkpt lat="58.059277" lon="38.813553"><ele>102.2</ele><time>2022-01-24T07:49:50Z</time></trkpt><trkpt lat="58.059272" lon="38.813528"><ele>102.2</ele><time>2022-01-24T07:49:51Z</time></trkpt><trkpt lat="58.059272" lon="38.813465"><ele>102.2</ele><time>2022-01-24T07:49:52Z</time></trkpt><trkpt lat="58.059277" lon="38.8134"><ele>102.3</ele><time>2022-01-24T07:49:53Z</time></trkpt><trkpt lat="58.059287" lon="38.813335"><ele>102.3</ele><time>2022-01-24T07:49:54Z</time></trkpt><trkpt lat="58.059297" lon="38.813285"><ele>102.3</ele><time>2022-01-24T07:49:55Z</time></trkpt><trkpt lat="58.059305" lon="38.813235"><ele>102.4</ele><time>2022-01-24T07:49:56Z</time></trkpt><trkpt lat="58.059323" lon="38.813182"><ele>102.4</ele><time>2022-01-24T07:49:58Z</time></trkpt><trkpt lat="58.059335" lon="38.813102"><ele>102.5</ele><time>2022-01-24T07:49:59Z</time></trkpt><trkpt lat="58.059342" lon="38.813047"><ele>102.5</ele><time>2022-01-24T07:50:00Z</time></trkpt><trkpt lat="58.059342" lon="38.81303"><ele>102.5</ele><time>2022-01-24T07:50:01Z</time></trkpt><trkpt lat="58.05934" lon="38.813002"><ele>102.5</ele><time>2022-01-24T07:50:02Z</time></trkpt><trkpt lat="58.059337" lon="38.81298"><ele>102.6</ele><time>2022-01-24T07:50:03Z</time></trkpt><trkpt lat="58.059333" lon="38.812952"><ele>102.6</ele><time>2022-01-24T07:50:04Z</time></trkpt><trkpt lat="58.059328" lon="38.812882"><ele>102.6</ele><time>2022-01-24T07:50:06Z</time></trkpt><trkpt lat="58.059332" lon="38.812823"><ele>102.7</ele><time>2022-01-24T07:50:07Z</time></trkpt><trkpt lat="58.059335" lon="38.812803"><ele>102.7</ele><time>2022-01-24T07:50:08Z</time></trkpt><trkpt lat="58.05935" lon="38.81274"><ele>102.7</ele><time>2022-01-24T07:50:09Z</time></trkpt><trkpt lat="58.059352" lon="38.812717"><ele>102.7</ele><time>2022-01-24T07:50:10Z</time></trkpt><trkpt lat="58.059355" lon="38.812652"><ele>102.8</ele><time>2022-01-24T07:50:11Z</time></trkpt><trkpt lat="58.059357" lon="38.812633"><ele>102.8</ele><time>2022-01-24T07:50:12Z</time></trkpt><trkpt lat="58.059367" lon="38.812575"><ele>102.8</ele><time>2022-01-24T07:50:13Z</time></trkpt><trkpt lat="58.05937" lon="38.812557"><ele>102.9</ele><time>2022-01-24T07:50:14Z</time></trkpt><trkpt lat="58.059375" lon="38.812525"><ele>102.9</ele><time>2022-01-24T07:50:15Z</time></trkpt><trkpt lat="58.059378" lon="38.812492"><ele>102.9</ele><time>2022-01-24T07:50:16Z</time></trkpt><trkpt lat="58.059412" lon="38.812425"><ele>103.0</ele><time>2022-01-24T07:50:18Z</time></trkpt><trkpt lat="58.059425" lon="38.812407"><ele>103.0</ele><time>2022-01-24T07:50:19Z</time></trkpt><trkpt lat="58.059437" lon="38.812392"><ele>103.0</ele><time>2022-01-24T07:50:20Z</time></trkpt><trkpt lat="58.059473" lon="38.812377"><ele>103.0</ele><time>2022-01-24T07:50:21Z</time></trkpt><trkpt lat="58.059487" lon="38.812375"><ele>103.1</ele><time>2022-01-24T07:50:22Z</time></trkpt><trkpt lat="58.05952" lon="38.812378"><ele>103.1</ele><time>2022-01-24T07:50:23Z</time></trkpt><trkpt lat="58.059545" lon="38.81238"><ele>103.1</ele><time>2022-01-24T07:50:24Z</time></trkpt><trkpt lat="58.059607" lon="38.812362"><ele>103.2</ele><time>2022-01-24T07:50:26Z</time></trkpt><trkpt lat="58.05967" lon="38.812338"><ele>103.3</ele><time>2022-01-24T07:50:28Z</time></trkpt><trkpt lat="58.059707" lon="38.812335"><ele>103.3</ele><time>2022-01-24T07:50:29Z</time></trkpt><trkpt lat="58.059745" lon="38.812335"><ele>103.4</ele><time>2022-01-24T07:50:30Z</time></trkpt><trkpt lat="58.059778" lon="38.81234"><ele>103.4</ele><time>2022-01-24T07:50:31Z</time></trkpt><trkpt lat="58.059812" lon="38.812352"><ele>103.5</ele><time>2022-01-24T07:50:32Z</time></trkpt><trkpt lat="58.059832" lon="38.812367"><ele>103.5</ele><time>2022-01-24T07:50:33Z</time></trkpt><trkpt lat="58.059835" lon="38.812375"><ele>103.5</ele><time>2022-01-24T07:50:34Z</time></trkpt><trkpt lat="58.05982" lon="38.812385"><ele>103.5</ele><time>2022-01-24T07:50:35Z</time></trkpt><trkpt lat="58.059808" lon="38.812392"><ele>103.6</ele><time>2022-01-24T07:50:36Z</time></trkpt><trkpt lat="58.05981" lon="38.812395"><ele>103.6</ele><time>2022-01-24T07:50:37Z</time></trkpt><trkpt lat="58.05983" lon="38.81239"><ele>103.6</ele><time>2022-01-24T07:50:39Z</time></trkpt><trkpt lat="58.059863" lon="38.812392"><ele>103.6</ele><time>2022-01-24T07:50:40Z</time></trkpt><trkpt lat="58.05989" lon="38.812403"><ele>103.7</ele><time>2022-01-24T07:50:41Z</time></trkpt><trkpt lat="58.059925" lon="38.81243"><ele>103.7</ele><time>2022-01-24T07:50:42Z</time></trkpt><trkpt lat="58.059937" lon="38.812442"><ele>103.7</ele><time>2022-01-24T07:50:43Z</time></trkpt><trkpt lat="58.059958" lon="38.81249"><ele>103.7</ele><time>2022-01-24T07:50:44Z</time></trkpt><trkpt lat="58.059965" lon="38.812552"><ele>103.6</ele><time>2022-01-24T07:50:45Z</time></trkpt><trkpt lat="58.059968" lon="38.812682"><ele>103.5</ele><time>2022-01-24T07:50:47Z</time></trkpt><trkpt lat="58.059962" lon="38.812797"><ele>103.5</ele><time>2022-01-24T07:50:49Z</time></trkpt><trkpt lat="58.059953" lon="38.812912"><ele>103.4</ele><time>2022-01-24T07:50:50Z</time></trkpt><trkpt lat="58.059943" lon="38.812987"><ele>103.3</ele><time>2022-01-24T07:50:51Z</time></trkpt><trkpt lat="58.059932" lon="38.813063"><ele>103.3</ele><time>2022-01-24T07:50:52Z</time></trkpt><trkpt lat="58.059922" lon="38.813145"><ele>103.2</ele><time>2022-01-24T07:50:53Z</time></trkpt><trkpt lat="58.059912" lon="38.813225"><ele>103.2</ele><time>2022-01-24T07:50:54Z</time></trkpt><trkpt lat="58.059902" lon="38.813395"><ele>103.1</ele><time>2022-01-24T07:50:56Z</time></trkpt><trkpt lat="58.059895" lon="38.813477"><ele>103.0</ele><time>2022-01-24T07:50:57Z</time></trkpt><trkpt lat="58.059893" lon="38.813557"><ele>103.0</ele><time>2022-01-24T07:50:58Z</time></trkpt><trkpt lat="58.059895" lon="38.813637"><ele>102.9</ele><time>2022-01-24T07:50:59Z</time></trkpt><trkpt lat="58.059888" lon="38.813707"><ele>102.9</ele><time>2022-01-24T07:51:00Z</time></trkpt><trkpt lat="58.05988" lon="38.813775"><ele>102.8</ele><time>2022-01-24T07:51:01Z</time></trkpt><trkpt lat="58.059865" lon="38.813835"><ele>102.8</ele><time>2022-01-24T07:51:02Z</time></trkpt><trkpt lat="58.059842" lon="38.813882"><ele>102.8</ele><time>2022-01-24T07:51:03Z</time></trkpt><trkpt lat="58.059812" lon="38.813913"><ele>102.7</ele><time>2022-01-24T07:51:04Z</time></trkpt><trkpt lat="58.059772" lon="38.813927"><ele>102.7</ele><time>2022-01-24T07:51:05Z</time></trkpt><trkpt lat="58.059758" lon="38.813927"><ele>102.7</ele><time>2022-01-24T07:51:06Z</time></trkpt><trkpt lat="58.059725" lon="38.813905"><ele>102.6</ele><time>2022-01-24T07:51:07Z</time></trkpt><trkpt lat="58.059688" lon="38.813877"><ele>102.6</ele><time>2022-01-24T07:51:08Z</time></trkpt><trkpt lat="58.05966" lon="38.813858"><ele>102.6</ele><time>2022-01-24T07:51:09Z</time></trkpt><trkpt lat="58.059632" lon="38.813838"><ele>102.5</ele><time>2022-01-24T07:51:10Z</time></trkpt><trkpt lat="58.059602" lon="38.813822"><ele>102.5</ele><time>2022-01-24T07:51:11Z</time></trkpt><trkpt lat="58.059567" lon="38.813778"><ele>102.5</ele><time>2022-01-24T07:51:12Z</time></trkpt><trkpt lat="58.059553" lon="38.81376"><ele>102.4</ele><time>2022-01-24T07:51:13Z</time></trkpt><trkpt lat="58.059525" lon="38.81373"><ele>102.4</ele><time>2022-01-24T07:51:14Z</time></trkpt><trkpt lat="58.059492" lon="38.813697"><ele>102.4</ele><time>2022-01-24T07:51:15Z</time></trkpt><trkpt lat="58.05948" lon="38.813687"><ele>102.3</ele><time>2022-01-24T07:51:16Z</time></trkpt><trkpt lat="58.059455" lon="38.813665"><ele>102.3</ele><time>2022-01-24T07:51:17Z</time></trkpt><trkpt lat="58.059405" lon="38.813633"><ele>102.3</ele><time>2022-01-24T07:51:19Z</time></trkpt><trkpt lat="58.05937" lon="38.813622"><ele>102.2</ele><time>2022-01-24T07:51:20Z</time></trkpt><trkpt lat="58.059338" lon="38.813612"><ele>102.2</ele><time>2022-01-24T07:51:21Z</time></trkpt><trkpt lat="58.05929" lon="38.813583"><ele>102.1</ele><time>2022-01-24T07:51:23Z</time></trkpt><trkpt lat="58.05927" lon="38.813545"><ele>102.1</ele><time>2022-01-24T07:51:24Z</time></trkpt><trkpt lat="58.059265" lon="38.81353"><ele>102.2</ele><time>2022-01-24T07:51:25Z</time></trkpt><trkpt lat="58.05927" lon="38.813498"><ele>102.2</ele><time>2022-01-24T07:51:26Z</time></trkpt><trkpt lat="58.059278" lon="38.813472"><ele>102.2</ele><time>2022-01-24T07:51:27Z</time></trkpt><trkpt lat="58.059282" lon="38.81342"><ele>102.3</ele><time>2022-01-24T07:51:28Z</time></trkpt><trkpt lat="58.059287" lon="38.8134"><ele>102.3</ele><time>2022-01-24T07:51:29Z</time></trkpt><trkpt lat="58.059297" lon="38.813332"><ele>102.3</ele><time>2022-01-24T07:51:30Z</time></trkpt><trkpt lat="58.0593" lon="38.813307"><ele>102.3</ele><time>2022-01-24T07:51:31Z</time></trkpt><trkpt lat="58.059307" lon="38.813255"><ele>102.4</ele><time>2022-01-24T07:51:32Z</time></trkpt><trkpt lat="58.059308" lon="38.813202"><ele>102.4</ele><time>2022-01-24T07:51:33Z</time></trkpt><trkpt lat="58.059315" lon="38.81314"><ele>102.5</ele><time>2022-01-24T07:51:34Z</time></trkpt><trkpt lat="58.059322" lon="38.813075"><ele>102.5</ele><time>2022-01-24T07:51:35Z</time></trkpt><trkpt lat="58.059325" lon="38.813015"><ele>102.5</ele><time>2022-01-24T07:51:36Z</time></trkpt><trkpt lat="58.059335" lon="38.812942"><ele>102.6</ele><time>2022-01-24T07:51:37Z</time></trkpt><trkpt lat="58.059337" lon="38.812917"><ele>102.6</ele><time>2022-01-24T07:51:38Z</time></trkpt><trkpt lat="58.05934" lon="38.812878"><ele>102.6</ele><time>2022-01-24T07:51:39Z</time></trkpt><trkpt lat="58.059338" lon="38.81285"><ele>102.7</ele><time>2022-01-24T07:51:40Z</time></trkpt><trkpt lat="58.059335" lon="38.81283"><ele>102.7</ele><time>2022-01-24T07:51:41Z</time></trkpt><trkpt lat="58.059333" lon="38.812797"><ele>102.7</ele><time>2022-01-24T07:51:42Z</time></trkpt><trkpt lat="58.059335" lon="38.812747"><ele>102.7</ele><time>2022-01-24T07:51:43Z</time></trkpt><trkpt lat="58.059337" lon="38.81273"><ele>102.7</ele><time>2022-01-24T07:51:44Z</time></trkpt><trkpt lat="58.059343" lon="38.812668"><ele>102.8</ele><time>2022-01-24T07:51:45Z</time></trkpt><trkpt lat="58.059345" lon="38.81265"><ele>102.8</ele><time>2022-01-24T07:51:46Z</time></trkpt><trkpt lat="58.05935" lon="38.812612"><ele>102.8</ele><time>2022-01-24T07:51:47Z</time></trkpt><trkpt lat="58.059365" lon="38.812568"><ele>102.9</ele><time>2022-01-24T07:51:49Z</time></trkpt><trkpt lat="58.059375" lon="38.812502"><ele>102.9</ele><time>2022-01-24T07:51:50Z</time></trkpt><trkpt lat="58.059385" lon="38.812452"><ele>103.0</ele><time>2022-01-24T07:51:51Z</time></trkpt><trkpt lat="58.059387" lon="38.812432"><ele>103.0</ele><time>2022-01-24T07:51:52Z</time></trkpt><trkpt lat="58.059413" lon="38.812395"><ele>103.0</ele><time>2022-01-24T07:51:54Z</time></trkpt><trkpt lat="58.05946" lon="38.812353"><ele>103.1</ele><time>2022-01-24T07:51:55Z</time></trkpt><trkpt lat="58.059487" lon="38.812355"><ele>103.1</ele><time>2022-01-24T07:51:56Z</time></trkpt><trkpt lat="58.059528" lon="38.812358"><ele>103.2</ele><time>2022-01-24T07:51:57Z</time></trkpt><trkpt lat="58.059542" lon="38.812365"><ele>103.2</ele><time>2022-01-24T07:51:58Z</time></trkpt><trkpt lat="58.059577" lon="38.812362"><ele>103.2</ele><time>2022-01-24T07:51:59Z</time></trkpt><trkpt lat="58.059607" lon="38.812357"><ele>103.3</ele><time>2022-01-24T07:52:00Z</time></trkpt><trkpt lat="58.05964" lon="38.812353"><ele>103.3</ele><time>2022-01-24T07:52:01Z</time></trkpt><trkpt lat="58.059677" lon="38.812352"><ele>103.4</ele><time>2022-01-24T07:52:02Z</time></trkpt><trkpt lat="58.05971" lon="38.812352"><ele>103.4</ele><time>2022-01-24T07:52:03Z</time></trkpt><trkpt lat="58.059743" lon="38.812352"><ele>103.5</ele><time>2022-01-24T07:52:04Z</time></trkpt><trkpt lat="58.05978" lon="38.812358"><ele>103.5</ele><time>2022-01-24T07:52:05Z</time></trkpt><trkpt lat="58.05981" lon="38.812368"><ele>103.5</ele><time>2022-01-24T07:52:06Z</time></trkpt><trkpt lat="58.05985" lon="38.81238"><ele>103.6</ele><time>2022-01-24T07:52:07Z</time></trkpt><trkpt lat="58.059862" lon="38.812383"><ele>103.6</ele><time>2022-01-24T07:52:08Z</time></trkpt><trkpt lat="58.059895" lon="38.812398"><ele>103.7</ele><time>2022-01-24T07:52:09Z</time></trkpt><trkpt lat="58.059923" lon="38.812422"><ele>103.7</ele><time>2022-01-24T07:52:10Z</time></trkpt><trkpt lat="58.059945" lon="38.812465"><ele>103.7</ele><time>2022-01-24T07:52:11Z</time></trkpt><trkpt lat="58.059955" lon="38.812525"><ele>103.7</ele><time>2022-01-24T07:52:12Z</time></trkpt><trkpt lat="58.059965" lon="38.812577"><ele>103.6</ele><time>2022-01-24T07:52:13Z</time></trkpt><trkpt lat="58.05997" lon="38.812632"><ele>103.6</ele><time>2022-01-24T07:52:14Z</time></trkpt><trkpt lat="58.059965" lon="38.812687"><ele>103.6</ele><time>2022-01-24T07:52:15Z</time></trkpt><trkpt lat="58.059957" lon="38.812755"><ele>103.5</ele><time>2022-01-24T07:52:16Z</time></trkpt><trkpt lat="58.059948" lon="38.812822"><ele>103.5</ele><time>2022-01-24T07:52:17Z</time></trkpt><trkpt lat="58.059938" lon="38.812933"><ele>103.4</ele><time>2022-01-24T07:52:19Z</time></trkpt><trkpt lat="58.059932" lon="38.813028"><ele>103.3</ele><time>2022-01-24T07:52:20Z</time></trkpt><trkpt lat="58.059923" lon="38.813097"><ele>103.3</ele><time>2022-01-24T07:52:21Z</time></trkpt><trkpt lat="58.059905" lon="38.813235"><ele>103.2</ele><time>2022-01-24T07:52:23Z</time></trkpt><trkpt lat="58.059902" lon="38.813302"><ele>103.2</ele><time>2022-01-24T07:52:24Z</time></trkpt><trkpt lat="58.059902" lon="38.813367"><ele>103.1</ele><time>2022-01-24T07:52:25Z</time></trkpt><trkpt lat="58.059905" lon="38.813423"><ele>103.1</ele><time>2022-01-24T07:52:26Z</time></trkpt><trkpt lat="58.059908" lon="38.813477"><ele>103.1</ele><time>2022-01-24T07:52:27Z</time></trkpt><trkpt lat="58.059907" lon="38.813532"><ele>103.0</ele><time>2022-01-24T07:52:28Z</time></trkpt><trkpt lat="58.059897" lon="38.813607"><ele>103.0</ele><time>2022-01-24T07:52:29Z</time></trkpt><trkpt lat="58.059893" lon="38.813633"><ele>103.0</ele><time>2022-01-24T07:52:30Z</time></trkpt><trkpt lat="58.059887" lon="38.813705"><ele>102.9</ele><time>2022-01-24T07:52:31Z</time></trkpt><trkpt lat="58.059885" lon="38.81373"><ele>102.9</ele><time>2022-01-24T07:52:32Z</time></trkpt><trkpt lat="58.059882" lon="38.813795"><ele>102.9</ele><time>2022-01-24T07:52:33Z</time></trkpt><trkpt lat="58.05988" lon="38.813817"><ele>102.8</ele><time>2022-01-24T07:52:34Z</time></trkpt><trkpt lat="58.05987" lon="38.813873"><ele>102.8</ele><time>2022-01-24T07:52:35Z</time></trkpt><trkpt lat="58.059865" lon="38.81389"><ele>102.8</ele><time>2022-01-24T07:52:36Z</time></trkpt><trkpt lat="58.059845" lon="38.813925"><ele>102.8</ele><time>2022-01-24T07:52:37Z</time></trkpt><trkpt lat="58.059837" lon="38.813935"><ele>102.8</ele><time>2022-01-24T07:52:38Z</time></trkpt><trkpt lat="58.05982" lon="38.813943"><ele>102.7</ele><time>2022-01-24T07:52:39Z</time></trkpt><trkpt lat="58.059805" lon="38.81395"><ele>102.7</ele><time>2022-01-24T07:52:40Z</time></trkpt><trkpt lat="58.059777" lon="38.813953"><ele>102.7</ele><time>2022-01-24T07:52:41Z</time></trkpt><trkpt lat="58.059767" lon="38.813948"><ele>102.7</ele><time>2022-01-24T07:52:42Z</time></trkpt><trkpt lat="58.059735" lon="38.813922"><ele>102.6</ele><time>2022-01-24T07:52:43Z</time></trkpt><trkpt lat="58.059725" lon="38.813913"><ele>102.6</ele><time>2022-01-24T07:52:44Z</time></trkpt><trkpt lat="58.059692" lon="38.813888"><ele>102.6</ele><time>2022-01-24T07:52:45Z</time></trkpt><trkpt lat="58.05968" lon="38.81388"><ele>102.6</ele><time>2022-01-24T07:52:46Z</time></trkpt><trkpt lat="58.059643" lon="38.81385"><ele>102.5</ele><time>2022-01-24T07:52:47Z</time></trkpt><trkpt lat="58.05963" lon="38.813835"><ele>102.5</ele><time>2022-01-24T07:52:48Z</time></trkpt><trkpt lat="58.059592" lon="38.813802"><ele>102.5</ele><time>2022-01-24T07:52:50Z</time></trkpt><trkpt lat="58.059548" lon="38.813768"><ele>102.4</ele><time>2022-01-24T07:52:51Z</time></trkpt><trkpt lat="58.059503" lon="38.813737"><ele>102.4</ele><time>2022-01-24T07:52:53Z</time></trkpt><trkpt lat="58.05947" lon="38.813712"><ele>102.3</ele><time>2022-01-24T07:52:54Z</time></trkpt><trkpt lat="58.059442" lon="38.8137"><ele>102.3</ele><time>2022-01-24T07:52:55Z</time></trkpt><trkpt lat="58.059412" lon="38.813687"><ele>102.2</ele><time>2022-01-24T07:52:56Z</time></trkpt><trkpt lat="58.059383" lon="38.813675"><ele>102.2</ele><time>2022-01-24T07:52:57Z</time></trkpt><trkpt lat="58.059355" lon="38.813663"><ele>102.2</ele><time>2022-01-24T07:52:58Z</time></trkpt><trkpt lat="58.059317" lon="38.81364"><ele>102.1</ele><time>2022-01-24T07:52:59Z</time></trkpt><trkpt lat="58.059305" lon="38.813628"><ele>102.1</ele><time>2022-01-24T07:53:00Z</time></trkpt><trkpt lat="58.059273" lon="38.813595"><ele>102.2</ele><time>2022-01-24T07:53:01Z</time></trkpt><trkpt lat="58.059265" lon="38.813578"><ele>102.2</ele><time>2022-01-24T07:53:02Z</time></trkpt><trkpt lat="58.059255" lon="38.81354"><ele>102.2</ele><time>2022-01-24T07:53:03Z</time></trkpt><trkpt lat="58.059245" lon="38.813432"><ele>102.3</ele><time>2022-01-24T07:53:05Z</time></trkpt><trkpt lat="58.059245" lon="38.813357"><ele>102.3</ele><time>2022-01-24T07:53:06Z</time></trkpt><trkpt lat="58.059247" lon="38.813332"><ele>102.3</ele><time>2022-01-24T07:53:07Z</time></trkpt><trkpt lat="58.059255" lon="38.81328"><ele>102.4</ele><time>2022-01-24T07:53:08Z</time></trkpt><trkpt lat="58.059265" lon="38.81323"><ele>102.4</ele><time>2022-01-24T07:53:09Z</time></trkpt><trkpt lat="58.05929" lon="38.81314"><ele>102.5</ele><time>2022-01-24T07:53:11Z</time></trkpt><trkpt lat="58.059297" lon="38.813072"><ele>102.5</ele><time>2022-01-24T07:53:12Z</time></trkpt><trkpt lat="58.0593" lon="38.813052"><ele>102.5</ele><time>2022-01-24T07:53:13Z</time></trkpt><trkpt lat="58.059303" lon="38.812992"><ele>102.6</ele><time>2022-01-24T07:53:14Z</time></trkpt><trkpt lat="58.059305" lon="38.812973"><ele>102.6</ele><time>2022-01-24T07:53:15Z</time></trkpt><trkpt lat="58.059308" lon="38.812912"><ele>102.6</ele><time>2022-01-24T07:53:16Z</time></trkpt><trkpt lat="58.05931" lon="38.812892"><ele>102.7</ele><time>2022-01-24T07:53:17Z</time></trkpt><trkpt lat="58.059312" lon="38.812848"><ele>102.7</ele><time>2022-01-24T07:53:18Z</time></trkpt><trkpt lat="58.059322" lon="38.81276"><ele>102.7</ele><time>2022-01-24T07:53:20Z</time></trkpt><trkpt lat="58.059325" lon="38.812705"><ele>102.8</ele><time>2022-01-24T07:53:21Z</time></trkpt><trkpt lat="58.059345" lon="38.812572"><ele>102.9</ele><time>2022-01-24T07:53:23Z</time></trkpt><trkpt lat="58.059353" lon="38.812508"><ele>102.9</ele><time>2022-01-24T07:53:24Z</time></trkpt><trkpt lat="58.059362" lon="38.812452"><ele>103.0</ele><time>2022-01-24T07:53:25Z</time></trkpt><trkpt lat="58.05939" lon="38.812408"><ele>103.0</ele><time>2022-01-24T07:53:26Z</time></trkpt><trkpt lat="58.059402" lon="38.812398"><ele>103.0</ele><time>2022-01-24T07:53:27Z</time></trkpt><trkpt lat="58.059437" lon="38.812363"><ele>103.1</ele><time>2022-01-24T07:53:28Z</time></trkpt><trkpt lat="58.059448" lon="38.812352"><ele>103.1</ele><time>2022-01-24T07:53:29Z</time></trkpt><trkpt lat="58.059478" lon="38.812347"><ele>103.1</ele><time>2022-01-24T07:53:30Z</time></trkpt><trkpt lat="58.05951" lon="38.81235"><ele>103.2</ele><time>2022-01-24T07:53:31Z</time></trkpt><trkpt lat="58.059547" lon="38.812343"><ele>103.2</ele><time>2022-01-24T07:53:32Z</time></trkpt><trkpt lat="58.05956" lon="38.81234"><ele>103.2</ele><time>2022-01-24T07:53:33Z</time></trkpt><trkpt lat="58.0596" lon="38.812345"><ele>103.3</ele><time>2022-01-24T07:53:34Z</time></trkpt><trkpt lat="58.059613" lon="38.812347"><ele>103.3</ele><time>2022-01-24T07:53:35Z</time></trkpt><trkpt lat="58.059647" lon="38.81234"><ele>103.3</ele><time>2022-01-24T07:53:36Z</time></trkpt><trkpt lat="58.059723" lon="38.812332"><ele>103.4</ele><time>2022-01-24T07:53:38Z</time></trkpt><trkpt lat="58.059765" lon="38.81234"><ele>103.5</ele><time>2022-01-24T07:53:39Z</time></trkpt><trkpt lat="58.05983" lon="38.812362"><ele>103.6</ele><time>2022-01-24T07:53:41Z</time></trkpt><trkpt lat="58.059862" lon="38.812382"><ele>103.6</ele><time>2022-01-24T07:53:42Z</time></trkpt><trkpt lat="58.059892" lon="38.812407"><ele>103.7</ele><time>2022-01-24T07:53:43Z</time></trkpt><trkpt lat="58.05992" lon="38.812427"><ele>103.7</ele><time>2022-01-24T07:53:44Z</time></trkpt><trkpt lat="58.059947" lon="38.81245"><ele>103.7</ele><time>2022-01-24T07:53:45Z</time></trkpt><trkpt lat="58.059967" lon="38.812493"><ele>103.6</ele><time>2022-01-24T07:53:46Z</time></trkpt><trkpt lat="58.059973" lon="38.812558"><ele>103.6</ele><time>2022-01-24T07:53:47Z</time></trkpt><trkpt lat="58.059972" lon="38.81262"><ele>103.6</ele><time>2022-01-24T07:53:48Z</time></trkpt><trkpt lat="58.059962" lon="38.81273"><ele>103.5</ele><time>2022-01-24T07:53:50Z</time></trkpt><trkpt lat="58.059947" lon="38.812852"><ele>103.4</ele><time>2022-01-24T07:53:51Z</time></trkpt><trkpt lat="58.059937" lon="38.812935"><ele>103.4</ele><time>2022-01-24T07:53:52Z</time></trkpt><trkpt lat="58.05993" lon="38.813025"><ele>103.3</ele><time>2022-01-24T07:53:53Z</time></trkpt><trkpt lat="58.05992" lon="38.813123"><ele>103.2</ele><time>2022-01-24T07:53:55Z</time></trkpt><trkpt lat="58.059907" lon="38.81324"><ele>103.2</ele><time>2022-01-24T07:53:56Z</time></trkpt><trkpt lat="58.059902" lon="38.813322"><ele>103.1</ele><time>2022-01-24T07:53:57Z</time></trkpt><trkpt lat="58.0599" lon="38.813403"><ele>103.1</ele><time>2022-01-24T07:53:58Z</time></trkpt><trkpt lat="58.059893" lon="38.813485"><ele>103.0</ele><time>2022-01-24T07:53:59Z</time></trkpt><trkpt lat="58.059883" lon="38.813565"><ele>103.0</ele><time>2022-01-24T07:54:00Z</time></trkpt><trkpt lat="58.059872" lon="38.813635"><ele>102.9</ele><time>2022-01-24T07:54:01Z</time></trkpt><trkpt lat="58.05986" lon="38.813705"><ele>102.9</ele><time>2022-01-24T07:54:02Z</time></trkpt><trkpt lat="58.059845" lon="38.813775"><ele>102.8</ele><time>2022-01-24T07:54:03Z</time></trkpt><trkpt lat="58.059827" lon="38.81384"><ele>102.8</ele><time>2022-01-24T07:54:04Z</time></trkpt><trkpt lat="58.059805" lon="38.81389"><ele>102.8</ele><time>2022-01-24T07:54:05Z</time></trkpt><trkpt lat="58.059783" lon="38.813927"><ele>102.7</ele><time>2022-01-24T07:54:06Z</time></trkpt><trkpt lat="58.059763" lon="38.81396"><ele>102.7</ele><time>2022-01-24T07:54:07Z</time></trkpt><trkpt lat="58.059727" lon="38.813977"><ele>102.6</ele><time>2022-01-24T07:54:08Z</time></trkpt><trkpt lat="58.059715" lon="38.813983"><ele>102.6</ele><time>2022-01-24T07:54:09Z</time></trkpt><trkpt lat="58.05968" lon="38.813972"><ele>102.6</ele><time>2022-01-24T07:54:10Z</time></trkpt><trkpt lat="58.059667" lon="38.813957"><ele>102.6</ele><time>2022-01-24T07:54:11Z</time></trkpt><trkpt lat="58.059635" lon="38.81398"><ele>102.5</ele><time>2022-01-24T07:54:12Z</time></trkpt><trkpt lat="58.059625" lon="38.813982"><ele>102.5</ele><time>2022-01-24T07:54:13Z</time></trkpt><trkpt lat="58.05961" lon="38.813992"><ele>102.5</ele><time>2022-01-24T07:54:14Z</time></trkpt><trkpt lat="58.059595" lon="38.813997"><ele>102.5</ele><time>2022-01-24T07:54:15Z</time></trkpt><trkpt lat="58.059567" lon="38.813993"><ele>102.4</ele><time>2022-01-24T07:54:16Z</time></trkpt><trkpt lat="58.059557" lon="38.81399"><ele>102.4</ele><time>2022-01-24T07:54:17Z</time></trkpt><trkpt lat="58.059537" lon="38.813977"><ele>102.4</ele><time>2022-01-24T07:54:18Z</time></trkpt><trkpt lat="58.059498" lon="38.813933"><ele>102.4</ele><time>2022-01-24T07:54:20Z</time></trkpt><trkpt lat="58.059473" lon="38.813907"><ele>102.3</ele><time>2022-01-24T07:54:21Z</time></trkpt><trkpt lat="58.059435" lon="38.813885"><ele>102.3</ele><time>2022-01-24T07:54:22Z</time></trkpt><trkpt lat="58.059405" lon="38.813867"><ele>102.2</ele><time>2022-01-24T07:54:23Z</time></trkpt><trkpt lat="58.059375" lon="38.813852"><ele>102.2</ele><time>2022-01-24T07:54:24Z</time></trkpt><trkpt lat="58.059345" lon="38.813842"><ele>102.2</ele><time>2022-01-24T07:54:25Z</time></trkpt><trkpt lat="58.059315" lon="38.813838"><ele>102.1</ele><time>2022-01-24T07:54:26Z</time></trkpt><trkpt lat="58.059287" lon="38.813845"><ele>102.1</ele><time>2022-01-24T07:54:27Z</time></trkpt><trkpt lat="58.05925" lon="38.813855"><ele>102.1</ele><time>2022-01-24T07:54:28Z</time></trkpt><trkpt lat="58.059238" lon="38.813857"><ele>102.1</ele><time>2022-01-24T07:54:29Z</time></trkpt><trkpt lat="58.059198" lon="38.813858"><ele>102.1</ele><time>2022-01-24T07:54:30Z</time></trkpt><trkpt lat="58.059183" lon="38.813862"><ele>102.1</ele><time>2022-01-24T07:54:31Z</time></trkpt><trkpt lat="58.059157" lon="38.813877"><ele>102.1</ele><time>2022-01-24T07:54:32Z</time></trkpt><trkpt lat="58.05913" lon="38.813915"><ele>102.1</ele><time>2022-01-24T07:54:33Z</time></trkpt><trkpt lat="58.05912" lon="38.813927"><ele>102.1</ele><time>2022-01-24T07:54:34Z</time></trkpt><trkpt lat="58.059105" lon="38.813962"><ele>102.1</ele><time>2022-01-24T07:54:35Z</time></trkpt><trkpt lat="58.059088" lon="38.814025"><ele>102.1</ele><time>2022-01-24T07:54:37Z</time></trkpt><trkpt lat="58.059087" lon="38.81408"><ele>102.1</ele><time>2022-01-24T07:54:38Z</time></trkpt><trkpt lat="58.059092" lon="38.814097"><ele>102.1</ele><time>2022-01-24T07:54:39Z</time></trkpt><trkpt lat="58.05911" lon="38.814152"><ele>102.1</ele><time>2022-01-24T07:54:40Z</time></trkpt><trkpt lat="58.059118" lon="38.81417"><ele>102.1</ele><time>2022-01-24T07:54:41Z</time></trkpt><trkpt lat="58.05915" lon="38.81422"><ele>102.1</ele><time>2022-01-24T07:54:42Z</time></trkpt><trkpt lat="58.059163" lon="38.814235"><ele>102.1</ele><time>2022-01-24T07:54:43Z</time></trkpt><trkpt lat="58.059193" lon="38.814257"><ele>102.1</ele><time>2022-01-24T07:54:44Z</time></trkpt><trkpt lat="58.059223" lon="38.814267"><ele>102.1</ele><time>2022-01-24T07:54:45Z</time></trkpt><trkpt lat="58.059257" lon="38.814268"><ele>102.1</ele><time>2022-01-24T07:54:46Z</time></trkpt><trkpt lat="58.05929" lon="38.81427"><ele>102.1</ele><time>2022-01-24T07:54:47Z</time></trkpt><trkpt lat="58.059322" lon="38.814275"><ele>102.1</ele><time>2022-01-24T07:54:48Z</time></trkpt><trkpt lat="58.059377" lon="38.81427"><ele>102.1</ele><time>2022-01-24T07:54:50Z</time></trkpt><trkpt lat="58.05942" lon="38.81427"><ele>102.2</ele><time>2022-01-24T07:54:51Z</time></trkpt><trkpt lat="58.05946" lon="38.814268"><ele>102.2</ele><time>2022-01-24T07:54:52Z</time></trkpt><trkpt lat="58.059495" lon="38.814258"><ele>102.2</ele><time>2022-01-24T07:54:53Z</time></trkpt><trkpt lat="58.059532" lon="38.81425"><ele>102.2</ele><time>2022-01-24T07:54:54Z</time></trkpt><trkpt lat="58.059572" lon="38.814248"><ele>102.2</ele><time>2022-01-24T07:54:55Z</time></trkpt><trkpt lat="58.059605" lon="38.814247"><ele>102.2</ele><time>2022-01-24T07:54:56Z</time></trkpt><trkpt lat="58.059633" lon="38.814252"><ele>102.2</ele><time>2022-01-24T07:54:57Z</time></trkpt><trkpt lat="58.059662" lon="38.814252"><ele>102.2</ele><time>2022-01-24T07:54:58Z</time></trkpt><trkpt lat="58.059687" lon="38.814227"><ele>102.2</ele><time>2022-01-24T07:54:59Z</time></trkpt><trkpt lat="58.059705" lon="38.814182"><ele>102.2</ele><time>2022-01-24T07:55:00Z</time></trkpt><trkpt lat="58.059713" lon="38.814132"><ele>102.2</ele><time>2022-01-24T07:55:01Z</time></trkpt><trkpt lat="58.059728" lon="38.814032"><ele>102.3</ele><time>2022-01-24T07:55:03Z</time></trkpt><trkpt lat="58.059713" lon="38.813965"><ele>102.3</ele><time>2022-01-24T07:55:04Z</time></trkpt><trkpt lat="58.059703" lon="38.813945"><ele>102.3</ele><time>2022-01-24T07:55:05Z</time></trkpt><trkpt lat="58.059685" lon="38.813905"><ele>102.3</ele><time>2022-01-24T07:55:06Z</time></trkpt><trkpt lat="58.059662" lon="38.813867"><ele>102.3</ele><time>2022-01-24T07:55:07Z</time></trkpt><trkpt lat="58.05966" lon="38.813853"><ele>102.3</ele><time>2022-01-24T07:55:08Z</time></trkpt><trkpt lat="58.059645" lon="38.81382"><ele>102.3</ele><time>2022-01-24T07:55:09Z</time></trkpt><trkpt lat="58.059637" lon="38.81381"><ele>102.3</ele><time>2022-01-24T07:55:10Z</time></trkpt><trkpt lat="58.059628" lon="38.813802"><ele>102.3</ele><time>2022-01-24T07:55:11Z</time></trkpt><trkpt lat="58.059603" lon="38.81378"><ele>102.3</ele><time>2022-01-24T07:55:12Z</time></trkpt><trkpt lat="58.059577" lon="38.813757"><ele>102.3</ele><time>2022-01-24T07:55:13Z</time></trkpt><trkpt lat="58.059547" lon="38.813715"><ele>102.3</ele><time>2022-01-24T07:55:14Z</time></trkpt><trkpt lat="58.059538" lon="38.813695"><ele>102.3</ele><time>2022-01-24T07:55:15Z</time></trkpt><trkpt lat="58.05952" lon="38.813655"><ele>102.3</ele><time>2022-01-24T07:55:16Z</time></trkpt><trkpt lat="58.059508" lon="38.813628"><ele>102.3</ele><time>2022-01-24T07:55:17Z</time></trkpt><trkpt lat="58.059497" lon="38.813612"><ele>102.3</ele><time>2022-01-24T07:55:18Z</time></trkpt><trkpt lat="58.059493" lon="38.813605"><ele>102.3</ele><time>2022-01-24T07:55:19Z</time></trkpt><trkpt lat="58.059507" lon="38.81361"><ele>102.3</ele><time>2022-01-24T07:55:21Z</time></trkpt><trkpt lat="58.059507" lon="38.813607"><ele>102.3</ele><time>2022-01-24T07:55:22Z</time></trkpt><trkpt lat="58.059507" lon="38.813607"><ele>102.3</ele><time>2022-01-24T07:55:23Z</time></trkpt><trkpt lat="58.059507" lon="38.813607"><ele>102.3</ele><time>2022-01-24T07:55:25Z</time></trkpt><trkpt lat="58.059507" lon="38.813607"><ele>102.3</ele><time>2022-01-24T07:55:26Z</time></trkpt><trkpt lat="58.059505" lon="38.8136"><ele>102.3</ele><time>2022-01-24T07:55:27Z</time></trkpt><trkpt lat="58.059505" lon="38.8136"><ele>102.3</ele><time>2022-01-24T07:55:28Z</time></trkpt><trkpt lat="58.059505" lon="38.813597"><ele>102.3</ele><time>2022-01-24T07:55:29Z</time></trkpt><trkpt lat="58.059505" lon="38.813597"><ele>102.3</ele><time>2022-01-24T07:55:30Z</time></trkpt><trkpt lat="58.059505" lon="38.813595"><ele>102.3</ele><time>2022-01-24T07:55:31Z</time></trkpt><trkpt lat="58.059505" lon="38.813593"><ele>102.3</ele><time>2022-01-24T07:55:32Z</time></trkpt><trkpt lat="58.059505" lon="38.813592"><ele>102.3</ele><time>2022-01-24T07:55:33Z</time></trkpt><trkpt lat="58.059505" lon="38.81359"><ele>102.3</ele><time>2022-01-24T07:55:34Z</time></trkpt><trkpt lat="58.059505" lon="38.813588"><ele>102.3</ele><time>2022-01-24T07:55:35Z</time></trkpt><trkpt lat="58.059505" lon="38.813587"><ele>102.3</ele><time>2022-01-24T07:55:36Z</time></trkpt><trkpt lat="58.059505" lon="38.813585"><ele>102.3</ele><time>2022-01-24T07:55:37Z</time></trkpt><trkpt lat="58.059505" lon="38.813582"><ele>102.4</ele><time>2022-01-24T07:55:38Z</time></trkpt><trkpt lat="58.059507" lon="38.81358"><ele>102.4</ele><time>2022-01-24T07:55:39Z</time></trkpt><trkpt lat="58.059507" lon="38.813578"><ele>102.4</ele><time>2022-01-24T07:55:40Z</time></trkpt><trkpt lat="58.059507" lon="38.81358"><ele>102.4</ele><time>2022-01-24T07:55:41Z</time></trkpt><trkpt lat="58.059507" lon="38.813585"><ele>102.4</ele><time>2022-01-24T07:55:42Z</time></trkpt><trkpt lat="58.059508" lon="38.813587"><ele>102.4</ele><time>2022-01-24T07:55:43Z</time></trkpt><trkpt lat="58.05951" lon="38.81359"><ele>102.4</ele><time>2022-01-24T07:55:44Z</time></trkpt><trkpt lat="58.059512" lon="38.813592"><ele>102.4</ele><time>2022-01-24T07:55:45Z</time></trkpt><trkpt lat="58.059513" lon="38.813595"><ele>102.4</ele><time>2022-01-24T07:55:46Z</time></trkpt><trkpt lat="58.059515" lon="38.8136"><ele>102.4</ele><time>2022-01-24T07:55:47Z</time></trkpt><trkpt lat="58.059517" lon="38.813602"><ele>102.4</ele><time>2022-01-24T07:55:48Z</time></trkpt><trkpt lat="58.059517" lon="38.813605"><ele>102.4</ele><time>2022-01-24T07:55:49Z</time></trkpt><trkpt lat="58.059518" lon="38.813607"><ele>102.4</ele><time>2022-01-24T07:55:50Z</time></trkpt><trkpt lat="58.05952" lon="38.813608"><ele>102.4</ele><time>2022-01-24T07:55:51Z</time></trkpt><trkpt lat="58.05952" lon="38.813612"><ele>102.4</ele><time>2022-01-24T07:55:53Z</time></trkpt><trkpt lat="58.05952" lon="38.813612"><ele>102.4</ele><time>2022-01-24T07:55:54Z</time></trkpt><trkpt lat="58.05952" lon="38.813613"><ele>102.4</ele><time>2022-01-24T07:55:55Z</time></trkpt><trkpt lat="58.05952" lon="38.813613"><ele>102.4</ele><time>2022-01-24T07:55:56Z</time></trkpt><trkpt lat="58.05952" lon="38.813617"><ele>102.4</ele><time>2022-01-24T07:55:58Z</time></trkpt><trkpt lat="58.05952" lon="38.813617"><ele>102.4</ele><time>2022-01-24T07:55:59Z</time></trkpt><trkpt lat="58.05952" lon="38.813617"><ele>102.4</ele><time>2022-01-24T07:56:00Z</time></trkpt><trkpt lat="58.05952" lon="38.813612"><ele>102.4</ele><time>2022-01-24T07:56:01Z</time></trkpt><trkpt lat="58.05952" lon="38.813608"><ele>102.4</ele><time>2022-01-24T07:56:02Z</time></trkpt><trkpt lat="58.05952" lon="38.813607"><ele>102.4</ele><time>2022-01-24T07:56:03Z</time></trkpt><trkpt lat="58.05952" lon="38.813607"><ele>102.4</ele><time>2022-01-24T07:56:04Z</time></trkpt><trkpt lat="58.05952" lon="38.813607"><ele>102.4</ele><time>2022-01-24T07:56:05Z</time></trkpt><trkpt lat="58.05952" lon="38.813607"><ele>102.4</ele><time>2022-01-24T07:56:06Z</time></trkpt><trkpt lat="58.05952" lon="38.813607"><ele>102.4</ele><time>2022-01-24T07:56:07Z</time></trkpt><trkpt lat="58.05952" lon="38.813607"><ele>102.4</ele><time>2022-01-24T07:56:08Z</time></trkpt><trkpt lat="58.05952" lon="38.813607"><ele>102.4</ele><time>2022-01-24T07:56:09Z</time></trkpt><trkpt lat="58.05952" lon="38.813607"><ele>102.4</ele><time>2022-01-24T07:56:10Z</time></trkpt><trkpt lat="58.05952" lon="38.813607"><ele>102.4</ele><time>2022-01-24T07:56:11Z</time></trkpt><trkpt lat="58.05952" lon="38.813607"><ele>102.4</ele><time>2022-01-24T07:56:12Z</time></trkpt><trkpt lat="58.05952" lon="38.813607"><ele>102.4</ele><time>2022-01-24T07:56:13Z</time></trkpt><trkpt lat="58.05952" lon="38.813607"><ele>102.4</ele><time>2022-01-24T07:56:14Z</time></trkpt><trkpt lat="58.05952" lon="38.813607"><ele>102.4</ele><time>2022-01-24T07:56:15Z</time></trkpt><trkpt lat="58.059517" lon="38.813608"><ele>102.4</ele><time>2022-01-24T07:56:16Z</time></trkpt><trkpt lat="58.059512" lon="38.813615"><ele>102.4</ele><time>2022-01-24T07:56:17Z</time></trkpt><trkpt lat="58.059515" lon="38.813617"><ele>102.4</ele><time>2022-01-24T07:56:18Z</time></trkpt><trkpt lat="58.059517" lon="38.813622"><ele>102.4</ele><time>2022-01-24T07:56:19Z</time></trkpt><trkpt lat="58.059517" lon="38.813625"><ele>102.4</ele><time>2022-01-24T07:56:20Z</time></trkpt><trkpt lat="58.059517" lon="38.813627"><ele>102.4</ele><time>2022-01-24T07:56:21Z</time></trkpt><trkpt lat="58.059517" lon="38.81363"><ele>102.4</ele><time>2022-01-24T07:56:22Z</time></trkpt><trkpt lat="58.059517" lon="38.81363"><ele>102.4</ele><time>2022-01-24T07:56:23Z</time></trkpt><trkpt lat="58.059517" lon="38.81363"><ele>102.4</ele><time>2022-01-24T07:56:24Z</time></trkpt><trkpt lat="58.059518" lon="38.81363"><ele>102.4</ele><time>2022-01-24T07:56:25Z</time></trkpt><trkpt lat="58.05952" lon="38.81363"><ele>102.4</ele><time>2022-01-24T07:56:26Z</time></trkpt><trkpt lat="58.05952" lon="38.81363"><ele>102.4</ele><time>2022-01-24T07:56:27Z</time></trkpt><trkpt lat="58.05952" lon="38.81363"><ele>102.4</ele><time>2022-01-24T07:56:28Z</time></trkpt><trkpt lat="58.05952" lon="38.81363"><ele>102.4</ele><time>2022-01-24T07:56:30Z</time></trkpt><trkpt lat="58.05952" lon="38.81363"><ele>102.4</ele><time>2022-01-24T07:56:31Z</time></trkpt><trkpt lat="58.05952" lon="38.813632"><ele>102.4</ele><time>2022-01-24T07:56:32Z</time></trkpt><trkpt lat="58.05952" lon="38.813632"><ele>102.4</ele><time>2022-01-24T07:56:33Z</time></trkpt><trkpt lat="58.05952" lon="38.813632"><ele>102.4</ele><time>2022-01-24T07:56:35Z</time></trkpt><trkpt lat="58.05952" lon="38.813632"><ele>102.4</ele><time>2022-01-24T07:56:36Z</time></trkpt><trkpt lat="58.05952" lon="38.813632"><ele>102.4</ele><time>2022-01-24T07:56:37Z</time></trkpt><trkpt lat="58.05952" lon="38.813632"><ele>102.4</ele><time>2022-01-24T07:56:38Z</time></trkpt><trkpt lat="58.05952" lon="38.813632"><ele>102.4</ele><time>2022-01-24T07:56:40Z</time></trkpt><trkpt lat="58.05952" lon="38.813632"><ele>102.4</ele><time>2022-01-24T07:56:41Z</time></trkpt><trkpt lat="58.05952" lon="38.813632"><ele>102.4</ele><time>2022-01-24T07:56:42Z</time></trkpt><trkpt lat="58.05952" lon="38.81363"><ele>102.4</ele><time>2022-01-24T07:56:43Z</time></trkpt><trkpt lat="58.059522" lon="38.813628"><ele>102.4</ele><time>2022-01-24T07:56:45Z</time></trkpt><trkpt lat="58.059522" lon="38.81363"><ele>102.4</ele><time>2022-01-24T07:56:46Z</time></trkpt><trkpt lat="58.05952" lon="38.813632"><ele>102.4</ele><time>2022-01-24T07:56:47Z</time></trkpt><trkpt lat="58.05952" lon="38.813633"><ele>102.4</ele><time>2022-01-24T07:56:48Z</time></trkpt><trkpt lat="58.059517" lon="38.813633"><ele>102.4</ele><time>2022-01-24T07:56:50Z</time></trkpt><trkpt lat="58.059517" lon="38.813632"><ele>102.4</ele><time>2022-01-24T07:56:51Z</time></trkpt><trkpt lat="58.059517" lon="38.813632"><ele>102.4</ele><time>2022-01-24T07:56:52Z</time></trkpt><trkpt lat="58.059517" lon="38.81363"><ele>102.4</ele><time>2022-01-24T07:56:53Z</time></trkpt><trkpt lat="58.059518" lon="38.81363"><ele>102.4</ele><time>2022-01-24T07:56:54Z</time></trkpt><trkpt lat="58.059518" lon="38.813628"><ele>102.4</ele><time>2022-01-24T07:56:55Z</time></trkpt><trkpt lat="58.059518" lon="38.813628"><ele>102.4</ele><time>2022-01-24T07:56:56Z</time></trkpt><trkpt lat="58.059518" lon="38.813628"><ele>102.4</ele><time>2022-01-24T07:56:57Z</time></trkpt><trkpt lat="58.059518" lon="38.813628"><ele>102.4</ele><time>2022-01-24T07:56:58Z</time></trkpt><trkpt lat="58.059518" lon="38.813628"><ele>102.4</ele><time>2022-01-24T07:57:00Z</time></trkpt><trkpt lat="58.059518" lon="38.813628"><ele>102.4</ele><time>2022-01-24T07:57:01Z</time></trkpt><trkpt lat="58.059518" lon="38.813628"><ele>102.4</ele><time>2022-01-24T07:57:02Z</time></trkpt><trkpt lat="58.059518" lon="38.813628"><ele>102.4</ele><time>2022-01-24T07:57:03Z</time></trkpt><trkpt lat="58.05952" lon="38.813635"><ele>102.4</ele><time>2022-01-24T07:57:05Z</time></trkpt><trkpt lat="58.05952" lon="38.813633"><ele>102.4</ele><time>2022-01-24T07:57:06Z</time></trkpt><trkpt lat="58.05952" lon="38.813627"><ele>102.4</ele><time>2022-01-24T07:57:07Z</time></trkpt></trkseg></trk></gpx>