<?xml version="1.0" encoding="UTF-8" standalone="no"?><gpx xmlns="http://www.topografix.com/GPX/1/1" xmlns:gpxtpx="http://www.garmin.com/xmlschemas/TrackPointExtension/v1" xmlns:xsi="http://www.w3.org/2001/XMLSchema-instance" creator="Sports Tracker" version="1.1" xsi:schemaLocation="http://www.topografix.com/GPX/1/1 http://www.topografix.com/GPX/1/1/gpx.xsd http://www.garmin.com/xmlschemas/TrackPointExtension/v1 http://www.garmin.com/xmlschemas/TrackPointExtensionv1.xsd"><metadata><name/><desc/><author><name>Александр</name></author></metadata><trk><name/><trkseg><trkpt lat="58.062438" lon="39.138925"><ele>108.0</ele><time>2023-04-09T10:53:01Z</time></trkpt><trkpt lat="58.062512" lon="39.138928"><ele>104.0</ele><time>2023-04-09T10:55:29Z</time></trkpt><trkpt lat="58.06246" lon="39.139028"><ele>102.0</ele><time>2023-04-09T10:55:48Z</time></trkpt><trkpt lat="58.062398" lon="39.139105"><ele>101.0</ele><time>2023-04-09T10:55:56Z</time></trkpt><trkpt lat="58.062332" lon="39.139155"><ele>101.0</ele><time>2023-04-09T10:56:05Z</time></trkpt><trkpt lat="58.06226" lon="39.139212"><ele>102.0</ele><time>2023-04-09T10:56:12Z</time></trkpt><trkpt lat="58.062218" lon="39.139328"><ele>105.0</ele><time>2023-04-09T10:56:19Z</time></trkpt><trkpt lat="58.062265" lon="39.139455"><ele>102.0</ele><time>2023-04-09T10:56:28Z</time></trkpt><trkpt lat="58.062288" lon="39.139583"><ele>103.0</ele><time>2023-04-09T10:56:41Z</time></trkpt><trkpt lat="58.06224" lon="39.139443"><ele>104.0</ele><time>2023-04-09T10:57:10Z</time></trkpt><trkpt lat="58.062218" lon="39.139297"><ele>103.0</ele><time>2023-04-09T10:57:14Z</time></trkpt><trkpt lat="58.062155" lon="39.139217"><ele>103.0</ele><time>2023-04-09T10:57:19Z</time></trkpt><trkpt lat="58.062083" lon="39.139223"><ele>104.0</ele><time>2023-04-09T10:57:23Z</time></trkpt><trkpt lat="58.061995" lon="39.13924"><ele>103.0</ele><time>2023-04-09T10:57:28Z</time></trkpt><trkpt lat="58.061918" lon="39.13923"><ele>103.0</ele><time>2023-04-09T10:57:31Z</time></trkpt><trkpt lat="58.061843" lon="39.139237"><ele>102.0</ele><time>2023-04-09T10:57:32Z</time></trkpt><trkpt lat="58.061747" lon="39.139258"><ele>102.0</ele><time>2023-04-09T10:57:34Z</time></trkpt><trkpt lat="58.06169" lon="39.139172"><ele>100.0</ele><time>2023-04-09T10:57:39Z</time></trkpt><trkpt lat="58.061648" lon="39.139032"><ele>98.0</ele><time>2023-04-09T10:57:47Z</time></trkpt><trkpt lat="58.06161" lon="39.138908"><ele>99.0</ele><time>2023-04-09T10:57:50Z</time></trkpt><trkpt lat="58.061578" lon="39.138777"><ele>100.0</ele><time>2023-04-09T10:57:56Z</time></trkpt><trkpt lat="58.061507" lon="39.138737"><ele>99.0</ele><time>2023-04-09T10:58:03Z</time></trkpt><trkpt lat="58.061427" lon="39.138658"><ele>102.0</ele><time>2023-04-09T10:58:09Z</time></trkpt><trkpt lat="58.061328" lon="39.13866"><ele>103.0</ele><time>2023-04-09T10:58:12Z</time></trkpt><trkpt lat="58.061258" lon="39.138752"><ele>103.0</ele><time>2023-04-09T10:58:16Z</time></trkpt><trkpt lat="58.061222" lon="39.138878"><ele>102.0</ele><time>2023-04-09T10:58:20Z</time></trkpt><trkpt lat="58.061195" lon="39.139038"><ele>102.0</ele><time>2023-04-09T10:58:25Z</time></trkpt><trkpt lat="58.061163" lon="39.139172"><ele>104.0</ele><time>2023-04-09T10:58:29Z</time></trkpt><trkpt lat="58.061138" lon="39.139312"><ele>103.0</ele><time>2023-04-09T10:58:33Z</time></trkpt><trkpt lat="58.061095" lon="39.13945"><ele>103.0</ele><time>2023-04-09T10:58:38Z</time></trkpt><trkpt lat="58.06104" lon="39.139555"><ele>104.0</ele><time>2023-04-09T10:58:44Z</time></trkpt><trkpt lat="58.060967" lon="39.139622"><ele>104.0</ele><time>2023-04-09T10:58:50Z</time></trkpt><trkpt lat="58.06089" lon="39.139605"><ele>105.0</ele><time>2023-04-09T10:58:55Z</time></trkpt><trkpt lat="58.060827" lon="39.139503"><ele>107.0</ele><time>2023-04-09T10:59:01Z</time></trkpt><trkpt lat="58.06081" lon="39.13935"><ele>106.0</ele><time>2023-04-09T10:59:07Z</time></trkpt><trkpt lat="58.060828" lon="39.139198"><ele>107.0</ele><time>2023-04-09T10:59:12Z</time></trkpt><trkpt lat="58.060863" lon="39.139043"><ele>106.0</ele><time>2023-04-09T10:59:16Z</time></trkpt><trkpt lat="58.060877" lon="39.138898"><ele>106.0</ele><time>2023-04-09T10:59:20Z</time></trkpt><trkpt lat="58.060895" lon="39.138762"><ele>104.0</ele><time>2023-04-09T10:59:29Z</time></trkpt><trkpt lat="58.060852" lon="39.138617"><ele>104.0</ele><time>2023-04-09T11:01:46Z</time></trkpt><trkpt lat="58.06082" lon="39.138475"><ele>104.0</ele><time>2023-04-09T11:01:50Z</time></trkpt><trkpt lat="58.060787" lon="39.13834"><ele>104.0</ele><time>2023-04-09T11:01:55Z</time></trkpt><trkpt lat="58.060747" lon="39.138217"><ele>102.0</ele><time>2023-04-09T11:01:59Z</time></trkpt><trkpt lat="58.060705" lon="39.138102"><ele>103.0</ele><time>2023-04-09T11:02:01Z</time></trkpt><trkpt lat="58.060638" lon="39.137975"><ele>103.0</ele><time>2023-04-09T11:02:03Z</time></trkpt><trkpt lat="58.060568" lon="39.137862"><ele>104.0</ele><time>2023-04-09T11:02:07Z</time></trkpt><trkpt lat="58.060485" lon="39.137833"><ele>103.0</ele><time>2023-04-09T11:02:11Z</time></trkpt><trkpt lat="58.060398" lon="39.13784"><ele>105.0</ele><time>2023-04-09T11:02:15Z</time></trkpt><trkpt lat="58.06031" lon="39.137845"><ele>105.0</ele><time>2023-04-09T11:02:19Z</time></trkpt><trkpt lat="58.060233" lon="39.137828"><ele>104.0</ele><time>2023-04-09T11:02:23Z</time></trkpt><trkpt lat="58.060165" lon="39.137782"><ele>103.0</ele><time>2023-04-09T11:02:27Z</time></trkpt><trkpt lat="58.06008" lon="39.137705"><ele>105.0</ele><time>2023-04-09T11:02:31Z</time></trkpt><trkpt lat="58.060012" lon="39.137588"><ele>103.0</ele><time>2023-04-09T11:02:35Z</time></trkpt><trkpt lat="58.059953" lon="39.137487"><ele>103.0</ele><time>2023-04-09T11:02:38Z</time></trkpt><trkpt lat="58.059895" lon="39.137405"><ele>104.0</ele><time>2023-04-09T11:02:41Z</time></trkpt><trkpt lat="58.059818" lon="39.137432"><ele>103.0</ele><time>2023-04-09T11:02:45Z</time></trkpt><trkpt lat="58.05976" lon="39.13752"><ele>103.0</ele><time>2023-04-09T11:02:48Z</time></trkpt><trkpt lat="58.059702" lon="39.13764"><ele>103.0</ele><time>2023-04-09T11:02:51Z</time></trkpt><trkpt lat="58.059653" lon="39.13776"><ele>102.0</ele><time>2023-04-09T11:02:54Z</time></trkpt><trkpt lat="58.059602" lon="39.137857"><ele>103.0</ele><time>2023-04-09T11:02:57Z</time></trkpt><trkpt lat="58.059513" lon="39.13793"><ele>103.0</ele><time>2023-04-09T11:03:01Z</time></trkpt><trkpt lat="58.059435" lon="39.137958"><ele>104.0</ele><time>2023-04-09T11:03:04Z</time></trkpt><trkpt lat="58.059342" lon="39.137963"><ele>105.0</ele><time>2023-04-09T11:03:08Z</time></trkpt><trkpt lat="58.059258" lon="39.138012"><ele>101.0</ele><time>2023-04-09T11:03:13Z</time></trkpt><trkpt lat="58.05919" lon="39.138097"><ele>101.0</ele><time>2023-04-09T11:03:17Z</time></trkpt><trkpt lat="58.059115" lon="39.138158"><ele>99.0</ele><time>2023-04-09T11:03:21Z</time></trkpt><trkpt lat="58.059047" lon="39.138217"><ele>96.0</ele><time>2023-04-09T11:03:25Z</time></trkpt><trkpt lat="58.058972" lon="39.138285"><ele>97.0</ele><time>2023-04-09T11:03:30Z</time></trkpt><trkpt lat="58.058892" lon="39.138332"><ele>97.0</ele><time>2023-04-09T11:03:35Z</time></trkpt><trkpt lat="58.05882" lon="39.138362"><ele>96.0</ele><time>2023-04-09T11:03:38Z</time></trkpt><trkpt lat="58.058737" lon="39.138382"><ele>97.0</ele><time>2023-04-09T11:03:43Z</time></trkpt><trkpt lat="58.05865" lon="39.13837"><ele>97.0</ele><time>2023-04-09T11:03:47Z</time></trkpt><trkpt lat="58.058568" lon="39.138372"><ele>98.0</ele><time>2023-04-09T11:03:51Z</time></trkpt><trkpt lat="58.05849" lon="39.138382"><ele>99.0</ele><time>2023-04-09T11:03:55Z</time></trkpt><trkpt lat="58.0584" lon="39.138382"><ele>98.0</ele><time>2023-04-09T11:04:00Z</time></trkpt><trkpt lat="58.058308" lon="39.138403"><ele>99.0</ele><time>2023-04-09T11:04:03Z</time></trkpt><trkpt lat="58.058225" lon="39.13838"><ele>99.0</ele><time>2023-04-09T11:04:06Z</time></trkpt><trkpt lat="58.058147" lon="39.138372"><ele>100.0</ele><time>2023-04-09T11:04:10Z</time></trkpt><trkpt lat="58.058073" lon="39.138367"><ele>100.0</ele><time>2023-04-09T11:04:14Z</time></trkpt><trkpt lat="58.057998" lon="39.138375"><ele>103.0</ele><time>2023-04-09T11:04:18Z</time></trkpt><trkpt lat="58.057918" lon="39.138432"><ele>103.0</ele><time>2023-04-09T11:04:23Z</time></trkpt><trkpt lat="58.057843" lon="39.138448"><ele>102.0</ele><time>2023-04-09T11:04:28Z</time></trkpt><trkpt lat="58.057777" lon="39.138378"><ele>102.0</ele><time>2023-04-09T11:04:34Z</time></trkpt><trkpt lat="58.05771" lon="39.13828"><ele>103.0</ele><time>2023-04-09T11:04:39Z</time></trkpt><trkpt lat="58.057662" lon="39.138172"><ele>104.0</ele><time>2023-04-09T11:04:43Z</time></trkpt><trkpt lat="58.05762" lon="39.138053"><ele>104.0</ele><time>2023-04-09T11:04:46Z</time></trkpt><trkpt lat="58.057567" lon="39.137927"><ele>104.0</ele><time>2023-04-09T11:04:49Z</time></trkpt><trkpt lat="58.05749" lon="39.137865"><ele>102.0</ele><time>2023-04-09T11:04:53Z</time></trkpt><trkpt lat="58.057423" lon="39.137807"><ele>102.0</ele><time>2023-04-09T11:04:57Z</time></trkpt><trkpt lat="58.057352" lon="39.137775"><ele>103.0</ele><time>2023-04-09T11:05:01Z</time></trkpt><trkpt lat="58.057265" lon="39.13774"><ele>101.0</ele><time>2023-04-09T11:05:06Z</time></trkpt><trkpt lat="58.057188" lon="39.13764"><ele>103.0</ele><time>2023-04-09T11:05:12Z</time></trkpt><trkpt lat="58.057127" lon="39.137543"><ele>103.0</ele><time>2023-04-09T11:05:15Z</time></trkpt><trkpt lat="58.057067" lon="39.137422"><ele>105.0</ele><time>2023-04-09T11:05:18Z</time></trkpt><trkpt lat="58.057008" lon="39.13731"><ele>106.0</ele><time>2023-04-09T11:05:21Z</time></trkpt><trkpt lat="58.056957" lon="39.137163"><ele>105.0</ele><time>2023-04-09T11:05:24Z</time></trkpt><trkpt lat="58.056912" lon="39.137017"><ele>107.0</ele><time>2023-04-09T11:05:27Z</time></trkpt><trkpt lat="58.056857" lon="39.136885"><ele>103.0</ele><time>2023-04-09T11:05:31Z</time></trkpt><trkpt lat="58.056793" lon="39.13681"><ele>102.0</ele><time>2023-04-09T11:05:35Z</time></trkpt><trkpt lat="58.056743" lon="39.136667"><ele>105.0</ele><time>2023-04-09T11:05:39Z</time></trkpt><trkpt lat="58.0567" lon="39.136525"><ele>108.0</ele><time>2023-04-09T11:05:43Z</time></trkpt><trkpt lat="58.056622" lon="39.136487"><ele>109.0</ele><time>2023-04-09T11:05:47Z</time></trkpt><trkpt lat="58.056548" lon="39.136477"><ele>110.0</ele><time>2023-04-09T11:05:50Z</time></trkpt><trkpt lat="58.056473" lon="39.136462"><ele>110.0</ele><time>2023-04-09T11:05:53Z</time></trkpt><trkpt lat="58.056397" lon="39.136455"><ele>109.0</ele><time>2023-04-09T11:05:57Z</time></trkpt><trkpt lat="58.056315" lon="39.13647"><ele>108.0</ele><time>2023-04-09T11:06:01Z</time></trkpt><trkpt lat="58.056225" lon="39.13644"><ele>107.0</ele><time>2023-04-09T11:06:06Z</time></trkpt><trkpt lat="58.056138" lon="39.136423"><ele>107.0</ele><time>2023-04-09T11:06:11Z</time></trkpt><trkpt lat="58.056058" lon="39.13639"><ele>106.0</ele><time>2023-04-09T11:06:15Z</time></trkpt><trkpt lat="58.055987" lon="39.136375"><ele>107.0</ele><time>2023-04-09T11:06:18Z</time></trkpt><trkpt lat="58.055908" lon="39.136353"><ele>107.0</ele><time>2023-04-09T11:06:21Z</time></trkpt><trkpt lat="58.055817" lon="39.136337"><ele>108.0</ele><time>2023-04-09T11:06:25Z</time></trkpt><trkpt lat="58.055742" lon="39.136317"><ele>108.0</ele><time>2023-04-09T11:06:28Z</time></trkpt><trkpt lat="58.055673" lon="39.136267"><ele>107.0</ele><time>2023-04-09T11:06:32Z</time></trkpt><trkpt lat="58.055583" lon="39.136287"><ele>107.0</ele><time>2023-04-09T11:06:36Z</time></trkpt><trkpt lat="58.055508" lon="39.136307"><ele>109.0</ele><time>2023-04-09T11:06:39Z</time></trkpt><trkpt lat="58.055415" lon="39.136362"><ele>109.0</ele><time>2023-04-09T11:06:43Z</time></trkpt><trkpt lat="58.055333" lon="39.136428"><ele>108.0</ele><time>2023-04-09T11:06:47Z</time></trkpt><trkpt lat="58.055258" lon="39.136515"><ele>107.0</ele><time>2023-04-09T11:06:52Z</time></trkpt><trkpt lat="58.055182" lon="39.136605"><ele>107.0</ele><time>2023-04-09T11:06:57Z</time></trkpt><trkpt lat="58.055098" lon="39.136638"><ele>108.0</ele><time>2023-04-09T11:07:01Z</time></trkpt><trkpt lat="58.055025" lon="39.136677"><ele>107.0</ele><time>2023-04-09T11:07:06Z</time></trkpt><trkpt lat="58.054945" lon="39.136707"><ele>106.0</ele><time>2023-04-09T11:07:10Z</time></trkpt><trkpt lat="58.054855" lon="39.136725"><ele>106.0</ele><time>2023-04-09T11:07:14Z</time></trkpt><trkpt lat="58.054778" lon="39.13674"><ele>105.0</ele><time>2023-04-09T11:07:18Z</time></trkpt><trkpt lat="58.054692" lon="39.13677"><ele>104.0</ele><time>2023-04-09T11:07:22Z</time></trkpt><trkpt lat="58.054608" lon="39.13678"><ele>106.0</ele><time>2023-04-09T11:07:26Z</time></trkpt><trkpt lat="58.05453" lon="39.136803"><ele>105.0</ele><time>2023-04-09T11:07:30Z</time></trkpt><trkpt lat="58.054447" lon="39.13686"><ele>103.0</ele><time>2023-04-09T11:07:34Z</time></trkpt><trkpt lat="58.054368" lon="39.136948"><ele>103.0</ele><time>2023-04-09T11:07:38Z</time></trkpt><trkpt lat="58.054312" lon="39.137062"><ele>103.0</ele><time>2023-04-09T11:07:42Z</time></trkpt><trkpt lat="58.054262" lon="39.137177"><ele>104.0</ele><time>2023-04-09T11:07:47Z</time></trkpt><trkpt lat="58.054215" lon="39.137302"><ele>104.0</ele><time>2023-04-09T11:07:52Z</time></trkpt><trkpt lat="58.054177" lon="39.137427"><ele>104.0</ele><time>2023-04-09T11:07:56Z</time></trkpt><trkpt lat="58.054137" lon="39.137573"><ele>103.0</ele><time>2023-04-09T11:08:01Z</time></trkpt><trkpt lat="58.054108" lon="39.137712"><ele>100.0</ele><time>2023-04-09T11:08:06Z</time></trkpt><trkpt lat="58.054083" lon="39.13784"><ele>103.0</ele><time>2023-04-09T11:08:10Z</time></trkpt><trkpt lat="58.05406" lon="39.137987"><ele>103.0</ele><time>2023-04-09T11:08:14Z</time></trkpt><trkpt lat="58.054028" lon="39.138133"><ele>103.0</ele><time>2023-04-09T11:08:18Z</time></trkpt><trkpt lat="58.053993" lon="39.13826"><ele>103.0</ele><time>2023-04-09T11:08:22Z</time></trkpt><trkpt lat="58.053967" lon="39.138408"><ele>100.0</ele><time>2023-04-09T11:08:26Z</time></trkpt><trkpt lat="58.053935" lon="39.138545"><ele>101.0</ele><time>2023-04-09T11:08:30Z</time></trkpt><trkpt lat="58.053908" lon="39.138678"><ele>101.0</ele><time>2023-04-09T11:08:35Z</time></trkpt><trkpt lat="58.053887" lon="39.138817"><ele>101.0</ele><time>2023-04-09T11:08:39Z</time></trkpt><trkpt lat="58.053887" lon="39.138988"><ele>97.0</ele><time>2023-04-09T11:08:43Z</time></trkpt><trkpt lat="58.053908" lon="39.139122"><ele>97.0</ele><time>2023-04-09T11:08:47Z</time></trkpt><trkpt lat="58.053973" lon="39.139233"><ele>97.0</ele><time>2023-04-09T11:08:52Z</time></trkpt><trkpt lat="58.054045" lon="39.139315"><ele>97.0</ele><time>2023-04-09T11:08:56Z</time></trkpt><trkpt lat="58.05411" lon="39.139423"><ele>98.0</ele><time>2023-04-09T11:09:00Z</time></trkpt><trkpt lat="58.054155" lon="39.139585"><ele>98.0</ele><time>2023-04-09T11:09:04Z</time></trkpt><trkpt lat="58.054192" lon="39.139723"><ele>97.0</ele><time>2023-04-09T11:09:08Z</time></trkpt><trkpt lat="58.054213" lon="39.139868"><ele>97.0</ele><time>2023-04-09T11:09:12Z</time></trkpt><trkpt lat="58.054218" lon="39.140042"><ele>97.0</ele><time>2023-04-09T11:09:16Z</time></trkpt><trkpt lat="58.054208" lon="39.140183"><ele>97.0</ele><time>2023-04-09T11:09:20Z</time></trkpt><trkpt lat="58.054175" lon="39.14033"><ele>95.0</ele><time>2023-04-09T11:09:24Z</time></trkpt><trkpt lat="58.054128" lon="39.140465"><ele>94.0</ele><time>2023-04-09T11:09:29Z</time></trkpt><trkpt lat="58.054072" lon="39.14056"><ele>96.0</ele><time>2023-04-09T11:09:33Z</time></trkpt><trkpt lat="58.053995" lon="39.140637"><ele>98.0</ele><time>2023-04-09T11:09:38Z</time></trkpt><trkpt lat="58.05393" lon="39.140693"><ele>99.0</ele><time>2023-04-09T11:09:43Z</time></trkpt><trkpt lat="58.053858" lon="39.14074"><ele>98.0</ele><time>2023-04-09T11:09:48Z</time></trkpt><trkpt lat="58.053785" lon="39.140802"><ele>99.0</ele><time>2023-04-09T11:09:52Z</time></trkpt><trkpt lat="58.05372" lon="39.140858"><ele>97.0</ele><time>2023-04-09T11:09:56Z</time></trkpt><trkpt lat="58.053638" lon="39.140892"><ele>100.0</ele><time>2023-04-09T11:10:01Z</time></trkpt><trkpt lat="58.053553" lon="39.140935"><ele>99.0</ele><time>2023-04-09T11:10:05Z</time></trkpt><trkpt lat="58.053478" lon="39.14098"><ele>98.0</ele><time>2023-04-09T11:10:09Z</time></trkpt><trkpt lat="58.053398" lon="39.140952"><ele>100.0</ele><time>2023-04-09T11:10:13Z</time></trkpt><trkpt lat="58.053308" lon="39.140948"><ele>101.0</ele><time>2023-04-09T11:10:17Z</time></trkpt><trkpt lat="58.053237" lon="39.140995"><ele>102.0</ele><time>2023-04-09T11:10:26Z</time></trkpt><trkpt lat="58.053158" lon="39.14096"><ele>98.0</ele><time>2023-04-09T11:10:35Z</time></trkpt><trkpt lat="58.053085" lon="39.140893"><ele>100.0</ele><time>2023-04-09T11:10:41Z</time></trkpt><trkpt lat="58.05301" lon="39.140885"><ele>101.0</ele><time>2023-04-09T11:10:48Z</time></trkpt><trkpt lat="58.05292" lon="39.14086"><ele>101.0</ele><time>2023-04-09T11:10:56Z</time></trkpt><trkpt lat="58.05287" lon="39.140753"><ele>102.0</ele><time>2023-04-09T11:11:01Z</time></trkpt><trkpt lat="58.052837" lon="39.140595"><ele>104.0</ele><time>2023-04-09T11:11:05Z</time></trkpt><trkpt lat="58.052777" lon="39.140467"><ele>104.0</ele><time>2023-04-09T11:11:10Z</time></trkpt><trkpt lat="58.052708" lon="39.140358"><ele>104.0</ele><time>2023-04-09T11:11:14Z</time></trkpt><trkpt lat="58.052643" lon="39.140227"><ele>106.0</ele><time>2023-04-09T11:11:18Z</time></trkpt><trkpt lat="58.052595" lon="39.140122"><ele>105.0</ele><time>2023-04-09T11:11:21Z</time></trkpt><trkpt lat="58.052548" lon="39.140015"><ele>103.0</ele><time>2023-04-09T11:11:24Z</time></trkpt><trkpt lat="58.052498" lon="39.139882"><ele>103.0</ele><time>2023-04-09T11:11:28Z</time></trkpt><trkpt lat="58.052453" lon="39.139775"><ele>103.0</ele><time>2023-04-09T11:11:32Z</time></trkpt><trkpt lat="58.05239" lon="39.13966"><ele>103.0</ele><time>2023-04-09T11:11:36Z</time></trkpt><trkpt lat="58.052332" lon="39.139533"><ele>104.0</ele><time>2023-04-09T11:11:40Z</time></trkpt><trkpt lat="58.052273" lon="39.1394"><ele>104.0</ele><time>2023-04-09T11:11:44Z</time></trkpt><trkpt lat="58.052223" lon="39.139288"><ele>103.0</ele><time>2023-04-09T11:11:48Z</time></trkpt><trkpt lat="58.052178" lon="39.139148"><ele>105.0</ele><time>2023-04-09T11:11:54Z</time></trkpt><trkpt lat="58.052152" lon="39.139003"><ele>106.0</ele><time>2023-04-09T11:11:58Z</time></trkpt><trkpt lat="58.052128" lon="39.13887"><ele>109.0</ele><time>2023-04-09T11:12:02Z</time></trkpt><trkpt lat="58.052105" lon="39.13871"><ele>108.0</ele><time>2023-04-09T11:12:07Z</time></trkpt><trkpt lat="58.052087" lon="39.138548"><ele>107.0</ele><time>2023-04-09T11:12:11Z</time></trkpt><trkpt lat="58.052057" lon="39.138382"><ele>108.0</ele><time>2023-04-09T11:12:15Z</time></trkpt><trkpt lat="58.052042" lon="39.138238"><ele>110.0</ele><time>2023-04-09T11:12:18Z</time></trkpt><trkpt lat="58.052015" lon="39.138068"><ele>108.0</ele><time>2023-04-09T11:12:22Z</time></trkpt><trkpt lat="58.052007" lon="39.137893"><ele>106.0</ele><time>2023-04-09T11:12:26Z</time></trkpt><trkpt lat="58.052017" lon="39.137708"><ele>109.0</ele><time>2023-04-09T11:12:30Z</time></trkpt><trkpt lat="58.052037" lon="39.137557"><ele>108.0</ele><time>2023-04-09T11:12:33Z</time></trkpt><trkpt lat="58.052048" lon="39.137397"><ele>109.0</ele><time>2023-04-09T11:12:36Z</time></trkpt><trkpt lat="58.052053" lon="39.137228"><ele>108.0</ele><time>2023-04-09T11:12:39Z</time></trkpt><trkpt lat="58.052055" lon="39.137092"><ele>110.0</ele><time>2023-04-09T11:12:42Z</time></trkpt><trkpt lat="58.052053" lon="39.136923"><ele>110.0</ele><time>2023-04-09T11:12:47Z</time></trkpt><trkpt lat="58.052047" lon="39.136748"><ele>111.0</ele><time>2023-04-09T11:12:51Z</time></trkpt><trkpt lat="58.052028" lon="39.136583"><ele>108.0</ele><time>2023-04-09T11:12:55Z</time></trkpt><trkpt lat="58.052012" lon="39.136433"><ele>106.0</ele><time>2023-04-09T11:13:00Z</time></trkpt><trkpt lat="58.052" lon="39.136268"><ele>104.0</ele><time>2023-04-09T11:13:04Z</time></trkpt><trkpt lat="58.051978" lon="39.136137"><ele>102.0</ele><time>2023-04-09T11:13:07Z</time></trkpt><trkpt lat="58.051945" lon="39.136007"><ele>101.0</ele><time>2023-04-09T11:13:10Z</time></trkpt><trkpt lat="58.051915" lon="39.135852"><ele>100.0</ele><time>2023-04-09T11:13:13Z</time></trkpt><trkpt lat="58.0519" lon="39.13569"><ele>101.0</ele><time>2023-04-09T11:13:16Z</time></trkpt><trkpt lat="58.05186" lon="39.135525"><ele>100.0</ele><time>2023-04-09T11:13:19Z</time></trkpt><trkpt lat="58.051842" lon="39.13536"><ele>101.0</ele><time>2023-04-09T11:13:22Z</time></trkpt><trkpt lat="58.051842" lon="39.1352"><ele>102.0</ele><time>2023-04-09T11:13:25Z</time></trkpt><trkpt lat="58.05183" lon="39.135013"><ele>104.0</ele><time>2023-04-09T11:13:28Z</time></trkpt><trkpt lat="58.051793" lon="39.134857"><ele>106.0</ele><time>2023-04-09T11:13:31Z</time></trkpt><trkpt lat="58.051753" lon="39.134745"><ele>107.0</ele><time>2023-04-09T11:13:33Z</time></trkpt><trkpt lat="58.051695" lon="39.134625"><ele>105.0</ele><time>2023-04-09T11:13:36Z</time></trkpt><trkpt lat="58.051655" lon="39.134507"><ele>103.0</ele><time>2023-04-09T11:13:39Z</time></trkpt><trkpt lat="58.051622" lon="39.134377"><ele>105.0</ele><time>2023-04-09T11:13:42Z</time></trkpt><trkpt lat="58.051583" lon="39.134243"><ele>105.0</ele><time>2023-04-09T11:13:46Z</time></trkpt><trkpt lat="58.051547" lon="39.134117"><ele>103.0</ele><time>2023-04-09T11:13:51Z</time></trkpt><trkpt lat="58.051503" lon="39.133982"><ele>102.0</ele><time>2023-04-09T11:13:57Z</time></trkpt><trkpt lat="58.051448" lon="39.133873"><ele>101.0</ele><time>2023-04-09T11:14:01Z</time></trkpt><trkpt lat="58.051393" lon="39.133778"><ele>99.0</ele><time>2023-04-09T11:14:05Z</time></trkpt><trkpt lat="58.051332" lon="39.13369"><ele>100.0</ele><time>2023-04-09T11:14:09Z</time></trkpt><trkpt lat="58.051263" lon="39.133607"><ele>100.0</ele><time>2023-04-09T11:14:13Z</time></trkpt><trkpt lat="58.05119" lon="39.133518"><ele>100.0</ele><time>2023-04-09T11:14:17Z</time></trkpt><trkpt lat="58.05112" lon="39.133422"><ele>101.0</ele><time>2023-04-09T11:14:21Z</time></trkpt><trkpt lat="58.051057" lon="39.13333"><ele>102.0</ele><time>2023-04-09T11:14:25Z</time></trkpt><trkpt lat="58.051013" lon="39.133205"><ele>102.0</ele><time>2023-04-09T11:14:30Z</time></trkpt><trkpt lat="58.050965" lon="39.133097"><ele>103.0</ele><time>2023-04-09T11:14:34Z</time></trkpt><trkpt lat="58.050908" lon="39.132982"><ele>102.0</ele><time>2023-04-09T11:14:38Z</time></trkpt><trkpt lat="58.05085" lon="39.132842"><ele>103.0</ele><time>2023-04-09T11:14:42Z</time></trkpt><trkpt lat="58.050793" lon="39.132735"><ele>103.0</ele><time>2023-04-09T11:14:45Z</time></trkpt><trkpt lat="58.050713" lon="39.132678"><ele>103.0</ele><time>2023-04-09T11:14:49Z</time></trkpt><trkpt lat="58.050633" lon="39.132688"><ele>102.0</ele><time>2023-04-09T11:14:53Z</time></trkpt><trkpt lat="58.050543" lon="39.132692"><ele>102.0</ele><time>2023-04-09T11:14:58Z</time></trkpt><trkpt lat="58.05046" lon="39.132663"><ele>103.0</ele><time>2023-04-09T11:15:02Z</time></trkpt><trkpt lat="58.050378" lon="39.13266"><ele>103.0</ele><time>2023-04-09T11:15:06Z</time></trkpt><trkpt lat="58.050285" lon="39.13263"><ele>102.0</ele><time>2023-04-09T11:15:11Z</time></trkpt><trkpt lat="58.050207" lon="39.132627"><ele>101.0</ele><time>2023-04-09T11:15:15Z</time></trkpt><trkpt lat="58.050127" lon="39.132642"><ele>101.0</ele><time>2023-04-09T11:15:19Z</time></trkpt><trkpt lat="58.050038" lon="39.13269"><ele>101.0</ele><time>2023-04-09T11:15:23Z</time></trkpt><trkpt lat="58.049948" lon="39.132747"><ele>101.0</ele><time>2023-04-09T11:15:27Z</time></trkpt><trkpt lat="58.049875" lon="39.132777"><ele>102.0</ele><time>2023-04-09T11:15:30Z</time></trkpt><trkpt lat="58.049798" lon="39.132837"><ele>103.0</ele><time>2023-04-09T11:15:34Z</time></trkpt><trkpt lat="58.049727" lon="39.13288"><ele>101.0</ele><time>2023-04-09T11:15:37Z</time></trkpt><trkpt lat="58.049632" lon="39.132927"><ele>104.0</ele><time>2023-04-09T11:15:41Z</time></trkpt><trkpt lat="58.049558" lon="39.13297"><ele>105.0</ele><time>2023-04-09T11:15:44Z</time></trkpt><trkpt lat="58.049488" lon="39.133025"><ele>102.0</ele><time>2023-04-09T11:15:48Z</time></trkpt><trkpt lat="58.049412" lon="39.133078"><ele>104.0</ele><time>2023-04-09T11:15:53Z</time></trkpt><trkpt lat="58.049332" lon="39.133157"><ele>103.0</ele><time>2023-04-09T11:15:57Z</time></trkpt><trkpt lat="58.049262" lon="39.133242"><ele>104.0</ele><time>2023-04-09T11:16:01Z</time></trkpt><trkpt lat="58.049197" lon="39.133327"><ele>106.0</ele><time>2023-04-09T11:16:05Z</time></trkpt><trkpt lat="58.049132" lon="39.133405"><ele>106.0</ele><time>2023-04-09T11:16:08Z</time></trkpt><trkpt lat="58.049058" lon="39.133465"><ele>106.0</ele><time>2023-04-09T11:16:12Z</time></trkpt><trkpt lat="58.048963" lon="39.13346"><ele>105.0</ele><time>2023-04-09T11:16:16Z</time></trkpt><trkpt lat="58.048883" lon="39.133478"><ele>104.0</ele><time>2023-04-09T11:16:20Z</time></trkpt><trkpt lat="58.048815" lon="39.133518"><ele>102.0</ele><time>2023-04-09T11:16:24Z</time></trkpt><trkpt lat="58.048743" lon="39.133582"><ele>102.0</ele><time>2023-04-09T11:16:28Z</time></trkpt><trkpt lat="58.048655" lon="39.133612"><ele>103.0</ele><time>2023-04-09T11:16:32Z</time></trkpt><trkpt lat="58.04857" lon="39.133633"><ele>102.0</ele><time>2023-04-09T11:16:36Z</time></trkpt><trkpt lat="58.048488" lon="39.13366"><ele>103.0</ele><time>2023-04-09T11:16:40Z</time></trkpt><trkpt lat="58.048413" lon="39.133688"><ele>100.0</ele><time>2023-04-09T11:16:44Z</time></trkpt><trkpt lat="58.04833" lon="39.13372"><ele>100.0</ele><time>2023-04-09T11:16:48Z</time></trkpt><trkpt lat="58.048253" lon="39.133718"><ele>96.0</ele><time>2023-04-09T11:16:52Z</time></trkpt><trkpt lat="58.04816" lon="39.133685"><ele>97.0</ele><time>2023-04-09T11:16:56Z</time></trkpt><trkpt lat="58.048077" lon="39.13363"><ele>97.0</ele><time>2023-04-09T11:17:00Z</time></trkpt><trkpt lat="58.048012" lon="39.13357"><ele>97.0</ele><time>2023-04-09T11:17:03Z</time></trkpt><trkpt lat="58.047947" lon="39.133465"><ele>97.0</ele><time>2023-04-09T11:17:06Z</time></trkpt><trkpt lat="58.047887" lon="39.133358"><ele>96.0</ele><time>2023-04-09T11:17:09Z</time></trkpt><trkpt lat="58.047832" lon="39.133218"><ele>95.0</ele><time>2023-04-09T11:17:13Z</time></trkpt><trkpt lat="58.047788" lon="39.133108"><ele>92.0</ele><time>2023-04-09T11:17:16Z</time></trkpt><trkpt lat="58.047727" lon="39.132963"><ele>91.0</ele><time>2023-04-09T11:17:20Z</time></trkpt><trkpt lat="58.047677" lon="39.132862"><ele>92.0</ele><time>2023-04-09T11:17:23Z</time></trkpt><trkpt lat="58.047618" lon="39.132762"><ele>94.0</ele><time>2023-04-09T11:17:26Z</time></trkpt><trkpt lat="58.04756" lon="39.132667"><ele>93.0</ele><time>2023-04-09T11:17:29Z</time></trkpt><trkpt lat="58.047493" lon="39.13257"><ele>94.0</ele><time>2023-04-09T11:17:32Z</time></trkpt><trkpt lat="58.047435" lon="39.132487"><ele>96.0</ele><time>2023-04-09T11:17:35Z</time></trkpt><trkpt lat="58.047365" lon="39.132408"><ele>94.0</ele><time>2023-04-09T11:17:39Z</time></trkpt><trkpt lat="58.047285" lon="39.132307"><ele>94.0</ele><time>2023-04-09T11:17:43Z</time></trkpt><trkpt lat="58.047217" lon="39.13221"><ele>94.0</ele><time>2023-04-09T11:17:46Z</time></trkpt><trkpt lat="58.04715" lon="39.13209"><ele>95.0</ele><time>2023-04-09T11:17:49Z</time></trkpt><trkpt lat="58.047095" lon="39.131958"><ele>95.0</ele><time>2023-04-09T11:17:52Z</time></trkpt><trkpt lat="58.047038" lon="39.131822"><ele>97.0</ele><time>2023-04-09T11:17:55Z</time></trkpt><trkpt lat="58.046985" lon="39.131692"><ele>97.0</ele><time>2023-04-09T11:17:58Z</time></trkpt><trkpt lat="58.046937" lon="39.131572"><ele>97.0</ele><time>2023-04-09T11:18:01Z</time></trkpt><trkpt lat="58.046892" lon="39.131465"><ele>95.0</ele><time>2023-04-09T11:18:04Z</time></trkpt><trkpt lat="58.046822" lon="39.131333"><ele>95.0</ele><time>2023-04-09T11:18:08Z</time></trkpt><trkpt lat="58.046767" lon="39.131243"><ele>95.0</ele><time>2023-04-09T11:18:11Z</time></trkpt><trkpt lat="58.046702" lon="39.131152"><ele>94.0</ele><time>2023-04-09T11:18:15Z</time></trkpt><trkpt lat="58.046645" lon="39.131065"><ele>94.0</ele><time>2023-04-09T11:18:19Z</time></trkpt><trkpt lat="58.046577" lon="39.130948"><ele>94.0</ele><time>2023-04-09T11:18:23Z</time></trkpt><trkpt lat="58.046522" lon="39.13082"><ele>94.0</ele><time>2023-04-09T11:18:27Z</time></trkpt><trkpt lat="58.046492" lon="39.130675"><ele>95.0</ele><time>2023-04-09T11:18:31Z</time></trkpt><trkpt lat="58.04647" lon="39.130518"><ele>94.0</ele><time>2023-04-09T11:18:35Z</time></trkpt><trkpt lat="58.04645" lon="39.13037"><ele>95.0</ele><time>2023-04-09T11:18:39Z</time></trkpt><trkpt lat="58.04642" lon="39.130238"><ele>98.0</ele><time>2023-04-09T11:18:43Z</time></trkpt><trkpt lat="58.04638" lon="39.130125"><ele>96.0</ele><time>2023-04-09T11:18:47Z</time></trkpt><trkpt lat="58.046333" lon="39.130007"><ele>97.0</ele><time>2023-04-09T11:18:51Z</time></trkpt><trkpt lat="58.04628" lon="39.129903"><ele>97.0</ele><time>2023-04-09T11:18:55Z</time></trkpt><trkpt lat="58.046223" lon="39.129805"><ele>98.0</ele><time>2023-04-09T11:19:01Z</time></trkpt><trkpt lat="58.046195" lon="39.129662"><ele>103.0</ele><time>2023-04-09T11:19:07Z</time></trkpt><trkpt lat="58.046172" lon="39.129525"><ele>104.0</ele><time>2023-04-09T11:19:11Z</time></trkpt><trkpt lat="58.046143" lon="39.129352"><ele>105.0</ele><time>2023-04-09T11:19:15Z</time></trkpt><trkpt lat="58.046115" lon="39.129202"><ele>103.0</ele><time>2023-04-09T11:19:18Z</time></trkpt><trkpt lat="58.046072" lon="39.129052"><ele>103.0</ele><time>2023-04-09T11:19:21Z</time></trkpt><trkpt lat="58.046032" lon="39.128937"><ele>101.0</ele><time>2023-04-09T11:19:25Z</time></trkpt><trkpt lat="58.045995" lon="39.128812"><ele>101.0</ele><time>2023-04-09T11:19:29Z</time></trkpt><trkpt lat="58.045967" lon="39.128668"><ele>101.0</ele><time>2023-04-09T11:19:33Z</time></trkpt><trkpt lat="58.045938" lon="39.128505"><ele>102.0</ele><time>2023-04-09T11:19:37Z</time></trkpt><trkpt lat="58.045902" lon="39.128357"><ele>101.0</ele><time>2023-04-09T11:19:41Z</time></trkpt><trkpt lat="58.045862" lon="39.128225"><ele>101.0</ele><time>2023-04-09T11:19:44Z</time></trkpt><trkpt lat="58.045798" lon="39.128082"><ele>100.0</ele><time>2023-04-09T11:19:48Z</time></trkpt><trkpt lat="58.045747" lon="39.12796"><ele>99.0</ele><time>2023-04-09T11:19:51Z</time></trkpt><trkpt lat="58.0457" lon="39.127832"><ele>97.0</ele><time>2023-04-09T11:19:54Z</time></trkpt><trkpt lat="58.045648" lon="39.127683"><ele>95.0</ele><time>2023-04-09T11:19:57Z</time></trkpt><trkpt lat="58.0456" lon="39.12754"><ele>94.0</ele><time>2023-04-09T11:20:00Z</time></trkpt><trkpt lat="58.045553" lon="39.127382"><ele>96.0</ele><time>2023-04-09T11:20:03Z</time></trkpt><trkpt lat="58.045512" lon="39.12721"><ele>97.0</ele><time>2023-04-09T11:20:06Z</time></trkpt><trkpt lat="58.045472" lon="39.127097"><ele>98.0</ele><time>2023-04-09T11:20:08Z</time></trkpt><trkpt lat="58.045433" lon="39.126975"><ele>97.0</ele><time>2023-04-09T11:20:11Z</time></trkpt><trkpt lat="58.04541" lon="39.126828"><ele>97.0</ele><time>2023-04-09T11:20:15Z</time></trkpt><trkpt lat="58.045387" lon="39.126695"><ele>95.0</ele><time>2023-04-09T11:20:18Z</time></trkpt><trkpt lat="58.045377" lon="39.126528"><ele>97.0</ele><time>2023-04-09T11:20:21Z</time></trkpt><trkpt lat="58.045363" lon="39.126373"><ele>99.0</ele><time>2023-04-09T11:20:24Z</time></trkpt><trkpt lat="58.045372" lon="39.126223"><ele>100.0</ele><time>2023-04-09T11:20:27Z</time></trkpt><trkpt lat="58.0454" lon="39.12608"><ele>100.0</ele><time>2023-04-09T11:20:30Z</time></trkpt><trkpt lat="58.045453" lon="39.125938"><ele>101.0</ele><time>2023-04-09T11:20:33Z</time></trkpt><trkpt lat="58.045515" lon="39.125787"><ele>103.0</ele><time>2023-04-09T11:20:36Z</time></trkpt><trkpt lat="58.045582" lon="39.125652"><ele>102.0</ele><time>2023-04-09T11:20:39Z</time></trkpt><trkpt lat="58.045638" lon="39.12551"><ele>103.0</ele><time>2023-04-09T11:20:42Z</time></trkpt><trkpt lat="58.045702" lon="39.125375"><ele>103.0</ele><time>2023-04-09T11:20:45Z</time></trkpt><trkpt lat="58.045757" lon="39.125223"><ele>103.0</ele><time>2023-04-09T11:20:48Z</time></trkpt><trkpt lat="58.04582" lon="39.125097"><ele>103.0</ele><time>2023-04-09T11:20:51Z</time></trkpt><trkpt lat="58.045877" lon="39.124973"><ele>103.0</ele><time>2023-04-09T11:20:54Z</time></trkpt><trkpt lat="58.045932" lon="39.124838"><ele>103.0</ele><time>2023-04-09T11:20:57Z</time></trkpt><trkpt lat="58.045977" lon="39.12472"><ele>101.0</ele><time>2023-04-09T11:21:00Z</time></trkpt><trkpt lat="58.046015" lon="39.124585"><ele>100.0</ele><time>2023-04-09T11:21:03Z</time></trkpt><trkpt lat="58.046047" lon="39.124428"><ele>100.0</ele><time>2023-04-09T11:21:06Z</time></trkpt><trkpt lat="58.046073" lon="39.124288"><ele>100.0</ele><time>2023-04-09T11:21:09Z</time></trkpt><trkpt lat="58.046095" lon="39.124135"><ele>100.0</ele><time>2023-04-09T11:21:12Z</time></trkpt><trkpt lat="58.04612" lon="39.123997"><ele>101.0</ele><time>2023-04-09T11:21:15Z</time></trkpt><trkpt lat="58.046157" lon="39.123857"><ele>100.0</ele><time>2023-04-09T11:21:18Z</time></trkpt><trkpt lat="58.046192" lon="39.123697"><ele>100.0</ele><time>2023-04-09T11:21:22Z</time></trkpt><trkpt lat="58.04625" lon="39.123575"><ele>99.0</ele><time>2023-04-09T11:21:26Z</time></trkpt><trkpt lat="58.046307" lon="39.123473"><ele>102.0</ele><time>2023-04-09T11:21:29Z</time></trkpt><trkpt lat="58.04636" lon="39.123383"><ele>103.0</ele><time>2023-04-09T11:21:32Z</time></trkpt><trkpt lat="58.046398" lon="39.123225"><ele>102.0</ele><time>2023-04-09T11:21:36Z</time></trkpt><trkpt lat="58.04643" lon="39.123075"><ele>100.0</ele><time>2023-04-09T11:21:40Z</time></trkpt><trkpt lat="58.046428" lon="39.122903"><ele>100.0</ele><time>2023-04-09T11:21:43Z</time></trkpt><trkpt lat="58.046372" lon="39.1228"><ele>99.0</ele><time>2023-04-09T11:21:49Z</time></trkpt><trkpt lat="58.046293" lon="39.122767"><ele>98.0</ele><time>2023-04-09T11:21:56Z</time></trkpt><trkpt lat="58.046212" lon="39.122735"><ele>98.0</ele><time>2023-04-09T11:22:02Z</time></trkpt><trkpt lat="58.046137" lon="39.122693"><ele>98.0</ele><time>2023-04-09T11:22:06Z</time></trkpt><trkpt lat="58.046038" lon="39.122658"><ele>96.0</ele><time>2023-04-09T11:22:10Z</time></trkpt><trkpt lat="58.045957" lon="39.122593"><ele>95.0</ele><time>2023-04-09T11:22:14Z</time></trkpt><trkpt lat="58.045882" lon="39.122505"><ele>94.0</ele><time>2023-04-09T11:22:17Z</time></trkpt><trkpt lat="58.04581" lon="39.122412"><ele>94.0</ele><time>2023-04-09T11:22:20Z</time></trkpt><trkpt lat="58.045747" lon="39.122283"><ele>93.0</ele><time>2023-04-09T11:22:23Z</time></trkpt><trkpt lat="58.045672" lon="39.122162"><ele>95.0</ele><time>2023-04-09T11:22:26Z</time></trkpt><trkpt lat="58.045583" lon="39.12209"><ele>94.0</ele><time>2023-04-09T11:22:29Z</time></trkpt><trkpt lat="58.045502" lon="39.122057"><ele>93.0</ele><time>2023-04-09T11:22:32Z</time></trkpt><trkpt lat="58.045423" lon="39.121997"><ele>94.0</ele><time>2023-04-09T11:22:36Z</time></trkpt><trkpt lat="58.045342" lon="39.121912"><ele>95.0</ele><time>2023-04-09T11:22:40Z</time></trkpt><trkpt lat="58.045275" lon="39.121852"><ele>96.0</ele><time>2023-04-09T11:22:43Z</time></trkpt><trkpt lat="58.045203" lon="39.121808"><ele>97.0</ele><time>2023-04-09T11:22:46Z</time></trkpt><trkpt lat="58.045113" lon="39.121753"><ele>96.0</ele><time>2023-04-09T11:22:50Z</time></trkpt><trkpt lat="58.045037" lon="39.121693"><ele>94.0</ele><time>2023-04-09T11:22:54Z</time></trkpt><trkpt lat="58.044945" lon="39.121645"><ele>95.0</ele><time>2023-04-09T11:22:58Z</time></trkpt><trkpt lat="58.044865" lon="39.121592"><ele>94.0</ele><time>2023-04-09T11:23:01Z</time></trkpt><trkpt lat="58.044798" lon="39.121532"><ele>93.0</ele><time>2023-04-09T11:23:04Z</time></trkpt><trkpt lat="58.044718" lon="39.121493"><ele>91.0</ele><time>2023-04-09T11:23:07Z</time></trkpt><trkpt lat="58.04464" lon="39.121457"><ele>90.0</ele><time>2023-04-09T11:23:10Z</time></trkpt><trkpt lat="58.044568" lon="39.121425"><ele>90.0</ele><time>2023-04-09T11:23:13Z</time></trkpt><trkpt lat="58.044493" lon="39.121358"><ele>92.0</ele><time>2023-04-09T11:23:16Z</time></trkpt><trkpt lat="58.044413" lon="39.121288"><ele>90.0</ele><time>2023-04-09T11:23:21Z</time></trkpt><trkpt lat="58.044343" lon="39.121218"><ele>89.0</ele><time>2023-04-09T11:23:25Z</time></trkpt><trkpt lat="58.044267" lon="39.121137"><ele>88.0</ele><time>2023-04-09T11:23:29Z</time></trkpt><trkpt lat="58.044202" lon="39.12103"><ele>89.0</ele><time>2023-04-09T11:23:33Z</time></trkpt><trkpt lat="58.044142" lon="39.120915"><ele>90.0</ele><time>2023-04-09T11:23:36Z</time></trkpt><trkpt lat="58.044068" lon="39.120847"><ele>91.0</ele><time>2023-04-09T11:23:39Z</time></trkpt><trkpt lat="58.043987" lon="39.120795"><ele>92.0</ele><time>2023-04-09T11:23:42Z</time></trkpt><trkpt lat="58.043898" lon="39.120783"><ele>92.0</ele><time>2023-04-09T11:23:45Z</time></trkpt><trkpt lat="58.043815" lon="39.120785"><ele>91.0</ele><time>2023-04-09T11:23:48Z</time></trkpt><trkpt lat="58.043737" lon="39.120797"><ele>91.0</ele><time>2023-04-09T11:23:51Z</time></trkpt><trkpt lat="58.043647" lon="39.120785"><ele>92.0</ele><time>2023-04-09T11:23:54Z</time></trkpt><trkpt lat="58.043573" lon="39.120747"><ele>91.0</ele><time>2023-04-09T11:23:57Z</time></trkpt><trkpt lat="58.043503" lon="39.120688"><ele>93.0</ele><time>2023-04-09T11:24:00Z</time></trkpt><trkpt lat="58.043427" lon="39.120612"><ele>93.0</ele><time>2023-04-09T11:24:04Z</time></trkpt><trkpt lat="58.043357" lon="39.120533"><ele>94.0</ele><time>2023-04-09T11:24:08Z</time></trkpt><trkpt lat="58.043293" lon="39.120462"><ele>93.0</ele><time>2023-04-09T11:24:11Z</time></trkpt><trkpt lat="58.043213" lon="39.120408"><ele>95.0</ele><time>2023-04-09T11:24:14Z</time></trkpt><trkpt lat="58.043127" lon="39.120353"><ele>93.0</ele><time>2023-04-09T11:24:17Z</time></trkpt><trkpt lat="58.043042" lon="39.120297"><ele>95.0</ele><time>2023-04-09T11:24:20Z</time></trkpt><trkpt lat="58.042955" lon="39.120248"><ele>93.0</ele><time>2023-04-09T11:24:24Z</time></trkpt><trkpt lat="58.04287" lon="39.120153"><ele>91.0</ele><time>2023-04-09T11:24:28Z</time></trkpt><trkpt lat="58.04279" lon="39.120097"><ele>90.0</ele><time>2023-04-09T11:24:31Z</time></trkpt><trkpt lat="58.042702" lon="39.12007"><ele>90.0</ele><time>2023-04-09T11:24:34Z</time></trkpt><trkpt lat="58.04262" lon="39.120065"><ele>89.0</ele><time>2023-04-09T11:24:37Z</time></trkpt><trkpt lat="58.042542" lon="39.120025"><ele>88.0</ele><time>2023-04-09T11:24:40Z</time></trkpt><trkpt lat="58.042477" lon="39.11996"><ele>88.0</ele><time>2023-04-09T11:24:43Z</time></trkpt><trkpt lat="58.042412" lon="39.119857"><ele>87.0</ele><time>2023-04-09T11:24:46Z</time></trkpt><trkpt lat="58.042352" lon="39.119778"><ele>88.0</ele><time>2023-04-09T11:24:49Z</time></trkpt><trkpt lat="58.042278" lon="39.119685"><ele>87.0</ele><time>2023-04-09T11:24:53Z</time></trkpt><trkpt lat="58.042212" lon="39.11961"><ele>86.0</ele><time>2023-04-09T11:24:56Z</time></trkpt><trkpt lat="58.042138" lon="39.119538"><ele>86.0</ele><time>2023-04-09T11:24:59Z</time></trkpt><trkpt lat="58.042068" lon="39.119478"><ele>85.0</ele><time>2023-04-09T11:25:02Z</time></trkpt><trkpt lat="58.042013" lon="39.119387"><ele>87.0</ele><time>2023-04-09T11:25:05Z</time></trkpt><trkpt lat="58.041958" lon="39.119285"><ele>88.0</ele><time>2023-04-09T11:25:08Z</time></trkpt><trkpt lat="58.041905" lon="39.119193"><ele>88.0</ele><time>2023-04-09T11:25:11Z</time></trkpt><trkpt lat="58.04183" lon="39.11907"><ele>87.0</ele><time>2023-04-09T11:25:14Z</time></trkpt><trkpt lat="58.04175" lon="39.118965"><ele>88.0</ele><time>2023-04-09T11:25:17Z</time></trkpt><trkpt lat="58.041692" lon="39.118855"><ele>86.0</ele><time>2023-04-09T11:25:20Z</time></trkpt><trkpt lat="58.041633" lon="39.118723"><ele>86.0</ele><time>2023-04-09T11:25:23Z</time></trkpt><trkpt lat="58.041572" lon="39.118605"><ele>84.0</ele><time>2023-04-09T11:25:26Z</time></trkpt><trkpt lat="58.041495" lon="39.118492"><ele>86.0</ele><time>2023-04-09T11:25:29Z</time></trkpt><trkpt lat="58.04143" lon="39.118415"><ele>86.0</ele><time>2023-04-09T11:25:32Z</time></trkpt><trkpt lat="58.041355" lon="39.118355"><ele>86.0</ele><time>2023-04-09T11:25:36Z</time></trkpt><trkpt lat="58.04128" lon="39.118317"><ele>85.0</ele><time>2023-04-09T11:25:40Z</time></trkpt><trkpt lat="58.041195" lon="39.118293"><ele>84.0</ele><time>2023-04-09T11:25:44Z</time></trkpt><trkpt lat="58.041118" lon="39.118312"><ele>84.0</ele><time>2023-04-09T11:25:47Z</time></trkpt><trkpt lat="58.041042" lon="39.118298"><ele>85.0</ele><time>2023-04-09T11:25:50Z</time></trkpt><trkpt lat="58.040975" lon="39.118243"><ele>85.0</ele><time>2023-04-09T11:25:53Z</time></trkpt><trkpt lat="58.040915" lon="39.118138"><ele>87.0</ele><time>2023-04-09T11:25:57Z</time></trkpt><trkpt lat="58.040858" lon="39.118035"><ele>87.0</ele><time>2023-04-09T11:26:01Z</time></trkpt><trkpt lat="58.040792" lon="39.117967"><ele>86.0</ele><time>2023-04-09T11:26:06Z</time></trkpt><trkpt lat="58.040707" lon="39.117935"><ele>86.0</ele><time>2023-04-09T11:26:12Z</time></trkpt><trkpt lat="58.040622" lon="39.117922"><ele>86.0</ele><time>2023-04-09T11:26:16Z</time></trkpt><trkpt lat="58.04054" lon="39.11788"><ele>87.0</ele><time>2023-04-09T11:26:20Z</time></trkpt><trkpt lat="58.040455" lon="39.117832"><ele>86.0</ele><time>2023-04-09T11:26:24Z</time></trkpt><trkpt lat="58.040388" lon="39.117778"><ele>86.0</ele><time>2023-04-09T11:26:27Z</time></trkpt><trkpt lat="58.040322" lon="39.1177"><ele>86.0</ele><time>2023-04-09T11:26:30Z</time></trkpt><trkpt lat="58.040253" lon="39.117615"><ele>86.0</ele><time>2023-04-09T11:26:34Z</time></trkpt><trkpt lat="58.040178" lon="39.11752"><ele>88.0</ele><time>2023-04-09T11:26:38Z</time></trkpt><trkpt lat="58.040112" lon="39.117443"><ele>89.0</ele><time>2023-04-09T11:26:42Z</time></trkpt><trkpt lat="58.040085" lon="39.117302"><ele>90.0</ele><time>2023-04-09T11:26:46Z</time></trkpt><trkpt lat="58.040055" lon="39.117168"><ele>91.0</ele><time>2023-04-09T11:26:51Z</time></trkpt><trkpt lat="58.039995" lon="39.117065"><ele>88.0</ele><time>2023-04-09T11:26:56Z</time></trkpt><trkpt lat="58.039982" lon="39.116913"><ele>88.0</ele><time>2023-04-09T11:27:00Z</time></trkpt><trkpt lat="58.039958" lon="39.116752"><ele>87.0</ele><time>2023-04-09T11:27:04Z</time></trkpt><trkpt lat="58.039938" lon="39.116617"><ele>87.0</ele><time>2023-04-09T11:27:07Z</time></trkpt><trkpt lat="58.039913" lon="39.116455"><ele>88.0</ele><time>2023-04-09T11:27:10Z</time></trkpt><trkpt lat="58.03988" lon="39.11632"><ele>87.0</ele><time>2023-04-09T11:27:13Z</time></trkpt><trkpt lat="58.039835" lon="39.116163"><ele>87.0</ele><time>2023-04-09T11:27:16Z</time></trkpt><trkpt lat="58.039802" lon="39.116023"><ele>86.0</ele><time>2023-04-09T11:27:19Z</time></trkpt><trkpt lat="58.039745" lon="39.115925"><ele>87.0</ele><time>2023-04-09T11:27:42Z</time></trkpt><trkpt lat="58.039703" lon="39.115793"><ele>88.0</ele><time>2023-04-09T11:27:47Z</time></trkpt><trkpt lat="58.039662" lon="39.115657"><ele>86.0</ele><time>2023-04-09T11:27:51Z</time></trkpt><trkpt lat="58.039637" lon="39.115517"><ele>85.0</ele><time>2023-04-09T11:27:54Z</time></trkpt><trkpt lat="58.03962" lon="39.115357"><ele>85.0</ele><time>2023-04-09T11:27:57Z</time></trkpt><trkpt lat="58.039593" lon="39.115228"><ele>85.0</ele><time>2023-04-09T11:28:00Z</time></trkpt><trkpt lat="58.039538" lon="39.115098"><ele>84.0</ele><time>2023-04-09T11:28:04Z</time></trkpt><trkpt lat="58.039487" lon="39.115002"><ele>83.0</ele><time>2023-04-09T11:28:07Z</time></trkpt><trkpt lat="58.039415" lon="39.114912"><ele>83.0</ele><time>2023-04-09T11:28:10Z</time></trkpt><trkpt lat="58.03935" lon="39.114852"><ele>85.0</ele><time>2023-04-09T11:28:13Z</time></trkpt><trkpt lat="58.039293" lon="39.114752"><ele>84.0</ele><time>2023-04-09T11:28:17Z</time></trkpt><trkpt lat="58.039263" lon="39.114622"><ele>84.0</ele><time>2023-04-09T11:28:21Z</time></trkpt><trkpt lat="58.039248" lon="39.114443"><ele>85.0</ele><time>2023-04-09T11:28:25Z</time></trkpt><trkpt lat="58.039225" lon="39.114287"><ele>85.0</ele><time>2023-04-09T11:28:28Z</time></trkpt><trkpt lat="58.039202" lon="39.114147"><ele>85.0</ele><time>2023-04-09T11:28:31Z</time></trkpt><trkpt lat="58.039187" lon="39.114008"><ele>86.0</ele><time>2023-04-09T11:28:34Z</time></trkpt><trkpt lat="58.039208" lon="39.113852"><ele>88.0</ele><time>2023-04-09T11:28:38Z</time></trkpt><trkpt lat="58.039237" lon="39.113722"><ele>87.0</ele><time>2023-04-09T11:28:42Z</time></trkpt><trkpt lat="58.039275" lon="39.113568"><ele>90.0</ele><time>2023-04-09T11:28:46Z</time></trkpt><trkpt lat="58.039322" lon="39.113402"><ele>91.0</ele><time>2023-04-09T11:28:50Z</time></trkpt><trkpt lat="58.039343" lon="39.113222"><ele>91.0</ele><time>2023-04-09T11:28:53Z</time></trkpt><trkpt lat="58.039337" lon="39.113042"><ele>92.0</ele><time>2023-04-09T11:28:56Z</time></trkpt><trkpt lat="58.039313" lon="39.112903"><ele>91.0</ele><time>2023-04-09T11:28:59Z</time></trkpt><trkpt lat="58.039278" lon="39.112762"><ele>89.0</ele><time>2023-04-09T11:29:02Z</time></trkpt><trkpt lat="58.039247" lon="39.112638"><ele>87.0</ele><time>2023-04-09T11:29:05Z</time></trkpt><trkpt lat="58.039203" lon="39.112502"><ele>85.0</ele><time>2023-04-09T11:29:08Z</time></trkpt><trkpt lat="58.039162" lon="39.112338"><ele>86.0</ele><time>2023-04-09T11:29:11Z</time></trkpt><trkpt lat="58.039125" lon="39.112178"><ele>85.0</ele><time>2023-04-09T11:29:14Z</time></trkpt><trkpt lat="58.039087" lon="39.112013"><ele>85.0</ele><time>2023-04-09T11:29:17Z</time></trkpt><trkpt lat="58.03904" lon="39.11186"><ele>85.0</ele><time>2023-04-09T11:29:20Z</time></trkpt><trkpt lat="58.03897" lon="39.11177"><ele>87.0</ele><time>2023-04-09T11:29:23Z</time></trkpt><trkpt lat="58.038898" lon="39.111725"><ele>88.0</ele><time>2023-04-09T11:29:26Z</time></trkpt><trkpt lat="58.03881" lon="39.111708"><ele>87.0</ele><time>2023-04-09T11:29:30Z</time></trkpt><trkpt lat="58.038738" lon="39.111687"><ele>87.0</ele><time>2023-04-09T11:29:34Z</time></trkpt><trkpt lat="58.038645" lon="39.111608"><ele>89.0</ele><time>2023-04-09T11:29:38Z</time></trkpt><trkpt lat="58.038557" lon="39.111552"><ele>91.0</ele><time>2023-04-09T11:29:41Z</time></trkpt><trkpt lat="58.038472" lon="39.111498"><ele>91.0</ele><time>2023-04-09T11:29:44Z</time></trkpt><trkpt lat="58.038375" lon="39.111463"><ele>92.0</ele><time>2023-04-09T11:29:47Z</time></trkpt><trkpt lat="58.038302" lon="39.111527"><ele>87.0</ele><time>2023-04-09T11:30:07Z</time></trkpt><trkpt lat="58.038218" lon="39.111553"><ele>86.0</ele><time>2023-04-09T11:30:14Z</time></trkpt><trkpt lat="58.038143" lon="39.111618"><ele>84.0</ele><time>2023-04-09T11:30:19Z</time></trkpt><trkpt lat="58.038077" lon="39.111732"><ele>83.0</ele><time>2023-04-09T11:30:23Z</time></trkpt><trkpt lat="58.038013" lon="39.111858"><ele>82.0</ele><time>2023-04-09T11:30:27Z</time></trkpt><trkpt lat="58.037948" lon="39.111957"><ele>83.0</ele><time>2023-04-09T11:30:30Z</time></trkpt><trkpt lat="58.037887" lon="39.112067"><ele>82.0</ele><time>2023-04-09T11:30:33Z</time></trkpt><trkpt lat="58.037828" lon="39.11219"><ele>82.0</ele><time>2023-04-09T11:30:36Z</time></trkpt><trkpt lat="58.037782" lon="39.112335"><ele>82.0</ele><time>2023-04-09T11:30:39Z</time></trkpt><trkpt lat="58.037762" lon="39.112487"><ele>84.0</ele><time>2023-04-09T11:30:43Z</time></trkpt><trkpt lat="58.037778" lon="39.11262"><ele>86.0</ele><time>2023-04-09T11:30:51Z</time></trkpt><trkpt lat="58.03783" lon="39.112747"><ele>83.0</ele><time>2023-04-09T11:30:56Z</time></trkpt><trkpt lat="58.03787" lon="39.112887"><ele>82.0</ele><time>2023-04-09T11:31:00Z</time></trkpt><trkpt lat="58.037908" lon="39.113007"><ele>84.0</ele><time>2023-04-09T11:31:03Z</time></trkpt><trkpt lat="58.037973" lon="39.113122"><ele>86.0</ele><time>2023-04-09T11:31:08Z</time></trkpt><trkpt lat="58.038045" lon="39.113185"><ele>87.0</ele><time>2023-04-09T11:31:12Z</time></trkpt><trkpt lat="58.038098" lon="39.11328"><ele>86.0</ele><time>2023-04-09T11:31:16Z</time></trkpt><trkpt lat="58.038143" lon="39.113418"><ele>87.0</ele><time>2023-04-09T11:31:20Z</time></trkpt><trkpt lat="58.03818" lon="39.113573"><ele>89.0</ele><time>2023-04-09T11:31:24Z</time></trkpt><trkpt lat="58.03821" lon="39.113732"><ele>90.0</ele><time>2023-04-09T11:31:28Z</time></trkpt><trkpt lat="58.038212" lon="39.113882"><ele>88.0</ele><time>2023-04-09T11:31:31Z</time></trkpt><trkpt lat="58.038203" lon="39.114027"><ele>88.0</ele><time>2023-04-09T11:31:34Z</time></trkpt><trkpt lat="58.038183" lon="39.114178"><ele>87.0</ele><time>2023-04-09T11:31:37Z</time></trkpt><trkpt lat="58.038155" lon="39.114327"><ele>89.0</ele><time>2023-04-09T11:31:40Z</time></trkpt><trkpt lat="58.038118" lon="39.114473"><ele>88.0</ele><time>2023-04-09T11:31:43Z</time></trkpt><trkpt lat="58.03808" lon="39.11461"><ele>88.0</ele><time>2023-04-09T11:31:46Z</time></trkpt><trkpt lat="58.038038" lon="39.114747"><ele>88.0</ele><time>2023-04-09T11:31:49Z</time></trkpt><trkpt lat="58.037995" lon="39.114882"><ele>88.0</ele><time>2023-04-09T11:31:52Z</time></trkpt><trkpt lat="58.037938" lon="39.114978"><ele>87.0</ele><time>2023-04-09T11:31:55Z</time></trkpt><trkpt lat="58.037885" lon="39.115085"><ele>88.0</ele><time>2023-04-09T11:31:58Z</time></trkpt><trkpt lat="58.037825" lon="39.115228"><ele>89.0</ele><time>2023-04-09T11:32:02Z</time></trkpt><trkpt lat="58.037758" lon="39.115348"><ele>88.0</ele><time>2023-04-09T11:32:06Z</time></trkpt><trkpt lat="58.037698" lon="39.115443"><ele>87.0</ele><time>2023-04-09T11:32:09Z</time></trkpt><trkpt lat="58.037643" lon="39.115537"><ele>86.0</ele><time>2023-04-09T11:32:12Z</time></trkpt><trkpt lat="58.037595" lon="39.115633"><ele>88.0</ele><time>2023-04-09T11:32:15Z</time></trkpt><trkpt lat="58.037547" lon="39.115783"><ele>88.0</ele><time>2023-04-09T11:32:19Z</time></trkpt><trkpt lat="58.037498" lon="39.115918"><ele>88.0</ele><time>2023-04-09T11:32:23Z</time></trkpt><trkpt lat="58.03744" lon="39.116045"><ele>86.0</ele><time>2023-04-09T11:32:27Z</time></trkpt><trkpt lat="58.03737" lon="39.116155"><ele>85.0</ele><time>2023-04-09T11:32:31Z</time></trkpt><trkpt lat="58.037327" lon="39.116263"><ele>87.0</ele><time>2023-04-09T11:32:34Z</time></trkpt><trkpt lat="58.037278" lon="39.116385"><ele>86.0</ele><time>2023-04-09T11:32:37Z</time></trkpt><trkpt lat="58.037233" lon="39.116503"><ele>88.0</ele><time>2023-04-09T11:32:40Z</time></trkpt><trkpt lat="58.03717" lon="39.116623"><ele>88.0</ele><time>2023-04-09T11:32:43Z</time></trkpt><trkpt lat="58.037095" lon="39.11673"><ele>90.0</ele><time>2023-04-09T11:32:47Z</time></trkpt><trkpt lat="58.037035" lon="39.116842"><ele>90.0</ele><time>2023-04-09T11:32:51Z</time></trkpt><trkpt lat="58.036982" lon="39.116948"><ele>91.0</ele><time>2023-04-09T11:32:55Z</time></trkpt><trkpt lat="58.036922" lon="39.117068"><ele>90.0</ele><time>2023-04-09T11:33:00Z</time></trkpt><trkpt lat="58.036873" lon="39.117172"><ele>91.0</ele><time>2023-04-09T11:33:04Z</time></trkpt><trkpt lat="58.036815" lon="39.11729"><ele>89.0</ele><time>2023-04-09T11:33:09Z</time></trkpt><trkpt lat="58.036748" lon="39.11739"><ele>88.0</ele><time>2023-04-09T11:33:14Z</time></trkpt><trkpt lat="58.03668" lon="39.117488"><ele>88.0</ele><time>2023-04-09T11:33:20Z</time></trkpt><trkpt lat="58.036617" lon="39.117592"><ele>87.0</ele><time>2023-04-09T11:33:25Z</time></trkpt><trkpt lat="58.036555" lon="39.11768"><ele>86.0</ele><time>2023-04-09T11:33:30Z</time></trkpt><trkpt lat="58.036477" lon="39.11773"><ele>86.0</ele><time>2023-04-09T11:33:35Z</time></trkpt><trkpt lat="58.036405" lon="39.117788"><ele>85.0</ele><time>2023-04-09T11:33:41Z</time></trkpt><trkpt lat="58.036322" lon="39.11781"><ele>84.0</ele><time>2023-04-09T11:33:46Z</time></trkpt><trkpt lat="58.036247" lon="39.117782"><ele>88.0</ele><time>2023-04-09T11:33:50Z</time></trkpt><trkpt lat="58.03616" lon="39.11775"><ele>87.0</ele><time>2023-04-09T11:33:55Z</time></trkpt><trkpt lat="58.03608" lon="39.117707"><ele>85.0</ele><time>2023-04-09T11:34:00Z</time></trkpt><trkpt lat="58.036005" lon="39.117632"><ele>85.0</ele><time>2023-04-09T11:34:05Z</time></trkpt><trkpt lat="58.035928" lon="39.117565"><ele>85.0</ele><time>2023-04-09T11:34:10Z</time></trkpt><trkpt lat="58.035848" lon="39.117512"><ele>86.0</ele><time>2023-04-09T11:34:15Z</time></trkpt><trkpt lat="58.035768" lon="39.11747"><ele>87.0</ele><time>2023-04-09T11:34:20Z</time></trkpt><trkpt lat="58.035695" lon="39.117398"><ele>86.0</ele><time>2023-04-09T11:34:25Z</time></trkpt><trkpt lat="58.03563" lon="39.117323"><ele>86.0</ele><time>2023-04-09T11:34:29Z</time></trkpt><trkpt lat="58.035573" lon="39.11724"><ele>86.0</ele><time>2023-04-09T11:34:33Z</time></trkpt><trkpt lat="58.03552" lon="39.117142"><ele>87.0</ele><time>2023-04-09T11:34:38Z</time></trkpt><trkpt lat="58.035477" lon="39.117032"><ele>86.0</ele><time>2023-04-09T11:34:43Z</time></trkpt><trkpt lat="58.035423" lon="39.116937"><ele>86.0</ele><time>2023-04-09T11:34:48Z</time></trkpt><trkpt lat="58.035377" lon="39.116807"><ele>85.0</ele><time>2023-04-09T11:34:55Z</time></trkpt><trkpt lat="58.035347" lon="39.116672"><ele>86.0</ele><time>2023-04-09T11:35:01Z</time></trkpt><trkpt lat="58.035323" lon="39.116532"><ele>86.0</ele><time>2023-04-09T11:35:07Z</time></trkpt><trkpt lat="58.035302" lon="39.116387"><ele>84.0</ele><time>2023-04-09T11:35:13Z</time></trkpt><trkpt lat="58.035302" lon="39.116233"><ele>83.0</ele><time>2023-04-09T11:35:20Z</time></trkpt><trkpt lat="58.035302" lon="39.116077"><ele>83.0</ele><time>2023-04-09T11:35:26Z</time></trkpt><trkpt lat="58.035292" lon="39.11592"><ele>80.0</ele><time>2023-04-09T11:35:33Z</time></trkpt><trkpt lat="58.035268" lon="39.115773"><ele>81.0</ele><time>2023-04-09T11:35:39Z</time></trkpt><trkpt lat="58.035227" lon="39.115635"><ele>83.0</ele><time>2023-04-09T11:35:45Z</time></trkpt><trkpt lat="58.03522" lon="39.115477"><ele>87.0</ele><time>2023-04-09T11:35:54Z</time></trkpt><trkpt lat="58.035188" lon="39.115345"><ele>84.0</ele><time>2023-04-09T11:35:59Z</time></trkpt><trkpt lat="58.035137" lon="39.115215"><ele>83.0</ele><time>2023-04-09T11:36:05Z</time></trkpt><trkpt lat="58.035092" lon="39.11511"><ele>83.0</ele><time>2023-04-09T11:36:11Z</time></trkpt><trkpt lat="58.035075" lon="39.11497"><ele>82.0</ele><time>2023-04-09T11:36:20Z</time></trkpt><trkpt lat="58.035025" lon="39.114857"><ele>83.0</ele><time>2023-04-09T11:36:27Z</time></trkpt><trkpt lat="58.03497" lon="39.11476"><ele>83.0</ele><time>2023-04-09T11:36:36Z</time></trkpt><trkpt lat="58.03491" lon="39.114667"><ele>84.0</ele><time>2023-04-09T11:36:47Z</time></trkpt><trkpt lat="58.034875" lon="39.114547"><ele>86.0</ele><time>2023-04-09T11:36:59Z</time></trkpt><trkpt lat="58.034835" lon="39.11442"><ele>90.0</ele><time>2023-04-09T11:38:00Z</time></trkpt><trkpt lat="58.034773" lon="39.114332"><ele>87.0</ele><time>2023-04-09T11:38:08Z</time></trkpt><trkpt lat="58.034705" lon="39.114262"><ele>84.0</ele><time>2023-04-09T11:38:15Z</time></trkpt><trkpt lat="58.034638" lon="39.11419"><ele>86.0</ele><time>2023-04-09T11:38:21Z</time></trkpt><trkpt lat="58.03457" lon="39.11412"><ele>85.0</ele><time>2023-04-09T11:38:29Z</time></trkpt><trkpt lat="58.034513" lon="39.114027"><ele>86.0</ele><time>2023-04-09T11:38:37Z</time></trkpt></trkseg></trk></gpx>