<?xml version="1.0" encoding="UTF-8" standalone="no"?><gpx xmlns="http://www.topografix.com/GPX/1/1" xmlns:gpxtpx="http://www.garmin.com/xmlschemas/TrackPointExtension/v1" xmlns:xsi="http://www.w3.org/2001/XMLSchema-instance" creator="Sports Tracker" version="1.1" xsi:schemaLocation="http://www.topografix.com/GPX/1/1 http://www.topografix.com/GPX/1/1/gpx.xsd http://www.garmin.com/xmlschemas/TrackPointExtension/v1 http://www.garmin.com/xmlschemas/TrackPointExtensionv1.xsd"><metadata><name>09.03.2024 17:00</name><desc/><author><name>Александр</name></author></metadata><trk><name>09.03.2024 17:00</name><trkseg><trkpt lat="58.039135" lon="39.183172"><ele>143.3</ele><time>2024-03-09T14:00:38Z</time></trkpt><trkpt lat="58.039135" lon="39.183172"><ele>143.3</ele><time>2024-03-09T14:01:16Z</time></trkpt><trkpt lat="58.039137" lon="39.1832"><ele>144.6</ele><time>2024-03-09T14:01:23Z</time></trkpt><trkpt lat="58.03914" lon="39.1832"><ele>144.8</ele><time>2024-03-09T14:01:26Z</time></trkpt><trkpt lat="58.039142" lon="39.183045"><ele>144.9</ele><time>2024-03-09T14:01:31Z</time></trkpt><trkpt lat="58.039165" lon="39.18288"><ele>144.9</ele><time>2024-03-09T14:01:35Z</time></trkpt><trkpt lat="58.039177" lon="39.182747"><ele>145.4</ele><time>2024-03-09T14:01:42Z</time></trkpt><trkpt lat="58.039175" lon="39.182575"><ele>145.4</ele><time>2024-03-09T14:01:45Z</time></trkpt><trkpt lat="58.0392" lon="39.182445"><ele>145.4</ele><time>2024-03-09T14:01:47Z</time></trkpt><trkpt lat="58.039232" lon="39.18231"><ele>147.0</ele><time>2024-03-09T14:01:49Z</time></trkpt><trkpt lat="58.039275" lon="39.18219"><ele>147.4</ele><time>2024-03-09T14:01:51Z</time></trkpt><trkpt lat="58.039345" lon="39.182065"><ele>146.1</ele><time>2024-03-09T14:01:53Z</time></trkpt><trkpt lat="58.039415" lon="39.18195"><ele>146.6</ele><time>2024-03-09T14:01:55Z</time></trkpt><trkpt lat="58.039477" lon="39.181843"><ele>147.0</ele><time>2024-03-09T14:01:57Z</time></trkpt><trkpt lat="58.039535" lon="39.18175"><ele>146.3</ele><time>2024-03-09T14:01:59Z</time></trkpt><trkpt lat="58.03959" lon="39.181572"><ele>146.2</ele><time>2024-03-09T14:02:02Z</time></trkpt><trkpt lat="58.039645" lon="39.181465"><ele>147.6</ele><time>2024-03-09T14:02:04Z</time></trkpt><trkpt lat="58.03971" lon="39.18136"><ele>147.4</ele><time>2024-03-09T14:02:06Z</time></trkpt><trkpt lat="58.039763" lon="39.18124"><ele>145.7</ele><time>2024-03-09T14:02:08Z</time></trkpt><trkpt lat="58.039827" lon="39.1811"><ele>146.1</ele><time>2024-03-09T14:02:11Z</time></trkpt><trkpt lat="58.039875" lon="39.180985"><ele>147.0</ele><time>2024-03-09T14:02:13Z</time></trkpt><trkpt lat="58.03993" lon="39.18087"><ele>145.6</ele><time>2024-03-09T14:02:15Z</time></trkpt><trkpt lat="58.039983" lon="39.18074"><ele>145.8</ele><time>2024-03-09T14:02:17Z</time></trkpt><trkpt lat="58.040045" lon="39.18061"><ele>145.9</ele><time>2024-03-09T14:02:19Z</time></trkpt><trkpt lat="58.04011" lon="39.18047"><ele>145.8</ele><time>2024-03-09T14:02:22Z</time></trkpt><trkpt lat="58.04017" lon="39.180305"><ele>145.1</ele><time>2024-03-09T14:02:25Z</time></trkpt><trkpt lat="58.040207" lon="39.18016"><ele>146.1</ele><time>2024-03-09T14:02:28Z</time></trkpt><trkpt lat="58.040255" lon="39.180008"><ele>147.1</ele><time>2024-03-09T14:02:31Z</time></trkpt><trkpt lat="58.04027" lon="39.17985"><ele>147.4</ele><time>2024-03-09T14:02:33Z</time></trkpt><trkpt lat="58.04027" lon="39.17964"><ele>147.4</ele><time>2024-03-09T14:02:36Z</time></trkpt><trkpt lat="58.040245" lon="39.179435"><ele>147.2</ele><time>2024-03-09T14:02:39Z</time></trkpt><trkpt lat="58.040208" lon="39.17931"><ele>147.1</ele><time>2024-03-09T14:02:41Z</time></trkpt><trkpt lat="58.040172" lon="39.179152"><ele>148.8</ele><time>2024-03-09T14:02:43Z</time></trkpt><trkpt lat="58.040135" lon="39.179027"><ele>149.9</ele><time>2024-03-09T14:02:45Z</time></trkpt><trkpt lat="58.040072" lon="39.17885"><ele>148.5</ele><time>2024-03-09T14:02:48Z</time></trkpt><trkpt lat="58.04003" lon="39.1787"><ele>147.6</ele><time>2024-03-09T14:02:50Z</time></trkpt><trkpt lat="58.039988" lon="39.17855"><ele>147.6</ele><time>2024-03-09T14:02:52Z</time></trkpt><trkpt lat="58.039935" lon="39.178395"><ele>147.9</ele><time>2024-03-09T14:02:54Z</time></trkpt><trkpt lat="58.039875" lon="39.17824"><ele>148.4</ele><time>2024-03-09T14:02:56Z</time></trkpt><trkpt lat="58.039827" lon="39.178125"><ele>147.5</ele><time>2024-03-09T14:02:58Z</time></trkpt><trkpt lat="58.039787" lon="39.17799"><ele>149.0</ele><time>2024-03-09T14:03:00Z</time></trkpt><trkpt lat="58.039755" lon="39.17787"><ele>147.5</ele><time>2024-03-09T14:03:02Z</time></trkpt><trkpt lat="58.039715" lon="39.177755"><ele>149.4</ele><time>2024-03-09T14:03:04Z</time></trkpt><trkpt lat="58.039655" lon="39.17759"><ele>151.9</ele><time>2024-03-09T14:03:06Z</time></trkpt><trkpt lat="58.03959" lon="39.177457"><ele>152.3</ele><time>2024-03-09T14:03:08Z</time></trkpt><trkpt lat="58.03955" lon="39.17733"><ele>151.6</ele><time>2024-03-09T14:03:10Z</time></trkpt><trkpt lat="58.039505" lon="39.177225"><ele>151.0</ele><time>2024-03-09T14:03:12Z</time></trkpt><trkpt lat="58.03945" lon="39.177127"><ele>147.8</ele><time>2024-03-09T14:03:14Z</time></trkpt><trkpt lat="58.039407" lon="39.176995"><ele>147.2</ele><time>2024-03-09T14:03:16Z</time></trkpt><trkpt lat="58.039365" lon="39.17686"><ele>144.7</ele><time>2024-03-09T14:03:18Z</time></trkpt><trkpt lat="58.03931" lon="39.176752"><ele>146.0</ele><time>2024-03-09T14:03:20Z</time></trkpt><trkpt lat="58.039255" lon="39.176632"><ele>146.5</ele><time>2024-03-09T14:03:22Z</time></trkpt><trkpt lat="58.039205" lon="39.176492"><ele>148.5</ele><time>2024-03-09T14:03:24Z</time></trkpt><trkpt lat="58.03917" lon="39.17629"><ele>148.2</ele><time>2024-03-09T14:03:26Z</time></trkpt><trkpt lat="58.03913" lon="39.17612"><ele>148.4</ele><time>2024-03-09T14:03:29Z</time></trkpt><trkpt lat="58.03912" lon="39.175962"><ele>148.3</ele><time>2024-03-09T14:03:31Z</time></trkpt><trkpt lat="58.039175" lon="39.175855"><ele>147.6</ele><time>2024-03-09T14:03:33Z</time></trkpt><trkpt lat="58.03926" lon="39.17588"><ele>149.9</ele><time>2024-03-09T14:03:36Z</time></trkpt><trkpt lat="58.039325" lon="39.175995"><ele>150.7</ele><time>2024-03-09T14:03:39Z</time></trkpt><trkpt lat="58.039367" lon="39.17611"><ele>148.8</ele><time>2024-03-09T14:03:41Z</time></trkpt><trkpt lat="58.039425" lon="39.176217"><ele>149.3</ele><time>2024-03-09T14:03:43Z</time></trkpt><trkpt lat="58.039475" lon="39.17633"><ele>150.1</ele><time>2024-03-09T14:03:45Z</time></trkpt><trkpt lat="58.039555" lon="39.176475"><ele>151.0</ele><time>2024-03-09T14:03:47Z</time></trkpt><trkpt lat="58.039612" lon="39.176602"><ele>152.5</ele><time>2024-03-09T14:03:49Z</time></trkpt><trkpt lat="58.039677" lon="39.176745"><ele>151.5</ele><time>2024-03-09T14:03:52Z</time></trkpt><trkpt lat="58.039735" lon="39.176845"><ele>151.5</ele><time>2024-03-09T14:03:54Z</time></trkpt><trkpt lat="58.039795" lon="39.177"><ele>153.9</ele><time>2024-03-09T14:03:56Z</time></trkpt><trkpt lat="58.039847" lon="39.177135"><ele>155.0</ele><time>2024-03-09T14:03:58Z</time></trkpt><trkpt lat="58.039885" lon="39.177275"><ele>152.5</ele><time>2024-03-09T14:04:00Z</time></trkpt><trkpt lat="58.03993" lon="39.177437"><ele>153.0</ele><time>2024-03-09T14:04:02Z</time></trkpt><trkpt lat="58.039965" lon="39.17758"><ele>153.1</ele><time>2024-03-09T14:04:04Z</time></trkpt><trkpt lat="58.040025" lon="39.17774"><ele>153.2</ele><time>2024-03-09T14:04:06Z</time></trkpt><trkpt lat="58.040082" lon="39.17787"><ele>153.8</ele><time>2024-03-09T14:04:08Z</time></trkpt><trkpt lat="58.040127" lon="39.17805"><ele>153.3</ele><time>2024-03-09T14:04:10Z</time></trkpt><trkpt lat="58.040165" lon="39.178197"><ele>152.3</ele><time>2024-03-09T14:04:12Z</time></trkpt><trkpt lat="58.04023" lon="39.1784"><ele>150.4</ele><time>2024-03-09T14:04:14Z</time></trkpt><trkpt lat="58.04029" lon="39.178565"><ele>151.2</ele><time>2024-03-09T14:04:16Z</time></trkpt><trkpt lat="58.040342" lon="39.178695"><ele>150.2</ele><time>2024-03-09T14:04:18Z</time></trkpt><trkpt lat="58.040353" lon="39.178835"><ele>147.3</ele><time>2024-03-09T14:04:20Z</time></trkpt><trkpt lat="58.04041" lon="39.17895"><ele>145.4</ele><time>2024-03-09T14:04:22Z</time></trkpt><trkpt lat="58.04048" lon="39.179065"><ele>146.9</ele><time>2024-03-09T14:04:24Z</time></trkpt><trkpt lat="58.04056" lon="39.179117"><ele>144.8</ele><time>2024-03-09T14:04:26Z</time></trkpt><trkpt lat="58.040635" lon="39.17907"><ele>145.3</ele><time>2024-03-09T14:04:28Z</time></trkpt><trkpt lat="58.040677" lon="39.178955"><ele>147.0</ele><time>2024-03-09T14:04:30Z</time></trkpt><trkpt lat="58.0407" lon="39.17882"><ele>148.2</ele><time>2024-03-09T14:04:32Z</time></trkpt><trkpt lat="58.04067" lon="39.178655"><ele>150.0</ele><time>2024-03-09T14:04:35Z</time></trkpt><trkpt lat="58.04065" lon="39.178493"><ele>151.2</ele><time>2024-03-09T14:04:37Z</time></trkpt><trkpt lat="58.04062" lon="39.178325"><ele>151.2</ele><time>2024-03-09T14:04:39Z</time></trkpt><trkpt lat="58.040587" lon="39.178155"><ele>149.9</ele><time>2024-03-09T14:04:42Z</time></trkpt><trkpt lat="58.04054" lon="39.178"><ele>150.4</ele><time>2024-03-09T14:04:44Z</time></trkpt><trkpt lat="58.04052" lon="39.177837"><ele>151.6</ele><time>2024-03-09T14:04:46Z</time></trkpt><trkpt lat="58.04049" lon="39.17769"><ele>151.5</ele><time>2024-03-09T14:04:48Z</time></trkpt><trkpt lat="58.04048" lon="39.17755"><ele>151.5</ele><time>2024-03-09T14:04:50Z</time></trkpt><trkpt lat="58.040457" lon="39.177352"><ele>150.6</ele><time>2024-03-09T14:04:52Z</time></trkpt><trkpt lat="58.040405" lon="39.177212"><ele>149.7</ele><time>2024-03-09T14:04:54Z</time></trkpt><trkpt lat="58.040375" lon="39.177058"><ele>148.9</ele><time>2024-03-09T14:04:56Z</time></trkpt><trkpt lat="58.04033" lon="39.176875"><ele>149.9</ele><time>2024-03-09T14:04:59Z</time></trkpt><trkpt lat="58.040295" lon="39.176662"><ele>149.7</ele><time>2024-03-09T14:05:02Z</time></trkpt><trkpt lat="58.040275" lon="39.17652"><ele>150.7</ele><time>2024-03-09T14:05:04Z</time></trkpt><trkpt lat="58.040255" lon="39.176372"><ele>150.3</ele><time>2024-03-09T14:05:06Z</time></trkpt><trkpt lat="58.040255" lon="39.176227"><ele>148.8</ele><time>2024-03-09T14:05:08Z</time></trkpt><trkpt lat="58.040252" lon="39.17607"><ele>149.9</ele><time>2024-03-09T14:05:10Z</time></trkpt><trkpt lat="58.040245" lon="39.175855"><ele>149.5</ele><time>2024-03-09T14:05:13Z</time></trkpt><trkpt lat="58.040237" lon="39.175655"><ele>148.5</ele><time>2024-03-09T14:05:16Z</time></trkpt><trkpt lat="58.04025" lon="39.175467"><ele>148.2</ele><time>2024-03-09T14:05:19Z</time></trkpt><trkpt lat="58.04026" lon="39.175295"><ele>146.4</ele><time>2024-03-09T14:05:22Z</time></trkpt><trkpt lat="58.040282" lon="39.17511"><ele>145.0</ele><time>2024-03-09T14:05:25Z</time></trkpt><trkpt lat="58.040295" lon="39.17496"><ele>146.5</ele><time>2024-03-09T14:05:27Z</time></trkpt><trkpt lat="58.04031" lon="39.17481"><ele>146.4</ele><time>2024-03-09T14:05:29Z</time></trkpt><trkpt lat="58.040315" lon="39.174622"><ele>144.3</ele><time>2024-03-09T14:05:32Z</time></trkpt><trkpt lat="58.040317" lon="39.174483"><ele>145.6</ele><time>2024-03-09T14:05:34Z</time></trkpt><trkpt lat="58.040305" lon="39.174335"><ele>147.0</ele><time>2024-03-09T14:05:36Z</time></trkpt><trkpt lat="58.040295" lon="39.174185"><ele>147.5</ele><time>2024-03-09T14:05:38Z</time></trkpt><trkpt lat="58.040315" lon="39.17404"><ele>147.0</ele><time>2024-03-09T14:05:40Z</time></trkpt><trkpt lat="58.040305" lon="39.17387"><ele>147.7</ele><time>2024-03-09T14:05:44Z</time></trkpt><trkpt lat="58.04029" lon="39.17373"><ele>148.2</ele><time>2024-03-09T14:05:48Z</time></trkpt><trkpt lat="58.040255" lon="39.17363"><ele>147.8</ele><time>2024-03-09T14:05:55Z</time></trkpt><trkpt lat="58.040225" lon="39.17347"><ele>150.1</ele><time>2024-03-09T14:05:58Z</time></trkpt><trkpt lat="58.040197" lon="39.173343"><ele>150.5</ele><time>2024-03-09T14:06:00Z</time></trkpt><trkpt lat="58.04016" lon="39.17321"><ele>149.5</ele><time>2024-03-09T14:06:02Z</time></trkpt><trkpt lat="58.040105" lon="39.173102"><ele>150.4</ele><time>2024-03-09T14:06:04Z</time></trkpt><trkpt lat="58.040055" lon="39.17299"><ele>150.8</ele><time>2024-03-09T14:06:06Z</time></trkpt><trkpt lat="58.03999" lon="39.17288"><ele>149.6</ele><time>2024-03-09T14:06:08Z</time></trkpt><trkpt lat="58.03993" lon="39.17271"><ele>150.4</ele><time>2024-03-09T14:06:11Z</time></trkpt><trkpt lat="58.03987" lon="39.172575"><ele>151.9</ele><time>2024-03-09T14:06:13Z</time></trkpt><trkpt lat="58.039805" lon="39.172435"><ele>151.7</ele><time>2024-03-09T14:06:15Z</time></trkpt><trkpt lat="58.039748" lon="39.172305"><ele>150.9</ele><time>2024-03-09T14:06:17Z</time></trkpt><trkpt lat="58.039715" lon="39.172133"><ele>150.7</ele><time>2024-03-09T14:06:19Z</time></trkpt><trkpt lat="58.039685" lon="39.17197"><ele>150.3</ele><time>2024-03-09T14:06:21Z</time></trkpt><trkpt lat="58.039635" lon="39.171817"><ele>150.1</ele><time>2024-03-09T14:06:23Z</time></trkpt><trkpt lat="58.039577" lon="39.171677"><ele>151.1</ele><time>2024-03-09T14:06:25Z</time></trkpt><trkpt lat="58.0395" lon="39.171532"><ele>152.7</ele><time>2024-03-09T14:06:27Z</time></trkpt><trkpt lat="58.039425" lon="39.17143"><ele>152.0</ele><time>2024-03-09T14:06:30Z</time></trkpt><trkpt lat="58.039375" lon="39.171302"><ele>154.5</ele><time>2024-03-09T14:06:32Z</time></trkpt><trkpt lat="58.039317" lon="39.17112"><ele>153.1</ele><time>2024-03-09T14:06:35Z</time></trkpt><trkpt lat="58.03928" lon="39.170975"><ele>150.2</ele><time>2024-03-09T14:06:37Z</time></trkpt><trkpt lat="58.03924" lon="39.170852"><ele>149.9</ele><time>2024-03-09T14:06:40Z</time></trkpt><trkpt lat="58.039247" lon="39.170657"><ele>148.8</ele><time>2024-03-09T14:06:43Z</time></trkpt><trkpt lat="58.039232" lon="39.170455"><ele>148.0</ele><time>2024-03-09T14:06:45Z</time></trkpt><trkpt lat="58.039215" lon="39.170295"><ele>147.3</ele><time>2024-03-09T14:06:48Z</time></trkpt><trkpt lat="58.03924" lon="39.170157"><ele>149.3</ele><time>2024-03-09T14:06:50Z</time></trkpt><trkpt lat="58.039232" lon="39.170007"><ele>149.5</ele><time>2024-03-09T14:06:52Z</time></trkpt><trkpt lat="58.03924" lon="39.169865"><ele>151.9</ele><time>2024-03-09T14:06:54Z</time></trkpt><trkpt lat="58.03927" lon="39.169702"><ele>153.1</ele><time>2024-03-09T14:06:56Z</time></trkpt><trkpt lat="58.03933" lon="39.169542"><ele>151.0</ele><time>2024-03-09T14:06:59Z</time></trkpt><trkpt lat="58.03939" lon="39.16945"><ele>149.9</ele><time>2024-03-09T14:07:01Z</time></trkpt><trkpt lat="58.039435" lon="39.169325"><ele>148.6</ele><time>2024-03-09T14:07:03Z</time></trkpt><trkpt lat="58.039477" lon="39.1692"><ele>148.8</ele><time>2024-03-09T14:07:05Z</time></trkpt><trkpt lat="58.039535" lon="39.16908"><ele>150.0</ele><time>2024-03-09T14:07:07Z</time></trkpt><trkpt lat="58.039575" lon="39.168953"><ele>148.8</ele><time>2024-03-09T14:07:09Z</time></trkpt><trkpt lat="58.039657" lon="39.168802"><ele>146.6</ele><time>2024-03-09T14:07:12Z</time></trkpt><trkpt lat="58.039725" lon="39.168665"><ele>147.3</ele><time>2024-03-09T14:07:14Z</time></trkpt><trkpt lat="58.039802" lon="39.16854"><ele>147.9</ele><time>2024-03-09T14:07:16Z</time></trkpt><trkpt lat="58.039882" lon="39.168385"><ele>146.7</ele><time>2024-03-09T14:07:18Z</time></trkpt><trkpt lat="58.039952" lon="39.16823"><ele>148.2</ele><time>2024-03-09T14:07:20Z</time></trkpt><trkpt lat="58.04" lon="39.16811"><ele>148.6</ele><time>2024-03-09T14:07:22Z</time></trkpt><trkpt lat="58.04003" lon="39.167922"><ele>150.5</ele><time>2024-03-09T14:07:24Z</time></trkpt><trkpt lat="58.040042" lon="39.167755"><ele>150.8</ele><time>2024-03-09T14:07:26Z</time></trkpt><trkpt lat="58.04003" lon="39.167545"><ele>148.8</ele><time>2024-03-09T14:07:29Z</time></trkpt><trkpt lat="58.04001" lon="39.167358"><ele>148.7</ele><time>2024-03-09T14:07:32Z</time></trkpt><trkpt lat="58.039965" lon="39.16724"><ele>148.4</ele><time>2024-03-09T14:07:34Z</time></trkpt><trkpt lat="58.039902" lon="39.167135"><ele>148.7</ele><time>2024-03-09T14:07:36Z</time></trkpt><trkpt lat="58.03983" lon="39.167075"><ele>149.9</ele><time>2024-03-09T14:07:38Z</time></trkpt><trkpt lat="58.03973" lon="39.167005"><ele>148.8</ele><time>2024-03-09T14:07:41Z</time></trkpt><trkpt lat="58.03965" lon="39.166965"><ele>150.8</ele><time>2024-03-09T14:07:43Z</time></trkpt><trkpt lat="58.03955" lon="39.166898"><ele>151.0</ele><time>2024-03-09T14:07:46Z</time></trkpt><trkpt lat="58.039425" lon="39.16686"><ele>152.3</ele><time>2024-03-09T14:07:49Z</time></trkpt><trkpt lat="58.03935" lon="39.166845"><ele>152.1</ele><time>2024-03-09T14:07:51Z</time></trkpt><trkpt lat="58.039257" lon="39.16677"><ele>151.4</ele><time>2024-03-09T14:07:54Z</time></trkpt><trkpt lat="58.039155" lon="39.166735"><ele>151.1</ele><time>2024-03-09T14:07:56Z</time></trkpt><trkpt lat="58.039055" lon="39.166657"><ele>152.5</ele><time>2024-03-09T14:07:58Z</time></trkpt><trkpt lat="58.03897" lon="39.16658"><ele>153.6</ele><time>2024-03-09T14:08:00Z</time></trkpt><trkpt lat="58.038885" lon="39.166448"><ele>153.8</ele><time>2024-03-09T14:08:02Z</time></trkpt><trkpt lat="58.038825" lon="39.166355"><ele>154.5</ele><time>2024-03-09T14:08:04Z</time></trkpt><trkpt lat="58.038735" lon="39.16625"><ele>154.2</ele><time>2024-03-09T14:08:07Z</time></trkpt><trkpt lat="58.038655" lon="39.16623"><ele>152.8</ele><time>2024-03-09T14:08:09Z</time></trkpt><trkpt lat="58.03856" lon="39.166205"><ele>152.4</ele><time>2024-03-09T14:08:11Z</time></trkpt><trkpt lat="58.03846" lon="39.16627"><ele>152.0</ele><time>2024-03-09T14:08:13Z</time></trkpt><trkpt lat="58.038365" lon="39.166312"><ele>148.8</ele><time>2024-03-09T14:08:16Z</time></trkpt><trkpt lat="58.038285" lon="39.166365"><ele>149.6</ele><time>2024-03-09T14:08:18Z</time></trkpt><trkpt lat="58.03818" lon="39.166425"><ele>148.1</ele><time>2024-03-09T14:08:21Z</time></trkpt><trkpt lat="58.03811" lon="39.166357"><ele>148.7</ele><time>2024-03-09T14:08:23Z</time></trkpt><trkpt lat="58.038" lon="39.16631"><ele>150.1</ele><time>2024-03-09T14:08:25Z</time></trkpt><trkpt lat="58.03792" lon="39.166217"><ele>151.9</ele><time>2024-03-09T14:08:28Z</time></trkpt><trkpt lat="58.037835" lon="39.166147"><ele>150.7</ele><time>2024-03-09T14:08:31Z</time></trkpt><trkpt lat="58.037747" lon="39.166068"><ele>149.7</ele><time>2024-03-09T14:08:33Z</time></trkpt><trkpt lat="58.03766" lon="39.166005"><ele>150.4</ele><time>2024-03-09T14:08:35Z</time></trkpt><trkpt lat="58.037575" lon="39.165955"><ele>151.2</ele><time>2024-03-09T14:08:37Z</time></trkpt><trkpt lat="58.037505" lon="39.165862"><ele>150.4</ele><time>2024-03-09T14:08:39Z</time></trkpt><trkpt lat="58.037495" lon="39.16573"><ele>149.1</ele><time>2024-03-09T14:08:41Z</time></trkpt><trkpt lat="58.03751" lon="39.165565"><ele>148.8</ele><time>2024-03-09T14:08:43Z</time></trkpt><trkpt lat="58.03753" lon="39.16536"><ele>145.9</ele><time>2024-03-09T14:08:46Z</time></trkpt><trkpt lat="58.037575" lon="39.1652"><ele>145.9</ele><time>2024-03-09T14:08:48Z</time></trkpt><trkpt lat="58.037595" lon="39.16503"><ele>146.7</ele><time>2024-03-09T14:08:50Z</time></trkpt><trkpt lat="58.037605" lon="39.16485"><ele>146.8</ele><time>2024-03-09T14:08:52Z</time></trkpt><trkpt lat="58.037605" lon="39.164697"><ele>145.6</ele><time>2024-03-09T14:08:54Z</time></trkpt><trkpt lat="58.0376" lon="39.16456"><ele>145.6</ele><time>2024-03-09T14:08:56Z</time></trkpt><trkpt lat="58.037615" lon="39.164397"><ele>147.7</ele><time>2024-03-09T14:08:58Z</time></trkpt><trkpt lat="58.03758" lon="39.164252"><ele>146.6</ele><time>2024-03-09T14:09:00Z</time></trkpt><trkpt lat="58.037568" lon="39.164105"><ele>148.6</ele><time>2024-03-09T14:09:02Z</time></trkpt><trkpt lat="58.03756" lon="39.163955"><ele>148.2</ele><time>2024-03-09T14:09:04Z</time></trkpt><trkpt lat="58.037545" lon="39.16378"><ele>148.2</ele><time>2024-03-09T14:09:06Z</time></trkpt><trkpt lat="58.037507" lon="39.163642"><ele>147.9</ele><time>2024-03-09T14:09:08Z</time></trkpt><trkpt lat="58.03747" lon="39.163465"><ele>147.3</ele><time>2024-03-09T14:09:11Z</time></trkpt><trkpt lat="58.037452" lon="39.163315"><ele>144.9</ele><time>2024-03-09T14:09:13Z</time></trkpt><trkpt lat="58.037445" lon="39.163175"><ele>142.7</ele><time>2024-03-09T14:09:15Z</time></trkpt><trkpt lat="58.037425" lon="39.163"><ele>142.2</ele><time>2024-03-09T14:09:18Z</time></trkpt><trkpt lat="58.037392" lon="39.16281"><ele>144.6</ele><time>2024-03-09T14:09:20Z</time></trkpt><trkpt lat="58.03739" lon="39.162632"><ele>143.0</ele><time>2024-03-09T14:09:22Z</time></trkpt><trkpt lat="58.03737" lon="39.16249"><ele>145.0</ele><time>2024-03-09T14:09:24Z</time></trkpt><trkpt lat="58.037325" lon="39.162325"><ele>145.1</ele><time>2024-03-09T14:09:26Z</time></trkpt><trkpt lat="58.037285" lon="39.162192"><ele>146.6</ele><time>2024-03-09T14:09:28Z</time></trkpt><trkpt lat="58.03727" lon="39.16204"><ele>149.7</ele><time>2024-03-09T14:09:30Z</time></trkpt><trkpt lat="58.037222" lon="39.16187"><ele>148.6</ele><time>2024-03-09T14:09:32Z</time></trkpt><trkpt lat="58.03723" lon="39.16173"><ele>147.5</ele><time>2024-03-09T14:09:34Z</time></trkpt><trkpt lat="58.03718" lon="39.161575"><ele>150.3</ele><time>2024-03-09T14:09:36Z</time></trkpt><trkpt lat="58.037155" lon="39.16142"><ele>152.2</ele><time>2024-03-09T14:09:38Z</time></trkpt><trkpt lat="58.037125" lon="39.16126"><ele>150.7</ele><time>2024-03-09T14:09:40Z</time></trkpt><trkpt lat="58.037112" lon="39.161115"><ele>151.2</ele><time>2024-03-09T14:09:42Z</time></trkpt><trkpt lat="58.03708" lon="39.16091"><ele>150.2</ele><time>2024-03-09T14:09:45Z</time></trkpt><trkpt lat="58.037087" lon="39.16077"><ele>151.0</ele><time>2024-03-09T14:09:47Z</time></trkpt><trkpt lat="58.03706" lon="39.160607"><ele>151.7</ele><time>2024-03-09T14:09:49Z</time></trkpt><trkpt lat="58.03705" lon="39.16041"><ele>150.8</ele><time>2024-03-09T14:09:52Z</time></trkpt><trkpt lat="58.037017" lon="39.160195"><ele>151.7</ele><time>2024-03-09T14:09:55Z</time></trkpt><trkpt lat="58.037002" lon="39.16006"><ele>151.1</ele><time>2024-03-09T14:09:57Z</time></trkpt><trkpt lat="58.036995" lon="39.159895"><ele>152.4</ele><time>2024-03-09T14:09:59Z</time></trkpt><trkpt lat="58.037018" lon="39.15975"><ele>152.8</ele><time>2024-03-09T14:10:01Z</time></trkpt><trkpt lat="58.037085" lon="39.159657"><ele>152.8</ele><time>2024-03-09T14:10:03Z</time></trkpt><trkpt lat="58.037168" lon="39.159517"><ele>151.7</ele><time>2024-03-09T14:10:06Z</time></trkpt><trkpt lat="58.037157" lon="39.15938"><ele>152.3</ele><time>2024-03-09T14:10:08Z</time></trkpt><trkpt lat="58.037165" lon="39.159222"><ele>152.9</ele><time>2024-03-09T14:10:10Z</time></trkpt><trkpt lat="58.037188" lon="39.159055"><ele>153.5</ele><time>2024-03-09T14:10:12Z</time></trkpt><trkpt lat="58.037212" lon="39.158925"><ele>153.7</ele><time>2024-03-09T14:10:14Z</time></trkpt><trkpt lat="58.03723" lon="39.15875"><ele>152.3</ele><time>2024-03-09T14:10:17Z</time></trkpt><trkpt lat="58.037235" lon="39.158595"><ele>152.7</ele><time>2024-03-09T14:10:19Z</time></trkpt><trkpt lat="58.037265" lon="39.15842"><ele>150.0</ele><time>2024-03-09T14:10:21Z</time></trkpt><trkpt lat="58.037285" lon="39.158258"><ele>150.2</ele><time>2024-03-09T14:10:23Z</time></trkpt><trkpt lat="58.037307" lon="39.158032"><ele>150.3</ele><time>2024-03-09T14:10:25Z</time></trkpt><trkpt lat="58.037343" lon="39.157852"><ele>149.7</ele><time>2024-03-09T14:10:28Z</time></trkpt><trkpt lat="58.03737" lon="39.157695"><ele>150.3</ele><time>2024-03-09T14:10:30Z</time></trkpt><trkpt lat="58.037382" lon="39.157555"><ele>152.4</ele><time>2024-03-09T14:10:32Z</time></trkpt><trkpt lat="58.037385" lon="39.1573"><ele>151.7</ele><time>2024-03-09T14:10:34Z</time></trkpt><trkpt lat="58.03734" lon="39.157145"><ele>152.0</ele><time>2024-03-09T14:10:36Z</time></trkpt><trkpt lat="58.03734" lon="39.156965"><ele>146.9</ele><time>2024-03-09T14:10:39Z</time></trkpt><trkpt lat="58.037337" lon="39.156753"><ele>146.5</ele><time>2024-03-09T14:10:41Z</time></trkpt><trkpt lat="58.03734" lon="39.156555"><ele>147.1</ele><time>2024-03-09T14:10:43Z</time></trkpt><trkpt lat="58.037343" lon="39.156387"><ele>148.3</ele><time>2024-03-09T14:10:45Z</time></trkpt><trkpt lat="58.03735" lon="39.156218"><ele>150.0</ele><time>2024-03-09T14:10:47Z</time></trkpt><trkpt lat="58.037355" lon="39.156045"><ele>151.0</ele><time>2024-03-09T14:10:49Z</time></trkpt><trkpt lat="58.037355" lon="39.155905"><ele>151.0</ele><time>2024-03-09T14:10:51Z</time></trkpt><trkpt lat="58.037372" lon="39.15571"><ele>151.8</ele><time>2024-03-09T14:10:54Z</time></trkpt><trkpt lat="58.03738" lon="39.155562"><ele>150.5</ele><time>2024-03-09T14:10:56Z</time></trkpt><trkpt lat="58.037405" lon="39.155407"><ele>150.6</ele><time>2024-03-09T14:10:58Z</time></trkpt><trkpt lat="58.03742" lon="39.155245"><ele>149.6</ele><time>2024-03-09T14:11:00Z</time></trkpt><trkpt lat="58.03743" lon="39.155065"><ele>150.9</ele><time>2024-03-09T14:11:02Z</time></trkpt><trkpt lat="58.037412" lon="39.15491"><ele>153.1</ele><time>2024-03-09T14:11:04Z</time></trkpt><trkpt lat="58.037398" lon="39.154772"><ele>153.4</ele><time>2024-03-09T14:11:06Z</time></trkpt><trkpt lat="58.037385" lon="39.154625"><ele>155.1</ele><time>2024-03-09T14:11:08Z</time></trkpt><trkpt lat="58.037335" lon="39.15447"><ele>154.9</ele><time>2024-03-09T14:11:11Z</time></trkpt><trkpt lat="58.03729" lon="39.1543"><ele>154.3</ele><time>2024-03-09T14:11:14Z</time></trkpt><trkpt lat="58.037247" lon="39.154105"><ele>153.6</ele><time>2024-03-09T14:11:17Z</time></trkpt><trkpt lat="58.037215" lon="39.15396"><ele>154.0</ele><time>2024-03-09T14:11:19Z</time></trkpt><trkpt lat="58.037177" lon="39.153832"><ele>152.4</ele><time>2024-03-09T14:11:21Z</time></trkpt><trkpt lat="58.03714" lon="39.153712"><ele>152.9</ele><time>2024-03-09T14:11:23Z</time></trkpt><trkpt lat="58.037102" lon="39.153555"><ele>153.6</ele><time>2024-03-09T14:11:26Z</time></trkpt><trkpt lat="58.037085" lon="39.15341"><ele>152.6</ele><time>2024-03-09T14:11:28Z</time></trkpt><trkpt lat="58.03705" lon="39.153245"><ele>151.9</ele><time>2024-03-09T14:11:30Z</time></trkpt><trkpt lat="58.037035" lon="39.153108"><ele>153.5</ele><time>2024-03-09T14:11:32Z</time></trkpt><trkpt lat="58.036995" lon="39.152945"><ele>153.5</ele><time>2024-03-09T14:11:34Z</time></trkpt><trkpt lat="58.036975" lon="39.1528"><ele>152.9</ele><time>2024-03-09T14:11:36Z</time></trkpt><trkpt lat="58.036942" lon="39.152637"><ele>150.9</ele><time>2024-03-09T14:11:38Z</time></trkpt><trkpt lat="58.036887" lon="39.15245"><ele>150.2</ele><time>2024-03-09T14:11:40Z</time></trkpt><trkpt lat="58.03686" lon="39.152278"><ele>149.3</ele><time>2024-03-09T14:11:42Z</time></trkpt><trkpt lat="58.036817" lon="39.152117"><ele>147.9</ele><time>2024-03-09T14:11:44Z</time></trkpt><trkpt lat="58.03678" lon="39.152005"><ele>148.2</ele><time>2024-03-09T14:11:45Z</time></trkpt><trkpt lat="58.036745" lon="39.151885"><ele>148.3</ele><time>2024-03-09T14:11:46Z</time></trkpt><trkpt lat="58.03671" lon="39.151737"><ele>148.5</ele><time>2024-03-09T14:11:48Z</time></trkpt><trkpt lat="58.03668" lon="39.15156"><ele>145.4</ele><time>2024-03-09T14:11:50Z</time></trkpt><trkpt lat="58.036637" lon="39.15136"><ele>145.5</ele><time>2024-03-09T14:11:52Z</time></trkpt><trkpt lat="58.03662" lon="39.151185"><ele>146.2</ele><time>2024-03-09T14:11:54Z</time></trkpt><trkpt lat="58.036595" lon="39.15099"><ele>147.9</ele><time>2024-03-09T14:11:56Z</time></trkpt><trkpt lat="58.036567" lon="39.15082"><ele>148.3</ele><time>2024-03-09T14:11:58Z</time></trkpt><trkpt lat="58.03653" lon="39.15067"><ele>146.6</ele><time>2024-03-09T14:12:00Z</time></trkpt><trkpt lat="58.036498" lon="39.150522"><ele>146.2</ele><time>2024-03-09T14:12:02Z</time></trkpt><trkpt lat="58.036477" lon="39.150335"><ele>147.0</ele><time>2024-03-09T14:12:04Z</time></trkpt><trkpt lat="58.036492" lon="39.150205"><ele>147.2</ele><time>2024-03-09T14:12:06Z</time></trkpt><trkpt lat="58.036437" lon="39.150015"><ele>146.9</ele><time>2024-03-09T14:12:09Z</time></trkpt><trkpt lat="58.036407" lon="39.149875"><ele>148.3</ele><time>2024-03-09T14:12:11Z</time></trkpt><trkpt lat="58.036385" lon="39.149742"><ele>151.4</ele><time>2024-03-09T14:12:14Z</time></trkpt><trkpt lat="58.036315" lon="39.149695"><ele>152.0</ele><time>2024-03-09T14:12:17Z</time></trkpt><trkpt lat="58.03624" lon="39.149757"><ele>150.9</ele><time>2024-03-09T14:12:20Z</time></trkpt><trkpt lat="58.036175" lon="39.149895"><ele>150.1</ele><time>2024-03-09T14:12:23Z</time></trkpt><trkpt lat="58.036135" lon="39.150025"><ele>150.2</ele><time>2024-03-09T14:12:26Z</time></trkpt><trkpt lat="58.03607" lon="39.15016"><ele>149.8</ele><time>2024-03-09T14:12:29Z</time></trkpt><trkpt lat="58.036015" lon="39.15032"><ele>149.3</ele><time>2024-03-09T14:12:32Z</time></trkpt><trkpt lat="58.035958" lon="39.150475"><ele>151.7</ele><time>2024-03-09T14:12:35Z</time></trkpt><trkpt lat="58.035922" lon="39.1506"><ele>151.4</ele><time>2024-03-09T14:12:37Z</time></trkpt><trkpt lat="58.03587" lon="39.150758"><ele>151.5</ele><time>2024-03-09T14:12:39Z</time></trkpt><trkpt lat="58.035807" lon="39.150892"><ele>151.2</ele><time>2024-03-09T14:12:43Z</time></trkpt><trkpt lat="58.03575" lon="39.151015"><ele>150.6</ele><time>2024-03-09T14:12:48Z</time></trkpt><trkpt lat="58.035677" lon="39.151137"><ele>150.9</ele><time>2024-03-09T14:12:51Z</time></trkpt><trkpt lat="58.035583" lon="39.151205"><ele>152.3</ele><time>2024-03-09T14:12:54Z</time></trkpt><trkpt lat="58.035495" lon="39.151285"><ele>154.2</ele><time>2024-03-09T14:12:57Z</time></trkpt><trkpt lat="58.0354" lon="39.151345"><ele>154.0</ele><time>2024-03-09T14:13:00Z</time></trkpt><trkpt lat="58.03531" lon="39.151363"><ele>155.1</ele><time>2024-03-09T14:13:03Z</time></trkpt><trkpt lat="58.035225" lon="39.1514"><ele>154.1</ele><time>2024-03-09T14:13:07Z</time></trkpt><trkpt lat="58.035137" lon="39.1514"><ele>154.3</ele><time>2024-03-09T14:13:09Z</time></trkpt><trkpt lat="58.035055" lon="39.151435"><ele>153.2</ele><time>2024-03-09T14:13:11Z</time></trkpt><trkpt lat="58.034972" lon="39.151417"><ele>153.6</ele><time>2024-03-09T14:13:13Z</time></trkpt><trkpt lat="58.034865" lon="39.15137"><ele>152.5</ele><time>2024-03-09T14:13:16Z</time></trkpt><trkpt lat="58.03479" lon="39.151342"><ele>152.4</ele><time>2024-03-09T14:13:18Z</time></trkpt><trkpt lat="58.0347" lon="39.15123"><ele>152.0</ele><time>2024-03-09T14:13:21Z</time></trkpt><trkpt lat="58.034632" lon="39.151125"><ele>152.3</ele><time>2024-03-09T14:13:23Z</time></trkpt><trkpt lat="58.03454" lon="39.150985"><ele>152.1</ele><time>2024-03-09T14:13:25Z</time></trkpt><trkpt lat="58.034465" lon="39.150835"><ele>151.1</ele><time>2024-03-09T14:13:27Z</time></trkpt><trkpt lat="58.034405" lon="39.150685"><ele>150.1</ele><time>2024-03-09T14:13:29Z</time></trkpt><trkpt lat="58.03435" lon="39.15054"><ele>147.3</ele><time>2024-03-09T14:13:31Z</time></trkpt><trkpt lat="58.03427" lon="39.1504"><ele>145.7</ele><time>2024-03-09T14:13:33Z</time></trkpt><trkpt lat="58.034212" lon="39.150245"><ele>146.6</ele><time>2024-03-09T14:13:35Z</time></trkpt><trkpt lat="58.034155" lon="39.15007"><ele>145.4</ele><time>2024-03-09T14:13:37Z</time></trkpt><trkpt lat="58.034085" lon="39.149907"><ele>146.0</ele><time>2024-03-09T14:13:39Z</time></trkpt><trkpt lat="58.03403" lon="39.14977"><ele>144.7</ele><time>2024-03-09T14:13:41Z</time></trkpt><trkpt lat="58.033975" lon="39.14964"><ele>144.7</ele><time>2024-03-09T14:13:43Z</time></trkpt><trkpt lat="58.033895" lon="39.149535"><ele>144.5</ele><time>2024-03-09T14:13:45Z</time></trkpt><trkpt lat="58.033815" lon="39.149595"><ele>147.5</ele><time>2024-03-09T14:13:48Z</time></trkpt><trkpt lat="58.03378" lon="39.149755"><ele>147.1</ele><time>2024-03-09T14:13:50Z</time></trkpt><trkpt lat="58.033752" lon="39.149927"><ele>149.3</ele><time>2024-03-09T14:13:52Z</time></trkpt><trkpt lat="58.033715" lon="39.150078"><ele>147.3</ele><time>2024-03-09T14:13:55Z</time></trkpt><trkpt lat="58.033683" lon="39.150235"><ele>146.1</ele><time>2024-03-09T14:13:57Z</time></trkpt><trkpt lat="58.03365" lon="39.150378"><ele>145.8</ele><time>2024-03-09T14:13:59Z</time></trkpt><trkpt lat="58.03362" lon="39.150545"><ele>144.6</ele><time>2024-03-09T14:14:01Z</time></trkpt><trkpt lat="58.033585" lon="39.15071"><ele>143.4</ele><time>2024-03-09T14:14:03Z</time></trkpt><trkpt lat="58.033542" lon="39.150855"><ele>143.7</ele><time>2024-03-09T14:14:05Z</time></trkpt><trkpt lat="58.0335" lon="39.151005"><ele>146.6</ele><time>2024-03-09T14:14:07Z</time></trkpt><trkpt lat="58.033475" lon="39.15118"><ele>146.4</ele><time>2024-03-09T14:14:10Z</time></trkpt><trkpt lat="58.033405" lon="39.15134"><ele>145.8</ele><time>2024-03-09T14:14:13Z</time></trkpt><trkpt lat="58.03338" lon="39.15147"><ele>145.5</ele><time>2024-03-09T14:14:15Z</time></trkpt><trkpt lat="58.03335" lon="39.151615"><ele>143.9</ele><time>2024-03-09T14:14:17Z</time></trkpt><trkpt lat="58.03331" lon="39.151765"><ele>143.2</ele><time>2024-03-09T14:14:19Z</time></trkpt><trkpt lat="58.033265" lon="39.15198"><ele>143.9</ele><time>2024-03-09T14:14:21Z</time></trkpt><trkpt lat="58.033212" lon="39.152155"><ele>144.0</ele><time>2024-03-09T14:14:23Z</time></trkpt><trkpt lat="58.033163" lon="39.15232"><ele>147.0</ele><time>2024-03-09T14:14:25Z</time></trkpt><trkpt lat="58.033127" lon="39.152445"><ele>148.0</ele><time>2024-03-09T14:14:28Z</time></trkpt><trkpt lat="58.033065" lon="39.152555"><ele>149.2</ele><time>2024-03-09T14:14:31Z</time></trkpt><trkpt lat="58.032985" lon="39.152657"><ele>148.1</ele><time>2024-03-09T14:14:34Z</time></trkpt><trkpt lat="58.032895" lon="39.152665"><ele>147.6</ele><time>2024-03-09T14:14:36Z</time></trkpt><trkpt lat="58.032805" lon="39.15267"><ele>146.3</ele><time>2024-03-09T14:14:39Z</time></trkpt><trkpt lat="58.032702" lon="39.152645"><ele>146.9</ele><time>2024-03-09T14:14:42Z</time></trkpt><trkpt lat="58.032615" lon="39.152653"><ele>146.6</ele><time>2024-03-09T14:14:45Z</time></trkpt><trkpt lat="58.032535" lon="39.152625"><ele>145.8</ele><time>2024-03-09T14:14:47Z</time></trkpt><trkpt lat="58.032455" lon="39.152642"><ele>144.7</ele><time>2024-03-09T14:14:49Z</time></trkpt><trkpt lat="58.032365" lon="39.152657"><ele>146.2</ele><time>2024-03-09T14:14:51Z</time></trkpt><trkpt lat="58.032282" lon="39.152657"><ele>143.7</ele><time>2024-03-09T14:14:53Z</time></trkpt><trkpt lat="58.032202" lon="39.152695"><ele>144.5</ele><time>2024-03-09T14:14:55Z</time></trkpt><trkpt lat="58.03212" lon="39.15272"><ele>143.5</ele><time>2024-03-09T14:14:57Z</time></trkpt><trkpt lat="58.032032" lon="39.15277"><ele>143.2</ele><time>2024-03-09T14:14:59Z</time></trkpt><trkpt lat="58.03196" lon="39.152842"><ele>142.4</ele><time>2024-03-09T14:15:02Z</time></trkpt><trkpt lat="58.0319" lon="39.152965"><ele>144.0</ele><time>2024-03-09T14:15:04Z</time></trkpt><trkpt lat="58.03184" lon="39.153095"><ele>145.3</ele><time>2024-03-09T14:15:06Z</time></trkpt><trkpt lat="58.031787" lon="39.15322"><ele>145.0</ele><time>2024-03-09T14:15:08Z</time></trkpt><trkpt lat="58.031745" lon="39.15333"><ele>145.3</ele><time>2024-03-09T14:15:10Z</time></trkpt><trkpt lat="58.031695" lon="39.153535"><ele>147.9</ele><time>2024-03-09T14:15:13Z</time></trkpt><trkpt lat="58.031657" lon="39.15366"><ele>148.5</ele><time>2024-03-09T14:15:15Z</time></trkpt><trkpt lat="58.03162" lon="39.153815"><ele>148.4</ele><time>2024-03-09T14:15:17Z</time></trkpt><trkpt lat="58.031545" lon="39.154005"><ele>149.5</ele><time>2024-03-09T14:15:20Z</time></trkpt><trkpt lat="58.031487" lon="39.15416"><ele>147.7</ele><time>2024-03-09T14:15:22Z</time></trkpt><trkpt lat="58.031417" lon="39.15434"><ele>146.9</ele><time>2024-03-09T14:15:24Z</time></trkpt><trkpt lat="58.031345" lon="39.15451"><ele>147.5</ele><time>2024-03-09T14:15:26Z</time></trkpt><trkpt lat="58.031278" lon="39.154643"><ele>147.9</ele><time>2024-03-09T14:15:28Z</time></trkpt><trkpt lat="58.031205" lon="39.15474"><ele>147.9</ele><time>2024-03-09T14:15:31Z</time></trkpt><trkpt lat="58.031122" lon="39.154847"><ele>145.7</ele><time>2024-03-09T14:15:34Z</time></trkpt><trkpt lat="58.031035" lon="39.15495"><ele>143.8</ele><time>2024-03-09T14:15:37Z</time></trkpt><trkpt lat="58.03094" lon="39.155002"><ele>146.1</ele><time>2024-03-09T14:15:40Z</time></trkpt><trkpt lat="58.030867" lon="39.15506"><ele>147.0</ele><time>2024-03-09T14:15:42Z</time></trkpt><trkpt lat="58.03079" lon="39.15512"><ele>145.8</ele><time>2024-03-09T14:15:44Z</time></trkpt><trkpt lat="58.030715" lon="39.15514"><ele>145.5</ele><time>2024-03-09T14:15:46Z</time></trkpt><trkpt lat="58.030615" lon="39.155225"><ele>146.4</ele><time>2024-03-09T14:15:49Z</time></trkpt><trkpt lat="58.030545" lon="39.15529"><ele>144.7</ele><time>2024-03-09T14:15:51Z</time></trkpt><trkpt lat="58.03048" lon="39.155355"><ele>145.6</ele><time>2024-03-09T14:15:53Z</time></trkpt><trkpt lat="58.03037" lon="39.155422"><ele>145.1</ele><time>2024-03-09T14:15:56Z</time></trkpt><trkpt lat="58.030295" lon="39.155452"><ele>143.4</ele><time>2024-03-09T14:15:58Z</time></trkpt><trkpt lat="58.030215" lon="39.155505"><ele>145.0</ele><time>2024-03-09T14:16:00Z</time></trkpt><trkpt lat="58.030138" lon="39.155502"><ele>144.4</ele><time>2024-03-09T14:16:02Z</time></trkpt><trkpt lat="58.030065" lon="39.155538"><ele>143.9</ele><time>2024-03-09T14:16:04Z</time></trkpt><trkpt lat="58.029982" lon="39.155575"><ele>144.9</ele><time>2024-03-09T14:16:06Z</time></trkpt><trkpt lat="58.029905" lon="39.155602"><ele>145.8</ele><time>2024-03-09T14:16:08Z</time></trkpt><trkpt lat="58.029827" lon="39.15561"><ele>144.7</ele><time>2024-03-09T14:16:10Z</time></trkpt><trkpt lat="58.029717" lon="39.15565"><ele>144.1</ele><time>2024-03-09T14:16:13Z</time></trkpt><trkpt lat="58.02963" lon="39.155635"><ele>144.2</ele><time>2024-03-09T14:16:15Z</time></trkpt><trkpt lat="58.029542" lon="39.15566"><ele>145.3</ele><time>2024-03-09T14:16:17Z</time></trkpt><trkpt lat="58.029475" lon="39.1556"><ele>143.6</ele><time>2024-03-09T14:16:19Z</time></trkpt><trkpt lat="58.029417" lon="39.155475"><ele>143.0</ele><time>2024-03-09T14:16:21Z</time></trkpt><trkpt lat="58.02934" lon="39.15538"><ele>142.8</ele><time>2024-03-09T14:16:23Z</time></trkpt><trkpt lat="58.029255" lon="39.155307"><ele>145.2</ele><time>2024-03-09T14:16:25Z</time></trkpt><trkpt lat="58.02915" lon="39.1552"><ele>144.2</ele><time>2024-03-09T14:16:27Z</time></trkpt><trkpt lat="58.029055" lon="39.155092"><ele>147.0</ele><time>2024-03-09T14:16:29Z</time></trkpt><trkpt lat="58.02896" lon="39.15502"><ele>147.6</ele><time>2024-03-09T14:16:31Z</time></trkpt><trkpt lat="58.02885" lon="39.154935"><ele>147.5</ele><time>2024-03-09T14:16:33Z</time></trkpt><trkpt lat="58.02875" lon="39.154887"><ele>147.0</ele><time>2024-03-09T14:16:35Z</time></trkpt><trkpt lat="58.02863" lon="39.15492"><ele>146.3</ele><time>2024-03-09T14:16:37Z</time></trkpt><trkpt lat="58.02855" lon="39.154945"><ele>146.1</ele><time>2024-03-09T14:16:39Z</time></trkpt><trkpt lat="58.028497" lon="39.155065"><ele>144.5</ele><time>2024-03-09T14:16:41Z</time></trkpt><trkpt lat="58.028463" lon="39.15525"><ele>145.5</ele><time>2024-03-09T14:16:43Z</time></trkpt><trkpt lat="58.028435" lon="39.155415"><ele>145.8</ele><time>2024-03-09T14:16:45Z</time></trkpt><trkpt lat="58.028445" lon="39.155605"><ele>146.0</ele><time>2024-03-09T14:16:47Z</time></trkpt><trkpt lat="58.028425" lon="39.15581"><ele>143.1</ele><time>2024-03-09T14:16:50Z</time></trkpt><trkpt lat="58.028477" lon="39.155987"><ele>143.8</ele><time>2024-03-09T14:16:53Z</time></trkpt><trkpt lat="58.028532" lon="39.156097"><ele>145.8</ele><time>2024-03-09T14:16:55Z</time></trkpt><trkpt lat="58.028607" lon="39.156212"><ele>146.4</ele><time>2024-03-09T14:16:57Z</time></trkpt><trkpt lat="58.028675" lon="39.156275"><ele>145.5</ele><time>2024-03-09T14:16:59Z</time></trkpt><trkpt lat="58.028745" lon="39.156373"><ele>146.1</ele><time>2024-03-09T14:17:01Z</time></trkpt><trkpt lat="58.02881" lon="39.156455"><ele>147.0</ele><time>2024-03-09T14:17:03Z</time></trkpt><trkpt lat="58.028877" lon="39.156545"><ele>144.5</ele><time>2024-03-09T14:17:05Z</time></trkpt><trkpt lat="58.028945" lon="39.156635"><ele>145.0</ele><time>2024-03-09T14:17:07Z</time></trkpt><trkpt lat="58.029012" lon="39.156725"><ele>144.5</ele><time>2024-03-09T14:17:09Z</time></trkpt><trkpt lat="58.02908" lon="39.156792"><ele>147.3</ele><time>2024-03-09T14:17:13Z</time></trkpt><trkpt lat="58.029145" lon="39.15693"><ele>146.7</ele><time>2024-03-09T14:17:17Z</time></trkpt><trkpt lat="58.02921" lon="39.157005"><ele>146.5</ele><time>2024-03-09T14:17:19Z</time></trkpt><trkpt lat="58.029265" lon="39.157097"><ele>146.5</ele><time>2024-03-09T14:17:21Z</time></trkpt><trkpt lat="58.029345" lon="39.157225"><ele>145.5</ele><time>2024-03-09T14:17:24Z</time></trkpt><trkpt lat="58.0294" lon="39.157325"><ele>145.6</ele><time>2024-03-09T14:17:26Z</time></trkpt><trkpt lat="58.02947" lon="39.157442"><ele>146.0</ele><time>2024-03-09T14:17:29Z</time></trkpt><trkpt lat="58.029535" lon="39.157525"><ele>148.2</ele><time>2024-03-09T14:17:31Z</time></trkpt><trkpt lat="58.02959" lon="39.15762"><ele>147.0</ele><time>2024-03-09T14:17:33Z</time></trkpt><trkpt lat="58.029598" lon="39.157815"><ele>146.2</ele><time>2024-03-09T14:17:36Z</time></trkpt><trkpt lat="58.02957" lon="39.15795"><ele>145.7</ele><time>2024-03-09T14:17:38Z</time></trkpt><trkpt lat="58.02949" lon="39.15809"><ele>145.0</ele><time>2024-03-09T14:17:40Z</time></trkpt><trkpt lat="58.029443" lon="39.158215"><ele>144.0</ele><time>2024-03-09T14:17:42Z</time></trkpt><trkpt lat="58.0294" lon="39.15835"><ele>144.7</ele><time>2024-03-09T14:17:44Z</time></trkpt><trkpt lat="58.029355" lon="39.158462"><ele>142.5</ele><time>2024-03-09T14:17:46Z</time></trkpt><trkpt lat="58.029292" lon="39.15856"><ele>143.2</ele><time>2024-03-09T14:17:49Z</time></trkpt><trkpt lat="58.029245" lon="39.158685"><ele>142.6</ele><time>2024-03-09T14:17:52Z</time></trkpt><trkpt lat="58.029195" lon="39.15879"><ele>141.0</ele><time>2024-03-09T14:17:54Z</time></trkpt><trkpt lat="58.029137" lon="39.158948"><ele>144.0</ele><time>2024-03-09T14:17:57Z</time></trkpt><trkpt lat="58.029085" lon="39.15906"><ele>145.7</ele><time>2024-03-09T14:18:00Z</time></trkpt><trkpt lat="58.02902" lon="39.15916"><ele>144.7</ele><time>2024-03-09T14:18:03Z</time></trkpt><trkpt lat="58.02895" lon="39.159275"><ele>145.7</ele><time>2024-03-09T14:18:06Z</time></trkpt><trkpt lat="58.02888" lon="39.15942"><ele>145.1</ele><time>2024-03-09T14:18:09Z</time></trkpt><trkpt lat="58.028805" lon="39.15952"><ele>142.9</ele><time>2024-03-09T14:18:11Z</time></trkpt><trkpt lat="58.028702" lon="39.15964"><ele>142.3</ele><time>2024-03-09T14:18:13Z</time></trkpt><trkpt lat="58.0286" lon="39.159775"><ele>142.4</ele><time>2024-03-09T14:18:15Z</time></trkpt><trkpt lat="58.028497" lon="39.15987"><ele>142.9</ele><time>2024-03-09T14:18:17Z</time></trkpt><trkpt lat="58.02842" lon="39.159967"><ele>145.7</ele><time>2024-03-09T14:18:20Z</time></trkpt><trkpt lat="58.028365" lon="39.160075"><ele>148.7</ele><time>2024-03-09T14:18:23Z</time></trkpt><trkpt lat="58.02832" lon="39.160182"><ele>153.6</ele><time>2024-03-09T14:18:25Z</time></trkpt><trkpt lat="58.028242" lon="39.160115"><ele>155.2</ele><time>2024-03-09T14:18:29Z</time></trkpt><trkpt lat="58.028162" lon="39.160242"><ele>154.4</ele><time>2024-03-09T14:18:31Z</time></trkpt><trkpt lat="58.028095" lon="39.160295"><ele>153.3</ele><time>2024-03-09T14:18:33Z</time></trkpt><trkpt lat="58.028007" lon="39.160375"><ele>148.3</ele><time>2024-03-09T14:18:35Z</time></trkpt><trkpt lat="58.02791" lon="39.160402"><ele>145.8</ele><time>2024-03-09T14:18:38Z</time></trkpt><trkpt lat="58.02783" lon="39.16053"><ele>144.8</ele><time>2024-03-09T14:18:41Z</time></trkpt><trkpt lat="58.0278" lon="39.160672"><ele>147.1</ele><time>2024-03-09T14:18:43Z</time></trkpt><trkpt lat="58.027767" lon="39.160905"><ele>146.9</ele><time>2024-03-09T14:18:45Z</time></trkpt><trkpt lat="58.02782" lon="39.161032"><ele>146.3</ele><time>2024-03-09T14:18:48Z</time></trkpt><trkpt lat="58.02792" lon="39.161073"><ele>144.7</ele><time>2024-03-09T14:18:51Z</time></trkpt><trkpt lat="58.02799" lon="39.161077"><ele>144.4</ele><time>2024-03-09T14:18:53Z</time></trkpt><trkpt lat="58.02807" lon="39.16109"><ele>144.5</ele><time>2024-03-09T14:18:55Z</time></trkpt><trkpt lat="58.028168" lon="39.161095"><ele>144.3</ele><time>2024-03-09T14:18:58Z</time></trkpt><trkpt lat="58.028277" lon="39.161065"><ele>145.4</ele><time>2024-03-09T14:19:01Z</time></trkpt><trkpt lat="58.028385" lon="39.16105"><ele>145.5</ele><time>2024-03-09T14:19:04Z</time></trkpt><trkpt lat="58.028495" lon="39.161115"><ele>143.4</ele><time>2024-03-09T14:19:06Z</time></trkpt><trkpt lat="58.02858" lon="39.161073"><ele>144.9</ele><time>2024-03-09T14:19:08Z</time></trkpt><trkpt lat="58.02866" lon="39.16103"><ele>145.4</ele><time>2024-03-09T14:19:11Z</time></trkpt><trkpt lat="58.028762" lon="39.16102"><ele>145.0</ele><time>2024-03-09T14:19:14Z</time></trkpt><trkpt lat="58.028865" lon="39.16106"><ele>146.2</ele><time>2024-03-09T14:19:17Z</time></trkpt><trkpt lat="58.028955" lon="39.161072"><ele>146.7</ele><time>2024-03-09T14:19:21Z</time></trkpt><trkpt lat="58.029037" lon="39.161192"><ele>147.3</ele><time>2024-03-09T14:19:24Z</time></trkpt><trkpt lat="58.029092" lon="39.16134"><ele>148.8</ele><time>2024-03-09T14:19:27Z</time></trkpt><trkpt lat="58.02912" lon="39.161485"><ele>146.4</ele><time>2024-03-09T14:19:30Z</time></trkpt><trkpt lat="58.029138" lon="39.161637"><ele>146.2</ele><time>2024-03-09T14:19:32Z</time></trkpt><trkpt lat="58.029207" lon="39.16179"><ele>145.4</ele><time>2024-03-09T14:19:35Z</time></trkpt><trkpt lat="58.029255" lon="39.161903"><ele>146.6</ele><time>2024-03-09T14:19:37Z</time></trkpt><trkpt lat="58.0293" lon="39.162037"><ele>148.4</ele><time>2024-03-09T14:19:39Z</time></trkpt><trkpt lat="58.029315" lon="39.162175"><ele>148.9</ele><time>2024-03-09T14:19:41Z</time></trkpt><trkpt lat="58.029345" lon="39.162353"><ele>147.6</ele><time>2024-03-09T14:19:44Z</time></trkpt><trkpt lat="58.029372" lon="39.16249"><ele>146.7</ele><time>2024-03-09T14:19:46Z</time></trkpt><trkpt lat="58.029405" lon="39.16265"><ele>150.3</ele><time>2024-03-09T14:19:50Z</time></trkpt><trkpt lat="58.02941" lon="39.162805"><ele>149.7</ele><time>2024-03-09T14:19:53Z</time></trkpt><trkpt lat="58.02938" lon="39.16301"><ele>149.3</ele><time>2024-03-09T14:19:56Z</time></trkpt><trkpt lat="58.029325" lon="39.16315"><ele>149.2</ele><time>2024-03-09T14:19:59Z</time></trkpt><trkpt lat="58.02927" lon="39.163292"><ele>151.6</ele><time>2024-03-09T14:20:02Z</time></trkpt><trkpt lat="58.02924" lon="39.163418"><ele>151.2</ele><time>2024-03-09T14:20:03Z</time></trkpt><trkpt lat="58.029185" lon="39.163617"><ele>148.2</ele><time>2024-03-09T14:20:06Z</time></trkpt><trkpt lat="58.02915" lon="39.163765"><ele>149.3</ele><time>2024-03-09T14:20:08Z</time></trkpt><trkpt lat="58.02912" lon="39.163905"><ele>148.1</ele><time>2024-03-09T14:20:10Z</time></trkpt><trkpt lat="58.02908" lon="39.16404"><ele>148.7</ele><time>2024-03-09T14:20:12Z</time></trkpt><trkpt lat="58.02901" lon="39.16418"><ele>148.2</ele><time>2024-03-09T14:20:15Z</time></trkpt><trkpt lat="58.02895" lon="39.164315"><ele>150.0</ele><time>2024-03-09T14:20:18Z</time></trkpt><trkpt lat="58.028882" lon="39.16443"><ele>150.1</ele><time>2024-03-09T14:20:21Z</time></trkpt><trkpt lat="58.028815" lon="39.16453"><ele>150.2</ele><time>2024-03-09T14:20:24Z</time></trkpt><trkpt lat="58.02875" lon="39.16466"><ele>149.5</ele><time>2024-03-09T14:20:27Z</time></trkpt><trkpt lat="58.028725" lon="39.164805"><ele>150.5</ele><time>2024-03-09T14:20:29Z</time></trkpt><trkpt lat="58.0287" lon="39.164952"><ele>150.2</ele><time>2024-03-09T14:20:31Z</time></trkpt><trkpt lat="58.028675" lon="39.1651"><ele>150.1</ele><time>2024-03-09T14:20:33Z</time></trkpt><trkpt lat="58.02863" lon="39.16527"><ele>149.2</ele><time>2024-03-09T14:20:36Z</time></trkpt><trkpt lat="58.028575" lon="39.165392"><ele>149.1</ele><time>2024-03-09T14:20:39Z</time></trkpt><trkpt lat="58.028515" lon="39.16549"><ele>149.9</ele><time>2024-03-09T14:20:42Z</time></trkpt><trkpt lat="58.028462" lon="39.16559"><ele>149.6</ele><time>2024-03-09T14:20:44Z</time></trkpt><trkpt lat="58.028415" lon="39.165735"><ele>151.0</ele><time>2024-03-09T14:20:46Z</time></trkpt><trkpt lat="58.028345" lon="39.165865"><ele>151.2</ele><time>2024-03-09T14:20:49Z</time></trkpt><trkpt lat="58.028307" lon="39.165993"><ele>147.0</ele><time>2024-03-09T14:20:52Z</time></trkpt><trkpt lat="58.02823" lon="39.166145"><ele>144.3</ele><time>2024-03-09T14:20:55Z</time></trkpt><trkpt lat="58.02815" lon="39.166257"><ele>144.8</ele><time>2024-03-09T14:20:58Z</time></trkpt><trkpt lat="58.02811" lon="39.16643"><ele>147.9</ele><time>2024-03-09T14:21:01Z</time></trkpt><trkpt lat="58.02811" lon="39.166635"><ele>147.0</ele><time>2024-03-09T14:21:04Z</time></trkpt><trkpt lat="58.02814" lon="39.166805"><ele>149.9</ele><time>2024-03-09T14:21:07Z</time></trkpt><trkpt lat="58.028238" lon="39.166965"><ele>152.4</ele><time>2024-03-09T14:21:10Z</time></trkpt><trkpt lat="58.028295" lon="39.1671"><ele>152.5</ele><time>2024-03-09T14:21:13Z</time></trkpt><trkpt lat="58.028347" lon="39.167235"><ele>152.0</ele><time>2024-03-09T14:21:15Z</time></trkpt><trkpt lat="58.028393" lon="39.167392"><ele>152.0</ele><time>2024-03-09T14:21:17Z</time></trkpt><trkpt lat="58.028435" lon="39.167535"><ele>152.5</ele><time>2024-03-09T14:21:19Z</time></trkpt><trkpt lat="58.028458" lon="39.167725"><ele>151.1</ele><time>2024-03-09T14:21:22Z</time></trkpt><trkpt lat="58.02847" lon="39.16786"><ele>150.6</ele><time>2024-03-09T14:21:24Z</time></trkpt><trkpt lat="58.0285" lon="39.168025"><ele>150.5</ele><time>2024-03-09T14:21:27Z</time></trkpt><trkpt lat="58.028515" lon="39.168165"><ele>148.2</ele><time>2024-03-09T14:21:30Z</time></trkpt><trkpt lat="58.028533" lon="39.1683"><ele>149.2</ele><time>2024-03-09T14:21:32Z</time></trkpt><trkpt lat="58.028565" lon="39.16847"><ele>149.7</ele><time>2024-03-09T14:21:35Z</time></trkpt><trkpt lat="58.02858" lon="39.168615"><ele>149.2</ele><time>2024-03-09T14:21:37Z</time></trkpt><trkpt lat="58.028605" lon="39.168775"><ele>151.0</ele><time>2024-03-09T14:21:39Z</time></trkpt><trkpt lat="58.028645" lon="39.1689"><ele>151.0</ele><time>2024-03-09T14:21:41Z</time></trkpt><trkpt lat="58.028685" lon="39.169035"><ele>149.0</ele><time>2024-03-09T14:21:44Z</time></trkpt><trkpt lat="58.02875" lon="39.169177"><ele>147.9</ele><time>2024-03-09T14:21:48Z</time></trkpt><trkpt lat="58.028805" lon="39.16929"><ele>148.7</ele><time>2024-03-09T14:21:51Z</time></trkpt><trkpt lat="58.028847" lon="39.169425"><ele>149.0</ele><time>2024-03-09T14:21:55Z</time></trkpt><trkpt lat="58.028882" lon="39.169545"><ele>148.7</ele><time>2024-03-09T14:21:58Z</time></trkpt><trkpt lat="58.0289" lon="39.16971"><ele>149.3</ele><time>2024-03-09T14:22:01Z</time></trkpt><trkpt lat="58.028885" lon="39.16988"><ele>149.0</ele><time>2024-03-09T14:22:04Z</time></trkpt><trkpt lat="58.028877" lon="39.170035"><ele>149.5</ele><time>2024-03-09T14:22:07Z</time></trkpt><trkpt lat="58.028862" lon="39.17021"><ele>149.2</ele><time>2024-03-09T14:22:10Z</time></trkpt><trkpt lat="58.028843" lon="39.17041"><ele>149.7</ele><time>2024-03-09T14:22:13Z</time></trkpt><trkpt lat="58.028842" lon="39.170575"><ele>150.6</ele><time>2024-03-09T14:22:15Z</time></trkpt><trkpt lat="58.028847" lon="39.17073"><ele>150.8</ele><time>2024-03-09T14:22:17Z</time></trkpt><trkpt lat="58.028857" lon="39.170872"><ele>149.9</ele><time>2024-03-09T14:22:19Z</time></trkpt><trkpt lat="58.0289" lon="39.171032"><ele>150.6</ele><time>2024-03-09T14:22:22Z</time></trkpt><trkpt lat="58.028977" lon="39.171115"><ele>150.3</ele><time>2024-03-09T14:22:25Z</time></trkpt><trkpt lat="58.029065" lon="39.171105"><ele>150.7</ele><time>2024-03-09T14:22:28Z</time></trkpt><trkpt lat="58.029155" lon="39.171127"><ele>149.9</ele><time>2024-03-09T14:22:31Z</time></trkpt><trkpt lat="58.029232" lon="39.171135"><ele>151.2</ele><time>2024-03-09T14:22:34Z</time></trkpt><trkpt lat="58.029317" lon="39.171132"><ele>150.2</ele><time>2024-03-09T14:22:38Z</time></trkpt><trkpt lat="58.02939" lon="39.17116"><ele>148.8</ele><time>2024-03-09T14:22:40Z</time></trkpt><trkpt lat="58.029462" lon="39.171232"><ele>148.8</ele><time>2024-03-09T14:22:42Z</time></trkpt><trkpt lat="58.029535" lon="39.17126"><ele>148.8</ele><time>2024-03-09T14:22:44Z</time></trkpt><trkpt lat="58.029622" lon="39.171302"><ele>149.1</ele><time>2024-03-09T14:22:46Z</time></trkpt><trkpt lat="58.029695" lon="39.171368"><ele>150.5</ele><time>2024-03-09T14:22:48Z</time></trkpt><trkpt lat="58.02979" lon="39.17141"><ele>149.0</ele><time>2024-03-09T14:22:51Z</time></trkpt><trkpt lat="58.029865" lon="39.171372"><ele>150.0</ele><time>2024-03-09T14:22:54Z</time></trkpt><trkpt lat="58.029945" lon="39.171395"><ele>150.1</ele><time>2024-03-09T14:22:56Z</time></trkpt><trkpt lat="58.030065" lon="39.17144"><ele>151.7</ele><time>2024-03-09T14:22:58Z</time></trkpt><trkpt lat="58.030112" lon="39.171545"><ele>153.8</ele><time>2024-03-09T14:23:02Z</time></trkpt><trkpt lat="58.03018" lon="39.171595"><ele>153.0</ele><time>2024-03-09T14:23:05Z</time></trkpt><trkpt lat="58.030278" lon="39.17164"><ele>153.1</ele><time>2024-03-09T14:23:09Z</time></trkpt><trkpt lat="58.030365" lon="39.171675"><ele>150.2</ele><time>2024-03-09T14:23:13Z</time></trkpt><trkpt lat="58.03045" lon="39.17172"><ele>146.8</ele><time>2024-03-09T14:23:16Z</time></trkpt><trkpt lat="58.030527" lon="39.171725"><ele>146.8</ele><time>2024-03-09T14:23:19Z</time></trkpt><trkpt lat="58.0306" lon="39.171753"><ele>145.9</ele><time>2024-03-09T14:23:22Z</time></trkpt><trkpt lat="58.03068" lon="39.171757"><ele>146.7</ele><time>2024-03-09T14:23:25Z</time></trkpt><trkpt lat="58.030755" lon="39.171745"><ele>147.7</ele><time>2024-03-09T14:23:28Z</time></trkpt><trkpt lat="58.03086" lon="39.171757"><ele>147.7</ele><time>2024-03-09T14:23:31Z</time></trkpt><trkpt lat="58.030957" lon="39.17172"><ele>148.1</ele><time>2024-03-09T14:23:34Z</time></trkpt><trkpt lat="58.03106" lon="39.171682"><ele>149.2</ele><time>2024-03-09T14:23:37Z</time></trkpt><trkpt lat="58.031155" lon="39.171662"><ele>146.5</ele><time>2024-03-09T14:23:41Z</time></trkpt><trkpt lat="58.031235" lon="39.171645"><ele>149.4</ele><time>2024-03-09T14:23:44Z</time></trkpt><trkpt lat="58.031325" lon="39.17162"><ele>149.8</ele><time>2024-03-09T14:23:47Z</time></trkpt><trkpt lat="58.031418" lon="39.17158"><ele>151.8</ele><time>2024-03-09T14:23:50Z</time></trkpt><trkpt lat="58.031515" lon="39.17152"><ele>152.5</ele><time>2024-03-09T14:23:53Z</time></trkpt><trkpt lat="58.031615" lon="39.17147"><ele>153.0</ele><time>2024-03-09T14:23:56Z</time></trkpt><trkpt lat="58.031722" lon="39.171405"><ele>152.9</ele><time>2024-03-09T14:23:59Z</time></trkpt><trkpt lat="58.031805" lon="39.171355"><ele>151.8</ele><time>2024-03-09T14:24:02Z</time></trkpt><trkpt lat="58.0319" lon="39.171315"><ele>152.4</ele><time>2024-03-09T14:24:05Z</time></trkpt><trkpt lat="58.031975" lon="39.171315"><ele>151.8</ele><time>2024-03-09T14:24:07Z</time></trkpt><trkpt lat="58.032045" lon="39.17131"><ele>152.4</ele><time>2024-03-09T14:24:09Z</time></trkpt><trkpt lat="58.032125" lon="39.17127"><ele>151.7</ele><time>2024-03-09T14:24:11Z</time></trkpt><trkpt lat="58.032215" lon="39.171275"><ele>150.0</ele><time>2024-03-09T14:24:14Z</time></trkpt><trkpt lat="58.032315" lon="39.17126"><ele>149.4</ele><time>2024-03-09T14:24:17Z</time></trkpt><trkpt lat="58.032402" lon="39.171235"><ele>148.5</ele><time>2024-03-09T14:24:20Z</time></trkpt><trkpt lat="58.03248" lon="39.171205"><ele>146.5</ele><time>2024-03-09T14:24:23Z</time></trkpt><trkpt lat="58.032565" lon="39.17118"><ele>146.3</ele><time>2024-03-09T14:24:26Z</time></trkpt><trkpt lat="58.03266" lon="39.171135"><ele>147.2</ele><time>2024-03-09T14:24:29Z</time></trkpt><trkpt lat="58.032735" lon="39.17111"><ele>145.3</ele><time>2024-03-09T14:24:31Z</time></trkpt><trkpt lat="58.03281" lon="39.171005"><ele>145.1</ele><time>2024-03-09T14:24:34Z</time></trkpt><trkpt lat="58.03288" lon="39.17093"><ele>146.3</ele><time>2024-03-09T14:24:36Z</time></trkpt><trkpt lat="58.032947" lon="39.170835"><ele>146.2</ele><time>2024-03-09T14:24:38Z</time></trkpt><trkpt lat="58.033015" lon="39.170735"><ele>146.0</ele><time>2024-03-09T14:24:40Z</time></trkpt><trkpt lat="58.033102" lon="39.170635"><ele>146.6</ele><time>2024-03-09T14:24:43Z</time></trkpt><trkpt lat="58.033162" lon="39.17051"><ele>148.9</ele><time>2024-03-09T14:24:46Z</time></trkpt><trkpt lat="58.033225" lon="39.170402"><ele>150.9</ele><time>2024-03-09T14:24:50Z</time></trkpt><trkpt lat="58.03326" lon="39.170252"><ele>149.6</ele><time>2024-03-09T14:24:53Z</time></trkpt><trkpt lat="58.03331" lon="39.170117"><ele>149.8</ele><time>2024-03-09T14:24:56Z</time></trkpt><trkpt lat="58.033365" lon="39.17"><ele>150.7</ele><time>2024-03-09T14:25:00Z</time></trkpt><trkpt lat="58.03343" lon="39.169925"><ele>153.3</ele><time>2024-03-09T14:25:04Z</time></trkpt><trkpt lat="58.03351" lon="39.16982"><ele>156.7</ele><time>2024-03-09T14:25:09Z</time></trkpt><trkpt lat="58.03359" lon="39.16971"><ele>155.1</ele><time>2024-03-09T14:25:12Z</time></trkpt><trkpt lat="58.033675" lon="39.1696"><ele>154.0</ele><time>2024-03-09T14:25:15Z</time></trkpt><trkpt lat="58.033762" lon="39.16947"><ele>153.5</ele><time>2024-03-09T14:25:18Z</time></trkpt><trkpt lat="58.033837" lon="39.169385"><ele>151.3</ele><time>2024-03-09T14:25:21Z</time></trkpt><trkpt lat="58.033912" lon="39.16931"><ele>152.5</ele><time>2024-03-09T14:25:24Z</time></trkpt><trkpt lat="58.033992" lon="39.169227"><ele>151.7</ele><time>2024-03-09T14:25:27Z</time></trkpt><trkpt lat="58.034072" lon="39.169135"><ele>151.6</ele><time>2024-03-09T14:25:30Z</time></trkpt><trkpt lat="58.034135" lon="39.169067"><ele>151.0</ele><time>2024-03-09T14:25:32Z</time></trkpt><trkpt lat="58.034205" lon="39.168985"><ele>149.4</ele><time>2024-03-09T14:25:34Z</time></trkpt><trkpt lat="58.034265" lon="39.168905"><ele>149.6</ele><time>2024-03-09T14:25:36Z</time></trkpt><trkpt lat="58.034355" lon="39.168805"><ele>149.4</ele><time>2024-03-09T14:25:39Z</time></trkpt><trkpt lat="58.03443" lon="39.16871"><ele>148.1</ele><time>2024-03-09T14:25:41Z</time></trkpt><trkpt lat="58.034485" lon="39.16861"><ele>150.5</ele><time>2024-03-09T14:25:44Z</time></trkpt><trkpt lat="58.034557" lon="39.168542"><ele>149.7</ele><time>2024-03-09T14:25:46Z</time></trkpt><trkpt lat="58.034665" lon="39.168485"><ele>148.3</ele><time>2024-03-09T14:25:49Z</time></trkpt><trkpt lat="58.03472" lon="39.168397"><ele>148.1</ele><time>2024-03-09T14:25:51Z</time></trkpt><trkpt lat="58.034805" lon="39.16834"><ele>149.3</ele><time>2024-03-09T14:25:54Z</time></trkpt><trkpt lat="58.03489" lon="39.168297"><ele>150.3</ele><time>2024-03-09T14:25:57Z</time></trkpt><trkpt lat="58.034985" lon="39.16827"><ele>150.1</ele><time>2024-03-09T14:26:00Z</time></trkpt><trkpt lat="58.035075" lon="39.16822"><ele>151.4</ele><time>2024-03-09T14:26:03Z</time></trkpt><trkpt lat="58.035165" lon="39.168225"><ele>152.1</ele><time>2024-03-09T14:26:05Z</time></trkpt><trkpt lat="58.035237" lon="39.168193"><ele>152.4</ele><time>2024-03-09T14:26:07Z</time></trkpt><trkpt lat="58.03531" lon="39.16814"><ele>156.4</ele><time>2024-03-09T14:26:09Z</time></trkpt><trkpt lat="58.0354" lon="39.16811"><ele>153.9</ele><time>2024-03-09T14:26:12Z</time></trkpt><trkpt lat="58.03549" lon="39.168095"><ele>150.1</ele><time>2024-03-09T14:26:16Z</time></trkpt><trkpt lat="58.035562" lon="39.168052"><ele>150.0</ele><time>2024-03-09T14:26:19Z</time></trkpt><trkpt lat="58.035632" lon="39.168"><ele>149.0</ele><time>2024-03-09T14:26:22Z</time></trkpt><trkpt lat="58.035725" lon="39.167945"><ele>149.8</ele><time>2024-03-09T14:26:25Z</time></trkpt><trkpt lat="58.035802" lon="39.16791"><ele>148.8</ele><time>2024-03-09T14:26:28Z</time></trkpt><trkpt lat="58.035882" lon="39.167875"><ele>149.6</ele><time>2024-03-09T14:26:31Z</time></trkpt><trkpt lat="58.035957" lon="39.167825"><ele>149.4</ele><time>2024-03-09T14:26:34Z</time></trkpt><trkpt lat="58.036037" lon="39.16775"><ele>149.3</ele><time>2024-03-09T14:26:37Z</time></trkpt><trkpt lat="58.036132" lon="39.167665"><ele>149.9</ele><time>2024-03-09T14:26:40Z</time></trkpt><trkpt lat="58.0362" lon="39.16761"><ele>149.1</ele><time>2024-03-09T14:26:42Z</time></trkpt><trkpt lat="58.036285" lon="39.16757"><ele>146.4</ele><time>2024-03-09T14:26:45Z</time></trkpt><trkpt lat="58.036347" lon="39.16748"><ele>148.7</ele><time>2024-03-09T14:26:49Z</time></trkpt><trkpt lat="58.03641" lon="39.1674"><ele>150.8</ele><time>2024-03-09T14:26:54Z</time></trkpt><trkpt lat="58.036487" lon="39.167332"><ele>151.3</ele><time>2024-03-09T14:26:58Z</time></trkpt><trkpt lat="58.036555" lon="39.16729"><ele>149.7</ele><time>2024-03-09T14:27:01Z</time></trkpt><trkpt lat="58.036645" lon="39.167265"><ele>150.7</ele><time>2024-03-09T14:27:04Z</time></trkpt><trkpt lat="58.03673" lon="39.167225"><ele>152.1</ele><time>2024-03-09T14:27:07Z</time></trkpt><trkpt lat="58.03681" lon="39.167185"><ele>152.3</ele><time>2024-03-09T14:27:10Z</time></trkpt><trkpt lat="58.036887" lon="39.167095"><ele>151.7</ele><time>2024-03-09T14:27:13Z</time></trkpt><trkpt lat="58.03698" lon="39.16704"><ele>151.6</ele><time>2024-03-09T14:27:16Z</time></trkpt><trkpt lat="58.037075" lon="39.167002"><ele>149.4</ele><time>2024-03-09T14:27:19Z</time></trkpt><trkpt lat="58.03716" lon="39.166992"><ele>150.2</ele><time>2024-03-09T14:27:21Z</time></trkpt><trkpt lat="58.037235" lon="39.167002"><ele>150.0</ele><time>2024-03-09T14:27:23Z</time></trkpt><trkpt lat="58.037325" lon="39.167077"><ele>149.8</ele><time>2024-03-09T14:27:26Z</time></trkpt><trkpt lat="58.037367" lon="39.16725"><ele>150.2</ele><time>2024-03-09T14:27:28Z</time></trkpt><trkpt lat="58.03741" lon="39.16737"><ele>150.1</ele><time>2024-03-09T14:27:30Z</time></trkpt><trkpt lat="58.03746" lon="39.167497"><ele>151.0</ele><time>2024-03-09T14:27:32Z</time></trkpt><trkpt lat="58.03747" lon="39.167657"><ele>150.5</ele><time>2024-03-09T14:27:34Z</time></trkpt><trkpt lat="58.037475" lon="39.167862"><ele>151.6</ele><time>2024-03-09T14:27:37Z</time></trkpt><trkpt lat="58.037505" lon="39.168025"><ele>152.1</ele><time>2024-03-09T14:27:39Z</time></trkpt><trkpt lat="58.03753" lon="39.16817"><ele>151.7</ele><time>2024-03-09T14:27:41Z</time></trkpt><trkpt lat="58.03753" lon="39.168325"><ele>147.9</ele><time>2024-03-09T14:27:43Z</time></trkpt><trkpt lat="58.037525" lon="39.168525"><ele>147.3</ele><time>2024-03-09T14:27:46Z</time></trkpt><trkpt lat="58.037465" lon="39.168727"><ele>144.7</ele><time>2024-03-09T14:27:49Z</time></trkpt><trkpt lat="58.03746" lon="39.168865"><ele>144.8</ele><time>2024-03-09T14:27:51Z</time></trkpt><trkpt lat="58.03745" lon="39.169027"><ele>144.6</ele><time>2024-03-09T14:27:53Z</time></trkpt><trkpt lat="58.037407" lon="39.169177"><ele>144.1</ele><time>2024-03-09T14:27:55Z</time></trkpt><trkpt lat="58.03739" lon="39.169415"><ele>145.8</ele><time>2024-03-09T14:27:58Z</time></trkpt><trkpt lat="58.03739" lon="39.169555"><ele>146.3</ele><time>2024-03-09T14:28:00Z</time></trkpt><trkpt lat="58.03739" lon="39.16974"><ele>145.5</ele><time>2024-03-09T14:28:02Z</time></trkpt><trkpt lat="58.037375" lon="39.169917"><ele>143.0</ele><time>2024-03-09T14:28:04Z</time></trkpt><trkpt lat="58.037387" lon="39.170062"><ele>140.8</ele><time>2024-03-09T14:28:06Z</time></trkpt><trkpt lat="58.037407" lon="39.17022"><ele>142.6</ele><time>2024-03-09T14:28:08Z</time></trkpt><trkpt lat="58.037425" lon="39.17036"><ele>144.6</ele><time>2024-03-09T14:28:10Z</time></trkpt><trkpt lat="58.03743" lon="39.170515"><ele>146.5</ele><time>2024-03-09T14:28:12Z</time></trkpt><trkpt lat="58.037425" lon="39.170667"><ele>148.4</ele><time>2024-03-09T14:28:14Z</time></trkpt><trkpt lat="58.037425" lon="39.170865"><ele>148.5</ele><time>2024-03-09T14:28:17Z</time></trkpt><trkpt lat="58.037435" lon="39.171047"><ele>149.8</ele><time>2024-03-09T14:28:20Z</time></trkpt><trkpt lat="58.037445" lon="39.171215"><ele>150.2</ele><time>2024-03-09T14:28:22Z</time></trkpt><trkpt lat="58.037407" lon="39.171332"><ele>151.6</ele><time>2024-03-09T14:28:25Z</time></trkpt><trkpt lat="58.03738" lon="39.1715"><ele>150.8</ele><time>2024-03-09T14:28:28Z</time></trkpt><trkpt lat="58.037365" lon="39.17165"><ele>153.6</ele><time>2024-03-09T14:28:31Z</time></trkpt><trkpt lat="58.037332" lon="39.171775"><ele>152.4</ele><time>2024-03-09T14:28:34Z</time></trkpt><trkpt lat="58.037265" lon="39.17186"><ele>151.5</ele><time>2024-03-09T14:28:37Z</time></trkpt><trkpt lat="58.037192" lon="39.171945"><ele>152.3</ele><time>2024-03-09T14:28:39Z</time></trkpt><trkpt lat="58.037115" lon="39.172057"><ele>150.9</ele><time>2024-03-09T14:28:42Z</time></trkpt><trkpt lat="58.03705" lon="39.172152"><ele>152.4</ele><time>2024-03-09T14:28:44Z</time></trkpt><trkpt lat="58.03699" lon="39.172315"><ele>154.1</ele><time>2024-03-09T14:28:47Z</time></trkpt><trkpt lat="58.03694" lon="39.17247"><ele>152.9</ele><time>2024-03-09T14:28:50Z</time></trkpt><trkpt lat="58.03691" lon="39.172615"><ele>153.4</ele><time>2024-03-09T14:28:53Z</time></trkpt><trkpt lat="58.036897" lon="39.172775"><ele>151.9</ele><time>2024-03-09T14:28:57Z</time></trkpt><trkpt lat="58.036875" lon="39.17293"><ele>152.2</ele><time>2024-03-09T14:29:00Z</time></trkpt><trkpt lat="58.03685" lon="39.17315"><ele>152.5</ele><time>2024-03-09T14:29:04Z</time></trkpt><trkpt lat="58.03683" lon="39.173343"><ele>153.4</ele><time>2024-03-09T14:29:06Z</time></trkpt><trkpt lat="58.036825" lon="39.173525"><ele>153.2</ele><time>2024-03-09T14:29:08Z</time></trkpt><trkpt lat="58.03686" lon="39.17369"><ele>152.9</ele><time>2024-03-09T14:29:10Z</time></trkpt><trkpt lat="58.036885" lon="39.173892"><ele>152.4</ele><time>2024-03-09T14:29:12Z</time></trkpt><trkpt lat="58.03696" lon="39.173975"><ele>151.2</ele><time>2024-03-09T14:29:14Z</time></trkpt><trkpt lat="58.037032" lon="39.174085"><ele>149.6</ele><time>2024-03-09T14:29:16Z</time></trkpt><trkpt lat="58.037142" lon="39.174188"><ele>151.0</ele><time>2024-03-09T14:29:18Z</time></trkpt><trkpt lat="58.03723" lon="39.174295"><ele>151.4</ele><time>2024-03-09T14:29:20Z</time></trkpt><trkpt lat="58.037292" lon="39.174425"><ele>153.2</ele><time>2024-03-09T14:29:22Z</time></trkpt><trkpt lat="58.037375" lon="39.174505"><ele>149.4</ele><time>2024-03-09T14:29:24Z</time></trkpt><trkpt lat="58.037437" lon="39.174605"><ele>148.0</ele><time>2024-03-09T14:29:26Z</time></trkpt><trkpt lat="58.037515" lon="39.17469"><ele>146.4</ele><time>2024-03-09T14:29:28Z</time></trkpt><trkpt lat="58.037575" lon="39.174765"><ele>145.4</ele><time>2024-03-09T14:29:30Z</time></trkpt><trkpt lat="58.03764" lon="39.174835"><ele>145.3</ele><time>2024-03-09T14:29:32Z</time></trkpt><trkpt lat="58.037732" lon="39.174905"><ele>147.1</ele><time>2024-03-09T14:29:34Z</time></trkpt><trkpt lat="58.0378" lon="39.175012"><ele>147.0</ele><time>2024-03-09T14:29:36Z</time></trkpt><trkpt lat="58.037872" lon="39.175097"><ele>147.8</ele><time>2024-03-09T14:29:38Z</time></trkpt><trkpt lat="58.037945" lon="39.17518"><ele>146.6</ele><time>2024-03-09T14:29:40Z</time></trkpt><trkpt lat="58.038025" lon="39.17525"><ele>146.1</ele><time>2024-03-09T14:29:42Z</time></trkpt><trkpt lat="58.03811" lon="39.175345"><ele>147.2</ele><time>2024-03-09T14:29:44Z</time></trkpt><trkpt lat="58.03818" lon="39.175445"><ele>147.9</ele><time>2024-03-09T14:29:46Z</time></trkpt><trkpt lat="58.038238" lon="39.175532"><ele>149.3</ele><time>2024-03-09T14:29:48Z</time></trkpt><trkpt lat="58.0383" lon="39.17564"><ele>148.8</ele><time>2024-03-09T14:29:50Z</time></trkpt><trkpt lat="58.038375" lon="39.175762"><ele>150.4</ele><time>2024-03-09T14:29:53Z</time></trkpt><trkpt lat="58.03845" lon="39.175855"><ele>151.2</ele><time>2024-03-09T14:29:56Z</time></trkpt><trkpt lat="58.038515" lon="39.175965"><ele>150.3</ele><time>2024-03-09T14:29:59Z</time></trkpt><trkpt lat="58.038565" lon="39.176085"><ele>149.8</ele><time>2024-03-09T14:30:02Z</time></trkpt><trkpt lat="58.03862" lon="39.176205"><ele>150.2</ele><time>2024-03-09T14:30:04Z</time></trkpt><trkpt lat="58.03865" lon="39.176332"><ele>148.1</ele><time>2024-03-09T14:30:06Z</time></trkpt><trkpt lat="58.038682" lon="39.176453"><ele>148.1</ele><time>2024-03-09T14:30:08Z</time></trkpt><trkpt lat="58.038715" lon="39.17662"><ele>146.6</ele><time>2024-03-09T14:30:10Z</time></trkpt><trkpt lat="58.038772" lon="39.176815"><ele>148.0</ele><time>2024-03-09T14:30:13Z</time></trkpt><trkpt lat="58.03882" lon="39.17696"><ele>147.0</ele><time>2024-03-09T14:30:15Z</time></trkpt><trkpt lat="58.038847" lon="39.17709"><ele>147.0</ele><time>2024-03-09T14:30:17Z</time></trkpt><trkpt lat="58.03888" lon="39.177267"><ele>146.4</ele><time>2024-03-09T14:30:20Z</time></trkpt><trkpt lat="58.0389" lon="39.177475"><ele>148.4</ele><time>2024-03-09T14:30:23Z</time></trkpt><trkpt lat="58.038907" lon="39.177635"><ele>146.1</ele><time>2024-03-09T14:30:25Z</time></trkpt><trkpt lat="58.038902" lon="39.1778"><ele>147.1</ele><time>2024-03-09T14:30:27Z</time></trkpt><trkpt lat="58.038905" lon="39.17796"><ele>146.5</ele><time>2024-03-09T14:30:29Z</time></trkpt><trkpt lat="58.0389" lon="39.178112"><ele>147.0</ele><time>2024-03-09T14:30:31Z</time></trkpt><trkpt lat="58.038897" lon="39.178265"><ele>146.5</ele><time>2024-03-09T14:30:33Z</time></trkpt><trkpt lat="58.038885" lon="39.17841"><ele>146.1</ele><time>2024-03-09T14:30:35Z</time></trkpt><trkpt lat="58.03887" lon="39.178645"><ele>145.6</ele><time>2024-03-09T14:30:38Z</time></trkpt><trkpt lat="58.03886" lon="39.17879"><ele>145.6</ele><time>2024-03-09T14:30:40Z</time></trkpt><trkpt lat="58.038835" lon="39.178935"><ele>145.6</ele><time>2024-03-09T14:30:42Z</time></trkpt><trkpt lat="58.03879" lon="39.179097"><ele>146.6</ele><time>2024-03-09T14:30:45Z</time></trkpt><trkpt lat="58.038755" lon="39.17929"><ele>148.8</ele><time>2024-03-09T14:30:48Z</time></trkpt><trkpt lat="58.03872" lon="39.179417"><ele>147.1</ele><time>2024-03-09T14:30:50Z</time></trkpt><trkpt lat="58.038688" lon="39.179562"><ele>145.9</ele><time>2024-03-09T14:30:52Z</time></trkpt><trkpt lat="58.038675" lon="39.179715"><ele>146.6</ele><time>2024-03-09T14:30:54Z</time></trkpt><trkpt lat="58.03867" lon="39.179865"><ele>147.3</ele><time>2024-03-09T14:30:56Z</time></trkpt><trkpt lat="58.038685" lon="39.18005"><ele>147.7</ele><time>2024-03-09T14:30:58Z</time></trkpt><trkpt lat="58.038688" lon="39.18022"><ele>146.9</ele><time>2024-03-09T14:31:00Z</time></trkpt><trkpt lat="58.03872" lon="39.180375"><ele>145.1</ele><time>2024-03-09T14:31:02Z</time></trkpt><trkpt lat="58.038755" lon="39.180548"><ele>147.3</ele><time>2024-03-09T14:31:04Z</time></trkpt><trkpt lat="58.038802" lon="39.180688"><ele>146.5</ele><time>2024-03-09T14:31:07Z</time></trkpt><trkpt lat="58.038845" lon="39.18087"><ele>148.0</ele><time>2024-03-09T14:31:10Z</time></trkpt><trkpt lat="58.038895" lon="39.18106"><ele>147.8</ele><time>2024-03-09T14:31:13Z</time></trkpt><trkpt lat="58.038918" lon="39.181217"><ele>148.5</ele><time>2024-03-09T14:31:15Z</time></trkpt><trkpt lat="58.038945" lon="39.18136"><ele>147.2</ele><time>2024-03-09T14:31:17Z</time></trkpt><trkpt lat="58.038995" lon="39.181532"><ele>148.2</ele><time>2024-03-09T14:31:20Z</time></trkpt><trkpt lat="58.03903" lon="39.181715"><ele>149.1</ele><time>2024-03-09T14:31:23Z</time></trkpt><trkpt lat="58.0391" lon="39.181865"><ele>149.1</ele><time>2024-03-09T14:31:26Z</time></trkpt><trkpt lat="58.03917" lon="39.181992"><ele>149.5</ele><time>2024-03-09T14:31:29Z</time></trkpt><trkpt lat="58.03924" lon="39.182085"><ele>148.7</ele><time>2024-03-09T14:31:32Z</time></trkpt><trkpt lat="58.039245" lon="39.18228"><ele>149.3</ele><time>2024-03-09T14:31:36Z</time></trkpt><trkpt lat="58.039195" lon="39.182417"><ele>150.9</ele><time>2024-03-09T14:31:38Z</time></trkpt><trkpt lat="58.03917" lon="39.182547"><ele>151.1</ele><time>2024-03-09T14:31:41Z</time></trkpt><trkpt lat="58.03914" lon="39.18269"><ele>150.6</ele><time>2024-03-09T14:31:44Z</time></trkpt><trkpt lat="58.039115" lon="39.182835"><ele>148.8</ele><time>2024-03-09T14:31:47Z</time></trkpt><trkpt lat="58.039097" lon="39.182995"><ele>148.3</ele><time>2024-03-09T14:31:50Z</time></trkpt><trkpt lat="58.039085" lon="39.183155"><ele>149.5</ele><time>2024-03-09T14:31:54Z</time></trkpt><trkpt lat="58.039115" lon="39.18315"><ele>150.7</ele><time>2024-03-09T14:32:01Z</time></trkpt><trkpt lat="58.039115" lon="39.18315"><ele>150.5</ele><time>2024-03-09T14:32:05Z</time></trkpt><trkpt lat="58.039097" lon="39.18315"><ele>148.5</ele><time>2024-03-09T14:32:19Z</time></trkpt><trkpt lat="58.0391" lon="39.18315"><ele>148.6</ele><time>2024-03-09T14:32:21Z</time></trkpt></trkseg></trk></gpx>