<?xml version="1.0" encoding="UTF-8" standalone="no"?><gpx xmlns="http://www.topografix.com/GPX/1/1" xmlns:gpxtpx="http://www.garmin.com/xmlschemas/TrackPointExtension/v1" xmlns:xsi="http://www.w3.org/2001/XMLSchema-instance" creator="Sports Tracker" version="1.1" xsi:schemaLocation="http://www.topografix.com/GPX/1/1 http://www.topografix.com/GPX/1/1/gpx.xsd http://www.garmin.com/xmlschemas/TrackPointExtension/v1 http://www.garmin.com/xmlschemas/TrackPointExtensionv1.xsd"><metadata><name/><desc>Школьный турслет 1</desc><author><name>Александр</name></author></metadata><trk><name/><trkseg><trkpt lat="57.999357" lon="38.867945"><ele>118.0</ele><time>2022-09-28T09:24:39Z</time></trkpt><trkpt lat="57.999355" lon="38.868103"><ele>119.0</ele><time>2022-09-28T09:25:45Z</time></trkpt><trkpt lat="57.999357" lon="38.868292"><ele>119.0</ele><time>2022-09-28T09:25:48Z</time></trkpt><trkpt lat="57.999355" lon="38.868452"><ele>120.0</ele><time>2022-09-28T09:25:52Z</time></trkpt><trkpt lat="57.999373" lon="38.868605"><ele>120.0</ele><time>2022-09-28T09:25:56Z</time></trkpt><trkpt lat="57.999407" lon="38.868755"><ele>119.0</ele><time>2022-09-28T09:26:03Z</time></trkpt><trkpt lat="57.999422" lon="38.868902"><ele>119.0</ele><time>2022-09-28T09:26:07Z</time></trkpt><trkpt lat="57.99942" lon="38.869075"><ele>119.0</ele><time>2022-09-28T09:26:10Z</time></trkpt><trkpt lat="57.999427" lon="38.869243"><ele>119.0</ele><time>2022-09-28T09:26:12Z</time></trkpt><trkpt lat="57.999433" lon="38.86943"><ele>119.0</ele><time>2022-09-28T09:26:14Z</time></trkpt><trkpt lat="57.999438" lon="38.869583"><ele>119.0</ele><time>2022-09-28T09:26:16Z</time></trkpt><trkpt lat="57.99943" lon="38.869735"><ele>119.0</ele><time>2022-09-28T09:26:18Z</time></trkpt><trkpt lat="57.999412" lon="38.869878"><ele>120.0</ele><time>2022-09-28T09:26:22Z</time></trkpt><trkpt lat="57.999432" lon="38.870023"><ele>120.0</ele><time>2022-09-28T09:26:27Z</time></trkpt><trkpt lat="57.999427" lon="38.870198"><ele>119.0</ele><time>2022-09-28T09:26:30Z</time></trkpt><trkpt lat="57.9994" lon="38.870388"><ele>120.0</ele><time>2022-09-28T09:26:33Z</time></trkpt><trkpt lat="57.999367" lon="38.870565"><ele>120.0</ele><time>2022-09-28T09:26:36Z</time></trkpt><trkpt lat="57.999337" lon="38.870737"><ele>120.0</ele><time>2022-09-28T09:26:39Z</time></trkpt><trkpt lat="57.999297" lon="38.870895"><ele>120.0</ele><time>2022-09-28T09:26:42Z</time></trkpt><trkpt lat="57.999265" lon="38.87105"><ele>118.0</ele><time>2022-09-28T09:26:45Z</time></trkpt><trkpt lat="57.999242" lon="38.87118"><ele>119.0</ele><time>2022-09-28T09:26:47Z</time></trkpt><trkpt lat="57.999213" lon="38.871355"><ele>118.0</ele><time>2022-09-28T09:26:50Z</time></trkpt><trkpt lat="57.999182" lon="38.871493"><ele>118.0</ele><time>2022-09-28T09:26:53Z</time></trkpt><trkpt lat="57.999145" lon="38.871628"><ele>118.0</ele><time>2022-09-28T09:26:57Z</time></trkpt><trkpt lat="57.999198" lon="38.871493"><ele>117.0</ele><time>2022-09-28T09:27:10Z</time></trkpt><trkpt lat="57.99921" lon="38.87134"><ele>117.0</ele><time>2022-09-28T09:27:14Z</time></trkpt><trkpt lat="57.999198" lon="38.871185"><ele>119.0</ele><time>2022-09-28T09:27:19Z</time></trkpt><trkpt lat="57.999188" lon="38.871023"><ele>119.0</ele><time>2022-09-28T09:27:24Z</time></trkpt><trkpt lat="57.99915" lon="38.870883"><ele>121.0</ele><time>2022-09-28T09:27:34Z</time></trkpt><trkpt lat="57.999117" lon="38.870743"><ele>120.0</ele><time>2022-09-28T09:27:39Z</time></trkpt><trkpt lat="57.999158" lon="38.870608"><ele>120.0</ele><time>2022-09-28T09:27:44Z</time></trkpt><trkpt lat="57.99923" lon="38.87057"><ele>121.0</ele><time>2022-09-28T09:27:57Z</time></trkpt><trkpt lat="57.999267" lon="38.870693"><ele>120.0</ele><time>2022-09-28T09:27:59Z</time></trkpt><trkpt lat="57.99927" lon="38.870853"><ele>120.0</ele><time>2022-09-28T09:28:02Z</time></trkpt><trkpt lat="57.999245" lon="38.871035"><ele>118.0</ele><time>2022-09-28T09:28:06Z</time></trkpt><trkpt lat="57.999223" lon="38.871173"><ele>118.0</ele><time>2022-09-28T09:28:08Z</time></trkpt><trkpt lat="57.999205" lon="38.87132"><ele>118.0</ele><time>2022-09-28T09:28:10Z</time></trkpt><trkpt lat="57.99919" lon="38.871523"><ele>117.0</ele><time>2022-09-28T09:28:13Z</time></trkpt><trkpt lat="57.999173" lon="38.87169"><ele>117.0</ele><time>2022-09-28T09:28:16Z</time></trkpt><trkpt lat="57.999157" lon="38.871833"><ele>116.0</ele><time>2022-09-28T09:28:19Z</time></trkpt><trkpt lat="57.999127" lon="38.87201"><ele>114.0</ele><time>2022-09-28T09:28:22Z</time></trkpt><trkpt lat="57.999098" lon="38.872203"><ele>114.0</ele><time>2022-09-28T09:28:25Z</time></trkpt><trkpt lat="57.999107" lon="38.872397"><ele>114.0</ele><time>2022-09-28T09:28:28Z</time></trkpt><trkpt lat="57.999073" lon="38.872582"><ele>115.0</ele><time>2022-09-28T09:28:31Z</time></trkpt><trkpt lat="57.999048" lon="38.872713"><ele>115.0</ele><time>2022-09-28T09:28:34Z</time></trkpt><trkpt lat="57.999062" lon="38.872863"><ele>116.0</ele><time>2022-09-28T09:28:39Z</time></trkpt><trkpt lat="57.999035" lon="38.873015"><ele>115.0</ele><time>2022-09-28T09:28:42Z</time></trkpt><trkpt lat="57.998993" lon="38.873162"><ele>116.0</ele><time>2022-09-28T09:28:45Z</time></trkpt><trkpt lat="57.998968" lon="38.873318"><ele>117.0</ele><time>2022-09-28T09:28:48Z</time></trkpt><trkpt lat="57.998955" lon="38.87347"><ele>117.0</ele><time>2022-09-28T09:28:51Z</time></trkpt><trkpt lat="57.998962" lon="38.873623"><ele>117.0</ele><time>2022-09-28T09:28:54Z</time></trkpt><trkpt lat="57.998962" lon="38.873778"><ele>117.0</ele><time>2022-09-28T09:28:57Z</time></trkpt><trkpt lat="57.998955" lon="38.873918"><ele>118.0</ele><time>2022-09-28T09:29:01Z</time></trkpt><trkpt lat="57.998922" lon="38.874052"><ele>117.0</ele><time>2022-09-28T09:29:06Z</time></trkpt><trkpt lat="57.998882" lon="38.874232"><ele>117.0</ele><time>2022-09-28T09:29:10Z</time></trkpt><trkpt lat="57.998853" lon="38.874373"><ele>117.0</ele><time>2022-09-28T09:29:13Z</time></trkpt><trkpt lat="57.99882" lon="38.874542"><ele>116.0</ele><time>2022-09-28T09:29:16Z</time></trkpt><trkpt lat="57.9988" lon="38.874718"><ele>117.0</ele><time>2022-09-28T09:29:19Z</time></trkpt><trkpt lat="57.998787" lon="38.874892"><ele>116.0</ele><time>2022-09-28T09:29:22Z</time></trkpt><trkpt lat="57.99878" lon="38.875043"><ele>116.0</ele><time>2022-09-28T09:29:25Z</time></trkpt><trkpt lat="57.998775" lon="38.8752"><ele>113.0</ele><time>2022-09-28T09:29:28Z</time></trkpt><trkpt lat="57.998712" lon="38.875278"><ele>112.0</ele><time>2022-09-28T09:29:33Z</time></trkpt><trkpt lat="57.998645" lon="38.875215"><ele>115.0</ele><time>2022-09-28T09:29:41Z</time></trkpt><trkpt lat="57.998608" lon="38.87508"><ele>116.0</ele><time>2022-09-28T09:29:51Z</time></trkpt><trkpt lat="57.99858" lon="38.874948"><ele>119.0</ele><time>2022-09-28T09:30:00Z</time></trkpt><trkpt lat="57.998533" lon="38.874798"><ele>118.0</ele><time>2022-09-28T09:30:07Z</time></trkpt><trkpt lat="57.99847" lon="38.874727"><ele>118.0</ele><time>2022-09-28T09:30:11Z</time></trkpt><trkpt lat="57.998397" lon="38.874695"><ele>118.0</ele><time>2022-09-28T09:30:18Z</time></trkpt><trkpt lat="57.998363" lon="38.874568"><ele>117.0</ele><time>2022-09-28T09:30:26Z</time></trkpt><trkpt lat="57.99835" lon="38.874425"><ele>118.0</ele><time>2022-09-28T09:30:33Z</time></trkpt><trkpt lat="57.998287" lon="38.874498"><ele>110.0</ele><time>2022-09-28T09:30:49Z</time></trkpt><trkpt lat="57.998218" lon="38.87455"><ele>109.0</ele><time>2022-09-28T09:31:04Z</time></trkpt><trkpt lat="57.998145" lon="38.874522"><ele>109.0</ele><time>2022-09-28T09:31:13Z</time></trkpt><trkpt lat="57.998065" lon="38.874527"><ele>110.0</ele><time>2022-09-28T09:31:19Z</time></trkpt><trkpt lat="57.997998" lon="38.87459"><ele>110.0</ele><time>2022-09-28T09:31:26Z</time></trkpt><trkpt lat="57.997935" lon="38.87466"><ele>111.0</ele><time>2022-09-28T09:31:44Z</time></trkpt><trkpt lat="57.997892" lon="38.874545"><ele>111.0</ele><time>2022-09-28T09:31:54Z</time></trkpt><trkpt lat="57.997865" lon="38.874417"><ele>112.0</ele><time>2022-09-28T09:32:03Z</time></trkpt><trkpt lat="57.997903" lon="38.874298"><ele>111.0</ele><time>2022-09-28T09:32:09Z</time></trkpt><trkpt lat="57.99787" lon="38.874138"><ele>112.0</ele><time>2022-09-28T09:32:17Z</time></trkpt><trkpt lat="57.997803" lon="38.87406"><ele>112.0</ele><time>2022-09-28T09:32:24Z</time></trkpt><trkpt lat="57.997765" lon="38.87394"><ele>112.0</ele><time>2022-09-28T09:32:37Z</time></trkpt><trkpt lat="57.997697" lon="38.873877"><ele>112.0</ele><time>2022-09-28T09:32:43Z</time></trkpt><trkpt lat="57.99762" lon="38.873883"><ele>112.0</ele><time>2022-09-28T09:32:51Z</time></trkpt><trkpt lat="57.997538" lon="38.873897"><ele>112.0</ele><time>2022-09-28T09:32:59Z</time></trkpt><trkpt lat="57.997462" lon="38.873877"><ele>113.0</ele><time>2022-09-28T09:33:07Z</time></trkpt><trkpt lat="57.997385" lon="38.873857"><ele>114.0</ele><time>2022-09-28T09:33:21Z</time></trkpt><trkpt lat="57.997313" lon="38.873887"><ele>115.0</ele><time>2022-09-28T09:33:37Z</time></trkpt><trkpt lat="57.997237" lon="38.873922"><ele>116.0</ele><time>2022-09-28T09:33:48Z</time></trkpt><trkpt lat="57.997157" lon="38.87396"><ele>117.0</ele><time>2022-09-28T09:34:06Z</time></trkpt><trkpt lat="57.997193" lon="38.873835"><ele>116.0</ele><time>2022-09-28T09:34:45Z</time></trkpt><trkpt lat="57.997263" lon="38.873792"><ele>115.0</ele><time>2022-09-28T09:34:50Z</time></trkpt><trkpt lat="57.997328" lon="38.873722"><ele>115.0</ele><time>2022-09-28T09:34:54Z</time></trkpt><trkpt lat="57.997388" lon="38.87359"><ele>116.0</ele><time>2022-09-28T09:34:59Z</time></trkpt><trkpt lat="57.997443" lon="38.87345"><ele>114.0</ele><time>2022-09-28T09:35:03Z</time></trkpt><trkpt lat="57.997492" lon="38.873337"><ele>115.0</ele><time>2022-09-28T09:35:07Z</time></trkpt><trkpt lat="57.997555" lon="38.873232"><ele>114.0</ele><time>2022-09-28T09:35:13Z</time></trkpt><trkpt lat="57.997627" lon="38.873203"><ele>114.0</ele><time>2022-09-28T09:35:17Z</time></trkpt><trkpt lat="57.997717" lon="38.873187"><ele>115.0</ele><time>2022-09-28T09:35:21Z</time></trkpt><trkpt lat="57.997798" lon="38.873172"><ele>115.0</ele><time>2022-09-28T09:35:27Z</time></trkpt><trkpt lat="57.99777" lon="38.873043"><ele>115.0</ele><time>2022-09-28T09:35:55Z</time></trkpt><trkpt lat="57.997697" lon="38.873027"><ele>115.0</ele><time>2022-09-28T09:36:02Z</time></trkpt><trkpt lat="57.997635" lon="38.873117"><ele>115.0</ele><time>2022-09-28T09:36:09Z</time></trkpt><trkpt lat="57.997577" lon="38.873215"><ele>115.0</ele><time>2022-09-28T09:36:16Z</time></trkpt><trkpt lat="57.997508" lon="38.87329"><ele>115.0</ele><time>2022-09-28T09:36:23Z</time></trkpt><trkpt lat="57.997442" lon="38.873347"><ele>115.0</ele><time>2022-09-28T09:36:30Z</time></trkpt><trkpt lat="57.99735" lon="38.873327"><ele>114.0</ele><time>2022-09-28T09:36:35Z</time></trkpt><trkpt lat="57.997275" lon="38.873335"><ele>115.0</ele><time>2022-09-28T09:36:38Z</time></trkpt><trkpt lat="57.997193" lon="38.873277"><ele>115.0</ele><time>2022-09-28T09:36:42Z</time></trkpt><trkpt lat="57.997102" lon="38.87323"><ele>116.0</ele><time>2022-09-28T09:36:46Z</time></trkpt><trkpt lat="57.996998" lon="38.873157"><ele>116.0</ele><time>2022-09-28T09:36:49Z</time></trkpt><trkpt lat="57.996923" lon="38.873097"><ele>116.0</ele><time>2022-09-28T09:36:51Z</time></trkpt><trkpt lat="57.996853" lon="38.873022"><ele>116.0</ele><time>2022-09-28T09:36:53Z</time></trkpt><trkpt lat="57.996765" lon="38.872932"><ele>117.0</ele><time>2022-09-28T09:36:55Z</time></trkpt><trkpt lat="57.996698" lon="38.872843"><ele>117.0</ele><time>2022-09-28T09:36:57Z</time></trkpt><trkpt lat="57.996635" lon="38.872747"><ele>117.0</ele><time>2022-09-28T09:37:01Z</time></trkpt><trkpt lat="57.996558" lon="38.872678"><ele>118.0</ele><time>2022-09-28T09:37:05Z</time></trkpt><trkpt lat="57.996472" lon="38.872595"><ele>119.0</ele><time>2022-09-28T09:37:08Z</time></trkpt><trkpt lat="57.99641" lon="38.872513"><ele>119.0</ele><time>2022-09-28T09:37:10Z</time></trkpt><trkpt lat="57.99634" lon="38.872438"><ele>120.0</ele><time>2022-09-28T09:37:12Z</time></trkpt><trkpt lat="57.996268" lon="38.87236"><ele>119.0</ele><time>2022-09-28T09:37:14Z</time></trkpt><trkpt lat="57.996192" lon="38.872238"><ele>120.0</ele><time>2022-09-28T09:37:17Z</time></trkpt><trkpt lat="57.996132" lon="38.872155"><ele>120.0</ele><time>2022-09-28T09:37:19Z</time></trkpt><trkpt lat="57.996072" lon="38.872075"><ele>120.0</ele><time>2022-09-28T09:37:21Z</time></trkpt><trkpt lat="57.996018" lon="38.871983"><ele>120.0</ele><time>2022-09-28T09:37:24Z</time></trkpt><trkpt lat="57.995945" lon="38.871887"><ele>120.0</ele><time>2022-09-28T09:37:27Z</time></trkpt><trkpt lat="57.995858" lon="38.871793"><ele>120.0</ele><time>2022-09-28T09:37:30Z</time></trkpt><trkpt lat="57.995783" lon="38.87174"><ele>121.0</ele><time>2022-09-28T09:37:34Z</time></trkpt><trkpt lat="57.995703" lon="38.871718"><ele>122.0</ele><time>2022-09-28T09:37:41Z</time></trkpt><trkpt lat="57.99564" lon="38.871633"><ele>122.0</ele><time>2022-09-28T09:38:00Z</time></trkpt><trkpt lat="57.995565" lon="38.87158"><ele>119.0</ele><time>2022-09-28T09:38:11Z</time></trkpt><trkpt lat="57.99549" lon="38.871523"><ele>121.0</ele><time>2022-09-28T09:38:21Z</time></trkpt><trkpt lat="57.99542" lon="38.87145"><ele>120.0</ele><time>2022-09-28T09:38:27Z</time></trkpt><trkpt lat="57.995345" lon="38.871392"><ele>120.0</ele><time>2022-09-28T09:38:32Z</time></trkpt><trkpt lat="57.995285" lon="38.871273"><ele>121.0</ele><time>2022-09-28T09:38:38Z</time></trkpt><trkpt lat="57.995217" lon="38.871178"><ele>120.0</ele><time>2022-09-28T09:38:43Z</time></trkpt><trkpt lat="57.995138" lon="38.871088"><ele>120.0</ele><time>2022-09-28T09:38:47Z</time></trkpt><trkpt lat="57.995072" lon="38.870972"><ele>121.0</ele><time>2022-09-28T09:38:51Z</time></trkpt><trkpt lat="57.995003" lon="38.870877"><ele>121.0</ele><time>2022-09-28T09:38:55Z</time></trkpt><trkpt lat="57.994938" lon="38.870775"><ele>121.0</ele><time>2022-09-28T09:38:58Z</time></trkpt><trkpt lat="57.994847" lon="38.87067"><ele>121.0</ele><time>2022-09-28T09:39:00Z</time></trkpt><trkpt lat="57.994763" lon="38.870568"><ele>121.0</ele><time>2022-09-28T09:39:03Z</time></trkpt><trkpt lat="57.994692" lon="38.870445"><ele>121.0</ele><time>2022-09-28T09:39:06Z</time></trkpt><trkpt lat="57.994618" lon="38.87033"><ele>120.0</ele><time>2022-09-28T09:39:09Z</time></trkpt><trkpt lat="57.994532" lon="38.870238"><ele>120.0</ele><time>2022-09-28T09:39:12Z</time></trkpt><trkpt lat="57.994463" lon="38.870172"><ele>120.0</ele><time>2022-09-28T09:39:15Z</time></trkpt><trkpt lat="57.994387" lon="38.870078"><ele>120.0</ele><time>2022-09-28T09:39:19Z</time></trkpt><trkpt lat="57.994317" lon="38.869992"><ele>120.0</ele><time>2022-09-28T09:39:24Z</time></trkpt><trkpt lat="57.994258" lon="38.869877"><ele>120.0</ele><time>2022-09-28T09:39:29Z</time></trkpt><trkpt lat="57.994183" lon="38.8698"><ele>120.0</ele><time>2022-09-28T09:39:36Z</time></trkpt><trkpt lat="57.994108" lon="38.869733"><ele>119.0</ele><time>2022-09-28T09:39:41Z</time></trkpt><trkpt lat="57.994047" lon="38.869643"><ele>119.0</ele><time>2022-09-28T09:39:48Z</time></trkpt><trkpt lat="57.993972" lon="38.86955"><ele>119.0</ele><time>2022-09-28T09:39:58Z</time></trkpt><trkpt lat="57.994025" lon="38.869662"><ele>116.0</ele><time>2022-09-28T09:40:19Z</time></trkpt><trkpt lat="57.994093" lon="38.869707"><ele>116.0</ele><time>2022-09-28T09:40:22Z</time></trkpt><trkpt lat="57.994163" lon="38.869743"><ele>116.0</ele><time>2022-09-28T09:40:25Z</time></trkpt><trkpt lat="57.994222" lon="38.869838"><ele>116.0</ele><time>2022-09-28T09:40:28Z</time></trkpt><trkpt lat="57.994248" lon="38.869972"><ele>117.0</ele><time>2022-09-28T09:40:39Z</time></trkpt><trkpt lat="57.994293" lon="38.870082"><ele>118.0</ele><time>2022-09-28T09:40:46Z</time></trkpt><trkpt lat="57.994357" lon="38.870183"><ele>118.0</ele><time>2022-09-28T09:40:54Z</time></trkpt><trkpt lat="57.99443" lon="38.870218"><ele>118.0</ele><time>2022-09-28T09:41:04Z</time></trkpt><trkpt lat="57.994498" lon="38.870257"><ele>118.0</ele><time>2022-09-28T09:41:12Z</time></trkpt><trkpt lat="57.994547" lon="38.870375"><ele>120.0</ele><time>2022-09-28T09:41:27Z</time></trkpt><trkpt lat="57.99459" lon="38.870482"><ele>120.0</ele><time>2022-09-28T09:41:36Z</time></trkpt><trkpt lat="57.994617" lon="38.870623"><ele>119.0</ele><time>2022-09-28T09:42:00Z</time></trkpt><trkpt lat="57.994655" lon="38.870757"><ele>119.0</ele><time>2022-09-28T09:42:06Z</time></trkpt><trkpt lat="57.994675" lon="38.8709"><ele>118.0</ele><time>2022-09-28T09:42:13Z</time></trkpt><trkpt lat="57.994718" lon="38.87102"><ele>118.0</ele><time>2022-09-28T09:42:23Z</time></trkpt><trkpt lat="57.994763" lon="38.87113"><ele>118.0</ele><time>2022-09-28T09:42:33Z</time></trkpt><trkpt lat="57.994822" lon="38.871253"><ele>117.0</ele><time>2022-09-28T09:42:39Z</time></trkpt><trkpt lat="57.994845" lon="38.871388"><ele>116.0</ele><time>2022-09-28T09:42:44Z</time></trkpt><trkpt lat="57.99487" lon="38.871527"><ele>115.0</ele><time>2022-09-28T09:42:50Z</time></trkpt><trkpt lat="57.994902" lon="38.871665"><ele>115.0</ele><time>2022-09-28T09:42:57Z</time></trkpt><trkpt lat="57.994928" lon="38.871818"><ele>114.0</ele><time>2022-09-28T09:43:03Z</time></trkpt><trkpt lat="57.994938" lon="38.871967"><ele>113.0</ele><time>2022-09-28T09:43:09Z</time></trkpt><trkpt lat="57.994935" lon="38.872105"><ele>113.0</ele><time>2022-09-28T09:43:14Z</time></trkpt><trkpt lat="57.994962" lon="38.872247"><ele>115.0</ele><time>2022-09-28T09:43:21Z</time></trkpt><trkpt lat="57.994997" lon="38.872383"><ele>114.0</ele><time>2022-09-28T09:43:26Z</time></trkpt><trkpt lat="57.995068" lon="38.872422"><ele>114.0</ele><time>2022-09-28T09:43:30Z</time></trkpt><trkpt lat="57.99513" lon="38.87254"><ele>114.0</ele><time>2022-09-28T09:43:35Z</time></trkpt><trkpt lat="57.995137" lon="38.872682"><ele>115.0</ele><time>2022-09-28T09:43:39Z</time></trkpt><trkpt lat="57.995178" lon="38.8728"><ele>115.0</ele><time>2022-09-28T09:43:44Z</time></trkpt><trkpt lat="57.995242" lon="38.872883"><ele>115.0</ele><time>2022-09-28T09:43:47Z</time></trkpt><trkpt lat="57.995318" lon="38.872963"><ele>115.0</ele><time>2022-09-28T09:43:51Z</time></trkpt><trkpt lat="57.995387" lon="38.873032"><ele>116.0</ele><time>2022-09-28T09:43:56Z</time></trkpt><trkpt lat="57.995473" lon="38.873035"><ele>116.0</ele><time>2022-09-28T09:44:02Z</time></trkpt><trkpt lat="57.995552" lon="38.873017"><ele>116.0</ele><time>2022-09-28T09:44:07Z</time></trkpt><trkpt lat="57.995632" lon="38.873008"><ele>117.0</ele><time>2022-09-28T09:44:16Z</time></trkpt><trkpt lat="57.995715" lon="38.873092"><ele>117.0</ele><time>2022-09-28T09:44:21Z</time></trkpt><trkpt lat="57.995782" lon="38.873195"><ele>118.0</ele><time>2022-09-28T09:44:26Z</time></trkpt><trkpt lat="57.995842" lon="38.873288"><ele>118.0</ele><time>2022-09-28T09:44:32Z</time></trkpt><trkpt lat="57.995917" lon="38.873295"><ele>119.0</ele><time>2022-09-28T09:44:47Z</time></trkpt><trkpt lat="57.99584" lon="38.873293"><ele>120.0</ele><time>2022-09-28T09:45:08Z</time></trkpt><trkpt lat="57.995762" lon="38.873248"><ele>118.0</ele><time>2022-09-28T09:45:29Z</time></trkpt><trkpt lat="57.99581" lon="38.873365"><ele>117.0</ele><time>2022-09-28T09:45:48Z</time></trkpt><trkpt lat="57.995848" lon="38.87349"><ele>118.0</ele><time>2022-09-28T09:45:56Z</time></trkpt><trkpt lat="57.995842" lon="38.873635"><ele>118.0</ele><time>2022-09-28T09:46:04Z</time></trkpt><trkpt lat="57.995792" lon="38.873732"><ele>119.0</ele><time>2022-09-28T09:46:13Z</time></trkpt><trkpt lat="57.995745" lon="38.873845"><ele>119.0</ele><time>2022-09-28T09:46:22Z</time></trkpt><trkpt lat="57.995698" lon="38.87397"><ele>120.0</ele><time>2022-09-28T09:46:31Z</time></trkpt><trkpt lat="57.995625" lon="38.873995"><ele>118.0</ele><time>2022-09-28T09:46:54Z</time></trkpt><trkpt lat="57.995548" lon="38.873997"><ele>119.0</ele><time>2022-09-28T09:47:04Z</time></trkpt><trkpt lat="57.99548" lon="38.874062"><ele>119.0</ele><time>2022-09-28T09:47:11Z</time></trkpt><trkpt lat="57.995417" lon="38.874135"><ele>118.0</ele><time>2022-09-28T09:47:23Z</time></trkpt><trkpt lat="57.995368" lon="38.87425"><ele>117.0</ele><time>2022-09-28T09:47:29Z</time></trkpt><trkpt lat="57.99534" lon="38.87439"><ele>116.0</ele><time>2022-09-28T09:47:36Z</time></trkpt><trkpt lat="57.995275" lon="38.874498"><ele>115.0</ele><time>2022-09-28T09:47:42Z</time></trkpt><trkpt lat="57.995228" lon="38.87461"><ele>115.0</ele><time>2022-09-28T09:47:48Z</time></trkpt><trkpt lat="57.995172" lon="38.874732"><ele>116.0</ele><time>2022-09-28T09:47:59Z</time></trkpt><trkpt lat="57.995105" lon="38.874792"><ele>115.0</ele><time>2022-09-28T09:48:14Z</time></trkpt><trkpt lat="57.995105" lon="38.874945"><ele>116.0</ele><time>2022-09-28T09:50:28Z</time></trkpt><trkpt lat="57.995107" lon="38.875095"><ele>115.0</ele><time>2022-09-28T09:51:10Z</time></trkpt><trkpt lat="57.99514" lon="38.875213"><ele>115.0</ele><time>2022-09-28T09:51:23Z</time></trkpt><trkpt lat="57.995213" lon="38.875198"><ele>116.0</ele><time>2022-09-28T09:51:29Z</time></trkpt><trkpt lat="57.995293" lon="38.875175"><ele>120.0</ele><time>2022-09-28T09:51:37Z</time></trkpt><trkpt lat="57.995392" lon="38.87524"><ele>122.0</ele><time>2022-09-28T09:51:52Z</time></trkpt><trkpt lat="57.995495" lon="38.875252"><ele>119.0</ele><time>2022-09-28T09:52:09Z</time></trkpt><trkpt lat="57.995572" lon="38.875297"><ele>120.0</ele><time>2022-09-28T09:52:14Z</time></trkpt><trkpt lat="57.995642" lon="38.875345"><ele>120.0</ele><time>2022-09-28T09:52:20Z</time></trkpt><trkpt lat="57.995717" lon="38.875278"><ele>120.0</ele><time>2022-09-28T09:52:24Z</time></trkpt><trkpt lat="57.995795" lon="38.875285"><ele>120.0</ele><time>2022-09-28T09:52:31Z</time></trkpt><trkpt lat="57.995878" lon="38.875322"><ele>122.0</ele><time>2022-09-28T09:52:42Z</time></trkpt><trkpt lat="57.995963" lon="38.87534"><ele>122.0</ele><time>2022-09-28T09:52:48Z</time></trkpt><trkpt lat="57.996035" lon="38.875325"><ele>122.0</ele><time>2022-09-28T09:52:51Z</time></trkpt><trkpt lat="57.996103" lon="38.87527"><ele>122.0</ele><time>2022-09-28T09:52:55Z</time></trkpt><trkpt lat="57.996172" lon="38.875205"><ele>122.0</ele><time>2022-09-28T09:53:01Z</time></trkpt><trkpt lat="57.996243" lon="38.87516"><ele>124.0</ele><time>2022-09-28T09:53:09Z</time></trkpt><trkpt lat="57.996295" lon="38.875053"><ele>123.0</ele><time>2022-09-28T09:53:19Z</time></trkpt><trkpt lat="57.99635" lon="38.874928"><ele>124.0</ele><time>2022-09-28T09:53:27Z</time></trkpt><trkpt lat="57.996403" lon="38.8748"><ele>124.0</ele><time>2022-09-28T09:53:34Z</time></trkpt><trkpt lat="57.99647" lon="38.874743"><ele>123.0</ele><time>2022-09-28T09:53:39Z</time></trkpt><trkpt lat="57.996538" lon="38.874693"><ele>123.0</ele><time>2022-09-28T09:53:43Z</time></trkpt><trkpt lat="57.996578" lon="38.874572"><ele>124.0</ele><time>2022-09-28T09:53:49Z</time></trkpt><trkpt lat="57.996607" lon="38.874432"><ele>123.0</ele><time>2022-09-28T09:53:58Z</time></trkpt><trkpt lat="57.996638" lon="38.874295"><ele>125.0</ele><time>2022-09-28T09:54:18Z</time></trkpt><trkpt lat="57.996712" lon="38.874345"><ele>126.0</ele><time>2022-09-28T09:54:38Z</time></trkpt><trkpt lat="57.996735" lon="38.874482"><ele>127.0</ele><time>2022-09-28T09:55:05Z</time></trkpt><trkpt lat="57.996835" lon="38.874527"><ele>127.0</ele><time>2022-09-28T09:55:11Z</time></trkpt><trkpt lat="57.996903" lon="38.874567"><ele>127.0</ele><time>2022-09-28T09:55:14Z</time></trkpt><trkpt lat="57.996987" lon="38.874573"><ele>127.0</ele><time>2022-09-28T09:55:17Z</time></trkpt><trkpt lat="57.997063" lon="38.874587"><ele>129.0</ele><time>2022-09-28T09:55:27Z</time></trkpt><trkpt lat="57.997157" lon="38.874585"><ele>129.0</ele><time>2022-09-28T09:55:32Z</time></trkpt><trkpt lat="57.997233" lon="38.874575"><ele>129.0</ele><time>2022-09-28T09:55:36Z</time></trkpt><trkpt lat="57.99732" lon="38.874577"><ele>129.0</ele><time>2022-09-28T09:55:39Z</time></trkpt><trkpt lat="57.997405" lon="38.874608"><ele>129.0</ele><time>2022-09-28T09:55:42Z</time></trkpt><trkpt lat="57.997473" lon="38.874668"><ele>130.0</ele><time>2022-09-28T09:55:44Z</time></trkpt><trkpt lat="57.997553" lon="38.874705"><ele>129.0</ele><time>2022-09-28T09:55:47Z</time></trkpt><trkpt lat="57.997633" lon="38.874722"><ele>130.0</ele><time>2022-09-28T09:55:49Z</time></trkpt><trkpt lat="57.997707" lon="38.87477"><ele>129.0</ele><time>2022-09-28T09:55:52Z</time></trkpt><trkpt lat="57.99777" lon="38.874837"><ele>129.0</ele><time>2022-09-28T09:55:56Z</time></trkpt><trkpt lat="57.997855" lon="38.87488"><ele>129.0</ele><time>2022-09-28T09:55:59Z</time></trkpt><trkpt lat="57.99793" lon="38.874908"><ele>128.0</ele><time>2022-09-28T09:56:04Z</time></trkpt><trkpt lat="57.998002" lon="38.874968"><ele>129.0</ele><time>2022-09-28T09:56:10Z</time></trkpt><trkpt lat="57.998062" lon="38.875057"><ele>130.0</ele><time>2022-09-28T09:56:16Z</time></trkpt><trkpt lat="57.998142" lon="38.875127"><ele>129.0</ele><time>2022-09-28T09:56:23Z</time></trkpt><trkpt lat="57.998227" lon="38.875182"><ele>128.0</ele><time>2022-09-28T09:56:27Z</time></trkpt><trkpt lat="57.998307" lon="38.87521"><ele>127.0</ele><time>2022-09-28T09:56:30Z</time></trkpt><trkpt lat="57.998378" lon="38.875272"><ele>126.0</ele><time>2022-09-28T09:56:34Z</time></trkpt><trkpt lat="57.99845" lon="38.875333"><ele>125.0</ele><time>2022-09-28T09:56:39Z</time></trkpt><trkpt lat="57.998538" lon="38.875343"><ele>125.0</ele><time>2022-09-28T09:56:44Z</time></trkpt><trkpt lat="57.998627" lon="38.875335"><ele>123.0</ele><time>2022-09-28T09:56:50Z</time></trkpt><trkpt lat="57.998532" lon="38.875323"><ele>119.0</ele><time>2022-09-28T09:57:19Z</time></trkpt><trkpt lat="57.99844" lon="38.875327"><ele>119.0</ele><time>2022-09-28T09:57:47Z</time></trkpt><trkpt lat="57.998387" lon="38.87542"><ele>119.0</ele><time>2022-09-28T09:58:02Z</time></trkpt><trkpt lat="57.998312" lon="38.87547"><ele>119.0</ele><time>2022-09-28T09:58:13Z</time></trkpt><trkpt lat="57.99824" lon="38.87557"><ele>119.0</ele><time>2022-09-28T09:58:18Z</time></trkpt><trkpt lat="57.998205" lon="38.875692"><ele>119.0</ele><time>2022-09-28T09:58:27Z</time></trkpt><trkpt lat="57.998192" lon="38.875833"><ele>119.0</ele><time>2022-09-28T09:58:36Z</time></trkpt><trkpt lat="57.998135" lon="38.875933"><ele>119.0</ele><time>2022-09-28T09:58:46Z</time></trkpt><trkpt lat="57.998105" lon="38.87607"><ele>118.0</ele><time>2022-09-28T09:58:58Z</time></trkpt><trkpt lat="57.998102" lon="38.876223"><ele>119.0</ele><time>2022-09-28T09:59:07Z</time></trkpt><trkpt lat="57.99807" lon="38.876347"><ele>120.0</ele><time>2022-09-28T09:59:24Z</time></trkpt><trkpt lat="57.998052" lon="38.87649"><ele>119.0</ele><time>2022-09-28T09:59:42Z</time></trkpt><trkpt lat="57.998017" lon="38.876618"><ele>120.0</ele><time>2022-09-28T09:59:51Z</time></trkpt><trkpt lat="57.997992" lon="38.876745"><ele>122.0</ele><time>2022-09-28T09:59:59Z</time></trkpt><trkpt lat="57.997997" lon="38.876882"><ele>121.0</ele><time>2022-09-28T10:00:06Z</time></trkpt><trkpt lat="57.997943" lon="38.876977"><ele>119.0</ele><time>2022-09-28T10:00:27Z</time></trkpt><trkpt lat="57.997862" lon="38.877027"><ele>120.0</ele><time>2022-09-28T10:00:31Z</time></trkpt><trkpt lat="57.997788" lon="38.877015"><ele>119.0</ele><time>2022-09-28T10:00:34Z</time></trkpt><trkpt lat="57.997708" lon="38.877055"><ele>119.0</ele><time>2022-09-28T10:00:37Z</time></trkpt><trkpt lat="57.997623" lon="38.877085"><ele>118.0</ele><time>2022-09-28T10:00:40Z</time></trkpt><trkpt lat="57.997537" lon="38.877037"><ele>120.0</ele><time>2022-09-28T10:00:43Z</time></trkpt><trkpt lat="57.99756" lon="38.876898"><ele>122.0</ele><time>2022-09-28T10:00:50Z</time></trkpt><trkpt lat="57.997588" lon="38.876758"><ele>120.0</ele><time>2022-09-28T10:00:58Z</time></trkpt><trkpt lat="57.997628" lon="38.876643"><ele>122.0</ele><time>2022-09-28T10:01:09Z</time></trkpt><trkpt lat="57.997592" lon="38.876762"><ele>121.0</ele><time>2022-09-28T10:02:18Z</time></trkpt><trkpt lat="57.99767" lon="38.876852"><ele>121.0</ele><time>2022-09-28T10:02:25Z</time></trkpt><trkpt lat="57.997773" lon="38.876862"><ele>120.0</ele><time>2022-09-28T10:02:28Z</time></trkpt><trkpt lat="57.997863" lon="38.876885"><ele>119.0</ele><time>2022-09-28T10:02:32Z</time></trkpt><trkpt lat="57.997957" lon="38.876872"><ele>118.0</ele><time>2022-09-28T10:02:35Z</time></trkpt><trkpt lat="57.998032" lon="38.876857"><ele>118.0</ele><time>2022-09-28T10:02:37Z</time></trkpt><trkpt lat="57.998107" lon="38.876868"><ele>117.0</ele><time>2022-09-28T10:02:39Z</time></trkpt><trkpt lat="57.998193" lon="38.876892"><ele>117.0</ele><time>2022-09-28T10:02:42Z</time></trkpt><trkpt lat="57.998288" lon="38.876925"><ele>116.0</ele><time>2022-09-28T10:02:45Z</time></trkpt><trkpt lat="57.998362" lon="38.876942"><ele>116.0</ele><time>2022-09-28T10:02:47Z</time></trkpt><trkpt lat="57.99843" lon="38.876992"><ele>116.0</ele><time>2022-09-28T10:02:49Z</time></trkpt><trkpt lat="57.99851" lon="38.877022"><ele>115.0</ele><time>2022-09-28T10:02:52Z</time></trkpt><trkpt lat="57.99849" lon="38.876883"><ele>115.0</ele><time>2022-09-28T10:02:57Z</time></trkpt><trkpt lat="57.998518" lon="38.876728"><ele>116.0</ele><time>2022-09-28T10:03:03Z</time></trkpt><trkpt lat="57.998532" lon="38.876583"><ele>115.0</ele><time>2022-09-28T10:03:06Z</time></trkpt><trkpt lat="57.998513" lon="38.876408"><ele>114.0</ele><time>2022-09-28T10:03:10Z</time></trkpt><trkpt lat="57.9985" lon="38.876268"><ele>114.0</ele><time>2022-09-28T10:03:13Z</time></trkpt><trkpt lat="57.998502" lon="38.876092"><ele>113.0</ele><time>2022-09-28T10:03:17Z</time></trkpt><trkpt lat="57.99851" lon="38.875935"><ele>114.0</ele><time>2022-09-28T10:03:21Z</time></trkpt><trkpt lat="57.998485" lon="38.87579"><ele>115.0</ele><time>2022-09-28T10:03:25Z</time></trkpt><trkpt lat="57.998462" lon="38.875658"><ele>115.0</ele><time>2022-09-28T10:03:31Z</time></trkpt><trkpt lat="57.998513" lon="38.87555"><ele>115.0</ele><time>2022-09-28T10:03:38Z</time></trkpt><trkpt lat="57.998583" lon="38.875508"><ele>115.0</ele><time>2022-09-28T10:03:41Z</time></trkpt><trkpt lat="57.998657" lon="38.875477"><ele>113.0</ele><time>2022-09-28T10:03:45Z</time></trkpt><trkpt lat="57.998733" lon="38.87548"><ele>113.0</ele><time>2022-09-28T10:03:48Z</time></trkpt><trkpt lat="57.998788" lon="38.875378"><ele>113.0</ele><time>2022-09-28T10:03:54Z</time></trkpt><trkpt lat="57.998865" lon="38.875385"><ele>113.0</ele><time>2022-09-28T10:04:01Z</time></trkpt><trkpt lat="57.998955" lon="38.875363"><ele>113.0</ele><time>2022-09-28T10:04:05Z</time></trkpt><trkpt lat="57.999028" lon="38.875367"><ele>112.0</ele><time>2022-09-28T10:04:08Z</time></trkpt><trkpt lat="57.999127" lon="38.875387"><ele>112.0</ele><time>2022-09-28T10:04:11Z</time></trkpt><trkpt lat="57.999212" lon="38.875412"><ele>112.0</ele><time>2022-09-28T10:04:14Z</time></trkpt><trkpt lat="57.999322" lon="38.875393"><ele>112.0</ele><time>2022-09-28T10:04:17Z</time></trkpt><trkpt lat="57.999392" lon="38.875363"><ele>112.0</ele><time>2022-09-28T10:04:19Z</time></trkpt><trkpt lat="57.999495" lon="38.875328"><ele>112.0</ele><time>2022-09-28T10:04:22Z</time></trkpt><trkpt lat="57.999565" lon="38.875287"><ele>112.0</ele><time>2022-09-28T10:04:24Z</time></trkpt><trkpt lat="57.999662" lon="38.875288"><ele>111.0</ele><time>2022-09-28T10:04:27Z</time></trkpt><trkpt lat="57.999762" lon="38.8753"><ele>111.0</ele><time>2022-09-28T10:04:30Z</time></trkpt><trkpt lat="57.999862" lon="38.875317"><ele>110.0</ele><time>2022-09-28T10:04:33Z</time></trkpt><trkpt lat="57.999945" lon="38.875297"><ele>110.0</ele><time>2022-09-28T10:04:36Z</time></trkpt><trkpt lat="58.00004" lon="38.875243"><ele>110.0</ele><time>2022-09-28T10:04:39Z</time></trkpt><trkpt lat="58.000118" lon="38.875217"><ele>109.0</ele><time>2022-09-28T10:04:42Z</time></trkpt><trkpt lat="58.00019" lon="38.875198"><ele>109.0</ele><time>2022-09-28T10:04:45Z</time></trkpt><trkpt lat="58.00028" lon="38.875165"><ele>109.0</ele><time>2022-09-28T10:04:48Z</time></trkpt><trkpt lat="58.000357" lon="38.875185"><ele>108.0</ele><time>2022-09-28T10:04:50Z</time></trkpt><trkpt lat="58.000428" lon="38.875207"><ele>108.0</ele><time>2022-09-28T10:04:52Z</time></trkpt><trkpt lat="58.000528" lon="38.875215"><ele>108.0</ele><time>2022-09-28T10:04:55Z</time></trkpt><trkpt lat="58.000625" lon="38.875218"><ele>108.0</ele><time>2022-09-28T10:04:58Z</time></trkpt><trkpt lat="58.000725" lon="38.87522"><ele>108.0</ele><time>2022-09-28T10:05:01Z</time></trkpt><trkpt lat="58.000813" lon="38.875212"><ele>107.0</ele><time>2022-09-28T10:05:04Z</time></trkpt><trkpt lat="58.000903" lon="38.875218"><ele>107.0</ele><time>2022-09-28T10:05:07Z</time></trkpt><trkpt lat="58.000993" lon="38.875257"><ele>107.0</ele><time>2022-09-28T10:05:11Z</time></trkpt><trkpt lat="58.001073" lon="38.875215"><ele>107.0</ele><time>2022-09-28T10:05:17Z</time></trkpt><trkpt lat="58.00116" lon="38.875178"><ele>106.0</ele><time>2022-09-28T10:05:23Z</time></trkpt><trkpt lat="58.001238" lon="38.875187"><ele>106.0</ele><time>2022-09-28T10:05:28Z</time></trkpt><trkpt lat="58.001312" lon="38.875173"><ele>106.0</ele><time>2022-09-28T10:05:33Z</time></trkpt><trkpt lat="58.00139" lon="38.875173"><ele>106.0</ele><time>2022-09-28T10:05:38Z</time></trkpt><trkpt lat="58.00147" lon="38.875198"><ele>105.0</ele><time>2022-09-28T10:05:44Z</time></trkpt><trkpt lat="58.001392" lon="38.87521"><ele>103.0</ele><time>2022-09-28T10:06:03Z</time></trkpt><trkpt lat="58.001313" lon="38.875213"><ele>103.0</ele><time>2022-09-28T10:06:09Z</time></trkpt><trkpt lat="58.001233" lon="38.875192"><ele>103.0</ele><time>2022-09-28T10:06:16Z</time></trkpt><trkpt lat="58.001148" lon="38.875198"><ele>103.0</ele><time>2022-09-28T10:06:20Z</time></trkpt><trkpt lat="58.001077" lon="38.875223"><ele>103.0</ele><time>2022-09-28T10:06:22Z</time></trkpt><trkpt lat="58.001" lon="38.875223"><ele>103.0</ele><time>2022-09-28T10:06:25Z</time></trkpt><trkpt lat="58.000912" lon="38.875188"><ele>104.0</ele><time>2022-09-28T10:06:28Z</time></trkpt><trkpt lat="58.000833" lon="38.875195"><ele>104.0</ele><time>2022-09-28T10:06:30Z</time></trkpt><trkpt lat="58.000732" lon="38.875315"><ele>104.0</ele><time>2022-09-28T10:06:33Z</time></trkpt><trkpt lat="58.000643" lon="38.87536"><ele>104.0</ele><time>2022-09-28T10:06:35Z</time></trkpt><trkpt lat="58.000563" lon="38.875362"><ele>104.0</ele><time>2022-09-28T10:06:37Z</time></trkpt><trkpt lat="58.000488" lon="38.875355"><ele>104.0</ele><time>2022-09-28T10:06:39Z</time></trkpt><trkpt lat="58.000407" lon="38.875347"><ele>104.0</ele><time>2022-09-28T10:06:41Z</time></trkpt><trkpt lat="58.000315" lon="38.87536"><ele>104.0</ele><time>2022-09-28T10:06:44Z</time></trkpt><trkpt lat="58.000243" lon="38.875428"><ele>105.0</ele><time>2022-09-28T10:06:48Z</time></trkpt><trkpt lat="58.000152" lon="38.87544"><ele>104.0</ele><time>2022-09-28T10:06:55Z</time></trkpt><trkpt lat="58.000072" lon="38.875363"><ele>105.0</ele><time>2022-09-28T10:06:59Z</time></trkpt><trkpt lat="57.99999" lon="38.875338"><ele>105.0</ele><time>2022-09-28T10:07:03Z</time></trkpt><trkpt lat="57.999905" lon="38.87534"><ele>106.0</ele><time>2022-09-28T10:07:07Z</time></trkpt><trkpt lat="57.999818" lon="38.875285"><ele>106.0</ele><time>2022-09-28T10:07:12Z</time></trkpt><trkpt lat="57.999747" lon="38.8753"><ele>106.0</ele><time>2022-09-28T10:07:17Z</time></trkpt><trkpt lat="57.999668" lon="38.875283"><ele>106.0</ele><time>2022-09-28T10:07:24Z</time></trkpt><trkpt lat="57.999587" lon="38.87531"><ele>106.0</ele><time>2022-09-28T10:07:30Z</time></trkpt><trkpt lat="57.999512" lon="38.875313"><ele>106.0</ele><time>2022-09-28T10:07:34Z</time></trkpt><trkpt lat="57.999428" lon="38.875305"><ele>106.0</ele><time>2022-09-28T10:07:39Z</time></trkpt><trkpt lat="57.999353" lon="38.875293"><ele>105.0</ele><time>2022-09-28T10:07:43Z</time></trkpt><trkpt lat="57.999268" lon="38.875292"><ele>106.0</ele><time>2022-09-28T10:07:46Z</time></trkpt><trkpt lat="57.999185" lon="38.875285"><ele>105.0</ele><time>2022-09-28T10:07:49Z</time></trkpt><trkpt lat="57.999107" lon="38.87525"><ele>106.0</ele><time>2022-09-28T10:07:54Z</time></trkpt><trkpt lat="57.999038" lon="38.875182"><ele>108.0</ele><time>2022-09-28T10:08:02Z</time></trkpt><trkpt lat="57.998992" lon="38.875048"><ele>109.0</ele><time>2022-09-28T10:08:08Z</time></trkpt><trkpt lat="57.998962" lon="38.874895"><ele>109.0</ele><time>2022-09-28T10:08:13Z</time></trkpt><trkpt lat="57.998968" lon="38.874755"><ele>108.0</ele><time>2022-09-28T10:08:17Z</time></trkpt><trkpt lat="57.99898" lon="38.874572"><ele>107.0</ele><time>2022-09-28T10:08:21Z</time></trkpt><trkpt lat="57.99898" lon="38.874428"><ele>108.0</ele><time>2022-09-28T10:08:24Z</time></trkpt><trkpt lat="57.99899" lon="38.874255"><ele>108.0</ele><time>2022-09-28T10:08:27Z</time></trkpt><trkpt lat="57.999012" lon="38.874098"><ele>109.0</ele><time>2022-09-28T10:08:30Z</time></trkpt><trkpt lat="57.999018" lon="38.873917"><ele>109.0</ele><time>2022-09-28T10:08:33Z</time></trkpt><trkpt lat="57.999015" lon="38.87378"><ele>109.0</ele><time>2022-09-28T10:08:35Z</time></trkpt><trkpt lat="57.999025" lon="38.873578"><ele>109.0</ele><time>2022-09-28T10:08:38Z</time></trkpt><trkpt lat="57.999042" lon="38.873438"><ele>108.0</ele><time>2022-09-28T10:08:40Z</time></trkpt><trkpt lat="57.999063" lon="38.87329"><ele>108.0</ele><time>2022-09-28T10:08:43Z</time></trkpt><trkpt lat="57.99909" lon="38.873108"><ele>107.0</ele><time>2022-09-28T10:08:47Z</time></trkpt><trkpt lat="57.999082" lon="38.872942"><ele>107.0</ele><time>2022-09-28T10:08:49Z</time></trkpt><trkpt lat="57.999068" lon="38.87278"><ele>107.0</ele><time>2022-09-28T10:08:51Z</time></trkpt><trkpt lat="57.99906" lon="38.872615"><ele>107.0</ele><time>2022-09-28T10:08:53Z</time></trkpt><trkpt lat="57.999067" lon="38.872462"><ele>108.0</ele><time>2022-09-28T10:08:55Z</time></trkpt><trkpt lat="57.99907" lon="38.872327"><ele>108.0</ele><time>2022-09-28T10:08:57Z</time></trkpt><trkpt lat="57.999072" lon="38.872185"><ele>108.0</ele><time>2022-09-28T10:08:59Z</time></trkpt><trkpt lat="57.999112" lon="38.872017"><ele>108.0</ele><time>2022-09-28T10:09:02Z</time></trkpt><trkpt lat="57.999185" lon="38.8719"><ele>107.0</ele><time>2022-09-28T10:09:05Z</time></trkpt><trkpt lat="57.999208" lon="38.871762"><ele>108.0</ele><time>2022-09-28T10:09:08Z</time></trkpt><trkpt lat="57.999217" lon="38.871615"><ele>109.0</ele><time>2022-09-28T10:09:12Z</time></trkpt><trkpt lat="57.99924" lon="38.871473"><ele>110.0</ele><time>2022-09-28T10:09:18Z</time></trkpt><trkpt lat="57.999265" lon="38.871327"><ele>109.0</ele><time>2022-09-28T10:09:23Z</time></trkpt><trkpt lat="57.9993" lon="38.871188"><ele>108.0</ele><time>2022-09-28T10:09:28Z</time></trkpt><trkpt lat="57.999333" lon="38.87103"><ele>110.0</ele><time>2022-09-28T10:09:34Z</time></trkpt><trkpt lat="57.999357" lon="38.87088"><ele>111.0</ele><time>2022-09-28T10:09:38Z</time></trkpt><trkpt lat="57.999398" lon="38.870728"><ele>111.0</ele><time>2022-09-28T10:09:42Z</time></trkpt><trkpt lat="57.99942" lon="38.870552"><ele>110.0</ele><time>2022-09-28T10:09:45Z</time></trkpt><trkpt lat="57.999432" lon="38.870365"><ele>110.0</ele><time>2022-09-28T10:09:48Z</time></trkpt><trkpt lat="57.999423" lon="38.87019"><ele>109.0</ele><time>2022-09-28T10:09:56Z</time></trkpt><trkpt lat="57.999422" lon="38.869987"><ele>109.0</ele><time>2022-09-28T10:09:59Z</time></trkpt><trkpt lat="57.999423" lon="38.869848"><ele>108.0</ele><time>2022-09-28T10:10:01Z</time></trkpt><trkpt lat="57.999425" lon="38.869638"><ele>108.0</ele><time>2022-09-28T10:10:04Z</time></trkpt><trkpt lat="57.999425" lon="38.869482"><ele>108.0</ele><time>2022-09-28T10:10:06Z</time></trkpt><trkpt lat="57.999432" lon="38.869333"><ele>107.0</ele><time>2022-09-28T10:10:08Z</time></trkpt><trkpt lat="57.999443" lon="38.869158"><ele>107.0</ele><time>2022-09-28T10:10:10Z</time></trkpt><trkpt lat="57.99943" lon="38.868967"><ele>107.0</ele><time>2022-09-28T10:10:12Z</time></trkpt><trkpt lat="57.999413" lon="38.868802"><ele>107.0</ele><time>2022-09-28T10:10:14Z</time></trkpt><trkpt lat="57.999402" lon="38.868655"><ele>107.0</ele><time>2022-09-28T10:10:16Z</time></trkpt><trkpt lat="57.999395" lon="38.868513"><ele>106.0</ele><time>2022-09-28T10:10:18Z</time></trkpt><trkpt lat="57.999392" lon="38.868328"><ele>106.0</ele><time>2022-09-28T10:10:21Z</time></trkpt><trkpt lat="57.999382" lon="38.868152"><ele>105.0</ele><time>2022-09-28T10:10:24Z</time></trkpt><trkpt lat="57.99937" lon="38.867995"><ele>105.0</ele><time>2022-09-28T10:10:27Z</time></trkpt></trkseg></trk></gpx>