<?xml version="1.0" encoding="UTF-8" standalone="no"?><gpx xmlns="http://www.topografix.com/GPX/1/1" xmlns:gpxtpx="http://www.garmin.com/xmlschemas/TrackPointExtension/v1" xmlns:xsi="http://www.w3.org/2001/XMLSchema-instance" creator="Sports Tracker" version="1.1" xsi:schemaLocation="http://www.topografix.com/GPX/1/1 http://www.topografix.com/GPX/1/1/gpx.xsd http://www.garmin.com/xmlschemas/TrackPointExtension/v1 http://www.garmin.com/xmlschemas/TrackPointExtensionv1.xsd"><metadata><name/><desc/><author><name>Александр</name></author></metadata><trk><name/><trkseg><trkpt lat="58.05857" lon="38.807398"><ele>105.0</ele><time>2023-10-19T12:46:18Z</time></trkpt><trkpt lat="58.058482" lon="38.807563"><ele>105.0</ele><time>2023-10-19T12:46:19Z</time></trkpt><trkpt lat="58.058645" lon="38.807787"><ele>106.0</ele><time>2023-10-19T12:46:21Z</time></trkpt><trkpt lat="58.05856" lon="38.80772"><ele>102.0</ele><time>2023-10-19T12:46:22Z</time></trkpt><trkpt lat="58.058565" lon="38.807857"><ele>110.0</ele><time>2023-10-19T12:46:24Z</time></trkpt><trkpt lat="58.058487" lon="38.807927"><ele>106.0</ele><time>2023-10-19T12:46:26Z</time></trkpt><trkpt lat="58.058613" lon="38.807902"><ele>110.0</ele><time>2023-10-19T12:46:27Z</time></trkpt><trkpt lat="58.058617" lon="38.808062"><ele>112.0</ele><time>2023-10-19T12:46:29Z</time></trkpt><trkpt lat="58.058635" lon="38.808213"><ele>112.0</ele><time>2023-10-19T12:46:31Z</time></trkpt><trkpt lat="58.058623" lon="38.808397"><ele>111.0</ele><time>2023-10-19T12:46:33Z</time></trkpt><trkpt lat="58.0586" lon="38.808632"><ele>111.0</ele><time>2023-10-19T12:46:35Z</time></trkpt><trkpt lat="58.058567" lon="38.80885"><ele>110.0</ele><time>2023-10-19T12:46:37Z</time></trkpt><trkpt lat="58.058487" lon="38.808972"><ele>110.0</ele><time>2023-10-19T12:46:39Z</time></trkpt><trkpt lat="58.058377" lon="38.808913"><ele>110.0</ele><time>2023-10-19T12:46:40Z</time></trkpt><trkpt lat="58.05827" lon="38.808922"><ele>111.0</ele><time>2023-10-19T12:46:42Z</time></trkpt><trkpt lat="58.058157" lon="38.808912"><ele>110.0</ele><time>2023-10-19T12:46:44Z</time></trkpt><trkpt lat="58.058068" lon="38.808888"><ele>109.0</ele><time>2023-10-19T12:46:46Z</time></trkpt><trkpt lat="58.057977" lon="38.808825"><ele>107.0</ele><time>2023-10-19T12:46:48Z</time></trkpt><trkpt lat="58.057887" lon="38.808775"><ele>107.0</ele><time>2023-10-19T12:46:50Z</time></trkpt><trkpt lat="58.05781" lon="38.808733"><ele>107.0</ele><time>2023-10-19T12:46:52Z</time></trkpt><trkpt lat="58.057712" lon="38.808708"><ele>106.0</ele><time>2023-10-19T12:46:54Z</time></trkpt><trkpt lat="58.05763" lon="38.808707"><ele>106.0</ele><time>2023-10-19T12:46:56Z</time></trkpt><trkpt lat="58.057537" lon="38.808778"><ele>106.0</ele><time>2023-10-19T12:46:58Z</time></trkpt><trkpt lat="58.057443" lon="38.808923"><ele>106.0</ele><time>2023-10-19T12:47:00Z</time></trkpt><trkpt lat="58.057375" lon="38.808975"><ele>106.0</ele><time>2023-10-19T12:47:03Z</time></trkpt><trkpt lat="58.05728" lon="38.809083"><ele>106.0</ele><time>2023-10-19T12:47:06Z</time></trkpt><trkpt lat="58.057223" lon="38.809173"><ele>106.0</ele><time>2023-10-19T12:47:08Z</time></trkpt><trkpt lat="58.057135" lon="38.809262"><ele>105.0</ele><time>2023-10-19T12:47:11Z</time></trkpt><trkpt lat="58.057067" lon="38.809415"><ele>105.0</ele><time>2023-10-19T12:47:13Z</time></trkpt><trkpt lat="58.057012" lon="38.809612"><ele>105.0</ele><time>2023-10-19T12:47:15Z</time></trkpt><trkpt lat="58.056912" lon="38.809772"><ele>106.0</ele><time>2023-10-19T12:47:17Z</time></trkpt><trkpt lat="58.05682" lon="38.809725"><ele>106.0</ele><time>2023-10-19T12:47:20Z</time></trkpt><trkpt lat="58.056785" lon="38.809845"><ele>106.0</ele><time>2023-10-19T12:47:24Z</time></trkpt><trkpt lat="58.056788" lon="38.809993"><ele>106.0</ele><time>2023-10-19T12:47:27Z</time></trkpt><trkpt lat="58.056773" lon="38.810158"><ele>105.0</ele><time>2023-10-19T12:47:30Z</time></trkpt><trkpt lat="58.056765" lon="38.810328"><ele>105.0</ele><time>2023-10-19T12:47:33Z</time></trkpt><trkpt lat="58.056752" lon="38.810478"><ele>104.0</ele><time>2023-10-19T12:47:36Z</time></trkpt><trkpt lat="58.056732" lon="38.810633"><ele>103.0</ele><time>2023-10-19T12:47:39Z</time></trkpt><trkpt lat="58.056692" lon="38.810813"><ele>103.0</ele><time>2023-10-19T12:47:42Z</time></trkpt><trkpt lat="58.056635" lon="38.810955"><ele>103.0</ele><time>2023-10-19T12:47:45Z</time></trkpt><trkpt lat="58.05647" lon="38.81097"><ele>103.0</ele><time>2023-10-19T12:47:49Z</time></trkpt><trkpt lat="58.056378" lon="38.810943"><ele>103.0</ele><time>2023-10-19T12:47:51Z</time></trkpt><trkpt lat="58.056295" lon="38.810922"><ele>103.0</ele><time>2023-10-19T12:47:53Z</time></trkpt><trkpt lat="58.056222" lon="38.810892"><ele>103.0</ele><time>2023-10-19T12:47:55Z</time></trkpt><trkpt lat="58.056148" lon="38.810877"><ele>104.0</ele><time>2023-10-19T12:47:57Z</time></trkpt><trkpt lat="58.056072" lon="38.810872"><ele>104.0</ele><time>2023-10-19T12:47:59Z</time></trkpt><trkpt lat="58.055992" lon="38.810885"><ele>105.0</ele><time>2023-10-19T12:48:02Z</time></trkpt><trkpt lat="58.055973" lon="38.81105"><ele>105.0</ele><time>2023-10-19T12:48:04Z</time></trkpt><trkpt lat="58.056015" lon="38.811243"><ele>104.0</ele><time>2023-10-19T12:48:05Z</time></trkpt><trkpt lat="58.055993" lon="38.811468"><ele>104.0</ele><time>2023-10-19T12:48:07Z</time></trkpt><trkpt lat="58.055968" lon="38.811697"><ele>104.0</ele><time>2023-10-19T12:48:09Z</time></trkpt><trkpt lat="58.05596" lon="38.812008"><ele>104.0</ele><time>2023-10-19T12:48:12Z</time></trkpt><trkpt lat="58.055938" lon="38.812195"><ele>103.0</ele><time>2023-10-19T12:48:15Z</time></trkpt><trkpt lat="58.055907" lon="38.812355"><ele>103.0</ele><time>2023-10-19T12:48:18Z</time></trkpt><trkpt lat="58.055885" lon="38.812485"><ele>103.0</ele><time>2023-10-19T12:48:20Z</time></trkpt><trkpt lat="58.055893" lon="38.812683"><ele>103.0</ele><time>2023-10-19T12:48:22Z</time></trkpt><trkpt lat="58.055882" lon="38.81288"><ele>103.0</ele><time>2023-10-19T12:48:24Z</time></trkpt><trkpt lat="58.055862" lon="38.813105"><ele>102.0</ele><time>2023-10-19T12:48:26Z</time></trkpt><trkpt lat="58.055843" lon="38.81332"><ele>102.0</ele><time>2023-10-19T12:48:28Z</time></trkpt><trkpt lat="58.05584" lon="38.8135"><ele>102.0</ele><time>2023-10-19T12:48:30Z</time></trkpt><trkpt lat="58.055833" lon="38.813682"><ele>102.0</ele><time>2023-10-19T12:48:32Z</time></trkpt><trkpt lat="58.055818" lon="38.81391"><ele>101.0</ele><time>2023-10-19T12:48:34Z</time></trkpt><trkpt lat="58.055818" lon="38.814068"><ele>100.0</ele><time>2023-10-19T12:48:36Z</time></trkpt><trkpt lat="58.055798" lon="38.814258"><ele>101.0</ele><time>2023-10-19T12:48:38Z</time></trkpt><trkpt lat="58.055775" lon="38.814473"><ele>102.0</ele><time>2023-10-19T12:48:40Z</time></trkpt><trkpt lat="58.055767" lon="38.814705"><ele>101.0</ele><time>2023-10-19T12:48:42Z</time></trkpt><trkpt lat="58.05577" lon="38.814922"><ele>101.0</ele><time>2023-10-19T12:48:44Z</time></trkpt><trkpt lat="58.055718" lon="38.815102"><ele>101.0</ele><time>2023-10-19T12:48:46Z</time></trkpt><trkpt lat="58.055658" lon="38.81525"><ele>101.0</ele><time>2023-10-19T12:48:48Z</time></trkpt><trkpt lat="58.055568" lon="38.815398"><ele>102.0</ele><time>2023-10-19T12:48:50Z</time></trkpt><trkpt lat="58.0555" lon="38.815518"><ele>103.0</ele><time>2023-10-19T12:48:52Z</time></trkpt><trkpt lat="58.055447" lon="38.815698"><ele>103.0</ele><time>2023-10-19T12:48:54Z</time></trkpt><trkpt lat="58.055385" lon="38.815887"><ele>103.0</ele><time>2023-10-19T12:48:56Z</time></trkpt><trkpt lat="58.055342" lon="38.816065"><ele>103.0</ele><time>2023-10-19T12:48:58Z</time></trkpt><trkpt lat="58.055307" lon="38.816197"><ele>103.0</ele><time>2023-10-19T12:49:00Z</time></trkpt><trkpt lat="58.055218" lon="38.816225"><ele>104.0</ele><time>2023-10-19T12:49:03Z</time></trkpt><trkpt lat="58.055113" lon="38.816208"><ele>105.0</ele><time>2023-10-19T12:49:06Z</time></trkpt><trkpt lat="58.055013" lon="38.816258"><ele>106.0</ele><time>2023-10-19T12:49:10Z</time></trkpt><trkpt lat="58.055005" lon="38.816407"><ele>106.0</ele><time>2023-10-19T12:49:12Z</time></trkpt><trkpt lat="58.054997" lon="38.816572"><ele>106.0</ele><time>2023-10-19T12:49:14Z</time></trkpt><trkpt lat="58.05498" lon="38.81673"><ele>105.0</ele><time>2023-10-19T12:49:16Z</time></trkpt><trkpt lat="58.054965" lon="38.816877"><ele>104.0</ele><time>2023-10-19T12:49:18Z</time></trkpt><trkpt lat="58.054958" lon="38.81704"><ele>104.0</ele><time>2023-10-19T12:49:20Z</time></trkpt><trkpt lat="58.05494" lon="38.817213"><ele>104.0</ele><time>2023-10-19T12:49:23Z</time></trkpt><trkpt lat="58.054918" lon="38.817375"><ele>103.0</ele><time>2023-10-19T12:49:26Z</time></trkpt><trkpt lat="58.054927" lon="38.817552"><ele>104.0</ele><time>2023-10-19T12:49:28Z</time></trkpt><trkpt lat="58.054903" lon="38.817768"><ele>103.0</ele><time>2023-10-19T12:49:31Z</time></trkpt><trkpt lat="58.05488" lon="38.817947"><ele>102.0</ele><time>2023-10-19T12:49:33Z</time></trkpt><trkpt lat="58.054868" lon="38.818152"><ele>102.0</ele><time>2023-10-19T12:49:35Z</time></trkpt><trkpt lat="58.054865" lon="38.818323"><ele>103.0</ele><time>2023-10-19T12:49:37Z</time></trkpt><trkpt lat="58.054857" lon="38.818497"><ele>103.0</ele><time>2023-10-19T12:49:39Z</time></trkpt><trkpt lat="58.054852" lon="38.818673"><ele>102.0</ele><time>2023-10-19T12:49:41Z</time></trkpt><trkpt lat="58.05485" lon="38.818862"><ele>103.0</ele><time>2023-10-19T12:49:44Z</time></trkpt><trkpt lat="58.054808" lon="38.819037"><ele>101.0</ele><time>2023-10-19T12:49:47Z</time></trkpt><trkpt lat="58.054792" lon="38.819182"><ele>102.0</ele><time>2023-10-19T12:49:49Z</time></trkpt><trkpt lat="58.054782" lon="38.819393"><ele>102.0</ele><time>2023-10-19T12:49:52Z</time></trkpt><trkpt lat="58.05478" lon="38.819635"><ele>102.0</ele><time>2023-10-19T12:49:54Z</time></trkpt><trkpt lat="58.054778" lon="38.819887"><ele>102.0</ele><time>2023-10-19T12:49:56Z</time></trkpt><trkpt lat="58.054767" lon="38.820102"><ele>103.0</ele><time>2023-10-19T12:49:58Z</time></trkpt><trkpt lat="58.054737" lon="38.820322"><ele>103.0</ele><time>2023-10-19T12:50:00Z</time></trkpt><trkpt lat="58.054757" lon="38.820532"><ele>102.0</ele><time>2023-10-19T12:50:03Z</time></trkpt><trkpt lat="58.054738" lon="38.820748"><ele>101.0</ele><time>2023-10-19T12:50:06Z</time></trkpt><trkpt lat="58.05472" lon="38.820923"><ele>101.0</ele><time>2023-10-19T12:50:09Z</time></trkpt><trkpt lat="58.054703" lon="38.821095"><ele>101.0</ele><time>2023-10-19T12:50:11Z</time></trkpt><trkpt lat="58.054667" lon="38.821268"><ele>101.0</ele><time>2023-10-19T12:50:14Z</time></trkpt><trkpt lat="58.054655" lon="38.821463"><ele>101.0</ele><time>2023-10-19T12:50:17Z</time></trkpt><trkpt lat="58.054653" lon="38.821612"><ele>101.0</ele><time>2023-10-19T12:50:19Z</time></trkpt><trkpt lat="58.05464" lon="38.821757"><ele>101.0</ele><time>2023-10-19T12:50:21Z</time></trkpt><trkpt lat="58.054617" lon="38.821887"><ele>101.0</ele><time>2023-10-19T12:50:23Z</time></trkpt><trkpt lat="58.054588" lon="38.822093"><ele>102.0</ele><time>2023-10-19T12:50:26Z</time></trkpt><trkpt lat="58.05457" lon="38.822253"><ele>102.0</ele><time>2023-10-19T12:50:28Z</time></trkpt><trkpt lat="58.054552" lon="38.822428"><ele>101.0</ele><time>2023-10-19T12:50:30Z</time></trkpt><trkpt lat="58.054502" lon="38.822617"><ele>102.0</ele><time>2023-10-19T12:50:32Z</time></trkpt><trkpt lat="58.054453" lon="38.822778"><ele>101.0</ele><time>2023-10-19T12:50:35Z</time></trkpt><trkpt lat="58.05443" lon="38.82294"><ele>101.0</ele><time>2023-10-19T12:50:37Z</time></trkpt><trkpt lat="58.054392" lon="38.82313"><ele>101.0</ele><time>2023-10-19T12:50:40Z</time></trkpt><trkpt lat="58.054363" lon="38.823297"><ele>101.0</ele><time>2023-10-19T12:50:42Z</time></trkpt><trkpt lat="58.054308" lon="38.823465"><ele>102.0</ele><time>2023-10-19T12:50:44Z</time></trkpt><trkpt lat="58.054262" lon="38.82357"><ele>103.0</ele><time>2023-10-19T12:50:46Z</time></trkpt><trkpt lat="58.054188" lon="38.82373"><ele>103.0</ele><time>2023-10-19T12:50:50Z</time></trkpt><trkpt lat="58.05414" lon="38.823937"><ele>102.0</ele><time>2023-10-19T12:50:53Z</time></trkpt><trkpt lat="58.05415" lon="38.824103"><ele>101.0</ele><time>2023-10-19T12:50:55Z</time></trkpt><trkpt lat="58.05413" lon="38.82427"><ele>101.0</ele><time>2023-10-19T12:50:57Z</time></trkpt><trkpt lat="58.054165" lon="38.824393"><ele>101.0</ele><time>2023-10-19T12:50:59Z</time></trkpt><trkpt lat="58.054123" lon="38.82453"><ele>100.0</ele><time>2023-10-19T12:51:01Z</time></trkpt><trkpt lat="58.054093" lon="38.824667"><ele>99.0</ele><time>2023-10-19T12:51:03Z</time></trkpt><trkpt lat="58.054067" lon="38.824865"><ele>99.0</ele><time>2023-10-19T12:51:06Z</time></trkpt><trkpt lat="58.05404" lon="38.825028"><ele>100.0</ele><time>2023-10-19T12:51:08Z</time></trkpt><trkpt lat="58.054007" lon="38.825198"><ele>100.0</ele><time>2023-10-19T12:51:10Z</time></trkpt><trkpt lat="58.05396" lon="38.825423"><ele>99.0</ele><time>2023-10-19T12:51:12Z</time></trkpt><trkpt lat="58.053942" lon="38.82561"><ele>100.0</ele><time>2023-10-19T12:51:14Z</time></trkpt><trkpt lat="58.053885" lon="38.825782"><ele>100.0</ele><time>2023-10-19T12:51:16Z</time></trkpt><trkpt lat="58.053843" lon="38.825922"><ele>100.0</ele><time>2023-10-19T12:51:18Z</time></trkpt><trkpt lat="58.053815" lon="38.826088"><ele>100.0</ele><time>2023-10-19T12:51:20Z</time></trkpt><trkpt lat="58.053755" lon="38.826248"><ele>99.0</ele><time>2023-10-19T12:51:23Z</time></trkpt><trkpt lat="58.053718" lon="38.82637"><ele>99.0</ele><time>2023-10-19T12:52:07Z</time></trkpt><trkpt lat="58.053702" lon="38.826537"><ele>98.0</ele><time>2023-10-19T12:52:10Z</time></trkpt><trkpt lat="58.053618" lon="38.826628"><ele>98.0</ele><time>2023-10-19T12:52:13Z</time></trkpt><trkpt lat="58.053543" lon="38.826582"><ele>98.0</ele><time>2023-10-19T12:52:15Z</time></trkpt><trkpt lat="58.05347" lon="38.826515"><ele>99.0</ele><time>2023-10-19T12:52:17Z</time></trkpt><trkpt lat="58.0534" lon="38.826455"><ele>99.0</ele><time>2023-10-19T12:52:19Z</time></trkpt><trkpt lat="58.053323" lon="38.826392"><ele>100.0</ele><time>2023-10-19T12:52:21Z</time></trkpt><trkpt lat="58.053248" lon="38.826338"><ele>101.0</ele><time>2023-10-19T12:52:23Z</time></trkpt><trkpt lat="58.053153" lon="38.826277"><ele>101.0</ele><time>2023-10-19T12:52:26Z</time></trkpt><trkpt lat="58.053063" lon="38.826218"><ele>101.0</ele><time>2023-10-19T12:52:29Z</time></trkpt><trkpt lat="58.052987" lon="38.826163"><ele>100.0</ele><time>2023-10-19T12:52:33Z</time></trkpt><trkpt lat="58.052915" lon="38.826152"><ele>100.0</ele><time>2023-10-19T12:52:36Z</time></trkpt><trkpt lat="58.052815" lon="38.826078"><ele>101.0</ele><time>2023-10-19T12:52:39Z</time></trkpt><trkpt lat="58.052742" lon="38.826042"><ele>101.0</ele><time>2023-10-19T12:52:41Z</time></trkpt><trkpt lat="58.052668" lon="38.826037"><ele>101.0</ele><time>2023-10-19T12:52:43Z</time></trkpt><trkpt lat="58.052597" lon="38.826038"><ele>102.0</ele><time>2023-10-19T12:52:45Z</time></trkpt><trkpt lat="58.052527" lon="38.826087"><ele>102.0</ele><time>2023-10-19T12:52:48Z</time></trkpt><trkpt lat="58.05249" lon="38.826248"><ele>100.0</ele><time>2023-10-19T12:52:52Z</time></trkpt><trkpt lat="58.052502" lon="38.826398"><ele>98.0</ele><time>2023-10-19T12:53:35Z</time></trkpt><trkpt lat="58.052457" lon="38.826515"><ele>98.0</ele><time>2023-10-19T12:53:40Z</time></trkpt><trkpt lat="58.05241" lon="38.82662"><ele>99.0</ele><time>2023-10-19T12:53:51Z</time></trkpt><trkpt lat="58.052447" lon="38.826213"><ele>99.0</ele><time>2023-10-19T12:54:34Z</time></trkpt><trkpt lat="58.052372" lon="38.826263"><ele>100.0</ele><time>2023-10-19T12:54:55Z</time></trkpt><trkpt lat="58.052295" lon="38.826285"><ele>100.0</ele><time>2023-10-19T12:54:58Z</time></trkpt><trkpt lat="58.052227" lon="38.826207"><ele>100.0</ele><time>2023-10-19T12:55:01Z</time></trkpt><trkpt lat="58.052285" lon="38.826097"><ele>100.0</ele><time>2023-10-19T12:55:11Z</time></trkpt><trkpt lat="58.052218" lon="38.827015"><ele>100.0</ele><time>2023-10-19T12:55:14Z</time></trkpt><trkpt lat="58.052233" lon="38.82688"><ele>100.0</ele><time>2023-10-19T12:55:15Z</time></trkpt><trkpt lat="58.05246" lon="38.82656"><ele>99.0</ele><time>2023-10-19T14:51:43Z</time></trkpt><trkpt lat="58.052452" lon="38.826695"><ele>99.0</ele><time>2023-10-19T14:51:45Z</time></trkpt><trkpt lat="58.052425" lon="38.826875"><ele>99.0</ele><time>2023-10-19T14:51:47Z</time></trkpt><trkpt lat="58.052398" lon="38.82703"><ele>99.0</ele><time>2023-10-19T14:51:49Z</time></trkpt><trkpt lat="58.052387" lon="38.827175"><ele>99.0</ele><time>2023-10-19T14:51:51Z</time></trkpt><trkpt lat="58.052355" lon="38.827352"><ele>99.0</ele><time>2023-10-19T14:51:54Z</time></trkpt><trkpt lat="58.052312" lon="38.827533"><ele>98.0</ele><time>2023-10-19T14:51:57Z</time></trkpt><trkpt lat="58.052278" lon="38.827712"><ele>98.0</ele><time>2023-10-19T14:52:00Z</time></trkpt><trkpt lat="58.052253" lon="38.827865"><ele>97.0</ele><time>2023-10-19T14:52:03Z</time></trkpt><trkpt lat="58.052207" lon="38.828023"><ele>95.0</ele><time>2023-10-19T14:52:07Z</time></trkpt><trkpt lat="58.052167" lon="38.828142"><ele>94.0</ele><time>2023-10-19T14:52:10Z</time></trkpt><trkpt lat="58.052138" lon="38.828287"><ele>94.0</ele><time>2023-10-19T14:52:13Z</time></trkpt><trkpt lat="58.052125" lon="38.828445"><ele>96.0</ele><time>2023-10-19T14:52:16Z</time></trkpt><trkpt lat="58.052092" lon="38.82859"><ele>95.0</ele><time>2023-10-19T14:52:20Z</time></trkpt><trkpt lat="58.052052" lon="38.828732"><ele>93.0</ele><time>2023-10-19T14:52:25Z</time></trkpt><trkpt lat="58.052022" lon="38.828863"><ele>93.0</ele><time>2023-10-19T14:52:30Z</time></trkpt><trkpt lat="58.051992" lon="38.82899"><ele>95.0</ele><time>2023-10-19T14:52:36Z</time></trkpt><trkpt lat="58.051972" lon="38.829147"><ele>96.0</ele><time>2023-10-19T14:52:42Z</time></trkpt><trkpt lat="58.051968" lon="38.8293"><ele>97.0</ele><time>2023-10-19T14:52:49Z</time></trkpt><trkpt lat="58.051902" lon="38.829372"><ele>95.0</ele><time>2023-10-19T14:53:03Z</time></trkpt><trkpt lat="58.051867" lon="38.829515"><ele>95.0</ele><time>2023-10-19T14:53:06Z</time></trkpt><trkpt lat="58.051863" lon="38.829688"><ele>94.0</ele><time>2023-10-19T14:53:10Z</time></trkpt><trkpt lat="58.051932" lon="38.829775"><ele>93.0</ele><time>2023-10-19T14:53:16Z</time></trkpt><trkpt lat="58.052002" lon="38.829843"><ele>94.0</ele><time>2023-10-19T14:53:19Z</time></trkpt><trkpt lat="58.052087" lon="38.829825"><ele>93.0</ele><time>2023-10-19T14:53:24Z</time></trkpt><trkpt lat="58.052177" lon="38.829853"><ele>93.0</ele><time>2023-10-19T14:53:28Z</time></trkpt><trkpt lat="58.052245" lon="38.829898"><ele>94.0</ele><time>2023-10-19T14:53:31Z</time></trkpt><trkpt lat="58.05233" lon="38.829947"><ele>95.0</ele><time>2023-10-19T14:53:34Z</time></trkpt><trkpt lat="58.05241" lon="38.829997"><ele>95.0</ele><time>2023-10-19T14:53:37Z</time></trkpt><trkpt lat="58.052498" lon="38.830043"><ele>96.0</ele><time>2023-10-19T14:53:41Z</time></trkpt><trkpt lat="58.0526" lon="38.830085"><ele>95.0</ele><time>2023-10-19T14:53:44Z</time></trkpt><trkpt lat="58.052682" lon="38.830095"><ele>95.0</ele><time>2023-10-19T14:53:47Z</time></trkpt><trkpt lat="58.052775" lon="38.830115"><ele>96.0</ele><time>2023-10-19T14:53:50Z</time></trkpt><trkpt lat="58.052847" lon="38.830128"><ele>96.0</ele><time>2023-10-19T14:53:52Z</time></trkpt><trkpt lat="58.052943" lon="38.830153"><ele>95.0</ele><time>2023-10-19T14:53:55Z</time></trkpt><trkpt lat="58.053017" lon="38.8301"><ele>95.0</ele><time>2023-10-19T14:53:59Z</time></trkpt><trkpt lat="58.053038" lon="38.829967"><ele>95.0</ele><time>2023-10-19T14:54:01Z</time></trkpt><trkpt lat="58.05307" lon="38.82982"><ele>96.0</ele><time>2023-10-19T14:54:03Z</time></trkpt><trkpt lat="58.053112" lon="38.829643"><ele>96.0</ele><time>2023-10-19T14:54:05Z</time></trkpt><trkpt lat="58.053143" lon="38.82948"><ele>98.0</ele><time>2023-10-19T14:54:07Z</time></trkpt><trkpt lat="58.053173" lon="38.829333"><ele>98.0</ele><time>2023-10-19T14:54:09Z</time></trkpt><trkpt lat="58.053217" lon="38.829172"><ele>98.0</ele><time>2023-10-19T14:54:11Z</time></trkpt><trkpt lat="58.053253" lon="38.82901"><ele>98.0</ele><time>2023-10-19T14:54:13Z</time></trkpt><trkpt lat="58.053267" lon="38.828863"><ele>98.0</ele><time>2023-10-19T14:54:15Z</time></trkpt><trkpt lat="58.053287" lon="38.828708"><ele>97.0</ele><time>2023-10-19T14:54:17Z</time></trkpt><trkpt lat="58.053328" lon="38.828522"><ele>97.0</ele><time>2023-10-19T14:54:20Z</time></trkpt><trkpt lat="58.053352" lon="38.828328"><ele>95.0</ele><time>2023-10-19T14:54:23Z</time></trkpt><trkpt lat="58.05336" lon="38.828188"><ele>95.0</ele><time>2023-10-19T14:54:25Z</time></trkpt><trkpt lat="58.053382" lon="38.82802"><ele>94.0</ele><time>2023-10-19T14:54:28Z</time></trkpt><trkpt lat="58.053408" lon="38.82788"><ele>94.0</ele><time>2023-10-19T14:54:31Z</time></trkpt><trkpt lat="58.05346" lon="38.827732"><ele>94.0</ele><time>2023-10-19T14:54:34Z</time></trkpt><trkpt lat="58.053483" lon="38.827542"><ele>95.0</ele><time>2023-10-19T14:54:37Z</time></trkpt><trkpt lat="58.053493" lon="38.827407"><ele>94.0</ele><time>2023-10-19T14:54:39Z</time></trkpt><trkpt lat="58.05351" lon="38.82726"><ele>94.0</ele><time>2023-10-19T14:54:41Z</time></trkpt><trkpt lat="58.053528" lon="38.827122"><ele>94.0</ele><time>2023-10-19T14:54:43Z</time></trkpt><trkpt lat="58.053558" lon="38.826987"><ele>94.0</ele><time>2023-10-19T14:54:45Z</time></trkpt><trkpt lat="58.053592" lon="38.826803"><ele>94.0</ele><time>2023-10-19T14:54:48Z</time></trkpt><trkpt lat="58.053623" lon="38.826648"><ele>96.0</ele><time>2023-10-19T14:54:51Z</time></trkpt><trkpt lat="58.053625" lon="38.826503"><ele>95.0</ele><time>2023-10-19T14:55:45Z</time></trkpt><trkpt lat="58.053647" lon="38.826353"><ele>94.0</ele><time>2023-10-19T14:55:51Z</time></trkpt><trkpt lat="58.053702" lon="38.826262"><ele>93.0</ele><time>2023-10-19T14:55:55Z</time></trkpt><trkpt lat="58.053787" lon="38.826132"><ele>95.0</ele><time>2023-10-19T14:55:58Z</time></trkpt><trkpt lat="58.053835" lon="38.825982"><ele>96.0</ele><time>2023-10-19T14:56:00Z</time></trkpt><trkpt lat="58.05387" lon="38.825832"><ele>97.0</ele><time>2023-10-19T14:56:02Z</time></trkpt><trkpt lat="58.053908" lon="38.82564"><ele>97.0</ele><time>2023-10-19T14:56:04Z</time></trkpt><trkpt lat="58.053947" lon="38.825458"><ele>95.0</ele><time>2023-10-19T14:56:06Z</time></trkpt><trkpt lat="58.053985" lon="38.825285"><ele>96.0</ele><time>2023-10-19T14:56:08Z</time></trkpt><trkpt lat="58.054008" lon="38.825083"><ele>96.0</ele><time>2023-10-19T14:56:10Z</time></trkpt><trkpt lat="58.054062" lon="38.824942"><ele>97.0</ele><time>2023-10-19T14:56:12Z</time></trkpt><trkpt lat="58.0541" lon="38.82482"><ele>98.0</ele><time>2023-10-19T14:56:14Z</time></trkpt><trkpt lat="58.054138" lon="38.824628"><ele>98.0</ele><time>2023-10-19T14:56:17Z</time></trkpt><trkpt lat="58.054158" lon="38.824482"><ele>98.0</ele><time>2023-10-19T14:56:19Z</time></trkpt><trkpt lat="58.054187" lon="38.824333"><ele>96.0</ele><time>2023-10-19T14:56:21Z</time></trkpt><trkpt lat="58.054185" lon="38.82417"><ele>96.0</ele><time>2023-10-19T14:56:23Z</time></trkpt><trkpt lat="58.054163" lon="38.824025"><ele>96.0</ele><time>2023-10-19T14:56:25Z</time></trkpt><trkpt lat="58.054155" lon="38.823843"><ele>95.0</ele><time>2023-10-19T14:56:28Z</time></trkpt><trkpt lat="58.05419" lon="38.82372"><ele>94.0</ele><time>2023-10-19T14:56:30Z</time></trkpt><trkpt lat="58.054255" lon="38.823595"><ele>94.0</ele><time>2023-10-19T14:56:32Z</time></trkpt><trkpt lat="58.054322" lon="38.823417"><ele>92.0</ele><time>2023-10-19T14:56:34Z</time></trkpt><trkpt lat="58.05437" lon="38.823245"><ele>92.0</ele><time>2023-10-19T14:56:37Z</time></trkpt><trkpt lat="58.054397" lon="38.823118"><ele>94.0</ele><time>2023-10-19T14:56:39Z</time></trkpt><trkpt lat="58.054433" lon="38.822978"><ele>94.0</ele><time>2023-10-19T14:56:41Z</time></trkpt><trkpt lat="58.054453" lon="38.822813"><ele>94.0</ele><time>2023-10-19T14:56:43Z</time></trkpt><trkpt lat="58.054475" lon="38.82267"><ele>94.0</ele><time>2023-10-19T14:56:45Z</time></trkpt><trkpt lat="58.054503" lon="38.822527"><ele>94.0</ele><time>2023-10-19T14:56:47Z</time></trkpt><trkpt lat="58.054535" lon="38.822383"><ele>94.0</ele><time>2023-10-19T14:56:49Z</time></trkpt><trkpt lat="58.054558" lon="38.822248"><ele>94.0</ele><time>2023-10-19T14:56:51Z</time></trkpt><trkpt lat="58.054592" lon="38.82205"><ele>94.0</ele><time>2023-10-19T14:56:54Z</time></trkpt><trkpt lat="58.054617" lon="38.821853"><ele>95.0</ele><time>2023-10-19T14:56:56Z</time></trkpt><trkpt lat="58.054638" lon="38.821717"><ele>96.0</ele><time>2023-10-19T14:56:58Z</time></trkpt><trkpt lat="58.054662" lon="38.821527"><ele>96.0</ele><time>2023-10-19T14:57:01Z</time></trkpt><trkpt lat="58.054663" lon="38.821322"><ele>96.0</ele><time>2023-10-19T14:57:04Z</time></trkpt><trkpt lat="58.054685" lon="38.821135"><ele>95.0</ele><time>2023-10-19T14:57:07Z</time></trkpt><trkpt lat="58.054705" lon="38.820937"><ele>95.0</ele><time>2023-10-19T14:57:10Z</time></trkpt><trkpt lat="58.05472" lon="38.82074"><ele>95.0</ele><time>2023-10-19T14:57:12Z</time></trkpt><trkpt lat="58.054742" lon="38.820518"><ele>95.0</ele><time>2023-10-19T14:57:14Z</time></trkpt><trkpt lat="58.054748" lon="38.820352"><ele>95.0</ele><time>2023-10-19T14:57:16Z</time></trkpt><trkpt lat="58.054748" lon="38.82018"><ele>94.0</ele><time>2023-10-19T14:57:18Z</time></trkpt><trkpt lat="58.054765" lon="38.819972"><ele>94.0</ele><time>2023-10-19T14:57:20Z</time></trkpt><trkpt lat="58.054772" lon="38.819805"><ele>96.0</ele><time>2023-10-19T14:57:22Z</time></trkpt><trkpt lat="58.054778" lon="38.819645"><ele>94.0</ele><time>2023-10-19T14:57:24Z</time></trkpt><trkpt lat="58.054798" lon="38.819492"><ele>94.0</ele><time>2023-10-19T14:57:26Z</time></trkpt><trkpt lat="58.054808" lon="38.819348"><ele>95.0</ele><time>2023-10-19T14:57:28Z</time></trkpt><trkpt lat="58.054818" lon="38.819203"><ele>95.0</ele><time>2023-10-19T14:57:30Z</time></trkpt><trkpt lat="58.054825" lon="38.819042"><ele>97.0</ele><time>2023-10-19T14:57:34Z</time></trkpt><trkpt lat="58.054815" lon="38.818878"><ele>96.0</ele><time>2023-10-19T14:57:38Z</time></trkpt><trkpt lat="58.05484" lon="38.818693"><ele>96.0</ele><time>2023-10-19T14:57:41Z</time></trkpt><trkpt lat="58.05486" lon="38.818508"><ele>95.0</ele><time>2023-10-19T14:57:44Z</time></trkpt><trkpt lat="58.054863" lon="38.818323"><ele>95.0</ele><time>2023-10-19T14:57:47Z</time></trkpt><trkpt lat="58.054862" lon="38.818183"><ele>95.0</ele><time>2023-10-19T14:57:50Z</time></trkpt><trkpt lat="58.054868" lon="38.818047"><ele>95.0</ele><time>2023-10-19T14:57:53Z</time></trkpt><trkpt lat="58.054877" lon="38.817872"><ele>96.0</ele><time>2023-10-19T14:57:56Z</time></trkpt><trkpt lat="58.054893" lon="38.817702"><ele>95.0</ele><time>2023-10-19T14:57:59Z</time></trkpt><trkpt lat="58.054893" lon="38.81756"><ele>95.0</ele><time>2023-10-19T14:58:01Z</time></trkpt><trkpt lat="58.054887" lon="38.817377"><ele>93.0</ele><time>2023-10-19T14:58:04Z</time></trkpt><trkpt lat="58.054898" lon="38.817197"><ele>94.0</ele><time>2023-10-19T14:58:07Z</time></trkpt><trkpt lat="58.054912" lon="38.81705"><ele>93.0</ele><time>2023-10-19T14:58:09Z</time></trkpt><trkpt lat="58.054932" lon="38.816897"><ele>93.0</ele><time>2023-10-19T14:58:11Z</time></trkpt><trkpt lat="58.054962" lon="38.816713"><ele>94.0</ele><time>2023-10-19T14:58:13Z</time></trkpt><trkpt lat="58.054997" lon="38.816593"><ele>93.0</ele><time>2023-10-19T14:58:15Z</time></trkpt><trkpt lat="58.05501" lon="38.81642"><ele>94.0</ele><time>2023-10-19T14:58:18Z</time></trkpt><trkpt lat="58.055037" lon="38.816247"><ele>95.0</ele><time>2023-10-19T14:58:21Z</time></trkpt><trkpt lat="58.055087" lon="38.816147"><ele>93.0</ele><time>2023-10-19T14:58:59Z</time></trkpt><trkpt lat="58.05516" lon="38.816163"><ele>91.0</ele><time>2023-10-19T14:59:03Z</time></trkpt><trkpt lat="58.055248" lon="38.816192"><ele>92.0</ele><time>2023-10-19T14:59:06Z</time></trkpt><trkpt lat="58.055325" lon="38.816188"><ele>92.0</ele><time>2023-10-19T14:59:09Z</time></trkpt><trkpt lat="58.055348" lon="38.816033"><ele>91.0</ele><time>2023-10-19T14:59:13Z</time></trkpt><trkpt lat="58.055383" lon="38.815882"><ele>92.0</ele><time>2023-10-19T14:59:16Z</time></trkpt><trkpt lat="58.05543" lon="38.815732"><ele>92.0</ele><time>2023-10-19T14:59:19Z</time></trkpt><trkpt lat="58.055492" lon="38.815583"><ele>94.0</ele><time>2023-10-19T14:59:22Z</time></trkpt><trkpt lat="58.055538" lon="38.815477"><ele>95.0</ele><time>2023-10-19T14:59:24Z</time></trkpt><trkpt lat="58.055583" lon="38.815357"><ele>97.0</ele><time>2023-10-19T14:59:26Z</time></trkpt><trkpt lat="58.055628" lon="38.81524"><ele>97.0</ele><time>2023-10-19T14:59:28Z</time></trkpt><trkpt lat="58.055677" lon="38.815118"><ele>97.0</ele><time>2023-10-19T14:59:30Z</time></trkpt><trkpt lat="58.055728" lon="38.815008"><ele>97.0</ele><time>2023-10-19T14:59:32Z</time></trkpt><trkpt lat="58.05582" lon="38.814907"><ele>96.0</ele><time>2023-10-19T14:59:35Z</time></trkpt><trkpt lat="58.055885" lon="38.81476"><ele>96.0</ele><time>2023-10-19T14:59:38Z</time></trkpt><trkpt lat="58.05587" lon="38.81457"><ele>97.0</ele><time>2023-10-19T14:59:41Z</time></trkpt><trkpt lat="58.055848" lon="38.814368"><ele>97.0</ele><time>2023-10-19T14:59:44Z</time></trkpt><trkpt lat="58.055847" lon="38.81423"><ele>98.0</ele><time>2023-10-19T14:59:46Z</time></trkpt><trkpt lat="58.055852" lon="38.814093"><ele>97.0</ele><time>2023-10-19T14:59:48Z</time></trkpt><trkpt lat="58.055868" lon="38.81391"><ele>98.0</ele><time>2023-10-19T14:59:51Z</time></trkpt><trkpt lat="58.055863" lon="38.813747"><ele>98.0</ele><time>2023-10-19T14:59:54Z</time></trkpt><trkpt lat="58.055868" lon="38.8136"><ele>98.0</ele><time>2023-10-19T14:59:57Z</time></trkpt><trkpt lat="58.055893" lon="38.813465"><ele>97.0</ele><time>2023-10-19T15:00:00Z</time></trkpt><trkpt lat="58.055905" lon="38.813303"><ele>97.0</ele><time>2023-10-19T15:00:03Z</time></trkpt><trkpt lat="58.055922" lon="38.813135"><ele>98.0</ele><time>2023-10-19T15:00:06Z</time></trkpt><trkpt lat="58.055932" lon="38.812993"><ele>98.0</ele><time>2023-10-19T15:00:09Z</time></trkpt><trkpt lat="58.055942" lon="38.812827"><ele>98.0</ele><time>2023-10-19T15:00:13Z</time></trkpt><trkpt lat="58.055948" lon="38.81268"><ele>98.0</ele><time>2023-10-19T15:00:17Z</time></trkpt><trkpt lat="58.055977" lon="38.812533"><ele>97.0</ele><time>2023-10-19T15:00:22Z</time></trkpt><trkpt lat="58.055982" lon="38.812395"><ele>97.0</ele><time>2023-10-19T15:00:25Z</time></trkpt><trkpt lat="58.055968" lon="38.81221"><ele>97.0</ele><time>2023-10-19T15:00:28Z</time></trkpt><trkpt lat="58.055967" lon="38.812073"><ele>96.0</ele><time>2023-10-19T15:00:30Z</time></trkpt><trkpt lat="58.055968" lon="38.811873"><ele>96.0</ele><time>2023-10-19T15:00:33Z</time></trkpt><trkpt lat="58.055972" lon="38.811728"><ele>96.0</ele><time>2023-10-19T15:00:35Z</time></trkpt><trkpt lat="58.055993" lon="38.81154"><ele>98.0</ele><time>2023-10-19T15:00:38Z</time></trkpt><trkpt lat="58.056012" lon="38.811368"><ele>98.0</ele><time>2023-10-19T15:00:41Z</time></trkpt><trkpt lat="58.056008" lon="38.811225"><ele>97.0</ele><time>2023-10-19T15:00:44Z</time></trkpt><trkpt lat="58.055988" lon="38.811058"><ele>98.0</ele><time>2023-10-19T15:00:49Z</time></trkpt><trkpt lat="58.055992" lon="38.81092"><ele>98.0</ele><time>2023-10-19T15:00:52Z</time></trkpt><trkpt lat="58.055997" lon="38.810785"><ele>98.0</ele><time>2023-10-19T15:00:55Z</time></trkpt><trkpt lat="58.056005" lon="38.810625"><ele>98.0</ele><time>2023-10-19T15:00:59Z</time></trkpt><trkpt lat="58.056085" lon="38.810603"><ele>97.0</ele><time>2023-10-19T15:01:02Z</time></trkpt><trkpt lat="58.056162" lon="38.81063"><ele>97.0</ele><time>2023-10-19T15:01:04Z</time></trkpt><trkpt lat="58.056247" lon="38.810657"><ele>98.0</ele><time>2023-10-19T15:01:06Z</time></trkpt><trkpt lat="58.056328" lon="38.810687"><ele>98.0</ele><time>2023-10-19T15:01:08Z</time></trkpt><trkpt lat="58.05643" lon="38.810703"><ele>98.0</ele><time>2023-10-19T15:01:11Z</time></trkpt><trkpt lat="58.056523" lon="38.810732"><ele>99.0</ele><time>2023-10-19T15:01:14Z</time></trkpt><trkpt lat="58.0566" lon="38.810763"><ele>101.0</ele><time>2023-10-19T15:01:17Z</time></trkpt><trkpt lat="58.056703" lon="38.810783"><ele>100.0</ele><time>2023-10-19T15:01:21Z</time></trkpt><trkpt lat="58.056745" lon="38.810638"><ele>101.0</ele><time>2023-10-19T15:01:26Z</time></trkpt><trkpt lat="58.056773" lon="38.810472"><ele>100.0</ele><time>2023-10-19T15:01:29Z</time></trkpt><trkpt lat="58.056792" lon="38.810317"><ele>99.0</ele><time>2023-10-19T15:01:33Z</time></trkpt><trkpt lat="58.056795" lon="38.810125"><ele>96.0</ele><time>2023-10-19T15:01:36Z</time></trkpt><trkpt lat="58.056803" lon="38.809983"><ele>97.0</ele><time>2023-10-19T15:01:38Z</time></trkpt><trkpt lat="58.056812" lon="38.809832"><ele>98.0</ele><time>2023-10-19T15:01:41Z</time></trkpt><trkpt lat="58.05683" lon="38.809697"><ele>99.0</ele><time>2023-10-19T15:01:44Z</time></trkpt><trkpt lat="58.056915" lon="38.809648"><ele>101.0</ele><time>2023-10-19T15:01:47Z</time></trkpt><trkpt lat="58.056997" lon="38.809643"><ele>101.0</ele><time>2023-10-19T15:01:49Z</time></trkpt><trkpt lat="58.057052" lon="38.809437"><ele>101.0</ele><time>2023-10-19T15:01:51Z</time></trkpt><trkpt lat="58.057095" lon="38.809278"><ele>100.0</ele><time>2023-10-19T15:01:53Z</time></trkpt><trkpt lat="58.057162" lon="38.809208"><ele>101.0</ele><time>2023-10-19T15:01:55Z</time></trkpt><trkpt lat="58.057223" lon="38.809117"><ele>103.0</ele><time>2023-10-19T15:01:58Z</time></trkpt><trkpt lat="58.05729" lon="38.80905"><ele>103.0</ele><time>2023-10-19T15:02:00Z</time></trkpt><trkpt lat="58.057385" lon="38.808993"><ele>103.0</ele><time>2023-10-19T15:02:03Z</time></trkpt><trkpt lat="58.057462" lon="38.808968"><ele>103.0</ele><time>2023-10-19T15:02:06Z</time></trkpt><trkpt lat="58.057575" lon="38.808855"><ele>103.0</ele><time>2023-10-19T15:02:08Z</time></trkpt><trkpt lat="58.057683" lon="38.808803"><ele>104.0</ele><time>2023-10-19T15:02:10Z</time></trkpt><trkpt lat="58.057808" lon="38.80879"><ele>103.0</ele><time>2023-10-19T15:02:12Z</time></trkpt><trkpt lat="58.057933" lon="38.808813"><ele>103.0</ele><time>2023-10-19T15:02:14Z</time></trkpt><trkpt lat="58.058055" lon="38.80887"><ele>103.0</ele><time>2023-10-19T15:02:16Z</time></trkpt><trkpt lat="58.058173" lon="38.808873"><ele>103.0</ele><time>2023-10-19T15:02:18Z</time></trkpt><trkpt lat="58.058252" lon="38.808868"><ele>103.0</ele><time>2023-10-19T15:02:19Z</time></trkpt><trkpt lat="58.058373" lon="38.808922"><ele>102.0</ele><time>2023-10-19T15:02:21Z</time></trkpt><trkpt lat="58.058465" lon="38.808897"><ele>103.0</ele><time>2023-10-19T15:02:23Z</time></trkpt><trkpt lat="58.05857" lon="38.808862"><ele>102.0</ele><time>2023-10-19T15:02:25Z</time></trkpt><trkpt lat="58.058542" lon="38.808718"><ele>102.0</ele><time>2023-10-19T15:02:26Z</time></trkpt><trkpt lat="58.058565" lon="38.80851"><ele>101.0</ele><time>2023-10-19T15:02:28Z</time></trkpt><trkpt lat="58.058582" lon="38.808323"><ele>101.0</ele><time>2023-10-19T15:02:30Z</time></trkpt><trkpt lat="58.058585" lon="38.808155"><ele>102.0</ele><time>2023-10-19T15:02:32Z</time></trkpt><trkpt lat="58.058597" lon="38.807943"><ele>102.0</ele><time>2023-10-19T15:02:34Z</time></trkpt><trkpt lat="58.058633" lon="38.807755"><ele>102.0</ele><time>2023-10-19T15:02:36Z</time></trkpt></trkseg></trk></gpx>