<?xml version="1.0" encoding="UTF-8" standalone="no"?><gpx xmlns="http://www.topografix.com/GPX/1/1" xmlns:gpxtpx="http://www.garmin.com/xmlschemas/TrackPointExtension/v1" xmlns:xsi="http://www.w3.org/2001/XMLSchema-instance" creator="Sports Tracker" version="1.1" xsi:schemaLocation="http://www.topografix.com/GPX/1/1 http://www.topografix.com/GPX/1/1/gpx.xsd http://www.garmin.com/xmlschemas/TrackPointExtension/v1 http://www.garmin.com/xmlschemas/TrackPointExtensionv1.xsd"><metadata><name/><desc/><author><name>Александр</name></author></metadata><trk><name/><trkseg><trkpt lat="58.028982" lon="38.86227"><ele>98.0</ele><time>2022-08-16T16:57:46Z</time></trkpt><trkpt lat="58.029005" lon="38.86213"><ele>99.0</ele><time>2022-08-16T16:57:51Z</time></trkpt><trkpt lat="58.029068" lon="38.861977"><ele>99.0</ele><time>2022-08-16T16:57:55Z</time></trkpt><trkpt lat="58.02913" lon="38.8619"><ele>99.0</ele><time>2022-08-16T16:57:57Z</time></trkpt><trkpt lat="58.029202" lon="38.861842"><ele>100.0</ele><time>2022-08-16T16:57:59Z</time></trkpt><trkpt lat="58.02929" lon="38.861792"><ele>101.0</ele><time>2022-08-16T16:58:02Z</time></trkpt><trkpt lat="58.029372" lon="38.86175"><ele>101.0</ele><time>2022-08-16T16:58:05Z</time></trkpt><trkpt lat="58.029445" lon="38.861705"><ele>101.0</ele><time>2022-08-16T16:58:07Z</time></trkpt><trkpt lat="58.029518" lon="38.861647"><ele>101.0</ele><time>2022-08-16T16:58:09Z</time></trkpt><trkpt lat="58.029585" lon="38.861592"><ele>100.0</ele><time>2022-08-16T16:58:11Z</time></trkpt><trkpt lat="58.029668" lon="38.861505"><ele>99.0</ele><time>2022-08-16T16:58:14Z</time></trkpt><trkpt lat="58.029733" lon="38.861442"><ele>99.0</ele><time>2022-08-16T16:58:16Z</time></trkpt><trkpt lat="58.0298" lon="38.861385"><ele>99.0</ele><time>2022-08-16T16:58:18Z</time></trkpt><trkpt lat="58.029897" lon="38.861295"><ele>99.0</ele><time>2022-08-16T16:58:21Z</time></trkpt><trkpt lat="58.029965" lon="38.86122"><ele>99.0</ele><time>2022-08-16T16:58:23Z</time></trkpt><trkpt lat="58.030037" lon="38.861145"><ele>99.0</ele><time>2022-08-16T16:58:25Z</time></trkpt><trkpt lat="58.030102" lon="38.861087"><ele>99.0</ele><time>2022-08-16T16:58:27Z</time></trkpt><trkpt lat="58.030192" lon="38.861"><ele>98.0</ele><time>2022-08-16T16:58:30Z</time></trkpt><trkpt lat="58.030272" lon="38.860883"><ele>99.0</ele><time>2022-08-16T16:58:33Z</time></trkpt><trkpt lat="58.030352" lon="38.860772"><ele>99.0</ele><time>2022-08-16T16:58:36Z</time></trkpt><trkpt lat="58.030433" lon="38.860693"><ele>99.0</ele><time>2022-08-16T16:58:39Z</time></trkpt><trkpt lat="58.030525" lon="38.860633"><ele>99.0</ele><time>2022-08-16T16:58:42Z</time></trkpt><trkpt lat="58.030617" lon="38.860662"><ele>98.0</ele><time>2022-08-16T16:58:45Z</time></trkpt><trkpt lat="58.030708" lon="38.860737"><ele>98.0</ele><time>2022-08-16T16:58:48Z</time></trkpt><trkpt lat="58.030795" lon="38.860835"><ele>98.0</ele><time>2022-08-16T16:58:51Z</time></trkpt><trkpt lat="58.03088" lon="38.860935"><ele>98.0</ele><time>2022-08-16T16:58:54Z</time></trkpt><trkpt lat="58.030948" lon="38.861033"><ele>97.0</ele><time>2022-08-16T16:58:57Z</time></trkpt><trkpt lat="58.031027" lon="38.861098"><ele>96.0</ele><time>2022-08-16T16:59:00Z</time></trkpt><trkpt lat="58.031115" lon="38.861165"><ele>96.0</ele><time>2022-08-16T16:59:03Z</time></trkpt><trkpt lat="58.031195" lon="38.861232"><ele>96.0</ele><time>2022-08-16T16:59:06Z</time></trkpt><trkpt lat="58.031285" lon="38.861325"><ele>95.0</ele><time>2022-08-16T16:59:09Z</time></trkpt><trkpt lat="58.031363" lon="38.861427"><ele>95.0</ele><time>2022-08-16T16:59:12Z</time></trkpt><trkpt lat="58.031448" lon="38.861508"><ele>95.0</ele><time>2022-08-16T16:59:15Z</time></trkpt><trkpt lat="58.031543" lon="38.861545"><ele>96.0</ele><time>2022-08-16T16:59:18Z</time></trkpt><trkpt lat="58.031648" lon="38.861552"><ele>96.0</ele><time>2022-08-16T16:59:21Z</time></trkpt><trkpt lat="58.031738" lon="38.861563"><ele>97.0</ele><time>2022-08-16T16:59:24Z</time></trkpt><trkpt lat="58.031823" lon="38.861602"><ele>96.0</ele><time>2022-08-16T16:59:27Z</time></trkpt><trkpt lat="58.031887" lon="38.8617"><ele>96.0</ele><time>2022-08-16T16:59:30Z</time></trkpt><trkpt lat="58.031915" lon="38.861853"><ele>96.0</ele><time>2022-08-16T16:59:33Z</time></trkpt><trkpt lat="58.031893" lon="38.862015"><ele>95.0</ele><time>2022-08-16T16:59:36Z</time></trkpt><trkpt lat="58.031835" lon="38.862155"><ele>95.0</ele><time>2022-08-16T16:59:39Z</time></trkpt><trkpt lat="58.031768" lon="38.862222"><ele>96.0</ele><time>2022-08-16T16:59:42Z</time></trkpt><trkpt lat="58.031675" lon="38.862233"><ele>97.0</ele><time>2022-08-16T16:59:45Z</time></trkpt><trkpt lat="58.031583" lon="38.862195"><ele>97.0</ele><time>2022-08-16T16:59:48Z</time></trkpt><trkpt lat="58.031502" lon="38.862142"><ele>98.0</ele><time>2022-08-16T16:59:51Z</time></trkpt><trkpt lat="58.031425" lon="38.862053"><ele>98.0</ele><time>2022-08-16T16:59:54Z</time></trkpt><trkpt lat="58.031362" lon="38.86195"><ele>98.0</ele><time>2022-08-16T16:59:57Z</time></trkpt><trkpt lat="58.03129" lon="38.861857"><ele>98.0</ele><time>2022-08-16T17:00:00Z</time></trkpt><trkpt lat="58.031208" lon="38.861775"><ele>98.0</ele><time>2022-08-16T17:00:03Z</time></trkpt><trkpt lat="58.031128" lon="38.861695"><ele>98.0</ele><time>2022-08-16T17:00:06Z</time></trkpt><trkpt lat="58.031053" lon="38.86162"><ele>97.0</ele><time>2022-08-16T17:00:09Z</time></trkpt><trkpt lat="58.030978" lon="38.86153"><ele>97.0</ele><time>2022-08-16T17:00:12Z</time></trkpt><trkpt lat="58.03091" lon="38.861452"><ele>97.0</ele><time>2022-08-16T17:00:15Z</time></trkpt><trkpt lat="58.030825" lon="38.861362"><ele>97.0</ele><time>2022-08-16T17:00:18Z</time></trkpt><trkpt lat="58.03075" lon="38.861272"><ele>97.0</ele><time>2022-08-16T17:00:21Z</time></trkpt><trkpt lat="58.030667" lon="38.861175"><ele>97.0</ele><time>2022-08-16T17:00:24Z</time></trkpt><trkpt lat="58.030588" lon="38.861128"><ele>97.0</ele><time>2022-08-16T17:00:27Z</time></trkpt><trkpt lat="58.030503" lon="38.86115"><ele>97.0</ele><time>2022-08-16T17:00:31Z</time></trkpt><trkpt lat="58.030545" lon="38.861312"><ele>97.0</ele><time>2022-08-16T17:00:35Z</time></trkpt><trkpt lat="58.030627" lon="38.861408"><ele>98.0</ele><time>2022-08-16T17:00:38Z</time></trkpt><trkpt lat="58.03108" lon="38.861973"><ele>99.0</ele><time>2022-08-16T17:00:56Z</time></trkpt><trkpt lat="58.031152" lon="38.862068"><ele>99.0</ele><time>2022-08-16T17:00:59Z</time></trkpt><trkpt lat="58.03123" lon="38.862155"><ele>99.0</ele><time>2022-08-16T17:01:02Z</time></trkpt><trkpt lat="58.031317" lon="38.862252"><ele>100.0</ele><time>2022-08-16T17:01:05Z</time></trkpt><trkpt lat="58.031383" lon="38.862318"><ele>100.0</ele><time>2022-08-16T17:01:07Z</time></trkpt><trkpt lat="58.03147" lon="38.862417"><ele>101.0</ele><time>2022-08-16T17:01:10Z</time></trkpt><trkpt lat="58.031547" lon="38.862515"><ele>101.0</ele><time>2022-08-16T17:01:13Z</time></trkpt><trkpt lat="58.031623" lon="38.862607"><ele>100.0</ele><time>2022-08-16T17:01:16Z</time></trkpt><trkpt lat="58.031692" lon="38.86271"><ele>100.0</ele><time>2022-08-16T17:01:19Z</time></trkpt><trkpt lat="58.031733" lon="38.862843"><ele>99.0</ele><time>2022-08-16T17:01:22Z</time></trkpt><trkpt lat="58.031675" lon="38.86293"><ele>99.0</ele><time>2022-08-16T17:01:25Z</time></trkpt><trkpt lat="58.031597" lon="38.862892"><ele>99.0</ele><time>2022-08-16T17:01:27Z</time></trkpt><trkpt lat="58.031513" lon="38.862777"><ele>99.0</ele><time>2022-08-16T17:01:30Z</time></trkpt><trkpt lat="58.031437" lon="38.862667"><ele>99.0</ele><time>2022-08-16T17:01:33Z</time></trkpt><trkpt lat="58.031365" lon="38.862582"><ele>99.0</ele><time>2022-08-16T17:01:36Z</time></trkpt><trkpt lat="58.031293" lon="38.862507"><ele>99.0</ele><time>2022-08-16T17:01:39Z</time></trkpt><trkpt lat="58.031202" lon="38.862442"><ele>98.0</ele><time>2022-08-16T17:01:42Z</time></trkpt><trkpt lat="58.031127" lon="38.862367"><ele>99.0</ele><time>2022-08-16T17:01:45Z</time></trkpt><trkpt lat="58.031052" lon="38.862275"><ele>99.0</ele><time>2022-08-16T17:01:48Z</time></trkpt><trkpt lat="58.030977" lon="38.862177"><ele>98.0</ele><time>2022-08-16T17:01:51Z</time></trkpt><trkpt lat="58.030903" lon="38.862072"><ele>98.0</ele><time>2022-08-16T17:01:54Z</time></trkpt><trkpt lat="58.030825" lon="38.861962"><ele>98.0</ele><time>2022-08-16T17:01:57Z</time></trkpt><trkpt lat="58.030748" lon="38.861858"><ele>98.0</ele><time>2022-08-16T17:02:00Z</time></trkpt><trkpt lat="58.030675" lon="38.861745"><ele>98.0</ele><time>2022-08-16T17:02:03Z</time></trkpt><trkpt lat="58.030577" lon="38.861687"><ele>98.0</ele><time>2022-08-16T17:02:06Z</time></trkpt><trkpt lat="58.03049" lon="38.861633"><ele>98.0</ele><time>2022-08-16T17:02:09Z</time></trkpt><trkpt lat="58.03042" lon="38.861703"><ele>99.0</ele><time>2022-08-16T17:02:13Z</time></trkpt><trkpt lat="58.030453" lon="38.861878"><ele>99.0</ele><time>2022-08-16T17:02:16Z</time></trkpt><trkpt lat="58.030505" lon="38.861973"><ele>99.0</ele><time>2022-08-16T17:02:18Z</time></trkpt><trkpt lat="58.030587" lon="38.862083"><ele>100.0</ele><time>2022-08-16T17:02:21Z</time></trkpt><trkpt lat="58.030658" lon="38.862193"><ele>100.0</ele><time>2022-08-16T17:02:24Z</time></trkpt><trkpt lat="58.03073" lon="38.862313"><ele>100.0</ele><time>2022-08-16T17:02:27Z</time></trkpt><trkpt lat="58.03081" lon="38.862412"><ele>101.0</ele><time>2022-08-16T17:02:30Z</time></trkpt><trkpt lat="58.030893" lon="38.862485"><ele>101.0</ele><time>2022-08-16T17:02:33Z</time></trkpt><trkpt lat="58.030955" lon="38.862572"><ele>100.0</ele><time>2022-08-16T17:02:36Z</time></trkpt><trkpt lat="58.03103" lon="38.86265"><ele>100.0</ele><time>2022-08-16T17:02:39Z</time></trkpt><trkpt lat="58.031105" lon="38.862723"><ele>100.0</ele><time>2022-08-16T17:02:42Z</time></trkpt><trkpt lat="58.031193" lon="38.862775"><ele>101.0</ele><time>2022-08-16T17:02:45Z</time></trkpt><trkpt lat="58.03128" lon="38.862822"><ele>100.0</ele><time>2022-08-16T17:02:48Z</time></trkpt><trkpt lat="58.03137" lon="38.862885"><ele>100.0</ele><time>2022-08-16T17:02:51Z</time></trkpt><trkpt lat="58.031453" lon="38.862973"><ele>100.0</ele><time>2022-08-16T17:02:54Z</time></trkpt><trkpt lat="58.031527" lon="38.863083"><ele>99.0</ele><time>2022-08-16T17:02:57Z</time></trkpt><trkpt lat="58.031562" lon="38.863248"><ele>99.0</ele><time>2022-08-16T17:03:00Z</time></trkpt><trkpt lat="58.031567" lon="38.86342"><ele>99.0</ele><time>2022-08-16T17:03:03Z</time></trkpt><trkpt lat="58.03153" lon="38.86358"><ele>99.0</ele><time>2022-08-16T17:03:06Z</time></trkpt><trkpt lat="58.031448" lon="38.863635"><ele>99.0</ele><time>2022-08-16T17:03:09Z</time></trkpt><trkpt lat="58.031352" lon="38.863583"><ele>99.0</ele><time>2022-08-16T17:03:12Z</time></trkpt><trkpt lat="58.031262" lon="38.86349"><ele>99.0</ele><time>2022-08-16T17:03:15Z</time></trkpt><trkpt lat="58.031175" lon="38.863402"><ele>100.0</ele><time>2022-08-16T17:03:18Z</time></trkpt><trkpt lat="58.0311" lon="38.863312"><ele>100.0</ele><time>2022-08-16T17:03:21Z</time></trkpt><trkpt lat="58.031025" lon="38.863212"><ele>101.0</ele><time>2022-08-16T17:03:24Z</time></trkpt><trkpt lat="58.030958" lon="38.863108"><ele>101.0</ele><time>2022-08-16T17:03:27Z</time></trkpt><trkpt lat="58.030882" lon="38.863005"><ele>100.0</ele><time>2022-08-16T17:03:30Z</time></trkpt><trkpt lat="58.030808" lon="38.862893"><ele>100.0</ele><time>2022-08-16T17:03:33Z</time></trkpt><trkpt lat="58.03074" lon="38.862777"><ele>100.0</ele><time>2022-08-16T17:03:36Z</time></trkpt><trkpt lat="58.030668" lon="38.862665"><ele>100.0</ele><time>2022-08-16T17:03:39Z</time></trkpt><trkpt lat="58.030603" lon="38.862548"><ele>100.0</ele><time>2022-08-16T17:03:42Z</time></trkpt><trkpt lat="58.03054" lon="38.86243"><ele>100.0</ele><time>2022-08-16T17:03:45Z</time></trkpt><trkpt lat="58.030478" lon="38.862308"><ele>100.0</ele><time>2022-08-16T17:03:48Z</time></trkpt><trkpt lat="58.030423" lon="38.862183"><ele>100.0</ele><time>2022-08-16T17:03:51Z</time></trkpt><trkpt lat="58.030367" lon="38.862055"><ele>100.0</ele><time>2022-08-16T17:03:54Z</time></trkpt><trkpt lat="58.030313" lon="38.86193"><ele>100.0</ele><time>2022-08-16T17:03:57Z</time></trkpt><trkpt lat="58.030263" lon="38.861795"><ele>100.0</ele><time>2022-08-16T17:04:00Z</time></trkpt><trkpt lat="58.030223" lon="38.861662"><ele>99.0</ele><time>2022-08-16T17:04:03Z</time></trkpt><trkpt lat="58.030162" lon="38.861547"><ele>99.0</ele><time>2022-08-16T17:04:06Z</time></trkpt><trkpt lat="58.030082" lon="38.861517"><ele>98.0</ele><time>2022-08-16T17:04:10Z</time></trkpt><trkpt lat="58.030015" lon="38.861618"><ele>98.0</ele><time>2022-08-16T17:04:13Z</time></trkpt><trkpt lat="58.029935" lon="38.861732"><ele>99.0</ele><time>2022-08-16T17:04:16Z</time></trkpt><trkpt lat="58.029867" lon="38.861835"><ele>99.0</ele><time>2022-08-16T17:04:19Z</time></trkpt><trkpt lat="58.029798" lon="38.861925"><ele>99.0</ele><time>2022-08-16T17:04:22Z</time></trkpt><trkpt lat="58.02973" lon="38.862008"><ele>99.0</ele><time>2022-08-16T17:04:25Z</time></trkpt><trkpt lat="58.029662" lon="38.862107"><ele>100.0</ele><time>2022-08-16T17:04:28Z</time></trkpt><trkpt lat="58.029577" lon="38.86216"><ele>100.0</ele><time>2022-08-16T17:04:31Z</time></trkpt><trkpt lat="58.029497" lon="38.862125"><ele>100.0</ele><time>2022-08-16T17:04:34Z</time></trkpt><trkpt lat="58.029412" lon="38.862085"><ele>101.0</ele><time>2022-08-16T17:04:37Z</time></trkpt><trkpt lat="58.02933" lon="38.86204"><ele>100.0</ele><time>2022-08-16T17:04:40Z</time></trkpt><trkpt lat="58.029242" lon="38.862048"><ele>99.0</ele><time>2022-08-16T17:04:43Z</time></trkpt><trkpt lat="58.02916" lon="38.862075"><ele>99.0</ele><time>2022-08-16T17:04:46Z</time></trkpt><trkpt lat="58.029097" lon="38.86217"><ele>99.0</ele><time>2022-08-16T17:04:50Z</time></trkpt><trkpt lat="58.029097" lon="38.86231"><ele>99.0</ele><time>2022-08-16T17:04:53Z</time></trkpt><trkpt lat="58.029175" lon="38.862413"><ele>100.0</ele><time>2022-08-16T17:04:56Z</time></trkpt><trkpt lat="58.029272" lon="38.862452"><ele>100.0</ele><time>2022-08-16T17:04:59Z</time></trkpt><trkpt lat="58.02937" lon="38.862483"><ele>99.0</ele><time>2022-08-16T17:05:02Z</time></trkpt><trkpt lat="58.029452" lon="38.862517"><ele>100.0</ele><time>2022-08-16T17:05:05Z</time></trkpt><trkpt lat="58.029533" lon="38.862543"><ele>100.0</ele><time>2022-08-16T17:05:08Z</time></trkpt><trkpt lat="58.029607" lon="38.862567"><ele>101.0</ele><time>2022-08-16T17:05:11Z</time></trkpt><trkpt lat="58.029685" lon="38.8626"><ele>102.0</ele><time>2022-08-16T17:05:14Z</time></trkpt><trkpt lat="58.029772" lon="38.862628"><ele>101.0</ele><time>2022-08-16T17:05:17Z</time></trkpt><trkpt lat="58.029855" lon="38.862652"><ele>102.0</ele><time>2022-08-16T17:05:20Z</time></trkpt><trkpt lat="58.029937" lon="38.862692"><ele>102.0</ele><time>2022-08-16T17:05:23Z</time></trkpt><trkpt lat="58.030017" lon="38.862695"><ele>102.0</ele><time>2022-08-16T17:05:26Z</time></trkpt><trkpt lat="58.030102" lon="38.862715"><ele>102.0</ele><time>2022-08-16T17:05:29Z</time></trkpt><trkpt lat="58.030197" lon="38.862772"><ele>102.0</ele><time>2022-08-16T17:05:32Z</time></trkpt><trkpt lat="58.03028" lon="38.862825"><ele>101.0</ele><time>2022-08-16T17:05:35Z</time></trkpt><trkpt lat="58.03036" lon="38.862862"><ele>102.0</ele><time>2022-08-16T17:05:38Z</time></trkpt><trkpt lat="58.030452" lon="38.862887"><ele>101.0</ele><time>2022-08-16T17:05:41Z</time></trkpt><trkpt lat="58.030538" lon="38.862932"><ele>101.0</ele><time>2022-08-16T17:05:44Z</time></trkpt><trkpt lat="58.030617" lon="38.863023"><ele>100.0</ele><time>2022-08-16T17:05:47Z</time></trkpt><trkpt lat="58.030683" lon="38.863153"><ele>100.0</ele><time>2022-08-16T17:05:50Z</time></trkpt><trkpt lat="58.03075" lon="38.86328"><ele>100.0</ele><time>2022-08-16T17:05:53Z</time></trkpt><trkpt lat="58.030825" lon="38.863393"><ele>100.0</ele><time>2022-08-16T17:05:56Z</time></trkpt><trkpt lat="58.0309" lon="38.863492"><ele>99.0</ele><time>2022-08-16T17:05:59Z</time></trkpt><trkpt lat="58.030983" lon="38.863563"><ele>99.0</ele><time>2022-08-16T17:06:02Z</time></trkpt><trkpt lat="58.03107" lon="38.863633"><ele>99.0</ele><time>2022-08-16T17:06:05Z</time></trkpt><trkpt lat="58.031155" lon="38.863717"><ele>99.0</ele><time>2022-08-16T17:06:08Z</time></trkpt><trkpt lat="58.031228" lon="38.863833"><ele>98.0</ele><time>2022-08-16T17:06:11Z</time></trkpt><trkpt lat="58.03127" lon="38.863983"><ele>98.0</ele><time>2022-08-16T17:06:14Z</time></trkpt><trkpt lat="58.031277" lon="38.864142"><ele>97.0</ele><time>2022-08-16T17:06:17Z</time></trkpt><trkpt lat="58.03122" lon="38.86428"><ele>98.0</ele><time>2022-08-16T17:06:20Z</time></trkpt><trkpt lat="58.031125" lon="38.864278"><ele>98.0</ele><time>2022-08-16T17:06:23Z</time></trkpt><trkpt lat="58.031032" lon="38.864198"><ele>98.0</ele><time>2022-08-16T17:06:26Z</time></trkpt><trkpt lat="58.030943" lon="38.864118"><ele>99.0</ele><time>2022-08-16T17:06:29Z</time></trkpt><trkpt lat="58.030857" lon="38.864043"><ele>99.0</ele><time>2022-08-16T17:06:32Z</time></trkpt><trkpt lat="58.03077" lon="38.863977"><ele>99.0</ele><time>2022-08-16T17:06:35Z</time></trkpt><trkpt lat="58.030693" lon="38.863895"><ele>99.0</ele><time>2022-08-16T17:06:38Z</time></trkpt><trkpt lat="58.030603" lon="38.86381"><ele>99.0</ele><time>2022-08-16T17:06:41Z</time></trkpt><trkpt lat="58.030517" lon="38.863752"><ele>99.0</ele><time>2022-08-16T17:06:44Z</time></trkpt><trkpt lat="58.030425" lon="38.863707"><ele>100.0</ele><time>2022-08-16T17:06:47Z</time></trkpt><trkpt lat="58.030335" lon="38.863643"><ele>101.0</ele><time>2022-08-16T17:06:50Z</time></trkpt><trkpt lat="58.030235" lon="38.863592"><ele>102.0</ele><time>2022-08-16T17:06:53Z</time></trkpt><trkpt lat="58.030137" lon="38.863595"><ele>103.0</ele><time>2022-08-16T17:06:56Z</time></trkpt><trkpt lat="58.030035" lon="38.863588"><ele>103.0</ele><time>2022-08-16T17:06:59Z</time></trkpt><trkpt lat="58.029932" lon="38.863577"><ele>103.0</ele><time>2022-08-16T17:07:02Z</time></trkpt><trkpt lat="58.029833" lon="38.863562"><ele>103.0</ele><time>2022-08-16T17:07:05Z</time></trkpt><trkpt lat="58.029735" lon="38.86349"><ele>103.0</ele><time>2022-08-16T17:07:08Z</time></trkpt><trkpt lat="58.029663" lon="38.863422"><ele>103.0</ele><time>2022-08-16T17:07:10Z</time></trkpt><trkpt lat="58.029595" lon="38.863345"><ele>103.0</ele><time>2022-08-16T17:07:12Z</time></trkpt><trkpt lat="58.029532" lon="38.863275"><ele>102.0</ele><time>2022-08-16T17:07:14Z</time></trkpt><trkpt lat="58.029448" lon="38.863188"><ele>101.0</ele><time>2022-08-16T17:07:17Z</time></trkpt><trkpt lat="58.029388" lon="38.86311"><ele>101.0</ele><time>2022-08-16T17:07:19Z</time></trkpt><trkpt lat="58.02932" lon="38.862978"><ele>100.0</ele><time>2022-08-16T17:07:22Z</time></trkpt><trkpt lat="58.02925" lon="38.862848"><ele>101.0</ele><time>2022-08-16T17:07:25Z</time></trkpt><trkpt lat="58.02918" lon="38.862708"><ele>101.0</ele><time>2022-08-16T17:07:28Z</time></trkpt><trkpt lat="58.029107" lon="38.862595"><ele>101.0</ele><time>2022-08-16T17:07:31Z</time></trkpt><trkpt lat="58.029087" lon="38.862757"><ele>99.0</ele><time>2022-08-16T17:07:37Z</time></trkpt><trkpt lat="58.029143" lon="38.86285"><ele>100.0</ele><time>2022-08-16T17:07:39Z</time></trkpt><trkpt lat="58.029217" lon="38.862973"><ele>100.0</ele><time>2022-08-16T17:07:42Z</time></trkpt><trkpt lat="58.029292" lon="38.863082"><ele>100.0</ele><time>2022-08-16T17:07:45Z</time></trkpt><trkpt lat="58.029382" lon="38.863187"><ele>100.0</ele><time>2022-08-16T17:07:48Z</time></trkpt><trkpt lat="58.029475" lon="38.863278"><ele>100.0</ele><time>2022-08-16T17:07:51Z</time></trkpt><trkpt lat="58.02956" lon="38.863342"><ele>101.0</ele><time>2022-08-16T17:07:54Z</time></trkpt><trkpt lat="58.029633" lon="38.863423"><ele>102.0</ele><time>2022-08-16T17:07:57Z</time></trkpt><trkpt lat="58.029718" lon="38.863515"><ele>103.0</ele><time>2022-08-16T17:08:00Z</time></trkpt><trkpt lat="58.029808" lon="38.863598"><ele>103.0</ele><time>2022-08-16T17:08:03Z</time></trkpt><trkpt lat="58.029892" lon="38.863728"><ele>103.0</ele><time>2022-08-16T17:08:06Z</time></trkpt><trkpt lat="58.029978" lon="38.863853"><ele>104.0</ele><time>2022-08-16T17:08:09Z</time></trkpt><trkpt lat="58.030037" lon="38.863953"><ele>105.0</ele><time>2022-08-16T17:08:11Z</time></trkpt><trkpt lat="58.030097" lon="38.86405"><ele>105.0</ele><time>2022-08-16T17:08:13Z</time></trkpt><trkpt lat="58.030182" lon="38.864172"><ele>104.0</ele><time>2022-08-16T17:08:16Z</time></trkpt><trkpt lat="58.03027" lon="38.86426"><ele>104.0</ele><time>2022-08-16T17:08:19Z</time></trkpt><trkpt lat="58.030352" lon="38.864352"><ele>104.0</ele><time>2022-08-16T17:08:22Z</time></trkpt><trkpt lat="58.030432" lon="38.864452"><ele>104.0</ele><time>2022-08-16T17:08:25Z</time></trkpt><trkpt lat="58.030505" lon="38.86457"><ele>103.0</ele><time>2022-08-16T17:08:28Z</time></trkpt><trkpt lat="58.030582" lon="38.864673"><ele>103.0</ele><time>2022-08-16T17:08:31Z</time></trkpt><trkpt lat="58.030665" lon="38.864782"><ele>102.0</ele><time>2022-08-16T17:08:34Z</time></trkpt><trkpt lat="58.030727" lon="38.8649"><ele>101.0</ele><time>2022-08-16T17:08:37Z</time></trkpt><trkpt lat="58.030783" lon="38.865005"><ele>101.0</ele><time>2022-08-16T17:08:40Z</time></trkpt><trkpt lat="58.030858" lon="38.865117"><ele>100.0</ele><time>2022-08-16T17:08:43Z</time></trkpt><trkpt lat="58.030943" lon="38.865223"><ele>100.0</ele><time>2022-08-16T17:08:46Z</time></trkpt><trkpt lat="58.03101" lon="38.865343"><ele>100.0</ele><time>2022-08-16T17:08:49Z</time></trkpt><trkpt lat="58.031038" lon="38.865507"><ele>99.0</ele><time>2022-08-16T17:08:52Z</time></trkpt><trkpt lat="58.031" lon="38.865665"><ele>99.0</ele><time>2022-08-16T17:08:55Z</time></trkpt><trkpt lat="58.03093" lon="38.865702"><ele>99.0</ele><time>2022-08-16T17:08:57Z</time></trkpt><trkpt lat="58.03086" lon="38.86565"><ele>98.0</ele><time>2022-08-16T17:08:59Z</time></trkpt><trkpt lat="58.030802" lon="38.865563"><ele>98.0</ele><time>2022-08-16T17:09:01Z</time></trkpt><trkpt lat="58.030742" lon="38.865478"><ele>99.0</ele><time>2022-08-16T17:09:03Z</time></trkpt><trkpt lat="58.03068" lon="38.865392"><ele>99.0</ele><time>2022-08-16T17:09:05Z</time></trkpt><trkpt lat="58.030617" lon="38.865313"><ele>100.0</ele><time>2022-08-16T17:09:07Z</time></trkpt><trkpt lat="58.030555" lon="38.865242"><ele>100.0</ele><time>2022-08-16T17:09:09Z</time></trkpt><trkpt lat="58.030492" lon="38.86516"><ele>100.0</ele><time>2022-08-16T17:09:11Z</time></trkpt><trkpt lat="58.030422" lon="38.86509"><ele>101.0</ele><time>2022-08-16T17:09:13Z</time></trkpt><trkpt lat="58.030357" lon="38.865027"><ele>102.0</ele><time>2022-08-16T17:09:15Z</time></trkpt><trkpt lat="58.030262" lon="38.864925"><ele>102.0</ele><time>2022-08-16T17:09:18Z</time></trkpt><trkpt lat="58.030167" lon="38.864837"><ele>102.0</ele><time>2022-08-16T17:09:21Z</time></trkpt><trkpt lat="58.030085" lon="38.864753"><ele>103.0</ele><time>2022-08-16T17:09:24Z</time></trkpt><trkpt lat="58.030025" lon="38.864675"><ele>103.0</ele><time>2022-08-16T17:09:26Z</time></trkpt><trkpt lat="58.029967" lon="38.864577"><ele>103.0</ele><time>2022-08-16T17:09:28Z</time></trkpt><trkpt lat="58.029875" lon="38.86449"><ele>103.0</ele><time>2022-08-16T17:09:31Z</time></trkpt><trkpt lat="58.029782" lon="38.864437"><ele>102.0</ele><time>2022-08-16T17:09:34Z</time></trkpt><trkpt lat="58.02972" lon="38.864545"><ele>102.0</ele><time>2022-08-16T17:09:38Z</time></trkpt><trkpt lat="58.029765" lon="38.864708"><ele>101.0</ele><time>2022-08-16T17:09:41Z</time></trkpt><trkpt lat="58.029838" lon="38.864825"><ele>102.0</ele><time>2022-08-16T17:09:44Z</time></trkpt><trkpt lat="58.029915" lon="38.86495"><ele>102.0</ele><time>2022-08-16T17:09:47Z</time></trkpt><trkpt lat="58.030002" lon="38.86502"><ele>103.0</ele><time>2022-08-16T17:09:50Z</time></trkpt><trkpt lat="58.030092" lon="38.865082"><ele>104.0</ele><time>2022-08-16T17:09:53Z</time></trkpt><trkpt lat="58.030177" lon="38.865142"><ele>103.0</ele><time>2022-08-16T17:09:56Z</time></trkpt><trkpt lat="58.030265" lon="38.865225"><ele>103.0</ele><time>2022-08-16T17:09:59Z</time></trkpt><trkpt lat="58.030345" lon="38.865317"><ele>102.0</ele><time>2022-08-16T17:10:02Z</time></trkpt><trkpt lat="58.030432" lon="38.86541"><ele>102.0</ele><time>2022-08-16T17:10:05Z</time></trkpt><trkpt lat="58.030475" lon="38.865538"><ele>101.0</ele><time>2022-08-16T17:10:08Z</time></trkpt><trkpt lat="58.030442" lon="38.865727"><ele>100.0</ele><time>2022-08-16T17:10:11Z</time></trkpt><trkpt lat="58.030378" lon="38.865807"><ele>100.0</ele><time>2022-08-16T17:10:13Z</time></trkpt><trkpt lat="58.030308" lon="38.865843"><ele>99.0</ele><time>2022-08-16T17:10:15Z</time></trkpt><trkpt lat="58.030207" lon="38.865842"><ele>99.0</ele><time>2022-08-16T17:10:18Z</time></trkpt><trkpt lat="58.030135" lon="38.865822"><ele>99.0</ele><time>2022-08-16T17:10:20Z</time></trkpt><trkpt lat="58.03004" lon="38.86576"><ele>99.0</ele><time>2022-08-16T17:10:23Z</time></trkpt><trkpt lat="58.029948" lon="38.86572"><ele>99.0</ele><time>2022-08-16T17:10:26Z</time></trkpt><trkpt lat="58.029852" lon="38.865657"><ele>99.0</ele><time>2022-08-16T17:10:29Z</time></trkpt><trkpt lat="58.029788" lon="38.865582"><ele>99.0</ele><time>2022-08-16T17:10:31Z</time></trkpt><trkpt lat="58.02973" lon="38.8655"><ele>99.0</ele><time>2022-08-16T17:10:33Z</time></trkpt><trkpt lat="58.029678" lon="38.865385"><ele>99.0</ele><time>2022-08-16T17:10:35Z</time></trkpt><trkpt lat="58.029643" lon="38.865253"><ele>98.0</ele><time>2022-08-16T17:10:37Z</time></trkpt><trkpt lat="58.029613" lon="38.865122"><ele>98.0</ele><time>2022-08-16T17:10:39Z</time></trkpt><trkpt lat="58.029582" lon="38.864925"><ele>98.0</ele><time>2022-08-16T17:10:42Z</time></trkpt><trkpt lat="58.029558" lon="38.864793"><ele>98.0</ele><time>2022-08-16T17:10:44Z</time></trkpt><trkpt lat="58.029525" lon="38.864668"><ele>98.0</ele><time>2022-08-16T17:10:46Z</time></trkpt><trkpt lat="58.029485" lon="38.864487"><ele>98.0</ele><time>2022-08-16T17:10:49Z</time></trkpt><trkpt lat="58.029455" lon="38.864313"><ele>98.0</ele><time>2022-08-16T17:10:52Z</time></trkpt><trkpt lat="58.02942" lon="38.864135"><ele>98.0</ele><time>2022-08-16T17:10:55Z</time></trkpt><trkpt lat="58.029378" lon="38.863977"><ele>98.0</ele><time>2022-08-16T17:10:58Z</time></trkpt><trkpt lat="58.029325" lon="38.86384"><ele>98.0</ele><time>2022-08-16T17:11:01Z</time></trkpt><trkpt lat="58.029265" lon="38.863712"><ele>98.0</ele><time>2022-08-16T17:11:04Z</time></trkpt><trkpt lat="58.029192" lon="38.863572"><ele>97.0</ele><time>2022-08-16T17:11:07Z</time></trkpt><trkpt lat="58.029133" lon="38.86344"><ele>98.0</ele><time>2022-08-16T17:11:10Z</time></trkpt><trkpt lat="58.02908" lon="38.863315"><ele>98.0</ele><time>2022-08-16T17:11:13Z</time></trkpt><trkpt lat="58.029032" lon="38.863197"><ele>97.0</ele><time>2022-08-16T17:11:17Z</time></trkpt><trkpt lat="58.028982" lon="38.863073"><ele>97.0</ele><time>2022-08-16T17:11:24Z</time></trkpt><trkpt lat="58.028957" lon="38.862927"><ele>97.0</ele><time>2022-08-16T17:11:32Z</time></trkpt><trkpt lat="58.028967" lon="38.86278"><ele>97.0</ele><time>2022-08-16T17:11:40Z</time></trkpt><trkpt lat="58.029045" lon="38.862773"><ele>96.0</ele><time>2022-08-16T17:11:47Z</time></trkpt></trkseg></trk></gpx>