<?xml version="1.0" encoding="UTF-8" standalone="no"?><gpx xmlns="http://www.topografix.com/GPX/1/1" xmlns:gpxtpx="http://www.garmin.com/xmlschemas/TrackPointExtension/v1" xmlns:xsi="http://www.w3.org/2001/XMLSchema-instance" creator="Sports Tracker" version="1.1" xsi:schemaLocation="http://www.topografix.com/GPX/1/1 http://www.topografix.com/GPX/1/1/gpx.xsd http://www.garmin.com/xmlschemas/TrackPointExtension/v1 http://www.garmin.com/xmlschemas/TrackPointExtensionv1.xsd"><metadata><name>04.01.2024 16:43</name><desc/><author><name>Александр</name></author></metadata><trk><name>04.01.2024 16:43</name><trkseg><trkpt lat="58.058635" lon="38.807575"><ele>111.4</ele><time>2024-01-04T13:43:21Z</time></trkpt><trkpt lat="58.058635" lon="38.807575"><ele>111.4</ele><time>2024-01-04T13:44:00Z</time></trkpt><trkpt lat="58.05859" lon="38.807518"><ele>115.3</ele><time>2024-01-04T13:44:07Z</time></trkpt><trkpt lat="58.058517" lon="38.807507"><ele>112.9</ele><time>2024-01-04T13:44:12Z</time></trkpt><trkpt lat="58.058445" lon="38.807455"><ele>111.2</ele><time>2024-01-04T13:44:19Z</time></trkpt><trkpt lat="58.058372" lon="38.807465"><ele>105.7</ele><time>2024-01-04T13:44:26Z</time></trkpt><trkpt lat="58.0583" lon="38.80749"><ele>108.1</ele><time>2024-01-04T13:44:33Z</time></trkpt><trkpt lat="58.058225" lon="38.807482"><ele>113.5</ele><time>2024-01-04T13:44:38Z</time></trkpt><trkpt lat="58.05816" lon="38.807425"><ele>110.6</ele><time>2024-01-04T13:44:44Z</time></trkpt><trkpt lat="58.058137" lon="38.807402"><ele>113.7</ele><time>2024-01-04T13:44:51Z</time></trkpt><trkpt lat="58.058097" lon="38.80741"><ele>113.7</ele><time>2024-01-04T13:44:58Z</time></trkpt><trkpt lat="58.058013" lon="38.807395"><ele>111.1</ele><time>2024-01-04T13:45:04Z</time></trkpt><trkpt lat="58.057942" lon="38.807357"><ele>111.7</ele><time>2024-01-04T13:45:09Z</time></trkpt><trkpt lat="58.057862" lon="38.80734"><ele>110.2</ele><time>2024-01-04T13:45:15Z</time></trkpt><trkpt lat="58.057787" lon="38.807325"><ele>109.4</ele><time>2024-01-04T13:45:21Z</time></trkpt><trkpt lat="58.057712" lon="38.80728"><ele>110.0</ele><time>2024-01-04T13:45:27Z</time></trkpt><trkpt lat="58.05764" lon="38.807235"><ele>111.9</ele><time>2024-01-04T13:45:33Z</time></trkpt><trkpt lat="58.057557" lon="38.80725"><ele>109.8</ele><time>2024-01-04T13:45:40Z</time></trkpt><trkpt lat="58.057482" lon="38.80725"><ele>109.7</ele><time>2024-01-04T13:45:46Z</time></trkpt><trkpt lat="58.0574" lon="38.80722"><ele>109.2</ele><time>2024-01-04T13:45:53Z</time></trkpt><trkpt lat="58.057345" lon="38.80734"><ele>110.2</ele><time>2024-01-04T13:45:59Z</time></trkpt><trkpt lat="58.057287" lon="38.807445"><ele>114.4</ele><time>2024-01-04T13:46:05Z</time></trkpt><trkpt lat="58.0572" lon="38.80744"><ele>113.0</ele><time>2024-01-04T13:46:11Z</time></trkpt><trkpt lat="58.05712" lon="38.80747"><ele>112.2</ele><time>2024-01-04T13:46:17Z</time></trkpt><trkpt lat="58.05706" lon="38.807585"><ele>113.0</ele><time>2024-01-04T13:46:23Z</time></trkpt><trkpt lat="58.05701" lon="38.807685"><ele>112.8</ele><time>2024-01-04T13:46:28Z</time></trkpt><trkpt lat="58.05698" lon="38.80782"><ele>115.0</ele><time>2024-01-04T13:46:33Z</time></trkpt><trkpt lat="58.05697" lon="38.807962"><ele>116.7</ele><time>2024-01-04T13:46:38Z</time></trkpt><trkpt lat="58.056955" lon="38.80811"><ele>117.0</ele><time>2024-01-04T13:46:43Z</time></trkpt><trkpt lat="58.056905" lon="38.808212"><ele>115.0</ele><time>2024-01-04T13:46:48Z</time></trkpt><trkpt lat="58.056855" lon="38.808315"><ele>110.8</ele><time>2024-01-04T13:46:55Z</time></trkpt><trkpt lat="58.05688" lon="38.808462"><ele>110.3</ele><time>2024-01-04T13:47:02Z</time></trkpt><trkpt lat="58.056873" lon="38.80861"><ele>111.3</ele><time>2024-01-04T13:47:08Z</time></trkpt><trkpt lat="58.056873" lon="38.80876"><ele>111.3</ele><time>2024-01-04T13:47:14Z</time></trkpt><trkpt lat="58.05687" lon="38.808907"><ele>111.4</ele><time>2024-01-04T13:47:20Z</time></trkpt><trkpt lat="58.056862" lon="38.809062"><ele>112.5</ele><time>2024-01-04T13:47:26Z</time></trkpt><trkpt lat="58.05684" lon="38.809205"><ele>110.7</ele><time>2024-01-04T13:47:32Z</time></trkpt><trkpt lat="58.05682" lon="38.809355"><ele>111.9</ele><time>2024-01-04T13:47:38Z</time></trkpt><trkpt lat="58.056817" lon="38.80951"><ele>113.1</ele><time>2024-01-04T13:47:44Z</time></trkpt><trkpt lat="58.05682" lon="38.809647"><ele>111.8</ele><time>2024-01-04T13:47:49Z</time></trkpt><trkpt lat="58.056815" lon="38.80981"><ele>111.1</ele><time>2024-01-04T13:47:55Z</time></trkpt><trkpt lat="58.056815" lon="38.809957"><ele>112.1</ele><time>2024-01-04T13:48:01Z</time></trkpt><trkpt lat="58.056817" lon="38.810112"><ele>110.4</ele><time>2024-01-04T13:48:07Z</time></trkpt><trkpt lat="58.056815" lon="38.810265"><ele>110.0</ele><time>2024-01-04T13:48:13Z</time></trkpt><trkpt lat="58.05679" lon="38.81041"><ele>108.9</ele><time>2024-01-04T13:48:19Z</time></trkpt><trkpt lat="58.056765" lon="38.81056"><ele>109.8</ele><time>2024-01-04T13:48:25Z</time></trkpt><trkpt lat="58.056755" lon="38.810712"><ele>110.6</ele><time>2024-01-04T13:48:31Z</time></trkpt><trkpt lat="58.056745" lon="38.81087"><ele>111.0</ele><time>2024-01-04T13:48:37Z</time></trkpt><trkpt lat="58.056755" lon="38.811025"><ele>109.8</ele><time>2024-01-04T13:48:43Z</time></trkpt><trkpt lat="58.056732" lon="38.811175"><ele>109.3</ele><time>2024-01-04T13:48:49Z</time></trkpt><trkpt lat="58.056725" lon="38.811325"><ele>108.4</ele><time>2024-01-04T13:48:55Z</time></trkpt><trkpt lat="58.05672" lon="38.81147"><ele>109.6</ele><time>2024-01-04T13:49:01Z</time></trkpt><trkpt lat="58.05672" lon="38.81161"><ele>109.3</ele><time>2024-01-04T13:49:06Z</time></trkpt><trkpt lat="58.056705" lon="38.811765"><ele>108.1</ele><time>2024-01-04T13:49:12Z</time></trkpt><trkpt lat="58.056702" lon="38.811907"><ele>108.6</ele><time>2024-01-04T13:49:18Z</time></trkpt><trkpt lat="58.056695" lon="38.812055"><ele>107.7</ele><time>2024-01-04T13:49:24Z</time></trkpt><trkpt lat="58.056685" lon="38.812195"><ele>109.3</ele><time>2024-01-04T13:49:29Z</time></trkpt><trkpt lat="58.056685" lon="38.812337"><ele>112.1</ele><time>2024-01-04T13:49:34Z</time></trkpt><trkpt lat="58.056665" lon="38.812475"><ele>111.9</ele><time>2024-01-04T13:49:39Z</time></trkpt><trkpt lat="58.056592" lon="38.81252"><ele>111.2</ele><time>2024-01-04T13:49:43Z</time></trkpt><trkpt lat="58.05652" lon="38.812565"><ele>112.0</ele><time>2024-01-04T13:49:48Z</time></trkpt><trkpt lat="58.056437" lon="38.81258"><ele>112.6</ele><time>2024-01-04T13:49:53Z</time></trkpt><trkpt lat="58.056365" lon="38.812605"><ele>112.4</ele><time>2024-01-04T13:49:58Z</time></trkpt><trkpt lat="58.056315" lon="38.81271"><ele>112.2</ele><time>2024-01-04T13:50:04Z</time></trkpt><trkpt lat="58.056265" lon="38.812823"><ele>112.4</ele><time>2024-01-04T13:50:10Z</time></trkpt><trkpt lat="58.05621" lon="38.812942"><ele>111.8</ele><time>2024-01-04T13:50:16Z</time></trkpt><trkpt lat="58.056155" lon="38.813042"><ele>111.7</ele><time>2024-01-04T13:50:22Z</time></trkpt><trkpt lat="58.056105" lon="38.813157"><ele>110.9</ele><time>2024-01-04T13:50:28Z</time></trkpt><trkpt lat="58.056055" lon="38.81328"><ele>110.0</ele><time>2024-01-04T13:50:34Z</time></trkpt><trkpt lat="58.056005" lon="38.8134"><ele>109.4</ele><time>2024-01-04T13:50:40Z</time></trkpt><trkpt lat="58.05596" lon="38.813517"><ele>109.4</ele><time>2024-01-04T13:50:46Z</time></trkpt><trkpt lat="58.05591" lon="38.813625"><ele>109.9</ele><time>2024-01-04T13:50:51Z</time></trkpt><trkpt lat="58.055855" lon="38.81374"><ele>108.9</ele><time>2024-01-04T13:50:57Z</time></trkpt><trkpt lat="58.055833" lon="38.813892"><ele>109.5</ele><time>2024-01-04T13:51:03Z</time></trkpt><trkpt lat="58.055825" lon="38.814027"><ele>109.5</ele><time>2024-01-04T13:51:08Z</time></trkpt><trkpt lat="58.05584" lon="38.814165"><ele>110.8</ele><time>2024-01-04T13:51:13Z</time></trkpt><trkpt lat="58.055835" lon="38.8143"><ele>112.0</ele><time>2024-01-04T13:51:18Z</time></trkpt><trkpt lat="58.055822" lon="38.81444"><ele>110.7</ele><time>2024-01-04T13:51:23Z</time></trkpt><trkpt lat="58.055795" lon="38.81459"><ele>110.6</ele><time>2024-01-04T13:51:29Z</time></trkpt><trkpt lat="58.05576" lon="38.814745"><ele>110.3</ele><time>2024-01-04T13:51:35Z</time></trkpt><trkpt lat="58.055737" lon="38.814895"><ele>109.9</ele><time>2024-01-04T13:51:41Z</time></trkpt><trkpt lat="58.05574" lon="38.815055"><ele>110.6</ele><time>2024-01-04T13:51:47Z</time></trkpt><trkpt lat="58.0557" lon="38.815173"><ele>110.6</ele><time>2024-01-04T13:51:52Z</time></trkpt><trkpt lat="58.055645" lon="38.81528"><ele>110.5</ele><time>2024-01-04T13:51:57Z</time></trkpt><trkpt lat="58.055587" lon="38.815395"><ele>110.1</ele><time>2024-01-04T13:52:03Z</time></trkpt><trkpt lat="58.055535" lon="38.81552"><ele>110.0</ele><time>2024-01-04T13:52:09Z</time></trkpt><trkpt lat="58.055495" lon="38.81563"><ele>110.1</ele><time>2024-01-04T13:52:14Z</time></trkpt><trkpt lat="58.055445" lon="38.815745"><ele>109.8</ele><time>2024-01-04T13:52:19Z</time></trkpt><trkpt lat="58.0554" lon="38.815855"><ele>110.3</ele><time>2024-01-04T13:52:24Z</time></trkpt><trkpt lat="58.055345" lon="38.815975"><ele>109.8</ele><time>2024-01-04T13:52:30Z</time></trkpt><trkpt lat="58.055315" lon="38.81612"><ele>110.1</ele><time>2024-01-04T13:52:36Z</time></trkpt><trkpt lat="58.055307" lon="38.816275"><ele>110.5</ele><time>2024-01-04T13:52:42Z</time></trkpt><trkpt lat="58.055297" lon="38.81643"><ele>110.9</ele><time>2024-01-04T13:52:48Z</time></trkpt><trkpt lat="58.0553" lon="38.81657"><ele>111.3</ele><time>2024-01-04T13:52:53Z</time></trkpt><trkpt lat="58.05529" lon="38.81671"><ele>111.2</ele><time>2024-01-04T13:52:58Z</time></trkpt><trkpt lat="58.055267" lon="38.81672"><ele>110.9</ele><time>2024-01-04T13:53:05Z</time></trkpt><trkpt lat="58.055267" lon="38.81672"><ele>110.9</ele><time>2024-01-04T13:53:07Z</time></trkpt><trkpt lat="58.055275" lon="38.816752"><ele>110.2</ele><time>2024-01-04T13:53:19Z</time></trkpt><trkpt lat="58.05526" lon="38.816907"><ele>109.1</ele><time>2024-01-04T13:53:24Z</time></trkpt><trkpt lat="58.055265" lon="38.81705"><ele>110.3</ele><time>2024-01-04T13:53:30Z</time></trkpt><trkpt lat="58.055262" lon="38.817205"><ele>110.9</ele><time>2024-01-04T13:53:37Z</time></trkpt><trkpt lat="58.05526" lon="38.817347"><ele>111.2</ele><time>2024-01-04T13:53:43Z</time></trkpt><trkpt lat="58.055242" lon="38.817485"><ele>110.8</ele><time>2024-01-04T13:53:49Z</time></trkpt><trkpt lat="58.055235" lon="38.81763"><ele>110.6</ele><time>2024-01-04T13:53:55Z</time></trkpt><trkpt lat="58.055222" lon="38.817775"><ele>111.3</ele><time>2024-01-04T13:54:01Z</time></trkpt><trkpt lat="58.05521" lon="38.817932"><ele>111.1</ele><time>2024-01-04T13:54:07Z</time></trkpt><trkpt lat="58.0552" lon="38.81808"><ele>111.4</ele><time>2024-01-04T13:54:13Z</time></trkpt><trkpt lat="58.05519" lon="38.818225"><ele>111.4</ele><time>2024-01-04T13:54:19Z</time></trkpt><trkpt lat="58.05518" lon="38.81837"><ele>111.3</ele><time>2024-01-04T13:54:25Z</time></trkpt><trkpt lat="58.055172" lon="38.81853"><ele>112.4</ele><time>2024-01-04T13:54:31Z</time></trkpt><trkpt lat="58.05516" lon="38.81868"><ele>112.1</ele><time>2024-01-04T13:54:37Z</time></trkpt><trkpt lat="58.05514" lon="38.818817"><ele>112.1</ele><time>2024-01-04T13:54:43Z</time></trkpt><trkpt lat="58.055132" lon="38.818958"><ele>113.1</ele><time>2024-01-04T13:54:49Z</time></trkpt><trkpt lat="58.055125" lon="38.819107"><ele>113.5</ele><time>2024-01-04T13:54:55Z</time></trkpt><trkpt lat="58.055115" lon="38.819252"><ele>112.8</ele><time>2024-01-04T13:55:01Z</time></trkpt><trkpt lat="58.055105" lon="38.819405"><ele>113.4</ele><time>2024-01-04T13:55:07Z</time></trkpt><trkpt lat="58.0551" lon="38.81956"><ele>112.7</ele><time>2024-01-04T13:55:13Z</time></trkpt><trkpt lat="58.05509" lon="38.81971"><ele>111.3</ele><time>2024-01-04T13:55:19Z</time></trkpt><trkpt lat="58.05507" lon="38.819867"><ele>110.9</ele><time>2024-01-04T13:55:25Z</time></trkpt><trkpt lat="58.05507" lon="38.819937"><ele>111.5</ele><time>2024-01-04T13:55:32Z</time></trkpt><trkpt lat="58.054995" lon="38.819975"><ele>111.5</ele><time>2024-01-04T13:55:38Z</time></trkpt><trkpt lat="58.054965" lon="38.820097"><ele>104.8</ele><time>2024-01-04T13:55:42Z</time></trkpt><trkpt lat="58.055025" lon="38.82021"><ele>104.1</ele><time>2024-01-04T13:55:48Z</time></trkpt><trkpt lat="58.055012" lon="38.820365"><ele>106.1</ele><time>2024-01-04T13:55:54Z</time></trkpt><trkpt lat="58.05498" lon="38.82049"><ele>106.8</ele><time>2024-01-04T13:56:00Z</time></trkpt><trkpt lat="58.054955" lon="38.820625"><ele>106.7</ele><time>2024-01-04T13:56:06Z</time></trkpt><trkpt lat="58.054927" lon="38.82078"><ele>106.5</ele><time>2024-01-04T13:56:12Z</time></trkpt><trkpt lat="58.05491" lon="38.820925"><ele>105.3</ele><time>2024-01-04T13:56:18Z</time></trkpt><trkpt lat="58.054902" lon="38.821075"><ele>103.6</ele><time>2024-01-04T13:56:24Z</time></trkpt><trkpt lat="58.054885" lon="38.82122"><ele>104.2</ele><time>2024-01-04T13:56:30Z</time></trkpt><trkpt lat="58.05489" lon="38.821385"><ele>107.8</ele><time>2024-01-04T13:56:36Z</time></trkpt><trkpt lat="58.054875" lon="38.821532"><ele>106.3</ele><time>2024-01-04T13:56:42Z</time></trkpt><trkpt lat="58.054857" lon="38.821677"><ele>108.1</ele><time>2024-01-04T13:56:48Z</time></trkpt><trkpt lat="58.05489" lon="38.821765"><ele>113.7</ele><time>2024-01-04T13:56:55Z</time></trkpt><trkpt lat="58.05487" lon="38.821905"><ele>108.6</ele><time>2024-01-04T13:57:01Z</time></trkpt><trkpt lat="58.054848" lon="38.822067"><ele>107.8</ele><time>2024-01-04T13:57:07Z</time></trkpt><trkpt lat="58.054825" lon="38.8222"><ele>105.7</ele><time>2024-01-04T13:57:11Z</time></trkpt><trkpt lat="58.054767" lon="38.822305"><ele>106.4</ele><time>2024-01-04T13:57:16Z</time></trkpt><trkpt lat="58.054692" lon="38.82234"><ele>105.1</ele><time>2024-01-04T13:57:23Z</time></trkpt><trkpt lat="58.05464" lon="38.82239"><ele>102.1</ele><time>2024-01-04T13:57:30Z</time></trkpt><trkpt lat="58.05463" lon="38.822545"><ele>98.5</ele><time>2024-01-04T13:57:35Z</time></trkpt><trkpt lat="58.05463" lon="38.822707"><ele>99.7</ele><time>2024-01-04T13:57:40Z</time></trkpt><trkpt lat="58.05462" lon="38.82286"><ele>102.2</ele><time>2024-01-04T13:57:45Z</time></trkpt><trkpt lat="58.054603" lon="38.82301"><ele>102.0</ele><time>2024-01-04T13:57:50Z</time></trkpt><trkpt lat="58.05459" lon="38.823155"><ele>103.9</ele><time>2024-01-04T13:57:54Z</time></trkpt><trkpt lat="58.054572" lon="38.823305"><ele>105.1</ele><time>2024-01-04T13:57:59Z</time></trkpt><trkpt lat="58.05455" lon="38.82345"><ele>106.3</ele><time>2024-01-04T13:58:04Z</time></trkpt><trkpt lat="58.054512" lon="38.823595"><ele>107.6</ele><time>2024-01-04T13:58:09Z</time></trkpt><trkpt lat="58.054495" lon="38.823727"><ele>107.6</ele><time>2024-01-04T13:58:13Z</time></trkpt><trkpt lat="58.054487" lon="38.823872"><ele>108.8</ele><time>2024-01-04T13:58:18Z</time></trkpt><trkpt lat="58.05446" lon="38.824005"><ele>109.1</ele><time>2024-01-04T13:58:23Z</time></trkpt><trkpt lat="58.054425" lon="38.82414"><ele>108.7</ele><time>2024-01-04T13:58:29Z</time></trkpt><trkpt lat="58.054395" lon="38.82429"><ele>108.3</ele><time>2024-01-04T13:58:35Z</time></trkpt><trkpt lat="58.054355" lon="38.82443"><ele>108.6</ele><time>2024-01-04T13:58:40Z</time></trkpt><trkpt lat="58.054325" lon="38.824577"><ele>109.9</ele><time>2024-01-04T13:58:46Z</time></trkpt><trkpt lat="58.054302" lon="38.824707"><ele>110.3</ele><time>2024-01-04T13:58:51Z</time></trkpt><trkpt lat="58.05428" lon="38.824837"><ele>110.4</ele><time>2024-01-04T13:58:56Z</time></trkpt><trkpt lat="58.05425" lon="38.82496"><ele>109.8</ele><time>2024-01-04T13:59:01Z</time></trkpt><trkpt lat="58.054228" lon="38.8251"><ele>110.9</ele><time>2024-01-04T13:59:06Z</time></trkpt><trkpt lat="58.054222" lon="38.825242"><ele>110.4</ele><time>2024-01-04T13:59:12Z</time></trkpt><trkpt lat="58.054185" lon="38.82539"><ele>112.4</ele><time>2024-01-04T13:59:18Z</time></trkpt><trkpt lat="58.05415" lon="38.825532"><ele>115.0</ele><time>2024-01-04T13:59:23Z</time></trkpt><trkpt lat="58.05413" lon="38.825665"><ele>113.6</ele><time>2024-01-04T13:59:28Z</time></trkpt><trkpt lat="58.0541" lon="38.825785"><ele>114.6</ele><time>2024-01-04T13:59:33Z</time></trkpt><trkpt lat="58.054052" lon="38.825905"><ele>112.0</ele><time>2024-01-04T13:59:39Z</time></trkpt><trkpt lat="58.054042" lon="38.82606"><ele>112.8</ele><time>2024-01-04T13:59:45Z</time></trkpt><trkpt lat="58.05404" lon="38.8262"><ele>110.7</ele><time>2024-01-04T13:59:51Z</time></trkpt><trkpt lat="58.05402" lon="38.826342"><ele>108.4</ele><time>2024-01-04T13:59:58Z</time></trkpt><trkpt lat="58.054002" lon="38.82649"><ele>107.2</ele><time>2024-01-04T14:00:04Z</time></trkpt><trkpt lat="58.053985" lon="38.826647"><ele>107.6</ele><time>2024-01-04T14:00:10Z</time></trkpt><trkpt lat="58.05397" lon="38.82678"><ele>108.4</ele><time>2024-01-04T14:00:15Z</time></trkpt><trkpt lat="58.053928" lon="38.826895"><ele>106.3</ele><time>2024-01-04T14:00:20Z</time></trkpt><trkpt lat="58.053907" lon="38.827032"><ele>106.6</ele><time>2024-01-04T14:00:26Z</time></trkpt><trkpt lat="58.053875" lon="38.82715"><ele>105.6</ele><time>2024-01-04T14:00:33Z</time></trkpt><trkpt lat="58.053842" lon="38.827275"><ele>103.1</ele><time>2024-01-04T14:00:39Z</time></trkpt><trkpt lat="58.05382" lon="38.82741"><ele>103.5</ele><time>2024-01-04T14:00:45Z</time></trkpt><trkpt lat="58.053775" lon="38.82755"><ele>102.4</ele><time>2024-01-04T14:00:50Z</time></trkpt><trkpt lat="58.053763" lon="38.827695"><ele>105.4</ele><time>2024-01-04T14:00:54Z</time></trkpt><trkpt lat="58.05373" lon="38.827817"><ele>104.5</ele><time>2024-01-04T14:00:58Z</time></trkpt><trkpt lat="58.0537" lon="38.82797"><ele>104.2</ele><time>2024-01-04T14:01:03Z</time></trkpt><trkpt lat="58.053665" lon="38.828105"><ele>106.3</ele><time>2024-01-04T14:01:10Z</time></trkpt><trkpt lat="58.053645" lon="38.82825"><ele>106.5</ele><time>2024-01-04T14:01:17Z</time></trkpt><trkpt lat="58.05363" lon="38.828387"><ele>107.5</ele><time>2024-01-04T14:01:23Z</time></trkpt><trkpt lat="58.053602" lon="38.82854"><ele>107.3</ele><time>2024-01-04T14:01:30Z</time></trkpt><trkpt lat="58.053582" lon="38.82869"><ele>106.7</ele><time>2024-01-04T14:01:37Z</time></trkpt><trkpt lat="58.05355" lon="38.82884"><ele>107.1</ele><time>2024-01-04T14:01:44Z</time></trkpt><trkpt lat="58.053537" lon="38.828992"><ele>106.2</ele><time>2024-01-04T14:01:50Z</time></trkpt><trkpt lat="58.053527" lon="38.829137"><ele>106.0</ele><time>2024-01-04T14:01:56Z</time></trkpt><trkpt lat="58.053502" lon="38.82929"><ele>105.1</ele><time>2024-01-04T14:02:03Z</time></trkpt><trkpt lat="58.05348" lon="38.829435"><ele>106.1</ele><time>2024-01-04T14:02:09Z</time></trkpt><trkpt lat="58.053537" lon="38.829517"><ele>104.0</ele><time>2024-01-04T14:02:15Z</time></trkpt><trkpt lat="58.0536" lon="38.829582"><ele>101.3</ele><time>2024-01-04T14:02:22Z</time></trkpt><trkpt lat="58.05337" lon="38.829752"><ele>106.7</ele><time>2024-01-04T14:05:48Z</time></trkpt><trkpt lat="58.05338" lon="38.82989"><ele>116.5</ele><time>2024-01-04T14:05:54Z</time></trkpt><trkpt lat="58.053345" lon="38.829935"><ele>107.4</ele><time>2024-01-04T14:06:01Z</time></trkpt><trkpt lat="58.053313" lon="38.829972"><ele>105.9</ele><time>2024-01-04T14:06:08Z</time></trkpt><trkpt lat="58.053285" lon="38.830115"><ele>105.0</ele><time>2024-01-04T14:06:15Z</time></trkpt><trkpt lat="58.053257" lon="38.830255"><ele>107.9</ele><time>2024-01-04T14:06:21Z</time></trkpt><trkpt lat="58.053242" lon="38.830402"><ele>108.7</ele><time>2024-01-04T14:06:28Z</time></trkpt><trkpt lat="58.053242" lon="38.830445"><ele>108.2</ele><time>2024-01-04T14:06:35Z</time></trkpt><trkpt lat="58.053225" lon="38.83059"><ele>107.7</ele><time>2024-01-04T14:06:41Z</time></trkpt><trkpt lat="58.053185" lon="38.83069"><ele>106.2</ele><time>2024-01-04T14:06:48Z</time></trkpt><trkpt lat="58.053155" lon="38.830835"><ele>108.8</ele><time>2024-01-04T14:06:54Z</time></trkpt><trkpt lat="58.053082" lon="38.830865"><ele>107.1</ele><time>2024-01-04T14:07:00Z</time></trkpt><trkpt lat="58.053015" lon="38.830855"><ele>103.3</ele><time>2024-01-04T14:07:07Z</time></trkpt><trkpt lat="58.052955" lon="38.83084"><ele>97.8</ele><time>2024-01-04T14:07:14Z</time></trkpt><trkpt lat="58.05291" lon="38.830805"><ele>95.2</ele><time>2024-01-04T14:07:21Z</time></trkpt><trkpt lat="58.05289" lon="38.83079"><ele>91.4</ele><time>2024-01-04T14:07:28Z</time></trkpt><trkpt lat="58.052885" lon="38.830795"><ele>89.3</ele><time>2024-01-04T14:07:32Z</time></trkpt><trkpt lat="58.052947" lon="38.830863"><ele>84.3</ele><time>2024-01-04T14:07:45Z</time></trkpt><trkpt lat="58.052995" lon="38.830995"><ele>87.2</ele><time>2024-01-04T14:07:50Z</time></trkpt><trkpt lat="58.052982" lon="38.831158"><ele>85.6</ele><time>2024-01-04T14:07:54Z</time></trkpt><trkpt lat="58.052955" lon="38.831325"><ele>88.6</ele><time>2024-01-04T14:07:58Z</time></trkpt><trkpt lat="58.05293" lon="38.831485"><ele>89.4</ele><time>2024-01-04T14:08:02Z</time></trkpt><trkpt lat="58.052895" lon="38.83163"><ele>90.7</ele><time>2024-01-04T14:08:06Z</time></trkpt><trkpt lat="58.052862" lon="38.831785"><ele>90.1</ele><time>2024-01-04T14:08:11Z</time></trkpt><trkpt lat="58.05283" lon="38.831927"><ele>92.5</ele><time>2024-01-04T14:08:15Z</time></trkpt><trkpt lat="58.05279" lon="38.832055"><ele>92.7</ele><time>2024-01-04T14:08:19Z</time></trkpt><trkpt lat="58.05274" lon="38.832115"><ele>91.8</ele><time>2024-01-04T14:08:26Z</time></trkpt><trkpt lat="58.052685" lon="38.832165"><ele>90.6</ele><time>2024-01-04T14:08:33Z</time></trkpt><trkpt lat="58.052647" lon="38.832175"><ele>87.3</ele><time>2024-01-04T14:08:40Z</time></trkpt><trkpt lat="58.052653" lon="38.832143"><ele>81.7</ele><time>2024-01-04T14:08:47Z</time></trkpt><trkpt lat="58.052732" lon="38.832192"><ele>74.9</ele><time>2024-01-04T14:08:54Z</time></trkpt><trkpt lat="58.05276" lon="38.83232"><ele>69.9</ele><time>2024-01-04T14:08:58Z</time></trkpt><trkpt lat="58.05276" lon="38.832465"><ele>73.1</ele><time>2024-01-04T14:09:02Z</time></trkpt><trkpt lat="58.052735" lon="38.83262"><ele>72.6</ele><time>2024-01-04T14:09:06Z</time></trkpt><trkpt lat="58.052715" lon="38.832775"><ele>75.9</ele><time>2024-01-04T14:09:10Z</time></trkpt><trkpt lat="58.05268" lon="38.83293"><ele>76.3</ele><time>2024-01-04T14:09:14Z</time></trkpt><trkpt lat="58.05266" lon="38.833065"><ele>78.4</ele><time>2024-01-04T14:09:18Z</time></trkpt><trkpt lat="58.052625" lon="38.833123"><ele>76.0</ele><time>2024-01-04T14:09:25Z</time></trkpt><trkpt lat="58.052625" lon="38.833125"><ele>76.1</ele><time>2024-01-04T14:09:29Z</time></trkpt><trkpt lat="58.052622" lon="38.833137"><ele>76.5</ele><time>2024-01-04T14:09:49Z</time></trkpt><trkpt lat="58.052622" lon="38.83314"><ele>76.5</ele><time>2024-01-04T14:09:50Z</time></trkpt><trkpt lat="58.052605" lon="38.833295"><ele>79.0</ele><time>2024-01-04T14:09:58Z</time></trkpt><trkpt lat="58.052587" lon="38.833475"><ele>82.3</ele><time>2024-01-04T14:10:01Z</time></trkpt><trkpt lat="58.052565" lon="38.83364"><ele>86.0</ele><time>2024-01-04T14:10:04Z</time></trkpt><trkpt lat="58.05254" lon="38.83378"><ele>88.5</ele><time>2024-01-04T14:10:07Z</time></trkpt><trkpt lat="58.052515" lon="38.83393"><ele>90.3</ele><time>2024-01-04T14:10:11Z</time></trkpt><trkpt lat="58.05248" lon="38.83406"><ele>90.0</ele><time>2024-01-04T14:10:15Z</time></trkpt><trkpt lat="58.05242" lon="38.834135"><ele>91.7</ele><time>2024-01-04T14:10:19Z</time></trkpt><trkpt lat="58.052355" lon="38.834152"><ele>94.3</ele><time>2024-01-04T14:10:26Z</time></trkpt><trkpt lat="58.0523" lon="38.83423"><ele>100.4</ele><time>2024-01-04T14:10:33Z</time></trkpt><trkpt lat="58.05232" lon="38.834295"><ele>92.5</ele><time>2024-01-04T14:10:40Z</time></trkpt><trkpt lat="58.052385" lon="38.83428"><ele>87.2</ele><time>2024-01-04T14:10:47Z</time></trkpt><trkpt lat="58.052465" lon="38.834332"><ele>61.3</ele><time>2024-01-04T14:10:53Z</time></trkpt><trkpt lat="58.05249" lon="38.83449"><ele>64.0</ele><time>2024-01-04T14:10:59Z</time></trkpt><trkpt lat="58.052482" lon="38.83463"><ele>63.9</ele><time>2024-01-04T14:11:03Z</time></trkpt><trkpt lat="58.05245" lon="38.834767"><ele>68.6</ele><time>2024-01-04T14:11:07Z</time></trkpt><trkpt lat="58.052395" lon="38.834885"><ele>66.6</ele><time>2024-01-04T14:11:11Z</time></trkpt><trkpt lat="58.052335" lon="38.835007"><ele>69.6</ele><time>2024-01-04T14:11:15Z</time></trkpt><trkpt lat="58.05227" lon="38.83514"><ele>79.9</ele><time>2024-01-04T14:11:19Z</time></trkpt><trkpt lat="58.052205" lon="38.835217"><ele>76.8</ele><time>2024-01-04T14:11:23Z</time></trkpt><trkpt lat="58.052142" lon="38.83529"><ele>81.5</ele><time>2024-01-04T14:11:28Z</time></trkpt><trkpt lat="58.052092" lon="38.835335"><ele>86.2</ele><time>2024-01-04T14:11:35Z</time></trkpt><trkpt lat="58.052045" lon="38.83535"><ele>89.8</ele><time>2024-01-04T14:11:42Z</time></trkpt><trkpt lat="58.05206" lon="38.835318"><ele>71.0</ele><time>2024-01-04T14:11:49Z</time></trkpt><trkpt lat="58.05213" lon="38.835365"><ele>60.1</ele><time>2024-01-04T14:11:56Z</time></trkpt><trkpt lat="58.052152" lon="38.83553"><ele>58.6</ele><time>2024-01-04T14:12:01Z</time></trkpt><trkpt lat="58.05213" lon="38.835667"><ele>58.8</ele><time>2024-01-04T14:12:04Z</time></trkpt><trkpt lat="58.052085" lon="38.835815"><ele>62.9</ele><time>2024-01-04T14:12:08Z</time></trkpt><trkpt lat="58.052055" lon="38.83594"><ele>63.6</ele><time>2024-01-04T14:12:11Z</time></trkpt><trkpt lat="58.052005" lon="38.836075"><ele>66.1</ele><time>2024-01-04T14:12:15Z</time></trkpt><trkpt lat="58.051955" lon="38.836167"><ele>63.4</ele><time>2024-01-04T14:12:18Z</time></trkpt><trkpt lat="58.051905" lon="38.83627"><ele>63.4</ele><time>2024-01-04T14:12:22Z</time></trkpt><trkpt lat="58.051845" lon="38.83636"><ele>63.0</ele><time>2024-01-04T14:12:27Z</time></trkpt><trkpt lat="58.051785" lon="38.836462"><ele>63.4</ele><time>2024-01-04T14:12:32Z</time></trkpt><trkpt lat="58.051742" lon="38.83663"><ele>64.5</ele><time>2024-01-04T14:12:38Z</time></trkpt><trkpt lat="58.051775" lon="38.836773"><ele>67.3</ele><time>2024-01-04T14:12:44Z</time></trkpt><trkpt lat="58.051792" lon="38.83692"><ele>74.5</ele><time>2024-01-04T14:12:52Z</time></trkpt><trkpt lat="58.0518" lon="38.837067"><ele>81.2</ele><time>2024-01-04T14:12:56Z</time></trkpt><trkpt lat="58.051808" lon="38.837185"><ele>84.0</ele><time>2024-01-04T14:13:03Z</time></trkpt><trkpt lat="58.051812" lon="38.83722"><ele>85.8</ele><time>2024-01-04T14:13:10Z</time></trkpt><trkpt lat="58.051812" lon="38.837222"><ele>85.9</ele><time>2024-01-04T14:13:13Z</time></trkpt><trkpt lat="58.051812" lon="38.837363"><ele>92.3</ele><time>2024-01-04T14:13:17Z</time></trkpt><trkpt lat="58.051785" lon="38.837525"><ele>96.1</ele><time>2024-01-04T14:13:21Z</time></trkpt><trkpt lat="58.05174" lon="38.837645"><ele>95.9</ele><time>2024-01-04T14:13:26Z</time></trkpt><trkpt lat="58.051705" lon="38.837775"><ele>100.5</ele><time>2024-01-04T14:13:31Z</time></trkpt><trkpt lat="58.051645" lon="38.83785"><ele>98.1</ele><time>2024-01-04T14:13:38Z</time></trkpt><trkpt lat="58.051675" lon="38.837775"><ele>91.6</ele><time>2024-01-04T14:13:45Z</time></trkpt><trkpt lat="58.051723" lon="38.837735"><ele>78.0</ele><time>2024-01-04T14:13:52Z</time></trkpt><trkpt lat="58.051792" lon="38.837785"><ele>72.9</ele><time>2024-01-04T14:13:56Z</time></trkpt><trkpt lat="58.05186" lon="38.83789"><ele>69.7</ele><time>2024-01-04T14:14:00Z</time></trkpt><trkpt lat="58.051845" lon="38.83805"><ele>72.0</ele><time>2024-01-04T14:14:04Z</time></trkpt><trkpt lat="58.051812" lon="38.8382"><ele>74.9</ele><time>2024-01-04T14:14:09Z</time></trkpt><trkpt lat="58.05179" lon="38.83834"><ele>75.0</ele><time>2024-01-04T14:14:14Z</time></trkpt><trkpt lat="58.051722" lon="38.838417"><ele>74.7</ele><time>2024-01-04T14:14:21Z</time></trkpt><trkpt lat="58.05165" lon="38.838475"><ele>72.9</ele><time>2024-01-04T14:14:28Z</time></trkpt><trkpt lat="58.051578" lon="38.838525"><ele>76.2</ele><time>2024-01-04T14:14:34Z</time></trkpt><trkpt lat="58.051555" lon="38.838615"><ele>70.3</ele><time>2024-01-04T14:14:41Z</time></trkpt><trkpt lat="58.051568" lon="38.83867"><ele>69.1</ele><time>2024-01-04T14:14:48Z</time></trkpt><trkpt lat="58.051625" lon="38.838765"><ele>60.5</ele><time>2024-01-04T14:14:54Z</time></trkpt><trkpt lat="58.05166" lon="38.83892"><ele>61.6</ele><time>2024-01-04T14:14:59Z</time></trkpt><trkpt lat="58.051665" lon="38.83908"><ele>64.8</ele><time>2024-01-04T14:15:03Z</time></trkpt><trkpt lat="58.05166" lon="38.83922"><ele>66.2</ele><time>2024-01-04T14:15:08Z</time></trkpt><trkpt lat="58.05163" lon="38.83935"><ele>64.2</ele><time>2024-01-04T14:15:14Z</time></trkpt><trkpt lat="58.051595" lon="38.839512"><ele>60.6</ele><time>2024-01-04T14:15:19Z</time></trkpt><trkpt lat="58.05154" lon="38.839602"><ele>59.6</ele><time>2024-01-04T14:15:24Z</time></trkpt><trkpt lat="58.051475" lon="38.83972"><ele>59.3</ele><time>2024-01-04T14:15:28Z</time></trkpt><trkpt lat="58.0514" lon="38.839785"><ele>64.2</ele><time>2024-01-04T14:15:33Z</time></trkpt><trkpt lat="58.051365" lon="38.83974"><ele>55.0</ele><time>2024-01-04T14:15:40Z</time></trkpt><trkpt lat="58.05141" lon="38.83979"><ele>56.0</ele><time>2024-01-04T14:15:47Z</time></trkpt><trkpt lat="58.05149" lon="38.839845"><ele>45.8</ele><time>2024-01-04T14:15:53Z</time></trkpt><trkpt lat="58.051545" lon="38.839945"><ele>44.3</ele><time>2024-01-04T14:15:57Z</time></trkpt><trkpt lat="58.051545" lon="38.84009"><ele>46.0</ele><time>2024-01-04T14:16:01Z</time></trkpt><trkpt lat="58.051497" lon="38.84023"><ele>47.3</ele><time>2024-01-04T14:16:04Z</time></trkpt><trkpt lat="58.051305" lon="38.840752"><ele>74.8</ele><time>2024-01-04T14:16:08Z</time></trkpt><trkpt lat="58.051177" lon="38.841357"><ele>94.4</ele><time>2024-01-04T14:16:12Z</time></trkpt><trkpt lat="58.051165" lon="38.84149"><ele>97.5</ele><time>2024-01-04T14:16:20Z</time></trkpt><trkpt lat="58.051155" lon="38.841595"><ele>102.2</ele><time>2024-01-04T14:16:27Z</time></trkpt><trkpt lat="58.05115" lon="38.841612"><ele>103.1</ele><time>2024-01-04T14:16:34Z</time></trkpt><trkpt lat="58.051145" lon="38.841625"><ele>103.2</ele><time>2024-01-04T14:16:43Z</time></trkpt><trkpt lat="58.051145" lon="38.841625"><ele>103.2</ele><time>2024-01-04T14:16:44Z</time></trkpt><trkpt lat="58.051105" lon="38.841745"><ele>104.8</ele><time>2024-01-04T14:17:06Z</time></trkpt><trkpt lat="58.051095" lon="38.8419"><ele>104.4</ele><time>2024-01-04T14:17:10Z</time></trkpt><trkpt lat="58.05106" lon="38.84202"><ele>102.6</ele><time>2024-01-04T14:17:14Z</time></trkpt><trkpt lat="58.051005" lon="38.842125"><ele>102.7</ele><time>2024-01-04T14:17:18Z</time></trkpt><trkpt lat="58.05094" lon="38.842175"><ele>104.7</ele><time>2024-01-04T14:17:23Z</time></trkpt><trkpt lat="58.050857" lon="38.842143"><ele>106.0</ele><time>2024-01-04T14:17:28Z</time></trkpt><trkpt lat="58.050855" lon="38.842145"><ele>102.6</ele><time>2024-01-04T14:17:35Z</time></trkpt><trkpt lat="58.050835" lon="38.84221"><ele>102.2</ele><time>2024-01-04T14:17:42Z</time></trkpt><trkpt lat="58.050782" lon="38.842368"><ele>94.6</ele><time>2024-01-04T14:17:47Z</time></trkpt><trkpt lat="58.05077" lon="38.84255"><ele>91.2</ele><time>2024-01-04T14:17:50Z</time></trkpt><trkpt lat="58.050815" lon="38.842725"><ele>91.8</ele><time>2024-01-04T14:17:53Z</time></trkpt><trkpt lat="58.050835" lon="38.842885"><ele>96.6</ele><time>2024-01-04T14:17:56Z</time></trkpt><trkpt lat="58.05084" lon="38.84304"><ele>97.1</ele><time>2024-01-04T14:18:00Z</time></trkpt><trkpt lat="58.050802" lon="38.843175"><ele>99.5</ele><time>2024-01-04T14:18:06Z</time></trkpt><trkpt lat="58.050747" lon="38.8433"><ele>101.7</ele><time>2024-01-04T14:18:12Z</time></trkpt><trkpt lat="58.05068" lon="38.84334"><ele>100.7</ele><time>2024-01-04T14:18:18Z</time></trkpt><trkpt lat="58.05063" lon="38.843445"><ele>97.2</ele><time>2024-01-04T14:18:23Z</time></trkpt><trkpt lat="58.050615" lon="38.84354"><ele>96.3</ele><time>2024-01-04T14:18:30Z</time></trkpt><trkpt lat="58.050635" lon="38.843485"><ele>95.1</ele><time>2024-01-04T14:18:37Z</time></trkpt><trkpt lat="58.050615" lon="38.843583"><ele>91.9</ele><time>2024-01-04T14:18:44Z</time></trkpt><trkpt lat="58.050625" lon="38.84354"><ele>88.4</ele><time>2024-01-04T14:18:51Z</time></trkpt><trkpt lat="58.050695" lon="38.843525"><ele>86.1</ele><time>2024-01-04T14:18:56Z</time></trkpt><trkpt lat="58.050775" lon="38.84359"><ele>80.9</ele><time>2024-01-04T14:19:01Z</time></trkpt><trkpt lat="58.050802" lon="38.84375"><ele>78.8</ele><time>2024-01-04T14:19:06Z</time></trkpt><trkpt lat="58.050795" lon="38.843912"><ele>79.0</ele><time>2024-01-04T14:19:11Z</time></trkpt><trkpt lat="58.050737" lon="38.84402"><ele>76.6</ele><time>2024-01-04T14:19:16Z</time></trkpt><trkpt lat="58.05069" lon="38.844145"><ele>67.0</ele><time>2024-01-04T14:19:20Z</time></trkpt><trkpt lat="58.050645" lon="38.8443"><ele>80.8</ele><time>2024-01-04T14:19:26Z</time></trkpt><trkpt lat="58.050582" lon="38.844375"><ele>83.2</ele><time>2024-01-04T14:19:30Z</time></trkpt><trkpt lat="58.05052" lon="38.844407"><ele>84.8</ele><time>2024-01-04T14:19:37Z</time></trkpt><trkpt lat="58.050437" lon="38.844462"><ele>86.0</ele><time>2024-01-04T14:19:43Z</time></trkpt><trkpt lat="58.050288" lon="38.844995"><ele>112.5</ele><time>2024-01-04T14:19:45Z</time></trkpt><trkpt lat="58.050285" lon="38.845098"><ele>116.5</ele><time>2024-01-04T14:19:53Z</time></trkpt><trkpt lat="58.050357" lon="38.845155"><ele>115.8</ele><time>2024-01-04T14:19:57Z</time></trkpt><trkpt lat="58.05042" lon="38.84534"><ele>110.3</ele><time>2024-01-04T14:20:01Z</time></trkpt><trkpt lat="58.05047" lon="38.845455"><ele>106.9</ele><time>2024-01-04T14:20:04Z</time></trkpt><trkpt lat="58.050485" lon="38.8456"><ele>103.1</ele><time>2024-01-04T14:20:10Z</time></trkpt><trkpt lat="58.050435" lon="38.845725"><ele>103.2</ele><time>2024-01-04T14:20:16Z</time></trkpt><trkpt lat="58.050435" lon="38.84587"><ele>101.4</ele><time>2024-01-04T14:20:23Z</time></trkpt><trkpt lat="58.050435" lon="38.845905"><ele>109.5</ele><time>2024-01-04T14:20:31Z</time></trkpt><trkpt lat="58.05039" lon="38.845995"><ele>106.6</ele><time>2024-01-04T14:20:38Z</time></trkpt><trkpt lat="58.05035" lon="38.84614"><ele>105.4</ele><time>2024-01-04T14:20:43Z</time></trkpt><trkpt lat="58.050315" lon="38.84628"><ele>106.5</ele><time>2024-01-04T14:20:49Z</time></trkpt><trkpt lat="58.05027" lon="38.846407"><ele>103.1</ele><time>2024-01-04T14:20:54Z</time></trkpt><trkpt lat="58.050227" lon="38.846515"><ele>106.6</ele><time>2024-01-04T14:20:58Z</time></trkpt><trkpt lat="58.050155" lon="38.84658"><ele>107.6</ele><time>2024-01-04T14:21:03Z</time></trkpt><trkpt lat="58.0501" lon="38.84672"><ele>112.8</ele><time>2024-01-04T14:21:08Z</time></trkpt><trkpt lat="58.050175" lon="38.84659"><ele>111.8</ele><time>2024-01-04T14:21:11Z</time></trkpt><trkpt lat="58.050215" lon="38.846575"><ele>110.0</ele><time>2024-01-04T14:21:18Z</time></trkpt><trkpt lat="58.050287" lon="38.846522"><ele>108.4</ele><time>2024-01-04T14:21:22Z</time></trkpt><trkpt lat="58.05037" lon="38.846507"><ele>99.9</ele><time>2024-01-04T14:21:28Z</time></trkpt><trkpt lat="58.050425" lon="38.846607"><ele>96.7</ele><time>2024-01-04T14:21:32Z</time></trkpt><trkpt lat="58.050455" lon="38.84674"><ele>93.3</ele><time>2024-01-04T14:21:36Z</time></trkpt><trkpt lat="58.050455" lon="38.846902"><ele>91.8</ele><time>2024-01-04T14:21:40Z</time></trkpt><trkpt lat="58.05042" lon="38.84705"><ele>93.5</ele><time>2024-01-04T14:21:44Z</time></trkpt><trkpt lat="58.050358" lon="38.84718"><ele>91.8</ele><time>2024-01-04T14:21:48Z</time></trkpt><trkpt lat="58.050297" lon="38.847297"><ele>94.0</ele><time>2024-01-04T14:21:52Z</time></trkpt><trkpt lat="58.05023" lon="38.847365"><ele>93.3</ele><time>2024-01-04T14:21:56Z</time></trkpt><trkpt lat="58.050157" lon="38.847407"><ele>90.3</ele><time>2024-01-04T14:22:00Z</time></trkpt><trkpt lat="58.050085" lon="38.8474"><ele>91.0</ele><time>2024-01-04T14:22:05Z</time></trkpt><trkpt lat="58.050005" lon="38.847417"><ele>89.6</ele><time>2024-01-04T14:22:11Z</time></trkpt><trkpt lat="58.049945" lon="38.847382"><ele>97.4</ele><time>2024-01-04T14:22:18Z</time></trkpt><trkpt lat="58.04994" lon="38.84729"><ele>103.5</ele><time>2024-01-04T14:22:25Z</time></trkpt><trkpt lat="58.049962" lon="38.84741"><ele>93.1</ele><time>2024-01-04T14:22:32Z</time></trkpt><trkpt lat="58.04985" lon="38.848322"><ele>110.5</ele><time>2024-01-04T14:28:14Z</time></trkpt><trkpt lat="58.049935" lon="38.84825"><ele>103.2</ele><time>2024-01-04T14:28:17Z</time></trkpt><trkpt lat="58.049895" lon="38.848362"><ele>110.4</ele><time>2024-01-04T14:28:24Z</time></trkpt><trkpt lat="58.04986" lon="38.848445"><ele>110.7</ele><time>2024-01-04T14:28:31Z</time></trkpt><trkpt lat="58.049895" lon="38.848577"><ele>109.0</ele><time>2024-01-04T14:28:36Z</time></trkpt><trkpt lat="58.04992" lon="38.848715"><ele>108.5</ele><time>2024-01-04T14:28:41Z</time></trkpt><trkpt lat="58.049907" lon="38.848855"><ele>109.4</ele><time>2024-01-04T14:28:46Z</time></trkpt><trkpt lat="58.049877" lon="38.84898"><ele>109.4</ele><time>2024-01-04T14:28:52Z</time></trkpt><trkpt lat="58.049835" lon="38.849095"><ele>110.8</ele><time>2024-01-04T14:28:57Z</time></trkpt><trkpt lat="58.049795" lon="38.84923"><ele>112.4</ele><time>2024-01-04T14:29:03Z</time></trkpt><trkpt lat="58.049785" lon="38.849375"><ele>107.0</ele><time>2024-01-04T14:29:08Z</time></trkpt><trkpt lat="58.049775" lon="38.84952"><ele>100.6</ele><time>2024-01-04T14:29:15Z</time></trkpt><trkpt lat="58.049765" lon="38.849657"><ele>101.2</ele><time>2024-01-04T14:29:21Z</time></trkpt><trkpt lat="58.049752" lon="38.849795"><ele>107.7</ele><time>2024-01-04T14:29:26Z</time></trkpt><trkpt lat="58.049695" lon="38.849895"><ele>105.2</ele><time>2024-01-04T14:29:31Z</time></trkpt><trkpt lat="58.049682" lon="38.850045"><ele>108.0</ele><time>2024-01-04T14:29:37Z</time></trkpt><trkpt lat="58.049622" lon="38.850155"><ele>109.9</ele><time>2024-01-04T14:29:44Z</time></trkpt><trkpt lat="58.049575" lon="38.850267"><ele>109.8</ele><time>2024-01-04T14:29:50Z</time></trkpt><trkpt lat="58.049575" lon="38.850412"><ele>107.4</ele><time>2024-01-04T14:29:56Z</time></trkpt><trkpt lat="58.049585" lon="38.850552"><ele>110.6</ele><time>2024-01-04T14:30:02Z</time></trkpt><trkpt lat="58.04955" lon="38.850685"><ele>111.7</ele><time>2024-01-04T14:30:09Z</time></trkpt><trkpt lat="58.04952" lon="38.850815"><ele>108.2</ele><time>2024-01-04T14:30:15Z</time></trkpt><trkpt lat="58.04951" lon="38.85095"><ele>103.8</ele><time>2024-01-04T14:30:20Z</time></trkpt><trkpt lat="58.049462" lon="38.851077"><ele>100.2</ele><time>2024-01-04T14:30:26Z</time></trkpt><trkpt lat="58.04945" lon="38.851217"><ele>102.4</ele><time>2024-01-04T14:30:32Z</time></trkpt><trkpt lat="58.049415" lon="38.851355"><ele>102.0</ele><time>2024-01-04T14:30:38Z</time></trkpt><trkpt lat="58.049395" lon="38.851497"><ele>102.4</ele><time>2024-01-04T14:30:44Z</time></trkpt><trkpt lat="58.04938" lon="38.85165"><ele>103.8</ele><time>2024-01-04T14:30:50Z</time></trkpt><trkpt lat="58.049365" lon="38.851785"><ele>104.8</ele><time>2024-01-04T14:30:55Z</time></trkpt><trkpt lat="58.049355" lon="38.851925"><ele>106.1</ele><time>2024-01-04T14:31:02Z</time></trkpt><trkpt lat="58.04931" lon="38.852062"><ele>105.2</ele><time>2024-01-04T14:31:08Z</time></trkpt><trkpt lat="58.049282" lon="38.85221"><ele>110.1</ele><time>2024-01-04T14:31:14Z</time></trkpt><trkpt lat="58.049252" lon="38.852335"><ele>112.1</ele><time>2024-01-04T14:31:20Z</time></trkpt><trkpt lat="58.049215" lon="38.852465"><ele>108.9</ele><time>2024-01-04T14:31:27Z</time></trkpt><trkpt lat="58.04917" lon="38.852575"><ele>106.4</ele><time>2024-01-04T14:31:32Z</time></trkpt><trkpt lat="58.049132" lon="38.852695"><ele>104.7</ele><time>2024-01-04T14:31:38Z</time></trkpt><trkpt lat="58.049115" lon="38.852832"><ele>106.6</ele><time>2024-01-04T14:31:43Z</time></trkpt><trkpt lat="58.04911" lon="38.85299"><ele>104.5</ele><time>2024-01-04T14:31:49Z</time></trkpt><trkpt lat="58.04909" lon="38.853137"><ele>107.9</ele><time>2024-01-04T14:31:55Z</time></trkpt><trkpt lat="58.049045" lon="38.853278"><ele>108.2</ele><time>2024-01-04T14:32:00Z</time></trkpt><trkpt lat="58.04902" lon="38.85341"><ele>103.3</ele><time>2024-01-04T14:32:06Z</time></trkpt><trkpt lat="58.04901" lon="38.853575"><ele>105.2</ele><time>2024-01-04T14:32:12Z</time></trkpt><trkpt lat="58.049007" lon="38.853715"><ele>107.5</ele><time>2024-01-04T14:32:18Z</time></trkpt><trkpt lat="58.04899" lon="38.853865"><ele>106.7</ele><time>2024-01-04T14:32:25Z</time></trkpt><trkpt lat="58.04895" lon="38.853977"><ele>109.6</ele><time>2024-01-04T14:32:31Z</time></trkpt><trkpt lat="58.04893" lon="38.854122"><ele>111.3</ele><time>2024-01-04T14:32:37Z</time></trkpt><trkpt lat="58.048927" lon="38.85427"><ele>109.4</ele><time>2024-01-04T14:32:43Z</time></trkpt><trkpt lat="58.048885" lon="38.85439"><ele>111.0</ele><time>2024-01-04T14:32:49Z</time></trkpt><trkpt lat="58.04886" lon="38.854535"><ele>111.3</ele><time>2024-01-04T14:32:55Z</time></trkpt><trkpt lat="58.048805" lon="38.85464"><ele>107.6</ele><time>2024-01-04T14:33:01Z</time></trkpt><trkpt lat="58.048745" lon="38.854722"><ele>109.1</ele><time>2024-01-04T14:33:06Z</time></trkpt><trkpt lat="58.04872" lon="38.85488"><ele>109.5</ele><time>2024-01-04T14:33:13Z</time></trkpt><trkpt lat="58.04871" lon="38.85503"><ele>111.9</ele><time>2024-01-04T14:33:19Z</time></trkpt><trkpt lat="58.048662" lon="38.85515"><ele>106.7</ele><time>2024-01-04T14:33:24Z</time></trkpt><trkpt lat="58.04866" lon="38.8553"><ele>110.2</ele><time>2024-01-04T14:33:30Z</time></trkpt><trkpt lat="58.04865" lon="38.855437"><ele>109.9</ele><time>2024-01-04T14:33:36Z</time></trkpt><trkpt lat="58.04864" lon="38.85558"><ele>108.5</ele><time>2024-01-04T14:33:42Z</time></trkpt><trkpt lat="58.048582" lon="38.855685"><ele>103.5</ele><time>2024-01-04T14:33:49Z</time></trkpt><trkpt lat="58.048557" lon="38.855815"><ele>106.5</ele><time>2024-01-04T14:33:55Z</time></trkpt><trkpt lat="58.048538" lon="38.855945"><ele>107.3</ele><time>2024-01-04T14:34:02Z</time></trkpt><trkpt lat="58.0485" lon="38.855975"><ele>108.5</ele><time>2024-01-04T14:34:09Z</time></trkpt><trkpt lat="58.04848" lon="38.85602"><ele>106.4</ele><time>2024-01-04T14:34:17Z</time></trkpt><trkpt lat="58.048468" lon="38.856155"><ele>106.7</ele><time>2024-01-04T14:34:24Z</time></trkpt><trkpt lat="58.048505" lon="38.856307"><ele>108.5</ele><time>2024-01-04T14:34:29Z</time></trkpt><trkpt lat="58.048535" lon="38.856425"><ele>107.8</ele><time>2024-01-04T14:34:36Z</time></trkpt><trkpt lat="58.048515" lon="38.85656"><ele>108.2</ele><time>2024-01-04T14:34:41Z</time></trkpt><trkpt lat="58.048465" lon="38.856505"><ele>106.5</ele><time>2024-01-04T14:34:48Z</time></trkpt><trkpt lat="58.048537" lon="38.856612"><ele>105.4</ele><time>2024-01-04T14:34:51Z</time></trkpt><trkpt lat="58.048515" lon="38.856745"><ele>106.0</ele><time>2024-01-04T14:34:54Z</time></trkpt><trkpt lat="58.04849" lon="38.856875"><ele>103.4</ele><time>2024-01-04T14:34:58Z</time></trkpt><trkpt lat="58.048455" lon="38.857025"><ele>104.4</ele><time>2024-01-04T14:35:03Z</time></trkpt><trkpt lat="58.048427" lon="38.85716"><ele>107.8</ele><time>2024-01-04T14:35:09Z</time></trkpt><trkpt lat="58.048375" lon="38.857275"><ele>108.3</ele><time>2024-01-04T14:35:13Z</time></trkpt><trkpt lat="58.048322" lon="38.857392"><ele>116.2</ele><time>2024-01-04T14:35:17Z</time></trkpt><trkpt lat="58.04833" lon="38.857457"><ele>112.9</ele><time>2024-01-04T14:35:24Z</time></trkpt><trkpt lat="58.048325" lon="38.857602"><ele>117.1</ele><time>2024-01-04T14:35:31Z</time></trkpt><trkpt lat="58.04831" lon="38.85776"><ele>117.1</ele><time>2024-01-04T14:35:37Z</time></trkpt><trkpt lat="58.04827" lon="38.857875"><ele>112.6</ele><time>2024-01-04T14:35:42Z</time></trkpt><trkpt lat="58.048245" lon="38.85802"><ele>107.4</ele><time>2024-01-04T14:35:49Z</time></trkpt><trkpt lat="58.04824" lon="38.858177"><ele>107.4</ele><time>2024-01-04T14:35:55Z</time></trkpt><trkpt lat="58.048205" lon="38.858322"><ele>108.2</ele><time>2024-01-04T14:36:01Z</time></trkpt><trkpt lat="58.04819" lon="38.858455"><ele>116.4</ele><time>2024-01-04T14:36:07Z</time></trkpt><trkpt lat="58.048145" lon="38.85858"><ele>109.0</ele><time>2024-01-04T14:36:13Z</time></trkpt><trkpt lat="58.048105" lon="38.8587"><ele>105.5</ele><time>2024-01-04T14:36:19Z</time></trkpt><trkpt lat="58.048087" lon="38.858852"><ele>109.8</ele><time>2024-01-04T14:36:25Z</time></trkpt><trkpt lat="58.048065" lon="38.85899"><ele>108.5</ele><time>2024-01-04T14:36:30Z</time></trkpt><trkpt lat="58.048018" lon="38.859118"><ele>109.9</ele><time>2024-01-04T14:36:35Z</time></trkpt><trkpt lat="58.04798" lon="38.85925"><ele>108.7</ele><time>2024-01-04T14:36:40Z</time></trkpt><trkpt lat="58.047937" lon="38.85938"><ele>103.7</ele><time>2024-01-04T14:36:47Z</time></trkpt><trkpt lat="58.047945" lon="38.85952"><ele>101.5</ele><time>2024-01-04T14:36:53Z</time></trkpt><trkpt lat="58.047965" lon="38.85967"><ele>107.6</ele><time>2024-01-04T14:36:59Z</time></trkpt><trkpt lat="58.048025" lon="38.85978"><ele>110.0</ele><time>2024-01-04T14:37:05Z</time></trkpt><trkpt lat="58.048085" lon="38.859815"><ele>109.8</ele><time>2024-01-04T14:37:12Z</time></trkpt><trkpt lat="58.048155" lon="38.85983"><ele>112.0</ele><time>2024-01-04T14:37:17Z</time></trkpt><trkpt lat="58.04823" lon="38.859835"><ele>113.8</ele><time>2024-01-04T14:37:22Z</time></trkpt><trkpt lat="58.0483" lon="38.859895"><ele>115.1</ele><time>2024-01-04T14:37:28Z</time></trkpt><trkpt lat="58.048375" lon="38.85993"><ele>114.8</ele><time>2024-01-04T14:37:35Z</time></trkpt><trkpt lat="58.04845" lon="38.859935"><ele>114.4</ele><time>2024-01-04T14:37:40Z</time></trkpt><trkpt lat="58.048527" lon="38.85997"><ele>114.8</ele><time>2024-01-04T14:37:46Z</time></trkpt><trkpt lat="58.048585" lon="38.86006"><ele>116.1</ele><time>2024-01-04T14:37:52Z</time></trkpt><trkpt lat="58.04866" lon="38.86014"><ele>115.8</ele><time>2024-01-04T14:37:59Z</time></trkpt><trkpt lat="58.04873" lon="38.8602"><ele>113.3</ele><time>2024-01-04T14:38:04Z</time></trkpt><trkpt lat="58.048807" lon="38.86022"><ele>110.9</ele><time>2024-01-04T14:38:11Z</time></trkpt><trkpt lat="58.048875" lon="38.860225"><ele>114.9</ele><time>2024-01-04T14:38:18Z</time></trkpt><trkpt lat="58.048937" lon="38.860305"><ele>115.6</ele><time>2024-01-04T14:38:24Z</time></trkpt><trkpt lat="58.049007" lon="38.86037"><ele>115.4</ele><time>2024-01-04T14:38:30Z</time></trkpt><trkpt lat="58.049085" lon="38.86043"><ele>115.2</ele><time>2024-01-04T14:38:36Z</time></trkpt><trkpt lat="58.049157" lon="38.86051"><ele>113.9</ele><time>2024-01-04T14:38:43Z</time></trkpt><trkpt lat="58.049233" lon="38.86056"><ele>112.4</ele><time>2024-01-04T14:38:49Z</time></trkpt><trkpt lat="58.049315" lon="38.860595"><ele>109.3</ele><time>2024-01-04T14:38:55Z</time></trkpt><trkpt lat="58.049387" lon="38.860667"><ele>106.5</ele><time>2024-01-04T14:39:01Z</time></trkpt><trkpt lat="58.049465" lon="38.860702"><ele>112.6</ele><time>2024-01-04T14:39:08Z</time></trkpt><trkpt lat="58.049507" lon="38.860665"><ele>113.3</ele><time>2024-01-04T14:39:15Z</time></trkpt><trkpt lat="58.04954" lon="38.860722"><ele>112.1</ele><time>2024-01-04T14:39:22Z</time></trkpt><trkpt lat="58.049535" lon="38.860732"><ele>112.7</ele><time>2024-01-04T14:39:29Z</time></trkpt><trkpt lat="58.04961" lon="38.86079"><ele>110.3</ele><time>2024-01-04T14:39:36Z</time></trkpt><trkpt lat="58.049655" lon="38.86087"><ele>111.0</ele><time>2024-01-04T14:39:43Z</time></trkpt><trkpt lat="58.049695" lon="38.860815"><ele>108.4</ele><time>2024-01-04T14:39:50Z</time></trkpt><trkpt lat="58.049645" lon="38.86084"><ele>110.2</ele><time>2024-01-04T14:39:57Z</time></trkpt><trkpt lat="58.04964" lon="38.86085"><ele>110.9</ele><time>2024-01-04T14:40:03Z</time></trkpt><trkpt lat="58.049587" lon="38.860845"><ele>111.4</ele><time>2024-01-04T14:40:16Z</time></trkpt><trkpt lat="58.049515" lon="38.8608"><ele>114.0</ele><time>2024-01-04T14:40:23Z</time></trkpt><trkpt lat="58.049445" lon="38.8608"><ele>118.3</ele><time>2024-01-04T14:40:30Z</time></trkpt><trkpt lat="58.049367" lon="38.860775"><ele>117.3</ele><time>2024-01-04T14:40:37Z</time></trkpt><trkpt lat="58.049315" lon="38.860745"><ele>115.4</ele><time>2024-01-04T14:40:44Z</time></trkpt><trkpt lat="58.04926" lon="38.860655"><ele>116.8</ele><time>2024-01-04T14:40:50Z</time></trkpt><trkpt lat="58.04919" lon="38.860585"><ele>117.3</ele><time>2024-01-04T14:40:57Z</time></trkpt><trkpt lat="58.04913" lon="38.860532"><ele>106.8</ele><time>2024-01-04T14:41:04Z</time></trkpt><trkpt lat="58.049065" lon="38.860478"><ele>115.3</ele><time>2024-01-04T14:41:11Z</time></trkpt><trkpt lat="58.049002" lon="38.860385"><ele>114.3</ele><time>2024-01-04T14:41:17Z</time></trkpt><trkpt lat="58.048922" lon="38.860352"><ele>114.4</ele><time>2024-01-04T14:41:24Z</time></trkpt><trkpt lat="58.048847" lon="38.860335"><ele>113.9</ele><time>2024-01-04T14:41:31Z</time></trkpt><trkpt lat="58.048775" lon="38.860285"><ele>113.4</ele><time>2024-01-04T14:41:38Z</time></trkpt><trkpt lat="58.048705" lon="38.86023"><ele>111.2</ele><time>2024-01-04T14:41:45Z</time></trkpt><trkpt lat="58.048625" lon="38.86018"><ele>108.8</ele><time>2024-01-04T14:41:52Z</time></trkpt><trkpt lat="58.048542" lon="38.86015"><ele>110.9</ele><time>2024-01-04T14:41:58Z</time></trkpt><trkpt lat="58.048465" lon="38.860102"><ele>111.2</ele><time>2024-01-04T14:42:05Z</time></trkpt><trkpt lat="58.0484" lon="38.860052"><ele>107.1</ele><time>2024-01-04T14:42:12Z</time></trkpt><trkpt lat="58.048317" lon="38.86001"><ele>111.8</ele><time>2024-01-04T14:42:19Z</time></trkpt><trkpt lat="58.048248" lon="38.859955"><ele>118.3</ele><time>2024-01-04T14:42:25Z</time></trkpt><trkpt lat="58.048175" lon="38.85992"><ele>117.9</ele><time>2024-01-04T14:42:31Z</time></trkpt><trkpt lat="58.048115" lon="38.85985"><ele>112.5</ele><time>2024-01-04T14:42:37Z</time></trkpt><trkpt lat="58.04804" lon="38.859787"><ele>107.8</ele><time>2024-01-04T14:42:44Z</time></trkpt><trkpt lat="58.04798" lon="38.85971"><ele>111.2</ele><time>2024-01-04T14:42:50Z</time></trkpt><trkpt lat="58.04795" lon="38.859567"><ele>113.0</ele><time>2024-01-04T14:42:57Z</time></trkpt><trkpt lat="58.04795" lon="38.859412"><ele>108.2</ele><time>2024-01-04T14:43:03Z</time></trkpt><trkpt lat="58.047947" lon="38.85929"><ele>106.2</ele><time>2024-01-04T14:43:10Z</time></trkpt><trkpt lat="58.047985" lon="38.859157"><ele>109.8</ele><time>2024-01-04T14:43:17Z</time></trkpt><trkpt lat="58.04805" lon="38.859067"><ele>111.0</ele><time>2024-01-04T14:43:24Z</time></trkpt><trkpt lat="58.04807" lon="38.85893"><ele>108.7</ele><time>2024-01-04T14:43:31Z</time></trkpt><trkpt lat="58.04812" lon="38.858805"><ele>103.5</ele><time>2024-01-04T14:43:38Z</time></trkpt><trkpt lat="58.048157" lon="38.858675"><ele>108.9</ele><time>2024-01-04T14:43:45Z</time></trkpt><trkpt lat="58.048175" lon="38.858522"><ele>107.0</ele><time>2024-01-04T14:43:51Z</time></trkpt><trkpt lat="58.04819" lon="38.85839"><ele>106.9</ele><time>2024-01-04T14:43:57Z</time></trkpt><trkpt lat="58.048215" lon="38.858235"><ele>105.6</ele><time>2024-01-04T14:44:04Z</time></trkpt><trkpt lat="58.04826" lon="38.858112"><ele>99.8</ele><time>2024-01-04T14:44:10Z</time></trkpt><trkpt lat="58.0483" lon="38.857985"><ele>97.6</ele><time>2024-01-04T14:44:17Z</time></trkpt><trkpt lat="58.04833" lon="38.857845"><ele>99.6</ele><time>2024-01-04T14:44:24Z</time></trkpt><trkpt lat="58.04834" lon="38.85769"><ele>102.4</ele><time>2024-01-04T14:44:31Z</time></trkpt><trkpt lat="58.048355" lon="38.85755"><ele>103.8</ele><time>2024-01-04T14:44:37Z</time></trkpt><trkpt lat="58.048355" lon="38.857385"><ele>107.3</ele><time>2024-01-04T14:44:43Z</time></trkpt><trkpt lat="58.048318" lon="38.857257"><ele>108.1</ele><time>2024-01-04T14:44:47Z</time></trkpt><trkpt lat="58.048317" lon="38.857107"><ele>111.2</ele><time>2024-01-04T14:44:53Z</time></trkpt><trkpt lat="58.04835" lon="38.856975"><ele>103.4</ele><time>2024-01-04T14:44:58Z</time></trkpt><trkpt lat="58.048395" lon="38.85685"><ele>100.8</ele><time>2024-01-04T14:45:04Z</time></trkpt><trkpt lat="58.04842" lon="38.856755"><ele>99.0</ele><time>2024-01-04T14:45:11Z</time></trkpt><trkpt lat="58.048445" lon="38.8566"><ele>100.2</ele><time>2024-01-04T14:45:18Z</time></trkpt><trkpt lat="58.048445" lon="38.856455"><ele>100.4</ele><time>2024-01-04T14:45:24Z</time></trkpt><trkpt lat="58.048487" lon="38.85634"><ele>107.5</ele><time>2024-01-04T14:45:30Z</time></trkpt><trkpt lat="58.048537" lon="38.856225"><ele>98.0</ele><time>2024-01-04T14:45:36Z</time></trkpt><trkpt lat="58.04859" lon="38.856125"><ele>102.0</ele><time>2024-01-04T14:45:42Z</time></trkpt><trkpt lat="58.048605" lon="38.855975"><ele>99.2</ele><time>2024-01-04T14:45:48Z</time></trkpt><trkpt lat="58.048607" lon="38.85583"><ele>99.4</ele><time>2024-01-04T14:45:53Z</time></trkpt><trkpt lat="58.048613" lon="38.85569"><ele>100.4</ele><time>2024-01-04T14:45:59Z</time></trkpt><trkpt lat="58.048635" lon="38.855537"><ele>106.3</ele><time>2024-01-04T14:46:06Z</time></trkpt><trkpt lat="58.048627" lon="38.855385"><ele>108.3</ele><time>2024-01-04T14:46:11Z</time></trkpt><trkpt lat="58.048645" lon="38.85523"><ele>112.2</ele><time>2024-01-04T14:46:18Z</time></trkpt><trkpt lat="58.048662" lon="38.855075"><ele>110.9</ele><time>2024-01-04T14:46:24Z</time></trkpt><trkpt lat="58.048657" lon="38.854935"><ele>113.7</ele><time>2024-01-04T14:46:29Z</time></trkpt><trkpt lat="58.048698" lon="38.854832"><ele>112.0</ele><time>2024-01-04T14:46:36Z</time></trkpt><trkpt lat="58.048725" lon="38.854695"><ele>109.8</ele><time>2024-01-04T14:46:41Z</time></trkpt><trkpt lat="58.048757" lon="38.85456"><ele>106.5</ele><time>2024-01-04T14:46:47Z</time></trkpt><trkpt lat="58.048795" lon="38.854433"><ele>104.4</ele><time>2024-01-04T14:46:54Z</time></trkpt><trkpt lat="58.04882" lon="38.85429"><ele>110.4</ele><time>2024-01-04T14:46:59Z</time></trkpt><trkpt lat="58.048825" lon="38.854135"><ele>108.7</ele><time>2024-01-04T14:47:06Z</time></trkpt><trkpt lat="58.04885" lon="38.854"><ele>110.4</ele><time>2024-01-04T14:47:12Z</time></trkpt><trkpt lat="58.048895" lon="38.853875"><ele>107.7</ele><time>2024-01-04T14:47:18Z</time></trkpt><trkpt lat="58.04895" lon="38.85378"><ele>106.1</ele><time>2024-01-04T14:47:24Z</time></trkpt><trkpt lat="58.04898" lon="38.853655"><ele>107.6</ele><time>2024-01-04T14:47:29Z</time></trkpt><trkpt lat="58.049015" lon="38.853525"><ele>109.1</ele><time>2024-01-04T14:47:36Z</time></trkpt><trkpt lat="58.049077" lon="38.853415"><ele>105.9</ele><time>2024-01-04T14:47:42Z</time></trkpt><trkpt lat="58.0491" lon="38.853262"><ele>104.6</ele><time>2024-01-04T14:47:49Z</time></trkpt><trkpt lat="58.04913" lon="38.853135"><ele>102.2</ele><time>2024-01-04T14:47:55Z</time></trkpt><trkpt lat="58.049147" lon="38.852983"><ele>100.1</ele><time>2024-01-04T14:48:02Z</time></trkpt><trkpt lat="58.049163" lon="38.85285"><ele>93.6</ele><time>2024-01-04T14:48:08Z</time></trkpt><trkpt lat="58.04923" lon="38.852795"><ele>101.4</ele><time>2024-01-04T14:48:14Z</time></trkpt><trkpt lat="58.049295" lon="38.85275"><ele>106.4</ele><time>2024-01-04T14:48:21Z</time></trkpt><trkpt lat="58.049367" lon="38.852785"><ele>104.8</ele><time>2024-01-04T14:48:28Z</time></trkpt><trkpt lat="58.049442" lon="38.852805"><ele>111.2</ele><time>2024-01-04T14:48:34Z</time></trkpt><trkpt lat="58.049505" lon="38.852875"><ele>106.8</ele><time>2024-01-04T14:48:41Z</time></trkpt><trkpt lat="58.049585" lon="38.852885"><ele>105.5</ele><time>2024-01-04T14:48:47Z</time></trkpt><trkpt lat="58.049665" lon="38.852912"><ele>107.1</ele><time>2024-01-04T14:48:53Z</time></trkpt><trkpt lat="58.04974" lon="38.852982"><ele>104.3</ele><time>2024-01-04T14:48:59Z</time></trkpt><trkpt lat="58.04978" lon="38.85312"><ele>105.5</ele><time>2024-01-04T14:49:05Z</time></trkpt><trkpt lat="58.04978" lon="38.853267"><ele>108.8</ele><time>2024-01-04T14:49:12Z</time></trkpt><trkpt lat="58.049735" lon="38.853512"><ele>107.7</ele><time>2024-01-04T14:49:26Z</time></trkpt><trkpt lat="58.04957" lon="38.853397"><ele>118.7</ele><time>2024-01-04T14:49:33Z</time></trkpt><trkpt lat="58.049565" lon="38.85335"><ele>119.6</ele><time>2024-01-04T14:49:42Z</time></trkpt><trkpt lat="58.049565" lon="38.85335"><ele>119.6</ele><time>2024-01-04T14:49:46Z</time></trkpt><trkpt lat="58.049752" lon="38.853025"><ele>110.4</ele><time>2024-01-04T14:52:36Z</time></trkpt><trkpt lat="58.049787" lon="38.853165"><ele>107.6</ele><time>2024-01-04T14:52:41Z</time></trkpt><trkpt lat="58.050022" lon="38.853107"><ele>129.8</ele><time>2024-01-04T14:52:47Z</time></trkpt><trkpt lat="58.05004" lon="38.853062"><ele>128.1</ele><time>2024-01-04T14:52:54Z</time></trkpt><trkpt lat="58.049987" lon="38.852912"><ele>124.0</ele><time>2024-01-04T14:52:58Z</time></trkpt><trkpt lat="58.049957" lon="38.852775"><ele>123.6</ele><time>2024-01-04T14:53:01Z</time></trkpt><trkpt lat="58.04993" lon="38.85264"><ele>123.1</ele><time>2024-01-04T14:53:05Z</time></trkpt><trkpt lat="58.049915" lon="38.85281"><ele>119.6</ele><time>2024-01-04T14:53:11Z</time></trkpt><trkpt lat="58.049833" lon="38.852765"><ele>116.3</ele><time>2024-01-04T14:53:17Z</time></trkpt><trkpt lat="58.04975" lon="38.852672"><ele>116.1</ele><time>2024-01-04T14:53:20Z</time></trkpt><trkpt lat="58.049678" lon="38.85258"><ele>116.1</ele><time>2024-01-04T14:53:23Z</time></trkpt><trkpt lat="58.057505" lon="38.80883"><ele>111.9</ele><time>2024-01-04T16:33:31Z</time></trkpt><trkpt lat="58.057585" lon="38.80879"><ele>112.0</ele><time>2024-01-04T16:33:38Z</time></trkpt><trkpt lat="58.05767" lon="38.808722"><ele>111.1</ele><time>2024-01-04T16:33:44Z</time></trkpt><trkpt lat="58.05775" lon="38.808745"><ele>109.2</ele><time>2024-01-04T16:33:51Z</time></trkpt><trkpt lat="58.057825" lon="38.808727"><ele>107.5</ele><time>2024-01-04T16:33:57Z</time></trkpt><trkpt lat="58.0579" lon="38.808685"><ele>105.9</ele><time>2024-01-04T16:34:03Z</time></trkpt><trkpt lat="58.057972" lon="38.808695"><ele>108.7</ele><time>2024-01-04T16:34:09Z</time></trkpt><trkpt lat="58.058045" lon="38.80867"><ele>109.5</ele><time>2024-01-04T16:34:15Z</time></trkpt><trkpt lat="58.058115" lon="38.80864"><ele>106.1</ele><time>2024-01-04T16:34:20Z</time></trkpt><trkpt lat="58.058195" lon="38.80872"><ele>105.4</ele><time>2024-01-04T16:34:26Z</time></trkpt><trkpt lat="58.058277" lon="38.80876"><ele>102.1</ele><time>2024-01-04T16:34:31Z</time></trkpt><trkpt lat="58.058355" lon="38.808775"><ele>107.1</ele><time>2024-01-04T16:34:37Z</time></trkpt><trkpt lat="58.058425" lon="38.80876"><ele>112.4</ele><time>2024-01-04T16:34:43Z</time></trkpt><trkpt lat="58.05849" lon="38.80882"><ele>108.5</ele><time>2024-01-04T16:34:49Z</time></trkpt><trkpt lat="58.058545" lon="38.80871"><ele>109.5</ele><time>2024-01-04T16:34:55Z</time></trkpt><trkpt lat="58.058562" lon="38.808572"><ele>112.4</ele><time>2024-01-04T16:35:01Z</time></trkpt><trkpt lat="58.058585" lon="38.808418"><ele>109.0</ele><time>2024-01-04T16:35:08Z</time></trkpt><trkpt lat="58.0586" lon="38.80827"><ele>109.1</ele><time>2024-01-04T16:35:14Z</time></trkpt><trkpt lat="58.058613" lon="38.808135"><ele>108.0</ele><time>2024-01-04T16:35:20Z</time></trkpt><trkpt lat="58.058625" lon="38.807982"><ele>107.1</ele><time>2024-01-04T16:35:26Z</time></trkpt><trkpt lat="58.058635" lon="38.807825"><ele>108.1</ele><time>2024-01-04T16:35:32Z</time></trkpt><trkpt lat="58.058655" lon="38.80768"><ele>107.6</ele><time>2024-01-04T16:35:38Z</time></trkpt><trkpt lat="58.058665" lon="38.807583"><ele>106.1</ele><time>2024-01-04T16:35:45Z</time></trkpt><trkpt lat="58.058665" lon="38.80767"><ele>104.5</ele><time>2024-01-04T16:35:53Z</time></trkpt><trkpt lat="58.05868" lon="38.807697"><ele>105.3</ele><time>2024-01-04T16:36:00Z</time></trkpt><trkpt lat="58.05875" lon="38.807737"><ele>104.3</ele><time>2024-01-04T16:36:07Z</time></trkpt><trkpt lat="58.0587" lon="38.80787"><ele>105.1</ele><time>2024-01-04T16:36:12Z</time></trkpt><trkpt lat="58.058585" lon="38.808055"><ele>108.5</ele><time>2024-01-04T16:36:21Z</time></trkpt><trkpt lat="58.058567" lon="38.8082"><ele>110.7</ele><time>2024-01-04T16:36:27Z</time></trkpt><trkpt lat="58.05853" lon="38.80833"><ele>112.9</ele><time>2024-01-04T16:36:33Z</time></trkpt><trkpt lat="58.058462" lon="38.808585"><ele>118.4</ele><time>2024-01-04T16:36:48Z</time></trkpt><trkpt lat="58.0584" lon="38.8087"><ele>121.0</ele><time>2024-01-04T16:36:55Z</time></trkpt><trkpt lat="58.058425" lon="38.80883"><ele>123.6</ele><time>2024-01-04T16:37:02Z</time></trkpt><trkpt lat="58.05842" lon="38.808715"><ele>117.8</ele><time>2024-01-04T16:37:09Z</time></trkpt></trkseg></trk></gpx>