<?xml version="1.0" encoding="UTF-8" standalone="no"?><gpx xmlns="http://www.topografix.com/GPX/1/1" xmlns:gpxtpx="http://www.garmin.com/xmlschemas/TrackPointExtension/v1" xmlns:xsi="http://www.w3.org/2001/XMLSchema-instance" creator="Sports Tracker" version="1.1" xsi:schemaLocation="http://www.topografix.com/GPX/1/1 http://www.topografix.com/GPX/1/1/gpx.xsd http://www.garmin.com/xmlschemas/TrackPointExtension/v1 http://www.garmin.com/xmlschemas/TrackPointExtensionv1.xsd"><metadata><name>27.09.2025 10:28</name><desc/><author><name>Александр</name></author></metadata><trk><name>27.09.2025 10:28</name><trkseg><trkpt lat="58.049207" lon="38.86076"><ele>105.0</ele><time>2025-09-27T07:28:35Z</time></trkpt><trkpt lat="58.04921" lon="38.86076"><ele>104.8</ele><time>2025-09-27T07:28:36Z</time></trkpt><trkpt lat="58.049205" lon="38.86076"><ele>104.2</ele><time>2025-09-27T07:28:42Z</time></trkpt><trkpt lat="58.049205" lon="38.860755"><ele>106.5</ele><time>2025-09-27T07:29:00Z</time></trkpt><trkpt lat="58.049205" lon="38.86076"><ele>106.3</ele><time>2025-09-27T07:29:03Z</time></trkpt><trkpt lat="58.049212" lon="38.860745"><ele>101.8</ele><time>2025-09-27T07:29:20Z</time></trkpt><trkpt lat="58.04921" lon="38.860742"><ele>100.9</ele><time>2025-09-27T07:29:21Z</time></trkpt><trkpt lat="58.0492" lon="38.860735"><ele>101.5</ele><time>2025-09-27T07:29:29Z</time></trkpt><trkpt lat="58.0492" lon="38.86073"><ele>100.8</ele><time>2025-09-27T07:29:31Z</time></trkpt><trkpt lat="58.049215" lon="38.860695"><ele>101.1</ele><time>2025-09-27T07:29:41Z</time></trkpt><trkpt lat="58.049215" lon="38.860695"><ele>101.1</ele><time>2025-09-27T07:29:42Z</time></trkpt><trkpt lat="58.049207" lon="38.8607"><ele>100.6</ele><time>2025-09-27T07:30:11Z</time></trkpt><trkpt lat="58.049207" lon="38.860702"><ele>100.6</ele><time>2025-09-27T07:30:12Z</time></trkpt><trkpt lat="58.049218" lon="38.86069"><ele>102.0</ele><time>2025-09-27T07:30:21Z</time></trkpt><trkpt lat="58.049218" lon="38.86069"><ele>102.6</ele><time>2025-09-27T07:30:23Z</time></trkpt><trkpt lat="58.049255" lon="38.860545"><ele>100.8</ele><time>2025-09-27T07:30:42Z</time></trkpt><trkpt lat="58.049295" lon="38.860405"><ele>99.8</ele><time>2025-09-27T07:30:47Z</time></trkpt><trkpt lat="58.049585" lon="38.859507"><ele>104.9</ele><time>2025-09-27T07:31:20Z</time></trkpt><trkpt lat="58.04963" lon="38.85939"><ele>104.5</ele><time>2025-09-27T07:31:26Z</time></trkpt><trkpt lat="58.04968" lon="38.859265"><ele>104.4</ele><time>2025-09-27T07:31:32Z</time></trkpt><trkpt lat="58.049715" lon="38.85914"><ele>102.3</ele><time>2025-09-27T07:31:37Z</time></trkpt><trkpt lat="58.04975" lon="38.85902"><ele>101.4</ele><time>2025-09-27T07:31:42Z</time></trkpt><trkpt lat="58.049785" lon="38.8589"><ele>101.5</ele><time>2025-09-27T07:31:47Z</time></trkpt><trkpt lat="58.04995" lon="38.85841"><ele>100.6</ele><time>2025-09-27T07:32:10Z</time></trkpt><trkpt lat="58.049992" lon="38.858275"><ele>99.9</ele><time>2025-09-27T07:32:16Z</time></trkpt><trkpt lat="58.050035" lon="38.858147"><ele>100.8</ele><time>2025-09-27T07:32:22Z</time></trkpt><trkpt lat="58.05007" lon="38.858025"><ele>99.0</ele><time>2025-09-27T07:32:28Z</time></trkpt><trkpt lat="58.050105" lon="38.857895"><ele>100.1</ele><time>2025-09-27T07:32:34Z</time></trkpt><trkpt lat="58.050145" lon="38.857775"><ele>100.1</ele><time>2025-09-27T07:32:39Z</time></trkpt><trkpt lat="58.050267" lon="38.857355"><ele>99.0</ele><time>2025-09-27T07:33:00Z</time></trkpt><trkpt lat="58.05031" lon="38.857217"><ele>100.2</ele><time>2025-09-27T07:33:07Z</time></trkpt><trkpt lat="58.050353" lon="38.857087"><ele>98.0</ele><time>2025-09-27T07:33:14Z</time></trkpt><trkpt lat="58.050395" lon="38.856965"><ele>97.8</ele><time>2025-09-27T07:33:20Z</time></trkpt><trkpt lat="58.05044" lon="38.85685"><ele>97.5</ele><time>2025-09-27T07:33:26Z</time></trkpt><trkpt lat="58.050605" lon="38.85634"><ele>98.3</ele><time>2025-09-27T07:33:50Z</time></trkpt><trkpt lat="58.05065" lon="38.856212"><ele>97.9</ele><time>2025-09-27T07:33:57Z</time></trkpt><trkpt lat="58.05069" lon="38.856092"><ele>98.6</ele><time>2025-09-27T07:34:03Z</time></trkpt><trkpt lat="58.050725" lon="38.85596"><ele>99.1</ele><time>2025-09-27T07:34:09Z</time></trkpt><trkpt lat="58.050765" lon="38.85582"><ele>99.1</ele><time>2025-09-27T07:34:16Z</time></trkpt><trkpt lat="58.05088" lon="38.85543"><ele>100.1</ele><time>2025-09-27T07:34:36Z</time></trkpt><trkpt lat="58.05092" lon="38.85531"><ele>101.0</ele><time>2025-09-27T07:34:41Z</time></trkpt><trkpt lat="58.050957" lon="38.855165"><ele>101.3</ele><time>2025-09-27T07:34:48Z</time></trkpt><trkpt lat="58.051" lon="38.855038"><ele>100.1</ele><time>2025-09-27T07:34:55Z</time></trkpt><trkpt lat="58.05104" lon="38.854925"><ele>100.4</ele><time>2025-09-27T07:35:01Z</time></trkpt><trkpt lat="58.05108" lon="38.85479"><ele>99.3</ele><time>2025-09-27T07:35:08Z</time></trkpt><trkpt lat="58.051125" lon="38.854667"><ele>99.7</ele><time>2025-09-27T07:35:15Z</time></trkpt><trkpt lat="58.05117" lon="38.85454"><ele>99.3</ele><time>2025-09-27T07:35:22Z</time></trkpt><trkpt lat="58.051215" lon="38.85441"><ele>99.7</ele><time>2025-09-27T07:35:29Z</time></trkpt><trkpt lat="58.05125" lon="38.854285"><ele>100.3</ele><time>2025-09-27T07:35:35Z</time></trkpt><trkpt lat="58.051285" lon="38.85416"><ele>99.2</ele><time>2025-09-27T07:35:41Z</time></trkpt><trkpt lat="58.051322" lon="38.854042"><ele>98.8</ele><time>2025-09-27T07:35:47Z</time></trkpt><trkpt lat="58.051352" lon="38.85392"><ele>98.5</ele><time>2025-09-27T07:35:53Z</time></trkpt><trkpt lat="58.051385" lon="38.853792"><ele>98.6</ele><time>2025-09-27T07:35:59Z</time></trkpt><trkpt lat="58.05142" lon="38.85365"><ele>98.6</ele><time>2025-09-27T07:36:06Z</time></trkpt><trkpt lat="58.051455" lon="38.85353"><ele>98.5</ele><time>2025-09-27T07:36:12Z</time></trkpt><trkpt lat="58.051492" lon="38.85341"><ele>97.5</ele><time>2025-09-27T07:36:18Z</time></trkpt><trkpt lat="58.051532" lon="38.853278"><ele>96.9</ele><time>2025-09-27T07:36:24Z</time></trkpt><trkpt lat="58.051572" lon="38.853145"><ele>96.4</ele><time>2025-09-27T07:36:31Z</time></trkpt><trkpt lat="58.05161" lon="38.853025"><ele>96.2</ele><time>2025-09-27T07:36:37Z</time></trkpt><trkpt lat="58.051642" lon="38.852905"><ele>95.5</ele><time>2025-09-27T07:36:43Z</time></trkpt><trkpt lat="58.051685" lon="38.85277"><ele>94.6</ele><time>2025-09-27T07:36:50Z</time></trkpt><trkpt lat="58.051723" lon="38.85264"><ele>95.0</ele><time>2025-09-27T07:36:57Z</time></trkpt><trkpt lat="58.05177" lon="38.852515"><ele>94.8</ele><time>2025-09-27T07:37:03Z</time></trkpt><trkpt lat="58.05194" lon="38.852055"><ele>96.3</ele><time>2025-09-27T07:37:26Z</time></trkpt><trkpt lat="58.05198" lon="38.851925"><ele>96.0</ele><time>2025-09-27T07:37:33Z</time></trkpt><trkpt lat="58.05202" lon="38.85179"><ele>95.8</ele><time>2025-09-27T07:37:40Z</time></trkpt><trkpt lat="58.052065" lon="38.851665"><ele>95.3</ele><time>2025-09-27T07:37:47Z</time></trkpt><trkpt lat="58.05211" lon="38.851532"><ele>95.5</ele><time>2025-09-27T07:37:54Z</time></trkpt><trkpt lat="58.052245" lon="38.85112"><ele>97.0</ele><time>2025-09-27T07:38:16Z</time></trkpt><trkpt lat="58.052295" lon="38.85099"><ele>96.6</ele><time>2025-09-27T07:38:23Z</time></trkpt><trkpt lat="58.05234" lon="38.850872"><ele>95.5</ele><time>2025-09-27T07:38:30Z</time></trkpt><trkpt lat="58.05239" lon="38.850765"><ele>95.7</ele><time>2025-09-27T07:38:36Z</time></trkpt><trkpt lat="58.052445" lon="38.85066"><ele>95.6</ele><time>2025-09-27T07:38:42Z</time></trkpt><trkpt lat="58.052625" lon="38.85025"><ele>96.1</ele><time>2025-09-27T07:39:06Z</time></trkpt><trkpt lat="58.052667" lon="38.850135"><ele>96.4</ele><time>2025-09-27T07:39:13Z</time></trkpt><trkpt lat="58.05272" lon="38.85002"><ele>97.2</ele><time>2025-09-27T07:39:20Z</time></trkpt><trkpt lat="58.052778" lon="38.849917"><ele>96.8</ele><time>2025-09-27T07:39:27Z</time></trkpt><trkpt lat="58.052845" lon="38.849815"><ele>96.7</ele><time>2025-09-27T07:39:34Z</time></trkpt><trkpt lat="58.052937" lon="38.85009"><ele>96.5</ele><time>2025-09-27T07:39:56Z</time></trkpt><trkpt lat="58.05289" lon="38.85022"><ele>96.6</ele><time>2025-09-27T07:40:00Z</time></trkpt><trkpt lat="58.052835" lon="38.850365"><ele>96.5</ele><time>2025-09-27T07:40:04Z</time></trkpt><trkpt lat="58.052778" lon="38.850505"><ele>96.9</ele><time>2025-09-27T07:40:08Z</time></trkpt><trkpt lat="58.052723" lon="38.85065"><ele>96.9</ele><time>2025-09-27T07:40:12Z</time></trkpt><trkpt lat="58.05268" lon="38.85076"><ele>96.8</ele><time>2025-09-27T07:40:15Z</time></trkpt><trkpt lat="58.05263" lon="38.850905"><ele>96.9</ele><time>2025-09-27T07:40:19Z</time></trkpt><trkpt lat="58.05258" lon="38.85104"><ele>97.1</ele><time>2025-09-27T07:40:23Z</time></trkpt><trkpt lat="58.05254" lon="38.851185"><ele>97.1</ele><time>2025-09-27T07:40:27Z</time></trkpt><trkpt lat="58.052495" lon="38.851315"><ele>97.2</ele><time>2025-09-27T07:40:31Z</time></trkpt><trkpt lat="58.05244" lon="38.85144"><ele>97.9</ele><time>2025-09-27T07:40:35Z</time></trkpt><trkpt lat="58.052385" lon="38.85156"><ele>96.2</ele><time>2025-09-27T07:40:39Z</time></trkpt><trkpt lat="58.052335" lon="38.851712"><ele>95.9</ele><time>2025-09-27T07:40:43Z</time></trkpt><trkpt lat="58.052295" lon="38.85183"><ele>96.3</ele><time>2025-09-27T07:40:46Z</time></trkpt><trkpt lat="58.05224" lon="38.85198"><ele>95.9</ele><time>2025-09-27T07:40:50Z</time></trkpt><trkpt lat="58.052195" lon="38.852125"><ele>94.9</ele><time>2025-09-27T07:40:54Z</time></trkpt><trkpt lat="58.052145" lon="38.852275"><ele>94.7</ele><time>2025-09-27T07:40:58Z</time></trkpt><trkpt lat="58.052095" lon="38.85242"><ele>95.4</ele><time>2025-09-27T07:41:02Z</time></trkpt><trkpt lat="58.052045" lon="38.852565"><ele>94.7</ele><time>2025-09-27T07:41:06Z</time></trkpt><trkpt lat="58.05201" lon="38.852677"><ele>95.4</ele><time>2025-09-27T07:41:09Z</time></trkpt><trkpt lat="58.051967" lon="38.85279"><ele>96.1</ele><time>2025-09-27T07:41:12Z</time></trkpt><trkpt lat="58.05192" lon="38.85294"><ele>96.4</ele><time>2025-09-27T07:41:16Z</time></trkpt><trkpt lat="58.051867" lon="38.853092"><ele>96.9</ele><time>2025-09-27T07:41:20Z</time></trkpt><trkpt lat="58.051815" lon="38.853245"><ele>97.1</ele><time>2025-09-27T07:41:24Z</time></trkpt><trkpt lat="58.051775" lon="38.853362"><ele>97.1</ele><time>2025-09-27T07:41:27Z</time></trkpt><trkpt lat="58.051727" lon="38.853502"><ele>97.3</ele><time>2025-09-27T07:41:31Z</time></trkpt><trkpt lat="58.051685" lon="38.85365"><ele>96.9</ele><time>2025-09-27T07:41:35Z</time></trkpt><trkpt lat="58.05164" lon="38.8538"><ele>96.9</ele><time>2025-09-27T07:41:39Z</time></trkpt><trkpt lat="58.051595" lon="38.853945"><ele>97.4</ele><time>2025-09-27T07:41:43Z</time></trkpt><trkpt lat="58.051545" lon="38.85409"><ele>97.3</ele><time>2025-09-27T07:41:47Z</time></trkpt><trkpt lat="58.051492" lon="38.854245"><ele>97.5</ele><time>2025-09-27T07:41:51Z</time></trkpt><trkpt lat="58.051445" lon="38.854385"><ele>97.9</ele><time>2025-09-27T07:41:55Z</time></trkpt><trkpt lat="58.0514" lon="38.854527"><ele>97.7</ele><time>2025-09-27T07:41:59Z</time></trkpt><trkpt lat="58.051355" lon="38.854675"><ele>97.6</ele><time>2025-09-27T07:42:03Z</time></trkpt><trkpt lat="58.05131" lon="38.854822"><ele>97.3</ele><time>2025-09-27T07:42:07Z</time></trkpt><trkpt lat="58.051272" lon="38.854965"><ele>97.0</ele><time>2025-09-27T07:42:11Z</time></trkpt><trkpt lat="58.05123" lon="38.855107"><ele>97.5</ele><time>2025-09-27T07:42:15Z</time></trkpt><trkpt lat="58.051185" lon="38.855245"><ele>99.1</ele><time>2025-09-27T07:42:19Z</time></trkpt><trkpt lat="58.05114" lon="38.855385"><ele>99.7</ele><time>2025-09-27T07:42:23Z</time></trkpt><trkpt lat="58.051085" lon="38.85554"><ele>98.8</ele><time>2025-09-27T07:42:27Z</time></trkpt><trkpt lat="58.051047" lon="38.85566"><ele>98.7</ele><time>2025-09-27T07:42:30Z</time></trkpt><trkpt lat="58.05101" lon="38.855815"><ele>98.4</ele><time>2025-09-27T07:42:34Z</time></trkpt><trkpt lat="58.050972" lon="38.855935"><ele>97.8</ele><time>2025-09-27T07:42:37Z</time></trkpt><trkpt lat="58.050935" lon="38.85606"><ele>96.4</ele><time>2025-09-27T07:42:40Z</time></trkpt><trkpt lat="58.050888" lon="38.85621"><ele>96.2</ele><time>2025-09-27T07:42:44Z</time></trkpt><trkpt lat="58.050845" lon="38.856355"><ele>97.0</ele><time>2025-09-27T07:42:48Z</time></trkpt><trkpt lat="58.0508" lon="38.856505"><ele>97.0</ele><time>2025-09-27T07:42:52Z</time></trkpt><trkpt lat="58.05076" lon="38.856655"><ele>97.0</ele><time>2025-09-27T07:42:56Z</time></trkpt><trkpt lat="58.050555" lon="38.85743"><ele>99.5</ele><time>2025-09-27T07:43:16Z</time></trkpt><trkpt lat="58.050512" lon="38.857585"><ele>98.8</ele><time>2025-09-27T07:43:20Z</time></trkpt><trkpt lat="58.050475" lon="38.857705"><ele>98.7</ele><time>2025-09-27T07:43:23Z</time></trkpt><trkpt lat="58.05043" lon="38.85786"><ele>98.7</ele><time>2025-09-27T07:43:27Z</time></trkpt><trkpt lat="58.050397" lon="38.858"><ele>98.8</ele><time>2025-09-27T07:43:31Z</time></trkpt><trkpt lat="58.050357" lon="38.858127"><ele>99.5</ele><time>2025-09-27T07:43:35Z</time></trkpt><trkpt lat="58.050325" lon="38.85825"><ele>100.9</ele><time>2025-09-27T07:43:38Z</time></trkpt><trkpt lat="58.050295" lon="38.858385"><ele>100.4</ele><time>2025-09-27T07:43:41Z</time></trkpt><trkpt lat="58.05026" lon="38.85851"><ele>99.7</ele><time>2025-09-27T07:43:44Z</time></trkpt><trkpt lat="58.050025" lon="38.859405"><ele>96.0</ele><time>2025-09-27T07:44:06Z</time></trkpt><trkpt lat="58.049985" lon="38.85953"><ele>97.7</ele><time>2025-09-27T07:44:09Z</time></trkpt><trkpt lat="58.04995" lon="38.859682"><ele>96.7</ele><time>2025-09-27T07:44:13Z</time></trkpt><trkpt lat="58.049902" lon="38.85983"><ele>96.6</ele><time>2025-09-27T07:44:17Z</time></trkpt><trkpt lat="58.04985" lon="38.85997"><ele>92.4</ele><time>2025-09-27T07:44:21Z</time></trkpt><trkpt lat="58.04981" lon="38.86011"><ele>93.3</ele><time>2025-09-27T07:44:25Z</time></trkpt><trkpt lat="58.04977" lon="38.860265"><ele>92.4</ele><time>2025-09-27T07:44:29Z</time></trkpt><trkpt lat="58.04973" lon="38.860395"><ele>91.4</ele><time>2025-09-27T07:44:32Z</time></trkpt><trkpt lat="58.0497" lon="38.860547"><ele>93.1</ele><time>2025-09-27T07:44:36Z</time></trkpt><trkpt lat="58.049517" lon="38.861365"><ele>95.9</ele><time>2025-09-27T07:44:56Z</time></trkpt><trkpt lat="58.04948" lon="38.861483"><ele>96.6</ele><time>2025-09-27T07:44:59Z</time></trkpt><trkpt lat="58.04944" lon="38.861635"><ele>97.3</ele><time>2025-09-27T07:45:03Z</time></trkpt><trkpt lat="58.049397" lon="38.86177"><ele>96.3</ele><time>2025-09-27T07:45:07Z</time></trkpt><trkpt lat="58.049355" lon="38.86191"><ele>96.6</ele><time>2025-09-27T07:45:11Z</time></trkpt><trkpt lat="58.049317" lon="38.862045"><ele>96.4</ele><time>2025-09-27T07:45:15Z</time></trkpt><trkpt lat="58.049272" lon="38.86217"><ele>96.2</ele><time>2025-09-27T07:45:19Z</time></trkpt><trkpt lat="58.049225" lon="38.86229"><ele>96.8</ele><time>2025-09-27T07:45:23Z</time></trkpt><trkpt lat="58.049007" lon="38.86234"><ele>100.9</ele><time>2025-09-27T07:45:46Z</time></trkpt><trkpt lat="58.04899" lon="38.86219"><ele>99.7</ele><time>2025-09-27T07:45:53Z</time></trkpt><trkpt lat="58.049" lon="38.862045"><ele>99.1</ele><time>2025-09-27T07:45:59Z</time></trkpt><trkpt lat="58.049007" lon="38.8619"><ele>99.1</ele><time>2025-09-27T07:46:05Z</time></trkpt><trkpt lat="58.049032" lon="38.861763"><ele>99.0</ele><time>2025-09-27T07:46:11Z</time></trkpt><trkpt lat="58.049085" lon="38.86132"><ele>100.0</ele><time>2025-09-27T07:46:36Z</time></trkpt><trkpt lat="58.049105" lon="38.86119"><ele>100.2</ele><time>2025-09-27T07:46:38Z</time></trkpt><trkpt lat="58.04913" lon="38.86106"><ele>99.6</ele><time>2025-09-27T07:46:44Z</time></trkpt><trkpt lat="58.049162" lon="38.86093"><ele>99.2</ele><time>2025-09-27T07:46:50Z</time></trkpt><trkpt lat="58.049195" lon="38.860805"><ele>99.0</ele><time>2025-09-27T07:46:56Z</time></trkpt><trkpt lat="58.049225" lon="38.860665"><ele>99.5</ele><time>2025-09-27T07:47:02Z</time></trkpt><trkpt lat="58.049335" lon="38.860185"><ele>96.6</ele><time>2025-09-27T07:47:26Z</time></trkpt><trkpt lat="58.049365" lon="38.86005"><ele>96.3</ele><time>2025-09-27T07:47:32Z</time></trkpt><trkpt lat="58.049405" lon="38.859915"><ele>98.3</ele><time>2025-09-27T07:47:37Z</time></trkpt><trkpt lat="58.049445" lon="38.859785"><ele>102.7</ele><time>2025-09-27T07:47:43Z</time></trkpt><trkpt lat="58.04948" lon="38.85966"><ele>104.1</ele><time>2025-09-27T07:47:47Z</time></trkpt><trkpt lat="58.0495" lon="38.859525"><ele>101.6</ele><time>2025-09-27T07:47:53Z</time></trkpt><trkpt lat="58.049605" lon="38.85918"><ele>101.9</ele><time>2025-09-27T07:48:16Z</time></trkpt><trkpt lat="58.04964" lon="38.859055"><ele>101.8</ele><time>2025-09-27T07:48:19Z</time></trkpt><trkpt lat="58.04968" lon="38.85894"><ele>99.7</ele><time>2025-09-27T07:48:25Z</time></trkpt><trkpt lat="58.049715" lon="38.858817"><ele>97.7</ele><time>2025-09-27T07:48:30Z</time></trkpt><trkpt lat="58.049765" lon="38.858715"><ele>100.6</ele><time>2025-09-27T07:48:35Z</time></trkpt><trkpt lat="58.049815" lon="38.858577"><ele>102.5</ele><time>2025-09-27T07:48:40Z</time></trkpt><trkpt lat="58.04986" lon="38.85845"><ele>102.7</ele><time>2025-09-27T07:48:46Z</time></trkpt><trkpt lat="58.049922" lon="38.85825"><ele>98.9</ele><time>2025-09-27T07:49:06Z</time></trkpt><trkpt lat="58.04997" lon="38.858125"><ele>97.1</ele><time>2025-09-27T07:49:06Z</time></trkpt><trkpt lat="58.05002" lon="38.858"><ele>99.1</ele><time>2025-09-27T07:49:11Z</time></trkpt><trkpt lat="58.050058" lon="38.857875"><ele>96.1</ele><time>2025-09-27T07:49:18Z</time></trkpt><trkpt lat="58.0501" lon="38.857748"><ele>96.3</ele><time>2025-09-27T07:49:25Z</time></trkpt><trkpt lat="58.05015" lon="38.857635"><ele>96.7</ele><time>2025-09-27T07:49:31Z</time></trkpt><trkpt lat="58.0503" lon="38.85719"><ele>99.3</ele><time>2025-09-27T07:49:56Z</time></trkpt><trkpt lat="58.050345" lon="38.85707"><ele>97.9</ele><time>2025-09-27T07:50:03Z</time></trkpt><trkpt lat="58.05038" lon="38.85694"><ele>96.8</ele><time>2025-09-27T07:50:10Z</time></trkpt><trkpt lat="58.05042" lon="38.856805"><ele>97.8</ele><time>2025-09-27T07:50:17Z</time></trkpt><trkpt lat="58.05046" lon="38.85667"><ele>98.6</ele><time>2025-09-27T07:50:24Z</time></trkpt><trkpt lat="58.050505" lon="38.85655"><ele>98.6</ele><time>2025-09-27T07:50:31Z</time></trkpt><trkpt lat="58.05054" lon="38.856422"><ele>98.4</ele><time>2025-09-27T07:50:38Z</time></trkpt><trkpt lat="58.050565" lon="38.85629"><ele>98.2</ele><time>2025-09-27T07:50:45Z</time></trkpt><trkpt lat="58.05059" lon="38.856155"><ele>97.8</ele><time>2025-09-27T07:50:52Z</time></trkpt><trkpt lat="58.050617" lon="38.856008"><ele>98.9</ele><time>2025-09-27T07:50:59Z</time></trkpt><trkpt lat="58.05064" lon="38.85588"><ele>98.1</ele><time>2025-09-27T07:51:05Z</time></trkpt><trkpt lat="58.050668" lon="38.855755"><ele>99.1</ele><time>2025-09-27T07:51:11Z</time></trkpt><trkpt lat="58.050815" lon="38.85529"><ele>99.5</ele><time>2025-09-27T07:51:36Z</time></trkpt><trkpt lat="58.05086" lon="38.855165"><ele>99.2</ele><time>2025-09-27T07:51:43Z</time></trkpt><trkpt lat="58.050907" lon="38.85505"><ele>99.0</ele><time>2025-09-27T07:51:50Z</time></trkpt><trkpt lat="58.05095" lon="38.85492"><ele>98.1</ele><time>2025-09-27T07:51:57Z</time></trkpt><trkpt lat="58.050995" lon="38.854785"><ele>98.0</ele><time>2025-09-27T07:52:04Z</time></trkpt><trkpt lat="58.05114" lon="38.85439"><ele>98.8</ele><time>2025-09-27T07:52:26Z</time></trkpt><trkpt lat="58.051187" lon="38.854285"><ele>98.6</ele><time>2025-09-27T07:52:32Z</time></trkpt><trkpt lat="58.051237" lon="38.854175"><ele>98.3</ele><time>2025-09-27T07:52:39Z</time></trkpt><trkpt lat="58.051273" lon="38.854035"><ele>98.6</ele><time>2025-09-27T07:52:46Z</time></trkpt><trkpt lat="58.05131" lon="38.853915"><ele>98.4</ele><time>2025-09-27T07:52:52Z</time></trkpt><trkpt lat="58.05135" lon="38.853785"><ele>98.9</ele><time>2025-09-27T07:52:59Z</time></trkpt><trkpt lat="58.051395" lon="38.853657"><ele>98.6</ele><time>2025-09-27T07:53:06Z</time></trkpt><trkpt lat="58.051512" lon="38.85326"><ele>98.6</ele><time>2025-09-27T07:53:26Z</time></trkpt><trkpt lat="58.05156" lon="38.853132"><ele>98.1</ele><time>2025-09-27T07:53:33Z</time></trkpt><trkpt lat="58.0516" lon="38.852995"><ele>98.2</ele><time>2025-09-27T07:53:40Z</time></trkpt><trkpt lat="58.051645" lon="38.852865"><ele>98.7</ele><time>2025-09-27T07:53:47Z</time></trkpt><trkpt lat="58.05169" lon="38.852737"><ele>98.0</ele><time>2025-09-27T07:53:54Z</time></trkpt><trkpt lat="58.05185" lon="38.852315"><ele>97.6</ele><time>2025-09-27T07:54:16Z</time></trkpt><trkpt lat="58.05189" lon="38.8522"><ele>97.5</ele><time>2025-09-27T07:54:22Z</time></trkpt><trkpt lat="58.051945" lon="38.85208"><ele>97.7</ele><time>2025-09-27T07:54:29Z</time></trkpt><trkpt lat="58.051985" lon="38.851965"><ele>98.6</ele><time>2025-09-27T07:54:35Z</time></trkpt><trkpt lat="58.05203" lon="38.85184"><ele>98.7</ele><time>2025-09-27T07:54:42Z</time></trkpt><trkpt lat="58.05218" lon="38.85141"><ele>100.0</ele><time>2025-09-27T07:55:06Z</time></trkpt><trkpt lat="58.05222" lon="38.851295"><ele>100.0</ele><time>2025-09-27T07:55:13Z</time></trkpt><trkpt lat="58.052265" lon="38.851168"><ele>98.9</ele><time>2025-09-27T07:55:20Z</time></trkpt><trkpt lat="58.052317" lon="38.851045"><ele>99.3</ele><time>2025-09-27T07:55:27Z</time></trkpt><trkpt lat="58.05236" lon="38.850925"><ele>98.4</ele><time>2025-09-27T07:55:34Z</time></trkpt><trkpt lat="58.052497" lon="38.850545"><ele>98.2</ele><time>2025-09-27T07:55:56Z</time></trkpt><trkpt lat="58.052545" lon="38.85043"><ele>98.0</ele><time>2025-09-27T07:56:03Z</time></trkpt><trkpt lat="58.052595" lon="38.850315"><ele>98.6</ele><time>2025-09-27T07:56:10Z</time></trkpt><trkpt lat="58.052645" lon="38.850195"><ele>98.2</ele><time>2025-09-27T07:56:17Z</time></trkpt><trkpt lat="58.052695" lon="38.850085"><ele>97.9</ele><time>2025-09-27T07:56:24Z</time></trkpt><trkpt lat="58.052875" lon="38.849765"><ele>97.6</ele><time>2025-09-27T07:56:46Z</time></trkpt><trkpt lat="58.052932" lon="38.84974"><ele>97.3</ele><time>2025-09-27T07:56:53Z</time></trkpt><trkpt lat="58.052955" lon="38.84985"><ele>96.9</ele><time>2025-09-27T07:57:00Z</time></trkpt><trkpt lat="58.052933" lon="38.849985"><ele>97.6</ele><time>2025-09-27T07:57:05Z</time></trkpt><trkpt lat="58.052905" lon="38.850112"><ele>97.5</ele><time>2025-09-27T07:57:09Z</time></trkpt><trkpt lat="58.052858" lon="38.850245"><ele>97.3</ele><time>2025-09-27T07:57:13Z</time></trkpt><trkpt lat="58.05282" lon="38.850357"><ele>97.2</ele><time>2025-09-27T07:57:16Z</time></trkpt><trkpt lat="58.052552" lon="38.851082"><ele>97.4</ele><time>2025-09-27T07:57:36Z</time></trkpt><trkpt lat="58.0525" lon="38.851232"><ele>97.5</ele><time>2025-09-27T07:57:40Z</time></trkpt><trkpt lat="58.05245" lon="38.851377"><ele>97.2</ele><time>2025-09-27T07:57:44Z</time></trkpt><trkpt lat="58.0524" lon="38.85152"><ele>97.3</ele><time>2025-09-27T07:57:48Z</time></trkpt><trkpt lat="58.05235" lon="38.85167"><ele>96.6</ele><time>2025-09-27T07:57:52Z</time></trkpt><trkpt lat="58.0523" lon="38.85181"><ele>97.1</ele><time>2025-09-27T07:57:56Z</time></trkpt><trkpt lat="58.05225" lon="38.85196"><ele>96.6</ele><time>2025-09-27T07:58:00Z</time></trkpt><trkpt lat="58.0522" lon="38.852095"><ele>96.8</ele><time>2025-09-27T07:58:04Z</time></trkpt><trkpt lat="58.05194" lon="38.852897"><ele>98.1</ele><time>2025-09-27T07:58:26Z</time></trkpt><trkpt lat="58.05189" lon="38.853045"><ele>98.5</ele><time>2025-09-27T07:58:30Z</time></trkpt><trkpt lat="58.05184" lon="38.853192"><ele>98.8</ele><time>2025-09-27T07:58:34Z</time></trkpt><trkpt lat="58.05179" lon="38.85334"><ele>98.7</ele><time>2025-09-27T07:58:38Z</time></trkpt><trkpt lat="58.051738" lon="38.853485"><ele>98.4</ele><time>2025-09-27T07:58:42Z</time></trkpt><trkpt lat="58.05169" lon="38.85363"><ele>98.2</ele><time>2025-09-27T07:58:46Z</time></trkpt><trkpt lat="58.05164" lon="38.853775"><ele>98.4</ele><time>2025-09-27T07:58:50Z</time></trkpt><trkpt lat="58.05159" lon="38.853922"><ele>98.1</ele><time>2025-09-27T07:58:54Z</time></trkpt><trkpt lat="58.051312" lon="38.8547"><ele>98.3</ele><time>2025-09-27T07:59:16Z</time></trkpt><trkpt lat="58.051265" lon="38.854845"><ele>98.1</ele><time>2025-09-27T07:59:20Z</time></trkpt><trkpt lat="58.05122" lon="38.854995"><ele>97.8</ele><time>2025-09-27T07:59:24Z</time></trkpt><trkpt lat="58.05117" lon="38.855142"><ele>97.8</ele><time>2025-09-27T07:59:28Z</time></trkpt><trkpt lat="58.051117" lon="38.85529"><ele>97.8</ele><time>2025-09-27T07:59:32Z</time></trkpt><trkpt lat="58.05107" lon="38.85543"><ele>97.7</ele><time>2025-09-27T07:59:36Z</time></trkpt><trkpt lat="58.051027" lon="38.855575"><ele>97.1</ele><time>2025-09-27T07:59:40Z</time></trkpt><trkpt lat="58.050978" lon="38.855725"><ele>96.5</ele><time>2025-09-27T07:59:44Z</time></trkpt><trkpt lat="58.05073" lon="38.856597"><ele>98.4</ele><time>2025-09-27T08:00:06Z</time></trkpt><trkpt lat="58.05069" lon="38.856755"><ele>97.6</ele><time>2025-09-27T08:00:10Z</time></trkpt><trkpt lat="58.050652" lon="38.856907"><ele>98.3</ele><time>2025-09-27T08:00:14Z</time></trkpt><trkpt lat="58.05061" lon="38.857055"><ele>98.1</ele><time>2025-09-27T08:00:18Z</time></trkpt><trkpt lat="58.050567" lon="38.857205"><ele>98.5</ele><time>2025-09-27T08:00:22Z</time></trkpt><trkpt lat="58.05052" lon="38.857357"><ele>98.3</ele><time>2025-09-27T08:00:26Z</time></trkpt><trkpt lat="58.050475" lon="38.85751"><ele>98.4</ele><time>2025-09-27T08:00:30Z</time></trkpt><trkpt lat="58.05043" lon="38.85766"><ele>98.8</ele><time>2025-09-27T08:00:34Z</time></trkpt><trkpt lat="58.050385" lon="38.85781"><ele>98.5</ele><time>2025-09-27T08:00:38Z</time></trkpt><trkpt lat="58.05034" lon="38.857965"><ele>98.3</ele><time>2025-09-27T08:00:42Z</time></trkpt><trkpt lat="58.0503" lon="38.85812"><ele>99.9</ele><time>2025-09-27T08:00:46Z</time></trkpt><trkpt lat="58.05025" lon="38.858265"><ele>99.5</ele><time>2025-09-27T08:00:50Z</time></trkpt><trkpt lat="58.050195" lon="38.85849"><ele>98.7</ele><time>2025-09-27T08:00:56Z</time></trkpt><trkpt lat="58.050148" lon="38.85864"><ele>98.9</ele><time>2025-09-27T08:01:00Z</time></trkpt><trkpt lat="58.050115" lon="38.858795"><ele>98.0</ele><time>2025-09-27T08:01:04Z</time></trkpt><trkpt lat="58.050072" lon="38.858945"><ele>97.3</ele><time>2025-09-27T08:01:08Z</time></trkpt><trkpt lat="58.05004" lon="38.85909"><ele>98.1</ele><time>2025-09-27T08:01:12Z</time></trkpt><trkpt lat="58.050005" lon="38.859242"><ele>97.7</ele><time>2025-09-27T08:01:16Z</time></trkpt><trkpt lat="58.049967" lon="38.859397"><ele>96.6</ele><time>2025-09-27T08:01:20Z</time></trkpt><trkpt lat="58.04993" lon="38.859552"><ele>96.7</ele><time>2025-09-27T08:01:24Z</time></trkpt><trkpt lat="58.049735" lon="38.86043"><ele>98.2</ele><time>2025-09-27T08:01:46Z</time></trkpt><trkpt lat="58.049697" lon="38.86059"><ele>99.7</ele><time>2025-09-27T08:01:50Z</time></trkpt><trkpt lat="58.04967" lon="38.860752"><ele>99.8</ele><time>2025-09-27T08:01:54Z</time></trkpt><trkpt lat="58.049642" lon="38.860897"><ele>100.2</ele><time>2025-09-27T08:01:58Z</time></trkpt><trkpt lat="58.049605" lon="38.86105"><ele>100.4</ele><time>2025-09-27T08:02:02Z</time></trkpt><trkpt lat="58.049565" lon="38.861205"><ele>99.7</ele><time>2025-09-27T08:02:06Z</time></trkpt><trkpt lat="58.049527" lon="38.861365"><ele>99.7</ele><time>2025-09-27T08:02:10Z</time></trkpt><trkpt lat="58.0495" lon="38.861487"><ele>99.2</ele><time>2025-09-27T08:02:13Z</time></trkpt><trkpt lat="58.04947" lon="38.861615"><ele>99.0</ele><time>2025-09-27T08:02:16Z</time></trkpt><trkpt lat="58.04926" lon="38.86233"><ele>99.6</ele><time>2025-09-27T08:02:36Z</time></trkpt><trkpt lat="58.0492" lon="38.862422"><ele>100.1</ele><time>2025-09-27T08:02:40Z</time></trkpt><trkpt lat="58.049135" lon="38.86248"><ele>99.1</ele><time>2025-09-27T08:02:45Z</time></trkpt><trkpt lat="58.049055" lon="38.862445"><ele>97.8</ele><time>2025-09-27T08:02:52Z</time></trkpt><trkpt lat="58.049017" lon="38.862307"><ele>97.4</ele><time>2025-09-27T08:02:59Z</time></trkpt><trkpt lat="58.049027" lon="38.86217"><ele>97.4</ele><time>2025-09-27T08:03:05Z</time></trkpt><trkpt lat="58.04907" lon="38.86165"><ele>98.0</ele><time>2025-09-27T08:03:28Z</time></trkpt><trkpt lat="58.049073" lon="38.861507"><ele>98.5</ele><time>2025-09-27T08:03:34Z</time></trkpt><trkpt lat="58.049078" lon="38.861355"><ele>98.6</ele><time>2025-09-27T08:03:40Z</time></trkpt><trkpt lat="58.04909" lon="38.8612"><ele>98.4</ele><time>2025-09-27T08:03:46Z</time></trkpt><trkpt lat="58.049095" lon="38.861055"><ele>98.6</ele><time>2025-09-27T08:03:51Z</time></trkpt><trkpt lat="58.04911" lon="38.860905"><ele>97.6</ele><time>2025-09-27T08:03:57Z</time></trkpt><trkpt lat="58.049175" lon="38.86046"><ele>95.9</ele><time>2025-09-27T08:04:18Z</time></trkpt><trkpt lat="58.04919" lon="38.860492"><ele>94.3</ele><time>2025-09-27T08:04:24Z</time></trkpt><trkpt lat="58.04916" lon="38.86054"><ele>96.2</ele><time>2025-09-27T08:04:31Z</time></trkpt></trkseg></trk></gpx>