<?xml version="1.0" encoding="UTF-8" standalone="no"?><gpx xmlns="http://www.topografix.com/GPX/1/1" xmlns:gpxtpx="http://www.garmin.com/xmlschemas/TrackPointExtension/v1" xmlns:xsi="http://www.w3.org/2001/XMLSchema-instance" creator="Sports Tracker" version="1.1" xsi:schemaLocation="http://www.topografix.com/GPX/1/1 http://www.topografix.com/GPX/1/1/gpx.xsd http://www.garmin.com/xmlschemas/TrackPointExtension/v1 http://www.garmin.com/xmlschemas/TrackPointExtensionv1.xsd"><metadata><name>01.01.2024 01:28</name><desc/><author><name>Александр</name></author></metadata><trk><name>01.01.2024 01:28</name><trkseg><trkpt lat="58.05865" lon="38.807755"><ele>123.4</ele><time>2023-12-31T22:28:32Z</time></trkpt><trkpt lat="58.05865" lon="38.80775"><ele>123.7</ele><time>2023-12-31T22:28:32Z</time></trkpt><trkpt lat="58.058657" lon="38.80787"><ele>122.5</ele><time>2023-12-31T22:28:40Z</time></trkpt><trkpt lat="58.05873" lon="38.80788"><ele>120.8</ele><time>2023-12-31T22:28:45Z</time></trkpt><trkpt lat="58.05869" lon="38.80803"><ele>117.7</ele><time>2023-12-31T22:28:47Z</time></trkpt><trkpt lat="58.058685" lon="38.80811"><ele>115.7</ele><time>2023-12-31T22:28:55Z</time></trkpt><trkpt lat="58.058675" lon="38.808245"><ele>114.6</ele><time>2023-12-31T22:29:00Z</time></trkpt><trkpt lat="58.05867" lon="38.808395"><ele>111.3</ele><time>2023-12-31T22:29:07Z</time></trkpt><trkpt lat="58.058615" lon="38.80845"><ele>112.0</ele><time>2023-12-31T22:29:13Z</time></trkpt><trkpt lat="58.05859" lon="38.808535"><ele>110.4</ele><time>2023-12-31T22:29:20Z</time></trkpt><trkpt lat="58.058605" lon="38.808685"><ele>109.2</ele><time>2023-12-31T22:29:26Z</time></trkpt><trkpt lat="58.05863" lon="38.808822"><ele>111.2</ele><time>2023-12-31T22:29:31Z</time></trkpt><trkpt lat="58.05859" lon="38.80898"><ele>113.8</ele><time>2023-12-31T22:29:35Z</time></trkpt><trkpt lat="58.05859" lon="38.809117"><ele>110.0</ele><time>2023-12-31T22:29:42Z</time></trkpt><trkpt lat="58.058555" lon="38.809245"><ele>111.1</ele><time>2023-12-31T22:29:50Z</time></trkpt><trkpt lat="58.05857" lon="38.809355"><ele>112.3</ele><time>2023-12-31T22:29:56Z</time></trkpt><trkpt lat="58.05858" lon="38.809502"><ele>111.9</ele><time>2023-12-31T22:30:03Z</time></trkpt><trkpt lat="58.058572" lon="38.809645"><ele>116.3</ele><time>2023-12-31T22:30:09Z</time></trkpt><trkpt lat="58.05859" lon="38.80974"><ele>114.9</ele><time>2023-12-31T22:30:16Z</time></trkpt><trkpt lat="58.058587" lon="38.809727"><ele>113.6</ele><time>2023-12-31T22:30:23Z</time></trkpt><trkpt lat="58.05865" lon="38.809827"><ele>114.8</ele><time>2023-12-31T22:30:30Z</time></trkpt><trkpt lat="58.0587" lon="38.80995"><ele>114.6</ele><time>2023-12-31T22:30:36Z</time></trkpt><trkpt lat="58.058715" lon="38.810085"><ele>113.9</ele><time>2023-12-31T22:30:42Z</time></trkpt><trkpt lat="58.058695" lon="38.810235"><ele>112.1</ele><time>2023-12-31T22:30:50Z</time></trkpt><trkpt lat="58.05869" lon="38.810375"><ele>113.8</ele><time>2023-12-31T22:30:53Z</time></trkpt><trkpt lat="58.058695" lon="38.81048"><ele>112.9</ele><time>2023-12-31T22:31:00Z</time></trkpt><trkpt lat="58.05867" lon="38.810625"><ele>111.5</ele><time>2023-12-31T22:31:06Z</time></trkpt><trkpt lat="58.05866" lon="38.81075"><ele>109.1</ele><time>2023-12-31T22:31:13Z</time></trkpt><trkpt lat="58.058667" lon="38.810845"><ele>109.2</ele><time>2023-12-31T22:31:20Z</time></trkpt><trkpt lat="58.058735" lon="38.8109"><ele>113.0</ele><time>2023-12-31T22:31:25Z</time></trkpt><trkpt lat="58.058765" lon="38.811037"><ele>113.8</ele><time>2023-12-31T22:31:32Z</time></trkpt><trkpt lat="58.058765" lon="38.811155"><ele>112.4</ele><time>2023-12-31T22:31:39Z</time></trkpt><trkpt lat="58.0588" lon="38.811245"><ele>109.9</ele><time>2023-12-31T22:31:46Z</time></trkpt><trkpt lat="58.058787" lon="38.811397"><ele>112.6</ele><time>2023-12-31T22:31:53Z</time></trkpt><trkpt lat="58.058782" lon="38.8115"><ele>113.5</ele><time>2023-12-31T22:32:00Z</time></trkpt><trkpt lat="58.058787" lon="38.811635"><ele>114.7</ele><time>2023-12-31T22:32:05Z</time></trkpt><trkpt lat="58.058772" lon="38.81174"><ele>114.8</ele><time>2023-12-31T22:32:12Z</time></trkpt><trkpt lat="58.05876" lon="38.811875"><ele>113.7</ele><time>2023-12-31T22:32:18Z</time></trkpt><trkpt lat="58.05878" lon="38.812"><ele>115.3</ele><time>2023-12-31T22:32:25Z</time></trkpt><trkpt lat="58.05878" lon="38.81214"><ele>115.4</ele><time>2023-12-31T22:32:30Z</time></trkpt><trkpt lat="58.058767" lon="38.81226"><ele>116.7</ele><time>2023-12-31T22:32:37Z</time></trkpt><trkpt lat="58.058757" lon="38.812402"><ele>117.1</ele><time>2023-12-31T22:32:44Z</time></trkpt><trkpt lat="58.058752" lon="38.81252"><ele>115.0</ele><time>2023-12-31T22:32:51Z</time></trkpt><trkpt lat="58.058735" lon="38.812668"><ele>112.7</ele><time>2023-12-31T22:32:57Z</time></trkpt><trkpt lat="58.058705" lon="38.812805"><ele>112.7</ele><time>2023-12-31T22:33:04Z</time></trkpt><trkpt lat="58.058705" lon="38.812927"><ele>114.2</ele><time>2023-12-31T22:33:11Z</time></trkpt><trkpt lat="58.058707" lon="38.813072"><ele>113.2</ele><time>2023-12-31T22:33:18Z</time></trkpt><trkpt lat="58.058695" lon="38.813187"><ele>112.2</ele><time>2023-12-31T22:33:25Z</time></trkpt><trkpt lat="58.05868" lon="38.813315"><ele>110.4</ele><time>2023-12-31T22:33:32Z</time></trkpt><trkpt lat="58.058715" lon="38.813447"><ele>111.2</ele><time>2023-12-31T22:33:38Z</time></trkpt><trkpt lat="58.05873" lon="38.813582"><ele>110.9</ele><time>2023-12-31T22:33:44Z</time></trkpt><trkpt lat="58.058692" lon="38.813685"><ele>111.7</ele><time>2023-12-31T22:33:50Z</time></trkpt><trkpt lat="58.058762" lon="38.813755"><ele>112.2</ele><time>2023-12-31T22:33:55Z</time></trkpt><trkpt lat="58.058735" lon="38.813892"><ele>113.5</ele><time>2023-12-31T22:34:01Z</time></trkpt><trkpt lat="58.058695" lon="38.814025"><ele>113.6</ele><time>2023-12-31T22:34:05Z</time></trkpt><trkpt lat="58.05869" lon="38.814175"><ele>114.5</ele><time>2023-12-31T22:34:10Z</time></trkpt><trkpt lat="58.05868" lon="38.814265"><ele>115.7</ele><time>2023-12-31T22:34:17Z</time></trkpt><trkpt lat="58.05868" lon="38.814405"><ele>115.0</ele><time>2023-12-31T22:34:23Z</time></trkpt><trkpt lat="58.058695" lon="38.814535"><ele>114.8</ele><time>2023-12-31T22:34:30Z</time></trkpt><trkpt lat="58.058665" lon="38.814665"><ele>113.1</ele><time>2023-12-31T22:34:35Z</time></trkpt><trkpt lat="58.058667" lon="38.814805"><ele>115.8</ele><time>2023-12-31T22:34:41Z</time></trkpt><trkpt lat="58.058645" lon="38.814872"><ele>112.9</ele><time>2023-12-31T22:34:48Z</time></trkpt><trkpt lat="58.058637" lon="38.815032"><ele>113.3</ele><time>2023-12-31T22:34:55Z</time></trkpt><trkpt lat="58.058625" lon="38.815167"><ele>112.4</ele><time>2023-12-31T22:35:01Z</time></trkpt><trkpt lat="58.05861" lon="38.815312"><ele>112.8</ele><time>2023-12-31T22:35:08Z</time></trkpt><trkpt lat="58.058557" lon="38.815405"><ele>112.6</ele><time>2023-12-31T22:35:15Z</time></trkpt><trkpt lat="58.0586" lon="38.815525"><ele>110.1</ele><time>2023-12-31T22:35:21Z</time></trkpt><trkpt lat="58.058617" lon="38.81565"><ele>107.9</ele><time>2023-12-31T22:35:28Z</time></trkpt><trkpt lat="58.0586" lon="38.81577"><ele>108.2</ele><time>2023-12-31T22:35:35Z</time></trkpt><trkpt lat="58.058612" lon="38.815847"><ele>107.9</ele><time>2023-12-31T22:35:42Z</time></trkpt><trkpt lat="58.058585" lon="38.815985"><ele>106.6</ele><time>2023-12-31T22:35:46Z</time></trkpt><trkpt lat="58.0586" lon="38.816125"><ele>107.0</ele><time>2023-12-31T22:35:53Z</time></trkpt><trkpt lat="58.05859" lon="38.816292"><ele>110.4</ele><time>2023-12-31T22:35:58Z</time></trkpt><trkpt lat="58.058585" lon="38.81641"><ele>113.3</ele><time>2023-12-31T22:36:05Z</time></trkpt><trkpt lat="58.058557" lon="38.816522"><ele>114.9</ele><time>2023-12-31T22:36:12Z</time></trkpt><trkpt lat="58.0586" lon="38.8166"><ele>115.9</ele><time>2023-12-31T22:36:19Z</time></trkpt><trkpt lat="58.058575" lon="38.816747"><ele>113.0</ele><time>2023-12-31T22:36:24Z</time></trkpt><trkpt lat="58.058543" lon="38.816872"><ele>110.6</ele><time>2023-12-31T22:36:29Z</time></trkpt><trkpt lat="58.058495" lon="38.816975"><ele>112.0</ele><time>2023-12-31T22:36:35Z</time></trkpt><trkpt lat="58.058447" lon="38.816965"><ele>113.7</ele><time>2023-12-31T22:36:42Z</time></trkpt><trkpt lat="58.0584" lon="38.817072"><ele>111.0</ele><time>2023-12-31T22:36:48Z</time></trkpt><trkpt lat="58.058408" lon="38.817212"><ele>109.4</ele><time>2023-12-31T22:36:53Z</time></trkpt><trkpt lat="58.058445" lon="38.81732"><ele>110.4</ele><time>2023-12-31T22:37:00Z</time></trkpt><trkpt lat="58.058425" lon="38.817455"><ele>109.6</ele><time>2023-12-31T22:37:06Z</time></trkpt><trkpt lat="58.05844" lon="38.817575"><ele>107.4</ele><time>2023-12-31T22:37:13Z</time></trkpt><trkpt lat="58.058415" lon="38.817685"><ele>104.9</ele><time>2023-12-31T22:37:20Z</time></trkpt><trkpt lat="58.058485" lon="38.817605"><ele>103.2</ele><time>2023-12-31T22:37:26Z</time></trkpt><trkpt lat="58.058507" lon="38.81774"><ele>110.3</ele><time>2023-12-31T22:37:29Z</time></trkpt><trkpt lat="58.058495" lon="38.817922"><ele>114.5</ele><time>2023-12-31T22:37:33Z</time></trkpt><trkpt lat="58.058487" lon="38.81807"><ele>115.9</ele><time>2023-12-31T22:37:36Z</time></trkpt><trkpt lat="58.058462" lon="38.81821"><ele>114.7</ele><time>2023-12-31T22:37:42Z</time></trkpt><trkpt lat="58.05846" lon="38.81834"><ele>110.8</ele><time>2023-12-31T22:37:49Z</time></trkpt><trkpt lat="58.05845" lon="38.818475"><ele>111.2</ele><time>2023-12-31T22:37:55Z</time></trkpt><trkpt lat="58.05845" lon="38.818592"><ele>110.6</ele><time>2023-12-31T22:38:02Z</time></trkpt><trkpt lat="58.058405" lon="38.81872"><ele>111.5</ele><time>2023-12-31T22:38:09Z</time></trkpt><trkpt lat="58.058387" lon="38.81886"><ele>112.3</ele><time>2023-12-31T22:38:15Z</time></trkpt><trkpt lat="58.058387" lon="38.819"><ele>114.9</ele><time>2023-12-31T22:38:23Z</time></trkpt><trkpt lat="58.058375" lon="38.819135"><ele>112.2</ele><time>2023-12-31T22:38:28Z</time></trkpt><trkpt lat="58.058412" lon="38.819215"><ele>115.4</ele><time>2023-12-31T22:38:35Z</time></trkpt><trkpt lat="58.058405" lon="38.819355"><ele>119.1</ele><time>2023-12-31T22:38:41Z</time></trkpt><trkpt lat="58.058372" lon="38.819475"><ele>118.8</ele><time>2023-12-31T22:38:47Z</time></trkpt><trkpt lat="58.058335" lon="38.8196"><ele>116.6</ele><time>2023-12-31T22:38:53Z</time></trkpt><trkpt lat="58.058322" lon="38.819722"><ele>116.2</ele><time>2023-12-31T22:39:00Z</time></trkpt><trkpt lat="58.05833" lon="38.819867"><ele>116.3</ele><time>2023-12-31T22:39:07Z</time></trkpt><trkpt lat="58.05834" lon="38.819997"><ele>117.1</ele><time>2023-12-31T22:39:14Z</time></trkpt><trkpt lat="58.058322" lon="38.820095"><ele>112.6</ele><time>2023-12-31T22:39:21Z</time></trkpt><trkpt lat="58.05825" lon="38.820207"><ele>112.1</ele><time>2023-12-31T22:39:26Z</time></trkpt><trkpt lat="58.0583" lon="38.82033"><ele>113.3</ele><time>2023-12-31T22:39:32Z</time></trkpt><trkpt lat="58.05831" lon="38.82037"><ele>111.0</ele><time>2023-12-31T22:39:40Z</time></trkpt><trkpt lat="58.058295" lon="38.82039"><ele>108.7</ele><time>2023-12-31T22:39:46Z</time></trkpt><trkpt lat="58.058307" lon="38.82054"><ele>113.1</ele><time>2023-12-31T22:39:52Z</time></trkpt><trkpt lat="58.058305" lon="38.820675"><ele>115.4</ele><time>2023-12-31T22:39:59Z</time></trkpt><trkpt lat="58.05838" lon="38.820697"><ele>113.1</ele><time>2023-12-31T22:40:05Z</time></trkpt><trkpt lat="58.058415" lon="38.820815"><ele>114.5</ele><time>2023-12-31T22:40:12Z</time></trkpt><trkpt lat="58.058425" lon="38.82096"><ele>114.3</ele><time>2023-12-31T22:40:18Z</time></trkpt><trkpt lat="58.05845" lon="38.821105"><ele>115.8</ele><time>2023-12-31T22:40:25Z</time></trkpt><trkpt lat="58.058462" lon="38.821245"><ele>117.1</ele><time>2023-12-31T22:40:29Z</time></trkpt><trkpt lat="58.05847" lon="38.821385"><ele>116.5</ele><time>2023-12-31T22:40:34Z</time></trkpt><trkpt lat="58.058445" lon="38.821435"><ele>113.7</ele><time>2023-12-31T22:40:41Z</time></trkpt><trkpt lat="58.05837" lon="38.821445"><ele>113.9</ele><time>2023-12-31T22:40:47Z</time></trkpt><trkpt lat="58.058372" lon="38.821602"><ele>112.5</ele><time>2023-12-31T22:40:50Z</time></trkpt><trkpt lat="58.05837" lon="38.82174"><ele>112.1</ele><time>2023-12-31T22:40:55Z</time></trkpt><trkpt lat="58.058355" lon="38.82188"><ele>115.2</ele><time>2023-12-31T22:41:00Z</time></trkpt><trkpt lat="58.058335" lon="38.822035"><ele>113.9</ele><time>2023-12-31T22:41:05Z</time></trkpt><trkpt lat="58.05831" lon="38.822045"><ele>111.9</ele><time>2023-12-31T22:41:12Z</time></trkpt><trkpt lat="58.058387" lon="38.822077"><ele>110.7</ele><time>2023-12-31T22:41:18Z</time></trkpt><trkpt lat="58.058462" lon="38.822095"><ele>111.5</ele><time>2023-12-31T22:41:23Z</time></trkpt><trkpt lat="58.05851" lon="38.822207"><ele>112.9</ele><time>2023-12-31T22:41:27Z</time></trkpt><trkpt lat="58.058502" lon="38.822265"><ele>112.8</ele><time>2023-12-31T22:41:34Z</time></trkpt><trkpt lat="58.05854" lon="38.82239"><ele>112.5</ele><time>2023-12-31T22:41:42Z</time></trkpt><trkpt lat="58.05857" lon="38.822517"><ele>111.3</ele><time>2023-12-31T22:41:48Z</time></trkpt><trkpt lat="58.058612" lon="38.822632"><ele>111.1</ele><time>2023-12-31T22:41:54Z</time></trkpt><trkpt lat="58.058632" lon="38.82273"><ele>110.2</ele><time>2023-12-31T22:42:02Z</time></trkpt><trkpt lat="58.05863" lon="38.822765"><ele>109.8</ele><time>2023-12-31T22:42:08Z</time></trkpt><trkpt lat="58.058672" lon="38.822893"><ele>111.9</ele><time>2023-12-31T22:42:12Z</time></trkpt><trkpt lat="58.058737" lon="38.823005"><ele>113.2</ele><time>2023-12-31T22:42:17Z</time></trkpt><trkpt lat="58.0588" lon="38.822992"><ele>118.1</ele><time>2023-12-31T22:42:24Z</time></trkpt><trkpt lat="58.058772" lon="38.823123"><ele>112.4</ele><time>2023-12-31T22:42:28Z</time></trkpt><trkpt lat="58.058715" lon="38.823202"><ele>105.8</ele><time>2023-12-31T22:42:35Z</time></trkpt><trkpt lat="58.058675" lon="38.823315"><ele>105.5</ele><time>2023-12-31T22:42:40Z</time></trkpt><trkpt lat="58.058675" lon="38.82345"><ele>108.5</ele><time>2023-12-31T22:42:44Z</time></trkpt><trkpt lat="58.058695" lon="38.8236"><ele>109.5</ele><time>2023-12-31T22:42:51Z</time></trkpt><trkpt lat="58.058685" lon="38.82367"><ele>110.5</ele><time>2023-12-31T22:42:58Z</time></trkpt><trkpt lat="58.058745" lon="38.82378"><ele>109.9</ele><time>2023-12-31T22:43:05Z</time></trkpt><trkpt lat="58.058755" lon="38.823835"><ele>108.4</ele><time>2023-12-31T22:43:12Z</time></trkpt><trkpt lat="58.05881" lon="38.82389"><ele>110.8</ele><time>2023-12-31T22:43:19Z</time></trkpt><trkpt lat="58.058865" lon="38.824"><ele>115.3</ele><time>2023-12-31T22:43:22Z</time></trkpt><trkpt lat="58.05891" lon="38.824135"><ele>114.8</ele><time>2023-12-31T22:43:27Z</time></trkpt><trkpt lat="58.0589" lon="38.82426"><ele>113.9</ele><time>2023-12-31T22:43:34Z</time></trkpt><trkpt lat="58.058843" lon="38.824347"><ele>113.4</ele><time>2023-12-31T22:43:41Z</time></trkpt><trkpt lat="58.0588" lon="38.824425"><ele>112.5</ele><time>2023-12-31T22:43:48Z</time></trkpt><trkpt lat="58.05875" lon="38.82451"><ele>112.2</ele><time>2023-12-31T22:43:55Z</time></trkpt><trkpt lat="58.058702" lon="38.824595"><ele>110.6</ele><time>2023-12-31T22:44:02Z</time></trkpt><trkpt lat="58.05865" lon="38.82468"><ele>109.3</ele><time>2023-12-31T22:44:09Z</time></trkpt><trkpt lat="58.058605" lon="38.82475"><ele>107.4</ele><time>2023-12-31T22:44:16Z</time></trkpt><trkpt lat="58.058555" lon="38.824855"><ele>108.3</ele><time>2023-12-31T22:44:23Z</time></trkpt><trkpt lat="58.0585" lon="38.82497"><ele>108.3</ele><time>2023-12-31T22:44:30Z</time></trkpt><trkpt lat="58.05845" lon="38.82507"><ele>110.3</ele><time>2023-12-31T22:44:37Z</time></trkpt><trkpt lat="58.0584" lon="38.825175"><ele>109.6</ele><time>2023-12-31T22:44:44Z</time></trkpt><trkpt lat="58.058345" lon="38.825262"><ele>109.4</ele><time>2023-12-31T22:44:51Z</time></trkpt><trkpt lat="58.05829" lon="38.825345"><ele>108.2</ele><time>2023-12-31T22:44:58Z</time></trkpt><trkpt lat="58.058237" lon="38.825472"><ele>108.4</ele><time>2023-12-31T22:45:04Z</time></trkpt><trkpt lat="58.058195" lon="38.825585"><ele>107.2</ele><time>2023-12-31T22:45:10Z</time></trkpt><trkpt lat="58.05814" lon="38.825705"><ele>107.3</ele><time>2023-12-31T22:45:17Z</time></trkpt><trkpt lat="58.058082" lon="38.8258"><ele>106.6</ele><time>2023-12-31T22:45:24Z</time></trkpt><trkpt lat="58.05803" lon="38.825907"><ele>106.4</ele><time>2023-12-31T22:45:31Z</time></trkpt><trkpt lat="58.057965" lon="38.826007"><ele>106.4</ele><time>2023-12-31T22:45:38Z</time></trkpt><trkpt lat="58.05791" lon="38.826105"><ele>104.1</ele><time>2023-12-31T22:45:45Z</time></trkpt><trkpt lat="58.057855" lon="38.826205"><ele>104.5</ele><time>2023-12-31T22:45:51Z</time></trkpt><trkpt lat="58.05788" lon="38.82635"><ele>106.4</ele><time>2023-12-31T22:45:58Z</time></trkpt><trkpt lat="58.05793" lon="38.826458"><ele>107.0</ele><time>2023-12-31T22:46:03Z</time></trkpt><trkpt lat="58.057962" lon="38.826595"><ele>106.5</ele><time>2023-12-31T22:46:10Z</time></trkpt><trkpt lat="58.057912" lon="38.826717"><ele>109.1</ele><time>2023-12-31T22:46:17Z</time></trkpt><trkpt lat="58.057855" lon="38.826815"><ele>108.2</ele><time>2023-12-31T22:46:24Z</time></trkpt><trkpt lat="58.057845" lon="38.8269"><ele>108.4</ele><time>2023-12-31T22:46:31Z</time></trkpt><trkpt lat="58.057905" lon="38.826987"><ele>109.3</ele><time>2023-12-31T22:46:38Z</time></trkpt><trkpt lat="58.05797" lon="38.827057"><ele>110.2</ele><time>2023-12-31T22:46:44Z</time></trkpt><trkpt lat="58.058027" lon="38.827145"><ele>110.1</ele><time>2023-12-31T22:46:50Z</time></trkpt><trkpt lat="58.05807" lon="38.827272"><ele>111.8</ele><time>2023-12-31T22:46:57Z</time></trkpt><trkpt lat="58.058122" lon="38.827372"><ele>112.0</ele><time>2023-12-31T22:47:04Z</time></trkpt><trkpt lat="58.058165" lon="38.827467"><ele>112.3</ele><time>2023-12-31T22:47:11Z</time></trkpt><trkpt lat="58.058225" lon="38.82757"><ele>117.3</ele><time>2023-12-31T22:47:18Z</time></trkpt><trkpt lat="58.05828" lon="38.827665"><ele>119.8</ele><time>2023-12-31T22:47:24Z</time></trkpt><trkpt lat="58.058317" lon="38.827775"><ele>120.4</ele><time>2023-12-31T22:47:31Z</time></trkpt><trkpt lat="58.05836" lon="38.827885"><ele>119.1</ele><time>2023-12-31T22:47:38Z</time></trkpt><trkpt lat="58.058405" lon="38.827978"><ele>118.1</ele><time>2023-12-31T22:47:45Z</time></trkpt><trkpt lat="58.058455" lon="38.828072"><ele>119.0</ele><time>2023-12-31T22:47:52Z</time></trkpt><trkpt lat="58.058502" lon="38.82816"><ele>119.0</ele><time>2023-12-31T22:47:59Z</time></trkpt><trkpt lat="58.058562" lon="38.82825"><ele>119.7</ele><time>2023-12-31T22:48:05Z</time></trkpt><trkpt lat="58.058617" lon="38.82833"><ele>121.3</ele><time>2023-12-31T22:48:12Z</time></trkpt><trkpt lat="58.058645" lon="38.828385"><ele>119.9</ele><time>2023-12-31T22:48:19Z</time></trkpt><trkpt lat="58.05868" lon="38.828482"><ele>119.1</ele><time>2023-12-31T22:48:26Z</time></trkpt><trkpt lat="58.058692" lon="38.828535"><ele>116.5</ele><time>2023-12-31T22:48:33Z</time></trkpt><trkpt lat="58.058695" lon="38.828667"><ele>115.6</ele><time>2023-12-31T22:48:40Z</time></trkpt><trkpt lat="58.058667" lon="38.828755"><ele>113.8</ele><time>2023-12-31T22:48:47Z</time></trkpt><trkpt lat="58.05863" lon="38.828835"><ele>110.8</ele><time>2023-12-31T22:48:54Z</time></trkpt><trkpt lat="58.0586" lon="38.82893"><ele>108.9</ele><time>2023-12-31T22:49:01Z</time></trkpt><trkpt lat="58.058552" lon="38.829005"><ele>108.7</ele><time>2023-12-31T22:49:08Z</time></trkpt><trkpt lat="58.058515" lon="38.829082"><ele>109.2</ele><time>2023-12-31T22:49:15Z</time></trkpt><trkpt lat="58.05853" lon="38.82918"><ele>110.0</ele><time>2023-12-31T22:49:22Z</time></trkpt><trkpt lat="58.05848" lon="38.829245"><ele>108.6</ele><time>2023-12-31T22:49:29Z</time></trkpt><trkpt lat="58.058475" lon="38.829255"><ele>108.8</ele><time>2023-12-31T22:49:36Z</time></trkpt><trkpt lat="58.058477" lon="38.829245"><ele>109.5</ele><time>2023-12-31T22:49:42Z</time></trkpt><trkpt lat="58.058435" lon="38.829315"><ele>108.3</ele><time>2023-12-31T22:49:51Z</time></trkpt><trkpt lat="58.058377" lon="38.829395"><ele>107.7</ele><time>2023-12-31T22:49:58Z</time></trkpt><trkpt lat="58.058335" lon="38.829475"><ele>107.8</ele><time>2023-12-31T22:50:05Z</time></trkpt><trkpt lat="58.05829" lon="38.82955"><ele>107.8</ele><time>2023-12-31T22:50:12Z</time></trkpt><trkpt lat="58.058245" lon="38.8296"><ele>107.5</ele><time>2023-12-31T22:50:19Z</time></trkpt><trkpt lat="58.058192" lon="38.829665"><ele>106.5</ele><time>2023-12-31T22:50:26Z</time></trkpt><trkpt lat="58.058152" lon="38.82975"><ele>107.3</ele><time>2023-12-31T22:50:33Z</time></trkpt><trkpt lat="58.058105" lon="38.829835"><ele>108.5</ele><time>2023-12-31T22:50:40Z</time></trkpt><trkpt lat="58.05806" lon="38.829907"><ele>107.5</ele><time>2023-12-31T22:50:47Z</time></trkpt><trkpt lat="58.058012" lon="38.83"><ele>108.0</ele><time>2023-12-31T22:50:54Z</time></trkpt><trkpt lat="58.05797" lon="38.83012"><ele>106.0</ele><time>2023-12-31T22:51:01Z</time></trkpt><trkpt lat="58.057915" lon="38.83017"><ele>103.9</ele><time>2023-12-31T22:51:08Z</time></trkpt><trkpt lat="58.057877" lon="38.830235"><ele>103.6</ele><time>2023-12-31T22:51:15Z</time></trkpt><trkpt lat="58.057827" lon="38.830327"><ele>105.1</ele><time>2023-12-31T22:51:22Z</time></trkpt><trkpt lat="58.05778" lon="38.830405"><ele>103.2</ele><time>2023-12-31T22:51:29Z</time></trkpt><trkpt lat="58.057735" lon="38.830465"><ele>102.5</ele><time>2023-12-31T22:51:36Z</time></trkpt><trkpt lat="58.05768" lon="38.830552"><ele>103.4</ele><time>2023-12-31T22:51:43Z</time></trkpt><trkpt lat="58.05762" lon="38.830637"><ele>104.3</ele><time>2023-12-31T22:51:50Z</time></trkpt><trkpt lat="58.057572" lon="38.830735"><ele>106.1</ele><time>2023-12-31T22:51:57Z</time></trkpt><trkpt lat="58.057525" lon="38.830825"><ele>105.8</ele><time>2023-12-31T22:52:04Z</time></trkpt><trkpt lat="58.057485" lon="38.83089"><ele>105.7</ele><time>2023-12-31T22:52:11Z</time></trkpt><trkpt lat="58.05745" lon="38.83096"><ele>105.8</ele><time>2023-12-31T22:52:18Z</time></trkpt><trkpt lat="58.057407" lon="38.831"><ele>103.8</ele><time>2023-12-31T22:52:25Z</time></trkpt><trkpt lat="58.05735" lon="38.831035"><ele>103.8</ele><time>2023-12-31T22:52:32Z</time></trkpt><trkpt lat="58.057295" lon="38.83106"><ele>103.8</ele><time>2023-12-31T22:52:39Z</time></trkpt><trkpt lat="58.057235" lon="38.83113"><ele>104.3</ele><time>2023-12-31T22:52:46Z</time></trkpt><trkpt lat="58.05718" lon="38.83118"><ele>102.8</ele><time>2023-12-31T22:52:53Z</time></trkpt><trkpt lat="58.057135" lon="38.83126"><ele>103.0</ele><time>2023-12-31T22:53:00Z</time></trkpt><trkpt lat="58.057097" lon="38.831367"><ele>103.1</ele><time>2023-12-31T22:53:07Z</time></trkpt><trkpt lat="58.05706" lon="38.831485"><ele>103.9</ele><time>2023-12-31T22:53:14Z</time></trkpt><trkpt lat="58.057045" lon="38.831522"><ele>104.0</ele><time>2023-12-31T22:53:21Z</time></trkpt><trkpt lat="58.057043" lon="38.831525"><ele>104.5</ele><time>2023-12-31T22:53:23Z</time></trkpt><trkpt lat="58.057032" lon="38.831585"><ele>104.3</ele><time>2023-12-31T22:53:31Z</time></trkpt><trkpt lat="58.057015" lon="38.83164"><ele>104.4</ele><time>2023-12-31T22:53:38Z</time></trkpt><trkpt lat="58.056995" lon="38.831692"><ele>105.0</ele><time>2023-12-31T22:53:45Z</time></trkpt><trkpt lat="58.056965" lon="38.831777"><ele>105.0</ele><time>2023-12-31T22:53:52Z</time></trkpt><trkpt lat="58.05695" lon="38.831833"><ele>104.4</ele><time>2023-12-31T22:53:59Z</time></trkpt><trkpt lat="58.05693" lon="38.831885"><ele>103.0</ele><time>2023-12-31T22:54:06Z</time></trkpt><trkpt lat="58.05691" lon="38.83196"><ele>102.8</ele><time>2023-12-31T22:54:13Z</time></trkpt><trkpt lat="58.056882" lon="38.832025"><ele>102.4</ele><time>2023-12-31T22:54:20Z</time></trkpt><trkpt lat="58.05686" lon="38.83208"><ele>102.8</ele><time>2023-12-31T22:54:27Z</time></trkpt><trkpt lat="58.056835" lon="38.83217"><ele>102.5</ele><time>2023-12-31T22:54:34Z</time></trkpt><trkpt lat="58.056815" lon="38.83225"><ele>102.4</ele><time>2023-12-31T22:54:41Z</time></trkpt><trkpt lat="58.056815" lon="38.832265"><ele>102.5</ele><time>2023-12-31T22:54:46Z</time></trkpt><trkpt lat="58.05681" lon="38.83227"><ele>102.5</ele><time>2023-12-31T22:54:57Z</time></trkpt><trkpt lat="58.05681" lon="38.83227"><ele>102.5</ele><time>2023-12-31T22:54:58Z</time></trkpt><trkpt lat="58.056767" lon="38.83239"><ele>101.8</ele><time>2023-12-31T22:55:13Z</time></trkpt><trkpt lat="58.056722" lon="38.83249"><ele>102.6</ele><time>2023-12-31T22:55:20Z</time></trkpt><trkpt lat="58.056685" lon="38.832593"><ele>102.6</ele><time>2023-12-31T22:55:27Z</time></trkpt><trkpt lat="58.056647" lon="38.83272"><ele>102.4</ele><time>2023-12-31T22:55:34Z</time></trkpt><trkpt lat="58.05659" lon="38.83278"><ele>102.3</ele><time>2023-12-31T22:55:41Z</time></trkpt><trkpt lat="58.056555" lon="38.832715"><ele>101.3</ele><time>2023-12-31T22:55:48Z</time></trkpt><trkpt lat="58.056503" lon="38.832695"><ele>101.5</ele><time>2023-12-31T22:55:56Z</time></trkpt><trkpt lat="58.056427" lon="38.832655"><ele>103.1</ele><time>2023-12-31T22:56:02Z</time></trkpt><trkpt lat="58.056422" lon="38.832672"><ele>103.0</ele><time>2023-12-31T22:56:09Z</time></trkpt><trkpt lat="58.056422" lon="38.83269"><ele>104.4</ele><time>2023-12-31T22:56:14Z</time></trkpt><trkpt lat="58.05638" lon="38.83262"><ele>102.4</ele><time>2023-12-31T22:56:37Z</time></trkpt><trkpt lat="58.05632" lon="38.832635"><ele>106.3</ele><time>2023-12-31T22:56:44Z</time></trkpt><trkpt lat="58.05625" lon="38.83259"><ele>105.7</ele><time>2023-12-31T22:56:51Z</time></trkpt><trkpt lat="58.056195" lon="38.832505"><ele>107.3</ele><time>2023-12-31T22:56:58Z</time></trkpt><trkpt lat="58.05616" lon="38.832425"><ele>108.2</ele><time>2023-12-31T22:57:05Z</time></trkpt><trkpt lat="58.05609" lon="38.832505"><ele>110.8</ele><time>2023-12-31T22:57:10Z</time></trkpt><trkpt lat="58.05603" lon="38.83262"><ele>107.8</ele><time>2023-12-31T22:57:17Z</time></trkpt><trkpt lat="58.056" lon="38.832665"><ele>104.9</ele><time>2023-12-31T22:57:24Z</time></trkpt><trkpt lat="58.055973" lon="38.83278"><ele>107.5</ele><time>2023-12-31T22:57:31Z</time></trkpt><trkpt lat="58.05595" lon="38.83285"><ele>105.7</ele><time>2023-12-31T22:57:39Z</time></trkpt><trkpt lat="58.055935" lon="38.832795"><ele>103.7</ele><time>2023-12-31T22:57:45Z</time></trkpt><trkpt lat="58.055897" lon="38.83292"><ele>104.4</ele><time>2023-12-31T22:57:50Z</time></trkpt><trkpt lat="58.055865" lon="38.833042"><ele>103.7</ele><time>2023-12-31T22:57:56Z</time></trkpt><trkpt lat="58.055855" lon="38.833162"><ele>102.9</ele><time>2023-12-31T22:58:03Z</time></trkpt><trkpt lat="58.055825" lon="38.833285"><ele>105.9</ele><time>2023-12-31T22:58:09Z</time></trkpt><trkpt lat="58.05579" lon="38.833405"><ele>108.5</ele><time>2023-12-31T22:58:16Z</time></trkpt><trkpt lat="58.055762" lon="38.8335"><ele>109.3</ele><time>2023-12-31T22:58:23Z</time></trkpt><trkpt lat="58.055737" lon="38.833597"><ele>107.7</ele><time>2023-12-31T22:58:31Z</time></trkpt><trkpt lat="58.055747" lon="38.833647"><ele>105.0</ele><time>2023-12-31T22:58:37Z</time></trkpt><trkpt lat="58.05569" lon="38.833705"><ele>102.5</ele><time>2023-12-31T22:58:44Z</time></trkpt><trkpt lat="58.055662" lon="38.83384"><ele>105.1</ele><time>2023-12-31T22:58:50Z</time></trkpt><trkpt lat="58.055635" lon="38.833905"><ele>104.2</ele><time>2023-12-31T22:58:57Z</time></trkpt><trkpt lat="58.055587" lon="38.833902"><ele>103.1</ele><time>2023-12-31T22:59:04Z</time></trkpt><trkpt lat="58.055587" lon="38.833953"><ele>102.9</ele><time>2023-12-31T22:59:11Z</time></trkpt><trkpt lat="58.055587" lon="38.833965"><ele>102.7</ele><time>2023-12-31T22:59:13Z</time></trkpt><trkpt lat="58.055565" lon="38.834045"><ele>103.0</ele><time>2023-12-31T22:59:21Z</time></trkpt><trkpt lat="58.055523" lon="38.834182"><ele>103.9</ele><time>2023-12-31T22:59:27Z</time></trkpt><trkpt lat="58.05549" lon="38.834295"><ele>101.0</ele><time>2023-12-31T22:59:34Z</time></trkpt><trkpt lat="58.05549" lon="38.834435"><ele>103.4</ele><time>2023-12-31T22:59:41Z</time></trkpt><trkpt lat="58.055465" lon="38.834555"><ele>102.1</ele><time>2023-12-31T22:59:48Z</time></trkpt><trkpt lat="58.055425" lon="38.834605"><ele>101.4</ele><time>2023-12-31T22:59:55Z</time></trkpt><trkpt lat="58.055385" lon="38.834685"><ele>101.5</ele><time>2023-12-31T23:00:02Z</time></trkpt><trkpt lat="58.05534" lon="38.834815"><ele>102.7</ele><time>2023-12-31T23:00:08Z</time></trkpt><trkpt lat="58.05533" lon="38.834955"><ele>105.7</ele><time>2023-12-31T23:00:14Z</time></trkpt><trkpt lat="58.05533" lon="38.835"><ele>107.7</ele><time>2023-12-31T23:00:21Z</time></trkpt><trkpt lat="58.055298" lon="38.835125"><ele>108.1</ele><time>2023-12-31T23:00:28Z</time></trkpt><trkpt lat="58.055255" lon="38.835225"><ele>104.4</ele><time>2023-12-31T23:00:35Z</time></trkpt><trkpt lat="58.05522" lon="38.83536"><ele>106.0</ele><time>2023-12-31T23:00:42Z</time></trkpt><trkpt lat="58.0552" lon="38.83538"><ele>103.5</ele><time>2023-12-31T23:00:49Z</time></trkpt><trkpt lat="58.055165" lon="38.835497"><ele>104.1</ele><time>2023-12-31T23:00:56Z</time></trkpt><trkpt lat="58.055145" lon="38.835627"><ele>105.4</ele><time>2023-12-31T23:01:03Z</time></trkpt><trkpt lat="58.0551" lon="38.835645"><ele>105.0</ele><time>2023-12-31T23:01:09Z</time></trkpt><trkpt lat="58.055085" lon="38.83571"><ele>104.5</ele><time>2023-12-31T23:01:16Z</time></trkpt><trkpt lat="58.055065" lon="38.835765"><ele>104.2</ele><time>2023-12-31T23:01:23Z</time></trkpt><trkpt lat="58.055035" lon="38.8359"><ele>105.9</ele><time>2023-12-31T23:01:30Z</time></trkpt><trkpt lat="58.054985" lon="38.836012"><ele>105.7</ele><time>2023-12-31T23:01:36Z</time></trkpt><trkpt lat="58.054967" lon="38.836132"><ele>104.8</ele><time>2023-12-31T23:01:43Z</time></trkpt><trkpt lat="58.05493" lon="38.83625"><ele>104.8</ele><time>2023-12-31T23:01:49Z</time></trkpt><trkpt lat="58.05493" lon="38.83627"><ele>104.3</ele><time>2023-12-31T23:01:56Z</time></trkpt><trkpt lat="58.054913" lon="38.836305"><ele>104.4</ele><time>2023-12-31T23:02:03Z</time></trkpt><trkpt lat="58.05491" lon="38.836307"><ele>105.0</ele><time>2023-12-31T23:02:06Z</time></trkpt><trkpt lat="58.054865" lon="38.83644"><ele>104.0</ele><time>2023-12-31T23:02:15Z</time></trkpt><trkpt lat="58.05483" lon="38.836565"><ele>104.3</ele><time>2023-12-31T23:02:20Z</time></trkpt><trkpt lat="58.054805" lon="38.836652"><ele>102.3</ele><time>2023-12-31T23:02:27Z</time></trkpt><trkpt lat="58.05477" lon="38.83675"><ele>101.9</ele><time>2023-12-31T23:02:35Z</time></trkpt><trkpt lat="58.054755" lon="38.83681"><ele>102.4</ele><time>2023-12-31T23:02:41Z</time></trkpt><trkpt lat="58.05472" lon="38.8369"><ele>101.8</ele><time>2023-12-31T23:02:48Z</time></trkpt><trkpt lat="58.05469" lon="38.83696"><ele>101.5</ele><time>2023-12-31T23:02:55Z</time></trkpt><trkpt lat="58.054655" lon="38.837075"><ele>102.1</ele><time>2023-12-31T23:03:03Z</time></trkpt><trkpt lat="58.05462" lon="38.83721"><ele>103.7</ele><time>2023-12-31T23:03:09Z</time></trkpt><trkpt lat="58.054597" lon="38.83726"><ele>101.4</ele><time>2023-12-31T23:03:16Z</time></trkpt><trkpt lat="58.054577" lon="38.837335"><ele>101.3</ele><time>2023-12-31T23:03:23Z</time></trkpt><trkpt lat="58.054572" lon="38.837347"><ele>101.4</ele><time>2023-12-31T23:03:27Z</time></trkpt><trkpt lat="58.054532" lon="38.837475"><ele>101.3</ele><time>2023-12-31T23:03:34Z</time></trkpt><trkpt lat="58.054465" lon="38.83755"><ele>101.1</ele><time>2023-12-31T23:03:41Z</time></trkpt><trkpt lat="58.054453" lon="38.83763"><ele>100.7</ele><time>2023-12-31T23:03:48Z</time></trkpt><trkpt lat="58.054435" lon="38.837757"><ele>102.1</ele><time>2023-12-31T23:03:55Z</time></trkpt><trkpt lat="58.05442" lon="38.837812"><ele>101.1</ele><time>2023-12-31T23:04:02Z</time></trkpt><trkpt lat="58.05439" lon="38.837935"><ele>103.6</ele><time>2023-12-31T23:04:09Z</time></trkpt><trkpt lat="58.05436" lon="38.83808"><ele>102.1</ele><time>2023-12-31T23:04:15Z</time></trkpt><trkpt lat="58.05436" lon="38.83813"><ele>101.7</ele><time>2023-12-31T23:04:22Z</time></trkpt><trkpt lat="58.054265" lon="38.83846"><ele>107.9</ele><time>2023-12-31T23:04:30Z</time></trkpt><trkpt lat="58.05425" lon="38.8386"><ele>114.0</ele><time>2023-12-31T23:04:38Z</time></trkpt><trkpt lat="58.054215" lon="38.83869"><ele>112.3</ele><time>2023-12-31T23:04:44Z</time></trkpt><trkpt lat="58.054165" lon="38.83876"><ele>110.1</ele><time>2023-12-31T23:04:51Z</time></trkpt><trkpt lat="58.054155" lon="38.83862"><ele>109.3</ele><time>2023-12-31T23:04:54Z</time></trkpt><trkpt lat="58.05418" lon="38.838782"><ele>109.7</ele><time>2023-12-31T23:04:59Z</time></trkpt><trkpt lat="58.05414" lon="38.83891"><ele>109.6</ele><time>2023-12-31T23:05:01Z</time></trkpt><trkpt lat="58.054097" lon="38.839045"><ele>109.7</ele><time>2023-12-31T23:05:03Z</time></trkpt><trkpt lat="58.054068" lon="38.83905"><ele>107.4</ele><time>2023-12-31T23:05:10Z</time></trkpt><trkpt lat="58.054045" lon="38.83913"><ele>106.0</ele><time>2023-12-31T23:05:17Z</time></trkpt><trkpt lat="58.054002" lon="38.839375"><ele>107.1</ele><time>2023-12-31T23:05:32Z</time></trkpt><trkpt lat="58.053957" lon="38.839475"><ele>106.0</ele><time>2023-12-31T23:05:40Z</time></trkpt><trkpt lat="58.05393" lon="38.83961"><ele>106.4</ele><time>2023-12-31T23:05:46Z</time></trkpt><trkpt lat="58.05386" lon="38.83963"><ele>106.8</ele><time>2023-12-31T23:05:51Z</time></trkpt><trkpt lat="58.05382" lon="38.83969"><ele>106.7</ele><time>2023-12-31T23:05:59Z</time></trkpt><trkpt lat="58.053797" lon="38.83974"><ele>104.1</ele><time>2023-12-31T23:06:05Z</time></trkpt><trkpt lat="58.05375" lon="38.839765"><ele>103.4</ele><time>2023-12-31T23:06:12Z</time></trkpt><trkpt lat="58.05368" lon="38.83976"><ele>104.8</ele><time>2023-12-31T23:06:19Z</time></trkpt><trkpt lat="58.053605" lon="38.83974"><ele>108.4</ele><time>2023-12-31T23:06:25Z</time></trkpt><trkpt lat="58.05355" lon="38.83972"><ele>107.9</ele><time>2023-12-31T23:06:33Z</time></trkpt><trkpt lat="58.053485" lon="38.83969"><ele>108.3</ele><time>2023-12-31T23:06:39Z</time></trkpt><trkpt lat="58.053445" lon="38.839615"><ele>106.8</ele><time>2023-12-31T23:06:47Z</time></trkpt><trkpt lat="58.053377" lon="38.839555"><ele>107.2</ele><time>2023-12-31T23:06:53Z</time></trkpt><trkpt lat="58.053317" lon="38.83948"><ele>107.6</ele><time>2023-12-31T23:07:00Z</time></trkpt><trkpt lat="58.053275" lon="38.839405"><ele>106.8</ele><time>2023-12-31T23:07:08Z</time></trkpt><trkpt lat="58.053195" lon="38.839405"><ele>107.3</ele><time>2023-12-31T23:07:14Z</time></trkpt><trkpt lat="58.05313" lon="38.839375"><ele>107.4</ele><time>2023-12-31T23:07:21Z</time></trkpt><trkpt lat="58.053067" lon="38.83932"><ele>107.7</ele><time>2023-12-31T23:07:28Z</time></trkpt><trkpt lat="58.05301" lon="38.839287"><ele>107.8</ele><time>2023-12-31T23:07:35Z</time></trkpt><trkpt lat="58.052975" lon="38.839225"><ele>106.6</ele><time>2023-12-31T23:07:42Z</time></trkpt><trkpt lat="58.05293" lon="38.839175"><ele>107.5</ele><time>2023-12-31T23:07:50Z</time></trkpt><trkpt lat="58.052858" lon="38.839175"><ele>107.4</ele><time>2023-12-31T23:07:55Z</time></trkpt><trkpt lat="58.052797" lon="38.839105"><ele>107.2</ele><time>2023-12-31T23:08:02Z</time></trkpt><trkpt lat="58.052722" lon="38.839065"><ele>105.9</ele><time>2023-12-31T23:08:10Z</time></trkpt><trkpt lat="58.052735" lon="38.83899"><ele>106.5</ele><time>2023-12-31T23:08:16Z</time></trkpt><trkpt lat="58.052727" lon="38.839045"><ele>105.9</ele><time>2023-12-31T23:08:23Z</time></trkpt><trkpt lat="58.05272" lon="38.839045"><ele>105.7</ele><time>2023-12-31T23:08:28Z</time></trkpt><trkpt lat="58.052715" lon="38.839055"><ele>105.9</ele><time>2023-12-31T23:08:41Z</time></trkpt><trkpt lat="58.052715" lon="38.839055"><ele>106.0</ele><time>2023-12-31T23:08:42Z</time></trkpt><trkpt lat="58.052655" lon="38.83905"><ele>107.9</ele><time>2023-12-31T23:08:50Z</time></trkpt><trkpt lat="58.05259" lon="38.83897"><ele>108.1</ele><time>2023-12-31T23:08:55Z</time></trkpt><trkpt lat="58.052525" lon="38.838945"><ele>110.3</ele><time>2023-12-31T23:09:02Z</time></trkpt><trkpt lat="58.052478" lon="38.83883"><ele>109.8</ele><time>2023-12-31T23:09:07Z</time></trkpt><trkpt lat="58.052515" lon="38.838705"><ele>110.7</ele><time>2023-12-31T23:09:12Z</time></trkpt><trkpt lat="58.05255" lon="38.8386"><ele>111.2</ele><time>2023-12-31T23:09:19Z</time></trkpt><trkpt lat="58.052482" lon="38.83856"><ele>110.9</ele><time>2023-12-31T23:09:26Z</time></trkpt><trkpt lat="58.052412" lon="38.838515"><ele>110.5</ele><time>2023-12-31T23:09:33Z</time></trkpt><trkpt lat="58.05235" lon="38.83845"><ele>112.6</ele><time>2023-12-31T23:09:40Z</time></trkpt><trkpt lat="58.052285" lon="38.838392"><ele>110.3</ele><time>2023-12-31T23:09:47Z</time></trkpt><trkpt lat="58.052217" lon="38.838335"><ele>113.1</ele><time>2023-12-31T23:09:52Z</time></trkpt><trkpt lat="58.052145" lon="38.838347"><ele>112.0</ele><time>2023-12-31T23:09:56Z</time></trkpt><trkpt lat="58.05212" lon="38.838445"><ele>115.3</ele><time>2023-12-31T23:10:03Z</time></trkpt><trkpt lat="58.052062" lon="38.838332"><ele>115.8</ele><time>2023-12-31T23:10:09Z</time></trkpt><trkpt lat="58.05202" lon="38.838195"><ele>117.0</ele><time>2023-12-31T23:10:13Z</time></trkpt><trkpt lat="58.05194" lon="38.83817"><ele>115.8</ele><time>2023-12-31T23:10:18Z</time></trkpt><trkpt lat="58.051865" lon="38.838135"><ele>116.0</ele><time>2023-12-31T23:10:24Z</time></trkpt><trkpt lat="58.05177" lon="38.838192"><ele>115.3</ele><time>2023-12-31T23:10:31Z</time></trkpt><trkpt lat="58.051695" lon="38.83819"><ele>117.4</ele><time>2023-12-31T23:10:33Z</time></trkpt><trkpt lat="58.05173" lon="38.838052"><ele>111.2</ele><time>2023-12-31T23:10:40Z</time></trkpt><trkpt lat="58.051762" lon="38.837975"><ele>110.6</ele><time>2023-12-31T23:10:48Z</time></trkpt><trkpt lat="58.051785" lon="38.837835"><ele>109.5</ele><time>2023-12-31T23:10:52Z</time></trkpt><trkpt lat="58.05183" lon="38.83774"><ele>107.0</ele><time>2023-12-31T23:10:59Z</time></trkpt><trkpt lat="58.051873" lon="38.837635"><ele>108.0</ele><time>2023-12-31T23:11:06Z</time></trkpt><trkpt lat="58.051892" lon="38.837495"><ele>107.7</ele><time>2023-12-31T23:11:13Z</time></trkpt><trkpt lat="58.051925" lon="38.83739"><ele>108.5</ele><time>2023-12-31T23:11:20Z</time></trkpt><trkpt lat="58.051948" lon="38.837265"><ele>109.7</ele><time>2023-12-31T23:11:27Z</time></trkpt><trkpt lat="58.051967" lon="38.837135"><ele>112.4</ele><time>2023-12-31T23:11:34Z</time></trkpt><trkpt lat="58.05199" lon="38.837085"><ele>112.1</ele><time>2023-12-31T23:11:41Z</time></trkpt><trkpt lat="58.052005" lon="38.83694"><ele>114.3</ele><time>2023-12-31T23:11:48Z</time></trkpt><trkpt lat="58.052015" lon="38.836797"><ele>114.0</ele><time>2023-12-31T23:11:55Z</time></trkpt><trkpt lat="58.052045" lon="38.836655"><ele>117.1</ele><time>2023-12-31T23:12:02Z</time></trkpt><trkpt lat="58.052065" lon="38.83652"><ele>114.0</ele><time>2023-12-31T23:12:08Z</time></trkpt><trkpt lat="58.052072" lon="38.836385"><ele>114.9</ele><time>2023-12-31T23:12:14Z</time></trkpt><trkpt lat="58.05209" lon="38.836233"><ele>115.2</ele><time>2023-12-31T23:12:21Z</time></trkpt><trkpt lat="58.052115" lon="38.83609"><ele>113.9</ele><time>2023-12-31T23:12:28Z</time></trkpt><trkpt lat="58.052155" lon="38.835955"><ele>115.8</ele><time>2023-12-31T23:12:35Z</time></trkpt><trkpt lat="58.052173" lon="38.835842"><ele>115.1</ele><time>2023-12-31T23:12:42Z</time></trkpt><trkpt lat="58.05221" lon="38.83574"><ele>109.9</ele><time>2023-12-31T23:12:49Z</time></trkpt><trkpt lat="58.05225" lon="38.83561"><ele>109.4</ele><time>2023-12-31T23:12:55Z</time></trkpt><trkpt lat="58.052275" lon="38.835465"><ele>109.7</ele><time>2023-12-31T23:13:02Z</time></trkpt><trkpt lat="58.05229" lon="38.83534"><ele>110.4</ele><time>2023-12-31T23:13:09Z</time></trkpt><trkpt lat="58.052325" lon="38.835232"><ele>111.0</ele><time>2023-12-31T23:13:16Z</time></trkpt><trkpt lat="58.052335" lon="38.835095"><ele>111.3</ele><time>2023-12-31T23:13:22Z</time></trkpt><trkpt lat="58.052342" lon="38.83495"><ele>114.5</ele><time>2023-12-31T23:13:28Z</time></trkpt><trkpt lat="58.052362" lon="38.83481"><ele>113.6</ele><time>2023-12-31T23:13:35Z</time></trkpt><trkpt lat="58.052395" lon="38.834675"><ele>114.7</ele><time>2023-12-31T23:13:42Z</time></trkpt><trkpt lat="58.052415" lon="38.834545"><ele>116.0</ele><time>2023-12-31T23:13:48Z</time></trkpt><trkpt lat="58.052437" lon="38.834415"><ele>115.1</ele><time>2023-12-31T23:13:54Z</time></trkpt><trkpt lat="58.052465" lon="38.83429"><ele>114.3</ele><time>2023-12-31T23:14:01Z</time></trkpt><trkpt lat="58.052505" lon="38.834175"><ele>113.5</ele><time>2023-12-31T23:14:06Z</time></trkpt><trkpt lat="58.052525" lon="38.834042"><ele>115.4</ele><time>2023-12-31T23:14:12Z</time></trkpt><trkpt lat="58.052532" lon="38.833905"><ele>116.7</ele><time>2023-12-31T23:14:18Z</time></trkpt><trkpt lat="58.052545" lon="38.83377"><ele>117.6</ele><time>2023-12-31T23:14:24Z</time></trkpt><trkpt lat="58.05256" lon="38.833635"><ele>117.1</ele><time>2023-12-31T23:14:30Z</time></trkpt><trkpt lat="58.05258" lon="38.833487"><ele>117.0</ele><time>2023-12-31T23:14:37Z</time></trkpt><trkpt lat="58.052615" lon="38.83336"><ele>114.2</ele><time>2023-12-31T23:14:44Z</time></trkpt><trkpt lat="58.05266" lon="38.83332"><ele>114.9</ele><time>2023-12-31T23:14:51Z</time></trkpt><trkpt lat="58.052685" lon="38.83318"><ele>112.6</ele><time>2023-12-31T23:14:58Z</time></trkpt><trkpt lat="58.052708" lon="38.83304"><ele>112.2</ele><time>2023-12-31T23:15:04Z</time></trkpt><trkpt lat="58.05273" lon="38.832915"><ele>110.4</ele><time>2023-12-31T23:15:11Z</time></trkpt><trkpt lat="58.052755" lon="38.832785"><ele>109.9</ele><time>2023-12-31T23:15:17Z</time></trkpt><trkpt lat="58.052797" lon="38.832672"><ele>105.9</ele><time>2023-12-31T23:15:23Z</time></trkpt><trkpt lat="58.05281" lon="38.832625"><ele>107.3</ele><time>2023-12-31T23:15:30Z</time></trkpt><trkpt lat="58.052815" lon="38.83263"><ele>107.7</ele><time>2023-12-31T23:15:33Z</time></trkpt><trkpt lat="58.05284" lon="38.832555"><ele>107.9</ele><time>2023-12-31T23:15:43Z</time></trkpt><trkpt lat="58.05284" lon="38.8324"><ele>108.1</ele><time>2023-12-31T23:15:47Z</time></trkpt><trkpt lat="58.05287" lon="38.832257"><ele>110.6</ele><time>2023-12-31T23:15:52Z</time></trkpt><trkpt lat="58.052885" lon="38.83211"><ele>110.9</ele><time>2023-12-31T23:16:00Z</time></trkpt><trkpt lat="58.052905" lon="38.831965"><ele>113.8</ele><time>2023-12-31T23:16:06Z</time></trkpt><trkpt lat="58.05288" lon="38.831817"><ele>115.3</ele><time>2023-12-31T23:16:11Z</time></trkpt><trkpt lat="58.05294" lon="38.83173"><ele>112.1</ele><time>2023-12-31T23:16:17Z</time></trkpt><trkpt lat="58.052985" lon="38.831662"><ele>107.6</ele><time>2023-12-31T23:16:24Z</time></trkpt><trkpt lat="58.053015" lon="38.831535"><ele>109.1</ele><time>2023-12-31T23:16:31Z</time></trkpt><trkpt lat="58.053045" lon="38.83141"><ele>106.3</ele><time>2023-12-31T23:16:38Z</time></trkpt><trkpt lat="58.05307" lon="38.831285"><ele>106.6</ele><time>2023-12-31T23:16:44Z</time></trkpt><trkpt lat="58.053095" lon="38.83115"><ele>108.8</ele><time>2023-12-31T23:16:51Z</time></trkpt><trkpt lat="58.05311" lon="38.831007"><ele>110.5</ele><time>2023-12-31T23:16:58Z</time></trkpt><trkpt lat="58.053137" lon="38.830865"><ele>113.4</ele><time>2023-12-31T23:17:05Z</time></trkpt><trkpt lat="58.05315" lon="38.830708"><ele>112.6</ele><time>2023-12-31T23:17:12Z</time></trkpt><trkpt lat="58.05318" lon="38.830575"><ele>112.3</ele><time>2023-12-31T23:17:18Z</time></trkpt><trkpt lat="58.05321" lon="38.830437"><ele>110.9</ele><time>2023-12-31T23:17:25Z</time></trkpt><trkpt lat="58.053235" lon="38.8303"><ele>110.8</ele><time>2023-12-31T23:17:32Z</time></trkpt><trkpt lat="58.053255" lon="38.830187"><ele>110.4</ele><time>2023-12-31T23:17:39Z</time></trkpt><trkpt lat="58.053265" lon="38.830045"><ele>110.2</ele><time>2023-12-31T23:17:46Z</time></trkpt><trkpt lat="58.053285" lon="38.829897"><ele>109.7</ele><time>2023-12-31T23:17:53Z</time></trkpt><trkpt lat="58.053317" lon="38.829775"><ele>110.4</ele><time>2023-12-31T23:18:00Z</time></trkpt><trkpt lat="58.05336" lon="38.829665"><ele>108.6</ele><time>2023-12-31T23:18:07Z</time></trkpt><trkpt lat="58.053385" lon="38.829535"><ele>109.2</ele><time>2023-12-31T23:18:13Z</time></trkpt><trkpt lat="58.053395" lon="38.829395"><ele>107.2</ele><time>2023-12-31T23:18:19Z</time></trkpt><trkpt lat="58.05342" lon="38.829277"><ele>109.3</ele><time>2023-12-31T23:18:26Z</time></trkpt><trkpt lat="58.053445" lon="38.829175"><ele>110.7</ele><time>2023-12-31T23:18:33Z</time></trkpt><trkpt lat="58.053475" lon="38.82907"><ele>111.3</ele><time>2023-12-31T23:18:40Z</time></trkpt><trkpt lat="58.053495" lon="38.82894"><ele>111.6</ele><time>2023-12-31T23:18:47Z</time></trkpt><trkpt lat="58.053525" lon="38.828865"><ele>110.2</ele><time>2023-12-31T23:18:54Z</time></trkpt><trkpt lat="58.053542" lon="38.82878"><ele>110.6</ele><time>2023-12-31T23:19:01Z</time></trkpt><trkpt lat="58.05358" lon="38.82866"><ele>109.2</ele><time>2023-12-31T23:19:08Z</time></trkpt><trkpt lat="58.0536" lon="38.828525"><ele>109.6</ele><time>2023-12-31T23:19:14Z</time></trkpt><trkpt lat="58.053615" lon="38.828382"><ele>108.5</ele><time>2023-12-31T23:19:20Z</time></trkpt><trkpt lat="58.053635" lon="38.828245"><ele>106.4</ele><time>2023-12-31T23:19:27Z</time></trkpt><trkpt lat="58.053655" lon="38.828122"><ele>107.2</ele><time>2023-12-31T23:19:34Z</time></trkpt><trkpt lat="58.053677" lon="38.827987"><ele>107.3</ele><time>2023-12-31T23:19:41Z</time></trkpt><trkpt lat="58.053693" lon="38.827845"><ele>108.7</ele><time>2023-12-31T23:19:48Z</time></trkpt><trkpt lat="58.05372" lon="38.8277"><ele>108.6</ele><time>2023-12-31T23:19:55Z</time></trkpt><trkpt lat="58.05377" lon="38.827597"><ele>107.9</ele><time>2023-12-31T23:20:02Z</time></trkpt><trkpt lat="58.053795" lon="38.827482"><ele>108.6</ele><time>2023-12-31T23:20:09Z</time></trkpt><trkpt lat="58.053825" lon="38.827345"><ele>108.3</ele><time>2023-12-31T23:20:16Z</time></trkpt><trkpt lat="58.05386" lon="38.827217"><ele>107.7</ele><time>2023-12-31T23:20:23Z</time></trkpt><trkpt lat="58.05388" lon="38.82709"><ele>107.8</ele><time>2023-12-31T23:20:30Z</time></trkpt><trkpt lat="58.053902" lon="38.826945"><ele>107.8</ele><time>2023-12-31T23:20:37Z</time></trkpt><trkpt lat="58.053925" lon="38.82681"><ele>109.0</ele><time>2023-12-31T23:20:44Z</time></trkpt><trkpt lat="58.05393" lon="38.82668"><ele>112.2</ele><time>2023-12-31T23:20:51Z</time></trkpt><trkpt lat="58.05394" lon="38.82665"><ele>111.7</ele><time>2023-12-31T23:20:58Z</time></trkpt><trkpt lat="58.053945" lon="38.82666"><ele>110.8</ele><time>2023-12-31T23:21:01Z</time></trkpt><trkpt lat="58.05394" lon="38.82666"><ele>110.8</ele><time>2023-12-31T23:21:33Z</time></trkpt><trkpt lat="58.05394" lon="38.82666"><ele>110.8</ele><time>2023-12-31T23:21:34Z</time></trkpt><trkpt lat="58.05395" lon="38.82659"><ele>110.7</ele><time>2023-12-31T23:21:45Z</time></trkpt><trkpt lat="58.053965" lon="38.826453"><ele>112.6</ele><time>2023-12-31T23:21:50Z</time></trkpt><trkpt lat="58.053975" lon="38.826312"><ele>111.5</ele><time>2023-12-31T23:21:55Z</time></trkpt><trkpt lat="58.054002" lon="38.826195"><ele>110.9</ele><time>2023-12-31T23:22:02Z</time></trkpt><trkpt lat="58.05401" lon="38.82606"><ele>111.1</ele><time>2023-12-31T23:22:09Z</time></trkpt><trkpt lat="58.05404" lon="38.825917"><ele>111.6</ele><time>2023-12-31T23:22:16Z</time></trkpt><trkpt lat="58.054077" lon="38.82579"><ele>112.5</ele><time>2023-12-31T23:22:23Z</time></trkpt><trkpt lat="58.054095" lon="38.82565"><ele>114.2</ele><time>2023-12-31T23:22:30Z</time></trkpt><trkpt lat="58.0541" lon="38.82551"><ele>116.9</ele><time>2023-12-31T23:22:37Z</time></trkpt><trkpt lat="58.05412" lon="38.82537"><ele>117.4</ele><time>2023-12-31T23:22:43Z</time></trkpt><trkpt lat="58.054142" lon="38.825242"><ele>117.6</ele><time>2023-12-31T23:22:50Z</time></trkpt><trkpt lat="58.05417" lon="38.825137"><ele>112.2</ele><time>2023-12-31T23:22:57Z</time></trkpt><trkpt lat="58.054205" lon="38.825018"><ele>111.9</ele><time>2023-12-31T23:23:04Z</time></trkpt><trkpt lat="58.054242" lon="38.82488"><ele>112.0</ele><time>2023-12-31T23:23:11Z</time></trkpt><trkpt lat="58.05427" lon="38.824745"><ele>112.3</ele><time>2023-12-31T23:23:18Z</time></trkpt><trkpt lat="58.054297" lon="38.82462"><ele>111.5</ele><time>2023-12-31T23:23:25Z</time></trkpt><trkpt lat="58.054335" lon="38.824492"><ele>108.6</ele><time>2023-12-31T23:23:32Z</time></trkpt><trkpt lat="58.05437" lon="38.824357"><ele>108.2</ele><time>2023-12-31T23:23:39Z</time></trkpt><trkpt lat="58.054402" lon="38.824235"><ele>108.5</ele><time>2023-12-31T23:23:45Z</time></trkpt><trkpt lat="58.054422" lon="38.824102"><ele>108.3</ele><time>2023-12-31T23:23:52Z</time></trkpt><trkpt lat="58.054447" lon="38.823968"><ele>107.9</ele><time>2023-12-31T23:23:58Z</time></trkpt><trkpt lat="58.05448" lon="38.82383"><ele>108.0</ele><time>2023-12-31T23:24:05Z</time></trkpt><trkpt lat="58.05451" lon="38.82368"><ele>106.4</ele><time>2023-12-31T23:24:12Z</time></trkpt><trkpt lat="58.05454" lon="38.823545"><ele>105.8</ele><time>2023-12-31T23:24:18Z</time></trkpt><trkpt lat="58.054557" lon="38.82341"><ele>107.8</ele><time>2023-12-31T23:24:24Z</time></trkpt><trkpt lat="58.054565" lon="38.823285"><ele>108.0</ele><time>2023-12-31T23:24:31Z</time></trkpt><trkpt lat="58.054595" lon="38.82315"><ele>109.3</ele><time>2023-12-31T23:24:37Z</time></trkpt><trkpt lat="58.05462" lon="38.823037"><ele>108.2</ele><time>2023-12-31T23:24:44Z</time></trkpt><trkpt lat="58.054645" lon="38.822892"><ele>108.3</ele><time>2023-12-31T23:24:51Z</time></trkpt><trkpt lat="58.054675" lon="38.822767"><ele>106.4</ele><time>2023-12-31T23:24:58Z</time></trkpt><trkpt lat="58.0547" lon="38.822635"><ele>107.1</ele><time>2023-12-31T23:25:04Z</time></trkpt><trkpt lat="58.05472" lon="38.822485"><ele>111.2</ele><time>2023-12-31T23:25:10Z</time></trkpt><trkpt lat="58.054747" lon="38.82236"><ele>109.5</ele><time>2023-12-31T23:25:16Z</time></trkpt><trkpt lat="58.054775" lon="38.822215"><ele>112.1</ele><time>2023-12-31T23:25:23Z</time></trkpt><trkpt lat="58.054805" lon="38.822075"><ele>111.6</ele><time>2023-12-31T23:25:29Z</time></trkpt><trkpt lat="58.054815" lon="38.821912"><ele>110.3</ele><time>2023-12-31T23:25:36Z</time></trkpt><trkpt lat="58.054833" lon="38.821775"><ele>109.9</ele><time>2023-12-31T23:25:42Z</time></trkpt><trkpt lat="58.05485" lon="38.821625"><ele>109.1</ele><time>2023-12-31T23:25:49Z</time></trkpt><trkpt lat="58.054852" lon="38.821472"><ele>110.8</ele><time>2023-12-31T23:25:56Z</time></trkpt><trkpt lat="58.054865" lon="38.821325"><ele>110.4</ele><time>2023-12-31T23:26:03Z</time></trkpt><trkpt lat="58.05487" lon="38.821185"><ele>110.6</ele><time>2023-12-31T23:26:09Z</time></trkpt><trkpt lat="58.05489" lon="38.82105"><ele>109.3</ele><time>2023-12-31T23:26:16Z</time></trkpt><trkpt lat="58.05491" lon="38.820915"><ele>110.0</ele><time>2023-12-31T23:26:23Z</time></trkpt><trkpt lat="58.054925" lon="38.820765"><ele>109.9</ele><time>2023-12-31T23:26:30Z</time></trkpt><trkpt lat="58.05493" lon="38.820615"><ele>109.4</ele><time>2023-12-31T23:26:37Z</time></trkpt><trkpt lat="58.05494" lon="38.82046"><ele>109.7</ele><time>2023-12-31T23:26:44Z</time></trkpt><trkpt lat="58.054972" lon="38.82033"><ele>110.3</ele><time>2023-12-31T23:26:50Z</time></trkpt><trkpt lat="58.055027" lon="38.820227"><ele>108.3</ele><time>2023-12-31T23:26:57Z</time></trkpt><trkpt lat="58.05505" lon="38.82009"><ele>107.5</ele><time>2023-12-31T23:27:04Z</time></trkpt><trkpt lat="58.055057" lon="38.819942"><ele>108.9</ele><time>2023-12-31T23:27:11Z</time></trkpt><trkpt lat="58.05507" lon="38.819795"><ele>108.6</ele><time>2023-12-31T23:27:18Z</time></trkpt><trkpt lat="58.055082" lon="38.819647"><ele>110.1</ele><time>2023-12-31T23:27:25Z</time></trkpt><trkpt lat="58.05508" lon="38.819492"><ele>109.8</ele><time>2023-12-31T23:27:32Z</time></trkpt><trkpt lat="58.05509" lon="38.819345"><ele>110.8</ele><time>2023-12-31T23:27:39Z</time></trkpt><trkpt lat="58.0551" lon="38.819207"><ele>111.3</ele><time>2023-12-31T23:27:45Z</time></trkpt><trkpt lat="58.05512" lon="38.819075"><ele>109.6</ele><time>2023-12-31T23:27:52Z</time></trkpt><trkpt lat="58.055137" lon="38.818942"><ele>111.0</ele><time>2023-12-31T23:27:59Z</time></trkpt><trkpt lat="58.055137" lon="38.818807"><ele>110.8</ele><time>2023-12-31T23:28:06Z</time></trkpt><trkpt lat="58.055145" lon="38.818635"><ele>111.1</ele><time>2023-12-31T23:28:11Z</time></trkpt><trkpt lat="58.055145" lon="38.818487"><ele>109.5</ele><time>2023-12-31T23:28:18Z</time></trkpt><trkpt lat="58.055155" lon="38.818335"><ele>110.6</ele><time>2023-12-31T23:28:24Z</time></trkpt><trkpt lat="58.05517" lon="38.818185"><ele>109.2</ele><time>2023-12-31T23:28:31Z</time></trkpt><trkpt lat="58.055185" lon="38.81804"><ele>108.6</ele><time>2023-12-31T23:28:38Z</time></trkpt><trkpt lat="58.055195" lon="38.8179"><ele>108.6</ele><time>2023-12-31T23:28:45Z</time></trkpt><trkpt lat="58.055208" lon="38.817742"><ele>109.2</ele><time>2023-12-31T23:28:52Z</time></trkpt><trkpt lat="58.055213" lon="38.81759"><ele>109.6</ele><time>2023-12-31T23:28:59Z</time></trkpt><trkpt lat="58.055225" lon="38.817455"><ele>109.4</ele><time>2023-12-31T23:29:05Z</time></trkpt><trkpt lat="58.05523" lon="38.8173"><ele>109.8</ele><time>2023-12-31T23:29:12Z</time></trkpt><trkpt lat="58.05524" lon="38.81716"><ele>110.6</ele><time>2023-12-31T23:29:18Z</time></trkpt><trkpt lat="58.055255" lon="38.81702"><ele>109.5</ele><time>2023-12-31T23:29:25Z</time></trkpt><trkpt lat="58.055255" lon="38.816895"><ele>107.7</ele><time>2023-12-31T23:29:32Z</time></trkpt><trkpt lat="58.055265" lon="38.816745"><ele>107.4</ele><time>2023-12-31T23:29:39Z</time></trkpt><trkpt lat="58.055232" lon="38.8166"><ele>108.9</ele><time>2023-12-31T23:29:43Z</time></trkpt><trkpt lat="58.055245" lon="38.816492"><ele>109.8</ele><time>2023-12-31T23:29:49Z</time></trkpt><trkpt lat="58.05527" lon="38.816375"><ele>109.8</ele><time>2023-12-31T23:29:56Z</time></trkpt><trkpt lat="58.055292" lon="38.816292"><ele>110.5</ele><time>2023-12-31T23:30:03Z</time></trkpt><trkpt lat="58.0553" lon="38.816185"><ele>111.7</ele><time>2023-12-31T23:30:10Z</time></trkpt><trkpt lat="58.055315" lon="38.816045"><ele>110.4</ele><time>2023-12-31T23:30:17Z</time></trkpt><trkpt lat="58.05534" lon="38.815915"><ele>110.4</ele><time>2023-12-31T23:30:23Z</time></trkpt><trkpt lat="58.055402" lon="38.815825"><ele>110.0</ele><time>2023-12-31T23:30:30Z</time></trkpt><trkpt lat="58.05546" lon="38.815732"><ele>110.8</ele><time>2023-12-31T23:30:37Z</time></trkpt><trkpt lat="58.055508" lon="38.81563"><ele>110.7</ele><time>2023-12-31T23:30:44Z</time></trkpt><trkpt lat="58.055555" lon="38.815505"><ele>110.9</ele><time>2023-12-31T23:30:51Z</time></trkpt><trkpt lat="58.055605" lon="38.81537"><ele>111.1</ele><time>2023-12-31T23:30:58Z</time></trkpt><trkpt lat="58.05566" lon="38.81527"><ele>109.6</ele><time>2023-12-31T23:31:05Z</time></trkpt><trkpt lat="58.055715" lon="38.815155"><ele>111.8</ele><time>2023-12-31T23:31:12Z</time></trkpt><trkpt lat="58.055752" lon="38.815055"><ele>111.8</ele><time>2023-12-31T23:31:19Z</time></trkpt><trkpt lat="58.055748" lon="38.814915"><ele>112.4</ele><time>2023-12-31T23:31:24Z</time></trkpt><trkpt lat="58.055747" lon="38.814775"><ele>113.0</ele><time>2023-12-31T23:31:30Z</time></trkpt><trkpt lat="58.055762" lon="38.814633"><ele>113.4</ele><time>2023-12-31T23:31:37Z</time></trkpt><trkpt lat="58.05579" lon="38.814505"><ele>112.0</ele><time>2023-12-31T23:31:43Z</time></trkpt><trkpt lat="58.055818" lon="38.814385"><ele>110.9</ele><time>2023-12-31T23:31:50Z</time></trkpt><trkpt lat="58.055825" lon="38.81424"><ele>112.2</ele><time>2023-12-31T23:31:57Z</time></trkpt><trkpt lat="58.055815" lon="38.81409"><ele>110.6</ele><time>2023-12-31T23:32:04Z</time></trkpt><trkpt lat="58.055825" lon="38.813945"><ele>108.4</ele><time>2023-12-31T23:32:11Z</time></trkpt><trkpt lat="58.055827" lon="38.813807"><ele>108.9</ele><time>2023-12-31T23:32:17Z</time></trkpt><trkpt lat="58.05584" lon="38.813685"><ele>110.6</ele><time>2023-12-31T23:32:24Z</time></trkpt><trkpt lat="58.055885" lon="38.8136"><ele>110.6</ele><time>2023-12-31T23:32:31Z</time></trkpt><trkpt lat="58.055927" lon="38.813497"><ele>111.7</ele><time>2023-12-31T23:32:38Z</time></trkpt><trkpt lat="58.055972" lon="38.8134"><ele>111.0</ele><time>2023-12-31T23:32:45Z</time></trkpt><trkpt lat="58.056025" lon="38.813273"><ele>111.8</ele><time>2023-12-31T23:32:52Z</time></trkpt><trkpt lat="58.05607" lon="38.813175"><ele>112.5</ele><time>2023-12-31T23:32:58Z</time></trkpt><trkpt lat="58.056112" lon="38.81308"><ele>112.6</ele><time>2023-12-31T23:33:05Z</time></trkpt><trkpt lat="58.056155" lon="38.813"><ele>112.7</ele><time>2023-12-31T23:33:12Z</time></trkpt><trkpt lat="58.056212" lon="38.81289"><ele>112.2</ele><time>2023-12-31T23:33:18Z</time></trkpt><trkpt lat="58.056252" lon="38.81276"><ele>112.6</ele><time>2023-12-31T23:33:24Z</time></trkpt><trkpt lat="58.056302" lon="38.81265"><ele>112.0</ele><time>2023-12-31T23:33:31Z</time></trkpt><trkpt lat="58.056347" lon="38.81252"><ele>112.4</ele><time>2023-12-31T23:33:37Z</time></trkpt><trkpt lat="58.056395" lon="38.81244"><ele>112.7</ele><time>2023-12-31T23:33:44Z</time></trkpt><trkpt lat="58.056445" lon="38.812315"><ele>112.2</ele><time>2023-12-31T23:33:51Z</time></trkpt><trkpt lat="58.056485" lon="38.81219"><ele>115.9</ele><time>2023-12-31T23:33:58Z</time></trkpt><trkpt lat="58.056525" lon="38.81206"><ele>116.3</ele><time>2023-12-31T23:34:05Z</time></trkpt><trkpt lat="58.056573" lon="38.81195"><ele>116.2</ele><time>2023-12-31T23:34:12Z</time></trkpt><trkpt lat="58.05662" lon="38.811867"><ele>115.3</ele><time>2023-12-31T23:34:19Z</time></trkpt><trkpt lat="58.056655" lon="38.81176"><ele>117.2</ele><time>2023-12-31T23:34:26Z</time></trkpt><trkpt lat="58.056655" lon="38.811625"><ele>117.9</ele><time>2023-12-31T23:34:32Z</time></trkpt><trkpt lat="58.056655" lon="38.811485"><ele>119.9</ele><time>2023-12-31T23:34:37Z</time></trkpt><trkpt lat="58.05667" lon="38.811355"><ele>118.4</ele><time>2023-12-31T23:34:44Z</time></trkpt><trkpt lat="58.056685" lon="38.811235"><ele>120.0</ele><time>2023-12-31T23:34:51Z</time></trkpt><trkpt lat="58.056648" lon="38.811115"><ele>118.8</ele><time>2023-12-31T23:34:56Z</time></trkpt><trkpt lat="58.056687" lon="38.810975"><ele>113.3</ele><time>2023-12-31T23:35:02Z</time></trkpt><trkpt lat="58.05671" lon="38.810825"><ele>111.5</ele><time>2023-12-31T23:35:09Z</time></trkpt><trkpt lat="58.056715" lon="38.810675"><ele>111.6</ele><time>2023-12-31T23:35:16Z</time></trkpt><trkpt lat="58.056725" lon="38.810575"><ele>113.0</ele><time>2023-12-31T23:35:24Z</time></trkpt><trkpt lat="58.05674" lon="38.810437"><ele>113.9</ele><time>2023-12-31T23:35:28Z</time></trkpt><trkpt lat="58.056772" lon="38.810305"><ele>113.9</ele><time>2023-12-31T23:35:36Z</time></trkpt><trkpt lat="58.05677" lon="38.81017"><ele>114.6</ele><time>2023-12-31T23:35:42Z</time></trkpt><trkpt lat="58.05681" lon="38.810047"><ele>114.5</ele><time>2023-12-31T23:35:46Z</time></trkpt><trkpt lat="58.05681" lon="38.80992"><ele>113.4</ele><time>2023-12-31T23:35:54Z</time></trkpt><trkpt lat="58.056775" lon="38.809798"><ele>113.8</ele><time>2023-12-31T23:36:00Z</time></trkpt><trkpt lat="58.056785" lon="38.809665"><ele>113.0</ele><time>2023-12-31T23:36:06Z</time></trkpt><trkpt lat="58.056845" lon="38.809592"><ele>114.0</ele><time>2023-12-31T23:36:11Z</time></trkpt><trkpt lat="58.05691" lon="38.809515"><ele>114.3</ele><time>2023-12-31T23:36:15Z</time></trkpt><trkpt lat="58.05699" lon="38.80955"><ele>113.2</ele><time>2023-12-31T23:36:21Z</time></trkpt><trkpt lat="58.057027" lon="38.809502"><ele>110.9</ele><time>2023-12-31T23:36:28Z</time></trkpt><trkpt lat="58.05704" lon="38.809345"><ele>113.5</ele><time>2023-12-31T23:36:34Z</time></trkpt><trkpt lat="58.057077" lon="38.809225"><ele>113.3</ele><time>2023-12-31T23:36:41Z</time></trkpt><trkpt lat="58.057155" lon="38.809205"><ele>114.4</ele><time>2023-12-31T23:36:48Z</time></trkpt><trkpt lat="58.05723" lon="38.809155"><ele>115.6</ele><time>2023-12-31T23:36:55Z</time></trkpt><trkpt lat="58.0573" lon="38.809095"><ele>113.6</ele><time>2023-12-31T23:37:01Z</time></trkpt><trkpt lat="58.05736" lon="38.80901"><ele>111.9</ele><time>2023-12-31T23:37:08Z</time></trkpt><trkpt lat="58.05743" lon="38.808972"><ele>111.0</ele><time>2023-12-31T23:37:15Z</time></trkpt><trkpt lat="58.0575" lon="38.80894"><ele>109.5</ele><time>2023-12-31T23:37:22Z</time></trkpt><trkpt lat="58.057572" lon="38.808852"><ele>111.8</ele><time>2023-12-31T23:37:29Z</time></trkpt><trkpt lat="58.057625" lon="38.808735"><ele>110.8</ele><time>2023-12-31T23:37:36Z</time></trkpt><trkpt lat="58.057685" lon="38.80872"><ele>108.8</ele><time>2023-12-31T23:37:43Z</time></trkpt><trkpt lat="58.057747" lon="38.808797"><ele>110.9</ele><time>2023-12-31T23:37:50Z</time></trkpt><trkpt lat="58.05783" lon="38.80881"><ele>107.5</ele><time>2023-12-31T23:37:56Z</time></trkpt><trkpt lat="58.05789" lon="38.80879"><ele>109.6</ele><time>2023-12-31T23:38:03Z</time></trkpt><trkpt lat="58.05797" lon="38.80876"><ele>108.4</ele><time>2023-12-31T23:38:09Z</time></trkpt><trkpt lat="58.058045" lon="38.808792"><ele>111.0</ele><time>2023-12-31T23:38:15Z</time></trkpt><trkpt lat="58.058097" lon="38.808895"><ele>112.3</ele><time>2023-12-31T23:38:22Z</time></trkpt><trkpt lat="58.058168" lon="38.808895"><ele>112.7</ele><time>2023-12-31T23:38:28Z</time></trkpt><trkpt lat="58.058253" lon="38.808877"><ele>111.7</ele><time>2023-12-31T23:38:33Z</time></trkpt><trkpt lat="58.05833" lon="38.80883"><ele>112.2</ele><time>2023-12-31T23:38:39Z</time></trkpt><trkpt lat="58.058405" lon="38.80881"><ele>110.2</ele><time>2023-12-31T23:38:45Z</time></trkpt><trkpt lat="58.058475" lon="38.808892"><ele>114.1</ele><time>2023-12-31T23:38:49Z</time></trkpt><trkpt lat="58.058543" lon="38.80896"><ele>114.0</ele><time>2023-12-31T23:38:55Z</time></trkpt><trkpt lat="58.05858" lon="38.80883"><ele>113.4</ele><time>2023-12-31T23:39:02Z</time></trkpt><trkpt lat="58.058585" lon="38.808695"><ele>113.7</ele><time>2023-12-31T23:39:08Z</time></trkpt><trkpt lat="58.05859" lon="38.808555"><ele>114.5</ele><time>2023-12-31T23:39:14Z</time></trkpt><trkpt lat="58.058605" lon="38.808422"><ele>115.1</ele><time>2023-12-31T23:39:21Z</time></trkpt><trkpt lat="58.058613" lon="38.80829"><ele>116.6</ele><time>2023-12-31T23:39:27Z</time></trkpt><trkpt lat="58.058613" lon="38.808135"><ele>117.3</ele><time>2023-12-31T23:39:34Z</time></trkpt><trkpt lat="58.058625" lon="38.807975"><ele>117.7</ele><time>2023-12-31T23:39:41Z</time></trkpt><trkpt lat="58.05863" lon="38.80789"><ele>117.2</ele><time>2023-12-31T23:39:48Z</time></trkpt><trkpt lat="58.058635" lon="38.807755"><ele>117.4</ele><time>2023-12-31T23:39:54Z</time></trkpt><trkpt lat="58.05864" lon="38.807735"><ele>116.7</ele><time>2023-12-31T23:40:01Z</time></trkpt><trkpt lat="58.05864" lon="38.807715"><ele>117.4</ele><time>2023-12-31T23:40:11Z</time></trkpt><trkpt lat="58.05864" lon="38.807715"><ele>117.4</ele><time>2023-12-31T23:40:12Z</time></trkpt><trkpt lat="58.058695" lon="38.807615"><ele>117.2</ele><time>2023-12-31T23:40:13Z</time></trkpt></trkseg></trk></gpx>