<?xml version="1.0" encoding="UTF-8" standalone="no"?><gpx xmlns="http://www.topografix.com/GPX/1/1" xmlns:gpxtpx="http://www.garmin.com/xmlschemas/TrackPointExtension/v1" xmlns:xsi="http://www.w3.org/2001/XMLSchema-instance" creator="Sports Tracker" version="1.1" xsi:schemaLocation="http://www.topografix.com/GPX/1/1 http://www.topografix.com/GPX/1/1/gpx.xsd http://www.garmin.com/xmlschemas/TrackPointExtension/v1 http://www.garmin.com/xmlschemas/TrackPointExtensionv1.xsd"><metadata><name/><desc/><author><name>Александр</name></author></metadata><trk><name/><trkseg><trkpt lat="58.028955" lon="38.862195"><ele>100.5</ele><time>2023-01-11T17:24:00Z</time></trkpt><trkpt lat="58.029008" lon="38.862018"><ele>101.0</ele><time>2023-01-11T17:24:09Z</time></trkpt><trkpt lat="58.029053" lon="38.861885"><ele>101.3</ele><time>2023-01-11T17:24:13Z</time></trkpt><trkpt lat="58.029117" lon="38.861788"><ele>102.1</ele><time>2023-01-11T17:24:16Z</time></trkpt><trkpt lat="58.029183" lon="38.861733"><ele>101.6</ele><time>2023-01-11T17:24:20Z</time></trkpt><trkpt lat="58.029248" lon="38.861663"><ele>102.3</ele><time>2023-01-11T17:24:53Z</time></trkpt><trkpt lat="58.02934" lon="38.861602"><ele>102.0</ele><time>2023-01-11T17:24:56Z</time></trkpt><trkpt lat="58.029417" lon="38.861565"><ele>102.6</ele><time>2023-01-11T17:24:59Z</time></trkpt><trkpt lat="58.029512" lon="38.861533"><ele>102.6</ele><time>2023-01-11T17:25:03Z</time></trkpt><trkpt lat="58.029613" lon="38.861492"><ele>102.1</ele><time>2023-01-11T17:25:06Z</time></trkpt><trkpt lat="58.029685" lon="38.86145"><ele>101.7</ele><time>2023-01-11T17:25:08Z</time></trkpt><trkpt lat="58.029785" lon="38.861393"><ele>101.0</ele><time>2023-01-11T17:25:11Z</time></trkpt><trkpt lat="58.029855" lon="38.861347"><ele>100.8</ele><time>2023-01-11T17:25:13Z</time></trkpt><trkpt lat="58.02993" lon="38.8613"><ele>101.2</ele><time>2023-01-11T17:25:15Z</time></trkpt><trkpt lat="58.030007" lon="38.861238"><ele>102.0</ele><time>2023-01-11T17:25:17Z</time></trkpt><trkpt lat="58.03008" lon="38.861178"><ele>102.0</ele><time>2023-01-11T17:25:19Z</time></trkpt><trkpt lat="58.030145" lon="38.861113"><ele>101.9</ele><time>2023-01-11T17:25:21Z</time></trkpt><trkpt lat="58.030202" lon="38.861028"><ele>101.5</ele><time>2023-01-11T17:25:23Z</time></trkpt><trkpt lat="58.030275" lon="38.860895"><ele>101.5</ele><time>2023-01-11T17:25:26Z</time></trkpt><trkpt lat="58.030355" lon="38.860767"><ele>101.5</ele><time>2023-01-11T17:25:29Z</time></trkpt><trkpt lat="58.030447" lon="38.860682"><ele>101.9</ele><time>2023-01-11T17:25:32Z</time></trkpt><trkpt lat="58.030557" lon="38.860688"><ele>102.3</ele><time>2023-01-11T17:25:35Z</time></trkpt><trkpt lat="58.030633" lon="38.860718"><ele>102.4</ele><time>2023-01-11T17:25:37Z</time></trkpt><trkpt lat="58.030707" lon="38.860778"><ele>102.1</ele><time>2023-01-11T17:25:39Z</time></trkpt><trkpt lat="58.030778" lon="38.860857"><ele>102.1</ele><time>2023-01-11T17:25:41Z</time></trkpt><trkpt lat="58.03085" lon="38.860928"><ele>102.0</ele><time>2023-01-11T17:25:43Z</time></trkpt><trkpt lat="58.030918" lon="38.860995"><ele>101.8</ele><time>2023-01-11T17:25:45Z</time></trkpt><trkpt lat="58.031013" lon="38.861088"><ele>101.5</ele><time>2023-01-11T17:25:48Z</time></trkpt><trkpt lat="58.031088" lon="38.861163"><ele>101.0</ele><time>2023-01-11T17:25:50Z</time></trkpt><trkpt lat="58.03118" lon="38.861253"><ele>101.5</ele><time>2023-01-11T17:25:52Z</time></trkpt><trkpt lat="58.03127" lon="38.861347"><ele>101.1</ele><time>2023-01-11T17:25:54Z</time></trkpt><trkpt lat="58.031382" lon="38.86143"><ele>100.8</ele><time>2023-01-11T17:25:56Z</time></trkpt><trkpt lat="58.03146" lon="38.861463"><ele>100.0</ele><time>2023-01-11T17:25:58Z</time></trkpt><trkpt lat="58.03158" lon="38.861502"><ele>99.9</ele><time>2023-01-11T17:26:00Z</time></trkpt><trkpt lat="58.031672" lon="38.861525"><ele>101.5</ele><time>2023-01-11T17:26:02Z</time></trkpt><trkpt lat="58.031745" lon="38.861543"><ele>102.7</ele><time>2023-01-11T17:26:04Z</time></trkpt><trkpt lat="58.031828" lon="38.861568"><ele>103.1</ele><time>2023-01-11T17:26:07Z</time></trkpt><trkpt lat="58.03188" lon="38.86168"><ele>102.4</ele><time>2023-01-11T17:26:11Z</time></trkpt><trkpt lat="58.031905" lon="38.861845"><ele>102.3</ele><time>2023-01-11T17:26:16Z</time></trkpt><trkpt lat="58.031878" lon="38.862017"><ele>101.7</ele><time>2023-01-11T17:26:20Z</time></trkpt><trkpt lat="58.03182" lon="38.862153"><ele>101.2</ele><time>2023-01-11T17:26:23Z</time></trkpt><trkpt lat="58.031753" lon="38.862203"><ele>101.1</ele><time>2023-01-11T17:26:25Z</time></trkpt><trkpt lat="58.031677" lon="38.862193"><ele>100.1</ele><time>2023-01-11T17:26:27Z</time></trkpt><trkpt lat="58.031593" lon="38.862167"><ele>101.0</ele><time>2023-01-11T17:26:29Z</time></trkpt><trkpt lat="58.031518" lon="38.862103"><ele>100.2</ele><time>2023-01-11T17:26:31Z</time></trkpt><trkpt lat="58.031447" lon="38.861993"><ele>100.3</ele><time>2023-01-11T17:26:34Z</time></trkpt><trkpt lat="58.031375" lon="38.86191"><ele>101.7</ele><time>2023-01-11T17:26:37Z</time></trkpt><trkpt lat="58.03131" lon="38.861825"><ele>100.6</ele><time>2023-01-11T17:26:40Z</time></trkpt><trkpt lat="58.031237" lon="38.861713"><ele>100.9</ele><time>2023-01-11T17:26:43Z</time></trkpt><trkpt lat="58.031183" lon="38.861612"><ele>100.3</ele><time>2023-01-11T17:26:45Z</time></trkpt><trkpt lat="58.031127" lon="38.861513"><ele>99.6</ele><time>2023-01-11T17:26:48Z</time></trkpt><trkpt lat="58.031062" lon="38.861437"><ele>100.1</ele><time>2023-01-11T17:26:52Z</time></trkpt><trkpt lat="58.031003" lon="38.86135"><ele>101.1</ele><time>2023-01-11T17:26:56Z</time></trkpt><trkpt lat="58.03094" lon="38.861275"><ele>102.2</ele><time>2023-01-11T17:27:00Z</time></trkpt><trkpt lat="58.03088" lon="38.861178"><ele>101.9</ele><time>2023-01-11T17:27:04Z</time></trkpt><trkpt lat="58.030815" lon="38.861095"><ele>101.8</ele><time>2023-01-11T17:27:07Z</time></trkpt><trkpt lat="58.030733" lon="38.861015"><ele>100.4</ele><time>2023-01-11T17:27:10Z</time></trkpt><trkpt lat="58.030662" lon="38.860987"><ele>100.5</ele><time>2023-01-11T17:27:13Z</time></trkpt><trkpt lat="58.030572" lon="38.861018"><ele>100.2</ele><time>2023-01-11T17:27:17Z</time></trkpt><trkpt lat="58.03057" lon="38.861182"><ele>99.7</ele><time>2023-01-11T17:27:49Z</time></trkpt><trkpt lat="58.030635" lon="38.861322"><ele>100.1</ele><time>2023-01-11T17:27:53Z</time></trkpt><trkpt lat="58.030707" lon="38.86143"><ele>100.8</ele><time>2023-01-11T17:27:56Z</time></trkpt><trkpt lat="58.030768" lon="38.861512"><ele>100.7</ele><time>2023-01-11T17:27:58Z</time></trkpt><trkpt lat="58.030833" lon="38.861587"><ele>100.8</ele><time>2023-01-11T17:28:00Z</time></trkpt><trkpt lat="58.030907" lon="38.861657"><ele>101.0</ele><time>2023-01-11T17:28:02Z</time></trkpt><trkpt lat="58.03098" lon="38.861723"><ele>101.8</ele><time>2023-01-11T17:28:04Z</time></trkpt><trkpt lat="58.03106" lon="38.861815"><ele>100.8</ele><time>2023-01-11T17:28:06Z</time></trkpt><trkpt lat="58.031133" lon="38.861918"><ele>100.2</ele><time>2023-01-11T17:28:08Z</time></trkpt><trkpt lat="58.0312" lon="38.862007"><ele>100.0</ele><time>2023-01-11T17:28:10Z</time></trkpt><trkpt lat="58.031267" lon="38.862095"><ele>100.0</ele><time>2023-01-11T17:28:12Z</time></trkpt><trkpt lat="58.03134" lon="38.862188"><ele>99.5</ele><time>2023-01-11T17:28:14Z</time></trkpt><trkpt lat="58.031428" lon="38.862313"><ele>99.3</ele><time>2023-01-11T17:28:16Z</time></trkpt><trkpt lat="58.031513" lon="38.862417"><ele>98.9</ele><time>2023-01-11T17:28:18Z</time></trkpt><trkpt lat="58.03158" lon="38.86252"><ele>99.2</ele><time>2023-01-11T17:28:20Z</time></trkpt><trkpt lat="58.031655" lon="38.862605"><ele>99.4</ele><time>2023-01-11T17:28:23Z</time></trkpt><trkpt lat="58.031698" lon="38.862755"><ele>98.7</ele><time>2023-01-11T17:28:27Z</time></trkpt><trkpt lat="58.031638" lon="38.86284"><ele>98.6</ele><time>2023-01-11T17:28:30Z</time></trkpt><trkpt lat="58.031567" lon="38.86283"><ele>98.0</ele><time>2023-01-11T17:28:32Z</time></trkpt><trkpt lat="58.031495" lon="38.862752"><ele>98.1</ele><time>2023-01-11T17:28:34Z</time></trkpt><trkpt lat="58.03143" lon="38.862652"><ele>97.9</ele><time>2023-01-11T17:28:36Z</time></trkpt><trkpt lat="58.031367" lon="38.862565"><ele>98.6</ele><time>2023-01-11T17:28:38Z</time></trkpt><trkpt lat="58.031297" lon="38.8625"><ele>99.4</ele><time>2023-01-11T17:28:41Z</time></trkpt><trkpt lat="58.031225" lon="38.86244"><ele>100.1</ele><time>2023-01-11T17:28:45Z</time></trkpt><trkpt lat="58.031145" lon="38.862375"><ele>100.1</ele><time>2023-01-11T17:28:50Z</time></trkpt><trkpt lat="58.031078" lon="38.862293"><ele>99.4</ele><time>2023-01-11T17:28:54Z</time></trkpt><trkpt lat="58.031013" lon="38.8622"><ele>99.2</ele><time>2023-01-11T17:28:57Z</time></trkpt><trkpt lat="58.030957" lon="38.862108"><ele>99.2</ele><time>2023-01-11T17:29:00Z</time></trkpt><trkpt lat="58.0309" lon="38.862005"><ele>98.4</ele><time>2023-01-11T17:29:04Z</time></trkpt><trkpt lat="58.030832" lon="38.861883"><ele>100.0</ele><time>2023-01-11T17:29:08Z</time></trkpt><trkpt lat="58.030767" lon="38.861775"><ele>100.2</ele><time>2023-01-11T17:29:12Z</time></trkpt><trkpt lat="58.030692" lon="38.861658"><ele>98.2</ele><time>2023-01-11T17:29:16Z</time></trkpt><trkpt lat="58.030623" lon="38.861593"><ele>97.7</ele><time>2023-01-11T17:29:19Z</time></trkpt><trkpt lat="58.03055" lon="38.861555"><ele>97.5</ele><time>2023-01-11T17:29:22Z</time></trkpt><trkpt lat="58.030478" lon="38.861588"><ele>97.6</ele><time>2023-01-11T17:29:25Z</time></trkpt><trkpt lat="58.030445" lon="38.861755"><ele>97.9</ele><time>2023-01-11T17:29:29Z</time></trkpt><trkpt lat="58.030488" lon="38.86191"><ele>98.3</ele><time>2023-01-11T17:29:32Z</time></trkpt><trkpt lat="58.030532" lon="38.862018"><ele>98.3</ele><time>2023-01-11T17:29:34Z</time></trkpt><trkpt lat="58.030588" lon="38.862135"><ele>98.4</ele><time>2023-01-11T17:29:36Z</time></trkpt><trkpt lat="58.030657" lon="38.862253"><ele>98.2</ele><time>2023-01-11T17:29:38Z</time></trkpt><trkpt lat="58.030742" lon="38.862375"><ele>97.9</ele><time>2023-01-11T17:29:40Z</time></trkpt><trkpt lat="58.03085" lon="38.86246"><ele>96.9</ele><time>2023-01-11T17:29:42Z</time></trkpt><trkpt lat="58.030938" lon="38.86254"><ele>96.2</ele><time>2023-01-11T17:29:44Z</time></trkpt><trkpt lat="58.031012" lon="38.86261"><ele>96.4</ele><time>2023-01-11T17:29:46Z</time></trkpt><trkpt lat="58.03108" lon="38.862647"><ele>97.1</ele><time>2023-01-11T17:29:48Z</time></trkpt><trkpt lat="58.031175" lon="38.862733"><ele>97.3</ele><time>2023-01-11T17:29:51Z</time></trkpt><trkpt lat="58.031242" lon="38.862807"><ele>97.4</ele><time>2023-01-11T17:29:53Z</time></trkpt><trkpt lat="58.031333" lon="38.862888"><ele>97.8</ele><time>2023-01-11T17:29:55Z</time></trkpt><trkpt lat="58.031427" lon="38.862965"><ele>97.0</ele><time>2023-01-11T17:29:57Z</time></trkpt><trkpt lat="58.031497" lon="38.863063"><ele>97.6</ele><time>2023-01-11T17:29:59Z</time></trkpt><trkpt lat="58.031528" lon="38.863242"><ele>95.2</ele><time>2023-01-11T17:30:02Z</time></trkpt><trkpt lat="58.03153" lon="38.86338"><ele>94.9</ele><time>2023-01-11T17:30:04Z</time></trkpt><trkpt lat="58.031478" lon="38.86354"><ele>93.6</ele><time>2023-01-11T17:30:07Z</time></trkpt><trkpt lat="58.031377" lon="38.86356"><ele>93.6</ele><time>2023-01-11T17:30:10Z</time></trkpt><trkpt lat="58.031297" lon="38.863515"><ele>94.1</ele><time>2023-01-11T17:30:12Z</time></trkpt><trkpt lat="58.031227" lon="38.863433"><ele>94.0</ele><time>2023-01-11T17:30:14Z</time></trkpt><trkpt lat="58.031162" lon="38.863348"><ele>95.2</ele><time>2023-01-11T17:30:17Z</time></trkpt><trkpt lat="58.0311" lon="38.863278"><ele>95.8</ele><time>2023-01-11T17:30:21Z</time></trkpt><trkpt lat="58.03103" lon="38.863172"><ele>95.6</ele><time>2023-01-11T17:30:25Z</time></trkpt><trkpt lat="58.030965" lon="38.863072"><ele>95.4</ele><time>2023-01-11T17:30:28Z</time></trkpt><trkpt lat="58.030887" lon="38.862953"><ele>95.3</ele><time>2023-01-11T17:30:31Z</time></trkpt><trkpt lat="58.030805" lon="38.862822"><ele>95.4</ele><time>2023-01-11T17:30:34Z</time></trkpt><trkpt lat="58.030748" lon="38.86273"><ele>95.6</ele><time>2023-01-11T17:30:36Z</time></trkpt><trkpt lat="58.03069" lon="38.862628"><ele>95.4</ele><time>2023-01-11T17:30:38Z</time></trkpt><trkpt lat="58.030628" lon="38.862513"><ele>95.9</ele><time>2023-01-11T17:30:41Z</time></trkpt><trkpt lat="58.030585" lon="38.862385"><ele>95.1</ele><time>2023-01-11T17:30:46Z</time></trkpt><trkpt lat="58.03054" lon="38.862273"><ele>95.0</ele><time>2023-01-11T17:30:50Z</time></trkpt><trkpt lat="58.030487" lon="38.862167"><ele>95.4</ele><time>2023-01-11T17:30:55Z</time></trkpt><trkpt lat="58.030437" lon="38.862052"><ele>95.6</ele><time>2023-01-11T17:30:59Z</time></trkpt><trkpt lat="58.03039" lon="38.861935"><ele>96.0</ele><time>2023-01-11T17:31:03Z</time></trkpt><trkpt lat="58.030347" lon="38.861813"><ele>96.0</ele><time>2023-01-11T17:31:07Z</time></trkpt><trkpt lat="58.030305" lon="38.861693"><ele>96.2</ele><time>2023-01-11T17:31:11Z</time></trkpt><trkpt lat="58.030262" lon="38.86158"><ele>96.7</ele><time>2023-01-11T17:31:14Z</time></trkpt><trkpt lat="58.030202" lon="38.861475"><ele>96.7</ele><time>2023-01-11T17:31:18Z</time></trkpt><trkpt lat="58.03012" lon="38.861445"><ele>97.2</ele><time>2023-01-11T17:31:22Z</time></trkpt><trkpt lat="58.030053" lon="38.861497"><ele>96.6</ele><time>2023-01-11T17:31:25Z</time></trkpt><trkpt lat="58.02999" lon="38.861583"><ele>96.6</ele><time>2023-01-11T17:31:28Z</time></trkpt><trkpt lat="58.029932" lon="38.861668"><ele>96.8</ele><time>2023-01-11T17:31:31Z</time></trkpt><trkpt lat="58.029865" lon="38.861748"><ele>96.2</ele><time>2023-01-11T17:31:34Z</time></trkpt><trkpt lat="58.02979" lon="38.86183"><ele>96.6</ele><time>2023-01-11T17:31:37Z</time></trkpt><trkpt lat="58.029715" lon="38.861898"><ele>96.7</ele><time>2023-01-11T17:31:40Z</time></trkpt><trkpt lat="58.029643" lon="38.861947"><ele>96.6</ele><time>2023-01-11T17:31:43Z</time></trkpt><trkpt lat="58.029567" lon="38.861967"><ele>97.0</ele><time>2023-01-11T17:31:46Z</time></trkpt><trkpt lat="58.02949" lon="38.861967"><ele>97.1</ele><time>2023-01-11T17:31:49Z</time></trkpt><trkpt lat="58.029408" lon="38.861948"><ele>96.0</ele><time>2023-01-11T17:31:52Z</time></trkpt><trkpt lat="58.029328" lon="38.861933"><ele>96.3</ele><time>2023-01-11T17:31:55Z</time></trkpt><trkpt lat="58.029247" lon="38.86194"><ele>96.0</ele><time>2023-01-11T17:31:59Z</time></trkpt><trkpt lat="58.029167" lon="38.86198"><ele>95.9</ele><time>2023-01-11T17:32:02Z</time></trkpt><trkpt lat="58.02909" lon="38.862063"><ele>96.7</ele><time>2023-01-11T17:32:07Z</time></trkpt><trkpt lat="58.02907" lon="38.862212"><ele>97.5</ele><time>2023-01-11T17:32:12Z</time></trkpt><trkpt lat="58.02913" lon="38.862303"><ele>98.5</ele><time>2023-01-11T17:32:17Z</time></trkpt><trkpt lat="58.02922" lon="38.862345"><ele>99.3</ele><time>2023-01-11T17:32:20Z</time></trkpt><trkpt lat="58.029327" lon="38.862377"><ele>99.2</ele><time>2023-01-11T17:32:22Z</time></trkpt><trkpt lat="58.029417" lon="38.862415"><ele>98.7</ele><time>2023-01-11T17:32:24Z</time></trkpt><trkpt lat="58.029515" lon="38.862468"><ele>99.2</ele><time>2023-01-11T17:32:26Z</time></trkpt><trkpt lat="58.029607" lon="38.862502"><ele>100.0</ele><time>2023-01-11T17:32:28Z</time></trkpt><trkpt lat="58.029693" lon="38.862528"><ele>101.8</ele><time>2023-01-11T17:32:30Z</time></trkpt><trkpt lat="58.029778" lon="38.862548"><ele>102.5</ele><time>2023-01-11T17:32:32Z</time></trkpt><trkpt lat="58.02988" lon="38.862573"><ele>104.3</ele><time>2023-01-11T17:32:35Z</time></trkpt><trkpt lat="58.029977" lon="38.862615"><ele>103.8</ele><time>2023-01-11T17:32:38Z</time></trkpt><trkpt lat="58.030067" lon="38.862652"><ele>103.7</ele><time>2023-01-11T17:32:41Z</time></trkpt><trkpt lat="58.03016" lon="38.862687"><ele>102.8</ele><time>2023-01-11T17:32:44Z</time></trkpt><trkpt lat="58.030232" lon="38.862712"><ele>100.8</ele><time>2023-01-11T17:32:46Z</time></trkpt><trkpt lat="58.030307" lon="38.862738"><ele>101.2</ele><time>2023-01-11T17:32:48Z</time></trkpt><trkpt lat="58.030387" lon="38.862763"><ele>102.2</ele><time>2023-01-11T17:32:50Z</time></trkpt><trkpt lat="58.030472" lon="38.862798"><ele>102.7</ele><time>2023-01-11T17:32:52Z</time></trkpt><trkpt lat="58.03055" lon="38.86285"><ele>103.1</ele><time>2023-01-11T17:32:54Z</time></trkpt><trkpt lat="58.030622" lon="38.862917"><ele>102.5</ele><time>2023-01-11T17:32:56Z</time></trkpt><trkpt lat="58.030702" lon="38.863035"><ele>101.9</ele><time>2023-01-11T17:32:59Z</time></trkpt><trkpt lat="58.030767" lon="38.863153"><ele>102.1</ele><time>2023-01-11T17:33:02Z</time></trkpt><trkpt lat="58.030827" lon="38.863258"><ele>101.7</ele><time>2023-01-11T17:33:05Z</time></trkpt><trkpt lat="58.030898" lon="38.86337"><ele>100.0</ele><time>2023-01-11T17:33:08Z</time></trkpt><trkpt lat="58.030978" lon="38.863467"><ele>99.5</ele><time>2023-01-11T17:33:11Z</time></trkpt><trkpt lat="58.031063" lon="38.86357"><ele>99.5</ele><time>2023-01-11T17:33:14Z</time></trkpt><trkpt lat="58.031127" lon="38.863662"><ele>97.8</ele><time>2023-01-11T17:33:16Z</time></trkpt><trkpt lat="58.031197" lon="38.863763"><ele>97.9</ele><time>2023-01-11T17:33:18Z</time></trkpt><trkpt lat="58.031255" lon="38.863882"><ele>96.2</ele><time>2023-01-11T17:33:20Z</time></trkpt><trkpt lat="58.031263" lon="38.864075"><ele>95.5</ele><time>2023-01-11T17:33:23Z</time></trkpt><trkpt lat="58.03121" lon="38.864212"><ele>94.9</ele><time>2023-01-11T17:33:26Z</time></trkpt><trkpt lat="58.031127" lon="38.86426"><ele>94.4</ele><time>2023-01-11T17:33:30Z</time></trkpt><trkpt lat="58.031042" lon="38.864205"><ele>94.2</ele><time>2023-01-11T17:33:34Z</time></trkpt><trkpt lat="58.030972" lon="38.86415"><ele>94.1</ele><time>2023-01-11T17:33:37Z</time></trkpt><trkpt lat="58.030902" lon="38.864097"><ele>95.0</ele><time>2023-01-11T17:33:40Z</time></trkpt><trkpt lat="58.03083" lon="38.864028"><ele>95.9</ele><time>2023-01-11T17:33:46Z</time></trkpt><trkpt lat="58.030762" lon="38.863962"><ele>96.0</ele><time>2023-01-11T17:33:51Z</time></trkpt><trkpt lat="58.030683" lon="38.863898"><ele>96.4</ele><time>2023-01-11T17:33:55Z</time></trkpt><trkpt lat="58.030615" lon="38.863815"><ele>97.4</ele><time>2023-01-11T17:34:00Z</time></trkpt><trkpt lat="58.030535" lon="38.863758"><ele>98.1</ele><time>2023-01-11T17:34:17Z</time></trkpt><trkpt lat="58.030452" lon="38.863682"><ele>97.6</ele><time>2023-01-11T17:34:21Z</time></trkpt><trkpt lat="58.03037" lon="38.863617"><ele>98.0</ele><time>2023-01-11T17:34:24Z</time></trkpt><trkpt lat="58.030283" lon="38.863563"><ele>98.4</ele><time>2023-01-11T17:34:27Z</time></trkpt><trkpt lat="58.030192" lon="38.863533"><ele>98.1</ele><time>2023-01-11T17:34:30Z</time></trkpt><trkpt lat="58.030112" lon="38.863508"><ele>98.1</ele><time>2023-01-11T17:34:33Z</time></trkpt><trkpt lat="58.030033" lon="38.863477"><ele>98.1</ele><time>2023-01-11T17:34:36Z</time></trkpt><trkpt lat="58.029948" lon="38.863447"><ele>98.3</ele><time>2023-01-11T17:34:40Z</time></trkpt><trkpt lat="58.029867" lon="38.86342"><ele>98.5</ele><time>2023-01-11T17:34:44Z</time></trkpt><trkpt lat="58.029793" lon="38.863368"><ele>99.4</ele><time>2023-01-11T17:34:48Z</time></trkpt><trkpt lat="58.029727" lon="38.863308"><ele>99.7</ele><time>2023-01-11T17:34:52Z</time></trkpt><trkpt lat="58.029662" lon="38.863242"><ele>99.2</ele><time>2023-01-11T17:34:55Z</time></trkpt><trkpt lat="58.029587" lon="38.863162"><ele>98.8</ele><time>2023-01-11T17:34:59Z</time></trkpt><trkpt lat="58.029522" lon="38.863093"><ele>98.2</ele><time>2023-01-11T17:35:03Z</time></trkpt><trkpt lat="58.029447" lon="38.863003"><ele>97.5</ele><time>2023-01-11T17:35:06Z</time></trkpt><trkpt lat="58.029385" lon="38.86293"><ele>97.0</ele><time>2023-01-11T17:35:09Z</time></trkpt><trkpt lat="58.029315" lon="38.862842"><ele>97.0</ele><time>2023-01-11T17:35:16Z</time></trkpt><trkpt lat="58.029258" lon="38.862728"><ele>96.7</ele><time>2023-01-11T17:35:20Z</time></trkpt><trkpt lat="58.029193" lon="38.862607"><ele>96.5</ele><time>2023-01-11T17:35:24Z</time></trkpt><trkpt lat="58.029132" lon="38.862522"><ele>96.6</ele><time>2023-01-11T17:35:28Z</time></trkpt><trkpt lat="58.029085" lon="38.862655"><ele>96.7</ele><time>2023-01-11T17:35:34Z</time></trkpt><trkpt lat="58.029125" lon="38.862792"><ele>96.8</ele><time>2023-01-11T17:35:37Z</time></trkpt><trkpt lat="58.029195" lon="38.862897"><ele>97.3</ele><time>2023-01-11T17:35:40Z</time></trkpt><trkpt lat="58.029275" lon="38.863008"><ele>96.8</ele><time>2023-01-11T17:35:43Z</time></trkpt><trkpt lat="58.029358" lon="38.863132"><ele>96.9</ele><time>2023-01-11T17:35:46Z</time></trkpt><trkpt lat="58.029443" lon="38.863245"><ele>96.4</ele><time>2023-01-11T17:35:49Z</time></trkpt><trkpt lat="58.029518" lon="38.86332"><ele>97.5</ele><time>2023-01-11T17:35:52Z</time></trkpt><trkpt lat="58.0296" lon="38.863395"><ele>99.2</ele><time>2023-01-11T17:35:55Z</time></trkpt><trkpt lat="58.029673" lon="38.863467"><ele>100.6</ele><time>2023-01-11T17:35:57Z</time></trkpt><trkpt lat="58.029753" lon="38.863547"><ele>102.4</ele><time>2023-01-11T17:35:59Z</time></trkpt><trkpt lat="58.02982" lon="38.863615"><ele>102.3</ele><time>2023-01-11T17:36:00Z</time></trkpt><trkpt lat="58.02989" lon="38.863718"><ele>100.6</ele><time>2023-01-11T17:36:02Z</time></trkpt><trkpt lat="58.029957" lon="38.863823"><ele>100.3</ele><time>2023-01-11T17:36:04Z</time></trkpt><trkpt lat="58.030032" lon="38.863928"><ele>100.3</ele><time>2023-01-11T17:36:06Z</time></trkpt><trkpt lat="58.030093" lon="38.86404"><ele>100.3</ele><time>2023-01-11T17:36:08Z</time></trkpt><trkpt lat="58.030155" lon="38.864128"><ele>100.2</ele><time>2023-01-11T17:36:10Z</time></trkpt><trkpt lat="58.030227" lon="38.864213"><ele>100.7</ele><time>2023-01-11T17:36:12Z</time></trkpt><trkpt lat="58.030312" lon="38.864335"><ele>99.8</ele><time>2023-01-11T17:36:15Z</time></trkpt><trkpt lat="58.030385" lon="38.864447"><ele>99.4</ele><time>2023-01-11T17:36:18Z</time></trkpt><trkpt lat="58.030457" lon="38.864558"><ele>99.0</ele><time>2023-01-11T17:36:21Z</time></trkpt><trkpt lat="58.030527" lon="38.86467"><ele>98.4</ele><time>2023-01-11T17:36:24Z</time></trkpt><trkpt lat="58.030608" lon="38.864798"><ele>97.2</ele><time>2023-01-11T17:36:27Z</time></trkpt><trkpt lat="58.030672" lon="38.864888"><ele>97.3</ele><time>2023-01-11T17:36:29Z</time></trkpt><trkpt lat="58.030742" lon="38.864983"><ele>97.5</ele><time>2023-01-11T17:36:31Z</time></trkpt><trkpt lat="58.030808" lon="38.865073"><ele>96.9</ele><time>2023-01-11T17:36:33Z</time></trkpt><trkpt lat="58.030893" lon="38.865185"><ele>94.3</ele><time>2023-01-11T17:36:36Z</time></trkpt><trkpt lat="58.030965" lon="38.865293"><ele>93.6</ele><time>2023-01-11T17:36:39Z</time></trkpt><trkpt lat="58.031002" lon="38.865412"><ele>93.7</ele><time>2023-01-11T17:36:43Z</time></trkpt><trkpt lat="58.030988" lon="38.865585"><ele>93.4</ele><time>2023-01-11T17:36:47Z</time></trkpt><trkpt lat="58.030922" lon="38.86565"><ele>92.1</ele><time>2023-01-11T17:36:51Z</time></trkpt><trkpt lat="58.030833" lon="38.865585"><ele>93.1</ele><time>2023-01-11T17:36:55Z</time></trkpt><trkpt lat="58.030752" lon="38.865485"><ele>93.0</ele><time>2023-01-11T17:36:59Z</time></trkpt><trkpt lat="58.030667" lon="38.865375"><ele>93.9</ele><time>2023-01-11T17:37:02Z</time></trkpt><trkpt lat="58.030587" lon="38.865282"><ele>94.7</ele><time>2023-01-11T17:37:05Z</time></trkpt><trkpt lat="58.03052" lon="38.865202"><ele>95.2</ele><time>2023-01-11T17:37:08Z</time></trkpt><trkpt lat="58.030447" lon="38.865108"><ele>96.6</ele><time>2023-01-11T17:37:12Z</time></trkpt><trkpt lat="58.030383" lon="38.86503"><ele>96.1</ele><time>2023-01-11T17:37:16Z</time></trkpt><trkpt lat="58.030312" lon="38.864947"><ele>97.4</ele><time>2023-01-11T17:37:20Z</time></trkpt><trkpt lat="58.030235" lon="38.864868"><ele>98.6</ele><time>2023-01-11T17:37:25Z</time></trkpt><trkpt lat="58.030153" lon="38.864777"><ele>98.9</ele><time>2023-01-11T17:37:29Z</time></trkpt><trkpt lat="58.030088" lon="38.864702"><ele>99.5</ele><time>2023-01-11T17:37:32Z</time></trkpt><trkpt lat="58.030022" lon="38.864613"><ele>99.4</ele><time>2023-01-11T17:37:35Z</time></trkpt><trkpt lat="58.029945" lon="38.864522"><ele>99.4</ele><time>2023-01-11T17:37:38Z</time></trkpt><trkpt lat="58.029872" lon="38.864437"><ele>99.0</ele><time>2023-01-11T17:37:42Z</time></trkpt><trkpt lat="58.029795" lon="38.86442"><ele>98.5</ele><time>2023-01-11T17:37:46Z</time></trkpt><trkpt lat="58.02975" lon="38.864557"><ele>97.8</ele><time>2023-01-11T17:37:50Z</time></trkpt><trkpt lat="58.029773" lon="38.864688"><ele>97.1</ele><time>2023-01-11T17:37:53Z</time></trkpt><trkpt lat="58.029827" lon="38.86481"><ele>97.2</ele><time>2023-01-11T17:37:56Z</time></trkpt><trkpt lat="58.029883" lon="38.864902"><ele>97.5</ele><time>2023-01-11T17:37:59Z</time></trkpt><trkpt lat="58.029947" lon="38.864977"><ele>98.0</ele><time>2023-01-11T17:38:02Z</time></trkpt><trkpt lat="58.030035" lon="38.86504"><ele>98.9</ele><time>2023-01-11T17:38:06Z</time></trkpt><trkpt lat="58.030103" lon="38.865095"><ele>98.0</ele><time>2023-01-11T17:38:09Z</time></trkpt><trkpt lat="58.030172" lon="38.865153"><ele>97.2</ele><time>2023-01-11T17:38:12Z</time></trkpt><trkpt lat="58.030242" lon="38.865228"><ele>96.3</ele><time>2023-01-11T17:38:15Z</time></trkpt><trkpt lat="58.030305" lon="38.865298"><ele>95.9</ele><time>2023-01-11T17:38:17Z</time></trkpt><trkpt lat="58.030372" lon="38.865392"><ele>95.3</ele><time>2023-01-11T17:38:19Z</time></trkpt><trkpt lat="58.030432" lon="38.8655"><ele>94.7</ele><time>2023-01-11T17:38:21Z</time></trkpt><trkpt lat="58.03041" lon="38.86569"><ele>94.2</ele><time>2023-01-11T17:38:24Z</time></trkpt><trkpt lat="58.03034" lon="38.865777"><ele>93.5</ele><time>2023-01-11T17:38:26Z</time></trkpt><trkpt lat="58.03027" lon="38.865808"><ele>92.9</ele><time>2023-01-11T17:38:28Z</time></trkpt><trkpt lat="58.030187" lon="38.865785"><ele>92.3</ele><time>2023-01-11T17:38:31Z</time></trkpt><trkpt lat="58.030095" lon="38.865745"><ele>92.4</ele><time>2023-01-11T17:38:34Z</time></trkpt><trkpt lat="58.030008" lon="38.86569"><ele>92.6</ele><time>2023-01-11T17:38:37Z</time></trkpt><trkpt lat="58.029923" lon="38.865627"><ele>93.4</ele><time>2023-01-11T17:38:40Z</time></trkpt><trkpt lat="58.029847" lon="38.865543"><ele>93.3</ele><time>2023-01-11T17:38:43Z</time></trkpt><trkpt lat="58.029773" lon="38.865443"><ele>93.4</ele><time>2023-01-11T17:38:46Z</time></trkpt><trkpt lat="58.029717" lon="38.865325"><ele>93.0</ele><time>2023-01-11T17:38:49Z</time></trkpt><trkpt lat="58.029678" lon="38.865187"><ele>92.9</ele><time>2023-01-11T17:38:52Z</time></trkpt><trkpt lat="58.029652" lon="38.865027"><ele>93.8</ele><time>2023-01-11T17:38:55Z</time></trkpt><trkpt lat="58.029632" lon="38.864892"><ele>94.2</ele><time>2023-01-11T17:38:58Z</time></trkpt><trkpt lat="58.029617" lon="38.864753"><ele>94.9</ele><time>2023-01-11T17:39:07Z</time></trkpt><trkpt lat="58.029588" lon="38.864603"><ele>95.4</ele><time>2023-01-11T17:39:11Z</time></trkpt><trkpt lat="58.029567" lon="38.864473"><ele>95.6</ele><time>2023-01-11T17:39:14Z</time></trkpt><trkpt lat="58.029535" lon="38.86432"><ele>95.5</ele><time>2023-01-11T17:39:18Z</time></trkpt><trkpt lat="58.029502" lon="38.864165"><ele>96.0</ele><time>2023-01-11T17:39:23Z</time></trkpt><trkpt lat="58.02946" lon="38.86401"><ele>96.1</ele><time>2023-01-11T17:39:28Z</time></trkpt><trkpt lat="58.029418" lon="38.863878"><ele>96.8</ele><time>2023-01-11T17:39:32Z</time></trkpt><trkpt lat="58.029358" lon="38.86377"><ele>97.3</ele><time>2023-01-11T17:39:41Z</time></trkpt><trkpt lat="58.0293" lon="38.863642"><ele>96.7</ele><time>2023-01-11T17:39:45Z</time></trkpt><trkpt lat="58.029245" lon="38.863518"><ele>96.3</ele><time>2023-01-11T17:39:48Z</time></trkpt><trkpt lat="58.029192" lon="38.863388"><ele>96.6</ele><time>2023-01-11T17:39:52Z</time></trkpt><trkpt lat="58.029152" lon="38.863272"><ele>96.0</ele><time>2023-01-11T17:39:56Z</time></trkpt><trkpt lat="58.029105" lon="38.863138"><ele>96.7</ele><time>2023-01-11T17:40:01Z</time></trkpt><trkpt lat="58.029052" lon="38.862985"><ele>96.7</ele><time>2023-01-11T17:40:05Z</time></trkpt><trkpt lat="58.029022" lon="38.86285"><ele>97.0</ele><time>2023-01-11T17:40:09Z</time></trkpt><trkpt lat="58.029008" lon="38.862688"><ele>97.0</ele><time>2023-01-11T17:40:13Z</time></trkpt><trkpt lat="58.029" lon="38.862517"><ele>97.3</ele><time>2023-01-11T17:40:17Z</time></trkpt><trkpt lat="58.028987" lon="38.862342"><ele>97.6</ele><time>2023-01-11T17:40:21Z</time></trkpt><trkpt lat="58.028982" lon="38.86217"><ele>97.4</ele><time>2023-01-11T17:40:25Z</time></trkpt><trkpt lat="58.028997" lon="38.861993"><ele>96.6</ele><time>2023-01-11T17:40:28Z</time></trkpt><trkpt lat="58.029032" lon="38.861842"><ele>95.6</ele><time>2023-01-11T17:40:31Z</time></trkpt><trkpt lat="58.029112" lon="38.86172"><ele>95.5</ele><time>2023-01-11T17:40:34Z</time></trkpt><trkpt lat="58.029203" lon="38.861653"><ele>95.3</ele><time>2023-01-11T17:40:37Z</time></trkpt><trkpt lat="58.029298" lon="38.861602"><ele>94.7</ele><time>2023-01-11T17:40:40Z</time></trkpt><trkpt lat="58.029398" lon="38.861553"><ele>94.9</ele><time>2023-01-11T17:40:43Z</time></trkpt><trkpt lat="58.029492" lon="38.861517"><ele>95.0</ele><time>2023-01-11T17:40:46Z</time></trkpt><trkpt lat="58.029575" lon="38.861483"><ele>95.8</ele><time>2023-01-11T17:40:49Z</time></trkpt><trkpt lat="58.02966" lon="38.861428"><ele>95.7</ele><time>2023-01-11T17:40:52Z</time></trkpt><trkpt lat="58.029742" lon="38.861363"><ele>95.7</ele><time>2023-01-11T17:40:55Z</time></trkpt><trkpt lat="58.029817" lon="38.861295"><ele>96.2</ele><time>2023-01-11T17:40:58Z</time></trkpt><trkpt lat="58.02989" lon="38.861225"><ele>96.2</ele><time>2023-01-11T17:41:01Z</time></trkpt><trkpt lat="58.029962" lon="38.861163"><ele>96.0</ele><time>2023-01-11T17:41:04Z</time></trkpt><trkpt lat="58.030028" lon="38.86111"><ele>96.3</ele><time>2023-01-11T17:41:07Z</time></trkpt><trkpt lat="58.030112" lon="38.861028"><ele>95.7</ele><time>2023-01-11T17:41:11Z</time></trkpt><trkpt lat="58.030185" lon="38.860928"><ele>95.7</ele><time>2023-01-11T17:41:15Z</time></trkpt><trkpt lat="58.030245" lon="38.860838"><ele>95.6</ele><time>2023-01-11T17:41:19Z</time></trkpt><trkpt lat="58.030303" lon="38.86075"><ele>96.3</ele><time>2023-01-11T17:42:25Z</time></trkpt><trkpt lat="58.030372" lon="38.860692"><ele>96.2</ele><time>2023-01-11T17:42:28Z</time></trkpt><trkpt lat="58.030443" lon="38.860637"><ele>96.4</ele><time>2023-01-11T17:42:32Z</time></trkpt><trkpt lat="58.030523" lon="38.86061"><ele>98.4</ele><time>2023-01-11T17:42:36Z</time></trkpt><trkpt lat="58.030598" lon="38.860633"><ele>98.7</ele><time>2023-01-11T17:42:39Z</time></trkpt><trkpt lat="58.030675" lon="38.860687"><ele>98.0</ele><time>2023-01-11T17:42:42Z</time></trkpt><trkpt lat="58.030747" lon="38.860763"><ele>97.3</ele><time>2023-01-11T17:42:45Z</time></trkpt><trkpt lat="58.03083" lon="38.860855"><ele>97.3</ele><time>2023-01-11T17:42:48Z</time></trkpt><trkpt lat="58.030917" lon="38.860947"><ele>97.2</ele><time>2023-01-11T17:42:51Z</time></trkpt><trkpt lat="58.030998" lon="38.861032"><ele>97.2</ele><time>2023-01-11T17:42:54Z</time></trkpt><trkpt lat="58.03109" lon="38.861118"><ele>97.2</ele><time>2023-01-11T17:42:57Z</time></trkpt><trkpt lat="58.031168" lon="38.861185"><ele>97.2</ele><time>2023-01-11T17:42:59Z</time></trkpt><trkpt lat="58.031252" lon="38.861255"><ele>97.0</ele><time>2023-01-11T17:43:01Z</time></trkpt><trkpt lat="58.031348" lon="38.861352"><ele>96.1</ele><time>2023-01-11T17:43:03Z</time></trkpt><trkpt lat="58.03144" lon="38.861452"><ele>95.7</ele><time>2023-01-11T17:43:05Z</time></trkpt><trkpt lat="58.031518" lon="38.8615"><ele>95.9</ele><time>2023-01-11T17:43:07Z</time></trkpt><trkpt lat="58.031593" lon="38.861508"><ele>96.5</ele><time>2023-01-11T17:43:09Z</time></trkpt><trkpt lat="58.031665" lon="38.8615"><ele>96.7</ele><time>2023-01-11T17:43:11Z</time></trkpt><trkpt lat="58.031752" lon="38.8615"><ele>96.4</ele><time>2023-01-11T17:43:14Z</time></trkpt><trkpt lat="58.031828" lon="38.861565"><ele>97.2</ele><time>2023-01-11T17:43:19Z</time></trkpt><trkpt lat="58.031883" lon="38.86169"><ele>95.9</ele><time>2023-01-11T17:43:24Z</time></trkpt><trkpt lat="58.03189" lon="38.861847"><ele>96.3</ele><time>2023-01-11T17:43:28Z</time></trkpt><trkpt lat="58.031863" lon="38.862005"><ele>95.1</ele><time>2023-01-11T17:43:32Z</time></trkpt><trkpt lat="58.031808" lon="38.862132"><ele>94.2</ele><time>2023-01-11T17:43:36Z</time></trkpt><trkpt lat="58.031717" lon="38.862177"><ele>94.0</ele><time>2023-01-11T17:43:40Z</time></trkpt><trkpt lat="58.031613" lon="38.862133"><ele>96.1</ele><time>2023-01-11T17:43:43Z</time></trkpt><trkpt lat="58.031527" lon="38.862083"><ele>96.6</ele><time>2023-01-11T17:43:46Z</time></trkpt><trkpt lat="58.031447" lon="38.862013"><ele>96.1</ele><time>2023-01-11T17:43:50Z</time></trkpt><trkpt lat="58.031382" lon="38.861928"><ele>95.1</ele><time>2023-01-11T17:43:54Z</time></trkpt><trkpt lat="58.031305" lon="38.86183"><ele>95.2</ele><time>2023-01-11T17:43:58Z</time></trkpt><trkpt lat="58.03122" lon="38.861732"><ele>94.8</ele><time>2023-01-11T17:44:02Z</time></trkpt><trkpt lat="58.031162" lon="38.861653"><ele>94.6</ele><time>2023-01-11T17:44:04Z</time></trkpt><trkpt lat="58.031088" lon="38.861538"><ele>95.0</ele><time>2023-01-11T17:44:07Z</time></trkpt><trkpt lat="58.031025" lon="38.861442"><ele>93.8</ele><time>2023-01-11T17:44:10Z</time></trkpt><trkpt lat="58.030965" lon="38.861342"><ele>94.3</ele><time>2023-01-11T17:44:14Z</time></trkpt><trkpt lat="58.030903" lon="38.861255"><ele>94.5</ele><time>2023-01-11T17:44:20Z</time></trkpt><trkpt lat="58.030843" lon="38.861152"><ele>94.8</ele><time>2023-01-11T17:44:26Z</time></trkpt><trkpt lat="58.030777" lon="38.861055"><ele>95.1</ele><time>2023-01-11T17:44:30Z</time></trkpt><trkpt lat="58.030712" lon="38.860983"><ele>94.9</ele><time>2023-01-11T17:44:33Z</time></trkpt><trkpt lat="58.030637" lon="38.860968"><ele>95.1</ele><time>2023-01-11T17:44:37Z</time></trkpt><trkpt lat="58.030562" lon="38.861047"><ele>95.3</ele><time>2023-01-11T17:44:43Z</time></trkpt><trkpt lat="58.030572" lon="38.861185"><ele>95.6</ele><time>2023-01-11T17:44:48Z</time></trkpt><trkpt lat="58.030627" lon="38.861298"><ele>96.3</ele><time>2023-01-11T17:44:52Z</time></trkpt><trkpt lat="58.030688" lon="38.861372"><ele>95.8</ele><time>2023-01-11T17:44:55Z</time></trkpt><trkpt lat="58.030762" lon="38.861453"><ele>96.2</ele><time>2023-01-11T17:44:58Z</time></trkpt><trkpt lat="58.030842" lon="38.86154"><ele>96.5</ele><time>2023-01-11T17:45:01Z</time></trkpt><trkpt lat="58.03093" lon="38.861647"><ele>96.3</ele><time>2023-01-11T17:45:04Z</time></trkpt><trkpt lat="58.030995" lon="38.861728"><ele>96.6</ele><time>2023-01-11T17:45:06Z</time></trkpt><trkpt lat="58.031062" lon="38.861817"><ele>96.6</ele><time>2023-01-11T17:45:08Z</time></trkpt><trkpt lat="58.03113" lon="38.861912"><ele>96.3</ele><time>2023-01-11T17:45:10Z</time></trkpt><trkpt lat="58.031207" lon="38.862025"><ele>96.3</ele><time>2023-01-11T17:45:13Z</time></trkpt><trkpt lat="58.031272" lon="38.862123"><ele>96.5</ele><time>2023-01-11T17:45:16Z</time></trkpt><trkpt lat="58.03134" lon="38.862215"><ele>96.3</ele><time>2023-01-11T17:45:19Z</time></trkpt><trkpt lat="58.031418" lon="38.862337"><ele>97.1</ele><time>2023-01-11T17:45:22Z</time></trkpt><trkpt lat="58.031477" lon="38.862423"><ele>97.9</ele><time>2023-01-11T17:45:24Z</time></trkpt><trkpt lat="58.031548" lon="38.862517"><ele>97.8</ele><time>2023-01-11T17:45:27Z</time></trkpt><trkpt lat="58.03162" lon="38.862605"><ele>96.7</ele><time>2023-01-11T17:45:31Z</time></trkpt><trkpt lat="58.031683" lon="38.862693"><ele>95.1</ele><time>2023-01-11T17:45:35Z</time></trkpt><trkpt lat="58.031702" lon="38.862827"><ele>96.0</ele><time>2023-01-11T17:45:41Z</time></trkpt><trkpt lat="58.031625" lon="38.862878"><ele>95.7</ele><time>2023-01-11T17:45:46Z</time></trkpt><trkpt lat="58.031547" lon="38.862817"><ele>95.9</ele><time>2023-01-11T17:45:49Z</time></trkpt><trkpt lat="58.031487" lon="38.862732"><ele>96.2</ele><time>2023-01-11T17:45:52Z</time></trkpt><trkpt lat="58.031413" lon="38.862623"><ele>96.9</ele><time>2023-01-11T17:45:56Z</time></trkpt><trkpt lat="58.03135" lon="38.862542"><ele>96.4</ele><time>2023-01-11T17:46:01Z</time></trkpt><trkpt lat="58.031283" lon="38.862485"><ele>98.7</ele><time>2023-01-11T17:46:09Z</time></trkpt><trkpt lat="58.03121" lon="38.86242"><ele>99.9</ele><time>2023-01-11T17:46:16Z</time></trkpt><trkpt lat="58.031137" lon="38.862357"><ele>100.4</ele><time>2023-01-11T17:46:21Z</time></trkpt><trkpt lat="58.03107" lon="38.862278"><ele>99.6</ele><time>2023-01-11T17:46:25Z</time></trkpt><trkpt lat="58.030995" lon="38.862165"><ele>99.8</ele><time>2023-01-11T17:46:29Z</time></trkpt><trkpt lat="58.030925" lon="38.862078"><ele>99.8</ele><time>2023-01-11T17:46:34Z</time></trkpt><trkpt lat="58.03087" lon="38.861978"><ele>100.1</ele><time>2023-01-11T17:46:38Z</time></trkpt><trkpt lat="58.030828" lon="38.86186"><ele>98.0</ele><time>2023-01-11T17:46:51Z</time></trkpt><trkpt lat="58.030772" lon="38.861762"><ele>98.1</ele><time>2023-01-11T17:46:56Z</time></trkpt><trkpt lat="58.0307" lon="38.86168"><ele>97.6</ele><time>2023-01-11T17:47:01Z</time></trkpt><trkpt lat="58.030625" lon="38.86162"><ele>97.7</ele><time>2023-01-11T17:47:06Z</time></trkpt><trkpt lat="58.03055" lon="38.861588"><ele>97.8</ele><time>2023-01-11T17:47:10Z</time></trkpt><trkpt lat="58.030482" lon="38.861637"><ele>97.7</ele><time>2023-01-11T17:47:14Z</time></trkpt><trkpt lat="58.030467" lon="38.86177"><ele>96.7</ele><time>2023-01-11T17:47:18Z</time></trkpt><trkpt lat="58.030502" lon="38.861915"><ele>96.8</ele><time>2023-01-11T17:47:22Z</time></trkpt><trkpt lat="58.030552" lon="38.862027"><ele>96.8</ele><time>2023-01-11T17:47:25Z</time></trkpt><trkpt lat="58.030613" lon="38.862142"><ele>96.6</ele><time>2023-01-11T17:47:28Z</time></trkpt><trkpt lat="58.03069" lon="38.862282"><ele>96.6</ele><time>2023-01-11T17:47:31Z</time></trkpt><trkpt lat="58.030753" lon="38.86238"><ele>97.3</ele><time>2023-01-11T17:47:33Z</time></trkpt><trkpt lat="58.03082" lon="38.862473"><ele>97.8</ele><time>2023-01-11T17:47:35Z</time></trkpt><trkpt lat="58.030887" lon="38.862547"><ele>98.6</ele><time>2023-01-11T17:47:37Z</time></trkpt><trkpt lat="58.030958" lon="38.862575"><ele>98.5</ele><time>2023-01-11T17:47:40Z</time></trkpt><trkpt lat="58.031033" lon="38.862625"><ele>99.0</ele><time>2023-01-11T17:47:43Z</time></trkpt><trkpt lat="58.031102" lon="38.862683"><ele>98.6</ele><time>2023-01-11T17:47:46Z</time></trkpt><trkpt lat="58.031177" lon="38.862747"><ele>99.5</ele><time>2023-01-11T17:47:49Z</time></trkpt><trkpt lat="58.031243" lon="38.862805"><ele>99.7</ele><time>2023-01-11T17:47:51Z</time></trkpt><trkpt lat="58.031333" lon="38.862883"><ele>100.2</ele><time>2023-01-11T17:47:53Z</time></trkpt><trkpt lat="58.031413" lon="38.86295"><ele>100.2</ele><time>2023-01-11T17:47:55Z</time></trkpt><trkpt lat="58.031477" lon="38.863018"><ele>98.3</ele><time>2023-01-11T17:47:58Z</time></trkpt><trkpt lat="58.031513" lon="38.863138"><ele>97.5</ele><time>2023-01-11T17:48:01Z</time></trkpt><trkpt lat="58.03152" lon="38.8633"><ele>96.5</ele><time>2023-01-11T17:48:06Z</time></trkpt><trkpt lat="58.031482" lon="38.863438"><ele>94.7</ele><time>2023-01-11T17:48:14Z</time></trkpt><trkpt lat="58.031393" lon="38.86345"><ele>94.9</ele><time>2023-01-11T17:48:19Z</time></trkpt><trkpt lat="58.031323" lon="38.86338"><ele>96.6</ele><time>2023-01-11T17:48:22Z</time></trkpt><trkpt lat="58.031243" lon="38.863295"><ele>96.9</ele><time>2023-01-11T17:48:26Z</time></trkpt><trkpt lat="58.031162" lon="38.86324"><ele>97.6</ele><time>2023-01-11T17:48:30Z</time></trkpt><trkpt lat="58.03108" lon="38.863183"><ele>97.5</ele><time>2023-01-11T17:48:35Z</time></trkpt><trkpt lat="58.031008" lon="38.863108"><ele>97.6</ele><time>2023-01-11T17:48:40Z</time></trkpt><trkpt lat="58.030942" lon="38.86301"><ele>99.1</ele><time>2023-01-11T17:48:45Z</time></trkpt><trkpt lat="58.030878" lon="38.862902"><ele>98.9</ele><time>2023-01-11T17:48:50Z</time></trkpt><trkpt lat="58.030825" lon="38.86279"><ele>98.3</ele><time>2023-01-11T17:48:54Z</time></trkpt><trkpt lat="58.030768" lon="38.862648"><ele>96.7</ele><time>2023-01-11T17:48:58Z</time></trkpt><trkpt lat="58.030712" lon="38.86254"><ele>97.6</ele><time>2023-01-11T17:49:02Z</time></trkpt><trkpt lat="58.030652" lon="38.862453"><ele>99.9</ele><time>2023-01-11T17:49:10Z</time></trkpt><trkpt lat="58.030592" lon="38.862347"><ele>99.1</ele><time>2023-01-11T17:49:15Z</time></trkpt><trkpt lat="58.030542" lon="38.862238"><ele>100.0</ele><time>2023-01-11T17:49:20Z</time></trkpt><trkpt lat="58.03049" lon="38.862113"><ele>99.4</ele><time>2023-01-11T17:49:24Z</time></trkpt><trkpt lat="58.03044" lon="38.86201"><ele>99.3</ele><time>2023-01-11T17:49:28Z</time></trkpt><trkpt lat="58.030387" lon="38.861905"><ele>102.6</ele><time>2023-01-11T17:49:36Z</time></trkpt><trkpt lat="58.030347" lon="38.861792"><ele>103.7</ele><time>2023-01-11T17:49:40Z</time></trkpt><trkpt lat="58.0303" lon="38.861682"><ele>104.2</ele><time>2023-01-11T17:49:44Z</time></trkpt><trkpt lat="58.030252" lon="38.861582"><ele>103.3</ele><time>2023-01-11T17:49:48Z</time></trkpt><trkpt lat="58.030155" lon="38.861527"><ele>102.6</ele><time>2023-01-11T17:49:53Z</time></trkpt><trkpt lat="58.030085" lon="38.861575"><ele>101.6</ele><time>2023-01-11T17:49:56Z</time></trkpt><trkpt lat="58.030012" lon="38.86164"><ele>102.8</ele><time>2023-01-11T17:50:01Z</time></trkpt><trkpt lat="58.029945" lon="38.8617"><ele>103.8</ele><time>2023-01-11T17:50:06Z</time></trkpt><trkpt lat="58.029868" lon="38.861782"><ele>104.1</ele><time>2023-01-11T17:50:09Z</time></trkpt><trkpt lat="58.029783" lon="38.861873"><ele>103.0</ele><time>2023-01-11T17:50:12Z</time></trkpt><trkpt lat="58.029697" lon="38.861935"><ele>101.7</ele><time>2023-01-11T17:50:15Z</time></trkpt><trkpt lat="58.029622" lon="38.861968"><ele>100.3</ele><time>2023-01-11T17:50:19Z</time></trkpt><trkpt lat="58.029542" lon="38.861952"><ele>99.3</ele><time>2023-01-11T17:50:26Z</time></trkpt><trkpt lat="58.029463" lon="38.861953"><ele>99.7</ele><time>2023-01-11T17:50:30Z</time></trkpt><trkpt lat="58.029378" lon="38.861948"><ele>98.4</ele><time>2023-01-11T17:50:34Z</time></trkpt><trkpt lat="58.029288" lon="38.86194"><ele>99.1</ele><time>2023-01-11T17:50:38Z</time></trkpt><trkpt lat="58.029212" lon="38.861955"><ele>98.0</ele><time>2023-01-11T17:50:41Z</time></trkpt><trkpt lat="58.029137" lon="38.862003"><ele>97.2</ele><time>2023-01-11T17:50:45Z</time></trkpt><trkpt lat="58.02908" lon="38.862115"><ele>96.3</ele><time>2023-01-11T17:50:50Z</time></trkpt><trkpt lat="58.029085" lon="38.862268"><ele>96.4</ele><time>2023-01-11T17:50:55Z</time></trkpt><trkpt lat="58.029163" lon="38.862318"><ele>98.9</ele><time>2023-01-11T17:51:03Z</time></trkpt><trkpt lat="58.029238" lon="38.862347"><ele>99.5</ele><time>2023-01-11T17:51:06Z</time></trkpt><trkpt lat="58.029315" lon="38.86238"><ele>101.6</ele><time>2023-01-11T17:51:08Z</time></trkpt><trkpt lat="58.029402" lon="38.862398"><ele>103.6</ele><time>2023-01-11T17:51:10Z</time></trkpt><trkpt lat="58.029488" lon="38.862405"><ele>105.0</ele><time>2023-01-11T17:51:12Z</time></trkpt><trkpt lat="58.029567" lon="38.862402"><ele>105.6</ele><time>2023-01-11T17:51:14Z</time></trkpt><trkpt lat="58.029642" lon="38.862417"><ele>104.8</ele><time>2023-01-11T17:51:16Z</time></trkpt><trkpt lat="58.029735" lon="38.862445"><ele>104.4</ele><time>2023-01-11T17:51:19Z</time></trkpt><trkpt lat="58.029807" lon="38.862485"><ele>103.9</ele><time>2023-01-11T17:51:22Z</time></trkpt><trkpt lat="58.029888" lon="38.862515"><ele>105.7</ele><time>2023-01-11T17:51:26Z</time></trkpt><trkpt lat="58.029955" lon="38.862565"><ele>106.8</ele><time>2023-01-11T17:51:30Z</time></trkpt><trkpt lat="58.03005" lon="38.862598"><ele>106.9</ele><time>2023-01-11T17:51:34Z</time></trkpt><trkpt lat="58.030125" lon="38.862623"><ele>107.2</ele><time>2023-01-11T17:51:37Z</time></trkpt><trkpt lat="58.030202" lon="38.862652"><ele>106.8</ele><time>2023-01-11T17:51:40Z</time></trkpt><trkpt lat="58.030297" lon="38.86267"><ele>106.1</ele><time>2023-01-11T17:51:43Z</time></trkpt><trkpt lat="58.030372" lon="38.862685"><ele>106.5</ele><time>2023-01-11T17:51:45Z</time></trkpt><trkpt lat="58.030448" lon="38.862718"><ele>105.9</ele><time>2023-01-11T17:51:47Z</time></trkpt><trkpt lat="58.030545" lon="38.862783"><ele>105.5</ele><time>2023-01-11T17:51:50Z</time></trkpt><trkpt lat="58.030612" lon="38.862875"><ele>105.3</ele><time>2023-01-11T17:51:53Z</time></trkpt><trkpt lat="58.030668" lon="38.862963"><ele>103.8</ele><time>2023-01-11T17:51:56Z</time></trkpt><trkpt lat="58.030743" lon="38.863052"><ele>103.5</ele><time>2023-01-11T17:51:59Z</time></trkpt><trkpt lat="58.030813" lon="38.863125"><ele>102.6</ele><time>2023-01-11T17:52:02Z</time></trkpt><trkpt lat="58.030875" lon="38.863203"><ele>103.1</ele><time>2023-01-11T17:52:05Z</time></trkpt><trkpt lat="58.030932" lon="38.863292"><ele>102.7</ele><time>2023-01-11T17:52:08Z</time></trkpt><trkpt lat="58.031" lon="38.86338"><ele>101.8</ele><time>2023-01-11T17:52:12Z</time></trkpt><trkpt lat="58.031073" lon="38.863478"><ele>100.8</ele><time>2023-01-11T17:52:16Z</time></trkpt><trkpt lat="58.031163" lon="38.863582"><ele>100.1</ele><time>2023-01-11T17:52:19Z</time></trkpt><trkpt lat="58.031222" lon="38.863688"><ele>99.9</ele><time>2023-01-11T17:52:21Z</time></trkpt><trkpt lat="58.03126" lon="38.863833"><ele>99.2</ele><time>2023-01-11T17:52:23Z</time></trkpt><trkpt lat="58.031257" lon="38.864005"><ele>98.7</ele><time>2023-01-11T17:52:26Z</time></trkpt><trkpt lat="58.031207" lon="38.86411"><ele>98.2</ele><time>2023-01-11T17:52:30Z</time></trkpt><trkpt lat="58.031122" lon="38.864115"><ele>97.8</ele><time>2023-01-11T17:52:36Z</time></trkpt><trkpt lat="58.031032" lon="38.864072"><ele>98.4</ele><time>2023-01-11T17:52:41Z</time></trkpt><trkpt lat="58.030945" lon="38.864053"><ele>99.4</ele><time>2023-01-11T17:52:44Z</time></trkpt><trkpt lat="58.030843" lon="38.863982"><ele>99.8</ele><time>2023-01-11T17:52:47Z</time></trkpt><trkpt lat="58.030752" lon="38.863917"><ele>99.8</ele><time>2023-01-11T17:52:50Z</time></trkpt><trkpt lat="58.030682" lon="38.863877"><ele>100.2</ele><time>2023-01-11T17:52:53Z</time></trkpt><trkpt lat="58.030605" lon="38.863818"><ele>99.2</ele><time>2023-01-11T17:53:29Z</time></trkpt><trkpt lat="58.030525" lon="38.863737"><ele>99.6</ele><time>2023-01-11T17:53:33Z</time></trkpt><trkpt lat="58.030442" lon="38.86366"><ele>100.9</ele><time>2023-01-11T17:53:37Z</time></trkpt><trkpt lat="58.03037" lon="38.863605"><ele>101.3</ele><time>2023-01-11T17:53:40Z</time></trkpt><trkpt lat="58.03029" lon="38.863563"><ele>101.6</ele><time>2023-01-11T17:53:43Z</time></trkpt><trkpt lat="58.030218" lon="38.863528"><ele>101.1</ele><time>2023-01-11T17:53:46Z</time></trkpt><trkpt lat="58.030135" lon="38.863492"><ele>100.2</ele><time>2023-01-11T17:53:50Z</time></trkpt><trkpt lat="58.030048" lon="38.863462"><ele>98.2</ele><time>2023-01-11T17:53:54Z</time></trkpt><trkpt lat="58.029967" lon="38.863443"><ele>97.3</ele><time>2023-01-11T17:53:57Z</time></trkpt><trkpt lat="58.029883" lon="38.86342"><ele>97.8</ele><time>2023-01-11T17:54:00Z</time></trkpt><trkpt lat="58.029808" lon="38.863388"><ele>98.1</ele><time>2023-01-11T17:54:04Z</time></trkpt><trkpt lat="58.029745" lon="38.86332"><ele>98.9</ele><time>2023-01-11T17:54:08Z</time></trkpt><trkpt lat="58.029677" lon="38.863242"><ele>100.4</ele><time>2023-01-11T17:54:13Z</time></trkpt><trkpt lat="58.029607" lon="38.863158"><ele>99.3</ele><time>2023-01-11T17:54:17Z</time></trkpt><trkpt lat="58.029533" lon="38.863088"><ele>99.1</ele><time>2023-01-11T17:54:22Z</time></trkpt><trkpt lat="58.029448" lon="38.863008"><ele>98.5</ele><time>2023-01-11T17:54:26Z</time></trkpt><trkpt lat="58.029372" lon="38.862927"><ele>97.9</ele><time>2023-01-11T17:54:30Z</time></trkpt><trkpt lat="58.029308" lon="38.862835"><ele>97.9</ele><time>2023-01-11T17:54:35Z</time></trkpt><trkpt lat="58.029242" lon="38.86271"><ele>98.2</ele><time>2023-01-11T17:54:40Z</time></trkpt><trkpt lat="58.029177" lon="38.862603"><ele>98.3</ele><time>2023-01-11T17:54:44Z</time></trkpt><trkpt lat="58.029103" lon="38.86252"><ele>98.2</ele><time>2023-01-11T17:54:49Z</time></trkpt><trkpt lat="58.02908" lon="38.862682"><ele>98.1</ele><time>2023-01-11T17:54:55Z</time></trkpt><trkpt lat="58.029132" lon="38.862805"><ele>98.1</ele><time>2023-01-11T17:54:58Z</time></trkpt><trkpt lat="58.0292" lon="38.862903"><ele>98.1</ele><time>2023-01-11T17:55:01Z</time></trkpt><trkpt lat="58.029275" lon="38.862998"><ele>98.2</ele><time>2023-01-11T17:55:04Z</time></trkpt><trkpt lat="58.029347" lon="38.863107"><ele>98.1</ele><time>2023-01-11T17:55:07Z</time></trkpt><trkpt lat="58.029422" lon="38.863222"><ele>98.1</ele><time>2023-01-11T17:55:10Z</time></trkpt><trkpt lat="58.029485" lon="38.863313"><ele>98.1</ele><time>2023-01-11T17:55:13Z</time></trkpt><trkpt lat="58.029552" lon="38.863387"><ele>98.7</ele><time>2023-01-11T17:55:16Z</time></trkpt><trkpt lat="58.02964" lon="38.863475"><ele>99.0</ele><time>2023-01-11T17:55:19Z</time></trkpt><trkpt lat="58.02973" lon="38.863562"><ele>99.6</ele><time>2023-01-11T17:55:22Z</time></trkpt><trkpt lat="58.0298" lon="38.863637"><ele>99.2</ele><time>2023-01-11T17:55:24Z</time></trkpt><trkpt lat="58.029885" lon="38.863738"><ele>99.0</ele><time>2023-01-11T17:55:27Z</time></trkpt><trkpt lat="58.029962" lon="38.863832"><ele>100.0</ele><time>2023-01-11T17:55:30Z</time></trkpt><trkpt lat="58.030035" lon="38.86393"><ele>101.2</ele><time>2023-01-11T17:55:33Z</time></trkpt><trkpt lat="58.030103" lon="38.864033"><ele>100.6</ele><time>2023-01-11T17:55:36Z</time></trkpt><trkpt lat="58.030168" lon="38.864135"><ele>100.0</ele><time>2023-01-11T17:55:39Z</time></trkpt><trkpt lat="58.030242" lon="38.86424"><ele>99.7</ele><time>2023-01-11T17:55:42Z</time></trkpt><trkpt lat="58.030305" lon="38.864332"><ele>98.1</ele><time>2023-01-11T17:55:45Z</time></trkpt><trkpt lat="58.030372" lon="38.86443"><ele>97.5</ele><time>2023-01-11T17:55:48Z</time></trkpt><trkpt lat="58.030447" lon="38.864537"><ele>97.2</ele><time>2023-01-11T17:55:51Z</time></trkpt><trkpt lat="58.030518" lon="38.864652"><ele>97.1</ele><time>2023-01-11T17:55:54Z</time></trkpt><trkpt lat="58.030595" lon="38.864775"><ele>98.0</ele><time>2023-01-11T17:55:57Z</time></trkpt><trkpt lat="58.03066" lon="38.864863"><ele>96.9</ele><time>2023-01-11T17:55:59Z</time></trkpt><trkpt lat="58.030732" lon="38.86496"><ele>96.1</ele><time>2023-01-11T17:56:01Z</time></trkpt><trkpt lat="58.030798" lon="38.865047"><ele>95.9</ele><time>2023-01-11T17:56:03Z</time></trkpt><trkpt lat="58.030882" lon="38.865155"><ele>94.5</ele><time>2023-01-11T17:56:06Z</time></trkpt><trkpt lat="58.03096" lon="38.865262"><ele>94.3</ele><time>2023-01-11T17:56:09Z</time></trkpt><trkpt lat="58.031008" lon="38.865375"><ele>92.1</ele><time>2023-01-11T17:56:12Z</time></trkpt><trkpt lat="58.031008" lon="38.865517"><ele>92.3</ele><time>2023-01-11T17:56:15Z</time></trkpt><trkpt lat="58.030953" lon="38.865635"><ele>91.9</ele><time>2023-01-11T17:56:19Z</time></trkpt><trkpt lat="58.03087" lon="38.865603"><ele>90.9</ele><time>2023-01-11T17:56:23Z</time></trkpt><trkpt lat="58.03079" lon="38.865512"><ele>91.1</ele><time>2023-01-11T17:56:27Z</time></trkpt><trkpt lat="58.030717" lon="38.865422"><ele>91.6</ele><time>2023-01-11T17:56:30Z</time></trkpt><trkpt lat="58.030658" lon="38.865343"><ele>92.3</ele><time>2023-01-11T17:56:33Z</time></trkpt><trkpt lat="58.030597" lon="38.865268"><ele>92.3</ele><time>2023-01-11T17:56:36Z</time></trkpt><trkpt lat="58.03053" lon="38.865195"><ele>92.1</ele><time>2023-01-11T17:56:39Z</time></trkpt><trkpt lat="58.030453" lon="38.86511"><ele>93.0</ele><time>2023-01-11T17:56:43Z</time></trkpt><trkpt lat="58.030385" lon="38.865028"><ele>97.5</ele><time>2023-01-11T17:56:47Z</time></trkpt><trkpt lat="58.030323" lon="38.864943"><ele>97.9</ele><time>2023-01-11T17:56:51Z</time></trkpt><trkpt lat="58.030252" lon="38.864855"><ele>98.4</ele><time>2023-01-11T17:56:55Z</time></trkpt><trkpt lat="58.03017" lon="38.864757"><ele>99.0</ele><time>2023-01-11T17:56:59Z</time></trkpt><trkpt lat="58.0301" lon="38.864672"><ele>100.8</ele><time>2023-01-11T17:57:02Z</time></trkpt><trkpt lat="58.03003" lon="38.864585"><ele>101.9</ele><time>2023-01-11T17:57:05Z</time></trkpt><trkpt lat="58.029967" lon="38.864515"><ele>103.8</ele><time>2023-01-11T17:57:08Z</time></trkpt><trkpt lat="58.0299" lon="38.864448"><ele>103.6</ele><time>2023-01-11T17:57:12Z</time></trkpt><trkpt lat="58.029815" lon="38.86443"><ele>102.4</ele><time>2023-01-11T17:57:16Z</time></trkpt><trkpt lat="58.029783" lon="38.864582"><ele>100.3</ele><time>2023-01-11T17:57:21Z</time></trkpt><trkpt lat="58.029823" lon="38.864725"><ele>100.0</ele><time>2023-01-11T17:57:25Z</time></trkpt><trkpt lat="58.029872" lon="38.864843"><ele>99.8</ele><time>2023-01-11T17:57:28Z</time></trkpt><trkpt lat="58.029945" lon="38.864943"><ele>99.7</ele><time>2023-01-11T17:57:32Z</time></trkpt><trkpt lat="58.030032" lon="38.865"><ele>101.1</ele><time>2023-01-11T17:57:36Z</time></trkpt><trkpt lat="58.0301" lon="38.865047"><ele>101.1</ele><time>2023-01-11T17:57:39Z</time></trkpt><trkpt lat="58.030185" lon="38.865122"><ele>99.6</ele><time>2023-01-11T17:57:43Z</time></trkpt><trkpt lat="58.03025" lon="38.86519"><ele>99.3</ele><time>2023-01-11T17:57:46Z</time></trkpt><trkpt lat="58.030323" lon="38.865287"><ele>100.2</ele><time>2023-01-11T17:57:49Z</time></trkpt><trkpt lat="58.030403" lon="38.865397"><ele>100.2</ele><time>2023-01-11T17:57:52Z</time></trkpt><trkpt lat="58.03043" lon="38.865535"><ele>97.4</ele><time>2023-01-11T17:57:55Z</time></trkpt><trkpt lat="58.030383" lon="38.865658"><ele>96.3</ele><time>2023-01-11T17:57:58Z</time></trkpt><trkpt lat="58.03031" lon="38.865725"><ele>96.1</ele><time>2023-01-11T17:58:01Z</time></trkpt><trkpt lat="58.030227" lon="38.865738"><ele>95.9</ele><time>2023-01-11T17:58:05Z</time></trkpt><trkpt lat="58.03015" lon="38.865728"><ele>96.4</ele><time>2023-01-11T17:58:40Z</time></trkpt><trkpt lat="58.030063" lon="38.865698"><ele>95.0</ele><time>2023-01-11T17:58:44Z</time></trkpt><trkpt lat="58.029962" lon="38.865642"><ele>94.4</ele><time>2023-01-11T17:58:47Z</time></trkpt><trkpt lat="58.02989" lon="38.86559"><ele>93.6</ele><time>2023-01-11T17:58:49Z</time></trkpt><trkpt lat="58.029823" lon="38.865523"><ele>93.6</ele><time>2023-01-11T17:58:51Z</time></trkpt><trkpt lat="58.029747" lon="38.865398"><ele>93.9</ele><time>2023-01-11T17:58:54Z</time></trkpt><trkpt lat="58.029697" lon="38.865258"><ele>94.3</ele><time>2023-01-11T17:58:57Z</time></trkpt><trkpt lat="58.029667" lon="38.865118"><ele>94.8</ele><time>2023-01-11T17:59:00Z</time></trkpt><trkpt lat="58.029642" lon="38.864972"><ele>96.0</ele><time>2023-01-11T17:59:03Z</time></trkpt><trkpt lat="58.029618" lon="38.864832"><ele>96.7</ele><time>2023-01-11T17:59:06Z</time></trkpt><trkpt lat="58.029585" lon="38.864665"><ele>97.4</ele><time>2023-01-11T17:59:10Z</time></trkpt><trkpt lat="58.029558" lon="38.864502"><ele>96.9</ele><time>2023-01-11T17:59:14Z</time></trkpt><trkpt lat="58.02954" lon="38.864353"><ele>96.0</ele><time>2023-01-11T17:59:17Z</time></trkpt><trkpt lat="58.029513" lon="38.864213"><ele>96.8</ele><time>2023-01-11T17:59:20Z</time></trkpt><trkpt lat="58.02948" lon="38.864052"><ele>95.9</ele><time>2023-01-11T17:59:24Z</time></trkpt><trkpt lat="58.029428" lon="38.863895"><ele>97.0</ele><time>2023-01-11T17:59:28Z</time></trkpt><trkpt lat="58.029378" lon="38.86377"><ele>96.4</ele><time>2023-01-11T17:59:31Z</time></trkpt><trkpt lat="58.029322" lon="38.863637"><ele>96.0</ele><time>2023-01-11T17:59:34Z</time></trkpt><trkpt lat="58.029253" lon="38.863485"><ele>96.0</ele><time>2023-01-11T17:59:37Z</time></trkpt><trkpt lat="58.029205" lon="38.86337"><ele>96.7</ele><time>2023-01-11T17:59:40Z</time></trkpt><trkpt lat="58.029155" lon="38.863252"><ele>97.9</ele><time>2023-01-11T17:59:44Z</time></trkpt><trkpt lat="58.029113" lon="38.863133"><ele>98.5</ele><time>2023-01-11T17:59:48Z</time></trkpt><trkpt lat="58.029072" lon="38.863008"><ele>98.0</ele><time>2023-01-11T17:59:51Z</time></trkpt><trkpt lat="58.029028" lon="38.862882"><ele>97.8</ele><time>2023-01-11T17:59:54Z</time></trkpt><trkpt lat="58.028988" lon="38.86275"><ele>97.7</ele><time>2023-01-11T17:59:58Z</time></trkpt><trkpt lat="58.029002" lon="38.862603"><ele>98.5</ele><time>2023-01-11T18:00:04Z</time></trkpt><trkpt lat="58.029018" lon="38.862438"><ele>99.0</ele><time>2023-01-11T18:00:09Z</time></trkpt><trkpt lat="58.028998" lon="38.862265"><ele>98.5</ele><time>2023-01-11T18:00:13Z</time></trkpt><trkpt lat="58.028943" lon="38.862175"><ele>97.8</ele><time>2023-01-11T18:00:16Z</time></trkpt><trkpt lat="58.028877" lon="38.862102"><ele>96.9</ele><time>2023-01-11T18:00:19Z</time></trkpt><trkpt lat="58.028798" lon="38.862035"><ele>97.6</ele><time>2023-01-11T18:00:23Z</time></trkpt><trkpt lat="58.028725" lon="38.861972"><ele>97.5</ele><time>2023-01-11T18:00:27Z</time></trkpt></trkseg></trk></gpx>