<?xml version="1.0" encoding="UTF-8" standalone="no"?><gpx xmlns="http://www.topografix.com/GPX/1/1" xmlns:gpxtpx="http://www.garmin.com/xmlschemas/TrackPointExtension/v1" xmlns:xsi="http://www.w3.org/2001/XMLSchema-instance" creator="Sports Tracker" version="1.1" xsi:schemaLocation="http://www.topografix.com/GPX/1/1 http://www.topografix.com/GPX/1/1/gpx.xsd http://www.garmin.com/xmlschemas/TrackPointExtension/v1 http://www.garmin.com/xmlschemas/TrackPointExtensionv1.xsd"><metadata><name/><desc/><author><name>Александр</name></author></metadata><trk><name/><trkseg><trkpt lat="58.013577" lon="38.864177"><ele>108.0</ele><time>2023-09-28T12:39:30Z</time></trkpt><trkpt lat="58.013728" lon="38.864168"><ele>112.0</ele><time>2023-09-28T12:39:33Z</time></trkpt><trkpt lat="58.013788" lon="38.863932"><ele>111.0</ele><time>2023-09-28T12:39:34Z</time></trkpt><trkpt lat="58.013743" lon="38.864048"><ele>115.0</ele><time>2023-09-28T12:39:35Z</time></trkpt><trkpt lat="58.013672" lon="38.863968"><ele>107.0</ele><time>2023-09-28T12:39:36Z</time></trkpt><trkpt lat="58.013783" lon="38.863573"><ele>106.0</ele><time>2023-09-28T12:39:38Z</time></trkpt><trkpt lat="58.01373" lon="38.863685"><ele>106.0</ele><time>2023-09-28T12:39:40Z</time></trkpt><trkpt lat="58.013715" lon="38.863882"><ele>107.0</ele><time>2023-09-28T12:39:45Z</time></trkpt><trkpt lat="58.013643" lon="38.863877"><ele>107.0</ele><time>2023-09-28T12:39:52Z</time></trkpt><trkpt lat="58.013568" lon="38.863947"><ele>106.0</ele><time>2023-09-28T12:40:00Z</time></trkpt><trkpt lat="58.01362" lon="38.863808"><ele>106.0</ele><time>2023-09-28T12:40:21Z</time></trkpt><trkpt lat="58.01367" lon="38.863687"><ele>106.0</ele><time>2023-09-28T12:40:25Z</time></trkpt><trkpt lat="58.013653" lon="38.863518"><ele>105.0</ele><time>2023-09-28T12:40:29Z</time></trkpt><trkpt lat="58.013705" lon="38.863422"><ele>105.0</ele><time>2023-09-28T12:40:32Z</time></trkpt><trkpt lat="58.013783" lon="38.86336"><ele>104.0</ele><time>2023-09-28T12:40:37Z</time></trkpt><trkpt lat="58.013857" lon="38.86325"><ele>103.0</ele><time>2023-09-28T12:40:42Z</time></trkpt><trkpt lat="58.013937" lon="38.863183"><ele>103.0</ele><time>2023-09-28T12:40:45Z</time></trkpt><trkpt lat="58.014007" lon="38.863137"><ele>103.0</ele><time>2023-09-28T12:40:49Z</time></trkpt><trkpt lat="58.014077" lon="38.863063"><ele>103.0</ele><time>2023-09-28T12:40:52Z</time></trkpt><trkpt lat="58.01415" lon="38.863013"><ele>103.0</ele><time>2023-09-28T12:40:55Z</time></trkpt><trkpt lat="58.014235" lon="38.862953"><ele>103.0</ele><time>2023-09-28T12:40:59Z</time></trkpt><trkpt lat="58.014295" lon="38.862875"><ele>103.0</ele><time>2023-09-28T12:41:02Z</time></trkpt><trkpt lat="58.014333" lon="38.862733"><ele>102.0</ele><time>2023-09-28T12:41:07Z</time></trkpt><trkpt lat="58.014392" lon="38.862605"><ele>102.0</ele><time>2023-09-28T12:43:53Z</time></trkpt><trkpt lat="58.014478" lon="38.862663"><ele>102.0</ele><time>2023-09-28T12:43:56Z</time></trkpt><trkpt lat="58.014542" lon="38.862753"><ele>102.0</ele><time>2023-09-28T12:43:58Z</time></trkpt><trkpt lat="58.014617" lon="38.862847"><ele>102.0</ele><time>2023-09-28T12:44:00Z</time></trkpt><trkpt lat="58.0147" lon="38.86294"><ele>102.0</ele><time>2023-09-28T12:44:02Z</time></trkpt><trkpt lat="58.014785" lon="38.863018"><ele>102.0</ele><time>2023-09-28T12:44:04Z</time></trkpt><trkpt lat="58.014865" lon="38.863102"><ele>102.0</ele><time>2023-09-28T12:44:06Z</time></trkpt><trkpt lat="58.014945" lon="38.863175"><ele>102.0</ele><time>2023-09-28T12:44:08Z</time></trkpt><trkpt lat="58.015025" lon="38.86324"><ele>102.0</ele><time>2023-09-28T12:44:10Z</time></trkpt><trkpt lat="58.0151" lon="38.863295"><ele>102.0</ele><time>2023-09-28T12:44:12Z</time></trkpt><trkpt lat="58.015172" lon="38.863337"><ele>102.0</ele><time>2023-09-28T12:44:14Z</time></trkpt><trkpt lat="58.015243" lon="38.863397"><ele>102.0</ele><time>2023-09-28T12:44:16Z</time></trkpt><trkpt lat="58.01531" lon="38.863453"><ele>102.0</ele><time>2023-09-28T12:44:18Z</time></trkpt><trkpt lat="58.015382" lon="38.863512"><ele>102.0</ele><time>2023-09-28T12:44:20Z</time></trkpt><trkpt lat="58.015453" lon="38.863588"><ele>102.0</ele><time>2023-09-28T12:44:22Z</time></trkpt><trkpt lat="58.015525" lon="38.863658"><ele>102.0</ele><time>2023-09-28T12:44:24Z</time></trkpt><trkpt lat="58.015602" lon="38.863727"><ele>102.0</ele><time>2023-09-28T12:44:26Z</time></trkpt><trkpt lat="58.015677" lon="38.863795"><ele>102.0</ele><time>2023-09-28T12:44:28Z</time></trkpt><trkpt lat="58.015743" lon="38.863865"><ele>101.0</ele><time>2023-09-28T12:44:30Z</time></trkpt><trkpt lat="58.015815" lon="38.863932"><ele>100.0</ele><time>2023-09-28T12:44:32Z</time></trkpt><trkpt lat="58.015888" lon="38.863997"><ele>100.0</ele><time>2023-09-28T12:44:34Z</time></trkpt><trkpt lat="58.015965" lon="38.86407"><ele>100.0</ele><time>2023-09-28T12:44:36Z</time></trkpt><trkpt lat="58.016042" lon="38.86414"><ele>100.0</ele><time>2023-09-28T12:44:38Z</time></trkpt><trkpt lat="58.016118" lon="38.864208"><ele>100.0</ele><time>2023-09-28T12:44:40Z</time></trkpt><trkpt lat="58.016205" lon="38.864265"><ele>99.0</ele><time>2023-09-28T12:44:42Z</time></trkpt><trkpt lat="58.016292" lon="38.864333"><ele>99.0</ele><time>2023-09-28T12:44:44Z</time></trkpt><trkpt lat="58.016377" lon="38.86442"><ele>99.0</ele><time>2023-09-28T12:44:46Z</time></trkpt><trkpt lat="58.01646" lon="38.86451"><ele>98.0</ele><time>2023-09-28T12:44:48Z</time></trkpt><trkpt lat="58.01655" lon="38.86459"><ele>98.0</ele><time>2023-09-28T12:44:50Z</time></trkpt><trkpt lat="58.016642" lon="38.86465"><ele>98.0</ele><time>2023-09-28T12:44:52Z</time></trkpt><trkpt lat="58.016735" lon="38.86473"><ele>98.0</ele><time>2023-09-28T12:44:54Z</time></trkpt><trkpt lat="58.016812" lon="38.86481"><ele>99.0</ele><time>2023-09-28T12:44:56Z</time></trkpt><trkpt lat="58.016883" lon="38.864887"><ele>98.0</ele><time>2023-09-28T12:44:58Z</time></trkpt><trkpt lat="58.016972" lon="38.86492"><ele>98.0</ele><time>2023-09-28T12:45:00Z</time></trkpt><trkpt lat="58.017062" lon="38.864942"><ele>99.0</ele><time>2023-09-28T12:45:02Z</time></trkpt><trkpt lat="58.01716" lon="38.864982"><ele>99.0</ele><time>2023-09-28T12:45:04Z</time></trkpt><trkpt lat="58.017253" lon="38.865005"><ele>99.0</ele><time>2023-09-28T12:45:06Z</time></trkpt><trkpt lat="58.01735" lon="38.865015"><ele>100.0</ele><time>2023-09-28T12:45:08Z</time></trkpt><trkpt lat="58.017442" lon="38.865018"><ele>99.0</ele><time>2023-09-28T12:45:10Z</time></trkpt><trkpt lat="58.01755" lon="38.865035"><ele>99.0</ele><time>2023-09-28T12:45:12Z</time></trkpt><trkpt lat="58.017683" lon="38.86508"><ele>99.0</ele><time>2023-09-28T12:45:14Z</time></trkpt><trkpt lat="58.017762" lon="38.865097"><ele>98.0</ele><time>2023-09-28T12:45:15Z</time></trkpt><trkpt lat="58.017845" lon="38.865105"><ele>99.0</ele><time>2023-09-28T12:45:16Z</time></trkpt><trkpt lat="58.01794" lon="38.865125"><ele>98.0</ele><time>2023-09-28T12:45:17Z</time></trkpt><trkpt lat="58.018032" lon="38.86514"><ele>99.0</ele><time>2023-09-28T12:45:18Z</time></trkpt><trkpt lat="58.018117" lon="38.865138"><ele>99.0</ele><time>2023-09-28T12:45:19Z</time></trkpt><trkpt lat="58.018203" lon="38.865167"><ele>99.0</ele><time>2023-09-28T12:45:20Z</time></trkpt><trkpt lat="58.01829" lon="38.865163"><ele>99.0</ele><time>2023-09-28T12:45:21Z</time></trkpt><trkpt lat="58.018378" lon="38.865172"><ele>98.0</ele><time>2023-09-28T12:45:22Z</time></trkpt><trkpt lat="58.018472" lon="38.865178"><ele>98.0</ele><time>2023-09-28T12:45:23Z</time></trkpt><trkpt lat="58.01856" lon="38.86519"><ele>98.0</ele><time>2023-09-28T12:45:24Z</time></trkpt><trkpt lat="58.018652" lon="38.865205"><ele>98.0</ele><time>2023-09-28T12:45:25Z</time></trkpt><trkpt lat="58.018743" lon="38.865213"><ele>98.0</ele><time>2023-09-28T12:45:26Z</time></trkpt><trkpt lat="58.018837" lon="38.865245"><ele>98.0</ele><time>2023-09-28T12:45:27Z</time></trkpt><trkpt lat="58.018932" lon="38.86526"><ele>98.0</ele><time>2023-09-28T12:45:28Z</time></trkpt><trkpt lat="58.019032" lon="38.865287"><ele>98.0</ele><time>2023-09-28T12:45:29Z</time></trkpt><trkpt lat="58.019127" lon="38.865318"><ele>97.0</ele><time>2023-09-28T12:45:30Z</time></trkpt><trkpt lat="58.019217" lon="38.86532"><ele>97.0</ele><time>2023-09-28T12:45:31Z</time></trkpt><trkpt lat="58.019305" lon="38.865342"><ele>97.0</ele><time>2023-09-28T12:45:32Z</time></trkpt><trkpt lat="58.019388" lon="38.865367"><ele>97.0</ele><time>2023-09-28T12:45:33Z</time></trkpt><trkpt lat="58.019468" lon="38.86538"><ele>97.0</ele><time>2023-09-28T12:45:34Z</time></trkpt><trkpt lat="58.019548" lon="38.8654"><ele>98.0</ele><time>2023-09-28T12:45:35Z</time></trkpt><trkpt lat="58.019622" lon="38.865395"><ele>98.0</ele><time>2023-09-28T12:45:36Z</time></trkpt><trkpt lat="58.019758" lon="38.865358"><ele>98.0</ele><time>2023-09-28T12:45:38Z</time></trkpt><trkpt lat="58.019878" lon="38.865362"><ele>98.0</ele><time>2023-09-28T12:45:40Z</time></trkpt><trkpt lat="58.019968" lon="38.86539"><ele>98.0</ele><time>2023-09-28T12:45:42Z</time></trkpt><trkpt lat="58.020048" lon="38.865333"><ele>99.0</ele><time>2023-09-28T12:45:46Z</time></trkpt><trkpt lat="58.02011" lon="38.86516"><ele>99.0</ele><time>2023-09-28T12:45:49Z</time></trkpt><trkpt lat="58.020158" lon="38.865057"><ele>100.0</ele><time>2023-09-28T12:45:51Z</time></trkpt><trkpt lat="58.020218" lon="38.864975"><ele>100.0</ele><time>2023-09-28T12:45:53Z</time></trkpt><trkpt lat="58.02029" lon="38.864848"><ele>101.0</ele><time>2023-09-28T12:45:56Z</time></trkpt><trkpt lat="58.020347" lon="38.864763"><ele>101.0</ele><time>2023-09-28T12:45:59Z</time></trkpt><trkpt lat="58.020422" lon="38.864725"><ele>101.0</ele><time>2023-09-28T12:46:01Z</time></trkpt><trkpt lat="58.020512" lon="38.864695"><ele>102.0</ele><time>2023-09-28T12:46:04Z</time></trkpt><trkpt lat="58.020587" lon="38.86469"><ele>102.0</ele><time>2023-09-28T12:46:06Z</time></trkpt><trkpt lat="58.02067" lon="38.864687"><ele>102.0</ele><time>2023-09-28T12:46:08Z</time></trkpt><trkpt lat="58.020755" lon="38.864682"><ele>102.0</ele><time>2023-09-28T12:46:10Z</time></trkpt><trkpt lat="58.020862" lon="38.86466"><ele>102.0</ele><time>2023-09-28T12:46:13Z</time></trkpt><trkpt lat="58.020957" lon="38.864618"><ele>102.0</ele><time>2023-09-28T12:46:16Z</time></trkpt><trkpt lat="58.021043" lon="38.864565"><ele>103.0</ele><time>2023-09-28T12:46:19Z</time></trkpt><trkpt lat="58.021133" lon="38.864547"><ele>104.0</ele><time>2023-09-28T12:46:22Z</time></trkpt><trkpt lat="58.021218" lon="38.864515"><ele>105.0</ele><time>2023-09-28T12:46:25Z</time></trkpt><trkpt lat="58.021318" lon="38.864465"><ele>105.0</ele><time>2023-09-28T12:46:28Z</time></trkpt><trkpt lat="58.021408" lon="38.864465"><ele>105.0</ele><time>2023-09-28T12:46:31Z</time></trkpt><trkpt lat="58.021495" lon="38.864448"><ele>106.0</ele><time>2023-09-28T12:46:34Z</time></trkpt><trkpt lat="58.021572" lon="38.864435"><ele>106.0</ele><time>2023-09-28T12:46:37Z</time></trkpt><trkpt lat="58.021672" lon="38.864445"><ele>106.0</ele><time>2023-09-28T12:46:41Z</time></trkpt><trkpt lat="58.02177" lon="38.864427"><ele>107.0</ele><time>2023-09-28T12:46:43Z</time></trkpt><trkpt lat="58.021845" lon="38.864423"><ele>107.0</ele><time>2023-09-28T12:46:46Z</time></trkpt><trkpt lat="58.021945" lon="38.86441"><ele>109.0</ele><time>2023-09-28T12:46:49Z</time></trkpt><trkpt lat="58.022033" lon="38.864405"><ele>109.0</ele><time>2023-09-28T12:46:51Z</time></trkpt><trkpt lat="58.02211" lon="38.864398"><ele>109.0</ele><time>2023-09-28T12:46:53Z</time></trkpt><trkpt lat="58.022202" lon="38.864413"><ele>109.0</ele><time>2023-09-28T12:46:56Z</time></trkpt><trkpt lat="58.022307" lon="38.864473"><ele>109.0</ele><time>2023-09-28T12:46:59Z</time></trkpt><trkpt lat="58.0224" lon="38.864513"><ele>108.0</ele><time>2023-09-28T12:47:00Z</time></trkpt><trkpt lat="58.022525" lon="38.864555"><ele>108.0</ele><time>2023-09-28T12:47:02Z</time></trkpt><trkpt lat="58.022602" lon="38.864567"><ele>108.0</ele><time>2023-09-28T12:47:03Z</time></trkpt><trkpt lat="58.02268" lon="38.864582"><ele>107.0</ele><time>2023-09-28T12:47:04Z</time></trkpt><trkpt lat="58.022798" lon="38.864665"><ele>107.0</ele><time>2023-09-28T12:47:06Z</time></trkpt><trkpt lat="58.022885" lon="38.864835"><ele>106.0</ele><time>2023-09-28T12:47:07Z</time></trkpt><trkpt lat="58.022987" lon="38.864913"><ele>105.0</ele><time>2023-09-28T12:47:08Z</time></trkpt><trkpt lat="58.023062" lon="38.864997"><ele>105.0</ele><time>2023-09-28T12:47:09Z</time></trkpt><trkpt lat="58.023155" lon="38.865098"><ele>104.0</ele><time>2023-09-28T12:47:10Z</time></trkpt><trkpt lat="58.023243" lon="38.865172"><ele>103.0</ele><time>2023-09-28T12:47:11Z</time></trkpt><trkpt lat="58.023303" lon="38.865253"><ele>103.0</ele><time>2023-09-28T12:47:12Z</time></trkpt><trkpt lat="58.02337" lon="38.865305"><ele>102.0</ele><time>2023-09-28T12:47:13Z</time></trkpt><trkpt lat="58.023447" lon="38.865387"><ele>102.0</ele><time>2023-09-28T12:47:14Z</time></trkpt><trkpt lat="58.023562" lon="38.865432"><ele>102.0</ele><time>2023-09-28T12:47:16Z</time></trkpt><trkpt lat="58.023695" lon="38.865425"><ele>100.0</ele><time>2023-09-28T12:47:18Z</time></trkpt><trkpt lat="58.023768" lon="38.86535"><ele>99.0</ele><time>2023-09-28T12:47:20Z</time></trkpt><trkpt lat="58.023845" lon="38.86532"><ele>99.0</ele><time>2023-09-28T12:47:22Z</time></trkpt><trkpt lat="58.02394" lon="38.8653"><ele>99.0</ele><time>2023-09-28T12:47:25Z</time></trkpt><trkpt lat="58.024003" lon="38.865147"><ele>99.0</ele><time>2023-09-28T12:47:29Z</time></trkpt><trkpt lat="58.024103" lon="38.865048"><ele>99.0</ele><time>2023-09-28T12:47:32Z</time></trkpt><trkpt lat="58.024188" lon="38.865082"><ele>99.0</ele><time>2023-09-28T12:47:33Z</time></trkpt><trkpt lat="58.02432" lon="38.865058"><ele>100.0</ele><time>2023-09-28T12:47:35Z</time></trkpt><trkpt lat="58.02444" lon="38.864927"><ele>100.0</ele><time>2023-09-28T12:47:37Z</time></trkpt><trkpt lat="58.024513" lon="38.864848"><ele>100.0</ele><time>2023-09-28T12:47:38Z</time></trkpt><trkpt lat="58.024608" lon="38.864747"><ele>100.0</ele><time>2023-09-28T12:47:39Z</time></trkpt><trkpt lat="58.02464" lon="38.864623"><ele>100.0</ele><time>2023-09-28T12:47:40Z</time></trkpt><trkpt lat="58.024662" lon="38.864478"><ele>100.0</ele><time>2023-09-28T12:47:42Z</time></trkpt><trkpt lat="58.024708" lon="38.864327"><ele>101.0</ele><time>2023-09-28T12:47:44Z</time></trkpt><trkpt lat="58.02481" lon="38.86429"><ele>101.0</ele><time>2023-09-28T12:47:47Z</time></trkpt><trkpt lat="58.024903" lon="38.864212"><ele>101.0</ele><time>2023-09-28T12:47:49Z</time></trkpt><trkpt lat="58.025017" lon="38.864155"><ele>101.0</ele><time>2023-09-28T12:47:51Z</time></trkpt><trkpt lat="58.02512" lon="38.864123"><ele>101.0</ele><time>2023-09-28T12:47:53Z</time></trkpt><trkpt lat="58.025207" lon="38.864047"><ele>101.0</ele><time>2023-09-28T12:47:55Z</time></trkpt><trkpt lat="58.025307" lon="38.863965"><ele>101.0</ele><time>2023-09-28T12:47:57Z</time></trkpt><trkpt lat="58.02539" lon="38.863922"><ele>101.0</ele><time>2023-09-28T12:47:59Z</time></trkpt><trkpt lat="58.025492" lon="38.863882"><ele>101.0</ele><time>2023-09-28T12:48:01Z</time></trkpt><trkpt lat="58.025577" lon="38.863835"><ele>100.0</ele><time>2023-09-28T12:48:03Z</time></trkpt><trkpt lat="58.025657" lon="38.86376"><ele>99.0</ele><time>2023-09-28T12:48:05Z</time></trkpt><trkpt lat="58.02574" lon="38.863678"><ele>100.0</ele><time>2023-09-28T12:48:08Z</time></trkpt><trkpt lat="58.025808" lon="38.863565"><ele>101.0</ele><time>2023-09-28T12:48:11Z</time></trkpt><trkpt lat="58.025872" lon="38.863452"><ele>101.0</ele><time>2023-09-28T12:48:14Z</time></trkpt><trkpt lat="58.025937" lon="38.86336"><ele>103.0</ele><time>2023-09-28T12:48:17Z</time></trkpt><trkpt lat="58.026015" lon="38.863285"><ele>102.0</ele><time>2023-09-28T12:48:20Z</time></trkpt><trkpt lat="58.02608" lon="38.863228"><ele>102.0</ele><time>2023-09-28T12:48:21Z</time></trkpt><trkpt lat="58.026147" lon="38.863143"><ele>103.0</ele><time>2023-09-28T12:48:23Z</time></trkpt><trkpt lat="58.02623" lon="38.863063"><ele>102.0</ele><time>2023-09-28T12:48:26Z</time></trkpt><trkpt lat="58.0263" lon="38.862998"><ele>102.0</ele><time>2023-09-28T12:48:28Z</time></trkpt><trkpt lat="58.026373" lon="38.862928"><ele>102.0</ele><time>2023-09-28T12:48:30Z</time></trkpt><trkpt lat="58.026445" lon="38.862887"><ele>102.0</ele><time>2023-09-28T12:48:32Z</time></trkpt><trkpt lat="58.026597" lon="38.862798"><ele>103.0</ele><time>2023-09-28T12:48:35Z</time></trkpt><trkpt lat="58.026677" lon="38.862718"><ele>103.0</ele><time>2023-09-28T12:48:36Z</time></trkpt><trkpt lat="58.02675" lon="38.86264"><ele>103.0</ele><time>2023-09-28T12:48:37Z</time></trkpt><trkpt lat="58.026852" lon="38.86258"><ele>104.0</ele><time>2023-09-28T12:48:39Z</time></trkpt><trkpt lat="58.026957" lon="38.862513"><ele>104.0</ele><time>2023-09-28T12:48:41Z</time></trkpt><trkpt lat="58.027035" lon="38.862518"><ele>103.0</ele><time>2023-09-28T12:48:44Z</time></trkpt><trkpt lat="58.02714" lon="38.862515"><ele>104.0</ele><time>2023-09-28T12:48:48Z</time></trkpt><trkpt lat="58.027215" lon="38.862498"><ele>104.0</ele><time>2023-09-28T12:48:50Z</time></trkpt><trkpt lat="58.027313" lon="38.862415"><ele>104.0</ele><time>2023-09-28T12:48:52Z</time></trkpt><trkpt lat="58.027395" lon="38.862345"><ele>104.0</ele><time>2023-09-28T12:48:54Z</time></trkpt><trkpt lat="58.027475" lon="38.862215"><ele>104.0</ele><time>2023-09-28T12:48:56Z</time></trkpt><trkpt lat="58.02754" lon="38.862113"><ele>104.0</ele><time>2023-09-28T12:48:58Z</time></trkpt><trkpt lat="58.0276" lon="38.861957"><ele>104.0</ele><time>2023-09-28T12:49:13Z</time></trkpt><trkpt lat="58.027685" lon="38.861862"><ele>104.0</ele><time>2023-09-28T12:49:17Z</time></trkpt><trkpt lat="58.027758" lon="38.86187"><ele>103.0</ele><time>2023-09-28T12:49:19Z</time></trkpt><trkpt lat="58.027848" lon="38.861853"><ele>103.0</ele><time>2023-09-28T12:49:21Z</time></trkpt><trkpt lat="58.027918" lon="38.861803"><ele>103.0</ele><time>2023-09-28T12:49:22Z</time></trkpt><trkpt lat="58.027985" lon="38.861733"><ele>103.0</ele><time>2023-09-28T12:49:24Z</time></trkpt><trkpt lat="58.028093" lon="38.86168"><ele>103.0</ele><time>2023-09-28T12:49:27Z</time></trkpt><trkpt lat="58.028152" lon="38.861597"><ele>103.0</ele><time>2023-09-28T12:49:29Z</time></trkpt><trkpt lat="58.028253" lon="38.861478"><ele>104.0</ele><time>2023-09-28T12:49:31Z</time></trkpt><trkpt lat="58.028365" lon="38.861397"><ele>103.0</ele><time>2023-09-28T12:49:33Z</time></trkpt><trkpt lat="58.028432" lon="38.861338"><ele>103.0</ele><time>2023-09-28T12:49:34Z</time></trkpt><trkpt lat="58.028518" lon="38.861268"><ele>103.0</ele><time>2023-09-28T12:49:35Z</time></trkpt><trkpt lat="58.0286" lon="38.861192"><ele>103.0</ele><time>2023-09-28T12:49:36Z</time></trkpt><trkpt lat="58.028688" lon="38.861168"><ele>102.0</ele><time>2023-09-28T12:49:37Z</time></trkpt><trkpt lat="58.02876" lon="38.861115"><ele>101.0</ele><time>2023-09-28T12:49:38Z</time></trkpt><trkpt lat="58.02885" lon="38.861067"><ele>101.0</ele><time>2023-09-28T12:49:39Z</time></trkpt><trkpt lat="58.028942" lon="38.860985"><ele>100.0</ele><time>2023-09-28T12:49:40Z</time></trkpt><trkpt lat="58.02902" lon="38.86092"><ele>99.0</ele><time>2023-09-28T12:49:41Z</time></trkpt><trkpt lat="58.029103" lon="38.860855"><ele>97.0</ele><time>2023-09-28T12:49:43Z</time></trkpt><trkpt lat="58.029225" lon="38.860782"><ele>96.0</ele><time>2023-09-28T12:49:45Z</time></trkpt><trkpt lat="58.029307" lon="38.860718"><ele>96.0</ele><time>2023-09-28T12:49:46Z</time></trkpt><trkpt lat="58.02942" lon="38.860643"><ele>96.0</ele><time>2023-09-28T12:49:48Z</time></trkpt><trkpt lat="58.029505" lon="38.860595"><ele>96.0</ele><time>2023-09-28T12:49:50Z</time></trkpt><trkpt lat="58.02958" lon="38.860535"><ele>97.0</ele><time>2023-09-28T12:49:52Z</time></trkpt><trkpt lat="58.029683" lon="38.860513"><ele>96.0</ele><time>2023-09-28T12:49:54Z</time></trkpt><trkpt lat="58.029768" lon="38.860428"><ele>97.0</ele><time>2023-09-28T12:49:57Z</time></trkpt><trkpt lat="58.029837" lon="38.860347"><ele>98.0</ele><time>2023-09-28T12:49:59Z</time></trkpt><trkpt lat="58.029912" lon="38.860242"><ele>99.0</ele><time>2023-09-28T12:50:02Z</time></trkpt><trkpt lat="58.029978" lon="38.860188"><ele>99.0</ele><time>2023-09-28T12:50:04Z</time></trkpt><trkpt lat="58.030057" lon="38.860135"><ele>99.0</ele><time>2023-09-28T12:50:06Z</time></trkpt><trkpt lat="58.030133" lon="38.860087"><ele>100.0</ele><time>2023-09-28T12:50:08Z</time></trkpt><trkpt lat="58.030218" lon="38.860037"><ele>100.0</ele><time>2023-09-28T12:50:10Z</time></trkpt><trkpt lat="58.030308" lon="38.859978"><ele>100.0</ele><time>2023-09-28T12:50:12Z</time></trkpt><trkpt lat="58.030398" lon="38.859932"><ele>101.0</ele><time>2023-09-28T12:50:14Z</time></trkpt><trkpt lat="58.03046" lon="38.859857"><ele>101.0</ele><time>2023-09-28T12:50:17Z</time></trkpt><trkpt lat="58.030513" lon="38.85972"><ele>102.0</ele><time>2023-09-28T12:50:21Z</time></trkpt><trkpt lat="58.030583" lon="38.859612"><ele>102.0</ele><time>2023-09-28T12:50:22Z</time></trkpt><trkpt lat="58.030685" lon="38.859433"><ele>102.0</ele><time>2023-09-28T12:50:24Z</time></trkpt><trkpt lat="58.030755" lon="38.85933"><ele>103.0</ele><time>2023-09-28T12:50:25Z</time></trkpt><trkpt lat="58.030858" lon="38.859185"><ele>102.0</ele><time>2023-09-28T12:50:27Z</time></trkpt><trkpt lat="58.030918" lon="38.859023"><ele>102.0</ele><time>2023-09-28T12:50:29Z</time></trkpt><trkpt lat="58.030985" lon="38.858945"><ele>101.0</ele><time>2023-09-28T12:50:30Z</time></trkpt><trkpt lat="58.031063" lon="38.858865"><ele>100.0</ele><time>2023-09-28T12:50:32Z</time></trkpt><trkpt lat="58.031122" lon="38.858778"><ele>100.0</ele><time>2023-09-28T12:50:34Z</time></trkpt><trkpt lat="58.031195" lon="38.85868"><ele>100.0</ele><time>2023-09-28T12:50:36Z</time></trkpt><trkpt lat="58.031242" lon="38.858577"><ele>100.0</ele><time>2023-09-28T12:50:38Z</time></trkpt><trkpt lat="58.031313" lon="38.858462"><ele>101.0</ele><time>2023-09-28T12:50:40Z</time></trkpt><trkpt lat="58.031378" lon="38.858328"><ele>100.0</ele><time>2023-09-28T12:50:42Z</time></trkpt><trkpt lat="58.031437" lon="38.858213"><ele>101.0</ele><time>2023-09-28T12:50:44Z</time></trkpt><trkpt lat="58.031497" lon="38.858118"><ele>101.0</ele><time>2023-09-28T12:50:46Z</time></trkpt><trkpt lat="58.03158" lon="38.857998"><ele>99.0</ele><time>2023-09-28T12:50:49Z</time></trkpt><trkpt lat="58.031662" lon="38.857885"><ele>98.0</ele><time>2023-09-28T12:50:52Z</time></trkpt><trkpt lat="58.031722" lon="38.857807"><ele>98.0</ele><time>2023-09-28T12:50:54Z</time></trkpt><trkpt lat="58.031788" lon="38.857738"><ele>97.0</ele><time>2023-09-28T12:50:56Z</time></trkpt><trkpt lat="58.031862" lon="38.857647"><ele>96.0</ele><time>2023-09-28T12:50:58Z</time></trkpt><trkpt lat="58.031923" lon="38.857572"><ele>96.0</ele><time>2023-09-28T12:51:00Z</time></trkpt><trkpt lat="58.031995" lon="38.857472"><ele>96.0</ele><time>2023-09-28T12:51:02Z</time></trkpt><trkpt lat="58.032062" lon="38.857357"><ele>96.0</ele><time>2023-09-28T12:51:04Z</time></trkpt><trkpt lat="58.032133" lon="38.85722"><ele>95.0</ele><time>2023-09-28T12:51:07Z</time></trkpt><trkpt lat="58.03219" lon="38.857128"><ele>95.0</ele><time>2023-09-28T12:51:09Z</time></trkpt><trkpt lat="58.03225" lon="38.857032"><ele>95.0</ele><time>2023-09-28T12:51:11Z</time></trkpt><trkpt lat="58.032327" lon="38.856927"><ele>95.0</ele><time>2023-09-28T12:51:14Z</time></trkpt><trkpt lat="58.032388" lon="38.856835"><ele>96.0</ele><time>2023-09-28T12:51:17Z</time></trkpt><trkpt lat="58.032457" lon="38.856728"><ele>96.0</ele><time>2023-09-28T12:51:20Z</time></trkpt><trkpt lat="58.03254" lon="38.856628"><ele>97.0</ele><time>2023-09-28T12:51:23Z</time></trkpt><trkpt lat="58.032613" lon="38.856542"><ele>97.0</ele><time>2023-09-28T12:51:26Z</time></trkpt><trkpt lat="58.032685" lon="38.856447"><ele>96.0</ele><time>2023-09-28T12:51:29Z</time></trkpt><trkpt lat="58.032732" lon="38.856303"><ele>96.0</ele><time>2023-09-28T12:51:33Z</time></trkpt><trkpt lat="58.032703" lon="38.856172"><ele>97.0</ele><time>2023-09-28T12:51:38Z</time></trkpt><trkpt lat="58.032732" lon="38.856042"><ele>98.0</ele><time>2023-09-28T12:51:44Z</time></trkpt><trkpt lat="58.032798" lon="38.855957"><ele>99.0</ele><time>2023-09-28T12:51:48Z</time></trkpt><trkpt lat="58.032872" lon="38.855875"><ele>100.0</ele><time>2023-09-28T12:51:52Z</time></trkpt><trkpt lat="58.032928" lon="38.855775"><ele>99.0</ele><time>2023-09-28T12:51:55Z</time></trkpt><trkpt lat="58.032995" lon="38.855675"><ele>98.0</ele><time>2023-09-28T12:51:58Z</time></trkpt><trkpt lat="58.033082" lon="38.855567"><ele>99.0</ele><time>2023-09-28T12:52:01Z</time></trkpt><trkpt lat="58.033153" lon="38.85551"><ele>99.0</ele><time>2023-09-28T12:52:03Z</time></trkpt><trkpt lat="58.033245" lon="38.85543"><ele>100.0</ele><time>2023-09-28T12:52:06Z</time></trkpt><trkpt lat="58.03332" lon="38.855338"><ele>100.0</ele><time>2023-09-28T12:52:09Z</time></trkpt><trkpt lat="58.033402" lon="38.85525"><ele>100.0</ele><time>2023-09-28T12:52:12Z</time></trkpt><trkpt lat="58.033478" lon="38.855185"><ele>101.0</ele><time>2023-09-28T12:52:14Z</time></trkpt><trkpt lat="58.033582" lon="38.855117"><ele>100.0</ele><time>2023-09-28T12:52:17Z</time></trkpt><trkpt lat="58.033683" lon="38.855055"><ele>98.0</ele><time>2023-09-28T12:52:19Z</time></trkpt><trkpt lat="58.033802" lon="38.855008"><ele>98.0</ele><time>2023-09-28T12:52:21Z</time></trkpt><trkpt lat="58.033993" lon="38.854945"><ele>99.0</ele><time>2023-09-28T12:52:23Z</time></trkpt><trkpt lat="58.034105" lon="38.854888"><ele>99.0</ele><time>2023-09-28T12:52:25Z</time></trkpt><trkpt lat="58.034215" lon="38.854855"><ele>100.0</ele><time>2023-09-28T12:52:27Z</time></trkpt><trkpt lat="58.03433" lon="38.854782"><ele>99.0</ele><time>2023-09-28T12:52:29Z</time></trkpt><trkpt lat="58.03443" lon="38.854718"><ele>98.0</ele><time>2023-09-28T12:52:31Z</time></trkpt><trkpt lat="58.034525" lon="38.854672"><ele>98.0</ele><time>2023-09-28T12:52:33Z</time></trkpt><trkpt lat="58.034623" lon="38.854665"><ele>97.0</ele><time>2023-09-28T12:52:35Z</time></trkpt><trkpt lat="58.0347" lon="38.854612"><ele>97.0</ele><time>2023-09-28T12:52:39Z</time></trkpt><trkpt lat="58.034763" lon="38.854507"><ele>97.0</ele><time>2023-09-28T12:52:45Z</time></trkpt><trkpt lat="58.034832" lon="38.854432"><ele>97.0</ele><time>2023-09-28T12:52:48Z</time></trkpt><trkpt lat="58.034893" lon="38.854348"><ele>97.0</ele><time>2023-09-28T12:52:50Z</time></trkpt><trkpt lat="58.034967" lon="38.854213"><ele>97.0</ele><time>2023-09-28T12:52:53Z</time></trkpt><trkpt lat="58.035058" lon="38.854237"><ele>98.0</ele><time>2023-09-28T12:52:56Z</time></trkpt><trkpt lat="58.035132" lon="38.854298"><ele>98.0</ele><time>2023-09-28T12:52:57Z</time></trkpt><trkpt lat="58.035242" lon="38.854272"><ele>98.0</ele><time>2023-09-28T12:52:59Z</time></trkpt><trkpt lat="58.035353" lon="38.854155"><ele>98.0</ele><time>2023-09-28T12:53:01Z</time></trkpt><trkpt lat="58.035452" lon="38.854087"><ele>98.0</ele><time>2023-09-28T12:53:03Z</time></trkpt><trkpt lat="58.035538" lon="38.854165"><ele>97.0</ele><time>2023-09-28T12:53:05Z</time></trkpt><trkpt lat="58.035622" lon="38.854195"><ele>96.0</ele><time>2023-09-28T12:53:07Z</time></trkpt><trkpt lat="58.035693" lon="38.85417"><ele>95.0</ele><time>2023-09-28T12:53:09Z</time></trkpt><trkpt lat="58.035778" lon="38.854305"><ele>95.0</ele><time>2023-09-28T12:53:11Z</time></trkpt><trkpt lat="58.035858" lon="38.854348"><ele>95.0</ele><time>2023-09-28T12:53:13Z</time></trkpt><trkpt lat="58.035967" lon="38.854388"><ele>94.0</ele><time>2023-09-28T12:53:15Z</time></trkpt><trkpt lat="58.036083" lon="38.85444"><ele>95.0</ele><time>2023-09-28T12:53:17Z</time></trkpt><trkpt lat="58.036155" lon="38.854475"><ele>95.0</ele><time>2023-09-28T12:53:18Z</time></trkpt><trkpt lat="58.036298" lon="38.854552"><ele>96.0</ele><time>2023-09-28T12:53:20Z</time></trkpt><trkpt lat="58.036437" lon="38.854635"><ele>96.0</ele><time>2023-09-28T12:53:22Z</time></trkpt><trkpt lat="58.036513" lon="38.85467"><ele>96.0</ele><time>2023-09-28T12:53:23Z</time></trkpt><trkpt lat="58.036643" lon="38.854737"><ele>96.0</ele><time>2023-09-28T12:53:25Z</time></trkpt><trkpt lat="58.036713" lon="38.854808"><ele>96.0</ele><time>2023-09-28T12:53:26Z</time></trkpt><trkpt lat="58.036788" lon="38.854847"><ele>96.0</ele><time>2023-09-28T12:53:27Z</time></trkpt><trkpt lat="58.036927" lon="38.854898"><ele>96.0</ele><time>2023-09-28T12:53:29Z</time></trkpt><trkpt lat="58.037" lon="38.854933"><ele>95.0</ele><time>2023-09-28T12:53:30Z</time></trkpt><trkpt lat="58.037125" lon="38.854978"><ele>94.0</ele><time>2023-09-28T12:53:32Z</time></trkpt><trkpt lat="58.037198" lon="38.855005"><ele>95.0</ele><time>2023-09-28T12:53:33Z</time></trkpt><trkpt lat="58.037317" lon="38.855063"><ele>96.0</ele><time>2023-09-28T12:53:35Z</time></trkpt><trkpt lat="58.037383" lon="38.855122"><ele>96.0</ele><time>2023-09-28T12:53:36Z</time></trkpt><trkpt lat="58.037498" lon="38.855177"><ele>96.0</ele><time>2023-09-28T12:53:38Z</time></trkpt><trkpt lat="58.037617" lon="38.85521"><ele>96.0</ele><time>2023-09-28T12:53:40Z</time></trkpt><trkpt lat="58.037727" lon="38.855303"><ele>96.0</ele><time>2023-09-28T12:53:42Z</time></trkpt><trkpt lat="58.03783" lon="38.855352"><ele>97.0</ele><time>2023-09-28T12:53:44Z</time></trkpt><trkpt lat="58.037938" lon="38.855415"><ele>97.0</ele><time>2023-09-28T12:53:46Z</time></trkpt><trkpt lat="58.03804" lon="38.855477"><ele>97.0</ele><time>2023-09-28T12:53:48Z</time></trkpt><trkpt lat="58.038138" lon="38.85553"><ele>97.0</ele><time>2023-09-28T12:53:50Z</time></trkpt><trkpt lat="58.03823" lon="38.855535"><ele>97.0</ele><time>2023-09-28T12:53:52Z</time></trkpt><trkpt lat="58.038303" lon="38.855565"><ele>97.0</ele><time>2023-09-28T12:53:53Z</time></trkpt><trkpt lat="58.038397" lon="38.855578"><ele>97.0</ele><time>2023-09-28T12:53:55Z</time></trkpt><trkpt lat="58.038477" lon="38.855603"><ele>97.0</ele><time>2023-09-28T12:53:57Z</time></trkpt><trkpt lat="58.03858" lon="38.855698"><ele>98.0</ele><time>2023-09-28T12:54:00Z</time></trkpt><trkpt lat="58.038675" lon="38.855717"><ele>98.0</ele><time>2023-09-28T12:54:03Z</time></trkpt><trkpt lat="58.038748" lon="38.855717"><ele>99.0</ele><time>2023-09-28T12:54:05Z</time></trkpt><trkpt lat="58.038827" lon="38.855652"><ele>99.0</ele><time>2023-09-28T12:54:08Z</time></trkpt><trkpt lat="58.038918" lon="38.855632"><ele>100.0</ele><time>2023-09-28T12:54:13Z</time></trkpt><trkpt lat="58.039007" lon="38.85567"><ele>100.0</ele><time>2023-09-28T12:54:15Z</time></trkpt><trkpt lat="58.039095" lon="38.855688"><ele>100.0</ele><time>2023-09-28T12:54:16Z</time></trkpt><trkpt lat="58.039193" lon="38.85574"><ele>99.0</ele><time>2023-09-28T12:54:18Z</time></trkpt><trkpt lat="58.039282" lon="38.855778"><ele>99.0</ele><time>2023-09-28T12:54:20Z</time></trkpt><trkpt lat="58.039382" lon="38.85577"><ele>99.0</ele><time>2023-09-28T12:54:22Z</time></trkpt><trkpt lat="58.039483" lon="38.85583"><ele>99.0</ele><time>2023-09-28T12:54:24Z</time></trkpt><trkpt lat="58.03959" lon="38.855888"><ele>99.0</ele><time>2023-09-28T12:54:26Z</time></trkpt><trkpt lat="58.039692" lon="38.855868"><ele>99.0</ele><time>2023-09-28T12:54:28Z</time></trkpt><trkpt lat="58.039815" lon="38.855965"><ele>100.0</ele><time>2023-09-28T12:54:30Z</time></trkpt><trkpt lat="58.039943" lon="38.855962"><ele>99.0</ele><time>2023-09-28T12:54:32Z</time></trkpt><trkpt lat="58.040052" lon="38.85594"><ele>100.0</ele><time>2023-09-28T12:54:34Z</time></trkpt><trkpt lat="58.040137" lon="38.855963"><ele>100.0</ele><time>2023-09-28T12:54:36Z</time></trkpt><trkpt lat="58.040235" lon="38.855955"><ele>101.0</ele><time>2023-09-28T12:54:38Z</time></trkpt><trkpt lat="58.04034" lon="38.855987"><ele>101.0</ele><time>2023-09-28T12:54:40Z</time></trkpt><trkpt lat="58.040452" lon="38.85606"><ele>100.0</ele><time>2023-09-28T12:54:42Z</time></trkpt><trkpt lat="58.040537" lon="38.856073"><ele>101.0</ele><time>2023-09-28T12:54:44Z</time></trkpt><trkpt lat="58.0406" lon="38.856205"><ele>101.0</ele><time>2023-09-28T12:54:47Z</time></trkpt><trkpt lat="58.040712" lon="38.856217"><ele>102.0</ele><time>2023-09-28T12:54:49Z</time></trkpt><trkpt lat="58.040805" lon="38.856248"><ele>102.0</ele><time>2023-09-28T12:54:51Z</time></trkpt><trkpt lat="58.040895" lon="38.856252"><ele>102.0</ele><time>2023-09-28T12:54:53Z</time></trkpt><trkpt lat="58.04099" lon="38.856183"><ele>103.0</ele><time>2023-09-28T12:54:56Z</time></trkpt><trkpt lat="58.041033" lon="38.856073"><ele>104.0</ele><time>2023-09-28T12:55:01Z</time></trkpt><trkpt lat="58.041085" lon="38.856215"><ele>105.0</ele><time>2023-09-28T12:55:05Z</time></trkpt><trkpt lat="58.041255" lon="38.856413"><ele>106.0</ele><time>2023-09-28T12:55:07Z</time></trkpt><trkpt lat="58.041332" lon="38.856435"><ele>105.0</ele><time>2023-09-28T12:55:08Z</time></trkpt><trkpt lat="58.041452" lon="38.856442"><ele>105.0</ele><time>2023-09-28T12:55:10Z</time></trkpt><trkpt lat="58.041547" lon="38.856303"><ele>104.0</ele><time>2023-09-28T12:55:12Z</time></trkpt><trkpt lat="58.041657" lon="38.85636"><ele>104.0</ele><time>2023-09-28T12:55:15Z</time></trkpt><trkpt lat="58.041737" lon="38.856378"><ele>104.0</ele><time>2023-09-28T12:55:17Z</time></trkpt><trkpt lat="58.04181" lon="38.856365"><ele>104.0</ele><time>2023-09-28T12:55:19Z</time></trkpt><trkpt lat="58.041902" lon="38.856418"><ele>104.0</ele><time>2023-09-28T12:55:22Z</time></trkpt><trkpt lat="58.041982" lon="38.85647"><ele>104.0</ele><time>2023-09-28T12:55:24Z</time></trkpt><trkpt lat="58.042057" lon="38.856483"><ele>104.0</ele><time>2023-09-28T12:55:25Z</time></trkpt><trkpt lat="58.042138" lon="38.85649"><ele>104.0</ele><time>2023-09-28T12:55:27Z</time></trkpt><trkpt lat="58.042233" lon="38.856532"><ele>103.0</ele><time>2023-09-28T12:55:29Z</time></trkpt><trkpt lat="58.042342" lon="38.856598"><ele>102.0</ele><time>2023-09-28T12:55:31Z</time></trkpt><trkpt lat="58.042472" lon="38.85663"><ele>102.0</ele><time>2023-09-28T12:55:33Z</time></trkpt><trkpt lat="58.042607" lon="38.856673"><ele>102.0</ele><time>2023-09-28T12:55:35Z</time></trkpt><trkpt lat="58.042742" lon="38.856725"><ele>102.0</ele><time>2023-09-28T12:55:37Z</time></trkpt><trkpt lat="58.042848" lon="38.856755"><ele>102.0</ele><time>2023-09-28T12:55:39Z</time></trkpt><trkpt lat="58.042955" lon="38.8568"><ele>101.0</ele><time>2023-09-28T12:55:41Z</time></trkpt><trkpt lat="58.043045" lon="38.856855"><ele>100.0</ele><time>2023-09-28T12:55:43Z</time></trkpt><trkpt lat="58.043143" lon="38.856892"><ele>100.0</ele><time>2023-09-28T12:55:45Z</time></trkpt><trkpt lat="58.043247" lon="38.85693"><ele>100.0</ele><time>2023-09-28T12:55:47Z</time></trkpt><trkpt lat="58.043348" lon="38.85698"><ele>100.0</ele><time>2023-09-28T12:55:49Z</time></trkpt><trkpt lat="58.043458" lon="38.857017"><ele>101.0</ele><time>2023-09-28T12:55:51Z</time></trkpt><trkpt lat="58.043545" lon="38.857053"><ele>100.0</ele><time>2023-09-28T12:55:53Z</time></trkpt><trkpt lat="58.043627" lon="38.857057"><ele>100.0</ele><time>2023-09-28T12:55:55Z</time></trkpt><trkpt lat="58.043728" lon="38.857063"><ele>101.0</ele><time>2023-09-28T12:55:57Z</time></trkpt><trkpt lat="58.043817" lon="38.857088"><ele>100.0</ele><time>2023-09-28T12:55:59Z</time></trkpt><trkpt lat="58.043928" lon="38.857057"><ele>100.0</ele><time>2023-09-28T12:56:01Z</time></trkpt><trkpt lat="58.04401" lon="38.857098"><ele>100.0</ele><time>2023-09-28T12:56:08Z</time></trkpt><trkpt lat="58.044113" lon="38.857215"><ele>99.0</ele><time>2023-09-28T12:56:13Z</time></trkpt><trkpt lat="58.044245" lon="38.857288"><ele>98.0</ele><time>2023-09-28T12:56:15Z</time></trkpt><trkpt lat="58.04432" lon="38.857338"><ele>98.0</ele><time>2023-09-28T12:56:16Z</time></trkpt><trkpt lat="58.044398" lon="38.85737"><ele>98.0</ele><time>2023-09-28T12:56:17Z</time></trkpt><trkpt lat="58.04448" lon="38.857415"><ele>98.0</ele><time>2023-09-28T12:56:18Z</time></trkpt><trkpt lat="58.044567" lon="38.857475"><ele>98.0</ele><time>2023-09-28T12:56:19Z</time></trkpt><trkpt lat="58.04465" lon="38.857542"><ele>98.0</ele><time>2023-09-28T12:56:20Z</time></trkpt><trkpt lat="58.044733" lon="38.857567"><ele>98.0</ele><time>2023-09-28T12:56:21Z</time></trkpt><trkpt lat="58.044815" lon="38.857627"><ele>98.0</ele><time>2023-09-28T12:56:22Z</time></trkpt><trkpt lat="58.044888" lon="38.857685"><ele>97.0</ele><time>2023-09-28T12:56:23Z</time></trkpt><trkpt lat="58.044967" lon="38.857732"><ele>97.0</ele><time>2023-09-28T12:56:24Z</time></trkpt><trkpt lat="58.04504" lon="38.8578"><ele>96.0</ele><time>2023-09-28T12:56:25Z</time></trkpt><trkpt lat="58.045108" lon="38.857885"><ele>95.0</ele><time>2023-09-28T12:56:26Z</time></trkpt><trkpt lat="58.045183" lon="38.85793"><ele>95.0</ele><time>2023-09-28T12:56:27Z</time></trkpt><trkpt lat="58.045257" lon="38.857968"><ele>95.0</ele><time>2023-09-28T12:56:28Z</time></trkpt><trkpt lat="58.045325" lon="38.858023"><ele>94.0</ele><time>2023-09-28T12:56:29Z</time></trkpt><trkpt lat="58.045395" lon="38.858067"><ele>94.0</ele><time>2023-09-28T12:56:30Z</time></trkpt><trkpt lat="58.045468" lon="38.858153"><ele>95.0</ele><time>2023-09-28T12:56:31Z</time></trkpt><trkpt lat="58.045603" lon="38.858187"><ele>95.0</ele><time>2023-09-28T12:56:33Z</time></trkpt><trkpt lat="58.045735" lon="38.858263"><ele>95.0</ele><time>2023-09-28T12:56:35Z</time></trkpt><trkpt lat="58.04586" lon="38.858242"><ele>95.0</ele><time>2023-09-28T12:56:37Z</time></trkpt><trkpt lat="58.045962" lon="38.85827"><ele>95.0</ele><time>2023-09-28T12:56:40Z</time></trkpt><trkpt lat="58.046023" lon="38.858358"><ele>95.0</ele><time>2023-09-28T12:56:45Z</time></trkpt><trkpt lat="58.046097" lon="38.858478"><ele>94.0</ele><time>2023-09-28T12:56:48Z</time></trkpt><trkpt lat="58.046198" lon="38.85856"><ele>93.0</ele><time>2023-09-28T12:56:50Z</time></trkpt><trkpt lat="58.046312" lon="38.858645"><ele>93.0</ele><time>2023-09-28T12:56:52Z</time></trkpt><trkpt lat="58.046415" lon="38.858755"><ele>93.0</ele><time>2023-09-28T12:56:54Z</time></trkpt><trkpt lat="58.046512" lon="38.85877"><ele>93.0</ele><time>2023-09-28T12:56:56Z</time></trkpt><trkpt lat="58.046617" lon="38.858852"><ele>92.0</ele><time>2023-09-28T12:56:58Z</time></trkpt><trkpt lat="58.046705" lon="38.85889"><ele>92.0</ele><time>2023-09-28T12:57:00Z</time></trkpt><trkpt lat="58.046798" lon="38.85898"><ele>92.0</ele><time>2023-09-28T12:57:02Z</time></trkpt><trkpt lat="58.046883" lon="38.85905"><ele>93.0</ele><time>2023-09-28T12:57:04Z</time></trkpt><trkpt lat="58.04697" lon="38.859125"><ele>93.0</ele><time>2023-09-28T12:57:06Z</time></trkpt><trkpt lat="58.047043" lon="38.859133"><ele>93.0</ele><time>2023-09-28T12:57:08Z</time></trkpt><trkpt lat="58.047133" lon="38.85917"><ele>94.0</ele><time>2023-09-28T12:57:10Z</time></trkpt><trkpt lat="58.047198" lon="38.859235"><ele>96.0</ele><time>2023-09-28T12:57:16Z</time></trkpt><trkpt lat="58.047283" lon="38.85925"><ele>96.0</ele><time>2023-09-28T12:57:22Z</time></trkpt><trkpt lat="58.047368" lon="38.859187"><ele>96.0</ele><time>2023-09-28T12:57:25Z</time></trkpt><trkpt lat="58.047437" lon="38.859065"><ele>97.0</ele><time>2023-09-28T12:57:28Z</time></trkpt><trkpt lat="58.047488" lon="38.858967"><ele>98.0</ele><time>2023-09-28T12:57:33Z</time></trkpt><trkpt lat="58.047563" lon="38.85899"><ele>98.0</ele><time>2023-09-28T12:57:37Z</time></trkpt><trkpt lat="58.047605" lon="38.859132"><ele>98.0</ele><time>2023-09-28T12:57:40Z</time></trkpt><trkpt lat="58.047647" lon="38.859248"><ele>98.0</ele><time>2023-09-28T12:57:43Z</time></trkpt><trkpt lat="58.047738" lon="38.859215"><ele>97.0</ele><time>2023-09-28T12:57:47Z</time></trkpt><trkpt lat="58.047822" lon="38.859123"><ele>98.0</ele><time>2023-09-28T12:57:50Z</time></trkpt><trkpt lat="58.047897" lon="38.859113"><ele>98.0</ele><time>2023-09-28T12:57:53Z</time></trkpt><trkpt lat="58.047975" lon="38.859195"><ele>98.0</ele><time>2023-09-28T12:57:56Z</time></trkpt><trkpt lat="58.048053" lon="38.859268"><ele>98.0</ele><time>2023-09-28T12:57:59Z</time></trkpt><trkpt lat="58.048138" lon="38.859362"><ele>98.0</ele><time>2023-09-28T12:58:02Z</time></trkpt><trkpt lat="58.048208" lon="38.85942"><ele>98.0</ele><time>2023-09-28T12:58:04Z</time></trkpt><trkpt lat="58.048293" lon="38.859452"><ele>97.0</ele><time>2023-09-28T12:58:06Z</time></trkpt><trkpt lat="58.04836" lon="38.85953"><ele>97.0</ele><time>2023-09-28T12:58:08Z</time></trkpt><trkpt lat="58.048423" lon="38.859627"><ele>97.0</ele><time>2023-09-28T12:58:10Z</time></trkpt><trkpt lat="58.048483" lon="38.859715"><ele>96.0</ele><time>2023-09-28T12:58:12Z</time></trkpt><trkpt lat="58.04854" lon="38.859805"><ele>96.0</ele><time>2023-09-28T12:58:16Z</time></trkpt><trkpt lat="58.048618" lon="38.859828"><ele>96.0</ele><time>2023-09-28T12:58:20Z</time></trkpt><trkpt lat="58.048682" lon="38.859757"><ele>95.0</ele><time>2023-09-28T12:58:25Z</time></trkpt><trkpt lat="58.048682" lon="38.859592"><ele>95.0</ele><time>2023-09-28T12:58:29Z</time></trkpt><trkpt lat="58.048688" lon="38.859435"><ele>95.0</ele><time>2023-09-28T12:58:32Z</time></trkpt><trkpt lat="58.048715" lon="38.859268"><ele>96.0</ele><time>2023-09-28T12:58:35Z</time></trkpt><trkpt lat="58.048753" lon="38.859078"><ele>97.0</ele><time>2023-09-28T12:58:38Z</time></trkpt><trkpt lat="58.048782" lon="38.858953"><ele>97.0</ele><time>2023-09-28T12:58:40Z</time></trkpt><trkpt lat="58.048848" lon="38.85884"><ele>98.0</ele><time>2023-09-28T12:58:43Z</time></trkpt><trkpt lat="58.048907" lon="38.8587"><ele>99.0</ele><time>2023-09-28T12:58:46Z</time></trkpt><trkpt lat="58.048945" lon="38.858567"><ele>98.0</ele><time>2023-09-28T12:58:48Z</time></trkpt><trkpt lat="58.048992" lon="38.858443"><ele>98.0</ele><time>2023-09-28T12:58:49Z</time></trkpt><trkpt lat="58.04905" lon="38.858342"><ele>98.0</ele><time>2023-09-28T12:58:50Z</time></trkpt><trkpt lat="58.049145" lon="38.85813"><ele>97.0</ele><time>2023-09-28T12:58:52Z</time></trkpt><trkpt lat="58.04918" lon="38.857995"><ele>96.0</ele><time>2023-09-28T12:58:53Z</time></trkpt><trkpt lat="58.049228" lon="38.857858"><ele>95.0</ele><time>2023-09-28T12:58:54Z</time></trkpt><trkpt lat="58.049277" lon="38.857713"><ele>95.0</ele><time>2023-09-28T12:58:55Z</time></trkpt><trkpt lat="58.049318" lon="38.857562"><ele>95.0</ele><time>2023-09-28T12:58:56Z</time></trkpt><trkpt lat="58.049373" lon="38.857405"><ele>94.0</ele><time>2023-09-28T12:58:57Z</time></trkpt><trkpt lat="58.049428" lon="38.857235"><ele>93.0</ele><time>2023-09-28T12:58:58Z</time></trkpt><trkpt lat="58.049488" lon="38.857085"><ele>94.0</ele><time>2023-09-28T12:58:59Z</time></trkpt><trkpt lat="58.049523" lon="38.856932"><ele>94.0</ele><time>2023-09-28T12:59:00Z</time></trkpt><trkpt lat="58.049558" lon="38.856772"><ele>94.0</ele><time>2023-09-28T12:59:01Z</time></trkpt><trkpt lat="58.049598" lon="38.856653"><ele>94.0</ele><time>2023-09-28T12:59:02Z</time></trkpt><trkpt lat="58.049628" lon="38.856493"><ele>94.0</ele><time>2023-09-28T12:59:03Z</time></trkpt><trkpt lat="58.049648" lon="38.856345"><ele>93.0</ele><time>2023-09-28T12:59:04Z</time></trkpt><trkpt lat="58.049712" lon="38.856162"><ele>92.0</ele><time>2023-09-28T12:59:06Z</time></trkpt><trkpt lat="58.049755" lon="38.855928"><ele>93.0</ele><time>2023-09-28T12:59:08Z</time></trkpt><trkpt lat="58.049792" lon="38.855718"><ele>93.0</ele><time>2023-09-28T12:59:10Z</time></trkpt><trkpt lat="58.049825" lon="38.855503"><ele>93.0</ele><time>2023-09-28T12:59:12Z</time></trkpt><trkpt lat="58.049888" lon="38.8553"><ele>93.0</ele><time>2023-09-28T12:59:14Z</time></trkpt><trkpt lat="58.049925" lon="38.855105"><ele>93.0</ele><time>2023-09-28T12:59:16Z</time></trkpt><trkpt lat="58.049967" lon="38.85494"><ele>92.0</ele><time>2023-09-28T12:59:18Z</time></trkpt><trkpt lat="58.049968" lon="38.854743"><ele>93.0</ele><time>2023-09-28T12:59:20Z</time></trkpt><trkpt lat="58.049993" lon="38.854575"><ele>92.0</ele><time>2023-09-28T12:59:22Z</time></trkpt><trkpt lat="58.050018" lon="38.854443"><ele>93.0</ele><time>2023-09-28T12:59:24Z</time></trkpt><trkpt lat="58.050053" lon="38.854312"><ele>93.0</ele><time>2023-09-28T12:59:26Z</time></trkpt><trkpt lat="58.050095" lon="38.854177"><ele>92.0</ele><time>2023-09-28T12:59:28Z</time></trkpt><trkpt lat="58.050118" lon="38.854042"><ele>93.0</ele><time>2023-09-28T12:59:30Z</time></trkpt><trkpt lat="58.050152" lon="38.85386"><ele>93.0</ele><time>2023-09-28T12:59:33Z</time></trkpt><trkpt lat="58.050167" lon="38.853722"><ele>93.0</ele><time>2023-09-28T12:59:35Z</time></trkpt><trkpt lat="58.050188" lon="38.853523"><ele>92.0</ele><time>2023-09-28T12:59:38Z</time></trkpt><trkpt lat="58.050208" lon="38.853378"><ele>92.0</ele><time>2023-09-28T12:59:40Z</time></trkpt><trkpt lat="58.050228" lon="38.853245"><ele>92.0</ele><time>2023-09-28T12:59:42Z</time></trkpt><trkpt lat="58.050267" lon="38.85308"><ele>92.0</ele><time>2023-09-28T12:59:45Z</time></trkpt><trkpt lat="58.050288" lon="38.85295"><ele>92.0</ele><time>2023-09-28T12:59:48Z</time></trkpt><trkpt lat="58.050318" lon="38.85282"><ele>92.0</ele><time>2023-09-28T12:59:51Z</time></trkpt><trkpt lat="58.050352" lon="38.852653"><ele>93.0</ele><time>2023-09-28T12:59:54Z</time></trkpt><trkpt lat="58.0504" lon="38.852497"><ele>93.0</ele><time>2023-09-28T12:59:57Z</time></trkpt><trkpt lat="58.050447" lon="38.85238"><ele>93.0</ele><time>2023-09-28T12:59:59Z</time></trkpt><trkpt lat="58.0505" lon="38.852248"><ele>93.0</ele><time>2023-09-28T13:00:01Z</time></trkpt><trkpt lat="58.050557" lon="38.852117"><ele>93.0</ele><time>2023-09-28T13:00:03Z</time></trkpt><trkpt lat="58.050635" lon="38.851965"><ele>93.0</ele><time>2023-09-28T13:00:05Z</time></trkpt><trkpt lat="58.05068" lon="38.851807"><ele>92.0</ele><time>2023-09-28T13:00:07Z</time></trkpt><trkpt lat="58.050745" lon="38.851628"><ele>93.0</ele><time>2023-09-28T13:00:09Z</time></trkpt><trkpt lat="58.050818" lon="38.851472"><ele>93.0</ele><time>2023-09-28T13:00:11Z</time></trkpt><trkpt lat="58.050892" lon="38.851338"><ele>94.0</ele><time>2023-09-28T13:00:13Z</time></trkpt><trkpt lat="58.050957" lon="38.851185"><ele>94.0</ele><time>2023-09-28T13:00:15Z</time></trkpt><trkpt lat="58.050997" lon="38.851013"><ele>93.0</ele><time>2023-09-28T13:00:17Z</time></trkpt><trkpt lat="58.051048" lon="38.850862"><ele>94.0</ele><time>2023-09-28T13:00:19Z</time></trkpt><trkpt lat="58.05111" lon="38.850732"><ele>94.0</ele><time>2023-09-28T13:00:21Z</time></trkpt><trkpt lat="58.051152" lon="38.850552"><ele>93.0</ele><time>2023-09-28T13:00:23Z</time></trkpt><trkpt lat="58.051203" lon="38.8504"><ele>92.0</ele><time>2023-09-28T13:00:25Z</time></trkpt><trkpt lat="58.051275" lon="38.850267"><ele>92.0</ele><time>2023-09-28T13:00:27Z</time></trkpt><trkpt lat="58.051303" lon="38.850095"><ele>91.0</ele><time>2023-09-28T13:00:29Z</time></trkpt><trkpt lat="58.051368" lon="38.849958"><ele>91.0</ele><time>2023-09-28T13:00:31Z</time></trkpt><trkpt lat="58.051428" lon="38.849798"><ele>92.0</ele><time>2023-09-28T13:00:33Z</time></trkpt><trkpt lat="58.051483" lon="38.84963"><ele>92.0</ele><time>2023-09-28T13:00:35Z</time></trkpt><trkpt lat="58.051505" lon="38.849473"><ele>91.0</ele><time>2023-09-28T13:00:37Z</time></trkpt><trkpt lat="58.051532" lon="38.849317"><ele>91.0</ele><time>2023-09-28T13:00:39Z</time></trkpt><trkpt lat="58.05156" lon="38.849163"><ele>91.0</ele><time>2023-09-28T13:00:41Z</time></trkpt><trkpt lat="58.05163" lon="38.849008"><ele>91.0</ele><time>2023-09-28T13:00:43Z</time></trkpt><trkpt lat="58.05171" lon="38.848837"><ele>91.0</ele><time>2023-09-28T13:00:45Z</time></trkpt><trkpt lat="58.05174" lon="38.848692"><ele>91.0</ele><time>2023-09-28T13:00:47Z</time></trkpt><trkpt lat="58.05177" lon="38.848537"><ele>91.0</ele><time>2023-09-28T13:00:49Z</time></trkpt><trkpt lat="58.051798" lon="38.848343"><ele>91.0</ele><time>2023-09-28T13:00:51Z</time></trkpt><trkpt lat="58.051822" lon="38.848195"><ele>90.0</ele><time>2023-09-28T13:00:53Z</time></trkpt><trkpt lat="58.051845" lon="38.848053"><ele>91.0</ele><time>2023-09-28T13:00:55Z</time></trkpt><trkpt lat="58.051855" lon="38.847893"><ele>90.0</ele><time>2023-09-28T13:00:57Z</time></trkpt><trkpt lat="58.05187" lon="38.847735"><ele>91.0</ele><time>2023-09-28T13:00:59Z</time></trkpt><trkpt lat="58.051877" lon="38.847597"><ele>91.0</ele><time>2023-09-28T13:01:01Z</time></trkpt><trkpt lat="58.051908" lon="38.847458"><ele>92.0</ele><time>2023-09-28T13:01:03Z</time></trkpt><trkpt lat="58.051923" lon="38.847312"><ele>92.0</ele><time>2023-09-28T13:01:04Z</time></trkpt><trkpt lat="58.051928" lon="38.847175"><ele>92.0</ele><time>2023-09-28T13:01:06Z</time></trkpt><trkpt lat="58.051948" lon="38.847037"><ele>92.0</ele><time>2023-09-28T13:01:08Z</time></trkpt><trkpt lat="58.051977" lon="38.84691"><ele>92.0</ele><time>2023-09-28T13:01:10Z</time></trkpt><trkpt lat="58.052022" lon="38.846782"><ele>92.0</ele><time>2023-09-28T13:01:12Z</time></trkpt><trkpt lat="58.052093" lon="38.846672"><ele>92.0</ele><time>2023-09-28T13:01:14Z</time></trkpt><trkpt lat="58.052163" lon="38.846543"><ele>92.0</ele><time>2023-09-28T13:01:16Z</time></trkpt><trkpt lat="58.052213" lon="38.846393"><ele>93.0</ele><time>2023-09-28T13:01:18Z</time></trkpt><trkpt lat="58.052262" lon="38.846212"><ele>93.0</ele><time>2023-09-28T13:01:20Z</time></trkpt><trkpt lat="58.052312" lon="38.846052"><ele>92.0</ele><time>2023-09-28T13:01:22Z</time></trkpt><trkpt lat="58.052367" lon="38.845903"><ele>92.0</ele><time>2023-09-28T13:01:24Z</time></trkpt><trkpt lat="58.052365" lon="38.84572"><ele>92.0</ele><time>2023-09-28T13:01:27Z</time></trkpt><trkpt lat="58.052412" lon="38.845513"><ele>91.0</ele><time>2023-09-28T13:01:30Z</time></trkpt><trkpt lat="58.052432" lon="38.845375"><ele>90.0</ele><time>2023-09-28T13:01:33Z</time></trkpt><trkpt lat="58.052452" lon="38.84523"><ele>89.0</ele><time>2023-09-28T13:01:35Z</time></trkpt><trkpt lat="58.052488" lon="38.845098"><ele>90.0</ele><time>2023-09-28T13:01:38Z</time></trkpt><trkpt lat="58.052527" lon="38.844953"><ele>90.0</ele><time>2023-09-28T13:01:41Z</time></trkpt><trkpt lat="58.052573" lon="38.84477"><ele>90.0</ele><time>2023-09-28T13:01:44Z</time></trkpt><trkpt lat="58.052623" lon="38.844605"><ele>90.0</ele><time>2023-09-28T13:01:46Z</time></trkpt><trkpt lat="58.052675" lon="38.844437"><ele>90.0</ele><time>2023-09-28T13:01:48Z</time></trkpt><trkpt lat="58.052725" lon="38.844283"><ele>89.0</ele><time>2023-09-28T13:01:50Z</time></trkpt><trkpt lat="58.052773" lon="38.844168"><ele>89.0</ele><time>2023-09-28T13:01:52Z</time></trkpt><trkpt lat="58.05283" lon="38.84402"><ele>89.0</ele><time>2023-09-28T13:01:54Z</time></trkpt><trkpt lat="58.052858" lon="38.843858"><ele>90.0</ele><time>2023-09-28T13:01:56Z</time></trkpt><trkpt lat="58.052908" lon="38.843738"><ele>90.0</ele><time>2023-09-28T13:01:58Z</time></trkpt><trkpt lat="58.052958" lon="38.843597"><ele>89.0</ele><time>2023-09-28T13:02:00Z</time></trkpt><trkpt lat="58.053003" lon="38.843438"><ele>89.0</ele><time>2023-09-28T13:02:02Z</time></trkpt><trkpt lat="58.05306" lon="38.843258"><ele>89.0</ele><time>2023-09-28T13:02:04Z</time></trkpt><trkpt lat="58.053128" lon="38.843092"><ele>89.0</ele><time>2023-09-28T13:02:06Z</time></trkpt><trkpt lat="58.053193" lon="38.842895"><ele>90.0</ele><time>2023-09-28T13:02:08Z</time></trkpt><trkpt lat="58.053233" lon="38.842757"><ele>90.0</ele><time>2023-09-28T13:02:10Z</time></trkpt><trkpt lat="58.053278" lon="38.842612"><ele>90.0</ele><time>2023-09-28T13:02:12Z</time></trkpt><trkpt lat="58.053318" lon="38.842483"><ele>90.0</ele><time>2023-09-28T13:02:14Z</time></trkpt><trkpt lat="58.053343" lon="38.842332"><ele>90.0</ele><time>2023-09-28T13:02:16Z</time></trkpt><trkpt lat="58.053405" lon="38.842162"><ele>90.0</ele><time>2023-09-28T13:02:18Z</time></trkpt><trkpt lat="58.053448" lon="38.842032"><ele>89.0</ele><time>2023-09-28T13:02:20Z</time></trkpt><trkpt lat="58.053493" lon="38.841897"><ele>89.0</ele><time>2023-09-28T13:02:22Z</time></trkpt><trkpt lat="58.053533" lon="38.84178"><ele>88.0</ele><time>2023-09-28T13:02:24Z</time></trkpt><trkpt lat="58.053572" lon="38.841653"><ele>88.0</ele><time>2023-09-28T13:02:26Z</time></trkpt><trkpt lat="58.053612" lon="38.841502"><ele>90.0</ele><time>2023-09-28T13:02:28Z</time></trkpt><trkpt lat="58.053652" lon="38.841345"><ele>91.0</ele><time>2023-09-28T13:02:29Z</time></trkpt><trkpt lat="58.053675" lon="38.841187"><ele>92.0</ele><time>2023-09-28T13:02:31Z</time></trkpt><trkpt lat="58.053733" lon="38.841023"><ele>92.0</ele><time>2023-09-28T13:02:33Z</time></trkpt><trkpt lat="58.053782" lon="38.840893"><ele>90.0</ele><time>2023-09-28T13:02:35Z</time></trkpt><trkpt lat="58.053825" lon="38.8407"><ele>88.0</ele><time>2023-09-28T13:02:38Z</time></trkpt><trkpt lat="58.053845" lon="38.840557"><ele>88.0</ele><time>2023-09-28T13:02:40Z</time></trkpt><trkpt lat="58.053877" lon="38.840432"><ele>88.0</ele><time>2023-09-28T13:02:42Z</time></trkpt><trkpt lat="58.05391" lon="38.840283"><ele>88.0</ele><time>2023-09-28T13:02:44Z</time></trkpt><trkpt lat="58.053995" lon="38.84008"><ele>89.0</ele><time>2023-09-28T13:02:46Z</time></trkpt><trkpt lat="58.05405" lon="38.83997"><ele>89.0</ele><time>2023-09-28T13:02:47Z</time></trkpt><trkpt lat="58.054152" lon="38.839805"><ele>88.0</ele><time>2023-09-28T13:02:49Z</time></trkpt><trkpt lat="58.05423" lon="38.83969"><ele>88.0</ele><time>2023-09-28T13:02:51Z</time></trkpt><trkpt lat="58.054283" lon="38.83955"><ele>88.0</ele><time>2023-09-28T13:02:53Z</time></trkpt><trkpt lat="58.054333" lon="38.839413"><ele>88.0</ele><time>2023-09-28T13:02:55Z</time></trkpt><trkpt lat="58.0544" lon="38.83927"><ele>88.0</ele><time>2023-09-28T13:02:57Z</time></trkpt><trkpt lat="58.054458" lon="38.839125"><ele>88.0</ele><time>2023-09-28T13:02:59Z</time></trkpt><trkpt lat="58.054528" lon="38.838958"><ele>88.0</ele><time>2023-09-28T13:03:01Z</time></trkpt><trkpt lat="58.054567" lon="38.838793"><ele>87.0</ele><time>2023-09-28T13:03:03Z</time></trkpt><trkpt lat="58.054613" lon="38.838637"><ele>87.0</ele><time>2023-09-28T13:03:05Z</time></trkpt><trkpt lat="58.054678" lon="38.838467"><ele>87.0</ele><time>2023-09-28T13:03:07Z</time></trkpt><trkpt lat="58.054733" lon="38.83831"><ele>87.0</ele><time>2023-09-28T13:03:09Z</time></trkpt><trkpt lat="58.054803" lon="38.838157"><ele>87.0</ele><time>2023-09-28T13:03:11Z</time></trkpt><trkpt lat="58.054857" lon="38.838027"><ele>88.0</ele><time>2023-09-28T13:03:13Z</time></trkpt><trkpt lat="58.054897" lon="38.837875"><ele>88.0</ele><time>2023-09-28T13:03:15Z</time></trkpt><trkpt lat="58.05495" lon="38.837692"><ele>87.0</ele><time>2023-09-28T13:03:17Z</time></trkpt><trkpt lat="58.05501" lon="38.837523"><ele>87.0</ele><time>2023-09-28T13:03:19Z</time></trkpt><trkpt lat="58.05505" lon="38.837358"><ele>86.0</ele><time>2023-09-28T13:03:21Z</time></trkpt><trkpt lat="58.055112" lon="38.83721"><ele>86.0</ele><time>2023-09-28T13:03:23Z</time></trkpt><trkpt lat="58.055172" lon="38.83707"><ele>86.0</ele><time>2023-09-28T13:03:25Z</time></trkpt><trkpt lat="58.055208" lon="38.836925"><ele>86.0</ele><time>2023-09-28T13:03:27Z</time></trkpt><trkpt lat="58.055258" lon="38.836798"><ele>86.0</ele><time>2023-09-28T13:03:29Z</time></trkpt><trkpt lat="58.055305" lon="38.836615"><ele>87.0</ele><time>2023-09-28T13:03:31Z</time></trkpt><trkpt lat="58.055353" lon="38.836447"><ele>86.0</ele><time>2023-09-28T13:03:33Z</time></trkpt><trkpt lat="58.055412" lon="38.836295"><ele>86.0</ele><time>2023-09-28T13:03:35Z</time></trkpt><trkpt lat="58.055453" lon="38.836093"><ele>87.0</ele><time>2023-09-28T13:03:37Z</time></trkpt><trkpt lat="58.055487" lon="38.835897"><ele>88.0</ele><time>2023-09-28T13:03:39Z</time></trkpt><trkpt lat="58.055543" lon="38.835692"><ele>89.0</ele><time>2023-09-28T13:03:41Z</time></trkpt><trkpt lat="58.055612" lon="38.835515"><ele>87.0</ele><time>2023-09-28T13:03:43Z</time></trkpt><trkpt lat="58.055657" lon="38.835378"><ele>88.0</ele><time>2023-09-28T13:03:45Z</time></trkpt><trkpt lat="58.055708" lon="38.835193"><ele>88.0</ele><time>2023-09-28T13:03:47Z</time></trkpt><trkpt lat="58.055753" lon="38.835002"><ele>89.0</ele><time>2023-09-28T13:03:49Z</time></trkpt><trkpt lat="58.05582" lon="38.834823"><ele>90.0</ele><time>2023-09-28T13:03:51Z</time></trkpt><trkpt lat="58.055893" lon="38.83468"><ele>90.0</ele><time>2023-09-28T13:03:53Z</time></trkpt><trkpt lat="58.0559" lon="38.834477"><ele>89.0</ele><time>2023-09-28T13:03:55Z</time></trkpt><trkpt lat="58.05594" lon="38.834335"><ele>88.0</ele><time>2023-09-28T13:03:57Z</time></trkpt><trkpt lat="58.056005" lon="38.834173"><ele>89.0</ele><time>2023-09-28T13:03:59Z</time></trkpt><trkpt lat="58.05604" lon="38.834013"><ele>89.0</ele><time>2023-09-28T13:04:01Z</time></trkpt><trkpt lat="58.056122" lon="38.833858"><ele>88.0</ele><time>2023-09-28T13:04:03Z</time></trkpt><trkpt lat="58.05621" lon="38.833723"><ele>90.0</ele><time>2023-09-28T13:04:05Z</time></trkpt><trkpt lat="58.056258" lon="38.833592"><ele>90.0</ele><time>2023-09-28T13:04:07Z</time></trkpt><trkpt lat="58.056337" lon="38.833455"><ele>90.0</ele><time>2023-09-28T13:04:09Z</time></trkpt><trkpt lat="58.056333" lon="38.833248"><ele>89.0</ele><time>2023-09-28T13:04:11Z</time></trkpt><trkpt lat="58.056293" lon="38.833047"><ele>89.0</ele><time>2023-09-28T13:04:14Z</time></trkpt><trkpt lat="58.056232" lon="38.832967"><ele>92.0</ele><time>2023-09-28T13:04:18Z</time></trkpt><trkpt lat="58.057472" lon="38.831297"><ele>89.0</ele><time>2023-09-28T13:23:45Z</time></trkpt><trkpt lat="58.057388" lon="38.831252"><ele>89.0</ele><time>2023-09-28T13:23:51Z</time></trkpt><trkpt lat="58.057415" lon="38.831078"><ele>89.0</ele><time>2023-09-28T13:23:57Z</time></trkpt><trkpt lat="58.057495" lon="38.830938"><ele>89.0</ele><time>2023-09-28T13:24:01Z</time></trkpt><trkpt lat="58.05755" lon="38.830825"><ele>88.0</ele><time>2023-09-28T13:24:03Z</time></trkpt><trkpt lat="58.057603" lon="38.830697"><ele>89.0</ele><time>2023-09-28T13:24:05Z</time></trkpt><trkpt lat="58.057662" lon="38.830582"><ele>89.0</ele><time>2023-09-28T13:24:07Z</time></trkpt><trkpt lat="58.057725" lon="38.83048"><ele>88.0</ele><time>2023-09-28T13:24:09Z</time></trkpt><trkpt lat="58.05779" lon="38.830388"><ele>88.0</ele><time>2023-09-28T13:24:11Z</time></trkpt><trkpt lat="58.057867" lon="38.83026"><ele>89.0</ele><time>2023-09-28T13:24:14Z</time></trkpt><trkpt lat="58.057937" lon="38.830128"><ele>90.0</ele><time>2023-09-28T13:24:17Z</time></trkpt><trkpt lat="58.05799" lon="38.830005"><ele>88.0</ele><time>2023-09-28T13:24:20Z</time></trkpt><trkpt lat="58.05804" lon="38.8299"><ele>88.0</ele><time>2023-09-28T13:24:22Z</time></trkpt><trkpt lat="58.0581" lon="38.829795"><ele>88.0</ele><time>2023-09-28T13:24:24Z</time></trkpt><trkpt lat="58.058162" lon="38.829688"><ele>87.0</ele><time>2023-09-28T13:24:26Z</time></trkpt><trkpt lat="58.058223" lon="38.829577"><ele>87.0</ele><time>2023-09-28T13:24:28Z</time></trkpt><trkpt lat="58.058288" lon="38.829463"><ele>87.0</ele><time>2023-09-28T13:24:30Z</time></trkpt><trkpt lat="58.058352" lon="38.829362"><ele>87.0</ele><time>2023-09-28T13:24:32Z</time></trkpt><trkpt lat="58.058415" lon="38.82928"><ele>87.0</ele><time>2023-09-28T13:24:34Z</time></trkpt><trkpt lat="58.05848" lon="38.829198"><ele>87.0</ele><time>2023-09-28T13:24:36Z</time></trkpt><trkpt lat="58.058543" lon="38.829112"><ele>87.0</ele><time>2023-09-28T13:24:38Z</time></trkpt><trkpt lat="58.058593" lon="38.829015"><ele>87.0</ele><time>2023-09-28T13:24:40Z</time></trkpt><trkpt lat="58.058642" lon="38.828872"><ele>87.0</ele><time>2023-09-28T13:24:43Z</time></trkpt><trkpt lat="58.058685" lon="38.828713"><ele>89.0</ele><time>2023-09-28T13:24:47Z</time></trkpt><trkpt lat="58.058728" lon="38.828573"><ele>89.0</ele><time>2023-09-28T13:24:50Z</time></trkpt><trkpt lat="58.058772" lon="38.828427"><ele>89.0</ele><time>2023-09-28T13:24:53Z</time></trkpt><trkpt lat="58.058815" lon="38.828272"><ele>89.0</ele><time>2023-09-28T13:24:56Z</time></trkpt><trkpt lat="58.058865" lon="38.828127"><ele>89.0</ele><time>2023-09-28T13:24:59Z</time></trkpt><trkpt lat="58.058908" lon="38.828017"><ele>89.0</ele><time>2023-09-28T13:25:02Z</time></trkpt><trkpt lat="58.058948" lon="38.82787"><ele>90.0</ele><time>2023-09-28T13:25:06Z</time></trkpt><trkpt lat="58.058987" lon="38.827742"><ele>90.0</ele><time>2023-09-28T13:25:10Z</time></trkpt><trkpt lat="58.059017" lon="38.827618"><ele>91.0</ele><time>2023-09-28T13:25:15Z</time></trkpt><trkpt lat="58.059057" lon="38.827472"><ele>91.0</ele><time>2023-09-28T13:25:21Z</time></trkpt><trkpt lat="58.059093" lon="38.827343"><ele>92.0</ele><time>2023-09-28T13:25:27Z</time></trkpt><trkpt lat="58.059135" lon="38.82722"><ele>93.0</ele><time>2023-09-28T13:25:33Z</time></trkpt><trkpt lat="58.05917" lon="38.827095"><ele>94.0</ele><time>2023-09-28T13:25:39Z</time></trkpt><trkpt lat="58.059217" lon="38.826972"><ele>94.0</ele><time>2023-09-28T13:25:44Z</time></trkpt><trkpt lat="58.059257" lon="38.826852"><ele>94.0</ele><time>2023-09-28T13:25:48Z</time></trkpt><trkpt lat="58.059315" lon="38.826715"><ele>94.0</ele><time>2023-09-28T13:25:52Z</time></trkpt><trkpt lat="58.059377" lon="38.826597"><ele>94.0</ele><time>2023-09-28T13:25:55Z</time></trkpt><trkpt lat="58.059445" lon="38.826488"><ele>94.0</ele><time>2023-09-28T13:25:58Z</time></trkpt><trkpt lat="58.059485" lon="38.826373"><ele>95.0</ele><time>2023-09-28T13:26:01Z</time></trkpt><trkpt lat="58.059493" lon="38.826208"><ele>94.0</ele><time>2023-09-28T13:26:05Z</time></trkpt><trkpt lat="58.05944" lon="38.82609"><ele>93.0</ele><time>2023-09-28T13:26:10Z</time></trkpt><trkpt lat="58.059418" lon="38.825938"><ele>94.0</ele><time>2023-09-28T13:26:16Z</time></trkpt><trkpt lat="58.059422" lon="38.8258"><ele>94.0</ele><time>2023-09-28T13:26:20Z</time></trkpt><trkpt lat="58.059427" lon="38.825632"><ele>95.0</ele><time>2023-09-28T13:26:24Z</time></trkpt><trkpt lat="58.059417" lon="38.825498"><ele>95.0</ele><time>2023-09-28T13:26:27Z</time></trkpt><trkpt lat="58.05934" lon="38.825417"><ele>95.0</ele><time>2023-09-28T13:26:31Z</time></trkpt><trkpt lat="58.059302" lon="38.825278"><ele>95.0</ele><time>2023-09-28T13:26:35Z</time></trkpt><trkpt lat="58.05926" lon="38.825133"><ele>94.0</ele><time>2023-09-28T13:26:39Z</time></trkpt><trkpt lat="58.059245" lon="38.82499"><ele>95.0</ele><time>2023-09-28T13:26:44Z</time></trkpt><trkpt lat="58.059183" lon="38.82486"><ele>95.0</ele><time>2023-09-28T13:26:48Z</time></trkpt><trkpt lat="58.059132" lon="38.824752"><ele>95.0</ele><time>2023-09-28T13:26:51Z</time></trkpt><trkpt lat="58.059115" lon="38.824608"><ele>94.0</ele><time>2023-09-28T13:27:06Z</time></trkpt><trkpt lat="58.059093" lon="38.824473"><ele>94.0</ele><time>2023-09-28T13:27:13Z</time></trkpt><trkpt lat="58.059092" lon="38.824328"><ele>94.0</ele><time>2023-09-28T13:27:18Z</time></trkpt><trkpt lat="58.059148" lon="38.824198"><ele>94.0</ele><time>2023-09-28T13:27:22Z</time></trkpt><trkpt lat="58.059215" lon="38.824102"><ele>94.0</ele><time>2023-09-28T13:27:26Z</time></trkpt><trkpt lat="58.05927" lon="38.82398"><ele>94.0</ele><time>2023-09-28T13:27:31Z</time></trkpt><trkpt lat="58.05932" lon="38.82386"><ele>95.0</ele><time>2023-09-28T13:27:36Z</time></trkpt><trkpt lat="58.059375" lon="38.823763"><ele>94.0</ele><time>2023-09-28T13:27:41Z</time></trkpt><trkpt lat="58.059438" lon="38.823665"><ele>95.0</ele><time>2023-09-28T13:27:47Z</time></trkpt><trkpt lat="58.059495" lon="38.823568"><ele>94.0</ele><time>2023-09-28T13:27:55Z</time></trkpt><trkpt lat="58.059548" lon="38.823432"><ele>95.0</ele><time>2023-09-28T13:28:01Z</time></trkpt><trkpt lat="58.059592" lon="38.823267"><ele>94.0</ele><time>2023-09-28T13:28:05Z</time></trkpt><trkpt lat="58.059625" lon="38.82312"><ele>93.0</ele><time>2023-09-28T13:28:08Z</time></trkpt><trkpt lat="58.059658" lon="38.822967"><ele>93.0</ele><time>2023-09-28T13:28:12Z</time></trkpt><trkpt lat="58.059677" lon="38.822827"><ele>93.0</ele><time>2023-09-28T13:28:16Z</time></trkpt><trkpt lat="58.059678" lon="38.822683"><ele>94.0</ele><time>2023-09-28T13:28:21Z</time></trkpt><trkpt lat="58.059682" lon="38.822522"><ele>93.0</ele><time>2023-09-28T13:28:25Z</time></trkpt><trkpt lat="58.059683" lon="38.822362"><ele>94.0</ele><time>2023-09-28T13:28:28Z</time></trkpt><trkpt lat="58.059683" lon="38.822187"><ele>94.0</ele><time>2023-09-28T13:28:31Z</time></trkpt><trkpt lat="58.059688" lon="38.822047"><ele>94.0</ele><time>2023-09-28T13:28:33Z</time></trkpt><trkpt lat="58.0597" lon="38.821897"><ele>95.0</ele><time>2023-09-28T13:28:35Z</time></trkpt><trkpt lat="58.059722" lon="38.821762"><ele>95.0</ele><time>2023-09-28T13:28:37Z</time></trkpt><trkpt lat="58.05975" lon="38.8216"><ele>96.0</ele><time>2023-09-28T13:28:40Z</time></trkpt><trkpt lat="58.059777" lon="38.821448"><ele>96.0</ele><time>2023-09-28T13:28:49Z</time></trkpt><trkpt lat="58.059843" lon="38.821375"><ele>96.0</ele><time>2023-09-28T13:28:52Z</time></trkpt><trkpt lat="58.05989" lon="38.821245"><ele>95.0</ele><time>2023-09-28T13:28:55Z</time></trkpt><trkpt lat="58.059812" lon="38.821138"><ele>95.0</ele><time>2023-09-28T13:28:58Z</time></trkpt><trkpt lat="58.05976" lon="38.820963"><ele>95.0</ele><time>2023-09-28T13:29:01Z</time></trkpt><trkpt lat="58.059762" lon="38.820823"><ele>95.0</ele><time>2023-09-28T13:29:03Z</time></trkpt><trkpt lat="58.059777" lon="38.82068"><ele>96.0</ele><time>2023-09-28T13:29:05Z</time></trkpt><trkpt lat="58.059797" lon="38.820537"><ele>96.0</ele><time>2023-09-28T13:29:07Z</time></trkpt><trkpt lat="58.05982" lon="38.820387"><ele>97.0</ele><time>2023-09-28T13:29:09Z</time></trkpt><trkpt lat="58.059838" lon="38.820225"><ele>97.0</ele><time>2023-09-28T13:29:11Z</time></trkpt><trkpt lat="58.059845" lon="38.82007"><ele>97.0</ele><time>2023-09-28T13:29:13Z</time></trkpt><trkpt lat="58.059848" lon="38.81991"><ele>96.0</ele><time>2023-09-28T13:29:15Z</time></trkpt><trkpt lat="58.059857" lon="38.819753"><ele>96.0</ele><time>2023-09-28T13:29:17Z</time></trkpt><trkpt lat="58.05985" lon="38.819575"><ele>96.0</ele><time>2023-09-28T13:29:19Z</time></trkpt><trkpt lat="58.059853" lon="38.819417"><ele>96.0</ele><time>2023-09-28T13:29:21Z</time></trkpt><trkpt lat="58.059895" lon="38.819267"><ele>97.0</ele><time>2023-09-28T13:29:23Z</time></trkpt><trkpt lat="58.0599" lon="38.81913"><ele>96.0</ele><time>2023-09-28T13:29:25Z</time></trkpt><trkpt lat="58.059922" lon="38.819"><ele>97.0</ele><time>2023-09-28T13:29:27Z</time></trkpt><trkpt lat="58.059932" lon="38.81886"><ele>97.0</ele><time>2023-09-28T13:29:29Z</time></trkpt><trkpt lat="58.059945" lon="38.81872"><ele>97.0</ele><time>2023-09-28T13:29:31Z</time></trkpt><trkpt lat="58.059952" lon="38.818583"><ele>97.0</ele><time>2023-09-28T13:29:33Z</time></trkpt><trkpt lat="58.059952" lon="38.818385"><ele>97.0</ele><time>2023-09-28T13:29:36Z</time></trkpt><trkpt lat="58.059953" lon="38.818237"><ele>97.0</ele><time>2023-09-28T13:29:38Z</time></trkpt><trkpt lat="58.059955" lon="38.818088"><ele>97.0</ele><time>2023-09-28T13:29:40Z</time></trkpt><trkpt lat="58.05996" lon="38.817928"><ele>96.0</ele><time>2023-09-28T13:29:42Z</time></trkpt><trkpt lat="58.059972" lon="38.817768"><ele>97.0</ele><time>2023-09-28T13:29:44Z</time></trkpt><trkpt lat="58.059982" lon="38.817607"><ele>98.0</ele><time>2023-09-28T13:29:46Z</time></trkpt><trkpt lat="58.059998" lon="38.817453"><ele>98.0</ele><time>2023-09-28T13:29:48Z</time></trkpt><trkpt lat="58.060007" lon="38.817315"><ele>98.0</ele><time>2023-09-28T13:29:50Z</time></trkpt><trkpt lat="58.060003" lon="38.817162"><ele>98.0</ele><time>2023-09-28T13:29:52Z</time></trkpt><trkpt lat="58.05998" lon="38.816973"><ele>98.0</ele><time>2023-09-28T13:29:55Z</time></trkpt><trkpt lat="58.059992" lon="38.816788"><ele>98.0</ele><time>2023-09-28T13:29:58Z</time></trkpt><trkpt lat="58.06001" lon="38.816593"><ele>98.0</ele><time>2023-09-28T13:30:01Z</time></trkpt><trkpt lat="58.060028" lon="38.81639"><ele>98.0</ele><time>2023-09-28T13:30:04Z</time></trkpt><trkpt lat="58.060035" lon="38.816242"><ele>99.0</ele><time>2023-09-28T13:30:06Z</time></trkpt><trkpt lat="58.060048" lon="38.816092"><ele>99.0</ele><time>2023-09-28T13:30:08Z</time></trkpt><trkpt lat="58.060065" lon="38.815942"><ele>100.0</ele><time>2023-09-28T13:30:10Z</time></trkpt><trkpt lat="58.06008" lon="38.815798"><ele>100.0</ele><time>2023-09-28T13:30:12Z</time></trkpt><trkpt lat="58.060092" lon="38.815655"><ele>101.0</ele><time>2023-09-28T13:30:14Z</time></trkpt><trkpt lat="58.06008" lon="38.815478"><ele>101.0</ele><time>2023-09-28T13:30:16Z</time></trkpt><trkpt lat="58.060072" lon="38.815315"><ele>101.0</ele><time>2023-09-28T13:30:18Z</time></trkpt><trkpt lat="58.060082" lon="38.815143"><ele>101.0</ele><time>2023-09-28T13:30:20Z</time></trkpt><trkpt lat="58.060082" lon="38.814998"><ele>101.0</ele><time>2023-09-28T13:30:22Z</time></trkpt><trkpt lat="58.060093" lon="38.8148"><ele>100.0</ele><time>2023-09-28T13:30:25Z</time></trkpt><trkpt lat="58.060122" lon="38.814633"><ele>100.0</ele><time>2023-09-28T13:30:28Z</time></trkpt><trkpt lat="58.060133" lon="38.81444"><ele>99.0</ele><time>2023-09-28T13:30:31Z</time></trkpt><trkpt lat="58.060135" lon="38.814258"><ele>99.0</ele><time>2023-09-28T13:30:34Z</time></trkpt><trkpt lat="58.060145" lon="38.814093"><ele>100.0</ele><time>2023-09-28T13:30:38Z</time></trkpt><trkpt lat="58.060143" lon="38.813933"><ele>100.0</ele><time>2023-09-28T13:30:41Z</time></trkpt><trkpt lat="58.060157" lon="38.813793"><ele>100.0</ele><time>2023-09-28T13:30:44Z</time></trkpt><trkpt lat="58.060085" lon="38.813685"><ele>100.0</ele><time>2023-09-28T13:30:54Z</time></trkpt><trkpt lat="58.060012" lon="38.813648"><ele>101.0</ele><time>2023-09-28T13:30:57Z</time></trkpt><trkpt lat="58.060013" lon="38.8135"><ele>100.0</ele><time>2023-09-28T13:31:02Z</time></trkpt><trkpt lat="58.060025" lon="38.813363"><ele>99.0</ele><time>2023-09-28T13:31:05Z</time></trkpt><trkpt lat="58.060033" lon="38.813212"><ele>100.0</ele><time>2023-09-28T13:31:10Z</time></trkpt><trkpt lat="58.060052" lon="38.81308"><ele>100.0</ele><time>2023-09-28T13:31:13Z</time></trkpt><trkpt lat="58.060082" lon="38.81288"><ele>101.0</ele><time>2023-09-28T13:31:16Z</time></trkpt><trkpt lat="58.060088" lon="38.812732"><ele>100.0</ele><time>2023-09-28T13:31:18Z</time></trkpt><trkpt lat="58.060087" lon="38.812587"><ele>100.0</ele><time>2023-09-28T13:31:20Z</time></trkpt><trkpt lat="58.060105" lon="38.812392"><ele>101.0</ele><time>2023-09-28T13:31:23Z</time></trkpt><trkpt lat="58.060092" lon="38.812222"><ele>101.0</ele><time>2023-09-28T13:31:27Z</time></trkpt><trkpt lat="58.060027" lon="38.812163"><ele>101.0</ele><time>2023-09-28T13:31:29Z</time></trkpt><trkpt lat="58.059923" lon="38.81216"><ele>102.0</ele><time>2023-09-28T13:31:31Z</time></trkpt><trkpt lat="58.059805" lon="38.812107"><ele>102.0</ele><time>2023-09-28T13:31:33Z</time></trkpt><trkpt lat="58.059708" lon="38.811978"><ele>101.0</ele><time>2023-09-28T13:31:36Z</time></trkpt><trkpt lat="58.059632" lon="38.811908"><ele>102.0</ele><time>2023-09-28T13:31:38Z</time></trkpt><trkpt lat="58.059568" lon="38.811843"><ele>102.0</ele><time>2023-09-28T13:31:40Z</time></trkpt><trkpt lat="58.059482" lon="38.811813"><ele>102.0</ele><time>2023-09-28T13:31:42Z</time></trkpt><trkpt lat="58.059397" lon="38.811782"><ele>101.0</ele><time>2023-09-28T13:31:44Z</time></trkpt><trkpt lat="58.059313" lon="38.811743"><ele>101.0</ele><time>2023-09-28T13:31:46Z</time></trkpt><trkpt lat="58.059265" lon="38.811585"><ele>100.0</ele><time>2023-09-28T13:31:49Z</time></trkpt><trkpt lat="58.059265" lon="38.811377"><ele>101.0</ele><time>2023-09-28T13:31:52Z</time></trkpt><trkpt lat="58.05924" lon="38.811212"><ele>101.0</ele><time>2023-09-28T13:31:55Z</time></trkpt><trkpt lat="58.05916" lon="38.811168"><ele>101.0</ele><time>2023-09-28T13:31:57Z</time></trkpt><trkpt lat="58.059063" lon="38.811167"><ele>101.0</ele><time>2023-09-28T13:31:59Z</time></trkpt><trkpt lat="58.058975" lon="38.811173"><ele>101.0</ele><time>2023-09-28T13:32:01Z</time></trkpt><trkpt lat="58.05889" lon="38.811183"><ele>102.0</ele><time>2023-09-28T13:32:03Z</time></trkpt><trkpt lat="58.058813" lon="38.811192"><ele>102.0</ele><time>2023-09-28T13:32:05Z</time></trkpt><trkpt lat="58.058755" lon="38.811112"><ele>103.0</ele><time>2023-09-28T13:32:08Z</time></trkpt><trkpt lat="58.058767" lon="38.810922"><ele>103.0</ele><time>2023-09-28T13:32:11Z</time></trkpt><trkpt lat="58.058712" lon="38.810803"><ele>102.0</ele><time>2023-09-28T13:32:14Z</time></trkpt><trkpt lat="58.058628" lon="38.810693"><ele>102.0</ele><time>2023-09-28T13:32:17Z</time></trkpt><trkpt lat="58.058688" lon="38.810452"><ele>102.0</ele><time>2023-09-28T13:32:19Z</time></trkpt><trkpt lat="58.058697" lon="38.810233"><ele>103.0</ele><time>2023-09-28T13:32:21Z</time></trkpt><trkpt lat="58.058683" lon="38.810098"><ele>103.0</ele><time>2023-09-28T13:32:22Z</time></trkpt><trkpt lat="58.058647" lon="38.80994"><ele>103.0</ele><time>2023-09-28T13:32:25Z</time></trkpt><trkpt lat="58.058572" lon="38.809853"><ele>103.0</ele><time>2023-09-28T13:32:27Z</time></trkpt><trkpt lat="58.058495" lon="38.809777"><ele>103.0</ele><time>2023-09-28T13:32:29Z</time></trkpt><trkpt lat="58.058498" lon="38.809602"><ele>103.0</ele><time>2023-09-28T13:32:31Z</time></trkpt><trkpt lat="58.058513" lon="38.809398"><ele>102.0</ele><time>2023-09-28T13:32:33Z</time></trkpt><trkpt lat="58.058523" lon="38.809185"><ele>102.0</ele><time>2023-09-28T13:32:35Z</time></trkpt><trkpt lat="58.058523" lon="38.808993"><ele>102.0</ele><time>2023-09-28T13:32:37Z</time></trkpt><trkpt lat="58.058543" lon="38.808792"><ele>102.0</ele><time>2023-09-28T13:32:39Z</time></trkpt><trkpt lat="58.05855" lon="38.80856"><ele>102.0</ele><time>2023-09-28T13:32:41Z</time></trkpt><trkpt lat="58.058578" lon="38.808347"><ele>102.0</ele><time>2023-09-28T13:32:43Z</time></trkpt><trkpt lat="58.058575" lon="38.808123"><ele>104.0</ele><time>2023-09-28T13:32:45Z</time></trkpt><trkpt lat="58.058615" lon="38.807905"><ele>104.0</ele><time>2023-09-28T13:32:47Z</time></trkpt><trkpt lat="58.058617" lon="38.807697"><ele>104.0</ele><time>2023-09-28T13:32:49Z</time></trkpt></trkseg></trk></gpx>