<?xml version="1.0" encoding="UTF-8" standalone="no"?><gpx xmlns="http://www.topografix.com/GPX/1/1" xmlns:gpxtpx="http://www.garmin.com/xmlschemas/TrackPointExtension/v1" xmlns:xsi="http://www.w3.org/2001/XMLSchema-instance" creator="Sports Tracker" version="1.1" xsi:schemaLocation="http://www.topografix.com/GPX/1/1 http://www.topografix.com/GPX/1/1/gpx.xsd http://www.garmin.com/xmlschemas/TrackPointExtension/v1 http://www.garmin.com/xmlschemas/TrackPointExtensionv1.xsd"><metadata><name/><desc/><author><name>Александр</name></author></metadata><trk><name/><trkseg><trkpt lat="58.058508" lon="38.81671"><ele>105.0</ele><time>2023-07-11T09:45:51Z</time></trkpt><trkpt lat="58.05859" lon="38.816692"><ele>105.0</ele><time>2023-07-11T09:45:58Z</time></trkpt><trkpt lat="58.058638" lon="38.81685"><ele>105.0</ele><time>2023-07-11T09:46:01Z</time></trkpt><trkpt lat="58.058588" lon="38.816955"><ele>106.0</ele><time>2023-07-11T09:46:04Z</time></trkpt><trkpt lat="58.058498" lon="38.816912"><ele>105.0</ele><time>2023-07-11T09:46:08Z</time></trkpt><trkpt lat="58.058423" lon="38.816862"><ele>105.0</ele><time>2023-07-11T09:46:11Z</time></trkpt><trkpt lat="58.058318" lon="38.816813"><ele>104.0</ele><time>2023-07-11T09:46:14Z</time></trkpt><trkpt lat="58.058232" lon="38.816782"><ele>104.0</ele><time>2023-07-11T09:46:16Z</time></trkpt><trkpt lat="58.058138" lon="38.816795"><ele>103.0</ele><time>2023-07-11T09:46:18Z</time></trkpt><trkpt lat="58.058047" lon="38.8168"><ele>104.0</ele><time>2023-07-11T09:46:20Z</time></trkpt><trkpt lat="58.057963" lon="38.81679"><ele>104.0</ele><time>2023-07-11T09:46:22Z</time></trkpt><trkpt lat="58.057868" lon="38.816792"><ele>104.0</ele><time>2023-07-11T09:46:24Z</time></trkpt><trkpt lat="58.057763" lon="38.816763"><ele>103.0</ele><time>2023-07-11T09:46:26Z</time></trkpt><trkpt lat="58.057645" lon="38.816753"><ele>104.0</ele><time>2023-07-11T09:46:28Z</time></trkpt><trkpt lat="58.057553" lon="38.816722"><ele>104.0</ele><time>2023-07-11T09:46:30Z</time></trkpt><trkpt lat="58.057465" lon="38.816713"><ele>104.0</ele><time>2023-07-11T09:46:32Z</time></trkpt><trkpt lat="58.057318" lon="38.81688"><ele>105.0</ele><time>2023-07-11T09:46:34Z</time></trkpt><trkpt lat="58.057235" lon="38.816828"><ele>104.0</ele><time>2023-07-11T09:46:37Z</time></trkpt><trkpt lat="58.057162" lon="38.8168"><ele>104.0</ele><time>2023-07-11T09:46:39Z</time></trkpt><trkpt lat="58.057107" lon="38.816712"><ele>104.0</ele><time>2023-07-11T09:46:41Z</time></trkpt><trkpt lat="58.057037" lon="38.816643"><ele>103.0</ele><time>2023-07-11T09:46:43Z</time></trkpt><trkpt lat="58.056947" lon="38.816648"><ele>103.0</ele><time>2023-07-11T09:46:45Z</time></trkpt><trkpt lat="58.05686" lon="38.81656"><ele>103.0</ele><time>2023-07-11T09:46:47Z</time></trkpt><trkpt lat="58.056788" lon="38.816517"><ele>103.0</ele><time>2023-07-11T09:46:49Z</time></trkpt><trkpt lat="58.056702" lon="38.816462"><ele>104.0</ele><time>2023-07-11T09:46:52Z</time></trkpt><trkpt lat="58.056595" lon="38.81645"><ele>104.0</ele><time>2023-07-11T09:46:54Z</time></trkpt><trkpt lat="58.056498" lon="38.816405"><ele>104.0</ele><time>2023-07-11T09:46:57Z</time></trkpt><trkpt lat="58.056402" lon="38.816405"><ele>104.0</ele><time>2023-07-11T09:47:00Z</time></trkpt><trkpt lat="58.056305" lon="38.816407"><ele>102.0</ele><time>2023-07-11T09:47:03Z</time></trkpt><trkpt lat="58.056227" lon="38.81637"><ele>102.0</ele><time>2023-07-11T09:47:05Z</time></trkpt><trkpt lat="58.056128" lon="38.816322"><ele>102.0</ele><time>2023-07-11T09:47:07Z</time></trkpt><trkpt lat="58.05603" lon="38.816333"><ele>103.0</ele><time>2023-07-11T09:47:09Z</time></trkpt><trkpt lat="58.05595" lon="38.816335"><ele>102.0</ele><time>2023-07-11T09:47:11Z</time></trkpt><trkpt lat="58.055842" lon="38.816358"><ele>101.0</ele><time>2023-07-11T09:47:13Z</time></trkpt><trkpt lat="58.055733" lon="38.816335"><ele>101.0</ele><time>2023-07-11T09:47:15Z</time></trkpt><trkpt lat="58.055633" lon="38.816307"><ele>101.0</ele><time>2023-07-11T09:47:18Z</time></trkpt><trkpt lat="58.055553" lon="38.816287"><ele>101.0</ele><time>2023-07-11T09:47:20Z</time></trkpt><trkpt lat="58.055465" lon="38.81624"><ele>102.0</ele><time>2023-07-11T09:47:23Z</time></trkpt><trkpt lat="58.055375" lon="38.816217"><ele>102.0</ele><time>2023-07-11T09:47:26Z</time></trkpt><trkpt lat="58.055283" lon="38.81619"><ele>101.0</ele><time>2023-07-11T09:47:30Z</time></trkpt><trkpt lat="58.05521" lon="38.816167"><ele>101.0</ele><time>2023-07-11T09:47:33Z</time></trkpt><trkpt lat="58.055132" lon="38.816098"><ele>102.0</ele><time>2023-07-11T09:47:36Z</time></trkpt><trkpt lat="58.05506" lon="38.816133"><ele>102.0</ele><time>2023-07-11T09:47:38Z</time></trkpt><trkpt lat="58.054978" lon="38.81607"><ele>102.0</ele><time>2023-07-11T09:47:41Z</time></trkpt><trkpt lat="58.054978" lon="38.815915"><ele>102.0</ele><time>2023-07-11T09:47:43Z</time></trkpt><trkpt lat="58.055028" lon="38.815707"><ele>102.0</ele><time>2023-07-11T09:47:45Z</time></trkpt><trkpt lat="58.055053" lon="38.815537"><ele>102.0</ele><time>2023-07-11T09:47:47Z</time></trkpt><trkpt lat="58.05506" lon="38.815355"><ele>102.0</ele><time>2023-07-11T09:47:49Z</time></trkpt><trkpt lat="58.055078" lon="38.8152"><ele>102.0</ele><time>2023-07-11T09:47:51Z</time></trkpt><trkpt lat="58.055098" lon="38.815062"><ele>102.0</ele><time>2023-07-11T09:47:53Z</time></trkpt><trkpt lat="58.05511" lon="38.81487"><ele>102.0</ele><time>2023-07-11T09:47:55Z</time></trkpt><trkpt lat="58.055123" lon="38.814695"><ele>101.0</ele><time>2023-07-11T09:47:57Z</time></trkpt><trkpt lat="58.055135" lon="38.81456"><ele>101.0</ele><time>2023-07-11T09:47:59Z</time></trkpt><trkpt lat="58.055147" lon="38.814388"><ele>100.0</ele><time>2023-07-11T09:48:01Z</time></trkpt><trkpt lat="58.055148" lon="38.81424"><ele>100.0</ele><time>2023-07-11T09:48:03Z</time></trkpt><trkpt lat="58.055168" lon="38.814067"><ele>101.0</ele><time>2023-07-11T09:48:05Z</time></trkpt><trkpt lat="58.05518" lon="38.813898"><ele>101.0</ele><time>2023-07-11T09:48:07Z</time></trkpt><trkpt lat="58.055188" lon="38.813732"><ele>102.0</ele><time>2023-07-11T09:48:09Z</time></trkpt><trkpt lat="58.055193" lon="38.813572"><ele>103.0</ele><time>2023-07-11T09:48:11Z</time></trkpt><trkpt lat="58.055222" lon="38.813403"><ele>103.0</ele><time>2023-07-11T09:48:13Z</time></trkpt><trkpt lat="58.055232" lon="38.813213"><ele>103.0</ele><time>2023-07-11T09:48:15Z</time></trkpt><trkpt lat="58.055252" lon="38.813022"><ele>103.0</ele><time>2023-07-11T09:48:17Z</time></trkpt><trkpt lat="58.055258" lon="38.812837"><ele>103.0</ele><time>2023-07-11T09:48:19Z</time></trkpt><trkpt lat="58.055265" lon="38.812665"><ele>103.0</ele><time>2023-07-11T09:48:21Z</time></trkpt><trkpt lat="58.055278" lon="38.812502"><ele>103.0</ele><time>2023-07-11T09:48:23Z</time></trkpt><trkpt lat="58.055288" lon="38.812335"><ele>102.0</ele><time>2023-07-11T09:48:25Z</time></trkpt><trkpt lat="58.055292" lon="38.812163"><ele>102.0</ele><time>2023-07-11T09:48:27Z</time></trkpt><trkpt lat="58.0553" lon="38.811987"><ele>102.0</ele><time>2023-07-11T09:48:29Z</time></trkpt><trkpt lat="58.055298" lon="38.81183"><ele>102.0</ele><time>2023-07-11T09:48:31Z</time></trkpt><trkpt lat="58.055305" lon="38.811647"><ele>103.0</ele><time>2023-07-11T09:48:33Z</time></trkpt><trkpt lat="58.055335" lon="38.811465"><ele>103.0</ele><time>2023-07-11T09:48:35Z</time></trkpt><trkpt lat="58.055357" lon="38.811292"><ele>103.0</ele><time>2023-07-11T09:48:37Z</time></trkpt><trkpt lat="58.055358" lon="38.81114"><ele>103.0</ele><time>2023-07-11T09:48:39Z</time></trkpt><trkpt lat="58.05537" lon="38.810997"><ele>104.0</ele><time>2023-07-11T09:48:42Z</time></trkpt><trkpt lat="58.05536" lon="38.810853"><ele>104.0</ele><time>2023-07-11T09:48:45Z</time></trkpt><trkpt lat="58.055393" lon="38.810727"><ele>104.0</ele><time>2023-07-11T09:48:47Z</time></trkpt><trkpt lat="58.0554" lon="38.810562"><ele>103.0</ele><time>2023-07-11T09:48:49Z</time></trkpt><trkpt lat="58.055415" lon="38.81035"><ele>104.0</ele><time>2023-07-11T09:48:51Z</time></trkpt><trkpt lat="58.055437" lon="38.810135"><ele>105.0</ele><time>2023-07-11T09:48:53Z</time></trkpt><trkpt lat="58.055443" lon="38.80997"><ele>104.0</ele><time>2023-07-11T09:48:55Z</time></trkpt><trkpt lat="58.055437" lon="38.809783"><ele>105.0</ele><time>2023-07-11T09:48:57Z</time></trkpt><trkpt lat="58.055442" lon="38.809637"><ele>104.0</ele><time>2023-07-11T09:48:59Z</time></trkpt><trkpt lat="58.055445" lon="38.809473"><ele>104.0</ele><time>2023-07-11T09:49:01Z</time></trkpt><trkpt lat="58.055443" lon="38.809255"><ele>105.0</ele><time>2023-07-11T09:49:03Z</time></trkpt><trkpt lat="58.05543" lon="38.809103"><ele>105.0</ele><time>2023-07-11T09:49:04Z</time></trkpt><trkpt lat="58.055452" lon="38.808895"><ele>104.0</ele><time>2023-07-11T09:49:06Z</time></trkpt><trkpt lat="58.055473" lon="38.808665"><ele>104.0</ele><time>2023-07-11T09:49:08Z</time></trkpt><trkpt lat="58.055502" lon="38.808485"><ele>104.0</ele><time>2023-07-11T09:49:10Z</time></trkpt><trkpt lat="58.055515" lon="38.808332"><ele>104.0</ele><time>2023-07-11T09:49:12Z</time></trkpt><trkpt lat="58.055535" lon="38.808187"><ele>104.0</ele><time>2023-07-11T09:49:14Z</time></trkpt><trkpt lat="58.055532" lon="38.807997"><ele>104.0</ele><time>2023-07-11T09:49:16Z</time></trkpt><trkpt lat="58.055548" lon="38.807833"><ele>104.0</ele><time>2023-07-11T09:49:18Z</time></trkpt><trkpt lat="58.055562" lon="38.807628"><ele>104.0</ele><time>2023-07-11T09:49:20Z</time></trkpt><trkpt lat="58.05558" lon="38.807457"><ele>104.0</ele><time>2023-07-11T09:49:22Z</time></trkpt><trkpt lat="58.055572" lon="38.807255"><ele>105.0</ele><time>2023-07-11T09:49:24Z</time></trkpt><trkpt lat="58.055612" lon="38.807077"><ele>104.0</ele><time>2023-07-11T09:49:26Z</time></trkpt><trkpt lat="58.055633" lon="38.806915"><ele>105.0</ele><time>2023-07-11T09:49:28Z</time></trkpt><trkpt lat="58.055643" lon="38.806777"><ele>105.0</ele><time>2023-07-11T09:49:30Z</time></trkpt><trkpt lat="58.055668" lon="38.806567"><ele>105.0</ele><time>2023-07-11T09:49:32Z</time></trkpt><trkpt lat="58.055677" lon="38.806382"><ele>105.0</ele><time>2023-07-11T09:49:34Z</time></trkpt><trkpt lat="58.05571" lon="38.8062"><ele>105.0</ele><time>2023-07-11T09:49:36Z</time></trkpt><trkpt lat="58.055725" lon="38.80601"><ele>105.0</ele><time>2023-07-11T09:49:38Z</time></trkpt><trkpt lat="58.055743" lon="38.805822"><ele>105.0</ele><time>2023-07-11T09:49:40Z</time></trkpt><trkpt lat="58.055747" lon="38.805625"><ele>104.0</ele><time>2023-07-11T09:49:42Z</time></trkpt><trkpt lat="58.055727" lon="38.805432"><ele>104.0</ele><time>2023-07-11T09:49:43Z</time></trkpt><trkpt lat="58.055727" lon="38.805215"><ele>105.0</ele><time>2023-07-11T09:49:45Z</time></trkpt><trkpt lat="58.055743" lon="38.805078"><ele>105.0</ele><time>2023-07-11T09:49:47Z</time></trkpt><trkpt lat="58.055795" lon="38.804907"><ele>104.0</ele><time>2023-07-11T09:49:50Z</time></trkpt><trkpt lat="58.055798" lon="38.804685"><ele>105.0</ele><time>2023-07-11T09:49:52Z</time></trkpt><trkpt lat="58.055812" lon="38.804508"><ele>105.0</ele><time>2023-07-11T09:49:54Z</time></trkpt><trkpt lat="58.055823" lon="38.80433"><ele>105.0</ele><time>2023-07-11T09:49:56Z</time></trkpt><trkpt lat="58.055833" lon="38.804177"><ele>105.0</ele><time>2023-07-11T09:49:58Z</time></trkpt><trkpt lat="58.055865" lon="38.804005"><ele>105.0</ele><time>2023-07-11T09:50:01Z</time></trkpt><trkpt lat="58.055865" lon="38.803835"><ele>104.0</ele><time>2023-07-11T09:50:03Z</time></trkpt><trkpt lat="58.055852" lon="38.803637"><ele>104.0</ele><time>2023-07-11T09:50:05Z</time></trkpt><trkpt lat="58.05586" lon="38.803458"><ele>104.0</ele><time>2023-07-11T09:50:07Z</time></trkpt><trkpt lat="58.055868" lon="38.803283"><ele>104.0</ele><time>2023-07-11T09:50:09Z</time></trkpt><trkpt lat="58.05588" lon="38.80313"><ele>105.0</ele><time>2023-07-11T09:50:11Z</time></trkpt><trkpt lat="58.055903" lon="38.802982"><ele>104.0</ele><time>2023-07-11T09:50:13Z</time></trkpt><trkpt lat="58.055925" lon="38.802817"><ele>105.0</ele><time>2023-07-11T09:50:15Z</time></trkpt><trkpt lat="58.05594" lon="38.80266"><ele>106.0</ele><time>2023-07-11T09:50:17Z</time></trkpt><trkpt lat="58.055952" lon="38.802463"><ele>106.0</ele><time>2023-07-11T09:50:19Z</time></trkpt><trkpt lat="58.055967" lon="38.802218"><ele>106.0</ele><time>2023-07-11T09:50:21Z</time></trkpt><trkpt lat="58.055983" lon="38.801963"><ele>106.0</ele><time>2023-07-11T09:50:23Z</time></trkpt><trkpt lat="58.05598" lon="38.80172"><ele>106.0</ele><time>2023-07-11T09:50:25Z</time></trkpt><trkpt lat="58.056005" lon="38.80156"><ele>106.0</ele><time>2023-07-11T09:50:27Z</time></trkpt><trkpt lat="58.056053" lon="38.801443"><ele>106.0</ele><time>2023-07-11T09:50:29Z</time></trkpt><trkpt lat="58.05606" lon="38.801293"><ele>106.0</ele><time>2023-07-11T09:50:31Z</time></trkpt><trkpt lat="58.056072" lon="38.801138"><ele>106.0</ele><time>2023-07-11T09:50:33Z</time></trkpt><trkpt lat="58.05608" lon="38.80099"><ele>106.0</ele><time>2023-07-11T09:50:35Z</time></trkpt><trkpt lat="58.056098" lon="38.800832"><ele>105.0</ele><time>2023-07-11T09:50:37Z</time></trkpt><trkpt lat="58.056115" lon="38.80067"><ele>104.0</ele><time>2023-07-11T09:50:39Z</time></trkpt><trkpt lat="58.05613" lon="38.80047"><ele>104.0</ele><time>2023-07-11T09:50:41Z</time></trkpt><trkpt lat="58.056133" lon="38.800287"><ele>104.0</ele><time>2023-07-11T09:50:43Z</time></trkpt><trkpt lat="58.05612" lon="38.800107"><ele>105.0</ele><time>2023-07-11T09:50:45Z</time></trkpt><trkpt lat="58.056118" lon="38.799947"><ele>105.0</ele><time>2023-07-11T09:50:47Z</time></trkpt><trkpt lat="58.056128" lon="38.799797"><ele>105.0</ele><time>2023-07-11T09:50:49Z</time></trkpt><trkpt lat="58.056135" lon="38.799647"><ele>104.0</ele><time>2023-07-11T09:50:51Z</time></trkpt><trkpt lat="58.05618" lon="38.799487"><ele>104.0</ele><time>2023-07-11T09:50:53Z</time></trkpt><trkpt lat="58.056185" lon="38.799323"><ele>105.0</ele><time>2023-07-11T09:50:55Z</time></trkpt><trkpt lat="58.056187" lon="38.799147"><ele>106.0</ele><time>2023-07-11T09:50:57Z</time></trkpt><trkpt lat="58.05619" lon="38.798952"><ele>106.0</ele><time>2023-07-11T09:50:59Z</time></trkpt><trkpt lat="58.056202" lon="38.798768"><ele>106.0</ele><time>2023-07-11T09:51:01Z</time></trkpt><trkpt lat="58.056215" lon="38.79857"><ele>106.0</ele><time>2023-07-11T09:51:03Z</time></trkpt><trkpt lat="58.056225" lon="38.798335"><ele>106.0</ele><time>2023-07-11T09:51:05Z</time></trkpt><trkpt lat="58.056225" lon="38.798105"><ele>107.0</ele><time>2023-07-11T09:51:07Z</time></trkpt><trkpt lat="58.056242" lon="38.797917"><ele>105.0</ele><time>2023-07-11T09:51:09Z</time></trkpt><trkpt lat="58.056245" lon="38.797757"><ele>105.0</ele><time>2023-07-11T09:51:11Z</time></trkpt><trkpt lat="58.056223" lon="38.79758"><ele>105.0</ele><time>2023-07-11T09:51:13Z</time></trkpt><trkpt lat="58.05618" lon="38.797425"><ele>104.0</ele><time>2023-07-11T09:51:16Z</time></trkpt><trkpt lat="58.056207" lon="38.79725"><ele>105.0</ele><time>2023-07-11T09:51:18Z</time></trkpt><trkpt lat="58.056217" lon="38.797018"><ele>106.0</ele><time>2023-07-11T09:51:20Z</time></trkpt><trkpt lat="58.05623" lon="38.796767"><ele>104.0</ele><time>2023-07-11T09:51:22Z</time></trkpt><trkpt lat="58.056253" lon="38.796532"><ele>104.0</ele><time>2023-07-11T09:51:24Z</time></trkpt><trkpt lat="58.056275" lon="38.796322"><ele>104.0</ele><time>2023-07-11T09:51:26Z</time></trkpt><trkpt lat="58.056295" lon="38.79611"><ele>104.0</ele><time>2023-07-11T09:51:28Z</time></trkpt><trkpt lat="58.0563" lon="38.795887"><ele>103.0</ele><time>2023-07-11T09:51:30Z</time></trkpt><trkpt lat="58.056315" lon="38.795622"><ele>104.0</ele><time>2023-07-11T09:51:32Z</time></trkpt><trkpt lat="58.056328" lon="38.795462"><ele>103.0</ele><time>2023-07-11T09:51:33Z</time></trkpt><trkpt lat="58.056348" lon="38.795243"><ele>102.0</ele><time>2023-07-11T09:51:35Z</time></trkpt><trkpt lat="58.056362" lon="38.795042"><ele>101.0</ele><time>2023-07-11T09:51:37Z</time></trkpt><trkpt lat="58.056382" lon="38.794857"><ele>102.0</ele><time>2023-07-11T09:51:39Z</time></trkpt><trkpt lat="58.056398" lon="38.794668"><ele>103.0</ele><time>2023-07-11T09:51:41Z</time></trkpt><trkpt lat="58.056393" lon="38.794485"><ele>102.0</ele><time>2023-07-11T09:51:43Z</time></trkpt><trkpt lat="58.056395" lon="38.794297"><ele>103.0</ele><time>2023-07-11T09:51:45Z</time></trkpt><trkpt lat="58.05642" lon="38.79411"><ele>103.0</ele><time>2023-07-11T09:51:47Z</time></trkpt><trkpt lat="58.056428" lon="38.793918"><ele>103.0</ele><time>2023-07-11T09:51:49Z</time></trkpt><trkpt lat="58.056453" lon="38.793708"><ele>103.0</ele><time>2023-07-11T09:51:51Z</time></trkpt><trkpt lat="58.056488" lon="38.793493"><ele>103.0</ele><time>2023-07-11T09:51:53Z</time></trkpt><trkpt lat="58.056542" lon="38.793283"><ele>103.0</ele><time>2023-07-11T09:51:55Z</time></trkpt><trkpt lat="58.056513" lon="38.793108"><ele>103.0</ele><time>2023-07-11T09:51:57Z</time></trkpt><trkpt lat="58.056528" lon="38.792915"><ele>103.0</ele><time>2023-07-11T09:51:59Z</time></trkpt><trkpt lat="58.056543" lon="38.792712"><ele>103.0</ele><time>2023-07-11T09:52:01Z</time></trkpt><trkpt lat="58.056533" lon="38.792495"><ele>103.0</ele><time>2023-07-11T09:52:03Z</time></trkpt><trkpt lat="58.056565" lon="38.792303"><ele>103.0</ele><time>2023-07-11T09:52:05Z</time></trkpt><trkpt lat="58.056602" lon="38.79211"><ele>103.0</ele><time>2023-07-11T09:52:07Z</time></trkpt><trkpt lat="58.056613" lon="38.791945"><ele>103.0</ele><time>2023-07-11T09:52:09Z</time></trkpt><trkpt lat="58.056607" lon="38.79178"><ele>105.0</ele><time>2023-07-11T09:52:11Z</time></trkpt><trkpt lat="58.056633" lon="38.791573"><ele>107.0</ele><time>2023-07-11T09:52:13Z</time></trkpt><trkpt lat="58.056627" lon="38.791345"><ele>106.0</ele><time>2023-07-11T09:52:15Z</time></trkpt><trkpt lat="58.056642" lon="38.791128"><ele>106.0</ele><time>2023-07-11T09:52:17Z</time></trkpt><trkpt lat="58.056653" lon="38.790907"><ele>106.0</ele><time>2023-07-11T09:52:19Z</time></trkpt><trkpt lat="58.056693" lon="38.790707"><ele>106.0</ele><time>2023-07-11T09:52:21Z</time></trkpt><trkpt lat="58.056702" lon="38.79051"><ele>106.0</ele><time>2023-07-11T09:52:23Z</time></trkpt><trkpt lat="58.056723" lon="38.790337"><ele>104.0</ele><time>2023-07-11T09:52:25Z</time></trkpt><trkpt lat="58.056733" lon="38.790167"><ele>104.0</ele><time>2023-07-11T09:52:27Z</time></trkpt><trkpt lat="58.056763" lon="38.790035"><ele>103.0</ele><time>2023-07-11T09:52:28Z</time></trkpt><trkpt lat="58.056767" lon="38.789862"><ele>102.0</ele><time>2023-07-11T09:52:30Z</time></trkpt><trkpt lat="58.056782" lon="38.789665"><ele>103.0</ele><time>2023-07-11T09:52:32Z</time></trkpt><trkpt lat="58.056797" lon="38.789527"><ele>103.0</ele><time>2023-07-11T09:52:34Z</time></trkpt><trkpt lat="58.056818" lon="38.789383"><ele>103.0</ele><time>2023-07-11T09:52:36Z</time></trkpt><trkpt lat="58.056835" lon="38.789208"><ele>102.0</ele><time>2023-07-11T09:52:38Z</time></trkpt><trkpt lat="58.056828" lon="38.789017"><ele>102.0</ele><time>2023-07-11T09:52:40Z</time></trkpt><trkpt lat="58.056858" lon="38.788885"><ele>102.0</ele><time>2023-07-11T09:52:42Z</time></trkpt><trkpt lat="58.056892" lon="38.78872"><ele>101.0</ele><time>2023-07-11T09:52:44Z</time></trkpt><trkpt lat="58.05692" lon="38.78855"><ele>100.0</ele><time>2023-07-11T09:52:46Z</time></trkpt><trkpt lat="58.056933" lon="38.78838"><ele>101.0</ele><time>2023-07-11T09:52:48Z</time></trkpt><trkpt lat="58.056917" lon="38.788113"><ele>103.0</ele><time>2023-07-11T09:52:50Z</time></trkpt><trkpt lat="58.056928" lon="38.787912"><ele>102.0</ele><time>2023-07-11T09:52:52Z</time></trkpt><trkpt lat="58.05694" lon="38.7877"><ele>101.0</ele><time>2023-07-11T09:52:54Z</time></trkpt><trkpt lat="58.05694" lon="38.78751"><ele>101.0</ele><time>2023-07-11T09:52:56Z</time></trkpt><trkpt lat="58.056958" lon="38.787313"><ele>101.0</ele><time>2023-07-11T09:52:58Z</time></trkpt><trkpt lat="58.056965" lon="38.787135"><ele>100.0</ele><time>2023-07-11T09:53:00Z</time></trkpt><trkpt lat="58.056978" lon="38.786978"><ele>100.0</ele><time>2023-07-11T09:53:01Z</time></trkpt><trkpt lat="58.05698" lon="38.786792"><ele>99.0</ele><time>2023-07-11T09:53:03Z</time></trkpt><trkpt lat="58.056988" lon="38.786598"><ele>99.0</ele><time>2023-07-11T09:53:05Z</time></trkpt><trkpt lat="58.056988" lon="38.786393"><ele>100.0</ele><time>2023-07-11T09:53:07Z</time></trkpt><trkpt lat="58.056998" lon="38.786205"><ele>101.0</ele><time>2023-07-11T09:53:09Z</time></trkpt><trkpt lat="58.05698" lon="38.786023"><ele>101.0</ele><time>2023-07-11T09:53:11Z</time></trkpt><trkpt lat="58.056962" lon="38.785863"><ele>104.0</ele><time>2023-07-11T09:53:13Z</time></trkpt><trkpt lat="58.056962" lon="38.785663"><ele>104.0</ele><time>2023-07-11T09:53:16Z</time></trkpt><trkpt lat="58.056962" lon="38.785512"><ele>104.0</ele><time>2023-07-11T09:53:18Z</time></trkpt><trkpt lat="58.056968" lon="38.785368"><ele>104.0</ele><time>2023-07-11T09:53:20Z</time></trkpt><trkpt lat="58.056962" lon="38.785202"><ele>104.0</ele><time>2023-07-11T09:53:23Z</time></trkpt><trkpt lat="58.056948" lon="38.785062"><ele>107.0</ele><time>2023-07-11T09:53:30Z</time></trkpt><trkpt lat="58.057005" lon="38.784927"><ele>104.0</ele><time>2023-07-11T09:54:08Z</time></trkpt><trkpt lat="58.057075" lon="38.784798"><ele>104.0</ele><time>2023-07-11T09:54:10Z</time></trkpt><trkpt lat="58.057122" lon="38.784648"><ele>103.0</ele><time>2023-07-11T09:54:12Z</time></trkpt><trkpt lat="58.057167" lon="38.784497"><ele>103.0</ele><time>2023-07-11T09:54:14Z</time></trkpt><trkpt lat="58.057225" lon="38.784338"><ele>103.0</ele><time>2023-07-11T09:54:16Z</time></trkpt><trkpt lat="58.057288" lon="38.784177"><ele>103.0</ele><time>2023-07-11T09:54:18Z</time></trkpt><trkpt lat="58.057373" lon="38.784045"><ele>103.0</ele><time>2023-07-11T09:54:20Z</time></trkpt><trkpt lat="58.05743" lon="38.78386"><ele>103.0</ele><time>2023-07-11T09:54:22Z</time></trkpt><trkpt lat="58.057497" lon="38.783697"><ele>103.0</ele><time>2023-07-11T09:54:24Z</time></trkpt><trkpt lat="58.05756" lon="38.783512"><ele>103.0</ele><time>2023-07-11T09:54:26Z</time></trkpt><trkpt lat="58.057638" lon="38.783308"><ele>103.0</ele><time>2023-07-11T09:54:28Z</time></trkpt><trkpt lat="58.057693" lon="38.783128"><ele>103.0</ele><time>2023-07-11T09:54:30Z</time></trkpt><trkpt lat="58.057782" lon="38.782965"><ele>103.0</ele><time>2023-07-11T09:54:32Z</time></trkpt><trkpt lat="58.057827" lon="38.78278"><ele>102.0</ele><time>2023-07-11T09:54:34Z</time></trkpt><trkpt lat="58.057887" lon="38.782575"><ele>102.0</ele><time>2023-07-11T09:54:36Z</time></trkpt><trkpt lat="58.05794" lon="38.782388"><ele>101.0</ele><time>2023-07-11T09:54:38Z</time></trkpt><trkpt lat="58.057997" lon="38.78221"><ele>102.0</ele><time>2023-07-11T09:54:40Z</time></trkpt><trkpt lat="58.058048" lon="38.782078"><ele>101.0</ele><time>2023-07-11T09:54:42Z</time></trkpt><trkpt lat="58.058095" lon="38.781958"><ele>101.0</ele><time>2023-07-11T09:54:44Z</time></trkpt><trkpt lat="58.058133" lon="38.781812"><ele>102.0</ele><time>2023-07-11T09:54:46Z</time></trkpt><trkpt lat="58.05818" lon="38.781678"><ele>102.0</ele><time>2023-07-11T09:54:48Z</time></trkpt><trkpt lat="58.05822" lon="38.78153"><ele>101.0</ele><time>2023-07-11T09:54:50Z</time></trkpt><trkpt lat="58.058265" lon="38.781383"><ele>102.0</ele><time>2023-07-11T09:54:52Z</time></trkpt><trkpt lat="58.058318" lon="38.781227"><ele>101.0</ele><time>2023-07-11T09:54:54Z</time></trkpt><trkpt lat="58.058372" lon="38.781058"><ele>102.0</ele><time>2023-07-11T09:54:56Z</time></trkpt><trkpt lat="58.058445" lon="38.780883"><ele>102.0</ele><time>2023-07-11T09:54:58Z</time></trkpt><trkpt lat="58.058505" lon="38.780655"><ele>102.0</ele><time>2023-07-11T09:55:00Z</time></trkpt><trkpt lat="58.058567" lon="38.78043"><ele>103.0</ele><time>2023-07-11T09:55:02Z</time></trkpt><trkpt lat="58.058637" lon="38.78024"><ele>104.0</ele><time>2023-07-11T09:55:04Z</time></trkpt><trkpt lat="58.058692" lon="38.780057"><ele>103.0</ele><time>2023-07-11T09:55:06Z</time></trkpt><trkpt lat="58.058733" lon="38.77991"><ele>103.0</ele><time>2023-07-11T09:55:08Z</time></trkpt><trkpt lat="58.05879" lon="38.779777"><ele>101.0</ele><time>2023-07-11T09:55:13Z</time></trkpt><trkpt lat="58.058815" lon="38.779623"><ele>102.0</ele><time>2023-07-11T09:55:15Z</time></trkpt><trkpt lat="58.058873" lon="38.77952"><ele>101.0</ele><time>2023-07-11T09:55:17Z</time></trkpt><trkpt lat="58.05894" lon="38.779377"><ele>102.0</ele><time>2023-07-11T09:55:19Z</time></trkpt><trkpt lat="58.058992" lon="38.779233"><ele>101.0</ele><time>2023-07-11T09:55:21Z</time></trkpt><trkpt lat="58.059047" lon="38.77909"><ele>101.0</ele><time>2023-07-11T09:55:23Z</time></trkpt><trkpt lat="58.05909" lon="38.778907"><ele>101.0</ele><time>2023-07-11T09:55:25Z</time></trkpt><trkpt lat="58.059143" lon="38.778737"><ele>101.0</ele><time>2023-07-11T09:55:27Z</time></trkpt><trkpt lat="58.059183" lon="38.778592"><ele>102.0</ele><time>2023-07-11T09:55:29Z</time></trkpt><trkpt lat="58.059232" lon="38.778428"><ele>101.0</ele><time>2023-07-11T09:55:31Z</time></trkpt><trkpt lat="58.05928" lon="38.778282"><ele>102.0</ele><time>2023-07-11T09:55:33Z</time></trkpt><trkpt lat="58.05931" lon="38.778118"><ele>103.0</ele><time>2023-07-11T09:55:35Z</time></trkpt><trkpt lat="58.059368" lon="38.77796"><ele>103.0</ele><time>2023-07-11T09:55:37Z</time></trkpt><trkpt lat="58.059413" lon="38.777798"><ele>103.0</ele><time>2023-07-11T09:55:39Z</time></trkpt><trkpt lat="58.059475" lon="38.777725"><ele>103.0</ele><time>2023-07-11T09:55:40Z</time></trkpt><trkpt lat="58.059512" lon="38.777555"><ele>103.0</ele><time>2023-07-11T09:55:43Z</time></trkpt><trkpt lat="58.059582" lon="38.777443"><ele>104.0</ele><time>2023-07-11T09:55:45Z</time></trkpt><trkpt lat="58.059648" lon="38.777305"><ele>104.0</ele><time>2023-07-11T09:55:47Z</time></trkpt><trkpt lat="58.059708" lon="38.777143"><ele>104.0</ele><time>2023-07-11T09:55:49Z</time></trkpt><trkpt lat="58.059755" lon="38.77702"><ele>106.0</ele><time>2023-07-11T09:55:51Z</time></trkpt><trkpt lat="58.059783" lon="38.776857"><ele>106.0</ele><time>2023-07-11T09:55:53Z</time></trkpt><trkpt lat="58.05979" lon="38.776717"><ele>106.0</ele><time>2023-07-11T09:55:55Z</time></trkpt><trkpt lat="58.059788" lon="38.776548"><ele>106.0</ele><time>2023-07-11T09:55:57Z</time></trkpt><trkpt lat="58.059772" lon="38.776407"><ele>102.0</ele><time>2023-07-11T09:55:59Z</time></trkpt><trkpt lat="58.059772" lon="38.776252"><ele>101.0</ele><time>2023-07-11T09:56:01Z</time></trkpt><trkpt lat="58.059778" lon="38.776103"><ele>100.0</ele><time>2023-07-11T09:56:03Z</time></trkpt><trkpt lat="58.05978" lon="38.775902"><ele>101.0</ele><time>2023-07-11T09:56:05Z</time></trkpt><trkpt lat="58.059785" lon="38.7757"><ele>100.0</ele><time>2023-07-11T09:56:07Z</time></trkpt><trkpt lat="58.0598" lon="38.775533"><ele>100.0</ele><time>2023-07-11T09:56:09Z</time></trkpt><trkpt lat="58.059785" lon="38.775358"><ele>100.0</ele><time>2023-07-11T09:56:11Z</time></trkpt><trkpt lat="58.0598" lon="38.775198"><ele>101.0</ele><time>2023-07-11T09:56:13Z</time></trkpt><trkpt lat="58.059825" lon="38.775043"><ele>99.0</ele><time>2023-07-11T09:56:15Z</time></trkpt><trkpt lat="58.05986" lon="38.77488"><ele>97.0</ele><time>2023-07-11T09:56:17Z</time></trkpt><trkpt lat="58.05989" lon="38.774692"><ele>97.0</ele><time>2023-07-11T09:56:19Z</time></trkpt><trkpt lat="58.059918" lon="38.774495"><ele>97.0</ele><time>2023-07-11T09:56:21Z</time></trkpt><trkpt lat="58.059935" lon="38.774327"><ele>96.0</ele><time>2023-07-11T09:56:23Z</time></trkpt><trkpt lat="58.0599" lon="38.774175"><ele>97.0</ele><time>2023-07-11T09:56:25Z</time></trkpt><trkpt lat="58.059808" lon="38.77407"><ele>97.0</ele><time>2023-07-11T09:56:27Z</time></trkpt><trkpt lat="58.05974" lon="38.773972"><ele>96.0</ele><time>2023-07-11T09:56:29Z</time></trkpt><trkpt lat="58.059643" lon="38.773882"><ele>99.0</ele><time>2023-07-11T09:56:31Z</time></trkpt><trkpt lat="58.059548" lon="38.773783"><ele>99.0</ele><time>2023-07-11T09:56:33Z</time></trkpt><trkpt lat="58.059448" lon="38.773683"><ele>98.0</ele><time>2023-07-11T09:56:35Z</time></trkpt><trkpt lat="58.059377" lon="38.773542"><ele>98.0</ele><time>2023-07-11T09:56:37Z</time></trkpt><trkpt lat="58.05929" lon="38.773443"><ele>97.0</ele><time>2023-07-11T09:56:39Z</time></trkpt><trkpt lat="58.059217" lon="38.773348"><ele>98.0</ele><time>2023-07-11T09:56:41Z</time></trkpt><trkpt lat="58.059138" lon="38.773262"><ele>100.0</ele><time>2023-07-11T09:56:43Z</time></trkpt><trkpt lat="58.059047" lon="38.773163"><ele>100.0</ele><time>2023-07-11T09:56:45Z</time></trkpt><trkpt lat="58.05896" lon="38.773055"><ele>99.0</ele><time>2023-07-11T09:56:47Z</time></trkpt><trkpt lat="58.058883" lon="38.772958"><ele>99.0</ele><time>2023-07-11T09:56:49Z</time></trkpt><trkpt lat="58.058802" lon="38.772842"><ele>98.0</ele><time>2023-07-11T09:56:51Z</time></trkpt><trkpt lat="58.05871" lon="38.772752"><ele>98.0</ele><time>2023-07-11T09:56:53Z</time></trkpt><trkpt lat="58.058658" lon="38.772603"><ele>100.0</ele><time>2023-07-11T09:56:55Z</time></trkpt><trkpt lat="58.058632" lon="38.772432"><ele>98.0</ele><time>2023-07-11T09:56:57Z</time></trkpt><trkpt lat="58.058592" lon="38.772255"><ele>98.0</ele><time>2023-07-11T09:56:59Z</time></trkpt><trkpt lat="58.058557" lon="38.772063"><ele>98.0</ele><time>2023-07-11T09:57:01Z</time></trkpt><trkpt lat="58.058545" lon="38.7719"><ele>98.0</ele><time>2023-07-11T09:57:03Z</time></trkpt><trkpt lat="58.058513" lon="38.771682"><ele>99.0</ele><time>2023-07-11T09:57:06Z</time></trkpt><trkpt lat="58.0585" lon="38.771467"><ele>99.0</ele><time>2023-07-11T09:57:08Z</time></trkpt><trkpt lat="58.058498" lon="38.771292"><ele>99.0</ele><time>2023-07-11T09:57:10Z</time></trkpt><trkpt lat="58.058487" lon="38.771107"><ele>98.0</ele><time>2023-07-11T09:57:12Z</time></trkpt><trkpt lat="58.058468" lon="38.770953"><ele>96.0</ele><time>2023-07-11T09:57:14Z</time></trkpt><trkpt lat="58.05851" lon="38.770798"><ele>93.0</ele><time>2023-07-11T09:57:17Z</time></trkpt><trkpt lat="58.058492" lon="38.770608"><ele>93.0</ele><time>2023-07-11T09:57:20Z</time></trkpt><trkpt lat="58.058483" lon="38.770458"><ele>91.0</ele><time>2023-07-11T09:57:22Z</time></trkpt><trkpt lat="58.058475" lon="38.770302"><ele>89.0</ele><time>2023-07-11T09:57:24Z</time></trkpt><trkpt lat="58.058448" lon="38.770128"><ele>90.0</ele><time>2023-07-11T09:57:26Z</time></trkpt><trkpt lat="58.05844" lon="38.769973"><ele>90.0</ele><time>2023-07-11T09:57:28Z</time></trkpt><trkpt lat="58.058418" lon="38.769792"><ele>91.0</ele><time>2023-07-11T09:57:31Z</time></trkpt><trkpt lat="58.058407" lon="38.769627"><ele>91.0</ele><time>2023-07-11T09:57:33Z</time></trkpt><trkpt lat="58.058388" lon="38.769438"><ele>92.0</ele><time>2023-07-11T09:57:36Z</time></trkpt><trkpt lat="58.058378" lon="38.769233"><ele>95.0</ele><time>2023-07-11T09:57:38Z</time></trkpt><trkpt lat="58.058362" lon="38.769052"><ele>94.0</ele><time>2023-07-11T09:57:40Z</time></trkpt><trkpt lat="58.058348" lon="38.768873"><ele>93.0</ele><time>2023-07-11T09:57:42Z</time></trkpt><trkpt lat="58.058307" lon="38.768753"><ele>92.0</ele><time>2023-07-11T09:57:44Z</time></trkpt><trkpt lat="58.058228" lon="38.768547"><ele>91.0</ele><time>2023-07-11T09:57:46Z</time></trkpt><trkpt lat="58.058238" lon="38.768382"><ele>91.0</ele><time>2023-07-11T09:57:49Z</time></trkpt><trkpt lat="58.05819" lon="38.76823"><ele>94.0</ele><time>2023-07-11T09:58:09Z</time></trkpt><trkpt lat="58.058148" lon="38.768113"><ele>94.0</ele><time>2023-07-11T09:58:12Z</time></trkpt><trkpt lat="58.058085" lon="38.768045"><ele>94.0</ele><time>2023-07-11T09:58:14Z</time></trkpt><trkpt lat="58.057962" lon="38.768088"><ele>96.0</ele><time>2023-07-11T09:58:16Z</time></trkpt><trkpt lat="58.057862" lon="38.768118"><ele>95.0</ele><time>2023-07-11T09:58:18Z</time></trkpt><trkpt lat="58.057745" lon="38.768163"><ele>97.0</ele><time>2023-07-11T09:58:20Z</time></trkpt><trkpt lat="58.057628" lon="38.768213"><ele>98.0</ele><time>2023-07-11T09:58:22Z</time></trkpt><trkpt lat="58.057518" lon="38.768257"><ele>99.0</ele><time>2023-07-11T09:58:24Z</time></trkpt><trkpt lat="58.057435" lon="38.768242"><ele>97.0</ele><time>2023-07-11T09:58:26Z</time></trkpt><trkpt lat="58.057332" lon="38.768272"><ele>98.0</ele><time>2023-07-11T09:58:28Z</time></trkpt><trkpt lat="58.057253" lon="38.768312"><ele>99.0</ele><time>2023-07-11T09:58:30Z</time></trkpt><trkpt lat="58.05714" lon="38.76836"><ele>99.0</ele><time>2023-07-11T09:58:32Z</time></trkpt><trkpt lat="58.057068" lon="38.768382"><ele>99.0</ele><time>2023-07-11T09:58:33Z</time></trkpt><trkpt lat="58.056947" lon="38.768407"><ele>100.0</ele><time>2023-07-11T09:58:35Z</time></trkpt><trkpt lat="58.056832" lon="38.768425"><ele>100.0</ele><time>2023-07-11T09:58:37Z</time></trkpt><trkpt lat="58.056718" lon="38.76848"><ele>101.0</ele><time>2023-07-11T09:58:39Z</time></trkpt><trkpt lat="58.056605" lon="38.76851"><ele>101.0</ele><time>2023-07-11T09:58:41Z</time></trkpt><trkpt lat="58.05652" lon="38.768533"><ele>102.0</ele><time>2023-07-11T09:58:43Z</time></trkpt><trkpt lat="58.056415" lon="38.768548"><ele>102.0</ele><time>2023-07-11T09:58:46Z</time></trkpt><trkpt lat="58.056307" lon="38.768582"><ele>102.0</ele><time>2023-07-11T09:58:49Z</time></trkpt><trkpt lat="58.056207" lon="38.76856"><ele>99.0</ele><time>2023-07-11T09:58:52Z</time></trkpt><trkpt lat="58.056133" lon="38.768593"><ele>100.0</ele><time>2023-07-11T09:58:54Z</time></trkpt><trkpt lat="58.056038" lon="38.768615"><ele>101.0</ele><time>2023-07-11T09:58:57Z</time></trkpt><trkpt lat="58.055997" lon="38.768457"><ele>99.0</ele><time>2023-07-11T09:59:00Z</time></trkpt><trkpt lat="58.05602" lon="38.768303"><ele>99.0</ele><time>2023-07-11T09:59:02Z</time></trkpt><trkpt lat="58.056037" lon="38.768168"><ele>99.0</ele><time>2023-07-11T09:59:04Z</time></trkpt><trkpt lat="58.056057" lon="38.767992"><ele>99.0</ele><time>2023-07-11T09:59:07Z</time></trkpt><trkpt lat="58.056098" lon="38.767843"><ele>100.0</ele><time>2023-07-11T09:59:46Z</time></trkpt><trkpt lat="58.056008" lon="38.767745"><ele>100.0</ele><time>2023-07-11T09:59:50Z</time></trkpt><trkpt lat="58.05593" lon="38.767725"><ele>101.0</ele><time>2023-07-11T09:59:53Z</time></trkpt><trkpt lat="58.055853" lon="38.76788"><ele>100.0</ele><time>2023-07-11T09:59:56Z</time></trkpt><trkpt lat="58.055782" lon="38.767993"><ele>100.0</ele><time>2023-07-11T09:59:58Z</time></trkpt><trkpt lat="58.055702" lon="38.768017"><ele>100.0</ele><time>2023-07-11T10:00:00Z</time></trkpt><trkpt lat="58.055608" lon="38.76802"><ele>99.0</ele><time>2023-07-11T10:00:02Z</time></trkpt><trkpt lat="58.055525" lon="38.768038"><ele>101.0</ele><time>2023-07-11T10:00:04Z</time></trkpt><trkpt lat="58.05545" lon="38.768023"><ele>102.0</ele><time>2023-07-11T10:00:06Z</time></trkpt><trkpt lat="58.05538" lon="38.767942"><ele>102.0</ele><time>2023-07-11T10:00:08Z</time></trkpt><trkpt lat="58.055322" lon="38.767842"><ele>103.0</ele><time>2023-07-11T10:00:10Z</time></trkpt><trkpt lat="58.055272" lon="38.767738"><ele>104.0</ele><time>2023-07-11T10:00:12Z</time></trkpt><trkpt lat="58.055195" lon="38.767617"><ele>104.0</ele><time>2023-07-11T10:00:15Z</time></trkpt><trkpt lat="58.055107" lon="38.76752"><ele>104.0</ele><time>2023-07-11T10:00:18Z</time></trkpt><trkpt lat="58.055043" lon="38.767445"><ele>104.0</ele><time>2023-07-11T10:00:20Z</time></trkpt><trkpt lat="58.054955" lon="38.76734"><ele>106.0</ele><time>2023-07-11T10:00:23Z</time></trkpt><trkpt lat="58.054903" lon="38.767243"><ele>105.0</ele><time>2023-07-11T10:00:25Z</time></trkpt><trkpt lat="58.054822" lon="38.767118"><ele>105.0</ele><time>2023-07-11T10:00:28Z</time></trkpt><trkpt lat="58.05474" lon="38.767113"><ele>104.0</ele><time>2023-07-11T10:00:30Z</time></trkpt><trkpt lat="58.054668" lon="38.767108"><ele>103.0</ele><time>2023-07-11T10:00:32Z</time></trkpt><trkpt lat="58.05456" lon="38.767067"><ele>103.0</ele><time>2023-07-11T10:00:35Z</time></trkpt><trkpt lat="58.054477" lon="38.767003"><ele>102.0</ele><time>2023-07-11T10:00:37Z</time></trkpt><trkpt lat="58.054362" lon="38.766978"><ele>101.0</ele><time>2023-07-11T10:00:39Z</time></trkpt><trkpt lat="58.05426" lon="38.766972"><ele>101.0</ele><time>2023-07-11T10:00:41Z</time></trkpt><trkpt lat="58.05417" lon="38.76701"><ele>101.0</ele><time>2023-07-11T10:00:43Z</time></trkpt><trkpt lat="58.054065" lon="38.767038"><ele>101.0</ele><time>2023-07-11T10:00:45Z</time></trkpt><trkpt lat="58.053978" lon="38.767018"><ele>102.0</ele><time>2023-07-11T10:00:47Z</time></trkpt><trkpt lat="58.053862" lon="38.767037"><ele>101.0</ele><time>2023-07-11T10:00:49Z</time></trkpt><trkpt lat="58.053742" lon="38.767082"><ele>102.0</ele><time>2023-07-11T10:00:51Z</time></trkpt><trkpt lat="58.053643" lon="38.767073"><ele>101.0</ele><time>2023-07-11T10:00:53Z</time></trkpt><trkpt lat="58.053525" lon="38.767115"><ele>101.0</ele><time>2023-07-11T10:00:55Z</time></trkpt><trkpt lat="58.05341" lon="38.76713"><ele>101.0</ele><time>2023-07-11T10:00:57Z</time></trkpt><trkpt lat="58.053287" lon="38.7672"><ele>101.0</ele><time>2023-07-11T10:00:59Z</time></trkpt><trkpt lat="58.053178" lon="38.76719"><ele>102.0</ele><time>2023-07-11T10:01:01Z</time></trkpt><trkpt lat="58.053072" lon="38.767213"><ele>103.0</ele><time>2023-07-11T10:01:03Z</time></trkpt><trkpt lat="58.052952" lon="38.76722"><ele>103.0</ele><time>2023-07-11T10:01:05Z</time></trkpt><trkpt lat="58.05284" lon="38.7672"><ele>105.0</ele><time>2023-07-11T10:01:07Z</time></trkpt><trkpt lat="58.05274" lon="38.767215"><ele>105.0</ele><time>2023-07-11T10:01:09Z</time></trkpt><trkpt lat="58.05262" lon="38.76723"><ele>106.0</ele><time>2023-07-11T10:01:11Z</time></trkpt><trkpt lat="58.052505" lon="38.767205"><ele>108.0</ele><time>2023-07-11T10:01:13Z</time></trkpt><trkpt lat="58.052388" lon="38.76723"><ele>108.0</ele><time>2023-07-11T10:01:15Z</time></trkpt><trkpt lat="58.052268" lon="38.767238"><ele>109.0</ele><time>2023-07-11T10:01:17Z</time></trkpt><trkpt lat="58.05214" lon="38.767283"><ele>109.0</ele><time>2023-07-11T10:01:19Z</time></trkpt><trkpt lat="58.052078" lon="38.767167"><ele>107.0</ele><time>2023-07-11T10:01:21Z</time></trkpt><trkpt lat="58.052023" lon="38.767263"><ele>106.0</ele><time>2023-07-11T10:01:22Z</time></trkpt><trkpt lat="58.051893" lon="38.767292"><ele>104.0</ele><time>2023-07-11T10:01:24Z</time></trkpt><trkpt lat="58.05177" lon="38.767318"><ele>102.0</ele><time>2023-07-11T10:01:26Z</time></trkpt><trkpt lat="58.051647" lon="38.767348"><ele>103.0</ele><time>2023-07-11T10:01:28Z</time></trkpt><trkpt lat="58.051528" lon="38.767348"><ele>104.0</ele><time>2023-07-11T10:01:30Z</time></trkpt><trkpt lat="58.051408" lon="38.76742"><ele>103.0</ele><time>2023-07-11T10:01:32Z</time></trkpt><trkpt lat="58.051315" lon="38.767412"><ele>103.0</ele><time>2023-07-11T10:01:33Z</time></trkpt><trkpt lat="58.051243" lon="38.76744"><ele>103.0</ele><time>2023-07-11T10:01:34Z</time></trkpt><trkpt lat="58.05115" lon="38.767465"><ele>102.0</ele><time>2023-07-11T10:01:35Z</time></trkpt><trkpt lat="58.051073" lon="38.767473"><ele>102.0</ele><time>2023-07-11T10:01:36Z</time></trkpt><trkpt lat="58.050932" lon="38.76752"><ele>102.0</ele><time>2023-07-11T10:01:38Z</time></trkpt><trkpt lat="58.050808" lon="38.767517"><ele>101.0</ele><time>2023-07-11T10:01:40Z</time></trkpt><trkpt lat="58.050733" lon="38.76752"><ele>100.0</ele><time>2023-07-11T10:01:41Z</time></trkpt><trkpt lat="58.050663" lon="38.767558"><ele>99.0</ele><time>2023-07-11T10:01:42Z</time></trkpt><trkpt lat="58.050532" lon="38.767602"><ele>100.0</ele><time>2023-07-11T10:01:44Z</time></trkpt><trkpt lat="58.050398" lon="38.767658"><ele>101.0</ele><time>2023-07-11T10:01:46Z</time></trkpt><trkpt lat="58.050302" lon="38.767662"><ele>102.0</ele><time>2023-07-11T10:01:48Z</time></trkpt><trkpt lat="58.050197" lon="38.767707"><ele>100.0</ele><time>2023-07-11T10:01:50Z</time></trkpt><trkpt lat="58.050103" lon="38.767707"><ele>101.0</ele><time>2023-07-11T10:01:52Z</time></trkpt><trkpt lat="58.050008" lon="38.767727"><ele>101.0</ele><time>2023-07-11T10:01:54Z</time></trkpt><trkpt lat="58.049928" lon="38.767712"><ele>101.0</ele><time>2023-07-11T10:01:56Z</time></trkpt><trkpt lat="58.049858" lon="38.767668"><ele>101.0</ele><time>2023-07-11T10:01:58Z</time></trkpt><trkpt lat="58.049782" lon="38.767593"><ele>103.0</ele><time>2023-07-11T10:02:00Z</time></trkpt><trkpt lat="58.049712" lon="38.76753"><ele>105.0</ele><time>2023-07-11T10:02:02Z</time></trkpt><trkpt lat="58.049625" lon="38.767488"><ele>106.0</ele><time>2023-07-11T10:02:04Z</time></trkpt><trkpt lat="58.049552" lon="38.767375"><ele>106.0</ele><time>2023-07-11T10:02:07Z</time></trkpt><trkpt lat="58.04948" lon="38.767297"><ele>107.0</ele><time>2023-07-11T10:02:11Z</time></trkpt><trkpt lat="58.049422" lon="38.767207"><ele>107.0</ele><time>2023-07-11T10:02:17Z</time></trkpt><trkpt lat="58.049355" lon="38.76715"><ele>106.0</ele><time>2023-07-11T10:02:21Z</time></trkpt><trkpt lat="58.049263" lon="38.76708"><ele>106.0</ele><time>2023-07-11T10:02:26Z</time></trkpt><trkpt lat="58.049187" lon="38.767077"><ele>106.0</ele><time>2023-07-11T10:02:28Z</time></trkpt><trkpt lat="58.049103" lon="38.76708"><ele>107.0</ele><time>2023-07-11T10:02:30Z</time></trkpt><trkpt lat="58.049005" lon="38.767082"><ele>106.0</ele><time>2023-07-11T10:02:32Z</time></trkpt><trkpt lat="58.048913" lon="38.767072"><ele>107.0</ele><time>2023-07-11T10:02:34Z</time></trkpt><trkpt lat="58.048832" lon="38.767015"><ele>107.0</ele><time>2023-07-11T10:02:36Z</time></trkpt><trkpt lat="58.04874" lon="38.766937"><ele>106.0</ele><time>2023-07-11T10:02:38Z</time></trkpt><trkpt lat="58.048667" lon="38.76683"><ele>106.0</ele><time>2023-07-11T10:02:40Z</time></trkpt><trkpt lat="58.048607" lon="38.766732"><ele>106.0</ele><time>2023-07-11T10:02:42Z</time></trkpt><trkpt lat="58.048525" lon="38.766658"><ele>106.0</ele><time>2023-07-11T10:02:44Z</time></trkpt><trkpt lat="58.048457" lon="38.76659"><ele>107.0</ele><time>2023-07-11T10:02:46Z</time></trkpt><trkpt lat="58.048392" lon="38.766462"><ele>105.0</ele><time>2023-07-11T10:02:48Z</time></trkpt><trkpt lat="58.048312" lon="38.766362"><ele>106.0</ele><time>2023-07-11T10:02:50Z</time></trkpt><trkpt lat="58.048238" lon="38.766265"><ele>105.0</ele><time>2023-07-11T10:02:52Z</time></trkpt><trkpt lat="58.048153" lon="38.766117"><ele>106.0</ele><time>2023-07-11T10:02:54Z</time></trkpt><trkpt lat="58.048068" lon="38.765995"><ele>104.0</ele><time>2023-07-11T10:02:56Z</time></trkpt><trkpt lat="58.047982" lon="38.765872"><ele>104.0</ele><time>2023-07-11T10:02:58Z</time></trkpt><trkpt lat="58.047897" lon="38.765755"><ele>102.0</ele><time>2023-07-11T10:03:00Z</time></trkpt><trkpt lat="58.047817" lon="38.765657"><ele>103.0</ele><time>2023-07-11T10:03:02Z</time></trkpt><trkpt lat="58.047747" lon="38.765585"><ele>103.0</ele><time>2023-07-11T10:03:04Z</time></trkpt><trkpt lat="58.047678" lon="38.765512"><ele>105.0</ele><time>2023-07-11T10:03:06Z</time></trkpt><trkpt lat="58.047603" lon="38.765428"><ele>104.0</ele><time>2023-07-11T10:03:08Z</time></trkpt><trkpt lat="58.047523" lon="38.765335"><ele>105.0</ele><time>2023-07-11T10:03:10Z</time></trkpt><trkpt lat="58.047448" lon="38.765215"><ele>104.0</ele><time>2023-07-11T10:03:12Z</time></trkpt><trkpt lat="58.047358" lon="38.7651"><ele>104.0</ele><time>2023-07-11T10:03:15Z</time></trkpt><trkpt lat="58.047273" lon="38.765038"><ele>105.0</ele><time>2023-07-11T10:03:18Z</time></trkpt><trkpt lat="58.047193" lon="38.765052"><ele>104.0</ele><time>2023-07-11T10:03:22Z</time></trkpt><trkpt lat="58.047105" lon="38.765043"><ele>104.0</ele><time>2023-07-11T10:03:27Z</time></trkpt><trkpt lat="58.047052" lon="38.764942"><ele>104.0</ele><time>2023-07-11T10:03:29Z</time></trkpt><trkpt lat="58.047003" lon="38.764785"><ele>101.0</ele><time>2023-07-11T10:03:31Z</time></trkpt><trkpt lat="58.046935" lon="38.764695"><ele>103.0</ele><time>2023-07-11T10:03:33Z</time></trkpt><trkpt lat="58.046878" lon="38.76461"><ele>101.0</ele><time>2023-07-11T10:03:35Z</time></trkpt><trkpt lat="58.04681" lon="38.764463"><ele>101.0</ele><time>2023-07-11T10:03:38Z</time></trkpt><trkpt lat="58.046745" lon="38.764387"><ele>102.0</ele><time>2023-07-11T10:03:40Z</time></trkpt><trkpt lat="58.046667" lon="38.764288"><ele>103.0</ele><time>2023-07-11T10:03:43Z</time></trkpt><trkpt lat="58.046608" lon="38.764207"><ele>102.0</ele><time>2023-07-11T10:03:45Z</time></trkpt><trkpt lat="58.046543" lon="38.76407"><ele>103.0</ele><time>2023-07-11T10:03:48Z</time></trkpt><trkpt lat="58.046513" lon="38.763925"><ele>103.0</ele><time>2023-07-11T10:03:51Z</time></trkpt><trkpt lat="58.046552" lon="38.763795"><ele>103.0</ele><time>2023-07-11T10:03:53Z</time></trkpt><trkpt lat="58.046607" lon="38.763673"><ele>102.0</ele><time>2023-07-11T10:03:55Z</time></trkpt><trkpt lat="58.046678" lon="38.763517"><ele>102.0</ele><time>2023-07-11T10:03:57Z</time></trkpt><trkpt lat="58.046727" lon="38.763357"><ele>101.0</ele><time>2023-07-11T10:03:59Z</time></trkpt><trkpt lat="58.046792" lon="38.763205"><ele>100.0</ele><time>2023-07-11T10:04:01Z</time></trkpt><trkpt lat="58.046837" lon="38.763072"><ele>98.0</ele><time>2023-07-11T10:04:03Z</time></trkpt><trkpt lat="58.046907" lon="38.762902"><ele>98.0</ele><time>2023-07-11T10:04:06Z</time></trkpt><trkpt lat="58.046953" lon="38.762757"><ele>99.0</ele><time>2023-07-11T10:04:07Z</time></trkpt><trkpt lat="58.047007" lon="38.762617"><ele>99.0</ele><time>2023-07-11T10:04:09Z</time></trkpt><trkpt lat="58.047068" lon="38.76246"><ele>99.0</ele><time>2023-07-11T10:04:11Z</time></trkpt><trkpt lat="58.047123" lon="38.762263"><ele>99.0</ele><time>2023-07-11T10:04:13Z</time></trkpt><trkpt lat="58.047183" lon="38.762113"><ele>99.0</ele><time>2023-07-11T10:04:15Z</time></trkpt><trkpt lat="58.047245" lon="38.761963"><ele>99.0</ele><time>2023-07-11T10:04:17Z</time></trkpt><trkpt lat="58.047313" lon="38.761802"><ele>100.0</ele><time>2023-07-11T10:04:19Z</time></trkpt><trkpt lat="58.047378" lon="38.76163"><ele>100.0</ele><time>2023-07-11T10:04:21Z</time></trkpt><trkpt lat="58.047427" lon="38.761468"><ele>100.0</ele><time>2023-07-11T10:04:23Z</time></trkpt><trkpt lat="58.047478" lon="38.761343"><ele>100.0</ele><time>2023-07-11T10:04:25Z</time></trkpt><trkpt lat="58.047525" lon="38.761195"><ele>100.0</ele><time>2023-07-11T10:04:27Z</time></trkpt><trkpt lat="58.047583" lon="38.76106"><ele>101.0</ele><time>2023-07-11T10:04:29Z</time></trkpt><trkpt lat="58.047632" lon="38.760918"><ele>101.0</ele><time>2023-07-11T10:04:31Z</time></trkpt><trkpt lat="58.047675" lon="38.760765"><ele>102.0</ele><time>2023-07-11T10:04:33Z</time></trkpt><trkpt lat="58.047737" lon="38.760608"><ele>102.0</ele><time>2023-07-11T10:04:35Z</time></trkpt><trkpt lat="58.047792" lon="38.760472"><ele>102.0</ele><time>2023-07-11T10:04:37Z</time></trkpt><trkpt lat="58.047852" lon="38.760278"><ele>102.0</ele><time>2023-07-11T10:04:39Z</time></trkpt><trkpt lat="58.047902" lon="38.760117"><ele>102.0</ele><time>2023-07-11T10:04:41Z</time></trkpt><trkpt lat="58.047965" lon="38.759993"><ele>101.0</ele><time>2023-07-11T10:04:43Z</time></trkpt><trkpt lat="58.048018" lon="38.759883"><ele>101.0</ele><time>2023-07-11T10:04:46Z</time></trkpt><trkpt lat="58.048073" lon="38.759703"><ele>99.0</ele><time>2023-07-11T10:04:48Z</time></trkpt><trkpt lat="58.048118" lon="38.759592"><ele>99.0</ele><time>2023-07-11T10:04:50Z</time></trkpt><trkpt lat="58.048187" lon="38.759448"><ele>100.0</ele><time>2023-07-11T10:04:53Z</time></trkpt><trkpt lat="58.048242" lon="38.75933"><ele>100.0</ele><time>2023-07-11T10:04:55Z</time></trkpt><trkpt lat="58.048288" lon="38.759195"><ele>100.0</ele><time>2023-07-11T10:04:57Z</time></trkpt><trkpt lat="58.048335" lon="38.75906"><ele>99.0</ele><time>2023-07-11T10:04:59Z</time></trkpt><trkpt lat="58.048352" lon="38.758887"><ele>99.0</ele><time>2023-07-11T10:05:01Z</time></trkpt><trkpt lat="58.048338" lon="38.758725"><ele>99.0</ele><time>2023-07-11T10:05:04Z</time></trkpt><trkpt lat="58.048293" lon="38.758572"><ele>98.0</ele><time>2023-07-11T10:05:07Z</time></trkpt><trkpt lat="58.048213" lon="38.758398"><ele>98.0</ele><time>2023-07-11T10:05:10Z</time></trkpt><trkpt lat="58.04813" lon="38.758298"><ele>99.0</ele><time>2023-07-11T10:05:12Z</time></trkpt><trkpt lat="58.04805" lon="38.75819"><ele>99.0</ele><time>2023-07-11T10:05:14Z</time></trkpt><trkpt lat="58.047975" lon="38.758098"><ele>100.0</ele><time>2023-07-11T10:05:16Z</time></trkpt><trkpt lat="58.047908" lon="38.75798"><ele>100.0</ele><time>2023-07-11T10:05:18Z</time></trkpt><trkpt lat="58.047897" lon="38.757835"><ele>98.0</ele><time>2023-07-11T10:05:20Z</time></trkpt><trkpt lat="58.047905" lon="38.757677"><ele>100.0</ele><time>2023-07-11T10:05:23Z</time></trkpt><trkpt lat="58.04793" lon="38.757535"><ele>99.0</ele><time>2023-07-11T10:05:25Z</time></trkpt><trkpt lat="58.047962" lon="38.757392"><ele>99.0</ele><time>2023-07-11T10:05:27Z</time></trkpt><trkpt lat="58.047998" lon="38.757252"><ele>99.0</ele><time>2023-07-11T10:05:29Z</time></trkpt><trkpt lat="58.048033" lon="38.757118"><ele>100.0</ele><time>2023-07-11T10:05:31Z</time></trkpt><trkpt lat="58.048067" lon="38.756988"><ele>99.0</ele><time>2023-07-11T10:05:33Z</time></trkpt><trkpt lat="58.048098" lon="38.75684"><ele>100.0</ele><time>2023-07-11T10:05:35Z</time></trkpt><trkpt lat="58.048125" lon="38.756693"><ele>99.0</ele><time>2023-07-11T10:05:37Z</time></trkpt><trkpt lat="58.048153" lon="38.756558"><ele>99.0</ele><time>2023-07-11T10:05:39Z</time></trkpt><trkpt lat="58.04819" lon="38.756433"><ele>99.0</ele><time>2023-07-11T10:05:41Z</time></trkpt><trkpt lat="58.048258" lon="38.756288"><ele>98.0</ele><time>2023-07-11T10:05:44Z</time></trkpt><trkpt lat="58.048317" lon="38.756122"><ele>98.0</ele><time>2023-07-11T10:05:47Z</time></trkpt><trkpt lat="58.048373" lon="38.75595"><ele>98.0</ele><time>2023-07-11T10:05:50Z</time></trkpt><trkpt lat="58.048422" lon="38.755818"><ele>98.0</ele><time>2023-07-11T10:05:52Z</time></trkpt><trkpt lat="58.048467" lon="38.755685"><ele>99.0</ele><time>2023-07-11T10:05:54Z</time></trkpt><trkpt lat="58.04853" lon="38.755585"><ele>98.0</ele><time>2023-07-11T10:05:56Z</time></trkpt><trkpt lat="58.048583" lon="38.75546"><ele>98.0</ele><time>2023-07-11T10:05:58Z</time></trkpt><trkpt lat="58.048648" lon="38.755367"><ele>97.0</ele><time>2023-07-11T10:06:00Z</time></trkpt><trkpt lat="58.048725" lon="38.755217"><ele>97.0</ele><time>2023-07-11T10:06:02Z</time></trkpt><trkpt lat="58.0488" lon="38.755047"><ele>96.0</ele><time>2023-07-11T10:06:04Z</time></trkpt><trkpt lat="58.048858" lon="38.754853"><ele>97.0</ele><time>2023-07-11T10:06:06Z</time></trkpt><trkpt lat="58.04891" lon="38.75472"><ele>97.0</ele><time>2023-07-11T10:06:08Z</time></trkpt><trkpt lat="58.048952" lon="38.754557"><ele>96.0</ele><time>2023-07-11T10:06:10Z</time></trkpt><trkpt lat="58.049008" lon="38.75445"><ele>96.0</ele><time>2023-07-11T10:06:12Z</time></trkpt><trkpt lat="58.04905" lon="38.75432"><ele>95.0</ele><time>2023-07-11T10:06:14Z</time></trkpt><trkpt lat="58.049095" lon="38.754167"><ele>96.0</ele><time>2023-07-11T10:06:16Z</time></trkpt><trkpt lat="58.049137" lon="38.754052"><ele>96.0</ele><time>2023-07-11T10:06:18Z</time></trkpt><trkpt lat="58.049175" lon="38.753932"><ele>96.0</ele><time>2023-07-11T10:06:20Z</time></trkpt><trkpt lat="58.049218" lon="38.753785"><ele>96.0</ele><time>2023-07-11T10:06:23Z</time></trkpt><trkpt lat="58.049252" lon="38.753655"><ele>96.0</ele><time>2023-07-11T10:06:28Z</time></trkpt><trkpt lat="58.049148" lon="38.753568"><ele>107.0</ele><time>2023-07-11T13:10:55Z</time></trkpt><trkpt lat="58.049125" lon="38.753717"><ele>111.0</ele><time>2023-07-11T13:10:58Z</time></trkpt><trkpt lat="58.049083" lon="38.753872"><ele>113.0</ele><time>2023-07-11T13:11:01Z</time></trkpt><trkpt lat="58.049037" lon="38.75404"><ele>112.0</ele><time>2023-07-11T13:11:04Z</time></trkpt><trkpt lat="58.04897" lon="38.754187"><ele>111.0</ele><time>2023-07-11T13:11:07Z</time></trkpt><trkpt lat="58.048915" lon="38.754303"><ele>109.0</ele><time>2023-07-11T13:11:09Z</time></trkpt><trkpt lat="58.048868" lon="38.754438"><ele>109.0</ele><time>2023-07-11T13:11:11Z</time></trkpt><trkpt lat="58.04883" lon="38.754568"><ele>109.0</ele><time>2023-07-11T13:11:13Z</time></trkpt><trkpt lat="58.048798" lon="38.754698"><ele>108.0</ele><time>2023-07-11T13:11:15Z</time></trkpt><trkpt lat="58.048757" lon="38.754863"><ele>108.0</ele><time>2023-07-11T13:11:18Z</time></trkpt><trkpt lat="58.048722" lon="38.755015"><ele>107.0</ele><time>2023-07-11T13:11:22Z</time></trkpt><trkpt lat="58.048673" lon="38.755122"><ele>107.0</ele><time>2023-07-11T13:11:26Z</time></trkpt><trkpt lat="58.048645" lon="38.75525"><ele>107.0</ele><time>2023-07-11T13:11:33Z</time></trkpt><trkpt lat="58.048587" lon="38.755367"><ele>107.0</ele><time>2023-07-11T13:12:09Z</time></trkpt><trkpt lat="58.04851" lon="38.75547"><ele>107.0</ele><time>2023-07-11T13:12:12Z</time></trkpt><trkpt lat="58.04844" lon="38.75561"><ele>106.0</ele><time>2023-07-11T13:12:15Z</time></trkpt><trkpt lat="58.048393" lon="38.755722"><ele>105.0</ele><time>2023-07-11T13:12:17Z</time></trkpt><trkpt lat="58.04835" lon="38.755835"><ele>105.0</ele><time>2023-07-11T13:12:19Z</time></trkpt><trkpt lat="58.048308" lon="38.755945"><ele>105.0</ele><time>2023-07-11T13:12:21Z</time></trkpt><trkpt lat="58.048267" lon="38.75606"><ele>104.0</ele><time>2023-07-11T13:12:23Z</time></trkpt><trkpt lat="58.048228" lon="38.756182"><ele>103.0</ele><time>2023-07-11T13:12:25Z</time></trkpt><trkpt lat="58.048188" lon="38.75633"><ele>103.0</ele><time>2023-07-11T13:12:28Z</time></trkpt><trkpt lat="58.04815" lon="38.756482"><ele>103.0</ele><time>2023-07-11T13:12:32Z</time></trkpt><trkpt lat="58.048108" lon="38.756608"><ele>104.0</ele><time>2023-07-11T13:12:36Z</time></trkpt><trkpt lat="58.048073" lon="38.756745"><ele>104.0</ele><time>2023-07-11T13:12:39Z</time></trkpt><trkpt lat="58.048047" lon="38.756878"><ele>105.0</ele><time>2023-07-11T13:12:42Z</time></trkpt><trkpt lat="58.048033" lon="38.757038"><ele>104.0</ele><time>2023-07-11T13:12:46Z</time></trkpt><trkpt lat="58.048015" lon="38.757182"><ele>103.0</ele><time>2023-07-11T13:12:50Z</time></trkpt><trkpt lat="58.047988" lon="38.757313"><ele>102.0</ele><time>2023-07-11T13:12:54Z</time></trkpt><trkpt lat="58.04795" lon="38.757457"><ele>102.0</ele><time>2023-07-11T13:12:59Z</time></trkpt><trkpt lat="58.047917" lon="38.75758"><ele>103.0</ele><time>2023-07-11T13:13:05Z</time></trkpt><trkpt lat="58.047875" lon="38.757707"><ele>103.0</ele><time>2023-07-11T13:13:10Z</time></trkpt><trkpt lat="58.047827" lon="38.757843"><ele>104.0</ele><time>2023-07-11T13:13:15Z</time></trkpt><trkpt lat="58.0478" lon="38.757978"><ele>105.0</ele><time>2023-07-11T13:13:28Z</time></trkpt><trkpt lat="58.047833" lon="38.7581"><ele>104.0</ele><time>2023-07-11T13:13:31Z</time></trkpt><trkpt lat="58.047892" lon="38.758208"><ele>103.0</ele><time>2023-07-11T13:13:34Z</time></trkpt><trkpt lat="58.047952" lon="38.758288"><ele>105.0</ele><time>2023-07-11T13:13:37Z</time></trkpt><trkpt lat="58.048032" lon="38.758367"><ele>107.0</ele><time>2023-07-11T13:13:40Z</time></trkpt><trkpt lat="58.048127" lon="38.758465"><ele>106.0</ele><time>2023-07-11T13:13:43Z</time></trkpt><trkpt lat="58.048193" lon="38.758538"><ele>107.0</ele><time>2023-07-11T13:13:45Z</time></trkpt><trkpt lat="58.048248" lon="38.758637"><ele>107.0</ele><time>2023-07-11T13:13:47Z</time></trkpt><trkpt lat="58.0483" lon="38.758777"><ele>106.0</ele><time>2023-07-11T13:13:50Z</time></trkpt><trkpt lat="58.048282" lon="38.759027"><ele>106.0</ele><time>2023-07-11T13:13:53Z</time></trkpt><trkpt lat="58.048273" lon="38.759203"><ele>106.0</ele><time>2023-07-11T13:13:55Z</time></trkpt><trkpt lat="58.048223" lon="38.759367"><ele>106.0</ele><time>2023-07-11T13:13:57Z</time></trkpt><trkpt lat="58.048157" lon="38.759507"><ele>106.0</ele><time>2023-07-11T13:13:59Z</time></trkpt><trkpt lat="58.048098" lon="38.759662"><ele>107.0</ele><time>2023-07-11T13:14:01Z</time></trkpt><trkpt lat="58.04803" lon="38.759838"><ele>106.0</ele><time>2023-07-11T13:14:03Z</time></trkpt><trkpt lat="58.047962" lon="38.760003"><ele>105.0</ele><time>2023-07-11T13:14:05Z</time></trkpt><trkpt lat="58.047898" lon="38.76013"><ele>105.0</ele><time>2023-07-11T13:14:07Z</time></trkpt><trkpt lat="58.047843" lon="38.760282"><ele>104.0</ele><time>2023-07-11T13:14:09Z</time></trkpt><trkpt lat="58.04777" lon="38.760442"><ele>104.0</ele><time>2023-07-11T13:14:11Z</time></trkpt><trkpt lat="58.047702" lon="38.760672"><ele>103.0</ele><time>2023-07-11T13:14:13Z</time></trkpt><trkpt lat="58.047663" lon="38.76079"><ele>102.0</ele><time>2023-07-11T13:14:14Z</time></trkpt><trkpt lat="58.047592" lon="38.761005"><ele>101.0</ele><time>2023-07-11T13:14:16Z</time></trkpt><trkpt lat="58.047528" lon="38.761185"><ele>101.0</ele><time>2023-07-11T13:14:18Z</time></trkpt><trkpt lat="58.047455" lon="38.761392"><ele>101.0</ele><time>2023-07-11T13:14:20Z</time></trkpt><trkpt lat="58.047378" lon="38.76161"><ele>101.0</ele><time>2023-07-11T13:14:22Z</time></trkpt><trkpt lat="58.047332" lon="38.761718"><ele>101.0</ele><time>2023-07-11T13:14:23Z</time></trkpt><trkpt lat="58.047285" lon="38.761827"><ele>101.0</ele><time>2023-07-11T13:14:24Z</time></trkpt><trkpt lat="58.047213" lon="38.762027"><ele>101.0</ele><time>2023-07-11T13:14:26Z</time></trkpt><trkpt lat="58.047143" lon="38.76221"><ele>100.0</ele><time>2023-07-11T13:14:28Z</time></trkpt><trkpt lat="58.047075" lon="38.762377"><ele>101.0</ele><time>2023-07-11T13:14:30Z</time></trkpt><trkpt lat="58.047018" lon="38.762533"><ele>100.0</ele><time>2023-07-11T13:14:32Z</time></trkpt><trkpt lat="58.046965" lon="38.762692"><ele>100.0</ele><time>2023-07-11T13:14:34Z</time></trkpt><trkpt lat="58.0469" lon="38.762877"><ele>100.0</ele><time>2023-07-11T13:14:36Z</time></trkpt><trkpt lat="58.046817" lon="38.763082"><ele>101.0</ele><time>2023-07-11T13:14:38Z</time></trkpt><trkpt lat="58.046735" lon="38.763297"><ele>101.0</ele><time>2023-07-11T13:14:40Z</time></trkpt><trkpt lat="58.046673" lon="38.763513"><ele>102.0</ele><time>2023-07-11T13:14:42Z</time></trkpt><trkpt lat="58.046607" lon="38.76369"><ele>102.0</ele><time>2023-07-11T13:14:44Z</time></trkpt><trkpt lat="58.046542" lon="38.763857"><ele>101.0</ele><time>2023-07-11T13:14:46Z</time></trkpt><trkpt lat="58.046493" lon="38.764"><ele>101.0</ele><time>2023-07-11T13:14:48Z</time></trkpt><trkpt lat="58.046518" lon="38.764132"><ele>102.0</ele><time>2023-07-11T13:14:50Z</time></trkpt><trkpt lat="58.046568" lon="38.764248"><ele>102.0</ele><time>2023-07-11T13:14:52Z</time></trkpt><trkpt lat="58.046642" lon="38.764355"><ele>103.0</ele><time>2023-07-11T13:14:54Z</time></trkpt><trkpt lat="58.04672" lon="38.764455"><ele>103.0</ele><time>2023-07-11T13:14:56Z</time></trkpt><trkpt lat="58.046797" lon="38.76456"><ele>103.0</ele><time>2023-07-11T13:14:58Z</time></trkpt><trkpt lat="58.046875" lon="38.764655"><ele>103.0</ele><time>2023-07-11T13:15:00Z</time></trkpt><trkpt lat="58.046977" lon="38.764793"><ele>102.0</ele><time>2023-07-11T13:15:02Z</time></trkpt><trkpt lat="58.047082" lon="38.764918"><ele>102.0</ele><time>2023-07-11T13:15:04Z</time></trkpt><trkpt lat="58.047163" lon="38.765035"><ele>103.0</ele><time>2023-07-11T13:15:06Z</time></trkpt><trkpt lat="58.04726" lon="38.76512"><ele>102.0</ele><time>2023-07-11T13:15:08Z</time></trkpt><trkpt lat="58.047348" lon="38.76518"><ele>103.0</ele><time>2023-07-11T13:15:10Z</time></trkpt><trkpt lat="58.047418" lon="38.765272"><ele>104.0</ele><time>2023-07-11T13:15:12Z</time></trkpt><trkpt lat="58.047497" lon="38.765347"><ele>104.0</ele><time>2023-07-11T13:15:14Z</time></trkpt><trkpt lat="58.047562" lon="38.765427"><ele>105.0</ele><time>2023-07-11T13:15:16Z</time></trkpt><trkpt lat="58.047635" lon="38.765522"><ele>105.0</ele><time>2023-07-11T13:15:18Z</time></trkpt><trkpt lat="58.0477" lon="38.765643"><ele>103.0</ele><time>2023-07-11T13:15:20Z</time></trkpt><trkpt lat="58.047773" lon="38.765727"><ele>101.0</ele><time>2023-07-11T13:15:22Z</time></trkpt><trkpt lat="58.047847" lon="38.76583"><ele>102.0</ele><time>2023-07-11T13:15:24Z</time></trkpt><trkpt lat="58.04794" lon="38.765922"><ele>101.0</ele><time>2023-07-11T13:15:26Z</time></trkpt><trkpt lat="58.048002" lon="38.766"><ele>101.0</ele><time>2023-07-11T13:15:27Z</time></trkpt><trkpt lat="58.04811" lon="38.76613"><ele>103.0</ele><time>2023-07-11T13:15:29Z</time></trkpt><trkpt lat="58.048197" lon="38.76627"><ele>102.0</ele><time>2023-07-11T13:15:31Z</time></trkpt><trkpt lat="58.04829" lon="38.766395"><ele>102.0</ele><time>2023-07-11T13:15:33Z</time></trkpt><trkpt lat="58.048395" lon="38.76649"><ele>104.0</ele><time>2023-07-11T13:15:35Z</time></trkpt><trkpt lat="58.048462" lon="38.766592"><ele>104.0</ele><time>2023-07-11T13:15:37Z</time></trkpt><trkpt lat="58.048538" lon="38.766705"><ele>104.0</ele><time>2023-07-11T13:15:39Z</time></trkpt><trkpt lat="58.048622" lon="38.766818"><ele>105.0</ele><time>2023-07-11T13:15:41Z</time></trkpt><trkpt lat="58.048718" lon="38.76691"><ele>105.0</ele><time>2023-07-11T13:15:43Z</time></trkpt><trkpt lat="58.0488" lon="38.766995"><ele>104.0</ele><time>2023-07-11T13:15:46Z</time></trkpt><trkpt lat="58.048888" lon="38.767017"><ele>104.0</ele><time>2023-07-11T13:15:48Z</time></trkpt><trkpt lat="58.048973" lon="38.767045"><ele>102.0</ele><time>2023-07-11T13:15:50Z</time></trkpt><trkpt lat="58.049083" lon="38.767072"><ele>102.0</ele><time>2023-07-11T13:15:52Z</time></trkpt><trkpt lat="58.049185" lon="38.767095"><ele>103.0</ele><time>2023-07-11T13:15:54Z</time></trkpt><trkpt lat="58.04928" lon="38.767102"><ele>104.0</ele><time>2023-07-11T13:15:56Z</time></trkpt><trkpt lat="58.049357" lon="38.767122"><ele>104.0</ele><time>2023-07-11T13:15:59Z</time></trkpt><trkpt lat="58.049437" lon="38.76723"><ele>103.0</ele><time>2023-07-11T13:16:05Z</time></trkpt><trkpt lat="58.049507" lon="38.767332"><ele>103.0</ele><time>2023-07-11T13:16:08Z</time></trkpt><trkpt lat="58.049567" lon="38.767423"><ele>101.0</ele><time>2023-07-11T13:16:18Z</time></trkpt><trkpt lat="58.049635" lon="38.767535"><ele>102.0</ele><time>2023-07-11T13:16:22Z</time></trkpt><trkpt lat="58.049735" lon="38.767612"><ele>101.0</ele><time>2023-07-11T13:16:25Z</time></trkpt><trkpt lat="58.049828" lon="38.767692"><ele>101.0</ele><time>2023-07-11T13:16:28Z</time></trkpt><trkpt lat="58.049898" lon="38.767742"><ele>101.0</ele><time>2023-07-11T13:16:31Z</time></trkpt><trkpt lat="58.049983" lon="38.767777"><ele>102.0</ele><time>2023-07-11T13:16:35Z</time></trkpt><trkpt lat="58.050078" lon="38.767755"><ele>101.0</ele><time>2023-07-11T13:16:38Z</time></trkpt><trkpt lat="58.050178" lon="38.767723"><ele>103.0</ele><time>2023-07-11T13:16:42Z</time></trkpt><trkpt lat="58.050275" lon="38.767705"><ele>104.0</ele><time>2023-07-11T13:16:45Z</time></trkpt><trkpt lat="58.050363" lon="38.767682"><ele>100.0</ele><time>2023-07-11T13:16:48Z</time></trkpt><trkpt lat="58.050448" lon="38.767652"><ele>102.0</ele><time>2023-07-11T13:16:51Z</time></trkpt><trkpt lat="58.050528" lon="38.767612"><ele>101.0</ele><time>2023-07-11T13:16:54Z</time></trkpt><trkpt lat="58.05063" lon="38.767615"><ele>102.0</ele><time>2023-07-11T13:16:58Z</time></trkpt><trkpt lat="58.050708" lon="38.767562"><ele>105.0</ele><time>2023-07-11T13:17:00Z</time></trkpt><trkpt lat="58.050782" lon="38.767512"><ele>103.0</ele><time>2023-07-11T13:17:02Z</time></trkpt><trkpt lat="58.050857" lon="38.767505"><ele>102.0</ele><time>2023-07-11T13:17:04Z</time></trkpt><trkpt lat="58.050933" lon="38.767498"><ele>103.0</ele><time>2023-07-11T13:17:06Z</time></trkpt><trkpt lat="58.050988" lon="38.767353"><ele>106.0</ele><time>2023-07-11T13:17:08Z</time></trkpt><trkpt lat="58.051042" lon="38.767235"><ele>106.0</ele><time>2023-07-11T13:17:10Z</time></trkpt><trkpt lat="58.051125" lon="38.767137"><ele>107.0</ele><time>2023-07-11T13:17:13Z</time></trkpt><trkpt lat="58.05121" lon="38.767135"><ele>106.0</ele><time>2023-07-11T13:17:16Z</time></trkpt><trkpt lat="58.05129" lon="38.767058"><ele>105.0</ele><time>2023-07-11T13:17:43Z</time></trkpt><trkpt lat="58.051378" lon="38.767118"><ele>104.0</ele><time>2023-07-11T13:17:46Z</time></trkpt><trkpt lat="58.051443" lon="38.76725"><ele>103.0</ele><time>2023-07-11T13:17:49Z</time></trkpt><trkpt lat="58.051515" lon="38.767365"><ele>102.0</ele><time>2023-07-11T13:17:52Z</time></trkpt><trkpt lat="58.051592" lon="38.767367"><ele>101.0</ele><time>2023-07-11T13:17:54Z</time></trkpt><trkpt lat="58.05169" lon="38.76737"><ele>102.0</ele><time>2023-07-11T13:17:57Z</time></trkpt><trkpt lat="58.051608" lon="38.767333"><ele>96.0</ele><time>2023-07-11T13:18:11Z</time></trkpt><trkpt lat="58.051535" lon="38.767368"><ele>96.0</ele><time>2023-07-11T13:18:16Z</time></trkpt><trkpt lat="58.051532" lon="38.767562"><ele>96.0</ele><time>2023-07-11T13:18:22Z</time></trkpt><trkpt lat="58.05155" lon="38.76773"><ele>97.0</ele><time>2023-07-11T13:18:25Z</time></trkpt><trkpt lat="58.051618" lon="38.767802"><ele>98.0</ele><time>2023-07-11T13:18:31Z</time></trkpt><trkpt lat="58.051725" lon="38.767773"><ele>99.0</ele><time>2023-07-11T13:18:34Z</time></trkpt><trkpt lat="58.051822" lon="38.767757"><ele>100.0</ele><time>2023-07-11T13:18:36Z</time></trkpt><trkpt lat="58.051943" lon="38.767733"><ele>100.0</ele><time>2023-07-11T13:18:38Z</time></trkpt><trkpt lat="58.052087" lon="38.767703"><ele>101.0</ele><time>2023-07-11T13:18:40Z</time></trkpt><trkpt lat="58.05216" lon="38.767688"><ele>101.0</ele><time>2023-07-11T13:18:41Z</time></trkpt><trkpt lat="58.052232" lon="38.767673"><ele>101.0</ele><time>2023-07-11T13:18:42Z</time></trkpt><trkpt lat="58.052312" lon="38.767657"><ele>102.0</ele><time>2023-07-11T13:18:43Z</time></trkpt><trkpt lat="58.052452" lon="38.76764"><ele>102.0</ele><time>2023-07-11T13:18:45Z</time></trkpt><trkpt lat="58.052583" lon="38.767617"><ele>102.0</ele><time>2023-07-11T13:18:47Z</time></trkpt><trkpt lat="58.052685" lon="38.767567"><ele>103.0</ele><time>2023-07-11T13:18:49Z</time></trkpt><trkpt lat="58.052787" lon="38.767548"><ele>103.0</ele><time>2023-07-11T13:18:51Z</time></trkpt><trkpt lat="58.052892" lon="38.767547"><ele>103.0</ele><time>2023-07-11T13:18:53Z</time></trkpt><trkpt lat="58.05297" lon="38.76753"><ele>103.0</ele><time>2023-07-11T13:18:56Z</time></trkpt><trkpt lat="58.05305" lon="38.767503"><ele>103.0</ele><time>2023-07-11T13:18:58Z</time></trkpt><trkpt lat="58.053127" lon="38.767468"><ele>103.0</ele><time>2023-07-11T13:19:00Z</time></trkpt><trkpt lat="58.053212" lon="38.767463"><ele>103.0</ele><time>2023-07-11T13:19:02Z</time></trkpt><trkpt lat="58.053297" lon="38.767445"><ele>102.0</ele><time>2023-07-11T13:19:04Z</time></trkpt><trkpt lat="58.053392" lon="38.767422"><ele>102.0</ele><time>2023-07-11T13:19:06Z</time></trkpt><trkpt lat="58.053498" lon="38.767383"><ele>101.0</ele><time>2023-07-11T13:19:08Z</time></trkpt><trkpt lat="58.05361" lon="38.767362"><ele>101.0</ele><time>2023-07-11T13:19:10Z</time></trkpt><trkpt lat="58.053697" lon="38.767353"><ele>102.0</ele><time>2023-07-11T13:19:12Z</time></trkpt><trkpt lat="58.053787" lon="38.767357"><ele>101.0</ele><time>2023-07-11T13:19:14Z</time></trkpt><trkpt lat="58.053878" lon="38.767338"><ele>102.0</ele><time>2023-07-11T13:19:16Z</time></trkpt><trkpt lat="58.053983" lon="38.767318"><ele>102.0</ele><time>2023-07-11T13:19:18Z</time></trkpt><trkpt lat="58.054095" lon="38.767297"><ele>103.0</ele><time>2023-07-11T13:19:20Z</time></trkpt><trkpt lat="58.054232" lon="38.767312"><ele>102.0</ele><time>2023-07-11T13:19:22Z</time></trkpt><trkpt lat="58.05435" lon="38.767317"><ele>103.0</ele><time>2023-07-11T13:19:24Z</time></trkpt><trkpt lat="58.05445" lon="38.767365"><ele>103.0</ele><time>2023-07-11T13:19:26Z</time></trkpt><trkpt lat="58.054537" lon="38.767412"><ele>103.0</ele><time>2023-07-11T13:19:28Z</time></trkpt><trkpt lat="58.054617" lon="38.76747"><ele>103.0</ele><time>2023-07-11T13:19:30Z</time></trkpt><trkpt lat="58.054683" lon="38.767548"><ele>102.0</ele><time>2023-07-11T13:19:32Z</time></trkpt><trkpt lat="58.054755" lon="38.767635"><ele>102.0</ele><time>2023-07-11T13:19:34Z</time></trkpt><trkpt lat="58.054837" lon="38.767717"><ele>102.0</ele><time>2023-07-11T13:19:36Z</time></trkpt><trkpt lat="58.054922" lon="38.767813"><ele>102.0</ele><time>2023-07-11T13:19:38Z</time></trkpt><trkpt lat="58.055008" lon="38.76792"><ele>101.0</ele><time>2023-07-11T13:19:40Z</time></trkpt><trkpt lat="58.055103" lon="38.768015"><ele>101.0</ele><time>2023-07-11T13:19:42Z</time></trkpt><trkpt lat="58.055168" lon="38.768102"><ele>101.0</ele><time>2023-07-11T13:19:44Z</time></trkpt><trkpt lat="58.055248" lon="38.768155"><ele>103.0</ele><time>2023-07-11T13:19:47Z</time></trkpt><trkpt lat="58.055235" lon="38.768293"><ele>104.0</ele><time>2023-07-11T13:19:52Z</time></trkpt><trkpt lat="58.05519" lon="38.768455"><ele>103.0</ele><time>2023-07-11T13:19:55Z</time></trkpt><trkpt lat="58.055175" lon="38.768588"><ele>103.0</ele><time>2023-07-11T13:19:57Z</time></trkpt><trkpt lat="58.055192" lon="38.768732"><ele>104.0</ele><time>2023-07-11T13:19:59Z</time></trkpt><trkpt lat="58.055217" lon="38.768872"><ele>103.0</ele><time>2023-07-11T13:20:01Z</time></trkpt><trkpt lat="58.055242" lon="38.769008"><ele>104.0</ele><time>2023-07-11T13:20:03Z</time></trkpt><trkpt lat="58.055295" lon="38.769147"><ele>105.0</ele><time>2023-07-11T13:20:06Z</time></trkpt><trkpt lat="58.055372" lon="38.769188"><ele>105.0</ele><time>2023-07-11T13:20:11Z</time></trkpt><trkpt lat="58.055458" lon="38.76926"><ele>105.0</ele><time>2023-07-11T13:20:16Z</time></trkpt><trkpt lat="58.055532" lon="38.76927"><ele>105.0</ele><time>2023-07-11T13:20:18Z</time></trkpt><trkpt lat="58.055635" lon="38.769265"><ele>105.0</ele><time>2023-07-11T13:20:21Z</time></trkpt><trkpt lat="58.05571" lon="38.769207"><ele>106.0</ele><time>2023-07-11T13:20:24Z</time></trkpt><trkpt lat="58.055757" lon="38.769075"><ele>104.0</ele><time>2023-07-11T13:20:27Z</time></trkpt><trkpt lat="58.055777" lon="38.768917"><ele>102.0</ele><time>2023-07-11T13:20:30Z</time></trkpt><trkpt lat="58.055842" lon="38.768815"><ele>104.0</ele><time>2023-07-11T13:20:33Z</time></trkpt><trkpt lat="58.055918" lon="38.768798"><ele>105.0</ele><time>2023-07-11T13:20:35Z</time></trkpt><trkpt lat="58.056002" lon="38.76879"><ele>106.0</ele><time>2023-07-11T13:20:37Z</time></trkpt><trkpt lat="58.056085" lon="38.768772"><ele>105.0</ele><time>2023-07-11T13:20:39Z</time></trkpt><trkpt lat="58.05619" lon="38.768743"><ele>104.0</ele><time>2023-07-11T13:20:42Z</time></trkpt><trkpt lat="58.05629" lon="38.768703"><ele>104.0</ele><time>2023-07-11T13:20:45Z</time></trkpt><trkpt lat="58.056382" lon="38.768643"><ele>104.0</ele><time>2023-07-11T13:20:48Z</time></trkpt><trkpt lat="58.056458" lon="38.768613"><ele>105.0</ele><time>2023-07-11T13:20:50Z</time></trkpt><trkpt lat="58.056533" lon="38.768633"><ele>106.0</ele><time>2023-07-11T13:20:52Z</time></trkpt><trkpt lat="58.056613" lon="38.76862"><ele>107.0</ele><time>2023-07-11T13:20:54Z</time></trkpt><trkpt lat="58.056703" lon="38.768565"><ele>107.0</ele><time>2023-07-11T13:20:56Z</time></trkpt><trkpt lat="58.056782" lon="38.768528"><ele>108.0</ele><time>2023-07-11T13:20:58Z</time></trkpt><trkpt lat="58.056865" lon="38.768463"><ele>108.0</ele><time>2023-07-11T13:21:00Z</time></trkpt><trkpt lat="58.056975" lon="38.768463"><ele>108.0</ele><time>2023-07-11T13:21:03Z</time></trkpt><trkpt lat="58.057065" lon="38.768443"><ele>108.0</ele><time>2023-07-11T13:21:05Z</time></trkpt><trkpt lat="58.057162" lon="38.768393"><ele>109.0</ele><time>2023-07-11T13:21:07Z</time></trkpt><trkpt lat="58.057237" lon="38.768333"><ele>110.0</ele><time>2023-07-11T13:21:09Z</time></trkpt><trkpt lat="58.057337" lon="38.768312"><ele>109.0</ele><time>2023-07-11T13:21:11Z</time></trkpt><trkpt lat="58.057425" lon="38.768257"><ele>108.0</ele><time>2023-07-11T13:21:13Z</time></trkpt><trkpt lat="58.0575" lon="38.768222"><ele>110.0</ele><time>2023-07-11T13:21:15Z</time></trkpt><trkpt lat="58.05759" lon="38.768193"><ele>110.0</ele><time>2023-07-11T13:21:18Z</time></trkpt><trkpt lat="58.057663" lon="38.768142"><ele>111.0</ele><time>2023-07-11T13:21:21Z</time></trkpt><trkpt lat="58.057743" lon="38.76811"><ele>111.0</ele><time>2023-07-11T13:21:24Z</time></trkpt><trkpt lat="58.057832" lon="38.76813"><ele>110.0</ele><time>2023-07-11T13:21:27Z</time></trkpt><trkpt lat="58.057917" lon="38.768157"><ele>110.0</ele><time>2023-07-11T13:21:30Z</time></trkpt><trkpt lat="58.05799" lon="38.768143"><ele>110.0</ele><time>2023-07-11T13:21:33Z</time></trkpt><trkpt lat="58.058077" lon="38.768135"><ele>111.0</ele><time>2023-07-11T13:21:36Z</time></trkpt><trkpt lat="58.058163" lon="38.76813"><ele>111.0</ele><time>2023-07-11T13:21:39Z</time></trkpt><trkpt lat="58.05825" lon="38.768173"><ele>112.0</ele><time>2023-07-11T13:21:42Z</time></trkpt><trkpt lat="58.058278" lon="38.768305"><ele>111.0</ele><time>2023-07-11T13:21:44Z</time></trkpt><trkpt lat="58.058282" lon="38.768535"><ele>112.0</ele><time>2023-07-11T13:21:46Z</time></trkpt><trkpt lat="58.058302" lon="38.76874"><ele>112.0</ele><time>2023-07-11T13:21:48Z</time></trkpt><trkpt lat="58.058278" lon="38.76895"><ele>111.0</ele><time>2023-07-11T13:21:50Z</time></trkpt><trkpt lat="58.058333" lon="38.769168"><ele>111.0</ele><time>2023-07-11T13:21:52Z</time></trkpt><trkpt lat="58.05836" lon="38.769342"><ele>110.0</ele><time>2023-07-11T13:21:54Z</time></trkpt><trkpt lat="58.058375" lon="38.769515"><ele>110.0</ele><time>2023-07-11T13:21:56Z</time></trkpt><trkpt lat="58.058377" lon="38.769662"><ele>110.0</ele><time>2023-07-11T13:21:58Z</time></trkpt><trkpt lat="58.058383" lon="38.769828"><ele>112.0</ele><time>2023-07-11T13:22:00Z</time></trkpt><trkpt lat="58.058402" lon="38.769982"><ele>111.0</ele><time>2023-07-11T13:22:02Z</time></trkpt><trkpt lat="58.058417" lon="38.770133"><ele>111.0</ele><time>2023-07-11T13:22:04Z</time></trkpt><trkpt lat="58.058433" lon="38.77033"><ele>112.0</ele><time>2023-07-11T13:22:07Z</time></trkpt><trkpt lat="58.058428" lon="38.770475"><ele>109.0</ele><time>2023-07-11T13:22:09Z</time></trkpt><trkpt lat="58.058422" lon="38.770635"><ele>107.0</ele><time>2023-07-11T13:22:11Z</time></trkpt><trkpt lat="58.058422" lon="38.770798"><ele>105.0</ele><time>2023-07-11T13:22:13Z</time></trkpt><trkpt lat="58.058438" lon="38.770958"><ele>105.0</ele><time>2023-07-11T13:22:15Z</time></trkpt><trkpt lat="58.058453" lon="38.77111"><ele>106.0</ele><time>2023-07-11T13:22:17Z</time></trkpt><trkpt lat="58.058473" lon="38.771273"><ele>105.0</ele><time>2023-07-11T13:22:19Z</time></trkpt><trkpt lat="58.058508" lon="38.771442"><ele>104.0</ele><time>2023-07-11T13:22:21Z</time></trkpt><trkpt lat="58.058498" lon="38.77158"><ele>103.0</ele><time>2023-07-11T13:22:23Z</time></trkpt><trkpt lat="58.05854" lon="38.771735"><ele>106.0</ele><time>2023-07-11T13:22:25Z</time></trkpt><trkpt lat="58.058523" lon="38.771875"><ele>105.0</ele><time>2023-07-11T13:22:27Z</time></trkpt><trkpt lat="58.058535" lon="38.772023"><ele>105.0</ele><time>2023-07-11T13:22:29Z</time></trkpt><trkpt lat="58.058585" lon="38.77222"><ele>104.0</ele><time>2023-07-11T13:22:32Z</time></trkpt><trkpt lat="58.058615" lon="38.772367"><ele>104.0</ele><time>2023-07-11T13:22:34Z</time></trkpt><trkpt lat="58.058648" lon="38.772543"><ele>104.0</ele><time>2023-07-11T13:22:37Z</time></trkpt><trkpt lat="58.058685" lon="38.772693"><ele>103.0</ele><time>2023-07-11T13:22:40Z</time></trkpt><trkpt lat="58.058752" lon="38.77282"><ele>101.0</ele><time>2023-07-11T13:22:42Z</time></trkpt><trkpt lat="58.058828" lon="38.772905"><ele>102.0</ele><time>2023-07-11T13:22:44Z</time></trkpt><trkpt lat="58.058913" lon="38.773025"><ele>102.0</ele><time>2023-07-11T13:22:46Z</time></trkpt><trkpt lat="58.058998" lon="38.773107"><ele>102.0</ele><time>2023-07-11T13:22:48Z</time></trkpt><trkpt lat="58.059068" lon="38.773193"><ele>103.0</ele><time>2023-07-11T13:22:50Z</time></trkpt><trkpt lat="58.059133" lon="38.773295"><ele>104.0</ele><time>2023-07-11T13:22:52Z</time></trkpt><trkpt lat="58.059208" lon="38.773378"><ele>104.0</ele><time>2023-07-11T13:22:54Z</time></trkpt><trkpt lat="58.059278" lon="38.773457"><ele>104.0</ele><time>2023-07-11T13:22:56Z</time></trkpt><trkpt lat="58.059347" lon="38.773518"><ele>104.0</ele><time>2023-07-11T13:22:58Z</time></trkpt><trkpt lat="58.059423" lon="38.773618"><ele>105.0</ele><time>2023-07-11T13:23:00Z</time></trkpt><trkpt lat="58.05947" lon="38.77374"><ele>105.0</ele><time>2023-07-11T13:23:01Z</time></trkpt><trkpt lat="58.059545" lon="38.773845"><ele>103.0</ele><time>2023-07-11T13:23:03Z</time></trkpt><trkpt lat="58.059627" lon="38.773937"><ele>104.0</ele><time>2023-07-11T13:23:05Z</time></trkpt><trkpt lat="58.059703" lon="38.773985"><ele>106.0</ele><time>2023-07-11T13:23:07Z</time></trkpt><trkpt lat="58.059783" lon="38.773993"><ele>106.0</ele><time>2023-07-11T13:23:09Z</time></trkpt><trkpt lat="58.059838" lon="38.774118"><ele>107.0</ele><time>2023-07-11T13:23:11Z</time></trkpt><trkpt lat="58.059887" lon="38.774287"><ele>105.0</ele><time>2023-07-11T13:23:15Z</time></trkpt><trkpt lat="58.059887" lon="38.774472"><ele>106.0</ele><time>2023-07-11T13:23:18Z</time></trkpt><trkpt lat="58.059837" lon="38.774638"><ele>104.0</ele><time>2023-07-11T13:23:20Z</time></trkpt><trkpt lat="58.05983" lon="38.774803"><ele>102.0</ele><time>2023-07-11T13:23:22Z</time></trkpt><trkpt lat="58.059812" lon="38.774987"><ele>101.0</ele><time>2023-07-11T13:23:24Z</time></trkpt><trkpt lat="58.059782" lon="38.775193"><ele>102.0</ele><time>2023-07-11T13:23:26Z</time></trkpt><trkpt lat="58.05976" lon="38.77538"><ele>102.0</ele><time>2023-07-11T13:23:28Z</time></trkpt><trkpt lat="58.05975" lon="38.77556"><ele>103.0</ele><time>2023-07-11T13:23:30Z</time></trkpt><trkpt lat="58.059735" lon="38.775715"><ele>101.0</ele><time>2023-07-11T13:23:32Z</time></trkpt><trkpt lat="58.05975" lon="38.775938"><ele>104.0</ele><time>2023-07-11T13:23:35Z</time></trkpt><trkpt lat="58.059753" lon="38.776115"><ele>105.0</ele><time>2023-07-11T13:23:37Z</time></trkpt><trkpt lat="58.05974" lon="38.776305"><ele>105.0</ele><time>2023-07-11T13:23:39Z</time></trkpt><trkpt lat="58.059752" lon="38.77647"><ele>104.0</ele><time>2023-07-11T13:23:41Z</time></trkpt><trkpt lat="58.059753" lon="38.776683"><ele>103.0</ele><time>2023-07-11T13:23:43Z</time></trkpt><trkpt lat="58.059755" lon="38.77692"><ele>103.0</ele><time>2023-07-11T13:23:45Z</time></trkpt><trkpt lat="58.059678" lon="38.777047"><ele>102.0</ele><time>2023-07-11T13:23:47Z</time></trkpt><trkpt lat="58.059603" lon="38.777192"><ele>102.0</ele><time>2023-07-11T13:23:49Z</time></trkpt><trkpt lat="58.059567" lon="38.777368"><ele>101.0</ele><time>2023-07-11T13:23:51Z</time></trkpt><trkpt lat="58.059543" lon="38.777568"><ele>101.0</ele><time>2023-07-11T13:23:53Z</time></trkpt><trkpt lat="58.059475" lon="38.777775"><ele>101.0</ele><time>2023-07-11T13:23:55Z</time></trkpt><trkpt lat="58.059418" lon="38.777942"><ele>100.0</ele><time>2023-07-11T13:23:57Z</time></trkpt><trkpt lat="58.059355" lon="38.778117"><ele>102.0</ele><time>2023-07-11T13:23:59Z</time></trkpt><trkpt lat="58.059308" lon="38.778298"><ele>102.0</ele><time>2023-07-11T13:24:01Z</time></trkpt><trkpt lat="58.059267" lon="38.778473"><ele>105.0</ele><time>2023-07-11T13:24:03Z</time></trkpt><trkpt lat="58.05923" lon="38.778657"><ele>104.0</ele><time>2023-07-11T13:24:05Z</time></trkpt><trkpt lat="58.059127" lon="38.7788"><ele>104.0</ele><time>2023-07-11T13:24:07Z</time></trkpt><trkpt lat="58.059078" lon="38.778962"><ele>100.0</ele><time>2023-07-11T13:24:09Z</time></trkpt><trkpt lat="58.059033" lon="38.779103"><ele>101.0</ele><time>2023-07-11T13:24:11Z</time></trkpt><trkpt lat="58.058993" lon="38.77931"><ele>102.0</ele><time>2023-07-11T13:24:13Z</time></trkpt><trkpt lat="58.058923" lon="38.77946"><ele>102.0</ele><time>2023-07-11T13:24:15Z</time></trkpt><trkpt lat="58.058858" lon="38.779623"><ele>103.0</ele><time>2023-07-11T13:24:17Z</time></trkpt><trkpt lat="58.058813" lon="38.779763"><ele>102.0</ele><time>2023-07-11T13:24:19Z</time></trkpt><trkpt lat="58.058772" lon="38.779882"><ele>103.0</ele><time>2023-07-11T13:24:21Z</time></trkpt><trkpt lat="58.058712" lon="38.780028"><ele>102.0</ele><time>2023-07-11T13:24:23Z</time></trkpt><trkpt lat="58.058658" lon="38.780125"><ele>103.0</ele><time>2023-07-11T13:24:25Z</time></trkpt><trkpt lat="58.058603" lon="38.780245"><ele>103.0</ele><time>2023-07-11T13:24:27Z</time></trkpt><trkpt lat="58.05856" lon="38.780403"><ele>102.0</ele><time>2023-07-11T13:24:29Z</time></trkpt><trkpt lat="58.058523" lon="38.780555"><ele>103.0</ele><time>2023-07-11T13:24:31Z</time></trkpt><trkpt lat="58.058483" lon="38.7807"><ele>104.0</ele><time>2023-07-11T13:24:33Z</time></trkpt><trkpt lat="58.058408" lon="38.780878"><ele>105.0</ele><time>2023-07-11T13:24:35Z</time></trkpt><trkpt lat="58.058348" lon="38.78104"><ele>103.0</ele><time>2023-07-11T13:24:37Z</time></trkpt><trkpt lat="58.05829" lon="38.781188"><ele>102.0</ele><time>2023-07-11T13:24:39Z</time></trkpt><trkpt lat="58.05824" lon="38.781367"><ele>102.0</ele><time>2023-07-11T13:24:41Z</time></trkpt><trkpt lat="58.058177" lon="38.781473"><ele>101.0</ele><time>2023-07-11T13:24:43Z</time></trkpt><trkpt lat="58.058117" lon="38.781618"><ele>101.0</ele><time>2023-07-11T13:24:45Z</time></trkpt><trkpt lat="58.058073" lon="38.781753"><ele>102.0</ele><time>2023-07-11T13:24:47Z</time></trkpt><trkpt lat="58.058037" lon="38.781907"><ele>103.0</ele><time>2023-07-11T13:24:49Z</time></trkpt><trkpt lat="58.058" lon="38.782065"><ele>102.0</ele><time>2023-07-11T13:24:51Z</time></trkpt><trkpt lat="58.05794" lon="38.782237"><ele>102.0</ele><time>2023-07-11T13:24:53Z</time></trkpt><trkpt lat="58.057892" lon="38.78245"><ele>102.0</ele><time>2023-07-11T13:24:55Z</time></trkpt><trkpt lat="58.057838" lon="38.782615"><ele>101.0</ele><time>2023-07-11T13:24:57Z</time></trkpt><trkpt lat="58.05779" lon="38.782772"><ele>103.0</ele><time>2023-07-11T13:24:59Z</time></trkpt><trkpt lat="58.057733" lon="38.782907"><ele>103.0</ele><time>2023-07-11T13:25:01Z</time></trkpt><trkpt lat="58.057657" lon="38.783047"><ele>104.0</ele><time>2023-07-11T13:25:03Z</time></trkpt><trkpt lat="58.057588" lon="38.783205"><ele>105.0</ele><time>2023-07-11T13:25:05Z</time></trkpt><trkpt lat="58.057508" lon="38.783362"><ele>104.0</ele><time>2023-07-11T13:25:07Z</time></trkpt><trkpt lat="58.057432" lon="38.783545"><ele>104.0</ele><time>2023-07-11T13:25:09Z</time></trkpt><trkpt lat="58.057357" lon="38.783723"><ele>105.0</ele><time>2023-07-11T13:25:11Z</time></trkpt><trkpt lat="58.057307" lon="38.78389"><ele>106.0</ele><time>2023-07-11T13:25:13Z</time></trkpt><trkpt lat="58.057248" lon="38.784027"><ele>107.0</ele><time>2023-07-11T13:25:15Z</time></trkpt><trkpt lat="58.057188" lon="38.784168"><ele>107.0</ele><time>2023-07-11T13:25:17Z</time></trkpt><trkpt lat="58.057145" lon="38.784322"><ele>107.0</ele><time>2023-07-11T13:25:19Z</time></trkpt><trkpt lat="58.057125" lon="38.784493"><ele>109.0</ele><time>2023-07-11T13:25:21Z</time></trkpt><trkpt lat="58.057072" lon="38.784672"><ele>109.0</ele><time>2023-07-11T13:25:23Z</time></trkpt><trkpt lat="58.057007" lon="38.784882"><ele>110.0</ele><time>2023-07-11T13:25:25Z</time></trkpt><trkpt lat="58.057" lon="38.785062"><ele>109.0</ele><time>2023-07-11T13:25:27Z</time></trkpt><trkpt lat="58.05701" lon="38.785222"><ele>108.0</ele><time>2023-07-11T13:25:29Z</time></trkpt><trkpt lat="58.057017" lon="38.785365"><ele>108.0</ele><time>2023-07-11T13:25:31Z</time></trkpt><trkpt lat="58.056988" lon="38.785535"><ele>111.0</ele><time>2023-07-11T13:25:33Z</time></trkpt><trkpt lat="58.056983" lon="38.78574"><ele>111.0</ele><time>2023-07-11T13:25:35Z</time></trkpt><trkpt lat="58.056977" lon="38.78592"><ele>111.0</ele><time>2023-07-11T13:25:37Z</time></trkpt><trkpt lat="58.056958" lon="38.786147"><ele>107.0</ele><time>2023-07-11T13:25:39Z</time></trkpt><trkpt lat="58.056955" lon="38.786333"><ele>108.0</ele><time>2023-07-11T13:25:41Z</time></trkpt><trkpt lat="58.05693" lon="38.786505"><ele>108.0</ele><time>2023-07-11T13:25:43Z</time></trkpt><trkpt lat="58.056927" lon="38.786652"><ele>110.0</ele><time>2023-07-11T13:25:45Z</time></trkpt><trkpt lat="58.056932" lon="38.7868"><ele>111.0</ele><time>2023-07-11T13:25:47Z</time></trkpt><trkpt lat="58.056907" lon="38.786928"><ele>112.0</ele><time>2023-07-11T13:25:49Z</time></trkpt><trkpt lat="58.056897" lon="38.787105"><ele>111.0</ele><time>2023-07-11T13:25:52Z</time></trkpt><trkpt lat="58.056885" lon="38.787308"><ele>113.0</ele><time>2023-07-11T13:25:54Z</time></trkpt><trkpt lat="58.056883" lon="38.78746"><ele>113.0</ele><time>2023-07-11T13:25:56Z</time></trkpt><trkpt lat="58.056878" lon="38.787618"><ele>112.0</ele><time>2023-07-11T13:25:58Z</time></trkpt><trkpt lat="58.056872" lon="38.787783"><ele>113.0</ele><time>2023-07-11T13:26:00Z</time></trkpt><trkpt lat="58.056857" lon="38.78795"><ele>113.0</ele><time>2023-07-11T13:26:02Z</time></trkpt><trkpt lat="58.056863" lon="38.78814"><ele>114.0</ele><time>2023-07-11T13:26:04Z</time></trkpt><trkpt lat="58.056863" lon="38.788305"><ele>116.0</ele><time>2023-07-11T13:26:06Z</time></trkpt><trkpt lat="58.056848" lon="38.788483"><ele>116.0</ele><time>2023-07-11T13:26:09Z</time></trkpt><trkpt lat="58.056855" lon="38.788623"><ele>114.0</ele><time>2023-07-11T13:26:14Z</time></trkpt><trkpt lat="58.056945" lon="38.788602"><ele>112.0</ele><time>2023-07-11T13:26:26Z</time></trkpt><trkpt lat="58.057045" lon="38.788607"><ele>113.0</ele><time>2023-07-11T13:26:30Z</time></trkpt><trkpt lat="58.057115" lon="38.788645"><ele>113.0</ele><time>2023-07-11T13:26:32Z</time></trkpt><trkpt lat="58.057173" lon="38.7888"><ele>116.0</ele><time>2023-07-11T13:26:35Z</time></trkpt><trkpt lat="58.057148" lon="38.78894"><ele>116.0</ele><time>2023-07-11T13:26:38Z</time></trkpt><trkpt lat="58.057122" lon="38.789092"><ele>114.0</ele><time>2023-07-11T13:26:42Z</time></trkpt><trkpt lat="58.057102" lon="38.789238"><ele>104.0</ele><time>2023-07-11T13:27:20Z</time></trkpt><trkpt lat="58.057095" lon="38.789383"><ele>104.0</ele><time>2023-07-11T13:27:25Z</time></trkpt><trkpt lat="58.057073" lon="38.78954"><ele>104.0</ele><time>2023-07-11T13:27:28Z</time></trkpt><trkpt lat="58.057055" lon="38.789693"><ele>105.0</ele><time>2023-07-11T13:27:31Z</time></trkpt><trkpt lat="58.05704" lon="38.789895"><ele>105.0</ele><time>2023-07-11T13:27:34Z</time></trkpt><trkpt lat="58.057028" lon="38.790063"><ele>105.0</ele><time>2023-07-11T13:27:36Z</time></trkpt><trkpt lat="58.057033" lon="38.790257"><ele>105.0</ele><time>2023-07-11T13:27:38Z</time></trkpt><trkpt lat="58.057023" lon="38.790408"><ele>104.0</ele><time>2023-07-11T13:27:40Z</time></trkpt><trkpt lat="58.057012" lon="38.790553"><ele>104.0</ele><time>2023-07-11T13:27:42Z</time></trkpt><trkpt lat="58.057015" lon="38.790702"><ele>103.0</ele><time>2023-07-11T13:27:44Z</time></trkpt><trkpt lat="58.056995" lon="38.790905"><ele>104.0</ele><time>2023-07-11T13:27:46Z</time></trkpt><trkpt lat="58.056972" lon="38.791082"><ele>103.0</ele><time>2023-07-11T13:27:48Z</time></trkpt><trkpt lat="58.056958" lon="38.79126"><ele>105.0</ele><time>2023-07-11T13:27:50Z</time></trkpt><trkpt lat="58.056963" lon="38.791475"><ele>106.0</ele><time>2023-07-11T13:27:52Z</time></trkpt><trkpt lat="58.056953" lon="38.791722"><ele>105.0</ele><time>2023-07-11T13:27:54Z</time></trkpt><trkpt lat="58.056958" lon="38.79197"><ele>105.0</ele><time>2023-07-11T13:27:56Z</time></trkpt><trkpt lat="58.056893" lon="38.792215"><ele>105.0</ele><time>2023-07-11T13:27:58Z</time></trkpt><trkpt lat="58.05688" lon="38.79235"><ele>106.0</ele><time>2023-07-11T13:27:59Z</time></trkpt><trkpt lat="58.056892" lon="38.792503"><ele>106.0</ele><time>2023-07-11T13:28:00Z</time></trkpt><trkpt lat="58.056888" lon="38.792652"><ele>108.0</ele><time>2023-07-11T13:28:01Z</time></trkpt><trkpt lat="58.056888" lon="38.792897"><ele>109.0</ele><time>2023-07-11T13:28:03Z</time></trkpt><trkpt lat="58.05687" lon="38.793147"><ele>109.0</ele><time>2023-07-11T13:28:05Z</time></trkpt><trkpt lat="58.056847" lon="38.793282"><ele>110.0</ele><time>2023-07-11T13:28:06Z</time></trkpt><trkpt lat="58.056813" lon="38.793532"><ele>110.0</ele><time>2023-07-11T13:28:08Z</time></trkpt><trkpt lat="58.056797" lon="38.793682"><ele>110.0</ele><time>2023-07-11T13:28:09Z</time></trkpt><trkpt lat="58.056788" lon="38.793828"><ele>110.0</ele><time>2023-07-11T13:28:10Z</time></trkpt><trkpt lat="58.056782" lon="38.794078"><ele>109.0</ele><time>2023-07-11T13:28:12Z</time></trkpt><trkpt lat="58.056778" lon="38.794272"><ele>109.0</ele><time>2023-07-11T13:28:14Z</time></trkpt><trkpt lat="58.056762" lon="38.794505"><ele>110.0</ele><time>2023-07-11T13:28:16Z</time></trkpt><trkpt lat="58.05676" lon="38.794753"><ele>110.0</ele><time>2023-07-11T13:28:18Z</time></trkpt><trkpt lat="58.056753" lon="38.79499"><ele>112.0</ele><time>2023-07-11T13:28:20Z</time></trkpt><trkpt lat="58.056738" lon="38.795212"><ele>112.0</ele><time>2023-07-11T13:28:22Z</time></trkpt><trkpt lat="58.056745" lon="38.795435"><ele>115.0</ele><time>2023-07-11T13:28:24Z</time></trkpt><trkpt lat="58.05671" lon="38.795663"><ele>114.0</ele><time>2023-07-11T13:28:26Z</time></trkpt><trkpt lat="58.056693" lon="38.795893"><ele>115.0</ele><time>2023-07-11T13:28:28Z</time></trkpt><trkpt lat="58.05667" lon="38.796107"><ele>114.0</ele><time>2023-07-11T13:28:30Z</time></trkpt><trkpt lat="58.056657" lon="38.796327"><ele>112.0</ele><time>2023-07-11T13:28:32Z</time></trkpt><trkpt lat="58.056633" lon="38.796538"><ele>113.0</ele><time>2023-07-11T13:28:34Z</time></trkpt><trkpt lat="58.056642" lon="38.796742"><ele>113.0</ele><time>2023-07-11T13:28:36Z</time></trkpt><trkpt lat="58.056638" lon="38.796947"><ele>113.0</ele><time>2023-07-11T13:28:38Z</time></trkpt><trkpt lat="58.056658" lon="38.797088"><ele>113.0</ele><time>2023-07-11T13:28:40Z</time></trkpt><trkpt lat="58.056607" lon="38.79725"><ele>112.0</ele><time>2023-07-11T13:28:42Z</time></trkpt><trkpt lat="58.056627" lon="38.79739"><ele>112.0</ele><time>2023-07-11T13:28:44Z</time></trkpt><trkpt lat="58.056672" lon="38.797563"><ele>113.0</ele><time>2023-07-11T13:28:47Z</time></trkpt><trkpt lat="58.056643" lon="38.797693"><ele>107.0</ele><time>2023-07-11T13:29:25Z</time></trkpt><trkpt lat="58.056645" lon="38.797898"><ele>105.0</ele><time>2023-07-11T13:29:28Z</time></trkpt><trkpt lat="58.05665" lon="38.798063"><ele>106.0</ele><time>2023-07-11T13:29:30Z</time></trkpt><trkpt lat="58.05663" lon="38.798295"><ele>105.0</ele><time>2023-07-11T13:29:32Z</time></trkpt><trkpt lat="58.056625" lon="38.798522"><ele>105.0</ele><time>2023-07-11T13:29:34Z</time></trkpt><trkpt lat="58.056627" lon="38.798703"><ele>105.0</ele><time>2023-07-11T13:29:36Z</time></trkpt><trkpt lat="58.05662" lon="38.798882"><ele>104.0</ele><time>2023-07-11T13:29:38Z</time></trkpt><trkpt lat="58.056602" lon="38.799055"><ele>106.0</ele><time>2023-07-11T13:29:40Z</time></trkpt><trkpt lat="58.056523" lon="38.79913"><ele>102.0</ele><time>2023-07-11T13:29:48Z</time></trkpt><trkpt lat="58.056485" lon="38.799293"><ele>104.0</ele><time>2023-07-11T13:29:51Z</time></trkpt><trkpt lat="58.056468" lon="38.799458"><ele>105.0</ele><time>2023-07-11T13:29:53Z</time></trkpt><trkpt lat="58.05646" lon="38.799622"><ele>105.0</ele><time>2023-07-11T13:29:55Z</time></trkpt><trkpt lat="58.05645" lon="38.799787"><ele>106.0</ele><time>2023-07-11T13:29:57Z</time></trkpt><trkpt lat="58.056443" lon="38.799988"><ele>107.0</ele><time>2023-07-11T13:29:59Z</time></trkpt><trkpt lat="58.056435" lon="38.800147"><ele>104.0</ele><time>2023-07-11T13:30:01Z</time></trkpt><trkpt lat="58.05642" lon="38.800327"><ele>107.0</ele><time>2023-07-11T13:30:03Z</time></trkpt><trkpt lat="58.056382" lon="38.800477"><ele>105.0</ele><time>2023-07-11T13:30:05Z</time></trkpt><trkpt lat="58.056385" lon="38.800677"><ele>106.0</ele><time>2023-07-11T13:30:07Z</time></trkpt><trkpt lat="58.056382" lon="38.800838"><ele>108.0</ele><time>2023-07-11T13:30:09Z</time></trkpt><trkpt lat="58.056342" lon="38.800982"><ele>108.0</ele><time>2023-07-11T13:30:11Z</time></trkpt><trkpt lat="58.056323" lon="38.801142"><ele>107.0</ele><time>2023-07-11T13:30:13Z</time></trkpt><trkpt lat="58.05631" lon="38.801287"><ele>107.0</ele><time>2023-07-11T13:30:15Z</time></trkpt><trkpt lat="58.056312" lon="38.801425"><ele>105.0</ele><time>2023-07-11T13:30:17Z</time></trkpt><trkpt lat="58.056303" lon="38.801605"><ele>106.0</ele><time>2023-07-11T13:30:19Z</time></trkpt><trkpt lat="58.056285" lon="38.801765"><ele>107.0</ele><time>2023-07-11T13:30:21Z</time></trkpt><trkpt lat="58.05627" lon="38.801958"><ele>106.0</ele><time>2023-07-11T13:30:23Z</time></trkpt><trkpt lat="58.056258" lon="38.802127"><ele>106.0</ele><time>2023-07-11T13:30:25Z</time></trkpt><trkpt lat="58.056247" lon="38.802303"><ele>107.0</ele><time>2023-07-11T13:30:27Z</time></trkpt><trkpt lat="58.056232" lon="38.802478"><ele>106.0</ele><time>2023-07-11T13:30:29Z</time></trkpt><trkpt lat="58.05622" lon="38.802675"><ele>106.0</ele><time>2023-07-11T13:30:31Z</time></trkpt><trkpt lat="58.056217" lon="38.802855"><ele>107.0</ele><time>2023-07-11T13:30:33Z</time></trkpt><trkpt lat="58.05621" lon="38.802993"><ele>107.0</ele><time>2023-07-11T13:30:35Z</time></trkpt><trkpt lat="58.056268" lon="38.803118"><ele>107.0</ele><time>2023-07-11T13:30:38Z</time></trkpt><trkpt lat="58.056318" lon="38.80322"><ele>107.0</ele><time>2023-07-11T13:30:40Z</time></trkpt><trkpt lat="58.056367" lon="38.803327"><ele>107.0</ele><time>2023-07-11T13:30:42Z</time></trkpt><trkpt lat="58.056448" lon="38.803385"><ele>107.0</ele><time>2023-07-11T13:30:44Z</time></trkpt><trkpt lat="58.056545" lon="38.803343"><ele>107.0</ele><time>2023-07-11T13:30:46Z</time></trkpt><trkpt lat="58.05664" lon="38.803343"><ele>107.0</ele><time>2023-07-11T13:30:48Z</time></trkpt><trkpt lat="58.056742" lon="38.803358"><ele>108.0</ele><time>2023-07-11T13:30:50Z</time></trkpt><trkpt lat="58.056843" lon="38.803363"><ele>108.0</ele><time>2023-07-11T13:30:52Z</time></trkpt><trkpt lat="58.056945" lon="38.803392"><ele>107.0</ele><time>2023-07-11T13:30:54Z</time></trkpt><trkpt lat="58.05702" lon="38.803432"><ele>107.0</ele><time>2023-07-11T13:30:56Z</time></trkpt><trkpt lat="58.057123" lon="38.803482"><ele>106.0</ele><time>2023-07-11T13:30:59Z</time></trkpt><trkpt lat="58.0572" lon="38.803462"><ele>107.0</ele><time>2023-07-11T13:31:01Z</time></trkpt><trkpt lat="58.057283" lon="38.803487"><ele>106.0</ele><time>2023-07-11T13:31:03Z</time></trkpt><trkpt lat="58.057375" lon="38.803513"><ele>106.0</ele><time>2023-07-11T13:31:05Z</time></trkpt><trkpt lat="58.057468" lon="38.803503"><ele>107.0</ele><time>2023-07-11T13:31:07Z</time></trkpt><trkpt lat="58.057557" lon="38.803503"><ele>106.0</ele><time>2023-07-11T13:31:09Z</time></trkpt><trkpt lat="58.057645" lon="38.803535"><ele>106.0</ele><time>2023-07-11T13:31:11Z</time></trkpt><trkpt lat="58.057745" lon="38.803592"><ele>105.0</ele><time>2023-07-11T13:31:13Z</time></trkpt><trkpt lat="58.057843" lon="38.803637"><ele>105.0</ele><time>2023-07-11T13:31:15Z</time></trkpt><trkpt lat="58.05792" lon="38.80366"><ele>105.0</ele><time>2023-07-11T13:31:17Z</time></trkpt><trkpt lat="58.057985" lon="38.80381"><ele>105.0</ele><time>2023-07-11T13:31:20Z</time></trkpt><trkpt lat="58.057988" lon="38.803997"><ele>105.0</ele><time>2023-07-11T13:31:23Z</time></trkpt><trkpt lat="58.05796" lon="38.804133"><ele>105.0</ele><time>2023-07-11T13:31:25Z</time></trkpt><trkpt lat="58.057942" lon="38.804288"><ele>105.0</ele><time>2023-07-11T13:31:27Z</time></trkpt><trkpt lat="58.057925" lon="38.804445"><ele>104.0</ele><time>2023-07-11T13:31:29Z</time></trkpt><trkpt lat="58.057908" lon="38.804588"><ele>104.0</ele><time>2023-07-11T13:31:31Z</time></trkpt><trkpt lat="58.057885" lon="38.80472"><ele>104.0</ele><time>2023-07-11T13:31:33Z</time></trkpt><trkpt lat="58.05786" lon="38.804858"><ele>104.0</ele><time>2023-07-11T13:31:35Z</time></trkpt><trkpt lat="58.057843" lon="38.80503"><ele>104.0</ele><time>2023-07-11T13:31:38Z</time></trkpt><trkpt lat="58.057838" lon="38.805185"><ele>104.0</ele><time>2023-07-11T13:31:41Z</time></trkpt><trkpt lat="58.057843" lon="38.80534"><ele>104.0</ele><time>2023-07-11T13:31:44Z</time></trkpt><trkpt lat="58.05784" lon="38.805482"><ele>104.0</ele><time>2023-07-11T13:31:47Z</time></trkpt><trkpt lat="58.057817" lon="38.805635"><ele>104.0</ele><time>2023-07-11T13:31:50Z</time></trkpt><trkpt lat="58.057817" lon="38.805787"><ele>104.0</ele><time>2023-07-11T13:31:53Z</time></trkpt><trkpt lat="58.057902" lon="38.805907"><ele>104.0</ele><time>2023-07-11T13:31:56Z</time></trkpt><trkpt lat="58.057992" lon="38.806002"><ele>105.0</ele><time>2023-07-11T13:31:59Z</time></trkpt><trkpt lat="58.058035" lon="38.806188"><ele>105.0</ele><time>2023-07-11T13:32:01Z</time></trkpt><trkpt lat="58.058083" lon="38.806305"><ele>105.0</ele><time>2023-07-11T13:32:02Z</time></trkpt><trkpt lat="58.058132" lon="38.806435"><ele>106.0</ele><time>2023-07-11T13:32:04Z</time></trkpt><trkpt lat="58.058182" lon="38.806553"><ele>106.0</ele><time>2023-07-11T13:32:06Z</time></trkpt><trkpt lat="58.058238" lon="38.806707"><ele>105.0</ele><time>2023-07-11T13:32:08Z</time></trkpt><trkpt lat="58.058287" lon="38.806845"><ele>106.0</ele><time>2023-07-11T13:32:10Z</time></trkpt><trkpt lat="58.058317" lon="38.80697"><ele>106.0</ele><time>2023-07-11T13:32:12Z</time></trkpt><trkpt lat="58.058368" lon="38.807093"><ele>106.0</ele><time>2023-07-11T13:32:14Z</time></trkpt><trkpt lat="58.058435" lon="38.807178"><ele>107.0</ele><time>2023-07-11T13:32:16Z</time></trkpt><trkpt lat="58.058542" lon="38.8072"><ele>106.0</ele><time>2023-07-11T13:32:19Z</time></trkpt><trkpt lat="58.058618" lon="38.807185"><ele>106.0</ele><time>2023-07-11T13:32:22Z</time></trkpt></trkseg></trk></gpx>