<?xml version="1.0" encoding="UTF-8" standalone="no"?><gpx xmlns="http://www.topografix.com/GPX/1/1" xmlns:gpxtpx="http://www.garmin.com/xmlschemas/TrackPointExtension/v1" xmlns:xsi="http://www.w3.org/2001/XMLSchema-instance" creator="Sports Tracker" version="1.1" xsi:schemaLocation="http://www.topografix.com/GPX/1/1 http://www.topografix.com/GPX/1/1/gpx.xsd http://www.garmin.com/xmlschemas/TrackPointExtension/v1 http://www.garmin.com/xmlschemas/TrackPointExtensionv1.xsd"><metadata><name>21.01.2024 16:15</name><desc/><author><name>Александр</name></author></metadata><trk><name>21.01.2024 16:15</name><trkseg><trkpt lat="58.058652" lon="38.808657"><ele>119.0</ele><time>2024-01-21T13:15:06Z</time></trkpt><trkpt lat="58.058652" lon="38.808657"><ele>119.0</ele><time>2024-01-21T13:17:12Z</time></trkpt><trkpt lat="58.058645" lon="38.808815"><ele>116.5</ele><time>2024-01-21T13:17:19Z</time></trkpt><trkpt lat="58.058622" lon="38.808968"><ele>117.4</ele><time>2024-01-21T13:17:25Z</time></trkpt><trkpt lat="58.058635" lon="38.809115"><ele>116.1</ele><time>2024-01-21T13:17:31Z</time></trkpt><trkpt lat="58.0586" lon="38.80925"><ele>114.1</ele><time>2024-01-21T13:17:37Z</time></trkpt><trkpt lat="58.058632" lon="38.809382"><ele>112.1</ele><time>2024-01-21T13:17:42Z</time></trkpt><trkpt lat="58.058613" lon="38.809535"><ele>108.6</ele><time>2024-01-21T13:17:48Z</time></trkpt><trkpt lat="58.05857" lon="38.809665"><ele>112.2</ele><time>2024-01-21T13:17:54Z</time></trkpt><trkpt lat="58.058602" lon="38.809805"><ele>113.9</ele><time>2024-01-21T13:17:59Z</time></trkpt><trkpt lat="58.058595" lon="38.80995"><ele>113.7</ele><time>2024-01-21T13:18:05Z</time></trkpt><trkpt lat="58.05853" lon="38.810022"><ele>113.9</ele><time>2024-01-21T13:18:12Z</time></trkpt><trkpt lat="58.058472" lon="38.81011"><ele>116.4</ele><time>2024-01-21T13:18:18Z</time></trkpt><trkpt lat="58.058485" lon="38.81026"><ele>116.0</ele><time>2024-01-21T13:18:24Z</time></trkpt><trkpt lat="58.05844" lon="38.810387"><ele>114.6</ele><time>2024-01-21T13:18:30Z</time></trkpt><trkpt lat="58.05836" lon="38.810415"><ele>111.0</ele><time>2024-01-21T13:18:36Z</time></trkpt><trkpt lat="58.05828" lon="38.810442"><ele>111.9</ele><time>2024-01-21T13:18:42Z</time></trkpt><trkpt lat="58.05827" lon="38.810605"><ele>111.9</ele><time>2024-01-21T13:18:47Z</time></trkpt><trkpt lat="58.058247" lon="38.810735"><ele>113.2</ele><time>2024-01-21T13:18:51Z</time></trkpt><trkpt lat="58.058175" lon="38.810805"><ele>112.7</ele><time>2024-01-21T13:18:56Z</time></trkpt><trkpt lat="58.0581" lon="38.810775"><ele>112.6</ele><time>2024-01-21T13:19:02Z</time></trkpt><trkpt lat="58.058012" lon="38.81076"><ele>111.8</ele><time>2024-01-21T13:19:09Z</time></trkpt><trkpt lat="58.057942" lon="38.81071"><ele>112.1</ele><time>2024-01-21T13:19:14Z</time></trkpt><trkpt lat="58.05787" lon="38.810695"><ele>110.9</ele><time>2024-01-21T13:19:19Z</time></trkpt><trkpt lat="58.057815" lon="38.81059"><ele>111.7</ele><time>2024-01-21T13:19:24Z</time></trkpt><trkpt lat="58.057755" lon="38.81052"><ele>111.3</ele><time>2024-01-21T13:19:30Z</time></trkpt><trkpt lat="58.057675" lon="38.810525"><ele>109.4</ele><time>2024-01-21T13:19:35Z</time></trkpt><trkpt lat="58.0576" lon="38.810595"><ele>110.9</ele><time>2024-01-21T13:19:40Z</time></trkpt><trkpt lat="58.057535" lon="38.810522"><ele>111.1</ele><time>2024-01-21T13:19:45Z</time></trkpt><trkpt lat="58.05746" lon="38.810542"><ele>111.0</ele><time>2024-01-21T13:19:50Z</time></trkpt><trkpt lat="58.057385" lon="38.81057"><ele>110.4</ele><time>2024-01-21T13:19:55Z</time></trkpt><trkpt lat="58.057305" lon="38.810585"><ele>110.9</ele><time>2024-01-21T13:20:01Z</time></trkpt><trkpt lat="58.057225" lon="38.810558"><ele>109.5</ele><time>2024-01-21T13:20:07Z</time></trkpt><trkpt lat="58.057155" lon="38.810515"><ele>109.3</ele><time>2024-01-21T13:20:13Z</time></trkpt><trkpt lat="58.05708" lon="38.810515"><ele>112.0</ele><time>2024-01-21T13:20:18Z</time></trkpt><trkpt lat="58.057005" lon="38.810515"><ele>113.7</ele><time>2024-01-21T13:20:23Z</time></trkpt><trkpt lat="58.056935" lon="38.8105"><ele>114.4</ele><time>2024-01-21T13:20:28Z</time></trkpt><trkpt lat="58.056852" lon="38.810465"><ele>115.8</ele><time>2024-01-21T13:20:34Z</time></trkpt><trkpt lat="58.05677" lon="38.810485"><ele>112.5</ele><time>2024-01-21T13:20:40Z</time></trkpt><trkpt lat="58.05674" lon="38.81062"><ele>112.7</ele><time>2024-01-21T13:20:45Z</time></trkpt><trkpt lat="58.056705" lon="38.810767"><ele>114.1</ele><time>2024-01-21T13:20:50Z</time></trkpt><trkpt lat="58.05668" lon="38.810905"><ele>113.2</ele><time>2024-01-21T13:20:56Z</time></trkpt><trkpt lat="58.056685" lon="38.811045"><ele>108.4</ele><time>2024-01-21T13:21:01Z</time></trkpt><trkpt lat="58.05672" lon="38.811167"><ele>110.6</ele><time>2024-01-21T13:21:07Z</time></trkpt><trkpt lat="58.056715" lon="38.811303"><ele>113.1</ele><time>2024-01-21T13:21:12Z</time></trkpt><trkpt lat="58.05672" lon="38.811447"><ele>110.9</ele><time>2024-01-21T13:21:18Z</time></trkpt><trkpt lat="58.05672" lon="38.811595"><ele>112.3</ele><time>2024-01-21T13:21:24Z</time></trkpt><trkpt lat="58.056695" lon="38.811735"><ele>113.9</ele><time>2024-01-21T13:21:30Z</time></trkpt><trkpt lat="58.056667" lon="38.811877"><ele>111.6</ele><time>2024-01-21T13:21:36Z</time></trkpt><trkpt lat="58.056675" lon="38.812025"><ele>110.7</ele><time>2024-01-21T13:21:41Z</time></trkpt><trkpt lat="58.056657" lon="38.812165"><ele>111.2</ele><time>2024-01-21T13:21:46Z</time></trkpt><trkpt lat="58.056655" lon="38.812312"><ele>111.1</ele><time>2024-01-21T13:21:51Z</time></trkpt><trkpt lat="58.05661" lon="38.812442"><ele>110.7</ele><time>2024-01-21T13:21:57Z</time></trkpt><trkpt lat="58.05659" lon="38.81258"><ele>110.8</ele><time>2024-01-21T13:22:02Z</time></trkpt><trkpt lat="58.05653" lon="38.81268"><ele>108.4</ele><time>2024-01-21T13:22:08Z</time></trkpt><trkpt lat="58.056505" lon="38.812827"><ele>103.7</ele><time>2024-01-21T13:22:13Z</time></trkpt><trkpt lat="58.05653" lon="38.81299"><ele>108.6</ele><time>2024-01-21T13:22:18Z</time></trkpt><trkpt lat="58.05656" lon="38.813125"><ele>109.1</ele><time>2024-01-21T13:22:22Z</time></trkpt><trkpt lat="58.05654" lon="38.813272"><ele>108.8</ele><time>2024-01-21T13:22:27Z</time></trkpt><trkpt lat="58.056542" lon="38.81342"><ele>112.6</ele><time>2024-01-21T13:22:32Z</time></trkpt><trkpt lat="58.05655" lon="38.813552"><ele>109.0</ele><time>2024-01-21T13:22:37Z</time></trkpt><trkpt lat="58.056535" lon="38.813705"><ele>110.9</ele><time>2024-01-21T13:22:43Z</time></trkpt><trkpt lat="58.056502" lon="38.81383"><ele>111.4</ele><time>2024-01-21T13:22:49Z</time></trkpt><trkpt lat="58.05648" lon="38.813962"><ele>110.1</ele><time>2024-01-21T13:22:55Z</time></trkpt><trkpt lat="58.05646" lon="38.8141"><ele>110.7</ele><time>2024-01-21T13:23:01Z</time></trkpt><trkpt lat="58.056455" lon="38.814245"><ele>110.3</ele><time>2024-01-21T13:23:06Z</time></trkpt><trkpt lat="58.05648" lon="38.814375"><ele>111.8</ele><time>2024-01-21T13:23:11Z</time></trkpt><trkpt lat="58.056475" lon="38.814515"><ele>112.4</ele><time>2024-01-21T13:23:16Z</time></trkpt><trkpt lat="58.056455" lon="38.81465"><ele>110.4</ele><time>2024-01-21T13:23:22Z</time></trkpt><trkpt lat="58.05645" lon="38.81482"><ele>109.2</ele><time>2024-01-21T13:23:28Z</time></trkpt><trkpt lat="58.056475" lon="38.814977"><ele>110.4</ele><time>2024-01-21T13:23:34Z</time></trkpt><trkpt lat="58.056455" lon="38.81513"><ele>109.4</ele><time>2024-01-21T13:23:41Z</time></trkpt><trkpt lat="58.05645" lon="38.81528"><ele>109.4</ele><time>2024-01-21T13:23:47Z</time></trkpt><trkpt lat="58.056455" lon="38.81543"><ele>109.6</ele><time>2024-01-21T13:23:53Z</time></trkpt><trkpt lat="58.056465" lon="38.815565"><ele>113.0</ele><time>2024-01-21T13:23:59Z</time></trkpt><trkpt lat="58.05645" lon="38.81572"><ele>111.2</ele><time>2024-01-21T13:24:05Z</time></trkpt><trkpt lat="58.056435" lon="38.81588"><ele>112.7</ele><time>2024-01-21T13:24:11Z</time></trkpt><trkpt lat="58.056422" lon="38.81603"><ele>110.9</ele><time>2024-01-21T13:24:16Z</time></trkpt><trkpt lat="58.056365" lon="38.81615"><ele>110.8</ele><time>2024-01-21T13:24:22Z</time></trkpt><trkpt lat="58.056382" lon="38.816302"><ele>112.9</ele><time>2024-01-21T13:24:27Z</time></trkpt><trkpt lat="58.056407" lon="38.816445"><ele>110.5</ele><time>2024-01-21T13:24:34Z</time></trkpt><trkpt lat="58.056395" lon="38.816595"><ele>112.8</ele><time>2024-01-21T13:24:40Z</time></trkpt><trkpt lat="58.056317" lon="38.81667"><ele>113.8</ele><time>2024-01-21T13:24:46Z</time></trkpt><trkpt lat="58.05624" lon="38.816762"><ele>110.3</ele><time>2024-01-21T13:24:52Z</time></trkpt><trkpt lat="58.05621" lon="38.81689"><ele>108.4</ele><time>2024-01-21T13:24:57Z</time></trkpt><trkpt lat="58.05618" lon="38.81703"><ele>109.4</ele><time>2024-01-21T13:25:03Z</time></trkpt><trkpt lat="58.056125" lon="38.817135"><ele>109.0</ele><time>2024-01-21T13:25:08Z</time></trkpt><trkpt lat="58.056095" lon="38.817257"><ele>111.2</ele><time>2024-01-21T13:25:13Z</time></trkpt><trkpt lat="58.056037" lon="38.817355"><ele>108.5</ele><time>2024-01-21T13:25:19Z</time></trkpt><trkpt lat="58.055973" lon="38.817455"><ele>108.4</ele><time>2024-01-21T13:25:26Z</time></trkpt><trkpt lat="58.055935" lon="38.817575"><ele>108.5</ele><time>2024-01-21T13:25:32Z</time></trkpt><trkpt lat="58.055887" lon="38.81769"><ele>109.0</ele><time>2024-01-21T13:25:38Z</time></trkpt><trkpt lat="58.055855" lon="38.817815"><ele>108.0</ele><time>2024-01-21T13:25:43Z</time></trkpt><trkpt lat="58.05585" lon="38.817955"><ele>109.7</ele><time>2024-01-21T13:25:48Z</time></trkpt><trkpt lat="58.055797" lon="38.81807"><ele>109.5</ele><time>2024-01-21T13:25:54Z</time></trkpt><trkpt lat="58.055747" lon="38.818185"><ele>109.5</ele><time>2024-01-21T13:26:00Z</time></trkpt><trkpt lat="58.055695" lon="38.818275"><ele>108.6</ele><time>2024-01-21T13:26:06Z</time></trkpt><trkpt lat="58.055655" lon="38.818395"><ele>109.0</ele><time>2024-01-21T13:26:11Z</time></trkpt><trkpt lat="58.055605" lon="38.818505"><ele>108.3</ele><time>2024-01-21T13:26:18Z</time></trkpt><trkpt lat="58.055552" lon="38.81862"><ele>108.4</ele><time>2024-01-21T13:26:25Z</time></trkpt><trkpt lat="58.055515" lon="38.81874"><ele>109.5</ele><time>2024-01-21T13:26:31Z</time></trkpt><trkpt lat="58.055485" lon="38.818865"><ele>109.6</ele><time>2024-01-21T13:26:38Z</time></trkpt><trkpt lat="58.05548" lon="38.81901"><ele>108.6</ele><time>2024-01-21T13:26:44Z</time></trkpt><trkpt lat="58.055462" lon="38.819145"><ele>105.9</ele><time>2024-01-21T13:26:51Z</time></trkpt><trkpt lat="58.055433" lon="38.819265"><ele>106.9</ele><time>2024-01-21T13:26:58Z</time></trkpt><trkpt lat="58.055437" lon="38.819427"><ele>106.3</ele><time>2024-01-21T13:27:05Z</time></trkpt><trkpt lat="58.055425" lon="38.81957"><ele>105.9</ele><time>2024-01-21T13:27:11Z</time></trkpt><trkpt lat="58.05541" lon="38.8197"><ele>107.7</ele><time>2024-01-21T13:27:18Z</time></trkpt><trkpt lat="58.05541" lon="38.81985"><ele>107.0</ele><time>2024-01-21T13:27:25Z</time></trkpt><trkpt lat="58.055395" lon="38.820007"><ele>107.6</ele><time>2024-01-21T13:27:32Z</time></trkpt><trkpt lat="58.0554" lon="38.820155"><ele>110.6</ele><time>2024-01-21T13:27:38Z</time></trkpt><trkpt lat="58.055395" lon="38.820295"><ele>110.7</ele><time>2024-01-21T13:27:45Z</time></trkpt><trkpt lat="58.055363" lon="38.82043"><ele>112.8</ele><time>2024-01-21T13:27:52Z</time></trkpt><trkpt lat="58.05535" lon="38.82057"><ele>113.0</ele><time>2024-01-21T13:27:58Z</time></trkpt><trkpt lat="58.055297" lon="38.820672"><ele>114.1</ele><time>2024-01-21T13:28:04Z</time></trkpt><trkpt lat="58.055275" lon="38.820815"><ele>111.9</ele><time>2024-01-21T13:28:11Z</time></trkpt><trkpt lat="58.055297" lon="38.820947"><ele>109.8</ele><time>2024-01-21T13:28:18Z</time></trkpt><trkpt lat="58.0553" lon="38.821095"><ele>107.1</ele><time>2024-01-21T13:28:25Z</time></trkpt><trkpt lat="58.05529" lon="38.821223"><ele>110.8</ele><time>2024-01-21T13:28:32Z</time></trkpt><trkpt lat="58.05523" lon="38.821335"><ele>112.4</ele><time>2024-01-21T13:28:37Z</time></trkpt><trkpt lat="58.05521" lon="38.82147"><ele>112.0</ele><time>2024-01-21T13:28:41Z</time></trkpt><trkpt lat="58.05519" lon="38.821602"><ele>109.4</ele><time>2024-01-21T13:28:46Z</time></trkpt><trkpt lat="58.055182" lon="38.821757"><ele>110.5</ele><time>2024-01-21T13:28:51Z</time></trkpt><trkpt lat="58.055165" lon="38.82187"><ele>113.9</ele><time>2024-01-21T13:28:58Z</time></trkpt><trkpt lat="58.05514" lon="38.821965"><ele>112.9</ele><time>2024-01-21T13:29:05Z</time></trkpt><trkpt lat="58.055122" lon="38.822095"><ele>110.2</ele><time>2024-01-21T13:29:12Z</time></trkpt><trkpt lat="58.055085" lon="38.822215"><ele>110.8</ele><time>2024-01-21T13:29:18Z</time></trkpt><trkpt lat="58.05509" lon="38.822347"><ele>108.9</ele><time>2024-01-21T13:29:25Z</time></trkpt><trkpt lat="58.055085" lon="38.822485"><ele>110.0</ele><time>2024-01-21T13:29:32Z</time></trkpt><trkpt lat="58.055065" lon="38.82263"><ele>109.0</ele><time>2024-01-21T13:29:38Z</time></trkpt><trkpt lat="58.05504" lon="38.822775"><ele>109.9</ele><time>2024-01-21T13:29:44Z</time></trkpt><trkpt lat="58.055015" lon="38.822897"><ele>113.4</ele><time>2024-01-21T13:29:51Z</time></trkpt><trkpt lat="58.05502" lon="38.823053"><ele>111.8</ele><time>2024-01-21T13:29:58Z</time></trkpt><trkpt lat="58.05502" lon="38.823165"><ele>111.6</ele><time>2024-01-21T13:30:05Z</time></trkpt><trkpt lat="58.054987" lon="38.823305"><ele>111.1</ele><time>2024-01-21T13:30:12Z</time></trkpt><trkpt lat="58.054947" lon="38.823435"><ele>110.7</ele><time>2024-01-21T13:30:18Z</time></trkpt><trkpt lat="58.0549" lon="38.823567"><ele>114.7</ele><time>2024-01-21T13:30:23Z</time></trkpt><trkpt lat="58.05486" lon="38.82369"><ele>115.1</ele><time>2024-01-21T13:30:30Z</time></trkpt><trkpt lat="58.05479" lon="38.823715"><ele>112.7</ele><time>2024-01-21T13:30:35Z</time></trkpt><trkpt lat="58.05472" lon="38.823755"><ele>114.7</ele><time>2024-01-21T13:30:42Z</time></trkpt><trkpt lat="58.054665" lon="38.823865"><ele>114.1</ele><time>2024-01-21T13:30:48Z</time></trkpt><trkpt lat="58.054615" lon="38.82397"><ele>111.6</ele><time>2024-01-21T13:30:55Z</time></trkpt><trkpt lat="58.054565" lon="38.8241"><ele>111.1</ele><time>2024-01-21T13:31:02Z</time></trkpt><trkpt lat="58.054505" lon="38.824195"><ele>109.3</ele><time>2024-01-21T13:31:09Z</time></trkpt><trkpt lat="58.054445" lon="38.824295"><ele>108.2</ele><time>2024-01-21T13:31:16Z</time></trkpt><trkpt lat="58.05445" lon="38.824435"><ele>109.8</ele><time>2024-01-21T13:31:20Z</time></trkpt><trkpt lat="58.054425" lon="38.82452"><ele>108.9</ele><time>2024-01-21T13:31:27Z</time></trkpt><trkpt lat="58.05443" lon="38.82468"><ele>107.6</ele><time>2024-01-21T13:31:33Z</time></trkpt><trkpt lat="58.054385" lon="38.82481"><ele>109.3</ele><time>2024-01-21T13:31:40Z</time></trkpt><trkpt lat="58.05439" lon="38.824953"><ele>107.1</ele><time>2024-01-21T13:31:46Z</time></trkpt><trkpt lat="58.054352" lon="38.82506"><ele>107.4</ele><time>2024-01-21T13:31:53Z</time></trkpt><trkpt lat="58.054392" lon="38.825115"><ele>111.3</ele><time>2024-01-21T13:32:00Z</time></trkpt><trkpt lat="58.054415" lon="38.825227"><ele>108.1</ele><time>2024-01-21T13:32:07Z</time></trkpt><trkpt lat="58.054415" lon="38.82536"><ele>108.1</ele><time>2024-01-21T13:32:14Z</time></trkpt><trkpt lat="58.054415" lon="38.8255"><ele>107.5</ele><time>2024-01-21T13:32:21Z</time></trkpt><trkpt lat="58.05441" lon="38.82564"><ele>104.2</ele><time>2024-01-21T13:32:26Z</time></trkpt><trkpt lat="58.054377" lon="38.82578"><ele>104.5</ele><time>2024-01-21T13:32:32Z</time></trkpt><trkpt lat="58.054345" lon="38.825975"><ele>106.8</ele><time>2024-01-21T13:32:35Z</time></trkpt><trkpt lat="58.054312" lon="38.8261"><ele>114.5</ele><time>2024-01-21T13:32:38Z</time></trkpt><trkpt lat="58.05425" lon="38.826007"><ele>111.0</ele><time>2024-01-21T13:32:44Z</time></trkpt><trkpt lat="58.05419" lon="38.825865"><ele>105.5</ele><time>2024-01-21T13:32:51Z</time></trkpt><trkpt lat="58.054115" lon="38.825842"><ele>101.0</ele><time>2024-01-21T13:32:54Z</time></trkpt><trkpt lat="58.054105" lon="38.82599"><ele>97.7</ele><time>2024-01-21T13:32:59Z</time></trkpt><trkpt lat="58.05406" lon="38.826105"><ele>101.4</ele><time>2024-01-21T13:33:05Z</time></trkpt><trkpt lat="58.054003" lon="38.82623"><ele>102.6</ele><time>2024-01-21T13:33:10Z</time></trkpt><trkpt lat="58.053997" lon="38.82639"><ele>102.6</ele><time>2024-01-21T13:33:15Z</time></trkpt><trkpt lat="58.053955" lon="38.826515"><ele>103.7</ele><time>2024-01-21T13:33:19Z</time></trkpt><trkpt lat="58.054003" lon="38.826485"><ele>104.0</ele><time>2024-01-21T13:33:27Z</time></trkpt><trkpt lat="58.054003" lon="38.826485"><ele>104.0</ele><time>2024-01-21T13:33:31Z</time></trkpt><trkpt lat="58.053972" lon="38.82663"><ele>106.1</ele><time>2024-01-21T13:34:04Z</time></trkpt><trkpt lat="58.053955" lon="38.826775"><ele>106.1</ele><time>2024-01-21T13:34:08Z</time></trkpt><trkpt lat="58.053885" lon="38.826833"><ele>105.4</ele><time>2024-01-21T13:34:13Z</time></trkpt><trkpt lat="58.053845" lon="38.826965"><ele>104.9</ele><time>2024-01-21T13:34:19Z</time></trkpt><trkpt lat="58.053805" lon="38.827087"><ele>103.8</ele><time>2024-01-21T13:34:25Z</time></trkpt><trkpt lat="58.053795" lon="38.827245"><ele>103.6</ele><time>2024-01-21T13:34:31Z</time></trkpt><trkpt lat="58.053775" lon="38.82741"><ele>105.9</ele><time>2024-01-21T13:34:37Z</time></trkpt><trkpt lat="58.053747" lon="38.827535"><ele>106.7</ele><time>2024-01-21T13:34:42Z</time></trkpt><trkpt lat="58.053735" lon="38.827682"><ele>108.4</ele><time>2024-01-21T13:34:47Z</time></trkpt><trkpt lat="58.05369" lon="38.8278"><ele>108.2</ele><time>2024-01-21T13:34:53Z</time></trkpt><trkpt lat="58.053665" lon="38.827935"><ele>108.7</ele><time>2024-01-21T13:34:58Z</time></trkpt><trkpt lat="58.053605" lon="38.82803"><ele>110.4</ele><time>2024-01-21T13:35:05Z</time></trkpt><trkpt lat="58.053592" lon="38.828165"><ele>107.9</ele><time>2024-01-21T13:35:10Z</time></trkpt><trkpt lat="58.05358" lon="38.828335"><ele>110.0</ele><time>2024-01-21T13:35:15Z</time></trkpt><trkpt lat="58.053538" lon="38.82847"><ele>110.7</ele><time>2024-01-21T13:35:22Z</time></trkpt><trkpt lat="58.053505" lon="38.828615"><ele>110.8</ele><time>2024-01-21T13:35:28Z</time></trkpt><trkpt lat="58.053495" lon="38.82875"><ele>112.9</ele><time>2024-01-21T13:35:33Z</time></trkpt><trkpt lat="58.05351" lon="38.82889"><ele>111.1</ele><time>2024-01-21T13:35:39Z</time></trkpt><trkpt lat="58.053505" lon="38.829042"><ele>109.1</ele><time>2024-01-21T13:35:46Z</time></trkpt><trkpt lat="58.053475" lon="38.82917"><ele>110.3</ele><time>2024-01-21T13:35:52Z</time></trkpt><trkpt lat="58.053468" lon="38.82931"><ele>111.5</ele><time>2024-01-21T13:35:58Z</time></trkpt><trkpt lat="58.053445" lon="38.82945"><ele>109.2</ele><time>2024-01-21T13:36:05Z</time></trkpt><trkpt lat="58.053485" lon="38.829585"><ele>112.1</ele><time>2024-01-21T13:36:10Z</time></trkpt><trkpt lat="58.05344" lon="38.82971"><ele>108.8</ele><time>2024-01-21T13:36:16Z</time></trkpt><trkpt lat="58.053405" lon="38.82983"><ele>112.6</ele><time>2024-01-21T13:36:22Z</time></trkpt><trkpt lat="58.05336" lon="38.829942"><ele>111.2</ele><time>2024-01-21T13:36:28Z</time></trkpt><trkpt lat="58.05331" lon="38.830065"><ele>104.7</ele><time>2024-01-21T13:36:34Z</time></trkpt><trkpt lat="58.05329" lon="38.830197"><ele>105.4</ele><time>2024-01-21T13:36:39Z</time></trkpt><trkpt lat="58.0533" lon="38.830345"><ele>105.2</ele><time>2024-01-21T13:36:44Z</time></trkpt><trkpt lat="58.0533" lon="38.830477"><ele>107.8</ele><time>2024-01-21T13:36:51Z</time></trkpt><trkpt lat="58.053267" lon="38.830495"><ele>108.5</ele><time>2024-01-21T13:36:58Z</time></trkpt><trkpt lat="58.053267" lon="38.830495"><ele>108.4</ele><time>2024-01-21T13:37:01Z</time></trkpt><trkpt lat="58.053205" lon="38.830525"><ele>107.6</ele><time>2024-01-21T13:37:08Z</time></trkpt><trkpt lat="58.053135" lon="38.830565"><ele>109.5</ele><time>2024-01-21T13:37:12Z</time></trkpt><trkpt lat="58.05305" lon="38.830595"><ele>108.1</ele><time>2024-01-21T13:37:18Z</time></trkpt><trkpt lat="58.05298" lon="38.83065"><ele>107.4</ele><time>2024-01-21T13:37:24Z</time></trkpt><trkpt lat="58.052955" lon="38.830775"><ele>106.7</ele><time>2024-01-21T13:37:30Z</time></trkpt><trkpt lat="58.052915" lon="38.830902"><ele>106.8</ele><time>2024-01-21T13:37:36Z</time></trkpt><trkpt lat="58.052863" lon="38.83102"><ele>106.4</ele><time>2024-01-21T13:37:42Z</time></trkpt><trkpt lat="58.05285" lon="38.83117"><ele>105.9</ele><time>2024-01-21T13:37:48Z</time></trkpt><trkpt lat="58.052815" lon="38.831305"><ele>106.0</ele><time>2024-01-21T13:37:54Z</time></trkpt><trkpt lat="58.052802" lon="38.831452"><ele>104.7</ele><time>2024-01-21T13:38:00Z</time></trkpt><trkpt lat="58.052745" lon="38.831565"><ele>106.0</ele><time>2024-01-21T13:38:06Z</time></trkpt><trkpt lat="58.052725" lon="38.831712"><ele>105.8</ele><time>2024-01-21T13:38:12Z</time></trkpt><trkpt lat="58.0527" lon="38.83186"><ele>106.1</ele><time>2024-01-21T13:38:19Z</time></trkpt><trkpt lat="58.052665" lon="38.831982"><ele>107.2</ele><time>2024-01-21T13:38:25Z</time></trkpt><trkpt lat="58.052638" lon="38.832135"><ele>107.2</ele><time>2024-01-21T13:38:31Z</time></trkpt><trkpt lat="58.052605" lon="38.832275"><ele>107.5</ele><time>2024-01-21T13:38:38Z</time></trkpt><trkpt lat="58.052567" lon="38.83242"><ele>105.9</ele><time>2024-01-21T13:38:43Z</time></trkpt><trkpt lat="58.052565" lon="38.832575"><ele>105.9</ele><time>2024-01-21T13:38:49Z</time></trkpt><trkpt lat="58.052535" lon="38.83272"><ele>105.7</ele><time>2024-01-21T13:38:56Z</time></trkpt><trkpt lat="58.052525" lon="38.832865"><ele>105.2</ele><time>2024-01-21T13:39:02Z</time></trkpt><trkpt lat="58.052502" lon="38.833012"><ele>106.0</ele><time>2024-01-21T13:39:09Z</time></trkpt><trkpt lat="58.052483" lon="38.83315"><ele>108.9</ele><time>2024-01-21T13:39:14Z</time></trkpt><trkpt lat="58.05247" lon="38.83329"><ele>107.7</ele><time>2024-01-21T13:39:20Z</time></trkpt><trkpt lat="58.05244" lon="38.83341"><ele>106.9</ele><time>2024-01-21T13:39:27Z</time></trkpt><trkpt lat="58.05243" lon="38.83355"><ele>108.8</ele><time>2024-01-21T13:39:33Z</time></trkpt><trkpt lat="58.052385" lon="38.833662"><ele>110.5</ele><time>2024-01-21T13:39:39Z</time></trkpt><trkpt lat="58.05238" lon="38.83381"><ele>108.1</ele><time>2024-01-21T13:39:45Z</time></trkpt><trkpt lat="58.052375" lon="38.833888"><ele>108.2</ele><time>2024-01-21T13:39:52Z</time></trkpt><trkpt lat="58.052375" lon="38.833887"><ele>108.2</ele><time>2024-01-21T13:39:56Z</time></trkpt><trkpt lat="58.052347" lon="38.83405"><ele>109.4</ele><time>2024-01-21T13:40:06Z</time></trkpt><trkpt lat="58.052305" lon="38.834175"><ele>109.3</ele><time>2024-01-21T13:40:11Z</time></trkpt><trkpt lat="58.052235" lon="38.83424"><ele>109.5</ele><time>2024-01-21T13:40:16Z</time></trkpt><trkpt lat="58.05215" lon="38.83424"><ele>110.1</ele><time>2024-01-21T13:40:21Z</time></trkpt><trkpt lat="58.05207" lon="38.834207"><ele>111.8</ele><time>2024-01-21T13:40:27Z</time></trkpt><trkpt lat="58.052" lon="38.834145"><ele>115.9</ele><time>2024-01-21T13:40:33Z</time></trkpt><trkpt lat="58.05196" lon="38.834027"><ele>115.0</ele><time>2024-01-21T13:40:39Z</time></trkpt><trkpt lat="58.051892" lon="38.833947"><ele>112.5</ele><time>2024-01-21T13:40:45Z</time></trkpt><trkpt lat="58.051815" lon="38.83393"><ele>108.7</ele><time>2024-01-21T13:40:52Z</time></trkpt><trkpt lat="58.05174" lon="38.83393"><ele>106.1</ele><time>2024-01-21T13:40:59Z</time></trkpt><trkpt lat="58.05168" lon="38.83392"><ele>106.5</ele><time>2024-01-21T13:41:06Z</time></trkpt><trkpt lat="58.051617" lon="38.833835"><ele>107.3</ele><time>2024-01-21T13:41:13Z</time></trkpt><trkpt lat="58.051565" lon="38.833727"><ele>111.7</ele><time>2024-01-21T13:41:19Z</time></trkpt><trkpt lat="58.051485" lon="38.83368"><ele>108.9</ele><time>2024-01-21T13:41:26Z</time></trkpt><trkpt lat="58.051422" lon="38.833578"><ele>109.9</ele><time>2024-01-21T13:41:33Z</time></trkpt><trkpt lat="58.051347" lon="38.833625"><ele>115.3</ele><time>2024-01-21T13:41:38Z</time></trkpt><trkpt lat="58.051267" lon="38.833625"><ele>119.6</ele><time>2024-01-21T13:41:44Z</time></trkpt><trkpt lat="58.051195" lon="38.833675"><ele>120.9</ele><time>2024-01-21T13:41:49Z</time></trkpt><trkpt lat="58.05113" lon="38.83375"><ele>121.7</ele><time>2024-01-21T13:41:54Z</time></trkpt><trkpt lat="58.05104" lon="38.83377"><ele>120.3</ele><time>2024-01-21T13:41:59Z</time></trkpt><trkpt lat="58.050975" lon="38.833705"><ele>121.8</ele><time>2024-01-21T13:42:04Z</time></trkpt><trkpt lat="58.050892" lon="38.83368"><ele>117.0</ele><time>2024-01-21T13:42:10Z</time></trkpt><trkpt lat="58.050815" lon="38.833615"><ele>113.7</ele><time>2024-01-21T13:42:16Z</time></trkpt><trkpt lat="58.050735" lon="38.8336"><ele>112.2</ele><time>2024-01-21T13:42:22Z</time></trkpt><trkpt lat="58.05065" lon="38.833605"><ele>115.7</ele><time>2024-01-21T13:42:28Z</time></trkpt><trkpt lat="58.050575" lon="38.83356"><ele>116.4</ele><time>2024-01-21T13:42:34Z</time></trkpt><trkpt lat="58.050513" lon="38.833455"><ele>119.3</ele><time>2024-01-21T13:42:39Z</time></trkpt><trkpt lat="58.05044" lon="38.833445"><ele>122.1</ele><time>2024-01-21T13:42:43Z</time></trkpt><trkpt lat="58.050365" lon="38.833385"><ele>120.6</ele><time>2024-01-21T13:42:48Z</time></trkpt><trkpt lat="58.050303" lon="38.833315"><ele>117.3</ele><time>2024-01-21T13:42:54Z</time></trkpt><trkpt lat="58.050255" lon="38.833197"><ele>113.3</ele><time>2024-01-21T13:42:59Z</time></trkpt><trkpt lat="58.050255" lon="38.833052"><ele>109.1</ele><time>2024-01-21T13:43:06Z</time></trkpt><trkpt lat="58.050305" lon="38.833122"><ele>112.5</ele><time>2024-01-21T13:43:13Z</time></trkpt><trkpt lat="58.050235" lon="38.83325"><ele>109.8</ele><time>2024-01-21T13:43:17Z</time></trkpt><trkpt lat="58.050155" lon="38.83329"><ele>109.7</ele><time>2024-01-21T13:43:21Z</time></trkpt><trkpt lat="58.05007" lon="38.833277"><ele>107.3</ele><time>2024-01-21T13:43:25Z</time></trkpt><trkpt lat="58.05" lon="38.83322"><ele>103.3</ele><time>2024-01-21T13:43:29Z</time></trkpt><trkpt lat="58.049942" lon="38.833127"><ele>101.8</ele><time>2024-01-21T13:43:35Z</time></trkpt><trkpt lat="58.04994" lon="38.83299"><ele>103.0</ele><time>2024-01-21T13:43:39Z</time></trkpt><trkpt lat="58.049875" lon="38.832945"><ele>101.9</ele><time>2024-01-21T13:43:46Z</time></trkpt><trkpt lat="58.049827" lon="38.832805"><ele>102.2</ele><time>2024-01-21T13:43:52Z</time></trkpt><trkpt lat="58.0498" lon="38.832675"><ele>102.7</ele><time>2024-01-21T13:43:59Z</time></trkpt><trkpt lat="58.04994" lon="38.833085"><ele>103.1</ele><time>2024-01-21T13:44:01Z</time></trkpt><trkpt lat="58.04993" lon="38.833075"><ele>102.2</ele><time>2024-01-21T13:44:08Z</time></trkpt><trkpt lat="58.049945" lon="38.833055"><ele>103.2</ele><time>2024-01-21T13:45:04Z</time></trkpt><trkpt lat="58.049945" lon="38.833055"><ele>103.2</ele><time>2024-01-21T13:45:06Z</time></trkpt><trkpt lat="58.04994" lon="38.833043"><ele>103.0</ele><time>2024-01-21T13:45:21Z</time></trkpt><trkpt lat="58.04994" lon="38.833043"><ele>103.0</ele><time>2024-01-21T13:45:22Z</time></trkpt><trkpt lat="58.049915" lon="38.83265"><ele>103.5</ele><time>2024-01-21T13:45:23Z</time></trkpt><trkpt lat="58.04994" lon="38.833043"><ele>103.0</ele><time>2024-01-21T13:45:25Z</time></trkpt><trkpt lat="58.04994" lon="38.83304"><ele>103.4</ele><time>2024-01-21T13:45:32Z</time></trkpt><trkpt lat="58.04992" lon="38.83303"><ele>99.6</ele><time>2024-01-21T13:45:45Z</time></trkpt><trkpt lat="58.04992" lon="38.83303"><ele>99.7</ele><time>2024-01-21T13:45:47Z</time></trkpt><trkpt lat="58.049915" lon="38.83302"><ele>99.8</ele><time>2024-01-21T13:47:42Z</time></trkpt><trkpt lat="58.049915" lon="38.83302"><ele>99.9</ele><time>2024-01-21T13:47:43Z</time></trkpt><trkpt lat="58.049907" lon="38.832992"><ele>100.1</ele><time>2024-01-21T13:49:00Z</time></trkpt><trkpt lat="58.04989" lon="38.833025"><ele>97.9</ele><time>2024-01-21T13:49:07Z</time></trkpt><trkpt lat="58.04989" lon="38.833025"><ele>97.9</ele><time>2024-01-21T13:49:09Z</time></trkpt><trkpt lat="58.049892" lon="38.833015"><ele>98.1</ele><time>2024-01-21T13:49:50Z</time></trkpt><trkpt lat="58.049892" lon="38.833015"><ele>98.1</ele><time>2024-01-21T13:49:51Z</time></trkpt><trkpt lat="58.049902" lon="38.833015"><ele>98.4</ele><time>2024-01-21T13:50:03Z</time></trkpt><trkpt lat="58.049902" lon="38.833015"><ele>98.4</ele><time>2024-01-21T13:50:04Z</time></trkpt><trkpt lat="58.049907" lon="38.832988"><ele>98.5</ele><time>2024-01-21T13:50:12Z</time></trkpt><trkpt lat="58.049907" lon="38.832988"><ele>98.5</ele><time>2024-01-21T13:50:14Z</time></trkpt><trkpt lat="58.0499" lon="38.83298"><ele>98.6</ele><time>2024-01-21T13:51:22Z</time></trkpt><trkpt lat="58.0499" lon="38.83298"><ele>98.6</ele><time>2024-01-21T13:51:23Z</time></trkpt><trkpt lat="58.04989" lon="38.83296"><ele>100.2</ele><time>2024-01-21T13:52:45Z</time></trkpt><trkpt lat="58.04989" lon="38.83296"><ele>100.2</ele><time>2024-01-21T13:52:46Z</time></trkpt><trkpt lat="58.049875" lon="38.8328"><ele>99.5</ele><time>2024-01-21T13:53:34Z</time></trkpt><trkpt lat="58.04979" lon="38.832865"><ele>97.8</ele><time>2024-01-21T13:53:38Z</time></trkpt><trkpt lat="58.049835" lon="38.833042"><ele>101.4</ele><time>2024-01-21T13:53:42Z</time></trkpt><trkpt lat="58.0499" lon="38.83314"><ele>98.8</ele><time>2024-01-21T13:53:46Z</time></trkpt><trkpt lat="58.049965" lon="38.83321"><ele>98.9</ele><time>2024-01-21T13:53:53Z</time></trkpt><trkpt lat="58.050057" lon="38.83324"><ele>103.3</ele><time>2024-01-21T13:54:00Z</time></trkpt><trkpt lat="58.05002" lon="38.833205"><ele>107.6</ele><time>2024-01-21T13:54:07Z</time></trkpt><trkpt lat="58.050005" lon="38.83317"><ele>106.6</ele><time>2024-01-21T13:54:14Z</time></trkpt><trkpt lat="58.050005" lon="38.833165"><ele>106.3</ele><time>2024-01-21T13:54:20Z</time></trkpt><trkpt lat="58.050005" lon="38.833155"><ele>106.3</ele><time>2024-01-21T13:54:48Z</time></trkpt><trkpt lat="58.050005" lon="38.833155"><ele>106.3</ele><time>2024-01-21T13:54:49Z</time></trkpt><trkpt lat="58.05" lon="38.833143"><ele>106.1</ele><time>2024-01-21T13:55:25Z</time></trkpt><trkpt lat="58.05" lon="38.833143"><ele>106.1</ele><time>2024-01-21T13:55:26Z</time></trkpt><trkpt lat="58.049993" lon="38.83314"><ele>105.9</ele><time>2024-01-21T13:55:53Z</time></trkpt><trkpt lat="58.049993" lon="38.83314"><ele>105.9</ele><time>2024-01-21T13:55:54Z</time></trkpt><trkpt lat="58.049985" lon="38.833128"><ele>106.2</ele><time>2024-01-21T13:56:05Z</time></trkpt><trkpt lat="58.049978" lon="38.833135"><ele>104.5</ele><time>2024-01-21T13:56:06Z</time></trkpt><trkpt lat="58.049972" lon="38.83315"><ele>101.3</ele><time>2024-01-21T13:56:14Z</time></trkpt><trkpt lat="58.04997" lon="38.83315"><ele>101.9</ele><time>2024-01-21T13:56:15Z</time></trkpt><trkpt lat="58.049962" lon="38.833085"><ele>106.2</ele><time>2024-01-21T13:56:29Z</time></trkpt><trkpt lat="58.049965" lon="38.83309"><ele>106.4</ele><time>2024-01-21T13:56:33Z</time></trkpt><trkpt lat="58.049965" lon="38.8331"><ele>106.5</ele><time>2024-01-21T13:56:45Z</time></trkpt><trkpt lat="58.049965" lon="38.8331"><ele>106.5</ele><time>2024-01-21T13:56:46Z</time></trkpt><trkpt lat="58.04996" lon="38.8331"><ele>106.3</ele><time>2024-01-21T13:57:16Z</time></trkpt><trkpt lat="58.04996" lon="38.8331"><ele>106.3</ele><time>2024-01-21T13:57:17Z</time></trkpt><trkpt lat="58.04995" lon="38.833087"><ele>105.5</ele><time>2024-01-21T13:57:47Z</time></trkpt><trkpt lat="58.04995" lon="38.833087"><ele>105.5</ele><time>2024-01-21T13:57:48Z</time></trkpt><trkpt lat="58.04995" lon="38.833075"><ele>105.5</ele><time>2024-01-21T13:58:19Z</time></trkpt><trkpt lat="58.04995" lon="38.833075"><ele>105.5</ele><time>2024-01-21T13:58:20Z</time></trkpt><trkpt lat="58.049945" lon="38.833062"><ele>105.5</ele><time>2024-01-21T13:58:38Z</time></trkpt><trkpt lat="58.049945" lon="38.83306"><ele>105.5</ele><time>2024-01-21T13:58:39Z</time></trkpt><trkpt lat="58.04994" lon="38.83305"><ele>105.4</ele><time>2024-01-21T13:58:57Z</time></trkpt><trkpt lat="58.04994" lon="38.83305"><ele>105.4</ele><time>2024-01-21T13:58:58Z</time></trkpt><trkpt lat="58.049935" lon="38.83304"><ele>105.3</ele><time>2024-01-21T13:59:22Z</time></trkpt><trkpt lat="58.049935" lon="38.833037"><ele>105.3</ele><time>2024-01-21T13:59:23Z</time></trkpt><trkpt lat="58.04993" lon="38.83304"><ele>105.3</ele><time>2024-01-21T14:00:19Z</time></trkpt><trkpt lat="58.049925" lon="38.83304"><ele>104.8</ele><time>2024-01-21T14:00:20Z</time></trkpt><trkpt lat="58.049907" lon="38.833012"><ele>106.0</ele><time>2024-01-21T14:00:28Z</time></trkpt><trkpt lat="58.049907" lon="38.83301"><ele>105.9</ele><time>2024-01-21T14:00:29Z</time></trkpt><trkpt lat="58.049903" lon="38.832997"><ele>105.9</ele><time>2024-01-21T14:00:47Z</time></trkpt><trkpt lat="58.049903" lon="38.832997"><ele>105.9</ele><time>2024-01-21T14:00:48Z</time></trkpt><trkpt lat="58.0499" lon="38.832982"><ele>105.8</ele><time>2024-01-21T14:01:05Z</time></trkpt><trkpt lat="58.0499" lon="38.832982"><ele>105.8</ele><time>2024-01-21T14:01:06Z</time></trkpt><trkpt lat="58.0499" lon="38.832967"><ele>105.7</ele><time>2024-01-21T14:01:26Z</time></trkpt><trkpt lat="58.0499" lon="38.832967"><ele>105.7</ele><time>2024-01-21T14:01:27Z</time></trkpt><trkpt lat="58.049895" lon="38.832955"><ele>105.6</ele><time>2024-01-21T14:02:30Z</time></trkpt><trkpt lat="58.049895" lon="38.832955"><ele>105.6</ele><time>2024-01-21T14:02:31Z</time></trkpt><trkpt lat="58.049892" lon="38.832945"><ele>105.6</ele><time>2024-01-21T14:02:51Z</time></trkpt><trkpt lat="58.049892" lon="38.832942"><ele>105.6</ele><time>2024-01-21T14:02:52Z</time></trkpt><trkpt lat="58.049895" lon="38.832927"><ele>105.3</ele><time>2024-01-21T14:03:17Z</time></trkpt><trkpt lat="58.049897" lon="38.832925"><ele>105.3</ele><time>2024-01-21T14:03:18Z</time></trkpt><trkpt lat="58.049895" lon="38.832915"><ele>105.1</ele><time>2024-01-21T14:03:52Z</time></trkpt><trkpt lat="58.049895" lon="38.832915"><ele>105.1</ele><time>2024-01-21T14:03:53Z</time></trkpt><trkpt lat="58.049902" lon="38.832927"><ele>105.7</ele><time>2024-01-21T14:04:18Z</time></trkpt><trkpt lat="58.049902" lon="38.832925"><ele>105.7</ele><time>2024-01-21T14:04:19Z</time></trkpt><trkpt lat="58.0499" lon="38.83298"><ele>106.0</ele><time>2024-01-21T14:04:45Z</time></trkpt><trkpt lat="58.049895" lon="38.83301"><ele>105.7</ele><time>2024-01-21T14:04:52Z</time></trkpt><trkpt lat="58.049892" lon="38.833012"><ele>105.7</ele><time>2024-01-21T14:04:53Z</time></trkpt><trkpt lat="58.049895" lon="38.833025"><ele>105.7</ele><time>2024-01-21T14:05:10Z</time></trkpt><trkpt lat="58.049895" lon="38.833025"><ele>105.7</ele><time>2024-01-21T14:05:11Z</time></trkpt><trkpt lat="58.049887" lon="38.833"><ele>104.7</ele><time>2024-01-21T14:05:23Z</time></trkpt><trkpt lat="58.049887" lon="38.832997"><ele>104.7</ele><time>2024-01-21T14:05:24Z</time></trkpt><trkpt lat="58.049885" lon="38.83296"><ele>103.9</ele><time>2024-01-21T14:05:36Z</time></trkpt><trkpt lat="58.049885" lon="38.832955"><ele>103.9</ele><time>2024-01-21T14:05:37Z</time></trkpt><trkpt lat="58.049885" lon="38.83294"><ele>104.3</ele><time>2024-01-21T14:05:51Z</time></trkpt><trkpt lat="58.049885" lon="38.83294"><ele>104.3</ele><time>2024-01-21T14:05:52Z</time></trkpt><trkpt lat="58.04989" lon="38.832925"><ele>104.0</ele><time>2024-01-21T14:06:01Z</time></trkpt><trkpt lat="58.04989" lon="38.83293"><ele>102.9</ele><time>2024-01-21T14:06:02Z</time></trkpt><trkpt lat="58.049887" lon="38.832935"><ele>103.1</ele><time>2024-01-21T14:06:11Z</time></trkpt><trkpt lat="58.049887" lon="38.832935"><ele>103.1</ele><time>2024-01-21T14:06:12Z</time></trkpt><trkpt lat="58.049895" lon="38.832935"><ele>102.8</ele><time>2024-01-21T14:06:22Z</time></trkpt><trkpt lat="58.049895" lon="38.832935"><ele>102.8</ele><time>2024-01-21T14:06:23Z</time></trkpt><trkpt lat="58.0499" lon="38.832952"><ele>105.2</ele><time>2024-01-21T14:07:15Z</time></trkpt><trkpt lat="58.0499" lon="38.832955"><ele>105.1</ele><time>2024-01-21T14:07:16Z</time></trkpt><trkpt lat="58.049897" lon="38.833"><ele>104.5</ele><time>2024-01-21T14:07:31Z</time></trkpt><trkpt lat="58.0499" lon="38.833"><ele>104.6</ele><time>2024-01-21T14:07:34Z</time></trkpt><trkpt lat="58.049908" lon="38.832992"><ele>104.2</ele><time>2024-01-21T14:07:44Z</time></trkpt><trkpt lat="58.049907" lon="38.832992"><ele>104.3</ele><time>2024-01-21T14:07:45Z</time></trkpt><trkpt lat="58.049917" lon="38.833005"><ele>105.6</ele><time>2024-01-21T14:08:05Z</time></trkpt><trkpt lat="58.04992" lon="38.833005"><ele>105.6</ele><time>2024-01-21T14:08:06Z</time></trkpt><trkpt lat="58.04993" lon="38.83301"><ele>108.2</ele><time>2024-01-21T14:08:28Z</time></trkpt><trkpt lat="58.04993" lon="38.83301"><ele>108.2</ele><time>2024-01-21T14:08:29Z</time></trkpt><trkpt lat="58.04994" lon="38.833005"><ele>109.4</ele><time>2024-01-21T14:08:40Z</time></trkpt><trkpt lat="58.04994" lon="38.833"><ele>109.4</ele><time>2024-01-21T14:08:41Z</time></trkpt><trkpt lat="58.04995" lon="38.83301"><ele>108.9</ele><time>2024-01-21T14:08:49Z</time></trkpt><trkpt lat="58.04995" lon="38.833015"><ele>108.9</ele><time>2024-01-21T14:08:50Z</time></trkpt><trkpt lat="58.049945" lon="38.832997"><ele>108.9</ele><time>2024-01-21T14:09:35Z</time></trkpt><trkpt lat="58.049945" lon="38.832997"><ele>108.9</ele><time>2024-01-21T14:09:36Z</time></trkpt><trkpt lat="58.049945" lon="38.83302"><ele>108.7</ele><time>2024-01-21T14:09:46Z</time></trkpt><trkpt lat="58.049942" lon="38.83302"><ele>108.6</ele><time>2024-01-21T14:09:47Z</time></trkpt><trkpt lat="58.049935" lon="38.83301"><ele>108.3</ele><time>2024-01-21T14:09:58Z</time></trkpt><trkpt lat="58.049935" lon="38.83301"><ele>108.3</ele><time>2024-01-21T14:09:59Z</time></trkpt><trkpt lat="58.049935" lon="38.833007"><ele>108.4</ele><time>2024-01-21T14:10:34Z</time></trkpt><trkpt lat="58.049935" lon="38.83301"><ele>108.4</ele><time>2024-01-21T14:10:35Z</time></trkpt><trkpt lat="58.049935" lon="38.832995"><ele>109.0</ele><time>2024-01-21T14:11:17Z</time></trkpt><trkpt lat="58.049935" lon="38.832995"><ele>109.1</ele><time>2024-01-21T14:11:18Z</time></trkpt><trkpt lat="58.049935" lon="38.832973"><ele>109.2</ele><time>2024-01-21T14:11:31Z</time></trkpt><trkpt lat="58.049935" lon="38.832972"><ele>109.2</ele><time>2024-01-21T14:11:32Z</time></trkpt><trkpt lat="58.04993" lon="38.832962"><ele>109.4</ele><time>2024-01-21T14:11:45Z</time></trkpt><trkpt lat="58.04993" lon="38.83296"><ele>109.4</ele><time>2024-01-21T14:11:46Z</time></trkpt><trkpt lat="58.04993" lon="38.83295"><ele>109.2</ele><time>2024-01-21T14:12:27Z</time></trkpt><trkpt lat="58.04993" lon="38.83295"><ele>109.2</ele><time>2024-01-21T14:12:28Z</time></trkpt><trkpt lat="58.049935" lon="38.832945"><ele>109.4</ele><time>2024-01-21T14:13:30Z</time></trkpt><trkpt lat="58.049935" lon="38.832945"><ele>109.4</ele><time>2024-01-21T14:13:31Z</time></trkpt><trkpt lat="58.04994" lon="38.8329"><ele>110.4</ele><time>2024-01-21T14:14:00Z</time></trkpt><trkpt lat="58.04994" lon="38.8329"><ele>110.4</ele><time>2024-01-21T14:14:01Z</time></trkpt><trkpt lat="58.049922" lon="38.832895"><ele>109.4</ele><time>2024-01-21T14:14:17Z</time></trkpt><trkpt lat="58.049922" lon="38.832895"><ele>109.4</ele><time>2024-01-21T14:14:18Z</time></trkpt><trkpt lat="58.049922" lon="38.83295"><ele>108.3</ele><time>2024-01-21T14:15:26Z</time></trkpt><trkpt lat="58.049922" lon="38.83295"><ele>108.4</ele><time>2024-01-21T14:15:29Z</time></trkpt><trkpt lat="58.04992" lon="38.832942"><ele>108.7</ele><time>2024-01-21T14:15:42Z</time></trkpt><trkpt lat="58.04992" lon="38.83294"><ele>108.7</ele><time>2024-01-21T14:15:43Z</time></trkpt><trkpt lat="58.04993" lon="38.832957"><ele>110.5</ele><time>2024-01-21T14:16:11Z</time></trkpt><trkpt lat="58.04993" lon="38.832957"><ele>110.5</ele><time>2024-01-21T14:16:12Z</time></trkpt><trkpt lat="58.049935" lon="38.832985"><ele>113.4</ele><time>2024-01-21T14:19:19Z</time></trkpt><trkpt lat="58.049935" lon="38.832985"><ele>113.4</ele><time>2024-01-21T14:19:20Z</time></trkpt><trkpt lat="58.049942" lon="38.833"><ele>113.4</ele><time>2024-01-21T14:20:36Z</time></trkpt><trkpt lat="58.049942" lon="38.833"><ele>113.5</ele><time>2024-01-21T14:20:37Z</time></trkpt><trkpt lat="58.049935" lon="38.832965"><ele>112.8</ele><time>2024-01-21T14:20:47Z</time></trkpt><trkpt lat="58.049935" lon="38.832962"><ele>112.8</ele><time>2024-01-21T14:20:48Z</time></trkpt><trkpt lat="58.049935" lon="38.832945"><ele>113.1</ele><time>2024-01-21T14:21:17Z</time></trkpt><trkpt lat="58.049935" lon="38.832945"><ele>113.3</ele><time>2024-01-21T14:21:18Z</time></trkpt><trkpt lat="58.049945" lon="38.83294"><ele>113.2</ele><time>2024-01-21T14:21:26Z</time></trkpt><trkpt lat="58.049945" lon="38.83294"><ele>113.2</ele><time>2024-01-21T14:21:27Z</time></trkpt><trkpt lat="58.04994" lon="38.83293"><ele>113.1</ele><time>2024-01-21T14:21:51Z</time></trkpt><trkpt lat="58.04994" lon="38.83293"><ele>113.1</ele><time>2024-01-21T14:21:52Z</time></trkpt><trkpt lat="58.049942" lon="38.832915"><ele>113.3</ele><time>2024-01-21T14:22:12Z</time></trkpt><trkpt lat="58.049942" lon="38.832915"><ele>113.3</ele><time>2024-01-21T14:22:13Z</time></trkpt><trkpt lat="58.049945" lon="38.8329"><ele>113.6</ele><time>2024-01-21T14:22:49Z</time></trkpt><trkpt lat="58.049945" lon="38.832898"><ele>113.6</ele><time>2024-01-21T14:22:50Z</time></trkpt><trkpt lat="58.049945" lon="38.832885"><ele>113.6</ele><time>2024-01-21T14:23:15Z</time></trkpt><trkpt lat="58.049945" lon="38.832885"><ele>113.6</ele><time>2024-01-21T14:23:16Z</time></trkpt><trkpt lat="58.049947" lon="38.832875"><ele>113.6</ele><time>2024-01-21T14:24:18Z</time></trkpt><trkpt lat="58.049947" lon="38.832875"><ele>113.6</ele><time>2024-01-21T14:24:19Z</time></trkpt><trkpt lat="58.049947" lon="38.832887"><ele>114.2</ele><time>2024-01-21T14:25:50Z</time></trkpt><trkpt lat="58.049947" lon="38.832887"><ele>114.2</ele><time>2024-01-21T14:25:51Z</time></trkpt><trkpt lat="58.04994" lon="38.832865"><ele>116.5</ele><time>2024-01-21T14:26:23Z</time></trkpt><trkpt lat="58.04994" lon="38.832865"><ele>116.5</ele><time>2024-01-21T14:26:24Z</time></trkpt><trkpt lat="58.04993" lon="38.83287"><ele>116.6</ele><time>2024-01-21T14:26:43Z</time></trkpt><trkpt lat="58.04993" lon="38.83287"><ele>116.6</ele><time>2024-01-21T14:26:44Z</time></trkpt><trkpt lat="58.049935" lon="38.832852"><ele>116.5</ele><time>2024-01-21T14:27:01Z</time></trkpt><trkpt lat="58.049935" lon="38.832852"><ele>116.5</ele><time>2024-01-21T14:27:02Z</time></trkpt><trkpt lat="58.04993" lon="38.832917"><ele>117.2</ele><time>2024-01-21T14:28:10Z</time></trkpt><trkpt lat="58.04993" lon="38.832915"><ele>117.3</ele><time>2024-01-21T14:28:16Z</time></trkpt><trkpt lat="58.04994" lon="38.83288"><ele>117.0</ele><time>2024-01-21T14:28:49Z</time></trkpt><trkpt lat="58.04994" lon="38.83288"><ele>117.5</ele><time>2024-01-21T14:28:54Z</time></trkpt><trkpt lat="58.04993" lon="38.832995"><ele>115.8</ele><time>2024-01-21T14:29:03Z</time></trkpt><trkpt lat="58.049927" lon="38.83302"><ele>116.0</ele><time>2024-01-21T14:29:10Z</time></trkpt><trkpt lat="58.049927" lon="38.83302"><ele>116.0</ele><time>2024-01-21T14:29:11Z</time></trkpt><trkpt lat="58.049885" lon="38.833035"><ele>114.7</ele><time>2024-01-21T14:29:38Z</time></trkpt><trkpt lat="58.04989" lon="38.832955"><ele>116.9</ele><time>2024-01-21T14:29:45Z</time></trkpt><trkpt lat="58.049895" lon="38.832935"><ele>115.4</ele><time>2024-01-21T14:29:52Z</time></trkpt><trkpt lat="58.049965" lon="38.833015"><ele>119.0</ele><time>2024-01-21T14:29:58Z</time></trkpt><trkpt lat="58.05002" lon="38.832902"><ele>116.9</ele><time>2024-01-21T14:30:02Z</time></trkpt><trkpt lat="58.05003" lon="38.832787"><ele>115.5</ele><time>2024-01-21T14:30:09Z</time></trkpt><trkpt lat="58.050005" lon="38.83272"><ele>114.4</ele><time>2024-01-21T14:30:16Z</time></trkpt><trkpt lat="58.050055" lon="38.832822"><ele>116.2</ele><time>2024-01-21T14:30:21Z</time></trkpt><trkpt lat="58.05012" lon="38.83292"><ele>114.0</ele><time>2024-01-21T14:30:28Z</time></trkpt><trkpt lat="58.050155" lon="38.833047"><ele>112.0</ele><time>2024-01-21T14:30:35Z</time></trkpt><trkpt lat="58.05024" lon="38.833065"><ele>107.8</ele><time>2024-01-21T14:30:42Z</time></trkpt><trkpt lat="58.050325" lon="38.833077"><ele>113.1</ele><time>2024-01-21T14:30:49Z</time></trkpt><trkpt lat="58.050405" lon="38.833117"><ele>106.7</ele><time>2024-01-21T14:30:55Z</time></trkpt><trkpt lat="58.050475" lon="38.833162"><ele>109.5</ele><time>2024-01-21T14:31:00Z</time></trkpt><trkpt lat="58.05054" lon="38.833237"><ele>112.2</ele><time>2024-01-21T14:31:06Z</time></trkpt><trkpt lat="58.05061" lon="38.8333"><ele>115.1</ele><time>2024-01-21T14:31:12Z</time></trkpt><trkpt lat="58.05069" lon="38.83336"><ele>114.4</ele><time>2024-01-21T14:31:18Z</time></trkpt><trkpt lat="58.050762" lon="38.8334"><ele>112.6</ele><time>2024-01-21T14:31:23Z</time></trkpt><trkpt lat="58.050825" lon="38.833465"><ele>110.3</ele><time>2024-01-21T14:31:28Z</time></trkpt><trkpt lat="58.05091" lon="38.833515"><ele>110.2</ele><time>2024-01-21T14:31:33Z</time></trkpt><trkpt lat="58.050985" lon="38.833485"><ele>112.3</ele><time>2024-01-21T14:31:39Z</time></trkpt><trkpt lat="58.051047" lon="38.833577"><ele>109.9</ele><time>2024-01-21T14:31:44Z</time></trkpt><trkpt lat="58.051107" lon="38.833645"><ele>111.3</ele><time>2024-01-21T14:31:51Z</time></trkpt><trkpt lat="58.051187" lon="38.83364"><ele>112.9</ele><time>2024-01-21T14:31:58Z</time></trkpt><trkpt lat="58.051265" lon="38.833605"><ele>112.3</ele><time>2024-01-21T14:32:04Z</time></trkpt><trkpt lat="58.051347" lon="38.83367"><ele>114.5</ele><time>2024-01-21T14:32:10Z</time></trkpt><trkpt lat="58.051423" lon="38.833645"><ele>115.7</ele><time>2024-01-21T14:32:15Z</time></trkpt><trkpt lat="58.051502" lon="38.83369"><ele>116.9</ele><time>2024-01-21T14:32:19Z</time></trkpt><trkpt lat="58.051578" lon="38.833732"><ele>114.4</ele><time>2024-01-21T14:32:26Z</time></trkpt><trkpt lat="58.051652" lon="38.833722"><ele>117.7</ele><time>2024-01-21T14:32:31Z</time></trkpt><trkpt lat="58.051702" lon="38.833845"><ele>115.3</ele><time>2024-01-21T14:32:37Z</time></trkpt><trkpt lat="58.051775" lon="38.83387"><ele>113.8</ele><time>2024-01-21T14:32:42Z</time></trkpt><trkpt lat="58.051855" lon="38.833912"><ele>111.4</ele><time>2024-01-21T14:32:48Z</time></trkpt><trkpt lat="58.051925" lon="38.833995"><ele>110.4</ele><time>2024-01-21T14:32:54Z</time></trkpt><trkpt lat="58.052" lon="38.834065"><ele>110.1</ele><time>2024-01-21T14:33:00Z</time></trkpt><trkpt lat="58.05207" lon="38.83414"><ele>114.4</ele><time>2024-01-21T14:33:06Z</time></trkpt><trkpt lat="58.05213" lon="38.834222"><ele>111.3</ele><time>2024-01-21T14:33:11Z</time></trkpt><trkpt lat="58.052215" lon="38.834222"><ele>111.2</ele><time>2024-01-21T14:33:16Z</time></trkpt><trkpt lat="58.052287" lon="38.834207"><ele>111.4</ele><time>2024-01-21T14:33:21Z</time></trkpt><trkpt lat="58.052362" lon="38.834192"><ele>109.4</ele><time>2024-01-21T14:33:26Z</time></trkpt><trkpt lat="58.052377" lon="38.834235"><ele>111.6</ele><time>2024-01-21T14:33:33Z</time></trkpt><trkpt lat="58.05238" lon="38.83423"><ele>111.6</ele><time>2024-01-21T14:33:39Z</time></trkpt><trkpt lat="58.05246" lon="38.834275"><ele>110.1</ele><time>2024-01-21T14:33:54Z</time></trkpt><trkpt lat="58.05252" lon="38.83437"><ele>112.3</ele><time>2024-01-21T14:34:00Z</time></trkpt><trkpt lat="58.0526" lon="38.834387"><ele>113.7</ele><time>2024-01-21T14:34:07Z</time></trkpt><trkpt lat="58.052675" lon="38.8344"><ele>114.1</ele><time>2024-01-21T14:34:13Z</time></trkpt><trkpt lat="58.052745" lon="38.8344"><ele>114.6</ele><time>2024-01-21T14:34:19Z</time></trkpt><trkpt lat="58.05282" lon="38.83438"><ele>115.0</ele><time>2024-01-21T14:34:25Z</time></trkpt><trkpt lat="58.052895" lon="38.834407"><ele>115.4</ele><time>2024-01-21T14:34:31Z</time></trkpt><trkpt lat="58.052965" lon="38.83446"><ele>114.2</ele><time>2024-01-21T14:34:37Z</time></trkpt><trkpt lat="58.05303" lon="38.83455"><ele>116.7</ele><time>2024-01-21T14:34:42Z</time></trkpt><trkpt lat="58.053112" lon="38.83459"><ele>111.3</ele><time>2024-01-21T14:34:48Z</time></trkpt><trkpt lat="58.053185" lon="38.83463"><ele>107.2</ele><time>2024-01-21T14:34:55Z</time></trkpt><trkpt lat="58.053255" lon="38.8347"><ele>105.9</ele><time>2024-01-21T14:35:01Z</time></trkpt><trkpt lat="58.05332" lon="38.834795"><ele>105.8</ele><time>2024-01-21T14:35:07Z</time></trkpt><trkpt lat="58.05339" lon="38.83484"><ele>105.7</ele><time>2024-01-21T14:35:13Z</time></trkpt><trkpt lat="58.053462" lon="38.834855"><ele>106.5</ele><time>2024-01-21T14:35:18Z</time></trkpt><trkpt lat="58.053535" lon="38.834877"><ele>106.5</ele><time>2024-01-21T14:35:23Z</time></trkpt><trkpt lat="58.05361" lon="38.83489"><ele>106.4</ele><time>2024-01-21T14:35:28Z</time></trkpt><trkpt lat="58.053687" lon="38.834895"><ele>103.8</ele><time>2024-01-21T14:35:34Z</time></trkpt><trkpt lat="58.05376" lon="38.834902"><ele>102.5</ele><time>2024-01-21T14:35:39Z</time></trkpt><trkpt lat="58.05382" lon="38.83499"><ele>102.2</ele><time>2024-01-21T14:35:45Z</time></trkpt><trkpt lat="58.053895" lon="38.83504"><ele>103.9</ele><time>2024-01-21T14:35:50Z</time></trkpt><trkpt lat="58.05396" lon="38.835097"><ele>105.9</ele><time>2024-01-21T14:35:55Z</time></trkpt><trkpt lat="58.054025" lon="38.835185"><ele>104.7</ele><time>2024-01-21T14:36:00Z</time></trkpt><trkpt lat="58.054095" lon="38.83527"><ele>102.9</ele><time>2024-01-21T14:36:06Z</time></trkpt><trkpt lat="58.054165" lon="38.835323"><ele>103.7</ele><time>2024-01-21T14:36:12Z</time></trkpt><trkpt lat="58.054223" lon="38.835415"><ele>104.6</ele><time>2024-01-21T14:36:17Z</time></trkpt><trkpt lat="58.054292" lon="38.835505"><ele>106.6</ele><time>2024-01-21T14:36:23Z</time></trkpt><trkpt lat="58.054375" lon="38.835505"><ele>109.5</ele><time>2024-01-21T14:36:28Z</time></trkpt><trkpt lat="58.05444" lon="38.835615"><ele>106.5</ele><time>2024-01-21T14:36:33Z</time></trkpt><trkpt lat="58.0545" lon="38.835718"><ele>106.7</ele><time>2024-01-21T14:36:39Z</time></trkpt><trkpt lat="58.054585" lon="38.83571"><ele>108.5</ele><time>2024-01-21T14:36:44Z</time></trkpt><trkpt lat="58.05466" lon="38.83574"><ele>108.5</ele><time>2024-01-21T14:36:49Z</time></trkpt><trkpt lat="58.05473" lon="38.83582"><ele>108.7</ele><time>2024-01-21T14:36:55Z</time></trkpt><trkpt lat="58.0548" lon="38.835905"><ele>109.2</ele><time>2024-01-21T14:37:01Z</time></trkpt><trkpt lat="58.05486" lon="38.835985"><ele>108.3</ele><time>2024-01-21T14:37:07Z</time></trkpt><trkpt lat="58.05494" lon="38.83603"><ele>109.4</ele><time>2024-01-21T14:37:12Z</time></trkpt><trkpt lat="58.054957" lon="38.835928"><ele>109.6</ele><time>2024-01-21T14:37:19Z</time></trkpt><trkpt lat="58.054895" lon="38.8361"><ele>105.0</ele><time>2024-01-21T14:37:23Z</time></trkpt><trkpt lat="58.054895" lon="38.83628"><ele>104.4</ele><time>2024-01-21T14:37:24Z</time></trkpt><trkpt lat="58.054925" lon="38.836415"><ele>105.3</ele><time>2024-01-21T14:37:26Z</time></trkpt><trkpt lat="58.054987" lon="38.836292"><ele>104.3</ele><time>2024-01-21T14:37:29Z</time></trkpt><trkpt lat="58.055057" lon="38.83622"><ele>103.4</ele><time>2024-01-21T14:37:33Z</time></trkpt><trkpt lat="58.055053" lon="38.83607"><ele>102.8</ele><time>2024-01-21T14:37:36Z</time></trkpt><trkpt lat="58.055095" lon="38.835947"><ele>102.3</ele><time>2024-01-21T14:37:40Z</time></trkpt><trkpt lat="58.055152" lon="38.83582"><ele>96.4</ele><time>2024-01-21T14:37:46Z</time></trkpt><trkpt lat="58.0552" lon="38.835692"><ele>93.0</ele><time>2024-01-21T14:37:52Z</time></trkpt><trkpt lat="58.055225" lon="38.835535"><ele>95.2</ele><time>2024-01-21T14:37:58Z</time></trkpt><trkpt lat="58.05527" lon="38.835392"><ele>93.2</ele><time>2024-01-21T14:38:03Z</time></trkpt><trkpt lat="58.0553" lon="38.835248"><ele>90.3</ele><time>2024-01-21T14:38:09Z</time></trkpt><trkpt lat="58.05534" lon="38.835105"><ele>91.0</ele><time>2024-01-21T14:38:15Z</time></trkpt><trkpt lat="58.05539" lon="38.835"><ele>93.1</ele><time>2024-01-21T14:38:20Z</time></trkpt><trkpt lat="58.055432" lon="38.83488"><ele>94.2</ele><time>2024-01-21T14:38:26Z</time></trkpt><trkpt lat="58.055465" lon="38.83473"><ele>96.5</ele><time>2024-01-21T14:38:32Z</time></trkpt><trkpt lat="58.05548" lon="38.83458"><ele>94.7</ele><time>2024-01-21T14:38:38Z</time></trkpt><trkpt lat="58.055512" lon="38.83446"><ele>95.5</ele><time>2024-01-21T14:38:43Z</time></trkpt><trkpt lat="58.055545" lon="38.83432"><ele>97.0</ele><time>2024-01-21T14:38:49Z</time></trkpt><trkpt lat="58.05561" lon="38.834215"><ele>93.9</ele><time>2024-01-21T14:38:56Z</time></trkpt><trkpt lat="58.05564" lon="38.834085"><ele>100.5</ele><time>2024-01-21T14:39:02Z</time></trkpt><trkpt lat="58.055685" lon="38.833957"><ele>97.4</ele><time>2024-01-21T14:39:08Z</time></trkpt><trkpt lat="58.05572" lon="38.83382"><ele>100.3</ele><time>2024-01-21T14:39:14Z</time></trkpt><trkpt lat="58.055743" lon="38.833685"><ele>103.1</ele><time>2024-01-21T14:39:20Z</time></trkpt><trkpt lat="58.055767" lon="38.83354"><ele>104.3</ele><time>2024-01-21T14:39:26Z</time></trkpt><trkpt lat="58.055807" lon="38.83341"><ele>101.9</ele><time>2024-01-21T14:39:32Z</time></trkpt><trkpt lat="58.055852" lon="38.83329"><ele>98.3</ele><time>2024-01-21T14:39:38Z</time></trkpt><trkpt lat="58.055887" lon="38.83317"><ele>97.8</ele><time>2024-01-21T14:39:44Z</time></trkpt><trkpt lat="58.055935" lon="38.833052"><ele>100.4</ele><time>2024-01-21T14:39:50Z</time></trkpt><trkpt lat="58.055955" lon="38.83292"><ele>100.9</ele><time>2024-01-21T14:39:55Z</time></trkpt><trkpt lat="58.05602" lon="38.832815"><ele>100.9</ele><time>2024-01-21T14:40:01Z</time></trkpt><trkpt lat="58.056055" lon="38.83269"><ele>101.8</ele><time>2024-01-21T14:40:07Z</time></trkpt><trkpt lat="58.0561" lon="38.83258"><ele>100.3</ele><time>2024-01-21T14:40:13Z</time></trkpt><trkpt lat="58.056162" lon="38.8325"><ele>101.8</ele><time>2024-01-21T14:40:19Z</time></trkpt><trkpt lat="58.056175" lon="38.83236"><ele>98.7</ele><time>2024-01-21T14:40:24Z</time></trkpt><trkpt lat="58.056215" lon="38.832235"><ele>103.3</ele><time>2024-01-21T14:40:30Z</time></trkpt><trkpt lat="58.056247" lon="38.832105"><ele>105.9</ele><time>2024-01-21T14:40:36Z</time></trkpt><trkpt lat="58.056278" lon="38.831988"><ele>104.6</ele><time>2024-01-21T14:40:43Z</time></trkpt><trkpt lat="58.056315" lon="38.83189"><ele>105.1</ele><time>2024-01-21T14:40:50Z</time></trkpt><trkpt lat="58.056335" lon="38.831755"><ele>106.4</ele><time>2024-01-21T14:40:56Z</time></trkpt><trkpt lat="58.05637" lon="38.831615"><ele>104.3</ele><time>2024-01-21T14:41:03Z</time></trkpt><trkpt lat="58.056412" lon="38.831477"><ele>102.3</ele><time>2024-01-21T14:41:10Z</time></trkpt><trkpt lat="58.056432" lon="38.831325"><ele>102.5</ele><time>2024-01-21T14:41:17Z</time></trkpt><trkpt lat="58.056467" lon="38.83119"><ele>102.3</ele><time>2024-01-21T14:41:24Z</time></trkpt><trkpt lat="58.056508" lon="38.83107"><ele>102.4</ele><time>2024-01-21T14:41:30Z</time></trkpt><trkpt lat="58.05656" lon="38.830945"><ele>99.6</ele><time>2024-01-21T14:41:37Z</time></trkpt><trkpt lat="58.056605" lon="38.830815"><ele>101.2</ele><time>2024-01-21T14:41:44Z</time></trkpt><trkpt lat="58.056655" lon="38.830692"><ele>99.1</ele><time>2024-01-21T14:41:51Z</time></trkpt><trkpt lat="58.056635" lon="38.830552"><ele>97.3</ele><time>2024-01-21T14:41:57Z</time></trkpt><trkpt lat="58.056687" lon="38.83045"><ele>100.2</ele><time>2024-01-21T14:42:02Z</time></trkpt><trkpt lat="58.056745" lon="38.83036"><ele>101.6</ele><time>2024-01-21T14:42:08Z</time></trkpt><trkpt lat="58.056745" lon="38.830195"><ele>102.4</ele><time>2024-01-21T14:42:14Z</time></trkpt><trkpt lat="58.056755" lon="38.83005"><ele>100.9</ele><time>2024-01-21T14:42:20Z</time></trkpt><trkpt lat="58.056772" lon="38.829915"><ele>102.3</ele><time>2024-01-21T14:42:27Z</time></trkpt><trkpt lat="58.056785" lon="38.829788"><ele>103.7</ele><time>2024-01-21T14:42:34Z</time></trkpt><trkpt lat="58.056797" lon="38.82963"><ele>103.6</ele><time>2024-01-21T14:42:41Z</time></trkpt><trkpt lat="58.056822" lon="38.829502"><ele>103.3</ele><time>2024-01-21T14:42:47Z</time></trkpt><trkpt lat="58.056873" lon="38.8294"><ele>101.5</ele><time>2024-01-21T14:42:53Z</time></trkpt><trkpt lat="58.056905" lon="38.829267"><ele>100.7</ele><time>2024-01-21T14:43:00Z</time></trkpt><trkpt lat="58.056942" lon="38.82915"><ele>101.8</ele><time>2024-01-21T14:43:06Z</time></trkpt><trkpt lat="58.056958" lon="38.82901"><ele>100.1</ele><time>2024-01-21T14:43:12Z</time></trkpt><trkpt lat="58.05697" lon="38.82886"><ele>101.2</ele><time>2024-01-21T14:43:18Z</time></trkpt><trkpt lat="58.056965" lon="38.828702"><ele>102.1</ele><time>2024-01-21T14:43:25Z</time></trkpt><trkpt lat="58.056962" lon="38.828565"><ele>104.0</ele><time>2024-01-21T14:43:31Z</time></trkpt><trkpt lat="58.057015" lon="38.828445"><ele>108.8</ele><time>2024-01-21T14:43:38Z</time></trkpt><trkpt lat="58.05704" lon="38.82832"><ele>110.9</ele><time>2024-01-21T14:43:44Z</time></trkpt><trkpt lat="58.057097" lon="38.828202"><ele>109.7</ele><time>2024-01-21T14:43:51Z</time></trkpt><trkpt lat="58.05717" lon="38.82814"><ele>108.0</ele><time>2024-01-21T14:43:57Z</time></trkpt><trkpt lat="58.057205" lon="38.82802"><ele>108.9</ele><time>2024-01-21T14:44:04Z</time></trkpt><trkpt lat="58.057265" lon="38.827925"><ele>111.6</ele><time>2024-01-21T14:44:11Z</time></trkpt><trkpt lat="58.057317" lon="38.8278"><ele>109.5</ele><time>2024-01-21T14:44:18Z</time></trkpt><trkpt lat="58.057377" lon="38.827705"><ele>109.7</ele><time>2024-01-21T14:44:23Z</time></trkpt><trkpt lat="58.057435" lon="38.827615"><ele>106.7</ele><time>2024-01-21T14:44:29Z</time></trkpt><trkpt lat="58.057495" lon="38.827535"><ele>108.0</ele><time>2024-01-21T14:44:35Z</time></trkpt><trkpt lat="58.05754" lon="38.827395"><ele>107.6</ele><time>2024-01-21T14:44:41Z</time></trkpt><trkpt lat="58.057595" lon="38.827285"><ele>107.7</ele><time>2024-01-21T14:44:47Z</time></trkpt><trkpt lat="58.05764" lon="38.827175"><ele>107.8</ele><time>2024-01-21T14:44:52Z</time></trkpt><trkpt lat="58.05769" lon="38.827058"><ele>107.6</ele><time>2024-01-21T14:44:57Z</time></trkpt><trkpt lat="58.057745" lon="38.826965"><ele>107.1</ele><time>2024-01-21T14:45:02Z</time></trkpt><trkpt lat="58.05781" lon="38.826907"><ele>103.6</ele><time>2024-01-21T14:45:07Z</time></trkpt><trkpt lat="58.057872" lon="38.82682"><ele>103.3</ele><time>2024-01-21T14:45:13Z</time></trkpt><trkpt lat="58.05793" lon="38.82671"><ele>107.0</ele><time>2024-01-21T14:45:20Z</time></trkpt><trkpt lat="58.05798" lon="38.826595"><ele>107.6</ele><time>2024-01-21T14:45:26Z</time></trkpt><trkpt lat="58.058028" lon="38.826482"><ele>107.4</ele><time>2024-01-21T14:45:32Z</time></trkpt><trkpt lat="58.058075" lon="38.826365"><ele>107.1</ele><time>2024-01-21T14:45:38Z</time></trkpt><trkpt lat="58.058135" lon="38.82627"><ele>106.0</ele><time>2024-01-21T14:45:45Z</time></trkpt><trkpt lat="58.058183" lon="38.826155"><ele>105.2</ele><time>2024-01-21T14:45:51Z</time></trkpt><trkpt lat="58.058235" lon="38.826045"><ele>104.2</ele><time>2024-01-21T14:45:58Z</time></trkpt><trkpt lat="58.05825" lon="38.825922"><ele>106.4</ele><time>2024-01-21T14:46:05Z</time></trkpt><trkpt lat="58.0583" lon="38.825815"><ele>106.9</ele><time>2024-01-21T14:46:10Z</time></trkpt><trkpt lat="58.058375" lon="38.825802"><ele>105.2</ele><time>2024-01-21T14:46:15Z</time></trkpt><trkpt lat="58.05842" lon="38.825692"><ele>105.8</ele><time>2024-01-21T14:46:21Z</time></trkpt><trkpt lat="58.058445" lon="38.825565"><ele>105.2</ele><time>2024-01-21T14:46:27Z</time></trkpt><trkpt lat="58.058473" lon="38.82543"><ele>103.8</ele><time>2024-01-21T14:46:34Z</time></trkpt><trkpt lat="58.058512" lon="38.825332"><ele>103.7</ele><time>2024-01-21T14:46:41Z</time></trkpt><trkpt lat="58.05856" lon="38.82523"><ele>106.2</ele><time>2024-01-21T14:46:47Z</time></trkpt><trkpt lat="58.058635" lon="38.825178"><ele>107.2</ele><time>2024-01-21T14:46:53Z</time></trkpt><trkpt lat="58.05868" lon="38.825065"><ele>106.9</ele><time>2024-01-21T14:46:58Z</time></trkpt><trkpt lat="58.058735" lon="38.82496"><ele>106.2</ele><time>2024-01-21T14:47:05Z</time></trkpt><trkpt lat="58.058772" lon="38.824845"><ele>103.2</ele><time>2024-01-21T14:47:09Z</time></trkpt><trkpt lat="58.05883" lon="38.824747"><ele>104.0</ele><time>2024-01-21T14:47:15Z</time></trkpt><trkpt lat="58.05889" lon="38.82467"><ele>105.8</ele><time>2024-01-21T14:47:22Z</time></trkpt><trkpt lat="58.058925" lon="38.82453"><ele>104.7</ele><time>2024-01-21T14:47:29Z</time></trkpt><trkpt lat="58.058975" lon="38.824412"><ele>102.6</ele><time>2024-01-21T14:47:35Z</time></trkpt><trkpt lat="58.05903" lon="38.824315"><ele>107.4</ele><time>2024-01-21T14:47:40Z</time></trkpt><trkpt lat="58.059095" lon="38.824225"><ele>108.0</ele><time>2024-01-21T14:47:46Z</time></trkpt><trkpt lat="58.059152" lon="38.824135"><ele>107.6</ele><time>2024-01-21T14:47:53Z</time></trkpt><trkpt lat="58.05921" lon="38.82401"><ele>109.9</ele><time>2024-01-21T14:48:00Z</time></trkpt><trkpt lat="58.059265" lon="38.823917"><ele>109.1</ele><time>2024-01-21T14:48:07Z</time></trkpt><trkpt lat="58.059325" lon="38.823812"><ele>109.4</ele><time>2024-01-21T14:48:14Z</time></trkpt><trkpt lat="58.059385" lon="38.823717"><ele>111.0</ele><time>2024-01-21T14:48:21Z</time></trkpt><trkpt lat="58.059435" lon="38.82364"><ele>112.6</ele><time>2024-01-21T14:48:28Z</time></trkpt><trkpt lat="58.05949" lon="38.823542"><ele>113.7</ele><time>2024-01-21T14:48:35Z</time></trkpt><trkpt lat="58.059545" lon="38.823432"><ele>114.2</ele><time>2024-01-21T14:48:42Z</time></trkpt><trkpt lat="58.059615" lon="38.82337"><ele>113.6</ele><time>2024-01-21T14:48:49Z</time></trkpt><trkpt lat="58.05964" lon="38.82323"><ele>110.9</ele><time>2024-01-21T14:48:56Z</time></trkpt><trkpt lat="58.059657" lon="38.823085"><ele>110.9</ele><time>2024-01-21T14:49:03Z</time></trkpt><trkpt lat="58.059675" lon="38.822955"><ele>113.4</ele><time>2024-01-21T14:49:10Z</time></trkpt><trkpt lat="58.05969" lon="38.82282"><ele>111.4</ele><time>2024-01-21T14:49:17Z</time></trkpt><trkpt lat="58.059715" lon="38.822685"><ele>111.2</ele><time>2024-01-21T14:49:24Z</time></trkpt><trkpt lat="58.05971" lon="38.82254"><ele>110.5</ele><time>2024-01-21T14:49:30Z</time></trkpt><trkpt lat="58.059765" lon="38.82243"><ele>111.9</ele><time>2024-01-21T14:49:37Z</time></trkpt><trkpt lat="58.059697" lon="38.822332"><ele>112.2</ele><time>2024-01-21T14:49:44Z</time></trkpt><trkpt lat="58.05967" lon="38.822195"><ele>112.5</ele><time>2024-01-21T14:49:50Z</time></trkpt><trkpt lat="58.059688" lon="38.822055"><ele>106.8</ele><time>2024-01-21T14:49:56Z</time></trkpt><trkpt lat="58.059695" lon="38.821907"><ele>106.5</ele><time>2024-01-21T14:50:03Z</time></trkpt><trkpt lat="58.059755" lon="38.82181"><ele>105.2</ele><time>2024-01-21T14:50:08Z</time></trkpt><trkpt lat="58.059762" lon="38.821647"><ele>107.9</ele><time>2024-01-21T14:50:13Z</time></trkpt><trkpt lat="58.05978" lon="38.821515"><ele>109.9</ele><time>2024-01-21T14:50:19Z</time></trkpt><trkpt lat="58.059773" lon="38.82165"><ele>112.2</ele><time>2024-01-21T14:50:25Z</time></trkpt><trkpt lat="58.059772" lon="38.82166"><ele>112.2</ele><time>2024-01-21T14:50:32Z</time></trkpt><trkpt lat="58.059797" lon="38.821515"><ele>112.6</ele><time>2024-01-21T14:51:02Z</time></trkpt><trkpt lat="58.059815" lon="38.821378"><ele>112.2</ele><time>2024-01-21T14:51:08Z</time></trkpt><trkpt lat="58.059822" lon="38.821242"><ele>111.3</ele><time>2024-01-21T14:51:13Z</time></trkpt><trkpt lat="58.059817" lon="38.8211"><ele>112.2</ele><time>2024-01-21T14:51:19Z</time></trkpt><trkpt lat="58.059805" lon="38.820943"><ele>109.6</ele><time>2024-01-21T14:51:25Z</time></trkpt><trkpt lat="58.05982" lon="38.8208"><ele>107.0</ele><time>2024-01-21T14:51:30Z</time></trkpt><trkpt lat="58.05981" lon="38.820657"><ele>108.3</ele><time>2024-01-21T14:51:35Z</time></trkpt><trkpt lat="58.059828" lon="38.820505"><ele>106.3</ele><time>2024-01-21T14:51:41Z</time></trkpt><trkpt lat="58.059855" lon="38.82036"><ele>107.5</ele><time>2024-01-21T14:51:47Z</time></trkpt><trkpt lat="58.05986" lon="38.82021"><ele>105.2</ele><time>2024-01-21T14:51:54Z</time></trkpt><trkpt lat="58.05985" lon="38.82005"><ele>104.9</ele><time>2024-01-21T14:51:59Z</time></trkpt><trkpt lat="58.05986" lon="38.819915"><ele>107.5</ele><time>2024-01-21T14:52:04Z</time></trkpt><trkpt lat="58.05987" lon="38.819767"><ele>108.6</ele><time>2024-01-21T14:52:09Z</time></trkpt><trkpt lat="58.059877" lon="38.81963"><ele>109.3</ele><time>2024-01-21T14:52:14Z</time></trkpt><trkpt lat="58.0599" lon="38.81948"><ele>108.5</ele><time>2024-01-21T14:52:20Z</time></trkpt><trkpt lat="58.059905" lon="38.81932"><ele>110.8</ele><time>2024-01-21T14:52:26Z</time></trkpt><trkpt lat="58.059907" lon="38.81918"><ele>109.5</ele><time>2024-01-21T14:52:31Z</time></trkpt><trkpt lat="58.059895" lon="38.819042"><ele>108.0</ele><time>2024-01-21T14:52:36Z</time></trkpt><trkpt lat="58.059895" lon="38.818895"><ele>108.2</ele><time>2024-01-21T14:52:42Z</time></trkpt><trkpt lat="58.059932" lon="38.818755"><ele>107.2</ele><time>2024-01-21T14:52:48Z</time></trkpt><trkpt lat="58.059947" lon="38.818605"><ele>109.7</ele><time>2024-01-21T14:52:54Z</time></trkpt><trkpt lat="58.059965" lon="38.81845"><ele>110.1</ele><time>2024-01-21T14:53:01Z</time></trkpt><trkpt lat="58.059975" lon="38.818307"><ele>109.7</ele><time>2024-01-21T14:53:07Z</time></trkpt><trkpt lat="58.059982" lon="38.818152"><ele>113.4</ele><time>2024-01-21T14:53:13Z</time></trkpt><trkpt lat="58.059995" lon="38.818007"><ele>112.0</ele><time>2024-01-21T14:53:20Z</time></trkpt><trkpt lat="58.06001" lon="38.817855"><ele>110.4</ele><time>2024-01-21T14:53:26Z</time></trkpt><trkpt lat="58.05994" lon="38.81779"><ele>107.8</ele><time>2024-01-21T14:53:29Z</time></trkpt><trkpt lat="58.059867" lon="38.81777"><ele>105.1</ele><time>2024-01-21T14:53:32Z</time></trkpt><trkpt lat="58.05979" lon="38.817705"><ele>102.5</ele><time>2024-01-21T14:53:36Z</time></trkpt><trkpt lat="58.05975" lon="38.817615"><ele>103.8</ele><time>2024-01-21T14:53:43Z</time></trkpt><trkpt lat="58.05971" lon="38.81748"><ele>106.1</ele><time>2024-01-21T14:53:50Z</time></trkpt><trkpt lat="58.05963" lon="38.817445"><ele>106.0</ele><time>2024-01-21T14:53:56Z</time></trkpt><trkpt lat="58.059545" lon="38.817477"><ele>101.3</ele><time>2024-01-21T14:54:02Z</time></trkpt><trkpt lat="58.05947" lon="38.817472"><ele>100.4</ele><time>2024-01-21T14:54:08Z</time></trkpt><trkpt lat="58.0594" lon="38.81749"><ele>102.5</ele><time>2024-01-21T14:54:14Z</time></trkpt><trkpt lat="58.05932" lon="38.8175"><ele>104.7</ele><time>2024-01-21T14:54:20Z</time></trkpt><trkpt lat="58.059242" lon="38.81749"><ele>105.7</ele><time>2024-01-21T14:54:26Z</time></trkpt><trkpt lat="58.05916" lon="38.817525"><ele>105.4</ele><time>2024-01-21T14:54:32Z</time></trkpt><trkpt lat="58.059077" lon="38.817505"><ele>104.6</ele><time>2024-01-21T14:54:39Z</time></trkpt><trkpt lat="58.058998" lon="38.817452"><ele>104.0</ele><time>2024-01-21T14:54:46Z</time></trkpt><trkpt lat="58.058917" lon="38.81742"><ele>104.3</ele><time>2024-01-21T14:54:53Z</time></trkpt><trkpt lat="58.058842" lon="38.81743"><ele>94.1</ele><time>2024-01-21T14:55:00Z</time></trkpt><trkpt lat="58.05876" lon="38.8174"><ele>91.3</ele><time>2024-01-21T14:55:06Z</time></trkpt><trkpt lat="58.058745" lon="38.817265"><ele>94.4</ele><time>2024-01-21T14:55:12Z</time></trkpt><trkpt lat="58.058745" lon="38.81711"><ele>96.3</ele><time>2024-01-21T14:55:19Z</time></trkpt><trkpt lat="58.05874" lon="38.81697"><ele>97.0</ele><time>2024-01-21T14:55:25Z</time></trkpt><trkpt lat="58.058745" lon="38.816825"><ele>98.1</ele><time>2024-01-21T14:55:32Z</time></trkpt><trkpt lat="58.058745" lon="38.81669"><ele>98.2</ele><time>2024-01-21T14:55:38Z</time></trkpt><trkpt lat="58.058742" lon="38.816535"><ele>100.2</ele><time>2024-01-21T14:55:45Z</time></trkpt><trkpt lat="58.05873" lon="38.816383"><ele>105.9</ele><time>2024-01-21T14:55:51Z</time></trkpt><trkpt lat="58.05875" lon="38.81625"><ele>106.5</ele><time>2024-01-21T14:55:58Z</time></trkpt><trkpt lat="58.058745" lon="38.816092"><ele>106.7</ele><time>2024-01-21T14:56:05Z</time></trkpt><trkpt lat="58.058745" lon="38.81594"><ele>108.0</ele><time>2024-01-21T14:56:11Z</time></trkpt><trkpt lat="58.058737" lon="38.815802"><ele>106.6</ele><time>2024-01-21T14:56:17Z</time></trkpt><trkpt lat="58.05878" lon="38.815685"><ele>110.9</ele><time>2024-01-21T14:56:23Z</time></trkpt><trkpt lat="58.058785" lon="38.815535"><ele>115.4</ele><time>2024-01-21T14:56:30Z</time></trkpt><trkpt lat="58.0588" lon="38.815392"><ele>112.6</ele><time>2024-01-21T14:56:37Z</time></trkpt><trkpt lat="58.058745" lon="38.8153"><ele>107.2</ele><time>2024-01-21T14:56:43Z</time></trkpt><trkpt lat="58.0587" lon="38.815172"><ele>109.0</ele><time>2024-01-21T14:56:50Z</time></trkpt><trkpt lat="58.05863" lon="38.815152"><ele>106.4</ele><time>2024-01-21T14:56:57Z</time></trkpt><trkpt lat="58.058595" lon="38.815057"><ele>104.8</ele><time>2024-01-21T14:57:04Z</time></trkpt><trkpt lat="58.058622" lon="38.81492"><ele>105.3</ele><time>2024-01-21T14:57:10Z</time></trkpt><trkpt lat="58.058635" lon="38.814777"><ele>106.0</ele><time>2024-01-21T14:57:17Z</time></trkpt><trkpt lat="58.05865" lon="38.814638"><ele>105.4</ele><time>2024-01-21T14:57:24Z</time></trkpt><trkpt lat="58.05869" lon="38.81452"><ele>107.1</ele><time>2024-01-21T14:57:31Z</time></trkpt><trkpt lat="58.05869" lon="38.814382"><ele>105.7</ele><time>2024-01-21T14:57:38Z</time></trkpt><trkpt lat="58.058695" lon="38.814247"><ele>104.1</ele><time>2024-01-21T14:57:44Z</time></trkpt><trkpt lat="58.058697" lon="38.814095"><ele>104.6</ele><time>2024-01-21T14:57:51Z</time></trkpt><trkpt lat="58.058705" lon="38.813947"><ele>103.9</ele><time>2024-01-21T14:57:58Z</time></trkpt><trkpt lat="58.058735" lon="38.813808"><ele>102.1</ele><time>2024-01-21T14:58:05Z</time></trkpt><trkpt lat="58.05874" lon="38.813657"><ele>103.9</ele><time>2024-01-21T14:58:12Z</time></trkpt><trkpt lat="58.05874" lon="38.81352"><ele>107.2</ele><time>2024-01-21T14:58:19Z</time></trkpt><trkpt lat="58.058725" lon="38.81338"><ele>112.8</ele><time>2024-01-21T14:58:25Z</time></trkpt><trkpt lat="58.058715" lon="38.813225"><ele>113.2</ele><time>2024-01-21T14:58:31Z</time></trkpt><trkpt lat="58.058722" lon="38.81308"><ele>113.4</ele><time>2024-01-21T14:58:37Z</time></trkpt><trkpt lat="58.058725" lon="38.812925"><ele>113.8</ele><time>2024-01-21T14:58:44Z</time></trkpt><trkpt lat="58.058725" lon="38.812775"><ele>114.3</ele><time>2024-01-21T14:58:51Z</time></trkpt><trkpt lat="58.058752" lon="38.812625"><ele>116.4</ele><time>2024-01-21T14:58:58Z</time></trkpt><trkpt lat="58.05876" lon="38.81247"><ele>113.9</ele><time>2024-01-21T14:59:05Z</time></trkpt><trkpt lat="58.058755" lon="38.81233"><ele>116.0</ele><time>2024-01-21T14:59:11Z</time></trkpt><trkpt lat="58.05876" lon="38.812175"><ele>114.4</ele><time>2024-01-21T14:59:18Z</time></trkpt><trkpt lat="58.05876" lon="38.81202"><ele>116.3</ele><time>2024-01-21T14:59:24Z</time></trkpt><trkpt lat="58.05876" lon="38.81188"><ele>114.4</ele><time>2024-01-21T14:59:30Z</time></trkpt><trkpt lat="58.05876" lon="38.811732"><ele>114.2</ele><time>2024-01-21T14:59:36Z</time></trkpt><trkpt lat="58.058765" lon="38.81159"><ele>112.0</ele><time>2024-01-21T14:59:42Z</time></trkpt><trkpt lat="58.058772" lon="38.81145"><ele>112.5</ele><time>2024-01-21T14:59:48Z</time></trkpt><trkpt lat="58.058785" lon="38.81131"><ele>111.0</ele><time>2024-01-21T14:59:54Z</time></trkpt><trkpt lat="58.058805" lon="38.811162"><ele>109.4</ele><time>2024-01-21T15:00:00Z</time></trkpt><trkpt lat="58.058788" lon="38.81102"><ele>111.5</ele><time>2024-01-21T15:00:06Z</time></trkpt><trkpt lat="58.058732" lon="38.81091"><ele>110.4</ele><time>2024-01-21T15:00:13Z</time></trkpt><trkpt lat="58.058692" lon="38.810783"><ele>111.3</ele><time>2024-01-21T15:00:20Z</time></trkpt><trkpt lat="58.058685" lon="38.810645"><ele>110.8</ele><time>2024-01-21T15:00:26Z</time></trkpt><trkpt lat="58.05871" lon="38.81051"><ele>110.2</ele><time>2024-01-21T15:00:32Z</time></trkpt><trkpt lat="58.05873" lon="38.810382"><ele>110.1</ele><time>2024-01-21T15:00:39Z</time></trkpt><trkpt lat="58.05875" lon="38.810242"><ele>111.8</ele><time>2024-01-21T15:00:45Z</time></trkpt><trkpt lat="58.05876" lon="38.810105"><ele>114.1</ele><time>2024-01-21T15:00:51Z</time></trkpt><trkpt lat="58.058725" lon="38.80998"><ele>110.7</ele><time>2024-01-21T15:00:56Z</time></trkpt><trkpt lat="58.05867" lon="38.809845"><ele>112.9</ele><time>2024-01-21T15:01:02Z</time></trkpt><trkpt lat="58.058595" lon="38.809775"><ele>110.2</ele><time>2024-01-21T15:01:06Z</time></trkpt><trkpt lat="58.058535" lon="38.809695"><ele>109.8</ele><time>2024-01-21T15:01:12Z</time></trkpt><trkpt lat="58.058555" lon="38.80965"><ele>104.7</ele><time>2024-01-21T15:01:19Z</time></trkpt><trkpt lat="58.05858" lon="38.809517"><ele>104.4</ele><time>2024-01-21T15:01:25Z</time></trkpt><trkpt lat="58.058555" lon="38.809385"><ele>108.8</ele><time>2024-01-21T15:01:30Z</time></trkpt><trkpt lat="58.05857" lon="38.809235"><ele>110.0</ele><time>2024-01-21T15:01:37Z</time></trkpt><trkpt lat="58.058585" lon="38.809097"><ele>110.9</ele><time>2024-01-21T15:01:44Z</time></trkpt><trkpt lat="58.058597" lon="38.808952"><ele>107.8</ele><time>2024-01-21T15:01:51Z</time></trkpt><trkpt lat="58.058612" lon="38.808807"><ele>108.2</ele><time>2024-01-21T15:01:58Z</time></trkpt><trkpt lat="58.058618" lon="38.808657"><ele>108.7</ele><time>2024-01-21T15:02:05Z</time></trkpt><trkpt lat="58.058613" lon="38.808515"><ele>112.2</ele><time>2024-01-21T15:02:12Z</time></trkpt><trkpt lat="58.058618" lon="38.808375"><ele>112.7</ele><time>2024-01-21T15:02:18Z</time></trkpt><trkpt lat="58.05865" lon="38.808235"><ele>111.4</ele><time>2024-01-21T15:02:25Z</time></trkpt><trkpt lat="58.058667" lon="38.80809"><ele>108.5</ele><time>2024-01-21T15:02:32Z</time></trkpt><trkpt lat="58.058675" lon="38.80794"><ele>108.6</ele><time>2024-01-21T15:02:39Z</time></trkpt><trkpt lat="58.058695" lon="38.807805"><ele>107.0</ele><time>2024-01-21T15:02:45Z</time></trkpt><trkpt lat="58.058745" lon="38.80775"><ele>105.6</ele><time>2024-01-21T15:02:52Z</time></trkpt><trkpt lat="58.058755" lon="38.80775"><ele>105.3</ele><time>2024-01-21T15:02:58Z</time></trkpt><trkpt lat="58.058675" lon="38.80778"><ele>106.5</ele><time>2024-01-21T15:03:06Z</time></trkpt><trkpt lat="58.058567" lon="38.80781"><ele>108.7</ele><time>2024-01-21T15:03:17Z</time></trkpt><trkpt lat="58.058505" lon="38.807857"><ele>110.3</ele><time>2024-01-21T15:03:25Z</time></trkpt><trkpt lat="58.058515" lon="38.80799"><ele>111.6</ele><time>2024-01-21T15:03:32Z</time></trkpt><trkpt lat="58.058467" lon="38.808065"><ele>113.2</ele><time>2024-01-21T15:03:40Z</time></trkpt><trkpt lat="58.05842" lon="38.808115"><ele>114.6</ele><time>2024-01-21T15:03:47Z</time></trkpt><trkpt lat="58.058462" lon="38.808207"><ele>116.0</ele><time>2024-01-21T15:03:54Z</time></trkpt><trkpt lat="58.058457" lon="38.808085"><ele>117.4</ele><time>2024-01-21T15:04:01Z</time></trkpt></trkseg></trk></gpx>