<?xml version="1.0" encoding="UTF-8" standalone="no"?><gpx xmlns="http://www.topografix.com/GPX/1/1" xmlns:gpxtpx="http://www.garmin.com/xmlschemas/TrackPointExtension/v1" xmlns:xsi="http://www.w3.org/2001/XMLSchema-instance" creator="Sports Tracker" version="1.1" xsi:schemaLocation="http://www.topografix.com/GPX/1/1 http://www.topografix.com/GPX/1/1/gpx.xsd http://www.garmin.com/xmlschemas/TrackPointExtension/v1 http://www.garmin.com/xmlschemas/TrackPointExtensionv1.xsd"><metadata><name>09.04.2024 17:17</name><desc/><author><name>Александр</name></author></metadata><trk><name>09.04.2024 17:17</name><trkseg><trkpt lat="58.057915" lon="38.85119"><ele>107.0</ele><time>2024-04-09T14:17:10Z</time></trkpt><trkpt lat="58.05794" lon="38.85116"><ele>105.7</ele><time>2024-04-09T14:17:17Z</time></trkpt><trkpt lat="58.057915" lon="38.850915"><ele>106.2</ele><time>2024-04-09T14:17:18Z</time></trkpt><trkpt lat="58.05795" lon="38.850795"><ele>103.5</ele><time>2024-04-09T14:17:20Z</time></trkpt><trkpt lat="58.057955" lon="38.850547"><ele>103.1</ele><time>2024-04-09T14:17:23Z</time></trkpt><trkpt lat="58.057985" lon="38.85035"><ele>99.5</ele><time>2024-04-09T14:17:25Z</time></trkpt><trkpt lat="58.05806" lon="38.850195"><ele>97.4</ele><time>2024-04-09T14:17:27Z</time></trkpt><trkpt lat="58.058115" lon="38.850102"><ele>97.0</ele><time>2024-04-09T14:17:30Z</time></trkpt><trkpt lat="58.05816" lon="38.84999"><ele>97.2</ele><time>2024-04-09T14:17:32Z</time></trkpt><trkpt lat="58.058245" lon="38.849905"><ele>97.1</ele><time>2024-04-09T14:17:37Z</time></trkpt><trkpt lat="58.058315" lon="38.849835"><ele>99.6</ele><time>2024-04-09T14:17:40Z</time></trkpt><trkpt lat="58.05839" lon="38.849733"><ele>100.7</ele><time>2024-04-09T14:17:43Z</time></trkpt><trkpt lat="58.058475" lon="38.84959"><ele>101.4</ele><time>2024-04-09T14:17:46Z</time></trkpt><trkpt lat="58.05854" lon="38.849492"><ele>102.1</ele><time>2024-04-09T14:17:48Z</time></trkpt><trkpt lat="58.0586" lon="38.849335"><ele>102.6</ele><time>2024-04-09T14:17:51Z</time></trkpt><trkpt lat="58.063435" lon="38.84258"><ele>111.3</ele><time>2024-04-09T14:29:20Z</time></trkpt><trkpt lat="58.063442" lon="38.842565"><ele>112.3</ele><time>2024-04-09T14:29:27Z</time></trkpt><trkpt lat="58.063388" lon="38.84252"><ele>112.9</ele><time>2024-04-09T14:29:34Z</time></trkpt><trkpt lat="58.063385" lon="38.842355"><ele>114.0</ele><time>2024-04-09T14:29:38Z</time></trkpt><trkpt lat="58.063415" lon="38.84224"><ele>112.3</ele><time>2024-04-09T14:29:45Z</time></trkpt><trkpt lat="58.063467" lon="38.842125"><ele>110.0</ele><time>2024-04-09T14:29:50Z</time></trkpt><trkpt lat="58.063522" lon="38.842015"><ele>108.7</ele><time>2024-04-09T14:29:56Z</time></trkpt><trkpt lat="58.063543" lon="38.841885"><ele>106.4</ele><time>2024-04-09T14:30:01Z</time></trkpt><trkpt lat="58.063473" lon="38.84194"><ele>110.0</ele><time>2024-04-09T14:30:08Z</time></trkpt><trkpt lat="58.063485" lon="38.84191"><ele>110.2</ele><time>2024-04-09T14:30:15Z</time></trkpt><trkpt lat="58.06356" lon="38.841845"><ele>109.0</ele><time>2024-04-09T14:30:20Z</time></trkpt><trkpt lat="58.063488" lon="38.84192"><ele>109.9</ele><time>2024-04-09T14:30:27Z</time></trkpt><trkpt lat="58.063495" lon="38.84186"><ele>109.4</ele><time>2024-04-09T14:30:34Z</time></trkpt><trkpt lat="58.06343" lon="38.841795"><ele>108.9</ele><time>2024-04-09T14:30:37Z</time></trkpt><trkpt lat="58.063485" lon="38.841705"><ele>108.5</ele><time>2024-04-09T14:30:43Z</time></trkpt><trkpt lat="58.063543" lon="38.84182"><ele>110.6</ele><time>2024-04-09T14:30:47Z</time></trkpt><trkpt lat="58.0636" lon="38.84194"><ele>111.4</ele><time>2024-04-09T14:30:52Z</time></trkpt><trkpt lat="58.063605" lon="38.84203"><ele>111.4</ele><time>2024-04-09T14:30:59Z</time></trkpt><trkpt lat="58.06353" lon="38.84194"><ele>112.5</ele><time>2024-04-09T14:31:05Z</time></trkpt><trkpt lat="58.063605" lon="38.841905"><ele>110.5</ele><time>2024-04-09T14:31:11Z</time></trkpt><trkpt lat="58.0636" lon="38.842055"><ele>112.8</ele><time>2024-04-09T14:31:15Z</time></trkpt><trkpt lat="58.063575" lon="38.842197"><ele>109.3</ele><time>2024-04-09T14:31:20Z</time></trkpt><trkpt lat="58.063565" lon="38.84205"><ele>109.1</ele><time>2024-04-09T14:31:24Z</time></trkpt><trkpt lat="58.063605" lon="38.841915"><ele>109.0</ele><time>2024-04-09T14:31:29Z</time></trkpt><trkpt lat="58.063595" lon="38.841975"><ele>111.5</ele><time>2024-04-09T14:31:36Z</time></trkpt><trkpt lat="58.063623" lon="38.842102"><ele>111.5</ele><time>2024-04-09T14:31:41Z</time></trkpt><trkpt lat="58.063582" lon="38.841962"><ele>111.2</ele><time>2024-04-09T14:31:47Z</time></trkpt><trkpt lat="58.063565" lon="38.84192"><ele>111.9</ele><time>2024-04-09T14:31:54Z</time></trkpt><trkpt lat="58.063605" lon="38.842037"><ele>112.8</ele><time>2024-04-09T14:31:57Z</time></trkpt><trkpt lat="58.06357" lon="38.841915"><ele>110.7</ele><time>2024-04-09T14:32:04Z</time></trkpt><trkpt lat="58.063585" lon="38.842055"><ele>110.5</ele><time>2024-04-09T14:32:10Z</time></trkpt><trkpt lat="58.06358" lon="38.84191"><ele>109.5</ele><time>2024-04-09T14:32:16Z</time></trkpt><trkpt lat="58.063605" lon="38.84204"><ele>112.8</ele><time>2024-04-09T14:32:23Z</time></trkpt><trkpt lat="58.06358" lon="38.841895"><ele>108.9</ele><time>2024-04-09T14:32:29Z</time></trkpt><trkpt lat="58.063605" lon="38.842035"><ele>110.7</ele><time>2024-04-09T14:32:34Z</time></trkpt><trkpt lat="58.06356" lon="38.841927"><ele>108.7</ele><time>2024-04-09T14:32:40Z</time></trkpt><trkpt lat="58.063565" lon="38.841975"><ele>108.7</ele><time>2024-04-09T14:32:47Z</time></trkpt><trkpt lat="58.06356" lon="38.84203"><ele>109.1</ele><time>2024-04-09T14:32:54Z</time></trkpt><trkpt lat="58.06357" lon="38.842147"><ele>110.2</ele><time>2024-04-09T14:33:01Z</time></trkpt><trkpt lat="58.063535" lon="38.842005"><ele>109.9</ele><time>2024-04-09T14:33:06Z</time></trkpt><trkpt lat="58.063597" lon="38.84205"><ele>110.8</ele><time>2024-04-09T14:33:13Z</time></trkpt><trkpt lat="58.063575" lon="38.841965"><ele>109.4</ele><time>2024-04-09T14:33:20Z</time></trkpt><trkpt lat="58.063552" lon="38.841993"><ele>109.2</ele><time>2024-04-09T14:33:27Z</time></trkpt><trkpt lat="58.06357" lon="38.842052"><ele>107.7</ele><time>2024-04-09T14:33:34Z</time></trkpt><trkpt lat="58.063595" lon="38.84192"><ele>106.6</ele><time>2024-04-09T14:33:39Z</time></trkpt><trkpt lat="58.063582" lon="38.841975"><ele>108.6</ele><time>2024-04-09T14:33:46Z</time></trkpt><trkpt lat="58.06361" lon="38.842032"><ele>111.2</ele><time>2024-04-09T14:33:53Z</time></trkpt><trkpt lat="58.06361" lon="38.842035"><ele>111.4</ele><time>2024-04-09T14:33:57Z</time></trkpt><trkpt lat="58.063623" lon="38.84202"><ele>113.2</ele><time>2024-04-09T14:34:33Z</time></trkpt><trkpt lat="58.063623" lon="38.84202"><ele>113.2</ele><time>2024-04-09T14:34:34Z</time></trkpt><trkpt lat="58.063612" lon="38.842012"><ele>112.7</ele><time>2024-04-09T14:35:12Z</time></trkpt><trkpt lat="58.063615" lon="38.842008"><ele>112.8</ele><time>2024-04-09T14:35:13Z</time></trkpt><trkpt lat="58.063565" lon="38.84212"><ele>112.6</ele><time>2024-04-09T14:35:31Z</time></trkpt><trkpt lat="58.063505" lon="38.84216"><ele>112.2</ele><time>2024-04-09T14:35:38Z</time></trkpt><trkpt lat="58.06344" lon="38.842185"><ele>112.4</ele><time>2024-04-09T14:35:45Z</time></trkpt><trkpt lat="58.063472" lon="38.84217"><ele>110.8</ele><time>2024-04-09T14:35:52Z</time></trkpt><trkpt lat="58.063473" lon="38.84217"><ele>111.4</ele><time>2024-04-09T14:35:56Z</time></trkpt><trkpt lat="58.063472" lon="38.84217"><ele>111.1</ele><time>2024-04-09T14:36:19Z</time></trkpt><trkpt lat="58.063472" lon="38.84217"><ele>111.1</ele><time>2024-04-09T14:36:21Z</time></trkpt><trkpt lat="58.063362" lon="38.842062"><ele>111.6</ele><time>2024-04-09T14:36:24Z</time></trkpt><trkpt lat="58.063472" lon="38.84217"><ele>111.1</ele><time>2024-04-09T14:36:28Z</time></trkpt></trkseg></trk></gpx>