<?xml version="1.0" encoding="UTF-8" standalone="no"?><gpx xmlns="http://www.topografix.com/GPX/1/1" xmlns:gpxtpx="http://www.garmin.com/xmlschemas/TrackPointExtension/v1" xmlns:xsi="http://www.w3.org/2001/XMLSchema-instance" creator="Sports Tracker" version="1.1" xsi:schemaLocation="http://www.topografix.com/GPX/1/1 http://www.topografix.com/GPX/1/1/gpx.xsd http://www.garmin.com/xmlschemas/TrackPointExtension/v1 http://www.garmin.com/xmlschemas/TrackPointExtensionv1.xsd"><metadata><name/><desc/><author><name>Александр</name></author></metadata><trk><name/><trkseg><trkpt lat="58.060127" lon="38.813703"><ele>103.0</ele><time>2023-09-28T08:01:32Z</time></trkpt><trkpt lat="58.060218" lon="38.81366"><ele>103.0</ele><time>2023-09-28T08:01:42Z</time></trkpt><trkpt lat="58.060263" lon="38.8138"><ele>103.0</ele><time>2023-09-28T08:01:45Z</time></trkpt><trkpt lat="58.060235" lon="38.813937"><ele>102.0</ele><time>2023-09-28T08:01:47Z</time></trkpt><trkpt lat="58.06021" lon="38.814082"><ele>102.0</ele><time>2023-09-28T08:01:49Z</time></trkpt><trkpt lat="58.060193" lon="38.81425"><ele>102.0</ele><time>2023-09-28T08:01:51Z</time></trkpt><trkpt lat="58.060143" lon="38.81443"><ele>102.0</ele><time>2023-09-28T08:01:53Z</time></trkpt><trkpt lat="58.060137" lon="38.814612"><ele>102.0</ele><time>2023-09-28T08:01:55Z</time></trkpt><trkpt lat="58.060122" lon="38.814755"><ele>102.0</ele><time>2023-09-28T08:01:57Z</time></trkpt><trkpt lat="58.060118" lon="38.814905"><ele>102.0</ele><time>2023-09-28T08:01:59Z</time></trkpt><trkpt lat="58.06011" lon="38.815053"><ele>102.0</ele><time>2023-09-28T08:02:01Z</time></trkpt><trkpt lat="58.060112" lon="38.815268"><ele>102.0</ele><time>2023-09-28T08:02:03Z</time></trkpt><trkpt lat="58.060118" lon="38.81554"><ele>103.0</ele><time>2023-09-28T08:02:05Z</time></trkpt><trkpt lat="58.060127" lon="38.815812"><ele>102.0</ele><time>2023-09-28T08:02:07Z</time></trkpt><trkpt lat="58.06012" lon="38.81596"><ele>102.0</ele><time>2023-09-28T08:02:08Z</time></trkpt><trkpt lat="58.060102" lon="38.816103"><ele>102.0</ele><time>2023-09-28T08:02:09Z</time></trkpt><trkpt lat="58.060107" lon="38.816367"><ele>102.0</ele><time>2023-09-28T08:02:11Z</time></trkpt><trkpt lat="58.060083" lon="38.816523"><ele>102.0</ele><time>2023-09-28T08:02:12Z</time></trkpt><trkpt lat="58.060073" lon="38.816667"><ele>102.0</ele><time>2023-09-28T08:02:13Z</time></trkpt><trkpt lat="58.060043" lon="38.816933"><ele>101.0</ele><time>2023-09-28T08:02:15Z</time></trkpt><trkpt lat="58.060023" lon="38.817183"><ele>100.0</ele><time>2023-09-28T08:02:17Z</time></trkpt><trkpt lat="58.060038" lon="38.817422"><ele>99.0</ele><time>2023-09-28T08:02:19Z</time></trkpt><trkpt lat="58.060027" lon="38.817648"><ele>100.0</ele><time>2023-09-28T08:02:21Z</time></trkpt><trkpt lat="58.059998" lon="38.817873"><ele>99.0</ele><time>2023-09-28T08:02:23Z</time></trkpt><trkpt lat="58.059968" lon="38.818087"><ele>98.0</ele><time>2023-09-28T08:02:25Z</time></trkpt><trkpt lat="58.059933" lon="38.81832"><ele>98.0</ele><time>2023-09-28T08:02:27Z</time></trkpt><trkpt lat="58.059903" lon="38.818558"><ele>98.0</ele><time>2023-09-28T08:02:29Z</time></trkpt><trkpt lat="58.059887" lon="38.81879"><ele>97.0</ele><time>2023-09-28T08:02:31Z</time></trkpt><trkpt lat="58.059873" lon="38.819008"><ele>97.0</ele><time>2023-09-28T08:02:33Z</time></trkpt><trkpt lat="58.059863" lon="38.81922"><ele>97.0</ele><time>2023-09-28T08:02:35Z</time></trkpt><trkpt lat="58.05987" lon="38.819418"><ele>96.0</ele><time>2023-09-28T08:02:37Z</time></trkpt><trkpt lat="58.059868" lon="38.81964"><ele>97.0</ele><time>2023-09-28T08:02:40Z</time></trkpt><trkpt lat="58.05984" lon="38.819835"><ele>97.0</ele><time>2023-09-28T08:02:42Z</time></trkpt><trkpt lat="58.059823" lon="38.820055"><ele>97.0</ele><time>2023-09-28T08:02:44Z</time></trkpt><trkpt lat="58.059788" lon="38.82027"><ele>97.0</ele><time>2023-09-28T08:02:46Z</time></trkpt><trkpt lat="58.059772" lon="38.820458"><ele>97.0</ele><time>2023-09-28T08:02:48Z</time></trkpt><trkpt lat="58.059817" lon="38.820635"><ele>96.0</ele><time>2023-09-28T08:02:50Z</time></trkpt><trkpt lat="58.059907" lon="38.820753"><ele>96.0</ele><time>2023-09-28T08:02:52Z</time></trkpt><trkpt lat="58.059932" lon="38.820892"><ele>97.0</ele><time>2023-09-28T08:02:56Z</time></trkpt><trkpt lat="58.059978" lon="38.820998"><ele>97.0</ele><time>2023-09-28T08:03:02Z</time></trkpt><trkpt lat="58.059872" lon="38.820938"><ele>97.0</ele><time>2023-09-28T08:04:14Z</time></trkpt><trkpt lat="58.059503" lon="38.820932"><ele>101.0</ele><time>2023-09-28T08:05:33Z</time></trkpt><trkpt lat="58.059718" lon="38.821013"><ele>97.0</ele><time>2023-09-28T08:05:34Z</time></trkpt><trkpt lat="58.059817" lon="38.821038"><ele>97.0</ele><time>2023-09-28T08:05:36Z</time></trkpt><trkpt lat="58.059882" lon="38.821103"><ele>97.0</ele><time>2023-09-28T08:05:39Z</time></trkpt><trkpt lat="58.05987" lon="38.821242"><ele>98.0</ele><time>2023-09-28T08:05:58Z</time></trkpt><trkpt lat="58.059852" lon="38.821093"><ele>98.0</ele><time>2023-09-28T08:06:04Z</time></trkpt><trkpt lat="58.059843" lon="38.820957"><ele>97.0</ele><time>2023-09-28T08:06:09Z</time></trkpt><trkpt lat="58.059975" lon="38.820938"><ele>97.0</ele><time>2023-09-28T08:08:08Z</time></trkpt><trkpt lat="58.060048" lon="38.820973"><ele>98.0</ele><time>2023-09-28T08:08:12Z</time></trkpt><trkpt lat="58.060038" lon="38.821117"><ele>100.0</ele><time>2023-09-28T08:08:25Z</time></trkpt><trkpt lat="58.06" lon="38.82127"><ele>100.0</ele><time>2023-09-28T08:08:39Z</time></trkpt><trkpt lat="58.059952" lon="38.821372"><ele>100.0</ele><time>2023-09-28T08:08:41Z</time></trkpt><trkpt lat="58.05988" lon="38.821483"><ele>99.0</ele><time>2023-09-28T08:08:43Z</time></trkpt><trkpt lat="58.059815" lon="38.821588"><ele>100.0</ele><time>2023-09-28T08:08:44Z</time></trkpt><trkpt lat="58.059765" lon="38.821713"><ele>99.0</ele><time>2023-09-28T08:08:47Z</time></trkpt><trkpt lat="58.059742" lon="38.821847"><ele>100.0</ele><time>2023-09-28T08:08:49Z</time></trkpt><trkpt lat="58.059728" lon="38.822003"><ele>100.0</ele><time>2023-09-28T08:08:51Z</time></trkpt><trkpt lat="58.059722" lon="38.822177"><ele>99.0</ele><time>2023-09-28T08:08:53Z</time></trkpt><trkpt lat="58.05972" lon="38.822313"><ele>99.0</ele><time>2023-09-28T08:08:54Z</time></trkpt><trkpt lat="58.05973" lon="38.822487"><ele>98.0</ele><time>2023-09-28T08:08:56Z</time></trkpt><trkpt lat="58.059692" lon="38.822648"><ele>98.0</ele><time>2023-09-28T08:08:58Z</time></trkpt><trkpt lat="58.059665" lon="38.822777"><ele>99.0</ele><time>2023-09-28T08:09:00Z</time></trkpt><trkpt lat="58.059647" lon="38.822942"><ele>99.0</ele><time>2023-09-28T08:09:02Z</time></trkpt><trkpt lat="58.059587" lon="38.82312"><ele>99.0</ele><time>2023-09-28T08:09:04Z</time></trkpt><trkpt lat="58.059558" lon="38.823308"><ele>99.0</ele><time>2023-09-28T08:09:06Z</time></trkpt><trkpt lat="58.0595" lon="38.823437"><ele>98.0</ele><time>2023-09-28T08:09:08Z</time></trkpt><trkpt lat="58.059467" lon="38.823592"><ele>98.0</ele><time>2023-09-28T08:09:10Z</time></trkpt><trkpt lat="58.059365" lon="38.823692"><ele>99.0</ele><time>2023-09-28T08:09:12Z</time></trkpt><trkpt lat="58.05931" lon="38.823835"><ele>99.0</ele><time>2023-09-28T08:09:14Z</time></trkpt><trkpt lat="58.059197" lon="38.823955"><ele>98.0</ele><time>2023-09-28T08:09:16Z</time></trkpt><trkpt lat="58.059155" lon="38.824083"><ele>98.0</ele><time>2023-09-28T08:09:17Z</time></trkpt><trkpt lat="58.059108" lon="38.824278"><ele>97.0</ele><time>2023-09-28T08:09:20Z</time></trkpt><trkpt lat="58.059063" lon="38.824415"><ele>97.0</ele><time>2023-09-28T08:09:23Z</time></trkpt><trkpt lat="58.059067" lon="38.824578"><ele>97.0</ele><time>2023-09-28T08:09:25Z</time></trkpt><trkpt lat="58.05907" lon="38.824768"><ele>95.0</ele><time>2023-09-28T08:09:27Z</time></trkpt><trkpt lat="58.059082" lon="38.82491"><ele>95.0</ele><time>2023-09-28T08:09:29Z</time></trkpt><trkpt lat="58.059112" lon="38.825063"><ele>95.0</ele><time>2023-09-28T08:09:31Z</time></trkpt><trkpt lat="58.059183" lon="38.825092"><ele>95.0</ele><time>2023-09-28T08:09:32Z</time></trkpt><trkpt lat="58.059235" lon="38.825242"><ele>96.0</ele><time>2023-09-28T08:09:34Z</time></trkpt><trkpt lat="58.05929" lon="38.825433"><ele>95.0</ele><time>2023-09-28T08:09:36Z</time></trkpt><trkpt lat="58.059405" lon="38.825522"><ele>96.0</ele><time>2023-09-28T08:09:38Z</time></trkpt><trkpt lat="58.05946" lon="38.825642"><ele>95.0</ele><time>2023-09-28T08:09:40Z</time></trkpt><trkpt lat="58.059502" lon="38.825788"><ele>96.0</ele><time>2023-09-28T08:09:42Z</time></trkpt><trkpt lat="58.059463" lon="38.82597"><ele>95.0</ele><time>2023-09-28T08:09:44Z</time></trkpt><trkpt lat="58.059457" lon="38.826157"><ele>96.0</ele><time>2023-09-28T08:09:47Z</time></trkpt><trkpt lat="58.059475" lon="38.826313"><ele>95.0</ele><time>2023-09-28T08:09:49Z</time></trkpt><trkpt lat="58.05944" lon="38.826503"><ele>94.0</ele><time>2023-09-28T08:09:52Z</time></trkpt><trkpt lat="58.059392" lon="38.826618"><ele>94.0</ele><time>2023-09-28T08:09:54Z</time></trkpt><trkpt lat="58.05932" lon="38.826752"><ele>94.0</ele><time>2023-09-28T08:09:56Z</time></trkpt><trkpt lat="58.059245" lon="38.826885"><ele>94.0</ele><time>2023-09-28T08:09:58Z</time></trkpt><trkpt lat="58.05917" lon="38.827027"><ele>94.0</ele><time>2023-09-28T08:10:00Z</time></trkpt><trkpt lat="58.059108" lon="38.827192"><ele>94.0</ele><time>2023-09-28T08:10:02Z</time></trkpt><trkpt lat="58.059053" lon="38.827317"><ele>95.0</ele><time>2023-09-28T08:10:04Z</time></trkpt><trkpt lat="58.05902" lon="38.82746"><ele>96.0</ele><time>2023-09-28T08:10:06Z</time></trkpt><trkpt lat="58.058968" lon="38.827628"><ele>96.0</ele><time>2023-09-28T08:10:08Z</time></trkpt><trkpt lat="58.05891" lon="38.82778"><ele>96.0</ele><time>2023-09-28T08:10:10Z</time></trkpt><trkpt lat="58.058867" lon="38.827938"><ele>97.0</ele><time>2023-09-28T08:10:12Z</time></trkpt><trkpt lat="58.058822" lon="38.8281"><ele>96.0</ele><time>2023-09-28T08:10:14Z</time></trkpt><trkpt lat="58.058768" lon="38.828237"><ele>95.0</ele><time>2023-09-28T08:10:16Z</time></trkpt><trkpt lat="58.05874" lon="38.828382"><ele>94.0</ele><time>2023-09-28T08:10:18Z</time></trkpt><trkpt lat="58.058692" lon="38.828523"><ele>94.0</ele><time>2023-09-28T08:10:20Z</time></trkpt><trkpt lat="58.05865" lon="38.82868"><ele>95.0</ele><time>2023-09-28T08:10:22Z</time></trkpt><trkpt lat="58.058613" lon="38.828843"><ele>94.0</ele><time>2023-09-28T08:10:24Z</time></trkpt><trkpt lat="58.058532" lon="38.829048"><ele>93.0</ele><time>2023-09-28T08:10:26Z</time></trkpt><trkpt lat="58.058463" lon="38.829137"><ele>92.0</ele><time>2023-09-28T08:10:27Z</time></trkpt><trkpt lat="58.058392" lon="38.829187"><ele>92.0</ele><time>2023-09-28T08:10:28Z</time></trkpt><trkpt lat="58.058285" lon="38.829322"><ele>92.0</ele><time>2023-09-28T08:10:30Z</time></trkpt><trkpt lat="58.058202" lon="38.829492"><ele>92.0</ele><time>2023-09-28T08:10:32Z</time></trkpt><trkpt lat="58.05815" lon="38.829633"><ele>91.0</ele><time>2023-09-28T08:10:34Z</time></trkpt><trkpt lat="58.058085" lon="38.829782"><ele>91.0</ele><time>2023-09-28T08:10:36Z</time></trkpt><trkpt lat="58.058015" lon="38.829892"><ele>92.0</ele><time>2023-09-28T08:10:38Z</time></trkpt><trkpt lat="58.057937" lon="38.83001"><ele>92.0</ele><time>2023-09-28T08:10:40Z</time></trkpt><trkpt lat="58.057873" lon="38.830125"><ele>93.0</ele><time>2023-09-28T08:10:42Z</time></trkpt><trkpt lat="58.05782" lon="38.830222"><ele>93.0</ele><time>2023-09-28T08:10:43Z</time></trkpt><trkpt lat="58.057747" lon="38.830273"><ele>94.0</ele><time>2023-09-28T08:10:44Z</time></trkpt><trkpt lat="58.057658" lon="38.830387"><ele>94.0</ele><time>2023-09-28T08:10:46Z</time></trkpt><trkpt lat="58.057577" lon="38.830523"><ele>94.0</ele><time>2023-09-28T08:10:48Z</time></trkpt><trkpt lat="58.057532" lon="38.830718"><ele>94.0</ele><time>2023-09-28T08:10:50Z</time></trkpt><trkpt lat="58.057433" lon="38.83088"><ele>93.0</ele><time>2023-09-28T08:10:52Z</time></trkpt><trkpt lat="58.057342" lon="38.831017"><ele>93.0</ele><time>2023-09-28T08:10:54Z</time></trkpt><trkpt lat="58.057237" lon="38.831113"><ele>92.0</ele><time>2023-09-28T08:10:56Z</time></trkpt><trkpt lat="58.057137" lon="38.831203"><ele>93.0</ele><time>2023-09-28T08:10:58Z</time></trkpt><trkpt lat="58.057048" lon="38.83134"><ele>92.0</ele><time>2023-09-28T08:11:00Z</time></trkpt><trkpt lat="58.056983" lon="38.831462"><ele>93.0</ele><time>2023-09-28T08:11:02Z</time></trkpt><trkpt lat="58.056935" lon="38.831632"><ele>93.0</ele><time>2023-09-28T08:11:04Z</time></trkpt><trkpt lat="58.056897" lon="38.83179"><ele>93.0</ele><time>2023-09-28T08:11:06Z</time></trkpt><trkpt lat="58.056828" lon="38.831932"><ele>94.0</ele><time>2023-09-28T08:11:08Z</time></trkpt><trkpt lat="58.056758" lon="38.832085"><ele>95.0</ele><time>2023-09-28T08:11:10Z</time></trkpt><trkpt lat="58.056772" lon="38.832235"><ele>96.0</ele><time>2023-09-28T08:11:12Z</time></trkpt><trkpt lat="58.056752" lon="38.832375"><ele>96.0</ele><time>2023-09-28T08:11:14Z</time></trkpt><trkpt lat="58.05669" lon="38.83245"><ele>96.0</ele><time>2023-09-28T08:11:15Z</time></trkpt><trkpt lat="58.056658" lon="38.832582"><ele>96.0</ele><time>2023-09-28T08:11:17Z</time></trkpt><trkpt lat="58.05661" lon="38.8327"><ele>95.0</ele><time>2023-09-28T08:11:19Z</time></trkpt><trkpt lat="58.056577" lon="38.832855"><ele>94.0</ele><time>2023-09-28T08:11:21Z</time></trkpt><trkpt lat="58.056513" lon="38.833033"><ele>94.0</ele><time>2023-09-28T08:11:23Z</time></trkpt><trkpt lat="58.056438" lon="38.833195"><ele>94.0</ele><time>2023-09-28T08:11:25Z</time></trkpt><trkpt lat="58.0564" lon="38.833365"><ele>95.0</ele><time>2023-09-28T08:11:27Z</time></trkpt><trkpt lat="58.056348" lon="38.833532"><ele>93.0</ele><time>2023-09-28T08:11:29Z</time></trkpt><trkpt lat="58.056278" lon="38.833715"><ele>93.0</ele><time>2023-09-28T08:11:31Z</time></trkpt><trkpt lat="58.056252" lon="38.833912"><ele>93.0</ele><time>2023-09-28T08:11:33Z</time></trkpt><trkpt lat="58.056173" lon="38.834058"><ele>93.0</ele><time>2023-09-28T08:11:35Z</time></trkpt><trkpt lat="58.056135" lon="38.83425"><ele>94.0</ele><time>2023-09-28T08:11:37Z</time></trkpt><trkpt lat="58.056112" lon="38.834428"><ele>93.0</ele><time>2023-09-28T08:11:39Z</time></trkpt><trkpt lat="58.05605" lon="38.83458"><ele>94.0</ele><time>2023-09-28T08:11:41Z</time></trkpt><trkpt lat="58.055992" lon="38.834753"><ele>94.0</ele><time>2023-09-28T08:11:43Z</time></trkpt><trkpt lat="58.055917" lon="38.834923"><ele>94.0</ele><time>2023-09-28T08:11:45Z</time></trkpt><trkpt lat="58.055855" lon="38.835073"><ele>94.0</ele><time>2023-09-28T08:11:47Z</time></trkpt><trkpt lat="58.055818" lon="38.835217"><ele>95.0</ele><time>2023-09-28T08:11:49Z</time></trkpt><trkpt lat="58.055755" lon="38.835393"><ele>95.0</ele><time>2023-09-28T08:11:51Z</time></trkpt><trkpt lat="58.055705" lon="38.835538"><ele>95.0</ele><time>2023-09-28T08:11:53Z</time></trkpt><trkpt lat="58.055665" lon="38.835728"><ele>95.0</ele><time>2023-09-28T08:11:55Z</time></trkpt><trkpt lat="58.055617" lon="38.835902"><ele>95.0</ele><time>2023-09-28T08:11:57Z</time></trkpt><trkpt lat="58.055545" lon="38.836072"><ele>95.0</ele><time>2023-09-28T08:11:59Z</time></trkpt><trkpt lat="58.05546" lon="38.83621"><ele>94.0</ele><time>2023-09-28T08:12:01Z</time></trkpt><trkpt lat="58.055427" lon="38.836365"><ele>93.0</ele><time>2023-09-28T08:12:03Z</time></trkpt><trkpt lat="58.055363" lon="38.836495"><ele>93.0</ele><time>2023-09-28T08:12:05Z</time></trkpt><trkpt lat="58.055318" lon="38.836643"><ele>92.0</ele><time>2023-09-28T08:12:07Z</time></trkpt><trkpt lat="58.055258" lon="38.836775"><ele>92.0</ele><time>2023-09-28T08:12:09Z</time></trkpt><trkpt lat="58.055247" lon="38.836972"><ele>91.0</ele><time>2023-09-28T08:12:11Z</time></trkpt><trkpt lat="58.055072" lon="38.837068"><ele>91.0</ele><time>2023-09-28T08:12:13Z</time></trkpt><trkpt lat="58.055102" lon="38.837205"><ele>91.0</ele><time>2023-09-28T08:12:14Z</time></trkpt><trkpt lat="58.05503" lon="38.83725"><ele>91.0</ele><time>2023-09-28T08:12:15Z</time></trkpt><trkpt lat="58.055048" lon="38.83744"><ele>92.0</ele><time>2023-09-28T08:12:17Z</time></trkpt><trkpt lat="58.055005" lon="38.83762"><ele>92.0</ele><time>2023-09-28T08:12:19Z</time></trkpt><trkpt lat="58.054953" lon="38.837777"><ele>91.0</ele><time>2023-09-28T08:12:21Z</time></trkpt><trkpt lat="58.05487" lon="38.837928"><ele>91.0</ele><time>2023-09-28T08:12:23Z</time></trkpt><trkpt lat="58.05482" lon="38.838075"><ele>92.0</ele><time>2023-09-28T08:12:25Z</time></trkpt><trkpt lat="58.054777" lon="38.838243"><ele>93.0</ele><time>2023-09-28T08:12:27Z</time></trkpt><trkpt lat="58.054737" lon="38.838433"><ele>93.0</ele><time>2023-09-28T08:12:29Z</time></trkpt><trkpt lat="58.054707" lon="38.83861"><ele>92.0</ele><time>2023-09-28T08:12:31Z</time></trkpt><trkpt lat="58.054635" lon="38.838728"><ele>92.0</ele><time>2023-09-28T08:12:33Z</time></trkpt><trkpt lat="58.054642" lon="38.83887"><ele>92.0</ele><time>2023-09-28T08:12:34Z</time></trkpt><trkpt lat="58.054563" lon="38.838928"><ele>91.0</ele><time>2023-09-28T08:12:36Z</time></trkpt><trkpt lat="58.054532" lon="38.839123"><ele>91.0</ele><time>2023-09-28T08:12:38Z</time></trkpt><trkpt lat="58.054448" lon="38.839177"><ele>91.0</ele><time>2023-09-28T08:12:39Z</time></trkpt><trkpt lat="58.05442" lon="38.839365"><ele>91.0</ele><time>2023-09-28T08:12:41Z</time></trkpt><trkpt lat="58.054375" lon="38.839552"><ele>91.0</ele><time>2023-09-28T08:12:43Z</time></trkpt><trkpt lat="58.054317" lon="38.839688"><ele>91.0</ele><time>2023-09-28T08:12:45Z</time></trkpt><trkpt lat="58.054262" lon="38.839863"><ele>91.0</ele><time>2023-09-28T08:12:47Z</time></trkpt><trkpt lat="58.054208" lon="38.840015"><ele>92.0</ele><time>2023-09-28T08:12:49Z</time></trkpt><trkpt lat="58.054145" lon="38.840197"><ele>92.0</ele><time>2023-09-28T08:12:51Z</time></trkpt><trkpt lat="58.054078" lon="38.840343"><ele>92.0</ele><time>2023-09-28T08:12:53Z</time></trkpt><trkpt lat="58.054047" lon="38.840518"><ele>92.0</ele><time>2023-09-28T08:12:55Z</time></trkpt><trkpt lat="58.054002" lon="38.840683"><ele>93.0</ele><time>2023-09-28T08:12:57Z</time></trkpt><trkpt lat="58.053957" lon="38.840865"><ele>93.0</ele><time>2023-09-28T08:12:59Z</time></trkpt><trkpt lat="58.053888" lon="38.84102"><ele>92.0</ele><time>2023-09-28T08:13:01Z</time></trkpt><trkpt lat="58.05385" lon="38.841207"><ele>91.0</ele><time>2023-09-28T08:13:03Z</time></trkpt><trkpt lat="58.053777" lon="38.841272"><ele>91.0</ele><time>2023-09-28T08:13:04Z</time></trkpt><trkpt lat="58.05373" lon="38.841443"><ele>91.0</ele><time>2023-09-28T08:13:06Z</time></trkpt><trkpt lat="58.053687" lon="38.841552"><ele>91.0</ele><time>2023-09-28T08:13:07Z</time></trkpt><trkpt lat="58.053627" lon="38.841687"><ele>92.0</ele><time>2023-09-28T08:13:09Z</time></trkpt><trkpt lat="58.053668" lon="38.841902"><ele>93.0</ele><time>2023-09-28T08:13:11Z</time></trkpt><trkpt lat="58.053592" lon="38.842033"><ele>95.0</ele><time>2023-09-28T08:13:13Z</time></trkpt><trkpt lat="58.053497" lon="38.842173"><ele>92.0</ele><time>2023-09-28T08:13:15Z</time></trkpt><trkpt lat="58.053443" lon="38.842348"><ele>91.0</ele><time>2023-09-28T08:13:17Z</time></trkpt><trkpt lat="58.053367" lon="38.842522"><ele>91.0</ele><time>2023-09-28T08:13:19Z</time></trkpt><trkpt lat="58.053287" lon="38.842663"><ele>91.0</ele><time>2023-09-28T08:13:21Z</time></trkpt><trkpt lat="58.053225" lon="38.84281"><ele>91.0</ele><time>2023-09-28T08:13:23Z</time></trkpt><trkpt lat="58.053172" lon="38.842958"><ele>91.0</ele><time>2023-09-28T08:13:25Z</time></trkpt><trkpt lat="58.053057" lon="38.84309"><ele>92.0</ele><time>2023-09-28T08:13:27Z</time></trkpt><trkpt lat="58.05306" lon="38.843285"><ele>93.0</ele><time>2023-09-28T08:13:29Z</time></trkpt><trkpt lat="58.05303" lon="38.843487"><ele>93.0</ele><time>2023-09-28T08:13:31Z</time></trkpt><trkpt lat="58.052983" lon="38.843658"><ele>91.0</ele><time>2023-09-28T08:13:33Z</time></trkpt><trkpt lat="58.052875" lon="38.843773"><ele>91.0</ele><time>2023-09-28T08:13:35Z</time></trkpt><trkpt lat="58.052802" lon="38.843815"><ele>91.0</ele><time>2023-09-28T08:13:36Z</time></trkpt><trkpt lat="58.052733" lon="38.844005"><ele>92.0</ele><time>2023-09-28T08:13:38Z</time></trkpt><trkpt lat="58.052632" lon="38.844073"><ele>92.0</ele><time>2023-09-28T08:13:39Z</time></trkpt><trkpt lat="58.05261" lon="38.844232"><ele>93.0</ele><time>2023-09-28T08:13:41Z</time></trkpt><trkpt lat="58.052572" lon="38.844397"><ele>94.0</ele><time>2023-09-28T08:13:43Z</time></trkpt><trkpt lat="58.052573" lon="38.844547"><ele>94.0</ele><time>2023-09-28T08:13:44Z</time></trkpt><trkpt lat="58.052565" lon="38.844755"><ele>93.0</ele><time>2023-09-28T08:13:46Z</time></trkpt><trkpt lat="58.052512" lon="38.84486"><ele>93.0</ele><time>2023-09-28T08:13:48Z</time></trkpt><trkpt lat="58.052488" lon="38.845028"><ele>93.0</ele><time>2023-09-28T08:13:50Z</time></trkpt><trkpt lat="58.052438" lon="38.845187"><ele>93.0</ele><time>2023-09-28T08:13:52Z</time></trkpt><trkpt lat="58.052413" lon="38.845348"><ele>92.0</ele><time>2023-09-28T08:13:54Z</time></trkpt><trkpt lat="58.052398" lon="38.845535"><ele>91.0</ele><time>2023-09-28T08:13:56Z</time></trkpt><trkpt lat="58.052355" lon="38.84575"><ele>91.0</ele><time>2023-09-28T08:13:58Z</time></trkpt><trkpt lat="58.052342" lon="38.845988"><ele>90.0</ele><time>2023-09-28T08:14:00Z</time></trkpt><trkpt lat="58.052288" lon="38.846178"><ele>90.0</ele><time>2023-09-28T08:14:02Z</time></trkpt><trkpt lat="58.052233" lon="38.846345"><ele>90.0</ele><time>2023-09-28T08:14:04Z</time></trkpt><trkpt lat="58.052188" lon="38.8465"><ele>90.0</ele><time>2023-09-28T08:14:06Z</time></trkpt><trkpt lat="58.05212" lon="38.846582"><ele>88.0</ele><time>2023-09-28T08:15:07Z</time></trkpt><trkpt lat="58.052072" lon="38.846692"><ele>89.0</ele><time>2023-09-28T08:15:09Z</time></trkpt><trkpt lat="58.052025" lon="38.846813"><ele>90.0</ele><time>2023-09-28T08:15:11Z</time></trkpt><trkpt lat="58.051983" lon="38.846925"><ele>91.0</ele><time>2023-09-28T08:15:14Z</time></trkpt><trkpt lat="58.051975" lon="38.847072"><ele>92.0</ele><time>2023-09-28T08:15:24Z</time></trkpt><trkpt lat="58.051985" lon="38.847207"><ele>93.0</ele><time>2023-09-28T08:15:25Z</time></trkpt><trkpt lat="58.05196" lon="38.847403"><ele>93.0</ele><time>2023-09-28T08:15:27Z</time></trkpt><trkpt lat="58.051935" lon="38.847585"><ele>93.0</ele><time>2023-09-28T08:15:29Z</time></trkpt><trkpt lat="58.051883" lon="38.847772"><ele>92.0</ele><time>2023-09-28T08:15:31Z</time></trkpt><trkpt lat="58.051847" lon="38.847952"><ele>93.0</ele><time>2023-09-28T08:15:33Z</time></trkpt><trkpt lat="58.051812" lon="38.848143"><ele>94.0</ele><time>2023-09-28T08:15:35Z</time></trkpt><trkpt lat="58.051783" lon="38.848378"><ele>94.0</ele><time>2023-09-28T08:15:37Z</time></trkpt><trkpt lat="58.05174" lon="38.848622"><ele>93.0</ele><time>2023-09-28T08:15:39Z</time></trkpt><trkpt lat="58.051707" lon="38.84882"><ele>93.0</ele><time>2023-09-28T08:15:41Z</time></trkpt><trkpt lat="58.051657" lon="38.849002"><ele>93.0</ele><time>2023-09-28T08:15:43Z</time></trkpt><trkpt lat="58.051588" lon="38.849157"><ele>92.0</ele><time>2023-09-28T08:15:45Z</time></trkpt><trkpt lat="58.051507" lon="38.849323"><ele>92.0</ele><time>2023-09-28T08:15:47Z</time></trkpt><trkpt lat="58.05147" lon="38.849503"><ele>92.0</ele><time>2023-09-28T08:15:49Z</time></trkpt><trkpt lat="58.05142" lon="38.84967"><ele>92.0</ele><time>2023-09-28T08:15:51Z</time></trkpt><trkpt lat="58.051363" lon="38.84985"><ele>92.0</ele><time>2023-09-28T08:15:53Z</time></trkpt><trkpt lat="58.051325" lon="38.850032"><ele>93.0</ele><time>2023-09-28T08:15:54Z</time></trkpt><trkpt lat="58.05126" lon="38.85022"><ele>92.0</ele><time>2023-09-28T08:15:56Z</time></trkpt><trkpt lat="58.051192" lon="38.85039"><ele>92.0</ele><time>2023-09-28T08:15:58Z</time></trkpt><trkpt lat="58.05112" lon="38.850547"><ele>93.0</ele><time>2023-09-28T08:16:00Z</time></trkpt><trkpt lat="58.051082" lon="38.850695"><ele>93.0</ele><time>2023-09-28T08:16:02Z</time></trkpt><trkpt lat="58.051037" lon="38.850833"><ele>94.0</ele><time>2023-09-28T08:16:04Z</time></trkpt><trkpt lat="58.050997" lon="38.850993"><ele>94.0</ele><time>2023-09-28T08:16:06Z</time></trkpt><trkpt lat="58.05096" lon="38.851158"><ele>95.0</ele><time>2023-09-28T08:16:08Z</time></trkpt><trkpt lat="58.050912" lon="38.851313"><ele>94.0</ele><time>2023-09-28T08:16:10Z</time></trkpt><trkpt lat="58.050847" lon="38.851455"><ele>94.0</ele><time>2023-09-28T08:16:12Z</time></trkpt><trkpt lat="58.050795" lon="38.85162"><ele>93.0</ele><time>2023-09-28T08:16:14Z</time></trkpt><trkpt lat="58.05072" lon="38.851788"><ele>93.0</ele><time>2023-09-28T08:16:17Z</time></trkpt><trkpt lat="58.050677" lon="38.851948"><ele>93.0</ele><time>2023-09-28T08:16:19Z</time></trkpt><trkpt lat="58.050635" lon="38.8521"><ele>94.0</ele><time>2023-09-28T08:16:21Z</time></trkpt><trkpt lat="58.050587" lon="38.852247"><ele>93.0</ele><time>2023-09-28T08:16:23Z</time></trkpt><trkpt lat="58.050523" lon="38.852388"><ele>94.0</ele><time>2023-09-28T08:16:25Z</time></trkpt><trkpt lat="58.050465" lon="38.852533"><ele>94.0</ele><time>2023-09-28T08:16:27Z</time></trkpt><trkpt lat="58.050418" lon="38.852678"><ele>95.0</ele><time>2023-09-28T08:16:29Z</time></trkpt><trkpt lat="58.05037" lon="38.852827"><ele>95.0</ele><time>2023-09-28T08:16:31Z</time></trkpt><trkpt lat="58.050328" lon="38.852955"><ele>95.0</ele><time>2023-09-28T08:16:33Z</time></trkpt><trkpt lat="58.050295" lon="38.853105"><ele>95.0</ele><time>2023-09-28T08:16:35Z</time></trkpt><trkpt lat="58.050282" lon="38.853268"><ele>94.0</ele><time>2023-09-28T08:16:37Z</time></trkpt><trkpt lat="58.050253" lon="38.853412"><ele>94.0</ele><time>2023-09-28T08:16:39Z</time></trkpt><trkpt lat="58.050218" lon="38.853577"><ele>94.0</ele><time>2023-09-28T08:16:41Z</time></trkpt><trkpt lat="58.05015" lon="38.853758"><ele>93.0</ele><time>2023-09-28T08:16:43Z</time></trkpt><trkpt lat="58.050113" lon="38.853955"><ele>93.0</ele><time>2023-09-28T08:16:45Z</time></trkpt><trkpt lat="58.050055" lon="38.854152"><ele>94.0</ele><time>2023-09-28T08:16:47Z</time></trkpt><trkpt lat="58.05001" lon="38.854352"><ele>94.0</ele><time>2023-09-28T08:16:49Z</time></trkpt><trkpt lat="58.04998" lon="38.854553"><ele>94.0</ele><time>2023-09-28T08:16:51Z</time></trkpt><trkpt lat="58.049955" lon="38.854753"><ele>95.0</ele><time>2023-09-28T08:16:53Z</time></trkpt><trkpt lat="58.049963" lon="38.854977"><ele>95.0</ele><time>2023-09-28T08:16:55Z</time></trkpt><trkpt lat="58.049943" lon="38.855192"><ele>95.0</ele><time>2023-09-28T08:16:57Z</time></trkpt><trkpt lat="58.049925" lon="38.855368"><ele>94.0</ele><time>2023-09-28T08:16:59Z</time></trkpt><trkpt lat="58.049902" lon="38.855533"><ele>93.0</ele><time>2023-09-28T08:17:01Z</time></trkpt><trkpt lat="58.049863" lon="38.85573"><ele>92.0</ele><time>2023-09-28T08:17:03Z</time></trkpt><trkpt lat="58.04982" lon="38.855947"><ele>93.0</ele><time>2023-09-28T08:17:05Z</time></trkpt><trkpt lat="58.049765" lon="38.856187"><ele>93.0</ele><time>2023-09-28T08:17:07Z</time></trkpt><trkpt lat="58.049737" lon="38.85632"><ele>93.0</ele><time>2023-09-28T08:17:08Z</time></trkpt><trkpt lat="58.049703" lon="38.856443"><ele>93.0</ele><time>2023-09-28T08:17:09Z</time></trkpt><trkpt lat="58.049645" lon="38.856667"><ele>92.0</ele><time>2023-09-28T08:17:11Z</time></trkpt><trkpt lat="58.049605" lon="38.856783"><ele>92.0</ele><time>2023-09-28T08:17:12Z</time></trkpt><trkpt lat="58.049602" lon="38.85692"><ele>92.0</ele><time>2023-09-28T08:17:13Z</time></trkpt><trkpt lat="58.049568" lon="38.857042"><ele>92.0</ele><time>2023-09-28T08:17:14Z</time></trkpt><trkpt lat="58.049475" lon="38.857278"><ele>93.0</ele><time>2023-09-28T08:17:16Z</time></trkpt><trkpt lat="58.04943" lon="38.857397"><ele>92.0</ele><time>2023-09-28T08:17:17Z</time></trkpt><trkpt lat="58.049373" lon="38.857515"><ele>93.0</ele><time>2023-09-28T08:17:18Z</time></trkpt><trkpt lat="58.049317" lon="38.857633"><ele>93.0</ele><time>2023-09-28T08:17:19Z</time></trkpt><trkpt lat="58.049232" lon="38.857848"><ele>93.0</ele><time>2023-09-28T08:17:21Z</time></trkpt><trkpt lat="58.049157" lon="38.858053"><ele>94.0</ele><time>2023-09-28T08:17:23Z</time></trkpt><trkpt lat="58.049098" lon="38.858253"><ele>95.0</ele><time>2023-09-28T08:17:25Z</time></trkpt><trkpt lat="58.049022" lon="38.85843"><ele>96.0</ele><time>2023-09-28T08:17:27Z</time></trkpt><trkpt lat="58.048968" lon="38.858608"><ele>96.0</ele><time>2023-09-28T08:17:29Z</time></trkpt><trkpt lat="58.04894" lon="38.858762"><ele>97.0</ele><time>2023-09-28T08:17:31Z</time></trkpt><trkpt lat="58.048937" lon="38.85894"><ele>98.0</ele><time>2023-09-28T08:17:33Z</time></trkpt><trkpt lat="58.048848" lon="38.858918"><ele>97.0</ele><time>2023-09-28T08:17:38Z</time></trkpt><trkpt lat="58.04876" lon="38.858873"><ele>97.0</ele><time>2023-09-28T08:17:43Z</time></trkpt><trkpt lat="58.048687" lon="38.858808"><ele>98.0</ele><time>2023-09-28T08:17:46Z</time></trkpt><trkpt lat="58.04864" lon="38.85898"><ele>98.0</ele><time>2023-09-28T08:17:49Z</time></trkpt><trkpt lat="58.048647" lon="38.859133"><ele>99.0</ele><time>2023-09-28T08:17:51Z</time></trkpt><trkpt lat="58.048638" lon="38.859322"><ele>99.0</ele><time>2023-09-28T08:17:54Z</time></trkpt><trkpt lat="58.048612" lon="38.859512"><ele>99.0</ele><time>2023-09-28T08:17:57Z</time></trkpt><trkpt lat="58.048532" lon="38.859588"><ele>98.0</ele><time>2023-09-28T08:18:00Z</time></trkpt><trkpt lat="58.048438" lon="38.859563"><ele>99.0</ele><time>2023-09-28T08:18:04Z</time></trkpt><trkpt lat="58.048355" lon="38.859552"><ele>99.0</ele><time>2023-09-28T08:18:07Z</time></trkpt><trkpt lat="58.048272" lon="38.859515"><ele>99.0</ele><time>2023-09-28T08:18:10Z</time></trkpt><trkpt lat="58.048208" lon="38.8594"><ele>99.0</ele><time>2023-09-28T08:18:13Z</time></trkpt><trkpt lat="58.048157" lon="38.859247"><ele>99.0</ele><time>2023-09-28T08:18:17Z</time></trkpt><trkpt lat="58.048085" lon="38.859137"><ele>100.0</ele><time>2023-09-28T08:18:21Z</time></trkpt><trkpt lat="58.047997" lon="38.859138"><ele>100.0</ele><time>2023-09-28T08:18:24Z</time></trkpt><trkpt lat="58.047953" lon="38.859258"><ele>101.0</ele><time>2023-09-28T08:18:27Z</time></trkpt><trkpt lat="58.047867" lon="38.859273"><ele>100.0</ele><time>2023-09-28T08:18:31Z</time></trkpt><trkpt lat="58.047785" lon="38.859243"><ele>100.0</ele><time>2023-09-28T08:18:33Z</time></trkpt><trkpt lat="58.047702" lon="38.859238"><ele>101.0</ele><time>2023-09-28T08:18:35Z</time></trkpt><trkpt lat="58.047618" lon="38.859257"><ele>101.0</ele><time>2023-09-28T08:18:37Z</time></trkpt><trkpt lat="58.047533" lon="38.85927"><ele>100.0</ele><time>2023-09-28T08:18:39Z</time></trkpt><trkpt lat="58.047487" lon="38.859142"><ele>99.0</ele><time>2023-09-28T08:18:43Z</time></trkpt><trkpt lat="58.047407" lon="38.859095"><ele>99.0</ele><time>2023-09-28T08:18:48Z</time></trkpt><trkpt lat="58.047335" lon="38.859143"><ele>100.0</ele><time>2023-09-28T08:18:51Z</time></trkpt><trkpt lat="58.04727" lon="38.859213"><ele>99.0</ele><time>2023-09-28T08:18:54Z</time></trkpt><trkpt lat="58.047183" lon="38.859262"><ele>100.0</ele><time>2023-09-28T08:18:59Z</time></trkpt><trkpt lat="58.047098" lon="38.859198"><ele>100.0</ele><time>2023-09-28T08:19:02Z</time></trkpt><trkpt lat="58.04703" lon="38.859152"><ele>100.0</ele><time>2023-09-28T08:19:03Z</time></trkpt><trkpt lat="58.046925" lon="38.85904"><ele>99.0</ele><time>2023-09-28T08:19:05Z</time></trkpt><trkpt lat="58.046792" lon="38.858947"><ele>99.0</ele><time>2023-09-28T08:19:07Z</time></trkpt><trkpt lat="58.046663" lon="38.858878"><ele>98.0</ele><time>2023-09-28T08:19:09Z</time></trkpt><trkpt lat="58.046548" lon="38.858783"><ele>98.0</ele><time>2023-09-28T08:19:11Z</time></trkpt><trkpt lat="58.04643" lon="38.858745"><ele>98.0</ele><time>2023-09-28T08:19:13Z</time></trkpt><trkpt lat="58.046325" lon="38.858687"><ele>98.0</ele><time>2023-09-28T08:19:15Z</time></trkpt><trkpt lat="58.046207" lon="38.858668"><ele>98.0</ele><time>2023-09-28T08:19:17Z</time></trkpt><trkpt lat="58.046112" lon="38.858575"><ele>96.0</ele><time>2023-09-28T08:19:19Z</time></trkpt><trkpt lat="58.046033" lon="38.858508"><ele>97.0</ele><time>2023-09-28T08:19:21Z</time></trkpt><trkpt lat="58.045973" lon="38.858392"><ele>97.0</ele><time>2023-09-28T08:19:23Z</time></trkpt><trkpt lat="58.04592" lon="38.858303"><ele>97.0</ele><time>2023-09-28T08:19:25Z</time></trkpt><trkpt lat="58.045843" lon="38.85823"><ele>97.0</ele><time>2023-09-28T08:19:28Z</time></trkpt><trkpt lat="58.045763" lon="38.858198"><ele>97.0</ele><time>2023-09-28T08:19:33Z</time></trkpt><trkpt lat="58.045693" lon="38.858245"><ele>97.0</ele><time>2023-09-28T08:19:39Z</time></trkpt><trkpt lat="58.045608" lon="38.85822"><ele>98.0</ele><time>2023-09-28T08:19:46Z</time></trkpt><trkpt lat="58.045533" lon="38.858145"><ele>98.0</ele><time>2023-09-28T08:19:49Z</time></trkpt><trkpt lat="58.045438" lon="38.858068"><ele>98.0</ele><time>2023-09-28T08:19:52Z</time></trkpt><trkpt lat="58.045372" lon="38.858012"><ele>97.0</ele><time>2023-09-28T08:19:54Z</time></trkpt><trkpt lat="58.0453" lon="38.857957"><ele>97.0</ele><time>2023-09-28T08:19:56Z</time></trkpt><trkpt lat="58.045202" lon="38.857888"><ele>97.0</ele><time>2023-09-28T08:19:59Z</time></trkpt><trkpt lat="58.045125" lon="38.857848"><ele>97.0</ele><time>2023-09-28T08:20:01Z</time></trkpt><trkpt lat="58.045055" lon="38.857813"><ele>97.0</ele><time>2023-09-28T08:20:03Z</time></trkpt><trkpt lat="58.044955" lon="38.857733"><ele>97.0</ele><time>2023-09-28T08:20:06Z</time></trkpt><trkpt lat="58.04488" lon="38.85769"><ele>96.0</ele><time>2023-09-28T08:20:08Z</time></trkpt><trkpt lat="58.044807" lon="38.85766"><ele>97.0</ele><time>2023-09-28T08:20:10Z</time></trkpt><trkpt lat="58.04471" lon="38.857598"><ele>97.0</ele><time>2023-09-28T08:20:13Z</time></trkpt><trkpt lat="58.044617" lon="38.857543"><ele>97.0</ele><time>2023-09-28T08:20:16Z</time></trkpt><trkpt lat="58.04455" lon="38.857483"><ele>97.0</ele><time>2023-09-28T08:20:19Z</time></trkpt><trkpt lat="58.04446" lon="38.857432"><ele>98.0</ele><time>2023-09-28T08:20:22Z</time></trkpt><trkpt lat="58.044378" lon="38.857368"><ele>98.0</ele><time>2023-09-28T08:20:25Z</time></trkpt><trkpt lat="58.044285" lon="38.857325"><ele>99.0</ele><time>2023-09-28T08:20:28Z</time></trkpt><trkpt lat="58.044208" lon="38.857308"><ele>99.0</ele><time>2023-09-28T08:20:31Z</time></trkpt><trkpt lat="58.044128" lon="38.857295"><ele>99.0</ele><time>2023-09-28T08:20:38Z</time></trkpt><trkpt lat="58.04406" lon="38.857192"><ele>99.0</ele><time>2023-09-28T08:20:45Z</time></trkpt><trkpt lat="58.044" lon="38.857092"><ele>100.0</ele><time>2023-09-28T08:20:48Z</time></trkpt><trkpt lat="58.043913" lon="38.857108"><ele>101.0</ele><time>2023-09-28T08:20:54Z</time></trkpt><trkpt lat="58.04384" lon="38.85713"><ele>100.0</ele><time>2023-09-28T08:20:57Z</time></trkpt><trkpt lat="58.04376" lon="38.857145"><ele>100.0</ele><time>2023-09-28T08:21:00Z</time></trkpt><trkpt lat="58.043662" lon="38.857143"><ele>101.0</ele><time>2023-09-28T08:21:03Z</time></trkpt><trkpt lat="58.04356" lon="38.857113"><ele>101.0</ele><time>2023-09-28T08:21:06Z</time></trkpt><trkpt lat="58.043472" lon="38.857088"><ele>101.0</ele><time>2023-09-28T08:21:08Z</time></trkpt><trkpt lat="58.043382" lon="38.857068"><ele>101.0</ele><time>2023-09-28T08:21:10Z</time></trkpt><trkpt lat="58.043292" lon="38.857035"><ele>101.0</ele><time>2023-09-28T08:21:12Z</time></trkpt><trkpt lat="58.043205" lon="38.856993"><ele>102.0</ele><time>2023-09-28T08:21:14Z</time></trkpt><trkpt lat="58.043118" lon="38.856957"><ele>102.0</ele><time>2023-09-28T08:21:16Z</time></trkpt><trkpt lat="58.043028" lon="38.85693"><ele>102.0</ele><time>2023-09-28T08:21:18Z</time></trkpt><trkpt lat="58.042933" lon="38.856887"><ele>102.0</ele><time>2023-09-28T08:21:20Z</time></trkpt><trkpt lat="58.042833" lon="38.856877"><ele>102.0</ele><time>2023-09-28T08:21:22Z</time></trkpt><trkpt lat="58.04274" lon="38.856848"><ele>102.0</ele><time>2023-09-28T08:21:24Z</time></trkpt><trkpt lat="58.042647" lon="38.856823"><ele>102.0</ele><time>2023-09-28T08:21:26Z</time></trkpt><trkpt lat="58.04255" lon="38.856742"><ele>102.0</ele><time>2023-09-28T08:21:28Z</time></trkpt><trkpt lat="58.042472" lon="38.8567"><ele>103.0</ele><time>2023-09-28T08:21:30Z</time></trkpt><trkpt lat="58.042358" lon="38.856707"><ele>103.0</ele><time>2023-09-28T08:21:32Z</time></trkpt><trkpt lat="58.04226" lon="38.856668"><ele>102.0</ele><time>2023-09-28T08:21:34Z</time></trkpt><trkpt lat="58.042177" lon="38.856673"><ele>103.0</ele><time>2023-09-28T08:21:36Z</time></trkpt><trkpt lat="58.042078" lon="38.856618"><ele>103.0</ele><time>2023-09-28T08:21:38Z</time></trkpt><trkpt lat="58.041977" lon="38.856575"><ele>103.0</ele><time>2023-09-28T08:21:40Z</time></trkpt><trkpt lat="58.0419" lon="38.856575"><ele>103.0</ele><time>2023-09-28T08:21:42Z</time></trkpt><trkpt lat="58.04183" lon="38.856542"><ele>104.0</ele><time>2023-09-28T08:21:44Z</time></trkpt><trkpt lat="58.041778" lon="38.856428"><ele>103.0</ele><time>2023-09-28T08:21:46Z</time></trkpt><trkpt lat="58.041697" lon="38.85632"><ele>103.0</ele><time>2023-09-28T08:21:49Z</time></trkpt><trkpt lat="58.041607" lon="38.856337"><ele>104.0</ele><time>2023-09-28T08:21:52Z</time></trkpt><trkpt lat="58.041532" lon="38.856293"><ele>104.0</ele><time>2023-09-28T08:21:54Z</time></trkpt><trkpt lat="58.041425" lon="38.856185"><ele>104.0</ele><time>2023-09-28T08:21:57Z</time></trkpt><trkpt lat="58.04133" lon="38.856125"><ele>104.0</ele><time>2023-09-28T08:21:59Z</time></trkpt><trkpt lat="58.041238" lon="38.85621"><ele>104.0</ele><time>2023-09-28T08:22:01Z</time></trkpt><trkpt lat="58.041137" lon="38.85619"><ele>105.0</ele><time>2023-09-28T08:22:03Z</time></trkpt><trkpt lat="58.041042" lon="38.856283"><ele>105.0</ele><time>2023-09-28T08:22:05Z</time></trkpt><trkpt lat="58.040958" lon="38.856273"><ele>105.0</ele><time>2023-09-28T08:22:07Z</time></trkpt><trkpt lat="58.040885" lon="38.85625"><ele>104.0</ele><time>2023-09-28T08:22:09Z</time></trkpt><trkpt lat="58.040807" lon="38.856238"><ele>104.0</ele><time>2023-09-28T08:22:11Z</time></trkpt><trkpt lat="58.040732" lon="38.856233"><ele>103.0</ele><time>2023-09-28T08:22:13Z</time></trkpt><trkpt lat="58.04066" lon="38.856183"><ele>104.0</ele><time>2023-09-28T08:22:15Z</time></trkpt><trkpt lat="58.040587" lon="38.856113"><ele>104.0</ele><time>2023-09-28T08:22:17Z</time></trkpt><trkpt lat="58.040505" lon="38.856053"><ele>103.0</ele><time>2023-09-28T08:22:19Z</time></trkpt><trkpt lat="58.040427" lon="38.856013"><ele>103.0</ele><time>2023-09-28T08:22:21Z</time></trkpt><trkpt lat="58.040342" lon="38.856042"><ele>103.0</ele><time>2023-09-28T08:22:23Z</time></trkpt><trkpt lat="58.040268" lon="38.856043"><ele>102.0</ele><time>2023-09-28T08:22:25Z</time></trkpt><trkpt lat="58.040173" lon="38.856073"><ele>102.0</ele><time>2023-09-28T08:22:28Z</time></trkpt><trkpt lat="58.04009" lon="38.856063"><ele>102.0</ele><time>2023-09-28T08:22:32Z</time></trkpt><trkpt lat="58.040025" lon="38.856123"><ele>103.0</ele><time>2023-09-28T08:22:42Z</time></trkpt><trkpt lat="58.03995" lon="38.85615"><ele>104.0</ele><time>2023-09-28T08:22:48Z</time></trkpt><trkpt lat="58.039875" lon="38.856148"><ele>104.0</ele><time>2023-09-28T08:22:50Z</time></trkpt><trkpt lat="58.039798" lon="38.856125"><ele>104.0</ele><time>2023-09-28T08:22:52Z</time></trkpt><trkpt lat="58.039717" lon="38.856108"><ele>104.0</ele><time>2023-09-28T08:22:54Z</time></trkpt><trkpt lat="58.039613" lon="38.856167"><ele>103.0</ele><time>2023-09-28T08:22:56Z</time></trkpt><trkpt lat="58.03951" lon="38.856135"><ele>103.0</ele><time>2023-09-28T08:22:58Z</time></trkpt><trkpt lat="58.039415" lon="38.85612"><ele>103.0</ele><time>2023-09-28T08:23:00Z</time></trkpt><trkpt lat="58.039332" lon="38.856098"><ele>103.0</ele><time>2023-09-28T08:23:02Z</time></trkpt><trkpt lat="58.039247" lon="38.856045"><ele>103.0</ele><time>2023-09-28T08:23:04Z</time></trkpt><trkpt lat="58.039162" lon="38.856008"><ele>103.0</ele><time>2023-09-28T08:23:05Z</time></trkpt><trkpt lat="58.039067" lon="38.855952"><ele>102.0</ele><time>2023-09-28T08:23:07Z</time></trkpt><trkpt lat="58.038985" lon="38.855883"><ele>102.0</ele><time>2023-09-28T08:23:09Z</time></trkpt><trkpt lat="58.038908" lon="38.855833"><ele>102.0</ele><time>2023-09-28T08:23:11Z</time></trkpt><trkpt lat="58.038833" lon="38.85579"><ele>102.0</ele><time>2023-09-28T08:23:13Z</time></trkpt><trkpt lat="58.03875" lon="38.855867"><ele>102.0</ele><time>2023-09-28T08:23:15Z</time></trkpt><trkpt lat="58.038655" lon="38.85588"><ele>103.0</ele><time>2023-09-28T08:23:18Z</time></trkpt><trkpt lat="58.038558" lon="38.855833"><ele>103.0</ele><time>2023-09-28T08:23:21Z</time></trkpt><trkpt lat="58.038468" lon="38.85578"><ele>103.0</ele><time>2023-09-28T08:23:24Z</time></trkpt><trkpt lat="58.03838" lon="38.8557"><ele>103.0</ele><time>2023-09-28T08:23:26Z</time></trkpt><trkpt lat="58.038303" lon="38.855675"><ele>102.0</ele><time>2023-09-28T08:23:28Z</time></trkpt><trkpt lat="58.038208" lon="38.855598"><ele>102.0</ele><time>2023-09-28T08:23:31Z</time></trkpt><trkpt lat="58.038122" lon="38.855553"><ele>102.0</ele><time>2023-09-28T08:23:33Z</time></trkpt><trkpt lat="58.038047" lon="38.855535"><ele>102.0</ele><time>2023-09-28T08:23:35Z</time></trkpt><trkpt lat="58.03796" lon="38.855492"><ele>102.0</ele><time>2023-09-28T08:23:37Z</time></trkpt><trkpt lat="58.03788" lon="38.855467"><ele>101.0</ele><time>2023-09-28T08:23:39Z</time></trkpt><trkpt lat="58.037798" lon="38.855432"><ele>101.0</ele><time>2023-09-28T08:23:41Z</time></trkpt><trkpt lat="58.037718" lon="38.855382"><ele>101.0</ele><time>2023-09-28T08:23:43Z</time></trkpt><trkpt lat="58.03764" lon="38.855343"><ele>101.0</ele><time>2023-09-28T08:23:45Z</time></trkpt><trkpt lat="58.037555" lon="38.855288"><ele>101.0</ele><time>2023-09-28T08:23:47Z</time></trkpt><trkpt lat="58.037473" lon="38.85524"><ele>100.0</ele><time>2023-09-28T08:23:49Z</time></trkpt><trkpt lat="58.037383" lon="38.855198"><ele>99.0</ele><time>2023-09-28T08:23:51Z</time></trkpt><trkpt lat="58.037295" lon="38.855152"><ele>98.0</ele><time>2023-09-28T08:23:53Z</time></trkpt><trkpt lat="58.037212" lon="38.855108"><ele>99.0</ele><time>2023-09-28T08:23:55Z</time></trkpt><trkpt lat="58.037132" lon="38.855078"><ele>99.0</ele><time>2023-09-28T08:23:57Z</time></trkpt><trkpt lat="58.037053" lon="38.855057"><ele>99.0</ele><time>2023-09-28T08:23:59Z</time></trkpt><trkpt lat="58.03695" lon="38.855005"><ele>98.0</ele><time>2023-09-28T08:24:02Z</time></trkpt><trkpt lat="58.036872" lon="38.854962"><ele>97.0</ele><time>2023-09-28T08:24:04Z</time></trkpt><trkpt lat="58.036788" lon="38.854923"><ele>96.0</ele><time>2023-09-28T08:24:06Z</time></trkpt><trkpt lat="58.036705" lon="38.854878"><ele>97.0</ele><time>2023-09-28T08:24:08Z</time></trkpt><trkpt lat="58.036618" lon="38.854835"><ele>96.0</ele><time>2023-09-28T08:24:10Z</time></trkpt><trkpt lat="58.036533" lon="38.854803"><ele>96.0</ele><time>2023-09-28T08:24:12Z</time></trkpt><trkpt lat="58.036447" lon="38.854765"><ele>96.0</ele><time>2023-09-28T08:24:14Z</time></trkpt><trkpt lat="58.036358" lon="38.854717"><ele>97.0</ele><time>2023-09-28T08:24:16Z</time></trkpt><trkpt lat="58.036272" lon="38.854648"><ele>97.0</ele><time>2023-09-28T08:24:18Z</time></trkpt><trkpt lat="58.036183" lon="38.85459"><ele>99.0</ele><time>2023-09-28T08:24:20Z</time></trkpt><trkpt lat="58.036088" lon="38.854508"><ele>99.0</ele><time>2023-09-28T08:24:22Z</time></trkpt><trkpt lat="58.03601" lon="38.854467"><ele>99.0</ele><time>2023-09-28T08:24:24Z</time></trkpt><trkpt lat="58.035918" lon="38.854412"><ele>99.0</ele><time>2023-09-28T08:24:26Z</time></trkpt><trkpt lat="58.035827" lon="38.854398"><ele>99.0</ele><time>2023-09-28T08:24:28Z</time></trkpt><trkpt lat="58.035758" lon="38.854327"><ele>98.0</ele><time>2023-09-28T08:24:30Z</time></trkpt><trkpt lat="58.035662" lon="38.854308"><ele>99.0</ele><time>2023-09-28T08:24:33Z</time></trkpt><trkpt lat="58.035577" lon="38.854305"><ele>99.0</ele><time>2023-09-28T08:24:36Z</time></trkpt><trkpt lat="58.035507" lon="38.854208"><ele>99.0</ele><time>2023-09-28T08:24:39Z</time></trkpt><trkpt lat="58.0354" lon="38.854187"><ele>99.0</ele><time>2023-09-28T08:24:42Z</time></trkpt><trkpt lat="58.035328" lon="38.854257"><ele>100.0</ele><time>2023-09-28T08:24:44Z</time></trkpt><trkpt lat="58.035245" lon="38.854298"><ele>101.0</ele><time>2023-09-28T08:24:45Z</time></trkpt><trkpt lat="58.035133" lon="38.85428"><ele>101.0</ele><time>2023-09-28T08:24:48Z</time></trkpt><trkpt lat="58.035062" lon="38.854235"><ele>101.0</ele><time>2023-09-28T08:24:50Z</time></trkpt><trkpt lat="58.034953" lon="38.854238"><ele>101.0</ele><time>2023-09-28T08:24:53Z</time></trkpt><trkpt lat="58.034908" lon="38.854385"><ele>101.0</ele><time>2023-09-28T08:24:55Z</time></trkpt><trkpt lat="58.034843" lon="38.854562"><ele>101.0</ele><time>2023-09-28T08:24:57Z</time></trkpt><trkpt lat="58.03476" lon="38.854693"><ele>99.0</ele><time>2023-09-28T08:24:59Z</time></trkpt><trkpt lat="58.03468" lon="38.854742"><ele>100.0</ele><time>2023-09-28T08:25:01Z</time></trkpt><trkpt lat="58.034593" lon="38.854765"><ele>99.0</ele><time>2023-09-28T08:25:03Z</time></trkpt><trkpt lat="58.034485" lon="38.85481"><ele>99.0</ele><time>2023-09-28T08:25:05Z</time></trkpt><trkpt lat="58.034387" lon="38.85487"><ele>99.0</ele><time>2023-09-28T08:25:07Z</time></trkpt><trkpt lat="58.034298" lon="38.854935"><ele>99.0</ele><time>2023-09-28T08:25:09Z</time></trkpt><trkpt lat="58.034213" lon="38.854983"><ele>99.0</ele><time>2023-09-28T08:25:11Z</time></trkpt><trkpt lat="58.034142" lon="38.855032"><ele>99.0</ele><time>2023-09-28T08:25:13Z</time></trkpt><trkpt lat="58.03407" lon="38.855088"><ele>99.0</ele><time>2023-09-28T08:25:15Z</time></trkpt><trkpt lat="58.033987" lon="38.85513"><ele>99.0</ele><time>2023-09-28T08:25:17Z</time></trkpt><trkpt lat="58.0339" lon="38.855142"><ele>99.0</ele><time>2023-09-28T08:25:19Z</time></trkpt><trkpt lat="58.033813" lon="38.85516"><ele>99.0</ele><time>2023-09-28T08:25:22Z</time></trkpt><trkpt lat="58.033725" lon="38.855262"><ele>100.0</ele><time>2023-09-28T08:25:27Z</time></trkpt><trkpt lat="58.033647" lon="38.855367"><ele>100.0</ele><time>2023-09-28T08:25:30Z</time></trkpt><trkpt lat="58.03358" lon="38.855443"><ele>101.0</ele><time>2023-09-28T08:25:32Z</time></trkpt><trkpt lat="58.0335" lon="38.855512"><ele>100.0</ele><time>2023-09-28T08:25:34Z</time></trkpt><trkpt lat="58.033415" lon="38.855583"><ele>99.0</ele><time>2023-09-28T08:25:36Z</time></trkpt><trkpt lat="58.03333" lon="38.855638"><ele>100.0</ele><time>2023-09-28T08:25:38Z</time></trkpt><trkpt lat="58.033255" lon="38.8557"><ele>100.0</ele><time>2023-09-28T08:25:40Z</time></trkpt><trkpt lat="58.033188" lon="38.855775"><ele>99.0</ele><time>2023-09-28T08:25:42Z</time></trkpt><trkpt lat="58.033122" lon="38.855855"><ele>99.0</ele><time>2023-09-28T08:25:44Z</time></trkpt><trkpt lat="58.033057" lon="38.855922"><ele>99.0</ele><time>2023-09-28T08:25:46Z</time></trkpt><trkpt lat="58.03297" lon="38.85601"><ele>99.0</ele><time>2023-09-28T08:25:49Z</time></trkpt><trkpt lat="58.03289" lon="38.856135"><ele>99.0</ele><time>2023-09-28T08:25:52Z</time></trkpt><trkpt lat="58.032847" lon="38.856272"><ele>100.0</ele><time>2023-09-28T08:25:54Z</time></trkpt><trkpt lat="58.032793" lon="38.856405"><ele>100.0</ele><time>2023-09-28T08:25:56Z</time></trkpt><trkpt lat="58.032757" lon="38.85653"><ele>99.0</ele><time>2023-09-28T08:25:58Z</time></trkpt><trkpt lat="58.032707" lon="38.85664"><ele>98.0</ele><time>2023-09-28T08:26:00Z</time></trkpt><trkpt lat="58.032638" lon="38.856725"><ele>98.0</ele><time>2023-09-28T08:26:02Z</time></trkpt><trkpt lat="58.032565" lon="38.85681"><ele>98.0</ele><time>2023-09-28T08:26:04Z</time></trkpt><trkpt lat="58.032498" lon="38.85691"><ele>99.0</ele><time>2023-09-28T08:26:06Z</time></trkpt><trkpt lat="58.032428" lon="38.857008"><ele>99.0</ele><time>2023-09-28T08:26:08Z</time></trkpt><trkpt lat="58.032357" lon="38.857097"><ele>99.0</ele><time>2023-09-28T08:26:10Z</time></trkpt><trkpt lat="58.03229" lon="38.857195"><ele>99.0</ele><time>2023-09-28T08:26:12Z</time></trkpt><trkpt lat="58.032225" lon="38.857303"><ele>99.0</ele><time>2023-09-28T08:26:14Z</time></trkpt><trkpt lat="58.032155" lon="38.857402"><ele>99.0</ele><time>2023-09-28T08:26:16Z</time></trkpt><trkpt lat="58.032097" lon="38.857505"><ele>100.0</ele><time>2023-09-28T08:26:18Z</time></trkpt><trkpt lat="58.03203" lon="38.857627"><ele>99.0</ele><time>2023-09-28T08:26:20Z</time></trkpt><trkpt lat="58.031962" lon="38.8577"><ele>100.0</ele><time>2023-09-28T08:26:21Z</time></trkpt><trkpt lat="58.031907" lon="38.85782"><ele>100.0</ele><time>2023-09-28T08:26:23Z</time></trkpt><trkpt lat="58.031817" lon="38.857952"><ele>101.0</ele><time>2023-09-28T08:26:25Z</time></trkpt><trkpt lat="58.031735" lon="38.857987"><ele>101.0</ele><time>2023-09-28T08:26:26Z</time></trkpt><trkpt lat="58.031657" lon="38.858143"><ele>100.0</ele><time>2023-09-28T08:26:28Z</time></trkpt><trkpt lat="58.0316" lon="38.858247"><ele>100.0</ele><time>2023-09-28T08:26:29Z</time></trkpt><trkpt lat="58.031503" lon="38.858397"><ele>99.0</ele><time>2023-09-28T08:26:31Z</time></trkpt><trkpt lat="58.031417" lon="38.85852"><ele>100.0</ele><time>2023-09-28T08:26:33Z</time></trkpt><trkpt lat="58.031362" lon="38.858633"><ele>100.0</ele><time>2023-09-28T08:26:35Z</time></trkpt><trkpt lat="58.031303" lon="38.85873"><ele>100.0</ele><time>2023-09-28T08:26:37Z</time></trkpt><trkpt lat="58.031223" lon="38.85884"><ele>100.0</ele><time>2023-09-28T08:26:40Z</time></trkpt><trkpt lat="58.031148" lon="38.85896"><ele>100.0</ele><time>2023-09-28T08:26:44Z</time></trkpt><trkpt lat="58.031082" lon="38.859077"><ele>100.0</ele><time>2023-09-28T08:26:47Z</time></trkpt><trkpt lat="58.030993" lon="38.859195"><ele>99.0</ele><time>2023-09-28T08:26:50Z</time></trkpt><trkpt lat="58.030937" lon="38.85928"><ele>100.0</ele><time>2023-09-28T08:26:52Z</time></trkpt><trkpt lat="58.030877" lon="38.859363"><ele>99.0</ele><time>2023-09-28T08:26:54Z</time></trkpt><trkpt lat="58.03082" lon="38.85946"><ele>100.0</ele><time>2023-09-28T08:26:56Z</time></trkpt><trkpt lat="58.03076" lon="38.859548"><ele>99.0</ele><time>2023-09-28T08:26:58Z</time></trkpt><trkpt lat="58.03068" lon="38.859683"><ele>100.0</ele><time>2023-09-28T08:27:01Z</time></trkpt><trkpt lat="58.030613" lon="38.859775"><ele>101.0</ele><time>2023-09-28T08:27:03Z</time></trkpt><trkpt lat="58.030545" lon="38.859858"><ele>101.0</ele><time>2023-09-28T08:27:05Z</time></trkpt><trkpt lat="58.030485" lon="38.859942"><ele>101.0</ele><time>2023-09-28T08:27:07Z</time></trkpt><trkpt lat="58.030418" lon="38.86005"><ele>102.0</ele><time>2023-09-28T08:27:10Z</time></trkpt><trkpt lat="58.030342" lon="38.860152"><ele>102.0</ele><time>2023-09-28T08:27:13Z</time></trkpt><trkpt lat="58.030262" lon="38.860217"><ele>102.0</ele><time>2023-09-28T08:27:15Z</time></trkpt><trkpt lat="58.030187" lon="38.86027"><ele>103.0</ele><time>2023-09-28T08:27:17Z</time></trkpt><trkpt lat="58.030112" lon="38.86032"><ele>103.0</ele><time>2023-09-28T08:27:19Z</time></trkpt><trkpt lat="58.030038" lon="38.860368"><ele>104.0</ele><time>2023-09-28T08:27:21Z</time></trkpt><trkpt lat="58.029962" lon="38.860418"><ele>104.0</ele><time>2023-09-28T08:27:23Z</time></trkpt><trkpt lat="58.029883" lon="38.860458"><ele>103.0</ele><time>2023-09-28T08:27:25Z</time></trkpt><trkpt lat="58.029807" lon="38.860513"><ele>102.0</ele><time>2023-09-28T08:27:27Z</time></trkpt><trkpt lat="58.029735" lon="38.86058"><ele>102.0</ele><time>2023-09-28T08:27:29Z</time></trkpt><trkpt lat="58.02966" lon="38.860693"><ele>102.0</ele><time>2023-09-28T08:27:32Z</time></trkpt><trkpt lat="58.029565" lon="38.860787"><ele>102.0</ele><time>2023-09-28T08:27:35Z</time></trkpt><trkpt lat="58.029492" lon="38.860833"><ele>103.0</ele><time>2023-09-28T08:27:37Z</time></trkpt><trkpt lat="58.029407" lon="38.860888"><ele>101.0</ele><time>2023-09-28T08:27:39Z</time></trkpt><trkpt lat="58.029322" lon="38.860958"><ele>100.0</ele><time>2023-09-28T08:27:41Z</time></trkpt><trkpt lat="58.029242" lon="38.861027"><ele>101.0</ele><time>2023-09-28T08:27:43Z</time></trkpt><trkpt lat="58.029163" lon="38.861103"><ele>101.0</ele><time>2023-09-28T08:27:45Z</time></trkpt><trkpt lat="58.029088" lon="38.861177"><ele>101.0</ele><time>2023-09-28T08:27:47Z</time></trkpt><trkpt lat="58.028995" lon="38.861248"><ele>101.0</ele><time>2023-09-28T08:27:49Z</time></trkpt><trkpt lat="58.028903" lon="38.861323"><ele>100.0</ele><time>2023-09-28T08:27:51Z</time></trkpt><trkpt lat="58.028838" lon="38.861398"><ele>101.0</ele><time>2023-09-28T08:27:53Z</time></trkpt><trkpt lat="58.028753" lon="38.861455"><ele>101.0</ele><time>2023-09-28T08:27:55Z</time></trkpt><trkpt lat="58.028687" lon="38.861535"><ele>101.0</ele><time>2023-09-28T08:27:57Z</time></trkpt><trkpt lat="58.028595" lon="38.861645"><ele>101.0</ele><time>2023-09-28T08:28:00Z</time></trkpt><trkpt lat="58.028517" lon="38.861715"><ele>102.0</ele><time>2023-09-28T08:28:02Z</time></trkpt><trkpt lat="58.028437" lon="38.861798"><ele>102.0</ele><time>2023-09-28T08:28:04Z</time></trkpt><trkpt lat="58.028352" lon="38.861857"><ele>102.0</ele><time>2023-09-28T08:28:06Z</time></trkpt><trkpt lat="58.028258" lon="38.861913"><ele>103.0</ele><time>2023-09-28T08:28:08Z</time></trkpt><trkpt lat="58.028162" lon="38.861985"><ele>103.0</ele><time>2023-09-28T08:28:10Z</time></trkpt><trkpt lat="58.028072" lon="38.86204"><ele>102.0</ele><time>2023-09-28T08:28:12Z</time></trkpt><trkpt lat="58.027992" lon="38.862097"><ele>102.0</ele><time>2023-09-28T08:28:14Z</time></trkpt><trkpt lat="58.027868" lon="38.862152"><ele>102.0</ele><time>2023-09-28T08:28:16Z</time></trkpt><trkpt lat="58.02778" lon="38.862207"><ele>102.0</ele><time>2023-09-28T08:28:18Z</time></trkpt><trkpt lat="58.027682" lon="38.862258"><ele>102.0</ele><time>2023-09-28T08:28:20Z</time></trkpt><trkpt lat="58.02759" lon="38.862313"><ele>101.0</ele><time>2023-09-28T08:28:22Z</time></trkpt><trkpt lat="58.027512" lon="38.862358"><ele>102.0</ele><time>2023-09-28T08:28:24Z</time></trkpt><trkpt lat="58.027433" lon="38.862428"><ele>102.0</ele><time>2023-09-28T08:28:26Z</time></trkpt><trkpt lat="58.027348" lon="38.862492"><ele>103.0</ele><time>2023-09-28T08:28:28Z</time></trkpt><trkpt lat="58.027273" lon="38.862563"><ele>103.0</ele><time>2023-09-28T08:28:30Z</time></trkpt><trkpt lat="58.027198" lon="38.862638"><ele>104.0</ele><time>2023-09-28T08:28:32Z</time></trkpt><trkpt lat="58.02713" lon="38.8627"><ele>105.0</ele><time>2023-09-28T08:28:34Z</time></trkpt><trkpt lat="58.027058" lon="38.862773"><ele>105.0</ele><time>2023-09-28T08:28:36Z</time></trkpt><trkpt lat="58.026983" lon="38.862858"><ele>106.0</ele><time>2023-09-28T08:28:38Z</time></trkpt><trkpt lat="58.0269" lon="38.862937"><ele>106.0</ele><time>2023-09-28T08:28:40Z</time></trkpt><trkpt lat="58.026798" lon="38.863"><ele>106.0</ele><time>2023-09-28T08:28:42Z</time></trkpt><trkpt lat="58.02671" lon="38.863063"><ele>106.0</ele><time>2023-09-28T08:28:44Z</time></trkpt><trkpt lat="58.026602" lon="38.863173"><ele>107.0</ele><time>2023-09-28T08:28:46Z</time></trkpt><trkpt lat="58.026508" lon="38.86327"><ele>107.0</ele><time>2023-09-28T08:28:48Z</time></trkpt><trkpt lat="58.026413" lon="38.86335"><ele>107.0</ele><time>2023-09-28T08:28:50Z</time></trkpt><trkpt lat="58.026297" lon="38.863442"><ele>107.0</ele><time>2023-09-28T08:28:52Z</time></trkpt><trkpt lat="58.026188" lon="38.863518"><ele>107.0</ele><time>2023-09-28T08:28:54Z</time></trkpt><trkpt lat="58.026093" lon="38.863592"><ele>107.0</ele><time>2023-09-28T08:28:56Z</time></trkpt><trkpt lat="58.025997" lon="38.863657"><ele>106.0</ele><time>2023-09-28T08:28:58Z</time></trkpt><trkpt lat="58.025895" lon="38.863725"><ele>105.0</ele><time>2023-09-28T08:29:00Z</time></trkpt><trkpt lat="58.02578" lon="38.863797"><ele>105.0</ele><time>2023-09-28T08:29:02Z</time></trkpt><trkpt lat="58.025677" lon="38.863903"><ele>105.0</ele><time>2023-09-28T08:29:04Z</time></trkpt><trkpt lat="58.025558" lon="38.863998"><ele>105.0</ele><time>2023-09-28T08:29:06Z</time></trkpt><trkpt lat="58.025452" lon="38.864093"><ele>104.0</ele><time>2023-09-28T08:29:08Z</time></trkpt><trkpt lat="58.025352" lon="38.864192"><ele>104.0</ele><time>2023-09-28T08:29:10Z</time></trkpt><trkpt lat="58.025267" lon="38.864293"><ele>103.0</ele><time>2023-09-28T08:29:12Z</time></trkpt><trkpt lat="58.025143" lon="38.86436"><ele>103.0</ele><time>2023-09-28T08:29:14Z</time></trkpt><trkpt lat="58.025078" lon="38.86442"><ele>103.0</ele><time>2023-09-28T08:29:15Z</time></trkpt><trkpt lat="58.02498" lon="38.86452"><ele>102.0</ele><time>2023-09-28T08:29:17Z</time></trkpt><trkpt lat="58.024882" lon="38.864622"><ele>102.0</ele><time>2023-09-28T08:29:19Z</time></trkpt><trkpt lat="58.024772" lon="38.864722"><ele>102.0</ele><time>2023-09-28T08:29:21Z</time></trkpt><trkpt lat="58.02469" lon="38.864782"><ele>102.0</ele><time>2023-09-28T08:29:23Z</time></trkpt><trkpt lat="58.024582" lon="38.864885"><ele>102.0</ele><time>2023-09-28T08:29:25Z</time></trkpt><trkpt lat="58.024457" lon="38.864945"><ele>102.0</ele><time>2023-09-28T08:29:27Z</time></trkpt><trkpt lat="58.024363" lon="38.865028"><ele>102.0</ele><time>2023-09-28T08:29:29Z</time></trkpt><trkpt lat="58.024262" lon="38.865062"><ele>102.0</ele><time>2023-09-28T08:29:31Z</time></trkpt><trkpt lat="58.024173" lon="38.865085"><ele>102.0</ele><time>2023-09-28T08:29:33Z</time></trkpt><trkpt lat="58.024105" lon="38.865138"><ele>103.0</ele><time>2023-09-28T08:29:35Z</time></trkpt><trkpt lat="58.024043" lon="38.86526"><ele>103.0</ele><time>2023-09-28T08:29:38Z</time></trkpt><trkpt lat="58.023957" lon="38.8654"><ele>104.0</ele><time>2023-09-28T08:29:41Z</time></trkpt><trkpt lat="58.02385" lon="38.865382"><ele>104.0</ele><time>2023-09-28T08:29:44Z</time></trkpt><trkpt lat="58.02377" lon="38.865375"><ele>104.0</ele><time>2023-09-28T08:29:46Z</time></trkpt><trkpt lat="58.023682" lon="38.86537"><ele>104.0</ele><time>2023-09-28T08:29:48Z</time></trkpt><trkpt lat="58.023597" lon="38.865365"><ele>104.0</ele><time>2023-09-28T08:29:50Z</time></trkpt><trkpt lat="58.023518" lon="38.865347"><ele>103.0</ele><time>2023-09-28T08:29:52Z</time></trkpt><trkpt lat="58.023442" lon="38.865322"><ele>103.0</ele><time>2023-09-28T08:29:54Z</time></trkpt><trkpt lat="58.023365" lon="38.86529"><ele>104.0</ele><time>2023-09-28T08:29:56Z</time></trkpt><trkpt lat="58.023293" lon="38.865257"><ele>104.0</ele><time>2023-09-28T08:29:58Z</time></trkpt><trkpt lat="58.023193" lon="38.8652"><ele>105.0</ele><time>2023-09-28T08:30:01Z</time></trkpt><trkpt lat="58.023107" lon="38.865107"><ele>105.0</ele><time>2023-09-28T08:30:04Z</time></trkpt><trkpt lat="58.023012" lon="38.865012"><ele>106.0</ele><time>2023-09-28T08:30:07Z</time></trkpt><trkpt lat="58.022942" lon="38.864967"><ele>105.0</ele><time>2023-09-28T08:30:09Z</time></trkpt><trkpt lat="58.022865" lon="38.864918"><ele>105.0</ele><time>2023-09-28T08:30:11Z</time></trkpt><trkpt lat="58.02279" lon="38.864865"><ele>106.0</ele><time>2023-09-28T08:30:13Z</time></trkpt><trkpt lat="58.022697" lon="38.864798"><ele>106.0</ele><time>2023-09-28T08:30:16Z</time></trkpt><trkpt lat="58.022612" lon="38.864732"><ele>107.0</ele><time>2023-09-28T08:30:18Z</time></trkpt><trkpt lat="58.022538" lon="38.864635"><ele>107.0</ele><time>2023-09-28T08:30:21Z</time></trkpt><trkpt lat="58.02245" lon="38.864588"><ele>107.0</ele><time>2023-09-28T08:30:27Z</time></trkpt><trkpt lat="58.022355" lon="38.864557"><ele>108.0</ele><time>2023-09-28T08:30:30Z</time></trkpt><trkpt lat="58.022253" lon="38.864507"><ele>110.0</ele><time>2023-09-28T08:30:33Z</time></trkpt><trkpt lat="58.022147" lon="38.864492"><ele>109.0</ele><time>2023-09-28T08:30:35Z</time></trkpt><trkpt lat="58.02205" lon="38.864512"><ele>110.0</ele><time>2023-09-28T08:30:37Z</time></trkpt><trkpt lat="58.02195" lon="38.864522"><ele>110.0</ele><time>2023-09-28T08:30:39Z</time></trkpt><trkpt lat="58.02186" lon="38.864545"><ele>111.0</ele><time>2023-09-28T08:30:41Z</time></trkpt><trkpt lat="58.021772" lon="38.864537"><ele>111.0</ele><time>2023-09-28T08:30:43Z</time></trkpt><trkpt lat="58.021668" lon="38.864582"><ele>111.0</ele><time>2023-09-28T08:30:46Z</time></trkpt><trkpt lat="58.021587" lon="38.864625"><ele>110.0</ele><time>2023-09-28T08:30:48Z</time></trkpt><trkpt lat="58.021512" lon="38.86466"><ele>110.0</ele><time>2023-09-28T08:30:50Z</time></trkpt><trkpt lat="58.021413" lon="38.864693"><ele>110.0</ele><time>2023-09-28T08:30:52Z</time></trkpt><trkpt lat="58.021312" lon="38.864715"><ele>109.0</ele><time>2023-09-28T08:30:54Z</time></trkpt><trkpt lat="58.021207" lon="38.86473"><ele>108.0</ele><time>2023-09-28T08:30:56Z</time></trkpt><trkpt lat="58.021128" lon="38.864725"><ele>108.0</ele><time>2023-09-28T08:30:57Z</time></trkpt><trkpt lat="58.02103" lon="38.864722"><ele>106.0</ele><time>2023-09-28T08:30:59Z</time></trkpt><trkpt lat="58.020915" lon="38.864737"><ele>105.0</ele><time>2023-09-28T08:31:01Z</time></trkpt><trkpt lat="58.020787" lon="38.864753"><ele>105.0</ele><time>2023-09-28T08:31:03Z</time></trkpt><trkpt lat="58.020657" lon="38.864785"><ele>104.0</ele><time>2023-09-28T08:31:05Z</time></trkpt><trkpt lat="58.02053" lon="38.864818"><ele>103.0</ele><time>2023-09-28T08:31:07Z</time></trkpt><trkpt lat="58.02041" lon="38.864853"><ele>103.0</ele><time>2023-09-28T08:31:09Z</time></trkpt><trkpt lat="58.020337" lon="38.86484"><ele>103.0</ele><time>2023-09-28T08:31:10Z</time></trkpt><trkpt lat="58.020223" lon="38.864855"><ele>103.0</ele><time>2023-09-28T08:31:12Z</time></trkpt><trkpt lat="58.020105" lon="38.864905"><ele>103.0</ele><time>2023-09-28T08:31:14Z</time></trkpt><trkpt lat="58.02003" lon="38.864915"><ele>103.0</ele><time>2023-09-28T08:31:15Z</time></trkpt><trkpt lat="58.01993" lon="38.864918"><ele>102.0</ele><time>2023-09-28T08:31:17Z</time></trkpt><trkpt lat="58.019833" lon="38.864908"><ele>102.0</ele><time>2023-09-28T08:31:19Z</time></trkpt><trkpt lat="58.019747" lon="38.864952"><ele>102.0</ele><time>2023-09-28T08:31:21Z</time></trkpt><trkpt lat="58.01964" lon="38.865012"><ele>102.0</ele><time>2023-09-28T08:31:24Z</time></trkpt><trkpt lat="58.019557" lon="38.865033"><ele>101.0</ele><time>2023-09-28T08:31:26Z</time></trkpt><trkpt lat="58.019465" lon="38.865112"><ele>101.0</ele><time>2023-09-28T08:31:29Z</time></trkpt><trkpt lat="58.019385" lon="38.865122"><ele>100.0</ele><time>2023-09-28T08:31:32Z</time></trkpt><trkpt lat="58.0193" lon="38.865112"><ele>100.0</ele><time>2023-09-28T08:31:37Z</time></trkpt><trkpt lat="58.019223" lon="38.865082"><ele>102.0</ele><time>2023-09-28T08:31:43Z</time></trkpt><trkpt lat="58.01915" lon="38.865045"><ele>102.0</ele><time>2023-09-28T08:31:47Z</time></trkpt><trkpt lat="58.019078" lon="38.86504"><ele>102.0</ele><time>2023-09-28T08:31:50Z</time></trkpt><trkpt lat="58.018987" lon="38.865058"><ele>102.0</ele><time>2023-09-28T08:31:53Z</time></trkpt><trkpt lat="58.018913" lon="38.865057"><ele>102.0</ele><time>2023-09-28T08:31:56Z</time></trkpt><trkpt lat="58.01882" lon="38.865055"><ele>101.0</ele><time>2023-09-28T08:31:59Z</time></trkpt><trkpt lat="58.018733" lon="38.865055"><ele>101.0</ele><time>2023-09-28T08:32:02Z</time></trkpt><trkpt lat="58.018653" lon="38.8651"><ele>102.0</ele><time>2023-09-28T08:32:06Z</time></trkpt><trkpt lat="58.01855" lon="38.86509"><ele>100.0</ele><time>2023-09-28T08:32:09Z</time></trkpt><trkpt lat="58.018455" lon="38.865057"><ele>101.0</ele><time>2023-09-28T08:32:12Z</time></trkpt><trkpt lat="58.018368" lon="38.86507"><ele>103.0</ele><time>2023-09-28T08:32:15Z</time></trkpt><trkpt lat="58.018287" lon="38.865073"><ele>102.0</ele><time>2023-09-28T08:32:17Z</time></trkpt><trkpt lat="58.0182" lon="38.865055"><ele>102.0</ele><time>2023-09-28T08:32:19Z</time></trkpt><trkpt lat="58.01811" lon="38.864992"><ele>102.0</ele><time>2023-09-28T08:32:21Z</time></trkpt><trkpt lat="58.018025" lon="38.864975"><ele>103.0</ele><time>2023-09-28T08:32:23Z</time></trkpt><trkpt lat="58.01794" lon="38.864962"><ele>103.0</ele><time>2023-09-28T08:32:25Z</time></trkpt><trkpt lat="58.017855" lon="38.864945"><ele>102.0</ele><time>2023-09-28T08:32:27Z</time></trkpt><trkpt lat="58.01777" lon="38.86494"><ele>103.0</ele><time>2023-09-28T08:32:29Z</time></trkpt><trkpt lat="58.017687" lon="38.864903"><ele>103.0</ele><time>2023-09-28T08:32:31Z</time></trkpt><trkpt lat="58.017603" lon="38.864877"><ele>104.0</ele><time>2023-09-28T08:32:33Z</time></trkpt><trkpt lat="58.01751" lon="38.864843"><ele>104.0</ele><time>2023-09-28T08:32:35Z</time></trkpt><trkpt lat="58.017427" lon="38.864802"><ele>104.0</ele><time>2023-09-28T08:32:37Z</time></trkpt><trkpt lat="58.017347" lon="38.864775"><ele>104.0</ele><time>2023-09-28T08:32:39Z</time></trkpt><trkpt lat="58.017267" lon="38.864768"><ele>104.0</ele><time>2023-09-28T08:32:41Z</time></trkpt><trkpt lat="58.017192" lon="38.86477"><ele>103.0</ele><time>2023-09-28T08:32:43Z</time></trkpt><trkpt lat="58.017092" lon="38.86478"><ele>103.0</ele><time>2023-09-28T08:32:46Z</time></trkpt><trkpt lat="58.017017" lon="38.864827"><ele>103.0</ele><time>2023-09-28T08:32:48Z</time></trkpt><trkpt lat="58.016945" lon="38.864858"><ele>103.0</ele><time>2023-09-28T08:32:50Z</time></trkpt><trkpt lat="58.016877" lon="38.864808"><ele>103.0</ele><time>2023-09-28T08:32:52Z</time></trkpt><trkpt lat="58.01679" lon="38.864735"><ele>104.0</ele><time>2023-09-28T08:32:55Z</time></trkpt><trkpt lat="58.016718" lon="38.864715"><ele>104.0</ele><time>2023-09-28T08:32:57Z</time></trkpt><trkpt lat="58.016637" lon="38.864677"><ele>104.0</ele><time>2023-09-28T08:32:59Z</time></trkpt><trkpt lat="58.016557" lon="38.864612"><ele>104.0</ele><time>2023-09-28T08:33:01Z</time></trkpt><trkpt lat="58.016488" lon="38.864537"><ele>105.0</ele><time>2023-09-28T08:33:03Z</time></trkpt><trkpt lat="58.01642" lon="38.864463"><ele>105.0</ele><time>2023-09-28T08:33:06Z</time></trkpt><trkpt lat="58.016347" lon="38.864405"><ele>104.0</ele><time>2023-09-28T08:33:10Z</time></trkpt><trkpt lat="58.016263" lon="38.864303"><ele>105.0</ele><time>2023-09-28T08:33:14Z</time></trkpt><trkpt lat="58.016168" lon="38.864227"><ele>105.0</ele><time>2023-09-28T08:33:17Z</time></trkpt><trkpt lat="58.016075" lon="38.864142"><ele>105.0</ele><time>2023-09-28T08:33:20Z</time></trkpt><trkpt lat="58.016012" lon="38.864075"><ele>105.0</ele><time>2023-09-28T08:33:22Z</time></trkpt><trkpt lat="58.015948" lon="38.863998"><ele>106.0</ele><time>2023-09-28T08:33:24Z</time></trkpt><trkpt lat="58.015862" lon="38.863942"><ele>107.0</ele><time>2023-09-28T08:33:27Z</time></trkpt><trkpt lat="58.015782" lon="38.863895"><ele>106.0</ele><time>2023-09-28T08:33:30Z</time></trkpt><trkpt lat="58.015698" lon="38.86385"><ele>106.0</ele><time>2023-09-28T08:33:34Z</time></trkpt><trkpt lat="58.015627" lon="38.863815"><ele>106.0</ele><time>2023-09-28T08:33:37Z</time></trkpt><trkpt lat="58.015538" lon="38.863737"><ele>106.0</ele><time>2023-09-28T08:33:40Z</time></trkpt><trkpt lat="58.01547" lon="38.863677"><ele>106.0</ele><time>2023-09-28T08:33:42Z</time></trkpt><trkpt lat="58.015397" lon="38.863622"><ele>105.0</ele><time>2023-09-28T08:33:44Z</time></trkpt><trkpt lat="58.015322" lon="38.863557"><ele>106.0</ele><time>2023-09-28T08:33:46Z</time></trkpt><trkpt lat="58.015248" lon="38.863483"><ele>106.0</ele><time>2023-09-28T08:33:48Z</time></trkpt><trkpt lat="58.01517" lon="38.86342"><ele>106.0</ele><time>2023-09-28T08:33:50Z</time></trkpt><trkpt lat="58.015102" lon="38.86337"><ele>106.0</ele><time>2023-09-28T08:33:52Z</time></trkpt><trkpt lat="58.01503" lon="38.863412"><ele>106.0</ele><time>2023-09-28T08:33:56Z</time></trkpt><trkpt lat="58.014995" lon="38.863542"><ele>107.0</ele><time>2023-09-28T08:33:59Z</time></trkpt><trkpt lat="58.01497" lon="38.863687"><ele>107.0</ele><time>2023-09-28T08:34:03Z</time></trkpt><trkpt lat="58.014953" lon="38.863837"><ele>106.0</ele><time>2023-09-28T08:34:07Z</time></trkpt><trkpt lat="58.014957" lon="38.863985"><ele>106.0</ele><time>2023-09-28T08:34:12Z</time></trkpt><trkpt lat="58.014933" lon="38.863833"><ele>106.0</ele><time>2023-09-28T08:34:20Z</time></trkpt><trkpt lat="58.014958" lon="38.863685"><ele>107.0</ele><time>2023-09-28T08:34:23Z</time></trkpt><trkpt lat="58.014973" lon="38.86353"><ele>106.0</ele><time>2023-09-28T08:34:26Z</time></trkpt><trkpt lat="58.015002" lon="38.863402"><ele>105.0</ele><time>2023-09-28T08:34:29Z</time></trkpt><trkpt lat="58.014982" lon="38.863245"><ele>105.0</ele><time>2023-09-28T08:34:33Z</time></trkpt><trkpt lat="58.014898" lon="38.8632"><ele>105.0</ele><time>2023-09-28T08:34:36Z</time></trkpt><trkpt lat="58.014828" lon="38.863168"><ele>105.0</ele><time>2023-09-28T08:34:38Z</time></trkpt><trkpt lat="58.014733" lon="38.863107"><ele>105.0</ele><time>2023-09-28T08:34:41Z</time></trkpt><trkpt lat="58.014663" lon="38.863048"><ele>105.0</ele><time>2023-09-28T08:34:43Z</time></trkpt><trkpt lat="58.014597" lon="38.862977"><ele>105.0</ele><time>2023-09-28T08:34:45Z</time></trkpt><trkpt lat="58.014525" lon="38.862902"><ele>105.0</ele><time>2023-09-28T08:34:47Z</time></trkpt><trkpt lat="58.01444" lon="38.862802"><ele>105.0</ele><time>2023-09-28T08:34:50Z</time></trkpt><trkpt lat="58.014337" lon="38.862758"><ele>104.0</ele><time>2023-09-28T08:34:53Z</time></trkpt><trkpt lat="58.014265" lon="38.862742"><ele>104.0</ele><time>2023-09-28T08:34:55Z</time></trkpt><trkpt lat="58.014187" lon="38.862732"><ele>104.0</ele><time>2023-09-28T08:34:57Z</time></trkpt><trkpt lat="58.014085" lon="38.862703"><ele>104.0</ele><time>2023-09-28T08:35:00Z</time></trkpt><trkpt lat="58.014005" lon="38.862705"><ele>104.0</ele><time>2023-09-28T08:35:03Z</time></trkpt><trkpt lat="58.013937" lon="38.862792"><ele>105.0</ele><time>2023-09-28T08:35:07Z</time></trkpt><trkpt lat="58.013855" lon="38.862887"><ele>104.0</ele><time>2023-09-28T08:35:11Z</time></trkpt><trkpt lat="58.013767" lon="38.862963"><ele>105.0</ele><time>2023-09-28T08:35:15Z</time></trkpt><trkpt lat="58.013683" lon="38.863048"><ele>105.0</ele><time>2023-09-28T08:35:18Z</time></trkpt><trkpt lat="58.013603" lon="38.863123"><ele>105.0</ele><time>2023-09-28T08:35:21Z</time></trkpt><trkpt lat="58.013522" lon="38.86321"><ele>106.0</ele><time>2023-09-28T08:35:24Z</time></trkpt><trkpt lat="58.013457" lon="38.863303"><ele>106.0</ele><time>2023-09-28T08:35:27Z</time></trkpt><trkpt lat="58.013397" lon="38.863423"><ele>105.0</ele><time>2023-09-28T08:35:31Z</time></trkpt><trkpt lat="58.013373" lon="38.863555"><ele>105.0</ele><time>2023-09-28T08:35:43Z</time></trkpt><trkpt lat="58.013447" lon="38.863558"><ele>105.0</ele><time>2023-09-28T08:35:57Z</time></trkpt><trkpt lat="58.013517" lon="38.86351"><ele>104.0</ele><time>2023-09-28T08:36:10Z</time></trkpt></trkseg></trk></gpx>