<?xml version="1.0" encoding="UTF-8" standalone="no"?><gpx xmlns="http://www.topografix.com/GPX/1/1" xmlns:gpxtpx="http://www.garmin.com/xmlschemas/TrackPointExtension/v1" xmlns:xsi="http://www.w3.org/2001/XMLSchema-instance" creator="Suunto app" version="1.1" xsi:schemaLocation="http://www.topografix.com/GPX/1/1 http://www.topografix.com/GPX/1/1/gpx.xsd http://www.garmin.com/xmlschemas/TrackPointExtension/v1 http://www.garmin.com/xmlschemas/TrackPointExtensionv1.xsd"><metadata><name>suuntoapp-Paddling-2026-07-25T15-46-41Z</name><desc/><author><name>Александр</name></author></metadata><trk><name>suuntoapp-Paddling-2026-07-25T15-46-41Z</name><trkseg><trkpt lat="58.063172" lon="38.3585"><ele>109.2</ele><time>2026-07-25T15:46:41Z</time></trkpt><trkpt lat="58.063172" lon="38.3585"><ele>109.2</ele><time>2026-07-25T15:46:48Z</time></trkpt><trkpt lat="58.06317" lon="38.358485"><ele>110.3</ele><time>2026-07-25T15:46:55Z</time></trkpt><trkpt lat="58.06317" lon="38.358485"><ele>110.3</ele><time>2026-07-25T15:46:58Z</time></trkpt><trkpt lat="58.06317" lon="38.358495"><ele>110.3</ele><time>2026-07-25T15:47:13Z</time></trkpt><trkpt lat="58.06317" lon="38.358495"><ele>110.5</ele><time>2026-07-25T15:47:14Z</time></trkpt><trkpt lat="58.06317" lon="38.358485"><ele>111.0</ele><time>2026-07-25T15:47:22Z</time></trkpt><trkpt lat="58.06317" lon="38.358485"><ele>111.0</ele><time>2026-07-25T15:47:23Z</time></trkpt><trkpt lat="58.063145" lon="38.358455"><ele>112.4</ele><time>2026-07-25T15:47:39Z</time></trkpt><trkpt lat="58.06314" lon="38.35845"><ele>112.5</ele><time>2026-07-25T15:47:40Z</time></trkpt><trkpt lat="58.063125" lon="38.358395"><ele>113.6</ele><time>2026-07-25T15:47:48Z</time></trkpt><trkpt lat="58.063125" lon="38.358395"><ele>113.7</ele><time>2026-07-25T15:47:49Z</time></trkpt><trkpt lat="58.063105" lon="38.35835"><ele>113.9</ele><time>2026-07-25T15:47:57Z</time></trkpt><trkpt lat="58.063105" lon="38.358345"><ele>113.8</ele><time>2026-07-25T15:47:58Z</time></trkpt><trkpt lat="58.063085" lon="38.3583"><ele>115.0</ele><time>2026-07-25T15:48:06Z</time></trkpt><trkpt lat="58.063055" lon="38.358185"><ele>115.0</ele><time>2026-07-25T15:48:13Z</time></trkpt><trkpt lat="58.063015" lon="38.35805"><ele>113.9</ele><time>2026-07-25T15:48:19Z</time></trkpt><trkpt lat="58.063015" lon="38.357915"><ele>113.9</ele><time>2026-07-25T15:48:24Z</time></trkpt><trkpt lat="58.063017" lon="38.35777"><ele>114.0</ele><time>2026-07-25T15:48:29Z</time></trkpt><trkpt lat="58.06304" lon="38.357625"><ele>113.9</ele><time>2026-07-25T15:48:34Z</time></trkpt><trkpt lat="58.06305" lon="38.357475"><ele>113.5</ele><time>2026-07-25T15:48:39Z</time></trkpt><trkpt lat="58.06306" lon="38.35732"><ele>112.9</ele><time>2026-07-25T15:48:44Z</time></trkpt><trkpt lat="58.063065" lon="38.357165"><ele>113.1</ele><time>2026-07-25T15:48:49Z</time></trkpt><trkpt lat="58.063065" lon="38.357005"><ele>113.4</ele><time>2026-07-25T15:48:54Z</time></trkpt><trkpt lat="58.063065" lon="38.35685"><ele>113.5</ele><time>2026-07-25T15:48:59Z</time></trkpt><trkpt lat="58.063065" lon="38.3567"><ele>113.3</ele><time>2026-07-25T15:49:04Z</time></trkpt><trkpt lat="58.063065" lon="38.356555"><ele>113.3</ele><time>2026-07-25T15:49:09Z</time></trkpt><trkpt lat="58.063055" lon="38.356405"><ele>113.6</ele><time>2026-07-25T15:49:14Z</time></trkpt><trkpt lat="58.063045" lon="38.35626"><ele>113.2</ele><time>2026-07-25T15:49:19Z</time></trkpt><trkpt lat="58.06303" lon="38.35611"><ele>112.9</ele><time>2026-07-25T15:49:24Z</time></trkpt><trkpt lat="58.063015" lon="38.355955"><ele>113.1</ele><time>2026-07-25T15:49:30Z</time></trkpt><trkpt lat="58.063005" lon="38.355805"><ele>112.6</ele><time>2026-07-25T15:49:36Z</time></trkpt><trkpt lat="58.063" lon="38.355655"><ele>112.8</ele><time>2026-07-25T15:49:41Z</time></trkpt><trkpt lat="58.06299" lon="38.3555"><ele>112.9</ele><time>2026-07-25T15:49:47Z</time></trkpt><trkpt lat="58.06297" lon="38.355365"><ele>112.8</ele><time>2026-07-25T15:49:52Z</time></trkpt><trkpt lat="58.062945" lon="38.35523"><ele>112.4</ele><time>2026-07-25T15:49:57Z</time></trkpt><trkpt lat="58.062905" lon="38.35509"><ele>112.5</ele><time>2026-07-25T15:50:02Z</time></trkpt><trkpt lat="58.06285" lon="38.354955"><ele>112.8</ele><time>2026-07-25T15:50:07Z</time></trkpt><trkpt lat="58.062793" lon="38.35482"><ele>113.0</ele><time>2026-07-25T15:50:12Z</time></trkpt><trkpt lat="58.06275" lon="38.35469"><ele>113.3</ele><time>2026-07-25T15:50:17Z</time></trkpt><trkpt lat="58.062705" lon="38.35457"><ele>113.6</ele><time>2026-07-25T15:50:22Z</time></trkpt><trkpt lat="58.06267" lon="38.35444"><ele>113.5</ele><time>2026-07-25T15:50:27Z</time></trkpt><trkpt lat="58.062635" lon="38.35432"><ele>113.4</ele><time>2026-07-25T15:50:32Z</time></trkpt><trkpt lat="58.062595" lon="38.354195"><ele>113.3</ele><time>2026-07-25T15:50:37Z</time></trkpt><trkpt lat="58.06255" lon="38.354055"><ele>113.7</ele><time>2026-07-25T15:50:42Z</time></trkpt><trkpt lat="58.0625" lon="38.35393"><ele>113.5</ele><time>2026-07-25T15:50:47Z</time></trkpt><trkpt lat="58.062445" lon="38.353825"><ele>113.7</ele><time>2026-07-25T15:50:52Z</time></trkpt><trkpt lat="58.062385" lon="38.353725"><ele>113.3</ele><time>2026-07-25T15:50:57Z</time></trkpt><trkpt lat="58.06232" lon="38.353625"><ele>113.2</ele><time>2026-07-25T15:51:02Z</time></trkpt><trkpt lat="58.062255" lon="38.35353"><ele>113.3</ele><time>2026-07-25T15:51:07Z</time></trkpt><trkpt lat="58.0622" lon="38.353425"><ele>113.6</ele><time>2026-07-25T15:51:12Z</time></trkpt><trkpt lat="58.062135" lon="38.353325"><ele>113.3</ele><time>2026-07-25T15:51:17Z</time></trkpt><trkpt lat="58.06207" lon="38.35322"><ele>113.0</ele><time>2026-07-25T15:51:22Z</time></trkpt><trkpt lat="58.062" lon="38.35312"><ele>113.3</ele><time>2026-07-25T15:51:27Z</time></trkpt><trkpt lat="58.061935" lon="38.35302"><ele>113.2</ele><time>2026-07-25T15:51:32Z</time></trkpt><trkpt lat="58.06187" lon="38.35292"><ele>113.1</ele><time>2026-07-25T15:51:37Z</time></trkpt><trkpt lat="58.061795" lon="38.35282"><ele>113.4</ele><time>2026-07-25T15:51:42Z</time></trkpt><trkpt lat="58.061735" lon="38.352725"><ele>113.2</ele><time>2026-07-25T15:51:47Z</time></trkpt><trkpt lat="58.06167" lon="38.35264"><ele>113.2</ele><time>2026-07-25T15:51:52Z</time></trkpt><trkpt lat="58.06161" lon="38.352565"><ele>113.4</ele><time>2026-07-25T15:51:57Z</time></trkpt><trkpt lat="58.06155" lon="38.352485"><ele>113.3</ele><time>2026-07-25T15:52:02Z</time></trkpt><trkpt lat="58.06148" lon="38.352385"><ele>114.1</ele><time>2026-07-25T15:52:08Z</time></trkpt><trkpt lat="58.061425" lon="38.3523"><ele>114.2</ele><time>2026-07-25T15:52:13Z</time></trkpt><trkpt lat="58.06137" lon="38.35221"><ele>113.7</ele><time>2026-07-25T15:52:18Z</time></trkpt><trkpt lat="58.061315" lon="38.352115"><ele>111.2</ele><time>2026-07-25T15:52:24Z</time></trkpt><trkpt lat="58.061255" lon="38.352015"><ele>111.3</ele><time>2026-07-25T15:52:29Z</time></trkpt><trkpt lat="58.06119" lon="38.351925"><ele>111.7</ele><time>2026-07-25T15:52:34Z</time></trkpt><trkpt lat="58.061117" lon="38.351835"><ele>112.1</ele><time>2026-07-25T15:52:39Z</time></trkpt><trkpt lat="58.061045" lon="38.35174"><ele>112.6</ele><time>2026-07-25T15:52:44Z</time></trkpt><trkpt lat="58.06099" lon="38.351655"><ele>113.0</ele><time>2026-07-25T15:52:48Z</time></trkpt><trkpt lat="58.06091" lon="38.351565"><ele>112.5</ele><time>2026-07-25T15:52:53Z</time></trkpt><trkpt lat="58.060845" lon="38.35148"><ele>112.5</ele><time>2026-07-25T15:52:58Z</time></trkpt><trkpt lat="58.06078" lon="38.35139"><ele>112.6</ele><time>2026-07-25T15:53:03Z</time></trkpt><trkpt lat="58.06071" lon="38.351285"><ele>112.7</ele><time>2026-07-25T15:53:08Z</time></trkpt><trkpt lat="58.06065" lon="38.35116"><ele>113.3</ele><time>2026-07-25T15:53:13Z</time></trkpt><trkpt lat="58.0606" lon="38.351025"><ele>113.7</ele><time>2026-07-25T15:53:18Z</time></trkpt><trkpt lat="58.06058" lon="38.35088"><ele>113.5</ele><time>2026-07-25T15:53:23Z</time></trkpt><trkpt lat="58.06058" lon="38.350725"><ele>113.6</ele><time>2026-07-25T15:53:28Z</time></trkpt><trkpt lat="58.060615" lon="38.35057"><ele>113.4</ele><time>2026-07-25T15:53:33Z</time></trkpt><trkpt lat="58.060655" lon="38.35042"><ele>113.5</ele><time>2026-07-25T15:53:38Z</time></trkpt><trkpt lat="58.060695" lon="38.350275"><ele>114.1</ele><time>2026-07-25T15:53:43Z</time></trkpt><trkpt lat="58.06073" lon="38.350155"><ele>114.4</ele><time>2026-07-25T15:53:47Z</time></trkpt><trkpt lat="58.060765" lon="38.35"><ele>114.1</ele><time>2026-07-25T15:53:52Z</time></trkpt><trkpt lat="58.0608" lon="38.34985"><ele>114.2</ele><time>2026-07-25T15:53:57Z</time></trkpt><trkpt lat="58.060823" lon="38.349715"><ele>113.8</ele><time>2026-07-25T15:54:01Z</time></trkpt><trkpt lat="58.060865" lon="38.34958"><ele>113.3</ele><time>2026-07-25T15:54:05Z</time></trkpt><trkpt lat="58.060892" lon="38.349443"><ele>112.9</ele><time>2026-07-25T15:54:09Z</time></trkpt><trkpt lat="58.06093" lon="38.34932"><ele>112.7</ele><time>2026-07-25T15:54:13Z</time></trkpt><trkpt lat="58.06096" lon="38.349165"><ele>112.9</ele><time>2026-07-25T15:54:18Z</time></trkpt><trkpt lat="58.06099" lon="38.34904"><ele>114.1</ele><time>2026-07-25T15:54:22Z</time></trkpt><trkpt lat="58.06103" lon="38.34891"><ele>113.5</ele><time>2026-07-25T15:54:27Z</time></trkpt><trkpt lat="58.061075" lon="38.348785"><ele>112.9</ele><time>2026-07-25T15:54:32Z</time></trkpt><trkpt lat="58.06111" lon="38.34864"><ele>113.1</ele><time>2026-07-25T15:54:37Z</time></trkpt><trkpt lat="58.061135" lon="38.34849"><ele>113.1</ele><time>2026-07-25T15:54:42Z</time></trkpt><trkpt lat="58.06116" lon="38.34834"><ele>112.7</ele><time>2026-07-25T15:54:47Z</time></trkpt><trkpt lat="58.06118" lon="38.34819"><ele>113.4</ele><time>2026-07-25T15:54:52Z</time></trkpt><trkpt lat="58.0612" lon="38.34806"><ele>113.2</ele><time>2026-07-25T15:54:56Z</time></trkpt><trkpt lat="58.06123" lon="38.3479"><ele>113.5</ele><time>2026-07-25T15:55:01Z</time></trkpt><trkpt lat="58.06126" lon="38.347745"><ele>113.6</ele><time>2026-07-25T15:55:06Z</time></trkpt><trkpt lat="58.06129" lon="38.347595"><ele>113.6</ele><time>2026-07-25T15:55:11Z</time></trkpt><trkpt lat="58.06132" lon="38.34747"><ele>113.1</ele><time>2026-07-25T15:55:15Z</time></trkpt><trkpt lat="58.06134" lon="38.347335"><ele>113.0</ele><time>2026-07-25T15:55:19Z</time></trkpt><trkpt lat="58.061375" lon="38.34718"><ele>112.9</ele><time>2026-07-25T15:55:24Z</time></trkpt><trkpt lat="58.06141" lon="38.347022"><ele>112.4</ele><time>2026-07-25T15:55:29Z</time></trkpt><trkpt lat="58.06145" lon="38.346885"><ele>111.9</ele><time>2026-07-25T15:55:34Z</time></trkpt><trkpt lat="58.06149" lon="38.34674"><ele>112.0</ele><time>2026-07-25T15:55:39Z</time></trkpt><trkpt lat="58.061525" lon="38.34659"><ele>112.4</ele><time>2026-07-25T15:55:44Z</time></trkpt><trkpt lat="58.06156" lon="38.34645"><ele>112.3</ele><time>2026-07-25T15:55:49Z</time></trkpt><trkpt lat="58.061595" lon="38.34631"><ele>112.6</ele><time>2026-07-25T15:55:54Z</time></trkpt><trkpt lat="58.061625" lon="38.346155"><ele>112.3</ele><time>2026-07-25T15:55:59Z</time></trkpt><trkpt lat="58.06165" lon="38.345995"><ele>112.2</ele><time>2026-07-25T15:56:04Z</time></trkpt><trkpt lat="58.06167" lon="38.345835"><ele>112.2</ele><time>2026-07-25T15:56:09Z</time></trkpt><trkpt lat="58.061695" lon="38.34568"><ele>112.6</ele><time>2026-07-25T15:56:14Z</time></trkpt><trkpt lat="58.061715" lon="38.34552"><ele>112.8</ele><time>2026-07-25T15:56:19Z</time></trkpt><trkpt lat="58.06174" lon="38.34538"><ele>113.2</ele><time>2026-07-25T15:56:24Z</time></trkpt><trkpt lat="58.061775" lon="38.345235"><ele>113.3</ele><time>2026-07-25T15:56:29Z</time></trkpt><trkpt lat="58.061808" lon="38.345085"><ele>113.0</ele><time>2026-07-25T15:56:34Z</time></trkpt><trkpt lat="58.06185" lon="38.34495"><ele>113.5</ele><time>2026-07-25T15:56:39Z</time></trkpt><trkpt lat="58.061875" lon="38.344825"><ele>113.6</ele><time>2026-07-25T15:56:44Z</time></trkpt><trkpt lat="58.061895" lon="38.34467"><ele>113.0</ele><time>2026-07-25T15:56:49Z</time></trkpt><trkpt lat="58.061925" lon="38.344515"><ele>112.8</ele><time>2026-07-25T15:56:54Z</time></trkpt><trkpt lat="58.061947" lon="38.344365"><ele>112.8</ele><time>2026-07-25T15:56:59Z</time></trkpt><trkpt lat="58.06198" lon="38.344235"><ele>112.9</ele><time>2026-07-25T15:57:03Z</time></trkpt><trkpt lat="58.06202" lon="38.344085"><ele>112.5</ele><time>2026-07-25T15:57:08Z</time></trkpt><trkpt lat="58.06205" lon="38.343955"><ele>113.0</ele><time>2026-07-25T15:57:12Z</time></trkpt><trkpt lat="58.06208" lon="38.343835"><ele>112.9</ele><time>2026-07-25T15:57:16Z</time></trkpt><trkpt lat="58.06212" lon="38.343685"><ele>113.1</ele><time>2026-07-25T15:57:21Z</time></trkpt><trkpt lat="58.06215" lon="38.34355"><ele>112.8</ele><time>2026-07-25T15:57:25Z</time></trkpt><trkpt lat="58.062185" lon="38.343405"><ele>113.3</ele><time>2026-07-25T15:57:30Z</time></trkpt><trkpt lat="58.06224" lon="38.343275"><ele>113.7</ele><time>2026-07-25T15:57:35Z</time></trkpt><trkpt lat="58.06229" lon="38.34314"><ele>113.4</ele><time>2026-07-25T15:57:40Z</time></trkpt><trkpt lat="58.062325" lon="38.343025"><ele>113.3</ele><time>2026-07-25T15:57:44Z</time></trkpt><trkpt lat="58.06237" lon="38.342905"><ele>113.4</ele><time>2026-07-25T15:57:48Z</time></trkpt><trkpt lat="58.06241" lon="38.34279"><ele>114.0</ele><time>2026-07-25T15:57:52Z</time></trkpt><trkpt lat="58.062455" lon="38.34267"><ele>114.5</ele><time>2026-07-25T15:57:56Z</time></trkpt><trkpt lat="58.062482" lon="38.342545"><ele>114.0</ele><time>2026-07-25T15:58:00Z</time></trkpt><trkpt lat="58.062535" lon="38.34241"><ele>113.7</ele><time>2026-07-25T15:58:05Z</time></trkpt><trkpt lat="58.06258" lon="38.342275"><ele>113.6</ele><time>2026-07-25T15:58:10Z</time></trkpt><trkpt lat="58.062625" lon="38.342125"><ele>112.5</ele><time>2026-07-25T15:58:15Z</time></trkpt><trkpt lat="58.062665" lon="38.34198"><ele>112.9</ele><time>2026-07-25T15:58:20Z</time></trkpt><trkpt lat="58.062695" lon="38.341855"><ele>113.0</ele><time>2026-07-25T15:58:24Z</time></trkpt><trkpt lat="58.062725" lon="38.341705"><ele>113.0</ele><time>2026-07-25T15:58:29Z</time></trkpt><trkpt lat="58.062765" lon="38.34156"><ele>112.6</ele><time>2026-07-25T15:58:34Z</time></trkpt><trkpt lat="58.06279" lon="38.34141"><ele>112.5</ele><time>2026-07-25T15:58:39Z</time></trkpt><trkpt lat="58.062815" lon="38.34125"><ele>112.5</ele><time>2026-07-25T15:58:44Z</time></trkpt><trkpt lat="58.06284" lon="38.34109"><ele>112.4</ele><time>2026-07-25T15:58:49Z</time></trkpt><trkpt lat="58.06286" lon="38.340925"><ele>112.3</ele><time>2026-07-25T15:58:54Z</time></trkpt><trkpt lat="58.06289" lon="38.34077"><ele>112.3</ele><time>2026-07-25T15:58:59Z</time></trkpt><trkpt lat="58.062915" lon="38.340615"><ele>112.3</ele><time>2026-07-25T15:59:04Z</time></trkpt><trkpt lat="58.062932" lon="38.34046"><ele>112.8</ele><time>2026-07-25T15:59:09Z</time></trkpt><trkpt lat="58.062965" lon="38.340305"><ele>113.1</ele><time>2026-07-25T15:59:14Z</time></trkpt><trkpt lat="58.062985" lon="38.34015"><ele>113.0</ele><time>2026-07-25T15:59:19Z</time></trkpt><trkpt lat="58.063005" lon="38.34"><ele>113.3</ele><time>2026-07-25T15:59:24Z</time></trkpt><trkpt lat="58.063015" lon="38.33985"><ele>112.7</ele><time>2026-07-25T15:59:29Z</time></trkpt><trkpt lat="58.063035" lon="38.339705"><ele>113.0</ele><time>2026-07-25T15:59:34Z</time></trkpt><trkpt lat="58.06305" lon="38.339555"><ele>112.7</ele><time>2026-07-25T15:59:39Z</time></trkpt><trkpt lat="58.06307" lon="38.339395"><ele>112.3</ele><time>2026-07-25T15:59:44Z</time></trkpt><trkpt lat="58.063085" lon="38.33924"><ele>111.8</ele><time>2026-07-25T15:59:49Z</time></trkpt><trkpt lat="58.063115" lon="38.339075"><ele>112.1</ele><time>2026-07-25T15:59:54Z</time></trkpt><trkpt lat="58.06314" lon="38.33893"><ele>112.3</ele><time>2026-07-25T15:59:59Z</time></trkpt><trkpt lat="58.06316" lon="38.338775"><ele>113.2</ele><time>2026-07-25T16:00:04Z</time></trkpt><trkpt lat="58.063195" lon="38.338625"><ele>113.2</ele><time>2026-07-25T16:00:09Z</time></trkpt><trkpt lat="58.06323" lon="38.338485"><ele>113.3</ele><time>2026-07-25T16:00:14Z</time></trkpt><trkpt lat="58.06326" lon="38.338335"><ele>113.5</ele><time>2026-07-25T16:00:19Z</time></trkpt><trkpt lat="58.063295" lon="38.33819"><ele>113.9</ele><time>2026-07-25T16:00:24Z</time></trkpt><trkpt lat="58.063312" lon="38.338045"><ele>114.2</ele><time>2026-07-25T16:00:29Z</time></trkpt><trkpt lat="58.063345" lon="38.3379"><ele>113.8</ele><time>2026-07-25T16:00:34Z</time></trkpt><trkpt lat="58.063365" lon="38.33774"><ele>113.7</ele><time>2026-07-25T16:00:39Z</time></trkpt><trkpt lat="58.063395" lon="38.337585"><ele>113.5</ele><time>2026-07-25T16:00:44Z</time></trkpt><trkpt lat="58.063425" lon="38.33743"><ele>113.6</ele><time>2026-07-25T16:00:49Z</time></trkpt><trkpt lat="58.063455" lon="38.337275"><ele>114.2</ele><time>2026-07-25T16:00:54Z</time></trkpt><trkpt lat="58.063485" lon="38.33712"><ele>114.2</ele><time>2026-07-25T16:00:59Z</time></trkpt><trkpt lat="58.06352" lon="38.33699"><ele>114.2</ele><time>2026-07-25T16:01:04Z</time></trkpt><trkpt lat="58.063555" lon="38.33685"><ele>113.8</ele><time>2026-07-25T16:01:09Z</time></trkpt><trkpt lat="58.063595" lon="38.336705"><ele>113.5</ele><time>2026-07-25T16:01:14Z</time></trkpt><trkpt lat="58.063623" lon="38.336555"><ele>113.7</ele><time>2026-07-25T16:01:19Z</time></trkpt><trkpt lat="58.063665" lon="38.33643"><ele>113.4</ele><time>2026-07-25T16:01:23Z</time></trkpt><trkpt lat="58.06369" lon="38.336305"><ele>113.3</ele><time>2026-07-25T16:01:27Z</time></trkpt><trkpt lat="58.063725" lon="38.33618"><ele>113.2</ele><time>2026-07-25T16:01:31Z</time></trkpt><trkpt lat="58.063755" lon="38.33605"><ele>113.1</ele><time>2026-07-25T16:01:35Z</time></trkpt><trkpt lat="58.06379" lon="38.335895"><ele>113.2</ele><time>2026-07-25T16:01:40Z</time></trkpt><trkpt lat="58.063825" lon="38.33574"><ele>113.5</ele><time>2026-07-25T16:01:45Z</time></trkpt><trkpt lat="58.063845" lon="38.33561"><ele>113.6</ele><time>2026-07-25T16:01:49Z</time></trkpt><trkpt lat="58.063885" lon="38.335485"><ele>113.5</ele><time>2026-07-25T16:01:53Z</time></trkpt><trkpt lat="58.06391" lon="38.335355"><ele>113.6</ele><time>2026-07-25T16:01:57Z</time></trkpt><trkpt lat="58.063945" lon="38.335205"><ele>113.6</ele><time>2026-07-25T16:02:02Z</time></trkpt><trkpt lat="58.06398" lon="38.335065"><ele>113.2</ele><time>2026-07-25T16:02:08Z</time></trkpt><trkpt lat="58.064003" lon="38.334925"><ele>113.0</ele><time>2026-07-25T16:02:13Z</time></trkpt><trkpt lat="58.06404" lon="38.334775"><ele>113.4</ele><time>2026-07-25T16:02:18Z</time></trkpt><trkpt lat="58.06407" lon="38.33462"><ele>113.9</ele><time>2026-07-25T16:02:23Z</time></trkpt><trkpt lat="58.06411" lon="38.334475"><ele>113.5</ele><time>2026-07-25T16:02:28Z</time></trkpt><trkpt lat="58.064145" lon="38.334335"><ele>113.2</ele><time>2026-07-25T16:02:33Z</time></trkpt><trkpt lat="58.064175" lon="38.33419"><ele>113.0</ele><time>2026-07-25T16:02:38Z</time></trkpt><trkpt lat="58.06421" lon="38.33404"><ele>113.1</ele><time>2026-07-25T16:02:43Z</time></trkpt><trkpt lat="58.06424" lon="38.333907"><ele>113.1</ele><time>2026-07-25T16:02:48Z</time></trkpt><trkpt lat="58.06426" lon="38.33377"><ele>113.1</ele><time>2026-07-25T16:02:54Z</time></trkpt><trkpt lat="58.064285" lon="38.333635"><ele>113.4</ele><time>2026-07-25T16:03:00Z</time></trkpt><trkpt lat="58.06431" lon="38.33348"><ele>113.7</ele><time>2026-07-25T16:03:05Z</time></trkpt><trkpt lat="58.064335" lon="38.33333"><ele>113.9</ele><time>2026-07-25T16:03:10Z</time></trkpt><trkpt lat="58.06437" lon="38.33318"><ele>114.1</ele><time>2026-07-25T16:03:15Z</time></trkpt><trkpt lat="58.064405" lon="38.333055"><ele>114.6</ele><time>2026-07-25T16:03:19Z</time></trkpt><trkpt lat="58.064445" lon="38.33292"><ele>114.6</ele><time>2026-07-25T16:03:23Z</time></trkpt><trkpt lat="58.06448" lon="38.332795"><ele>114.4</ele><time>2026-07-25T16:03:27Z</time></trkpt><trkpt lat="58.064515" lon="38.33265"><ele>114.9</ele><time>2026-07-25T16:03:32Z</time></trkpt><trkpt lat="58.064555" lon="38.3325"><ele>114.7</ele><time>2026-07-25T16:03:37Z</time></trkpt><trkpt lat="58.06459" lon="38.33235"><ele>114.4</ele><time>2026-07-25T16:03:42Z</time></trkpt><trkpt lat="58.064625" lon="38.3322"><ele>114.2</ele><time>2026-07-25T16:03:47Z</time></trkpt><trkpt lat="58.06467" lon="38.332055"><ele>113.8</ele><time>2026-07-25T16:03:52Z</time></trkpt><trkpt lat="58.06471" lon="38.331905"><ele>113.8</ele><time>2026-07-25T16:03:57Z</time></trkpt><trkpt lat="58.06475" lon="38.33176"><ele>114.0</ele><time>2026-07-25T16:04:02Z</time></trkpt><trkpt lat="58.06479" lon="38.331615"><ele>113.8</ele><time>2026-07-25T16:04:07Z</time></trkpt><trkpt lat="58.06483" lon="38.33148"><ele>113.8</ele><time>2026-07-25T16:04:12Z</time></trkpt><trkpt lat="58.064875" lon="38.33133"><ele>113.7</ele><time>2026-07-25T16:04:17Z</time></trkpt><trkpt lat="58.064915" lon="38.331195"><ele>113.9</ele><time>2026-07-25T16:04:22Z</time></trkpt><trkpt lat="58.06496" lon="38.331055"><ele>113.9</ele><time>2026-07-25T16:04:27Z</time></trkpt><trkpt lat="58.06501" lon="38.33092"><ele>114.1</ele><time>2026-07-25T16:04:32Z</time></trkpt><trkpt lat="58.065055" lon="38.330785"><ele>114.1</ele><time>2026-07-25T16:04:37Z</time></trkpt><trkpt lat="58.065105" lon="38.33064"><ele>113.9</ele><time>2026-07-25T16:04:42Z</time></trkpt><trkpt lat="58.06514" lon="38.33052"><ele>113.6</ele><time>2026-07-25T16:04:46Z</time></trkpt><trkpt lat="58.065185" lon="38.330375"><ele>113.7</ele><time>2026-07-25T16:04:51Z</time></trkpt><trkpt lat="58.06523" lon="38.330245"><ele>113.7</ele><time>2026-07-25T16:04:56Z</time></trkpt><trkpt lat="58.06528" lon="38.33012"><ele>113.6</ele><time>2026-07-25T16:05:01Z</time></trkpt><trkpt lat="58.06532" lon="38.33001"><ele>114.0</ele><time>2026-07-25T16:05:05Z</time></trkpt><trkpt lat="58.065355" lon="38.329885"><ele>114.0</ele><time>2026-07-25T16:05:09Z</time></trkpt><trkpt lat="58.065385" lon="38.329755"><ele>113.9</ele><time>2026-07-25T16:05:13Z</time></trkpt><trkpt lat="58.065415" lon="38.329588"><ele>113.9</ele><time>2026-07-25T16:05:18Z</time></trkpt><trkpt lat="58.065455" lon="38.329435"><ele>113.8</ele><time>2026-07-25T16:05:23Z</time></trkpt><trkpt lat="58.065495" lon="38.32929"><ele>113.7</ele><time>2026-07-25T16:05:28Z</time></trkpt><trkpt lat="58.065545" lon="38.32917"><ele>113.6</ele><time>2026-07-25T16:05:33Z</time></trkpt><trkpt lat="58.06559" lon="38.329055"><ele>113.2</ele><time>2026-07-25T16:05:38Z</time></trkpt><trkpt lat="58.06565" lon="38.32894"><ele>113.0</ele><time>2026-07-25T16:05:43Z</time></trkpt><trkpt lat="58.06571" lon="38.32883"><ele>113.0</ele><time>2026-07-25T16:05:48Z</time></trkpt><trkpt lat="58.06577" lon="38.32872"><ele>113.7</ele><time>2026-07-25T16:05:53Z</time></trkpt><trkpt lat="58.065815" lon="38.3286"><ele>113.3</ele><time>2026-07-25T16:05:58Z</time></trkpt><trkpt lat="58.065875" lon="38.328485"><ele>113.3</ele><time>2026-07-25T16:06:03Z</time></trkpt><trkpt lat="58.06593" lon="38.328375"><ele>113.6</ele><time>2026-07-25T16:06:08Z</time></trkpt><trkpt lat="58.06599" lon="38.32828"><ele>113.5</ele><time>2026-07-25T16:06:13Z</time></trkpt><trkpt lat="58.066055" lon="38.328175"><ele>113.6</ele><time>2026-07-25T16:06:18Z</time></trkpt><trkpt lat="58.066115" lon="38.328085"><ele>113.7</ele><time>2026-07-25T16:06:23Z</time></trkpt><trkpt lat="58.066185" lon="38.327985"><ele>112.9</ele><time>2026-07-25T16:06:28Z</time></trkpt><trkpt lat="58.066245" lon="38.327895"><ele>114.0</ele><time>2026-07-25T16:06:33Z</time></trkpt><trkpt lat="58.06631" lon="38.3278"><ele>114.5</ele><time>2026-07-25T16:06:38Z</time></trkpt><trkpt lat="58.066375" lon="38.327705"><ele>114.6</ele><time>2026-07-25T16:06:43Z</time></trkpt><trkpt lat="58.06644" lon="38.32761"><ele>114.1</ele><time>2026-07-25T16:06:48Z</time></trkpt><trkpt lat="58.066495" lon="38.327525"><ele>113.2</ele><time>2026-07-25T16:06:52Z</time></trkpt><trkpt lat="58.06655" lon="38.327435"><ele>113.5</ele><time>2026-07-25T16:06:56Z</time></trkpt><trkpt lat="58.066615" lon="38.32732"><ele>113.3</ele><time>2026-07-25T16:07:01Z</time></trkpt><trkpt lat="58.06668" lon="38.327215"><ele>113.7</ele><time>2026-07-25T16:07:06Z</time></trkpt><trkpt lat="58.066745" lon="38.3271"><ele>113.6</ele><time>2026-07-25T16:07:11Z</time></trkpt><trkpt lat="58.066802" lon="38.327025"><ele>113.6</ele><time>2026-07-25T16:07:16Z</time></trkpt><trkpt lat="58.066885" lon="38.32697"><ele>114.5</ele><time>2026-07-25T16:07:22Z</time></trkpt><trkpt lat="58.06697" lon="38.326915"><ele>114.5</ele><time>2026-07-25T16:07:28Z</time></trkpt><trkpt lat="58.06704" lon="38.32686"><ele>113.7</ele><time>2026-07-25T16:07:33Z</time></trkpt><trkpt lat="58.0671" lon="38.326805"><ele>114.0</ele><time>2026-07-25T16:07:38Z</time></trkpt><trkpt lat="58.067175" lon="38.326745"><ele>114.3</ele><time>2026-07-25T16:07:43Z</time></trkpt><trkpt lat="58.067245" lon="38.326675"><ele>113.9</ele><time>2026-07-25T16:07:48Z</time></trkpt><trkpt lat="58.06732" lon="38.3266"><ele>114.1</ele><time>2026-07-25T16:07:53Z</time></trkpt><trkpt lat="58.06739" lon="38.32653"><ele>113.6</ele><time>2026-07-25T16:07:58Z</time></trkpt><trkpt lat="58.067465" lon="38.32646"><ele>113.9</ele><time>2026-07-25T16:08:03Z</time></trkpt><trkpt lat="58.067535" lon="38.326385"><ele>114.3</ele><time>2026-07-25T16:08:08Z</time></trkpt><trkpt lat="58.067605" lon="38.32631"><ele>114.0</ele><time>2026-07-25T16:08:13Z</time></trkpt><trkpt lat="58.067675" lon="38.326235"><ele>114.0</ele><time>2026-07-25T16:08:18Z</time></trkpt><trkpt lat="58.06775" lon="38.326175"><ele>114.0</ele><time>2026-07-25T16:08:23Z</time></trkpt><trkpt lat="58.06783" lon="38.326115"><ele>114.0</ele><time>2026-07-25T16:08:28Z</time></trkpt><trkpt lat="58.067905" lon="38.326055"><ele>113.6</ele><time>2026-07-25T16:08:33Z</time></trkpt><trkpt lat="58.067985" lon="38.325995"><ele>113.8</ele><time>2026-07-25T16:08:38Z</time></trkpt><trkpt lat="58.068065" lon="38.32594"><ele>113.9</ele><time>2026-07-25T16:08:43Z</time></trkpt><trkpt lat="58.06814" lon="38.32589"><ele>113.9</ele><time>2026-07-25T16:08:48Z</time></trkpt><trkpt lat="58.06821" lon="38.325845"><ele>114.1</ele><time>2026-07-25T16:08:53Z</time></trkpt><trkpt lat="58.068285" lon="38.325795"><ele>113.6</ele><time>2026-07-25T16:08:58Z</time></trkpt><trkpt lat="58.06836" lon="38.325735"><ele>113.8</ele><time>2026-07-25T16:09:03Z</time></trkpt><trkpt lat="58.068425" lon="38.325665"><ele>113.3</ele><time>2026-07-25T16:09:08Z</time></trkpt><trkpt lat="58.068495" lon="38.3256"><ele>113.2</ele><time>2026-07-25T16:09:13Z</time></trkpt><trkpt lat="58.068565" lon="38.32553"><ele>113.8</ele><time>2026-07-25T16:09:18Z</time></trkpt><trkpt lat="58.068635" lon="38.325455"><ele>113.6</ele><time>2026-07-25T16:09:23Z</time></trkpt><trkpt lat="58.068703" lon="38.325385"><ele>113.5</ele><time>2026-07-25T16:09:28Z</time></trkpt><trkpt lat="58.068772" lon="38.325305"><ele>113.9</ele><time>2026-07-25T16:09:33Z</time></trkpt><trkpt lat="58.068843" lon="38.325225"><ele>114.3</ele><time>2026-07-25T16:09:38Z</time></trkpt><trkpt lat="58.068925" lon="38.32515"><ele>114.2</ele><time>2026-07-25T16:09:43Z</time></trkpt><trkpt lat="58.068995" lon="38.325085"><ele>114.4</ele><time>2026-07-25T16:09:48Z</time></trkpt><trkpt lat="58.06906" lon="38.325025"><ele>114.3</ele><time>2026-07-25T16:09:53Z</time></trkpt><trkpt lat="58.06913" lon="38.32497"><ele>114.1</ele><time>2026-07-25T16:09:58Z</time></trkpt><trkpt lat="58.0692" lon="38.32493"><ele>114.1</ele><time>2026-07-25T16:10:03Z</time></trkpt><trkpt lat="58.06928" lon="38.32487"><ele>114.4</ele><time>2026-07-25T16:10:09Z</time></trkpt><trkpt lat="58.069345" lon="38.324815"><ele>114.1</ele><time>2026-07-25T16:10:14Z</time></trkpt><trkpt lat="58.069415" lon="38.32475"><ele>114.2</ele><time>2026-07-25T16:10:21Z</time></trkpt><trkpt lat="58.06946" lon="38.32469"><ele>113.9</ele><time>2026-07-25T16:10:28Z</time></trkpt><trkpt lat="58.06951" lon="38.32462"><ele>114.0</ele><time>2026-07-25T16:10:35Z</time></trkpt><trkpt lat="58.06953" lon="38.32456"><ele>113.5</ele><time>2026-07-25T16:10:42Z</time></trkpt><trkpt lat="58.069545" lon="38.32454"><ele>114.3</ele><time>2026-07-25T16:10:45Z</time></trkpt><trkpt lat="58.069545" lon="38.324495"><ele>115.8</ele><time>2026-07-25T16:10:53Z</time></trkpt><trkpt lat="58.06957" lon="38.324455"><ele>114.5</ele><time>2026-07-25T16:11:00Z</time></trkpt><trkpt lat="58.06958" lon="38.32442"><ele>114.4</ele><time>2026-07-25T16:11:05Z</time></trkpt><trkpt lat="58.0696" lon="38.32436"><ele>114.2</ele><time>2026-07-25T16:11:12Z</time></trkpt><trkpt lat="58.069675" lon="38.324315"><ele>114.5</ele><time>2026-07-25T16:11:19Z</time></trkpt><trkpt lat="58.069745" lon="38.324275"><ele>114.4</ele><time>2026-07-25T16:11:25Z</time></trkpt><trkpt lat="58.069825" lon="38.32424"><ele>114.4</ele><time>2026-07-25T16:11:31Z</time></trkpt><trkpt lat="58.0699" lon="38.32421"><ele>113.8</ele><time>2026-07-25T16:11:36Z</time></trkpt><trkpt lat="58.06997" lon="38.324175"><ele>114.1</ele><time>2026-07-25T16:11:41Z</time></trkpt><trkpt lat="58.07004" lon="38.32414"><ele>114.1</ele><time>2026-07-25T16:11:46Z</time></trkpt><trkpt lat="58.070115" lon="38.32411"><ele>113.9</ele><time>2026-07-25T16:11:51Z</time></trkpt><trkpt lat="58.070185" lon="38.324075"><ele>114.1</ele><time>2026-07-25T16:11:56Z</time></trkpt><trkpt lat="58.070255" lon="38.324055"><ele>114.2</ele><time>2026-07-25T16:12:01Z</time></trkpt><trkpt lat="58.070325" lon="38.32403"><ele>114.1</ele><time>2026-07-25T16:12:06Z</time></trkpt><trkpt lat="58.070395" lon="38.324"><ele>114.0</ele><time>2026-07-25T16:12:11Z</time></trkpt><trkpt lat="58.07048" lon="38.323955"><ele>114.0</ele><time>2026-07-25T16:12:17Z</time></trkpt><trkpt lat="58.07055" lon="38.323915"><ele>114.1</ele><time>2026-07-25T16:12:22Z</time></trkpt><trkpt lat="58.07062" lon="38.32387"><ele>114.2</ele><time>2026-07-25T16:12:27Z</time></trkpt><trkpt lat="58.070695" lon="38.32382"><ele>114.4</ele><time>2026-07-25T16:12:32Z</time></trkpt><trkpt lat="58.07076" lon="38.323775"><ele>114.9</ele><time>2026-07-25T16:12:37Z</time></trkpt><trkpt lat="58.07083" lon="38.323735"><ele>115.4</ele><time>2026-07-25T16:12:42Z</time></trkpt><trkpt lat="58.070915" lon="38.323677"><ele>116.1</ele><time>2026-07-25T16:12:47Z</time></trkpt><trkpt lat="58.070985" lon="38.32364"><ele>116.6</ele><time>2026-07-25T16:12:52Z</time></trkpt><trkpt lat="58.07105" lon="38.32359"><ele>115.8</ele><time>2026-07-25T16:12:57Z</time></trkpt><trkpt lat="58.071122" lon="38.32354"><ele>115.6</ele><time>2026-07-25T16:13:02Z</time></trkpt><trkpt lat="58.071205" lon="38.323505"><ele>114.9</ele><time>2026-07-25T16:13:07Z</time></trkpt><trkpt lat="58.071275" lon="38.32347"><ele>114.9</ele><time>2026-07-25T16:13:12Z</time></trkpt><trkpt lat="58.071345" lon="38.32344"><ele>115.9</ele><time>2026-07-25T16:13:17Z</time></trkpt><trkpt lat="58.07142" lon="38.32341"><ele>115.7</ele><time>2026-07-25T16:13:22Z</time></trkpt><trkpt lat="58.071495" lon="38.32338"><ele>115.4</ele><time>2026-07-25T16:13:27Z</time></trkpt><trkpt lat="58.07157" lon="38.32335"><ele>115.3</ele><time>2026-07-25T16:13:32Z</time></trkpt><trkpt lat="58.07164" lon="38.323315"><ele>114.8</ele><time>2026-07-25T16:13:37Z</time></trkpt><trkpt lat="58.071715" lon="38.32328"><ele>115.3</ele><time>2026-07-25T16:13:42Z</time></trkpt><trkpt lat="58.07179" lon="38.323225"><ele>115.5</ele><time>2026-07-25T16:13:47Z</time></trkpt><trkpt lat="58.07187" lon="38.32318"><ele>115.2</ele><time>2026-07-25T16:13:53Z</time></trkpt><trkpt lat="58.07194" lon="38.323125"><ele>115.9</ele><time>2026-07-25T16:13:59Z</time></trkpt><trkpt lat="58.07201" lon="38.32306"><ele>115.5</ele><time>2026-07-25T16:14:05Z</time></trkpt><trkpt lat="58.072085" lon="38.323"><ele>115.5</ele><time>2026-07-25T16:14:11Z</time></trkpt><trkpt lat="58.072155" lon="38.322955"><ele>116.1</ele><time>2026-07-25T16:14:16Z</time></trkpt><trkpt lat="58.072235" lon="38.322915"><ele>115.9</ele><time>2026-07-25T16:14:21Z</time></trkpt><trkpt lat="58.072315" lon="38.32286"><ele>115.7</ele><time>2026-07-25T16:14:27Z</time></trkpt><trkpt lat="58.07239" lon="38.32282"><ele>115.5</ele><time>2026-07-25T16:14:33Z</time></trkpt><trkpt lat="58.072465" lon="38.322795"><ele>115.6</ele><time>2026-07-25T16:14:38Z</time></trkpt><trkpt lat="58.072545" lon="38.322765"><ele>115.8</ele><time>2026-07-25T16:14:43Z</time></trkpt><trkpt lat="58.072625" lon="38.322735"><ele>115.0</ele><time>2026-07-25T16:14:48Z</time></trkpt><trkpt lat="58.0727" lon="38.322693"><ele>115.2</ele><time>2026-07-25T16:14:53Z</time></trkpt><trkpt lat="58.07278" lon="38.322675"><ele>114.3</ele><time>2026-07-25T16:14:59Z</time></trkpt><trkpt lat="58.072855" lon="38.322645"><ele>115.3</ele><time>2026-07-25T16:15:05Z</time></trkpt><trkpt lat="58.072935" lon="38.32262"><ele>115.3</ele><time>2026-07-25T16:15:11Z</time></trkpt><trkpt lat="58.07301" lon="38.3226"><ele>115.1</ele><time>2026-07-25T16:15:17Z</time></trkpt><trkpt lat="58.07309" lon="38.32259"><ele>114.9</ele><time>2026-07-25T16:15:22Z</time></trkpt><trkpt lat="58.073163" lon="38.32257"><ele>114.6</ele><time>2026-07-25T16:15:27Z</time></trkpt><trkpt lat="58.073247" lon="38.32255"><ele>114.9</ele><time>2026-07-25T16:15:32Z</time></trkpt><trkpt lat="58.073335" lon="38.322525"><ele>115.2</ele><time>2026-07-25T16:15:37Z</time></trkpt><trkpt lat="58.073415" lon="38.322485"><ele>114.8</ele><time>2026-07-25T16:15:42Z</time></trkpt><trkpt lat="58.07349" lon="38.32246"><ele>114.7</ele><time>2026-07-25T16:15:47Z</time></trkpt><trkpt lat="58.07357" lon="38.322425"><ele>114.3</ele><time>2026-07-25T16:15:52Z</time></trkpt><trkpt lat="58.07364" lon="38.322395"><ele>114.0</ele><time>2026-07-25T16:15:57Z</time></trkpt><trkpt lat="58.073725" lon="38.322365"><ele>113.9</ele><time>2026-07-25T16:16:02Z</time></trkpt><trkpt lat="58.073805" lon="38.32233"><ele>114.2</ele><time>2026-07-25T16:16:07Z</time></trkpt><trkpt lat="58.07389" lon="38.322305"><ele>114.0</ele><time>2026-07-25T16:16:12Z</time></trkpt><trkpt lat="58.073965" lon="38.322275"><ele>113.9</ele><time>2026-07-25T16:16:17Z</time></trkpt><trkpt lat="58.07405" lon="38.32224"><ele>113.6</ele><time>2026-07-25T16:16:23Z</time></trkpt><trkpt lat="58.07412" lon="38.322205"><ele>114.4</ele><time>2026-07-25T16:16:28Z</time></trkpt><trkpt lat="58.07419" lon="38.32217"><ele>114.5</ele><time>2026-07-25T16:16:33Z</time></trkpt><trkpt lat="58.074275" lon="38.32213"><ele>113.9</ele><time>2026-07-25T16:16:39Z</time></trkpt><trkpt lat="58.074355" lon="38.322115"><ele>114.9</ele><time>2026-07-25T16:16:45Z</time></trkpt><trkpt lat="58.07443" lon="38.322115"><ele>114.7</ele><time>2026-07-25T16:16:50Z</time></trkpt><trkpt lat="58.07451" lon="38.322115"><ele>115.1</ele><time>2026-07-25T16:16:55Z</time></trkpt><trkpt lat="58.074585" lon="38.322115"><ele>115.1</ele><time>2026-07-25T16:17:00Z</time></trkpt><trkpt lat="58.074665" lon="38.322115"><ele>114.6</ele><time>2026-07-25T16:17:05Z</time></trkpt><trkpt lat="58.074735" lon="38.322115"><ele>114.0</ele><time>2026-07-25T16:17:10Z</time></trkpt><trkpt lat="58.074815" lon="38.322115"><ele>114.3</ele><time>2026-07-25T16:17:16Z</time></trkpt><trkpt lat="58.074905" lon="38.322105"><ele>114.9</ele><time>2026-07-25T16:17:22Z</time></trkpt><trkpt lat="58.07498" lon="38.322085"><ele>114.9</ele><time>2026-07-25T16:17:27Z</time></trkpt><trkpt lat="58.07506" lon="38.322065"><ele>114.5</ele><time>2026-07-25T16:17:32Z</time></trkpt><trkpt lat="58.075145" lon="38.322045"><ele>115.0</ele><time>2026-07-25T16:17:37Z</time></trkpt><trkpt lat="58.075215" lon="38.322015"><ele>115.7</ele><time>2026-07-25T16:17:42Z</time></trkpt><trkpt lat="58.075285" lon="38.322015"><ele>116.1</ele><time>2026-07-25T16:17:47Z</time></trkpt><trkpt lat="58.07537" lon="38.322015"><ele>116.2</ele><time>2026-07-25T16:17:52Z</time></trkpt><trkpt lat="58.07544" lon="38.32201"><ele>116.4</ele><time>2026-07-25T16:17:57Z</time></trkpt><trkpt lat="58.07551" lon="38.32201"><ele>116.8</ele><time>2026-07-25T16:18:02Z</time></trkpt><trkpt lat="58.075595" lon="38.322"><ele>116.5</ele><time>2026-07-25T16:18:08Z</time></trkpt><trkpt lat="58.07568" lon="38.32197"><ele>117.4</ele><time>2026-07-25T16:18:13Z</time></trkpt><trkpt lat="58.075755" lon="38.321965"><ele>115.4</ele><time>2026-07-25T16:18:20Z</time></trkpt><trkpt lat="58.075823" lon="38.321965"><ele>114.7</ele><time>2026-07-25T16:18:26Z</time></trkpt><trkpt lat="58.07591" lon="38.32195"><ele>114.6</ele><time>2026-07-25T16:18:33Z</time></trkpt><trkpt lat="58.075975" lon="38.321925"><ele>114.2</ele><time>2026-07-25T16:18:40Z</time></trkpt><trkpt lat="58.076045" lon="38.3219"><ele>114.4</ele><time>2026-07-25T16:18:47Z</time></trkpt><trkpt lat="58.076115" lon="38.321885"><ele>114.0</ele><time>2026-07-25T16:18:53Z</time></trkpt><trkpt lat="58.0762" lon="38.32186"><ele>113.7</ele><time>2026-07-25T16:19:00Z</time></trkpt><trkpt lat="58.076265" lon="38.32188"><ele>115.7</ele><time>2026-07-25T16:19:07Z</time></trkpt><trkpt lat="58.07633" lon="38.321895"><ele>115.7</ele><time>2026-07-25T16:19:14Z</time></trkpt><trkpt lat="58.07641" lon="38.321925"><ele>115.9</ele><time>2026-07-25T16:19:21Z</time></trkpt><trkpt lat="58.076485" lon="38.32195"><ele>116.0</ele><time>2026-07-25T16:19:27Z</time></trkpt><trkpt lat="58.076565" lon="38.32195"><ele>115.9</ele><time>2026-07-25T16:19:33Z</time></trkpt><trkpt lat="58.07664" lon="38.32195"><ele>115.5</ele><time>2026-07-25T16:19:39Z</time></trkpt><trkpt lat="58.07672" lon="38.321945"><ele>115.5</ele><time>2026-07-25T16:19:45Z</time></trkpt><trkpt lat="58.076795" lon="38.32195"><ele>117.3</ele><time>2026-07-25T16:19:50Z</time></trkpt><trkpt lat="58.076865" lon="38.32195"><ele>116.8</ele><time>2026-07-25T16:19:56Z</time></trkpt><trkpt lat="58.07694" lon="38.32192"><ele>116.4</ele><time>2026-07-25T16:20:02Z</time></trkpt><trkpt lat="58.07698" lon="38.32191"><ele>115.0</ele><time>2026-07-25T16:20:09Z</time></trkpt><trkpt lat="58.077065" lon="38.32189"><ele>114.0</ele><time>2026-07-25T16:20:14Z</time></trkpt><trkpt lat="58.077155" lon="38.321855"><ele>114.2</ele><time>2026-07-25T16:20:19Z</time></trkpt><trkpt lat="58.07723" lon="38.321825"><ele>114.6</ele><time>2026-07-25T16:20:24Z</time></trkpt><trkpt lat="58.077305" lon="38.321815"><ele>114.3</ele><time>2026-07-25T16:20:29Z</time></trkpt><trkpt lat="58.077385" lon="38.321795"><ele>114.6</ele><time>2026-07-25T16:20:34Z</time></trkpt><trkpt lat="58.077455" lon="38.321775"><ele>114.6</ele><time>2026-07-25T16:20:39Z</time></trkpt><trkpt lat="58.077535" lon="38.321745"><ele>114.9</ele><time>2026-07-25T16:20:45Z</time></trkpt><trkpt lat="58.07762" lon="38.32172"><ele>114.8</ele><time>2026-07-25T16:20:51Z</time></trkpt><trkpt lat="58.077695" lon="38.321685"><ele>114.5</ele><time>2026-07-25T16:20:57Z</time></trkpt><trkpt lat="58.077775" lon="38.321637"><ele>114.7</ele><time>2026-07-25T16:21:03Z</time></trkpt><trkpt lat="58.07786" lon="38.32161"><ele>114.8</ele><time>2026-07-25T16:21:09Z</time></trkpt><trkpt lat="58.07793" lon="38.32157"><ele>114.9</ele><time>2026-07-25T16:21:14Z</time></trkpt><trkpt lat="58.07801" lon="38.321525"><ele>114.7</ele><time>2026-07-25T16:21:20Z</time></trkpt><trkpt lat="58.078085" lon="38.32148"><ele>114.7</ele><time>2026-07-25T16:21:26Z</time></trkpt><trkpt lat="58.07817" lon="38.32145"><ele>114.5</ele><time>2026-07-25T16:21:32Z</time></trkpt><trkpt lat="58.07826" lon="38.321405"><ele>114.7</ele><time>2026-07-25T16:21:38Z</time></trkpt><trkpt lat="58.078325" lon="38.32137"><ele>114.7</ele><time>2026-07-25T16:21:43Z</time></trkpt><trkpt lat="58.07841" lon="38.321325"><ele>114.3</ele><time>2026-07-25T16:21:48Z</time></trkpt><trkpt lat="58.078485" lon="38.321305"><ele>114.5</ele><time>2026-07-25T16:21:53Z</time></trkpt><trkpt lat="58.078553" lon="38.32129"><ele>114.5</ele><time>2026-07-25T16:21:58Z</time></trkpt><trkpt lat="58.07864" lon="38.321257"><ele>114.6</ele><time>2026-07-25T16:22:04Z</time></trkpt><trkpt lat="58.078725" lon="38.321235"><ele>114.9</ele><time>2026-07-25T16:22:10Z</time></trkpt><trkpt lat="58.078795" lon="38.32122"><ele>115.0</ele><time>2026-07-25T16:22:15Z</time></trkpt><trkpt lat="58.07888" lon="38.3212"><ele>114.6</ele><time>2026-07-25T16:22:21Z</time></trkpt><trkpt lat="58.078955" lon="38.321175"><ele>114.7</ele><time>2026-07-25T16:22:26Z</time></trkpt><trkpt lat="58.07903" lon="38.32116"><ele>114.6</ele><time>2026-07-25T16:22:31Z</time></trkpt><trkpt lat="58.079105" lon="38.321135"><ele>114.8</ele><time>2026-07-25T16:22:36Z</time></trkpt><trkpt lat="58.079175" lon="38.321115"><ele>114.7</ele><time>2026-07-25T16:22:41Z</time></trkpt><trkpt lat="58.07926" lon="38.321095"><ele>114.8</ele><time>2026-07-25T16:22:47Z</time></trkpt><trkpt lat="58.079335" lon="38.321075"><ele>115.0</ele><time>2026-07-25T16:22:52Z</time></trkpt><trkpt lat="58.07942" lon="38.32107"><ele>115.0</ele><time>2026-07-25T16:22:58Z</time></trkpt><trkpt lat="58.0795" lon="38.321055"><ele>114.9</ele><time>2026-07-25T16:23:03Z</time></trkpt><trkpt lat="58.079575" lon="38.32103"><ele>115.1</ele><time>2026-07-25T16:23:08Z</time></trkpt><trkpt lat="58.07965" lon="38.32101"><ele>114.9</ele><time>2026-07-25T16:23:13Z</time></trkpt><trkpt lat="58.079725" lon="38.32098"><ele>114.4</ele><time>2026-07-25T16:23:18Z</time></trkpt><trkpt lat="58.079805" lon="38.320945"><ele>115.1</ele><time>2026-07-25T16:23:24Z</time></trkpt><trkpt lat="58.07988" lon="38.320905"><ele>114.9</ele><time>2026-07-25T16:23:29Z</time></trkpt><trkpt lat="58.079955" lon="38.320875"><ele>114.4</ele><time>2026-07-25T16:23:34Z</time></trkpt><trkpt lat="58.08003" lon="38.320835"><ele>114.0</ele><time>2026-07-25T16:23:39Z</time></trkpt><trkpt lat="58.0801" lon="38.320795"><ele>114.6</ele><time>2026-07-25T16:23:44Z</time></trkpt><trkpt lat="58.08017" lon="38.320765"><ele>114.7</ele><time>2026-07-25T16:23:49Z</time></trkpt><trkpt lat="58.080245" lon="38.320735"><ele>115.1</ele><time>2026-07-25T16:23:54Z</time></trkpt><trkpt lat="58.080315" lon="38.32071"><ele>116.0</ele><time>2026-07-25T16:23:58Z</time></trkpt><trkpt lat="58.0804" lon="38.320665"><ele>116.9</ele><time>2026-07-25T16:24:04Z</time></trkpt><trkpt lat="58.080475" lon="38.320635"><ele>115.7</ele><time>2026-07-25T16:24:09Z</time></trkpt><trkpt lat="58.08055" lon="38.3206"><ele>115.1</ele><time>2026-07-25T16:24:14Z</time></trkpt><trkpt lat="58.080625" lon="38.32056"><ele>114.7</ele><time>2026-07-25T16:24:19Z</time></trkpt><trkpt lat="58.080705" lon="38.320525"><ele>114.6</ele><time>2026-07-25T16:24:24Z</time></trkpt><trkpt lat="58.080785" lon="38.32049"><ele>114.4</ele><time>2026-07-25T16:24:29Z</time></trkpt><trkpt lat="58.08086" lon="38.320455"><ele>115.7</ele><time>2026-07-25T16:24:34Z</time></trkpt><trkpt lat="58.08094" lon="38.320415"><ele>115.1</ele><time>2026-07-25T16:24:39Z</time></trkpt><trkpt lat="58.08101" lon="38.320375"><ele>115.7</ele><time>2026-07-25T16:24:44Z</time></trkpt><trkpt lat="58.081085" lon="38.32034"><ele>115.4</ele><time>2026-07-25T16:24:49Z</time></trkpt><trkpt lat="58.081155" lon="38.320305"><ele>115.2</ele><time>2026-07-25T16:24:54Z</time></trkpt><trkpt lat="58.081225" lon="38.320265"><ele>115.6</ele><time>2026-07-25T16:24:59Z</time></trkpt><trkpt lat="58.081305" lon="38.320225"><ele>116.2</ele><time>2026-07-25T16:25:04Z</time></trkpt><trkpt lat="58.081385" lon="38.320175"><ele>116.7</ele><time>2026-07-25T16:25:09Z</time></trkpt><trkpt lat="58.081465" lon="38.320135"><ele>115.6</ele><time>2026-07-25T16:25:14Z</time></trkpt><trkpt lat="58.081545" lon="38.3201"><ele>115.7</ele><time>2026-07-25T16:25:19Z</time></trkpt><trkpt lat="58.08162" lon="38.320045"><ele>115.5</ele><time>2026-07-25T16:25:24Z</time></trkpt><trkpt lat="58.081695" lon="38.32002"><ele>115.6</ele><time>2026-07-25T16:25:29Z</time></trkpt><trkpt lat="58.081765" lon="38.31998"><ele>115.2</ele><time>2026-07-25T16:25:34Z</time></trkpt><trkpt lat="58.08185" lon="38.319935"><ele>115.6</ele><time>2026-07-25T16:25:39Z</time></trkpt><trkpt lat="58.081925" lon="38.31989"><ele>115.6</ele><time>2026-07-25T16:25:44Z</time></trkpt><trkpt lat="58.082005" lon="38.31986"><ele>115.9</ele><time>2026-07-25T16:25:49Z</time></trkpt><trkpt lat="58.082085" lon="38.31982"><ele>115.1</ele><time>2026-07-25T16:25:54Z</time></trkpt><trkpt lat="58.082155" lon="38.319775"><ele>115.3</ele><time>2026-07-25T16:25:59Z</time></trkpt><trkpt lat="58.082235" lon="38.31973"><ele>114.1</ele><time>2026-07-25T16:26:04Z</time></trkpt><trkpt lat="58.08231" lon="38.3197"><ele>114.1</ele><time>2026-07-25T16:26:09Z</time></trkpt><trkpt lat="58.082385" lon="38.319665"><ele>114.2</ele><time>2026-07-25T16:26:14Z</time></trkpt><trkpt lat="58.082455" lon="38.31963"><ele>114.0</ele><time>2026-07-25T16:26:19Z</time></trkpt><trkpt lat="58.082535" lon="38.319575"><ele>113.9</ele><time>2026-07-25T16:26:25Z</time></trkpt><trkpt lat="58.082605" lon="38.319525"><ele>113.5</ele><time>2026-07-25T16:26:30Z</time></trkpt><trkpt lat="58.08267" lon="38.31947"><ele>112.8</ele><time>2026-07-25T16:26:35Z</time></trkpt><trkpt lat="58.082745" lon="38.319425"><ele>113.3</ele><time>2026-07-25T16:26:40Z</time></trkpt><trkpt lat="58.082815" lon="38.319375"><ele>112.9</ele><time>2026-07-25T16:26:45Z</time></trkpt><trkpt lat="58.08289" lon="38.319335"><ele>113.3</ele><time>2026-07-25T16:26:50Z</time></trkpt><trkpt lat="58.08296" lon="38.319285"><ele>113.5</ele><time>2026-07-25T16:26:55Z</time></trkpt><trkpt lat="58.083045" lon="38.319265"><ele>113.6</ele><time>2026-07-25T16:27:00Z</time></trkpt><trkpt lat="58.083115" lon="38.319195"><ele>111.9</ele><time>2026-07-25T16:27:04Z</time></trkpt><trkpt lat="58.083185" lon="38.319132"><ele>113.6</ele><time>2026-07-25T16:27:09Z</time></trkpt><trkpt lat="58.08327" lon="38.31909"><ele>111.6</ele><time>2026-07-25T16:27:15Z</time></trkpt><trkpt lat="58.08334" lon="38.31908"><ele>114.8</ele><time>2026-07-25T16:27:21Z</time></trkpt><trkpt lat="58.08342" lon="38.319075"><ele>113.8</ele><time>2026-07-25T16:27:27Z</time></trkpt><trkpt lat="58.0835" lon="38.31904"><ele>113.4</ele><time>2026-07-25T16:27:32Z</time></trkpt><trkpt lat="58.08358" lon="38.31902"><ele>112.9</ele><time>2026-07-25T16:27:37Z</time></trkpt><trkpt lat="58.083655" lon="38.31904"><ele>113.1</ele><time>2026-07-25T16:27:42Z</time></trkpt><trkpt lat="58.08373" lon="38.31909"><ele>112.9</ele><time>2026-07-25T16:27:47Z</time></trkpt><trkpt lat="58.08379" lon="38.31915"><ele>113.3</ele><time>2026-07-25T16:27:52Z</time></trkpt><trkpt lat="58.083857" lon="38.31922"><ele>113.7</ele><time>2026-07-25T16:27:57Z</time></trkpt><trkpt lat="58.083925" lon="38.319285"><ele>113.1</ele><time>2026-07-25T16:28:02Z</time></trkpt><trkpt lat="58.083995" lon="38.31937"><ele>113.0</ele><time>2026-07-25T16:28:08Z</time></trkpt><trkpt lat="58.084065" lon="38.31944"><ele>112.5</ele><time>2026-07-25T16:28:13Z</time></trkpt><trkpt lat="58.084135" lon="38.319505"><ele>112.7</ele><time>2026-07-25T16:28:18Z</time></trkpt><trkpt lat="58.084205" lon="38.319565"><ele>112.8</ele><time>2026-07-25T16:28:23Z</time></trkpt><trkpt lat="58.084265" lon="38.319645"><ele>113.0</ele><time>2026-07-25T16:28:28Z</time></trkpt><trkpt lat="58.084325" lon="38.31975"><ele>113.0</ele><time>2026-07-25T16:28:34Z</time></trkpt><trkpt lat="58.08437" lon="38.319865"><ele>112.5</ele><time>2026-07-25T16:28:39Z</time></trkpt><trkpt lat="58.084425" lon="38.31998"><ele>113.2</ele><time>2026-07-25T16:28:45Z</time></trkpt><trkpt lat="58.084505" lon="38.320045"><ele>113.8</ele><time>2026-07-25T16:28:50Z</time></trkpt><trkpt lat="58.084575" lon="38.32011"><ele>113.3</ele><time>2026-07-25T16:28:55Z</time></trkpt><trkpt lat="58.084645" lon="38.32016"><ele>113.3</ele><time>2026-07-25T16:29:01Z</time></trkpt><trkpt lat="58.084715" lon="38.32022"><ele>113.4</ele><time>2026-07-25T16:29:06Z</time></trkpt><trkpt lat="58.084785" lon="38.32027"><ele>113.1</ele><time>2026-07-25T16:29:11Z</time></trkpt><trkpt lat="58.08486" lon="38.32031"><ele>112.1</ele><time>2026-07-25T16:29:16Z</time></trkpt><trkpt lat="58.08493" lon="38.320355"><ele>111.9</ele><time>2026-07-25T16:29:21Z</time></trkpt><trkpt lat="58.085" lon="38.3204"><ele>112.1</ele><time>2026-07-25T16:29:26Z</time></trkpt><trkpt lat="58.085067" lon="38.320455"><ele>111.7</ele><time>2026-07-25T16:29:31Z</time></trkpt><trkpt lat="58.08515" lon="38.320525"><ele>111.8</ele><time>2026-07-25T16:29:37Z</time></trkpt><trkpt lat="58.085222" lon="38.320585"><ele>112.6</ele><time>2026-07-25T16:29:43Z</time></trkpt><trkpt lat="58.08529" lon="38.32064"><ele>112.8</ele><time>2026-07-25T16:29:49Z</time></trkpt><trkpt lat="58.08536" lon="38.320715"><ele>112.8</ele><time>2026-07-25T16:29:56Z</time></trkpt><trkpt lat="58.085435" lon="38.32078"><ele>112.7</ele><time>2026-07-25T16:30:02Z</time></trkpt><trkpt lat="58.08551" lon="38.32082"><ele>112.9</ele><time>2026-07-25T16:30:08Z</time></trkpt><trkpt lat="58.085585" lon="38.32084"><ele>113.6</ele><time>2026-07-25T16:30:13Z</time></trkpt><trkpt lat="58.085655" lon="38.32085"><ele>113.4</ele><time>2026-07-25T16:30:18Z</time></trkpt><trkpt lat="58.08573" lon="38.320855"><ele>113.2</ele><time>2026-07-25T16:30:23Z</time></trkpt><trkpt lat="58.085805" lon="38.320865"><ele>113.1</ele><time>2026-07-25T16:30:28Z</time></trkpt><trkpt lat="58.08588" lon="38.320875"><ele>112.5</ele><time>2026-07-25T16:30:33Z</time></trkpt><trkpt lat="58.085965" lon="38.320905"><ele>112.5</ele><time>2026-07-25T16:30:39Z</time></trkpt><trkpt lat="58.08604" lon="38.320925"><ele>112.7</ele><time>2026-07-25T16:30:44Z</time></trkpt><trkpt lat="58.08611" lon="38.32095"><ele>113.3</ele><time>2026-07-25T16:30:49Z</time></trkpt><trkpt lat="58.086195" lon="38.320985"><ele>113.4</ele><time>2026-07-25T16:30:55Z</time></trkpt><trkpt lat="58.086275" lon="38.32102"><ele>113.5</ele><time>2026-07-25T16:31:01Z</time></trkpt><trkpt lat="58.086345" lon="38.321055"><ele>114.2</ele><time>2026-07-25T16:31:06Z</time></trkpt><trkpt lat="58.086415" lon="38.321095"><ele>113.7</ele><time>2026-07-25T16:31:11Z</time></trkpt><trkpt lat="58.08649" lon="38.321145"><ele>113.5</ele><time>2026-07-25T16:31:16Z</time></trkpt><trkpt lat="58.086565" lon="38.32119"><ele>113.4</ele><time>2026-07-25T16:31:21Z</time></trkpt><trkpt lat="58.08664" lon="38.32124"><ele>113.0</ele><time>2026-07-25T16:31:26Z</time></trkpt><trkpt lat="58.08672" lon="38.32128"><ele>113.7</ele><time>2026-07-25T16:31:31Z</time></trkpt><trkpt lat="58.086795" lon="38.321315"><ele>113.3</ele><time>2026-07-25T16:31:36Z</time></trkpt><trkpt lat="58.08687" lon="38.321345"><ele>114.1</ele><time>2026-07-25T16:31:41Z</time></trkpt><trkpt lat="58.086945" lon="38.32138"><ele>113.7</ele><time>2026-07-25T16:31:46Z</time></trkpt><trkpt lat="58.08702" lon="38.32141"><ele>113.7</ele><time>2026-07-25T16:31:51Z</time></trkpt><trkpt lat="58.087095" lon="38.321435"><ele>114.0</ele><time>2026-07-25T16:31:56Z</time></trkpt><trkpt lat="58.08717" lon="38.321455"><ele>114.4</ele><time>2026-07-25T16:32:01Z</time></trkpt><trkpt lat="58.08725" lon="38.32148"><ele>114.6</ele><time>2026-07-25T16:32:06Z</time></trkpt><trkpt lat="58.08733" lon="38.32151"><ele>114.6</ele><time>2026-07-25T16:32:11Z</time></trkpt><trkpt lat="58.087405" lon="38.321535"><ele>114.7</ele><time>2026-07-25T16:32:16Z</time></trkpt><trkpt lat="58.087485" lon="38.321555"><ele>114.5</ele><time>2026-07-25T16:32:21Z</time></trkpt><trkpt lat="58.08756" lon="38.32158"><ele>114.6</ele><time>2026-07-25T16:32:26Z</time></trkpt><trkpt lat="58.087635" lon="38.3216"><ele>114.2</ele><time>2026-07-25T16:32:31Z</time></trkpt><trkpt lat="58.08771" lon="38.321615"><ele>114.2</ele><time>2026-07-25T16:32:36Z</time></trkpt><trkpt lat="58.087795" lon="38.321625"><ele>115.5</ele><time>2026-07-25T16:32:42Z</time></trkpt><trkpt lat="58.087865" lon="38.321635"><ele>115.7</ele><time>2026-07-25T16:32:49Z</time></trkpt><trkpt lat="58.087905" lon="38.321685"><ele>115.5</ele><time>2026-07-25T16:32:56Z</time></trkpt><trkpt lat="58.087935" lon="38.321755"><ele>115.3</ele><time>2026-07-25T16:33:03Z</time></trkpt><trkpt lat="58.087995" lon="38.32188"><ele>114.6</ele><time>2026-07-25T16:33:10Z</time></trkpt><trkpt lat="58.08805" lon="38.321995"><ele>114.1</ele><time>2026-07-25T16:33:16Z</time></trkpt><trkpt lat="58.088105" lon="38.322085"><ele>114.5</ele><time>2026-07-25T16:33:21Z</time></trkpt><trkpt lat="58.088165" lon="38.322175"><ele>114.6</ele><time>2026-07-25T16:33:26Z</time></trkpt><trkpt lat="58.088235" lon="38.32226"><ele>114.6</ele><time>2026-07-25T16:33:31Z</time></trkpt><trkpt lat="58.08831" lon="38.32233"><ele>115.4</ele><time>2026-07-25T16:33:36Z</time></trkpt><trkpt lat="58.08838" lon="38.32239"><ele>115.8</ele><time>2026-07-25T16:33:41Z</time></trkpt><trkpt lat="58.088455" lon="38.32244"><ele>115.4</ele><time>2026-07-25T16:33:46Z</time></trkpt><trkpt lat="58.08853" lon="38.32248"><ele>115.7</ele><time>2026-07-25T16:33:51Z</time></trkpt><trkpt lat="58.088605" lon="38.322515"><ele>115.3</ele><time>2026-07-25T16:33:56Z</time></trkpt><trkpt lat="58.08868" lon="38.32253"><ele>115.4</ele><time>2026-07-25T16:34:02Z</time></trkpt><trkpt lat="58.08875" lon="38.32251"><ele>114.8</ele><time>2026-07-25T16:34:09Z</time></trkpt><trkpt lat="58.088805" lon="38.322485"><ele>114.3</ele><time>2026-07-25T16:34:16Z</time></trkpt><trkpt lat="58.08888" lon="38.322465"><ele>114.3</ele><time>2026-07-25T16:34:22Z</time></trkpt><trkpt lat="58.088965" lon="38.322465"><ele>114.2</ele><time>2026-07-25T16:34:27Z</time></trkpt><trkpt lat="58.089045" lon="38.322465"><ele>113.5</ele><time>2026-07-25T16:34:32Z</time></trkpt><trkpt lat="58.089125" lon="38.32248"><ele>112.6</ele><time>2026-07-25T16:34:37Z</time></trkpt><trkpt lat="58.089205" lon="38.322515"><ele>114.1</ele><time>2026-07-25T16:34:42Z</time></trkpt><trkpt lat="58.089285" lon="38.32254"><ele>113.9</ele><time>2026-07-25T16:34:47Z</time></trkpt><trkpt lat="58.089365" lon="38.322555"><ele>113.8</ele><time>2026-07-25T16:34:52Z</time></trkpt><trkpt lat="58.089435" lon="38.322595"><ele>114.4</ele><time>2026-07-25T16:34:56Z</time></trkpt><trkpt lat="58.089505" lon="38.32259"><ele>115.4</ele><time>2026-07-25T16:35:01Z</time></trkpt><trkpt lat="58.089585" lon="38.322575"><ele>115.5</ele><time>2026-07-25T16:35:06Z</time></trkpt><trkpt lat="58.089665" lon="38.322555"><ele>115.0</ele><time>2026-07-25T16:35:11Z</time></trkpt><trkpt lat="58.089745" lon="38.32255"><ele>114.4</ele><time>2026-07-25T16:35:16Z</time></trkpt><trkpt lat="58.08983" lon="38.322555"><ele>114.4</ele><time>2026-07-25T16:35:21Z</time></trkpt><trkpt lat="58.089905" lon="38.322565"><ele>114.4</ele><time>2026-07-25T16:35:26Z</time></trkpt><trkpt lat="58.08998" lon="38.32257"><ele>114.5</ele><time>2026-07-25T16:35:31Z</time></trkpt><trkpt lat="58.090055" lon="38.32257"><ele>114.1</ele><time>2026-07-25T16:35:36Z</time></trkpt><trkpt lat="58.090135" lon="38.32261"><ele>113.9</ele><time>2026-07-25T16:35:41Z</time></trkpt><trkpt lat="58.090205" lon="38.32269"><ele>113.8</ele><time>2026-07-25T16:35:43Z</time></trkpt><trkpt lat="58.09028" lon="38.322655"><ele>113.6</ele><time>2026-07-25T16:35:49Z</time></trkpt><trkpt lat="58.09035" lon="38.322615"><ele>113.4</ele><time>2026-07-25T16:35:54Z</time></trkpt><trkpt lat="58.090435" lon="38.322555"><ele>113.4</ele><time>2026-07-25T16:36:00Z</time></trkpt><trkpt lat="58.090515" lon="38.322555"><ele>112.6</ele><time>2026-07-25T16:36:05Z</time></trkpt><trkpt lat="58.090595" lon="38.32257"><ele>112.3</ele><time>2026-07-25T16:36:10Z</time></trkpt><trkpt lat="58.090685" lon="38.322555"><ele>113.0</ele><time>2026-07-25T16:36:15Z</time></trkpt><trkpt lat="58.090765" lon="38.322555"><ele>113.0</ele><time>2026-07-25T16:36:20Z</time></trkpt><trkpt lat="58.09084" lon="38.322555"><ele>113.4</ele><time>2026-07-25T16:36:25Z</time></trkpt><trkpt lat="58.09092" lon="38.32261"><ele>113.8</ele><time>2026-07-25T16:36:30Z</time></trkpt><trkpt lat="58.090995" lon="38.32258"><ele>114.1</ele><time>2026-07-25T16:36:36Z</time></trkpt><trkpt lat="58.09109" lon="38.322575"><ele>114.4</ele><time>2026-07-25T16:36:41Z</time></trkpt><trkpt lat="58.09116" lon="38.322575"><ele>115.0</ele><time>2026-07-25T16:36:45Z</time></trkpt><trkpt lat="58.091235" lon="38.32257"><ele>115.9</ele><time>2026-07-25T16:36:49Z</time></trkpt><trkpt lat="58.09131" lon="38.322565"><ele>115.7</ele><time>2026-07-25T16:36:53Z</time></trkpt><trkpt lat="58.091385" lon="38.322555"><ele>114.3</ele><time>2026-07-25T16:36:57Z</time></trkpt><trkpt lat="58.09146" lon="38.322555"><ele>114.2</ele><time>2026-07-25T16:37:01Z</time></trkpt><trkpt lat="58.09155" lon="38.322555"><ele>113.6</ele><time>2026-07-25T16:37:06Z</time></trkpt><trkpt lat="58.09164" lon="38.322555"><ele>113.8</ele><time>2026-07-25T16:37:11Z</time></trkpt><trkpt lat="58.091715" lon="38.322565"><ele>114.4</ele><time>2026-07-25T16:37:15Z</time></trkpt><trkpt lat="58.09179" lon="38.322575"><ele>114.4</ele><time>2026-07-25T16:37:19Z</time></trkpt><trkpt lat="58.091865" lon="38.322585"><ele>114.1</ele><time>2026-07-25T16:37:23Z</time></trkpt><trkpt lat="58.09195" lon="38.322595"><ele>113.8</ele><time>2026-07-25T16:37:28Z</time></trkpt><trkpt lat="58.09203" lon="38.3226"><ele>114.6</ele><time>2026-07-25T16:37:33Z</time></trkpt><trkpt lat="58.092105" lon="38.32257"><ele>114.6</ele><time>2026-07-25T16:37:38Z</time></trkpt><trkpt lat="58.092185" lon="38.32259"><ele>114.5</ele><time>2026-07-25T16:37:43Z</time></trkpt><trkpt lat="58.09227" lon="38.3226"><ele>114.0</ele><time>2026-07-25T16:37:48Z</time></trkpt><trkpt lat="58.092342" lon="38.322605"><ele>114.5</ele><time>2026-07-25T16:37:53Z</time></trkpt><trkpt lat="58.09243" lon="38.32262"><ele>115.2</ele><time>2026-07-25T16:37:58Z</time></trkpt><trkpt lat="58.092515" lon="38.322635"><ele>114.8</ele><time>2026-07-25T16:38:03Z</time></trkpt><trkpt lat="58.092595" lon="38.322635"><ele>114.4</ele><time>2026-07-25T16:38:08Z</time></trkpt><trkpt lat="58.09268" lon="38.322622"><ele>114.5</ele><time>2026-07-25T16:38:13Z</time></trkpt><trkpt lat="58.092755" lon="38.32262"><ele>114.4</ele><time>2026-07-25T16:38:18Z</time></trkpt><trkpt lat="58.09283" lon="38.32262"><ele>114.1</ele><time>2026-07-25T16:38:23Z</time></trkpt><trkpt lat="58.09291" lon="38.32262"><ele>113.6</ele><time>2026-07-25T16:38:28Z</time></trkpt><trkpt lat="58.09299" lon="38.32262"><ele>113.9</ele><time>2026-07-25T16:38:33Z</time></trkpt><trkpt lat="58.09307" lon="38.322615"><ele>113.2</ele><time>2026-07-25T16:38:39Z</time></trkpt><trkpt lat="58.093155" lon="38.32261"><ele>114.3</ele><time>2026-07-25T16:38:45Z</time></trkpt><trkpt lat="58.093225" lon="38.322615"><ele>114.8</ele><time>2026-07-25T16:38:50Z</time></trkpt><trkpt lat="58.0933" lon="38.322635"><ele>115.2</ele><time>2026-07-25T16:38:55Z</time></trkpt><trkpt lat="58.09337" lon="38.322655"><ele>115.5</ele><time>2026-07-25T16:39:00Z</time></trkpt><trkpt lat="58.093445" lon="38.322675"><ele>115.6</ele><time>2026-07-25T16:39:05Z</time></trkpt><trkpt lat="58.09352" lon="38.32269"><ele>115.9</ele><time>2026-07-25T16:39:10Z</time></trkpt><trkpt lat="58.0936" lon="38.32272"><ele>115.9</ele><time>2026-07-25T16:39:15Z</time></trkpt><trkpt lat="58.09368" lon="38.322745"><ele>115.5</ele><time>2026-07-25T16:39:20Z</time></trkpt><trkpt lat="58.093755" lon="38.32276"><ele>115.7</ele><time>2026-07-25T16:39:25Z</time></trkpt><trkpt lat="58.09383" lon="38.322765"><ele>115.4</ele><time>2026-07-25T16:39:30Z</time></trkpt><trkpt lat="58.093905" lon="38.322765"><ele>115.5</ele><time>2026-07-25T16:39:35Z</time></trkpt><trkpt lat="58.09398" lon="38.32276"><ele>115.9</ele><time>2026-07-25T16:39:40Z</time></trkpt><trkpt lat="58.094055" lon="38.322755"><ele>115.5</ele><time>2026-07-25T16:39:45Z</time></trkpt><trkpt lat="58.094135" lon="38.322745"><ele>113.3</ele><time>2026-07-25T16:39:50Z</time></trkpt><trkpt lat="58.094215" lon="38.32271"><ele>112.2</ele><time>2026-07-25T16:39:56Z</time></trkpt><trkpt lat="58.094295" lon="38.32269"><ele>111.1</ele><time>2026-07-25T16:40:02Z</time></trkpt><trkpt lat="58.094375" lon="38.322685"><ele>111.1</ele><time>2026-07-25T16:40:07Z</time></trkpt><trkpt lat="58.09445" lon="38.32268"><ele>111.8</ele><time>2026-07-25T16:40:14Z</time></trkpt><trkpt lat="58.094535" lon="38.322705"><ele>110.0</ele><time>2026-07-25T16:40:20Z</time></trkpt><trkpt lat="58.094605" lon="38.322725"><ele>110.3</ele><time>2026-07-25T16:40:25Z</time></trkpt><trkpt lat="58.09469" lon="38.322745"><ele>110.7</ele><time>2026-07-25T16:40:30Z</time></trkpt><trkpt lat="58.094762" lon="38.322765"><ele>110.2</ele><time>2026-07-25T16:40:35Z</time></trkpt><trkpt lat="58.094845" lon="38.322795"><ele>110.5</ele><time>2026-07-25T16:40:40Z</time></trkpt><trkpt lat="58.09493" lon="38.32283"><ele>111.7</ele><time>2026-07-25T16:40:46Z</time></trkpt><trkpt lat="58.095005" lon="38.32284"><ele>112.2</ele><time>2026-07-25T16:40:51Z</time></trkpt><trkpt lat="58.09509" lon="38.322848"><ele>110.9</ele><time>2026-07-25T16:40:57Z</time></trkpt><trkpt lat="58.09516" lon="38.322865"><ele>110.0</ele><time>2026-07-25T16:41:02Z</time></trkpt><trkpt lat="58.09523" lon="38.32287"><ele>110.7</ele><time>2026-07-25T16:41:07Z</time></trkpt><trkpt lat="58.095315" lon="38.32288"><ele>111.1</ele><time>2026-07-25T16:41:13Z</time></trkpt><trkpt lat="58.095395" lon="38.322895"><ele>110.8</ele><time>2026-07-25T16:41:18Z</time></trkpt><trkpt lat="58.095475" lon="38.32291"><ele>111.1</ele><time>2026-07-25T16:41:23Z</time></trkpt><trkpt lat="58.095555" lon="38.32293"><ele>112.0</ele><time>2026-07-25T16:41:28Z</time></trkpt><trkpt lat="58.09563" lon="38.322945"><ele>112.0</ele><time>2026-07-25T16:41:33Z</time></trkpt><trkpt lat="58.095705" lon="38.32296"><ele>112.3</ele><time>2026-07-25T16:41:38Z</time></trkpt><trkpt lat="58.09578" lon="38.32298"><ele>112.1</ele><time>2026-07-25T16:41:43Z</time></trkpt><trkpt lat="58.095855" lon="38.32299"><ele>112.4</ele><time>2026-07-25T16:41:48Z</time></trkpt><trkpt lat="58.09592" lon="38.32299"><ele>112.2</ele><time>2026-07-25T16:41:53Z</time></trkpt><trkpt lat="58.09601" lon="38.32298"><ele>112.1</ele><time>2026-07-25T16:41:59Z</time></trkpt><trkpt lat="58.096085" lon="38.32298"><ele>112.3</ele><time>2026-07-25T16:42:04Z</time></trkpt><trkpt lat="58.09617" lon="38.32297"><ele>112.9</ele><time>2026-07-25T16:42:09Z</time></trkpt><trkpt lat="58.09625" lon="38.322965"><ele>113.5</ele><time>2026-07-25T16:42:14Z</time></trkpt><trkpt lat="58.09633" lon="38.322955"><ele>113.3</ele><time>2026-07-25T16:42:19Z</time></trkpt><trkpt lat="58.096405" lon="38.322935"><ele>113.4</ele><time>2026-07-25T16:42:24Z</time></trkpt><trkpt lat="58.09649" lon="38.322915"><ele>113.3</ele><time>2026-07-25T16:42:30Z</time></trkpt><trkpt lat="58.096565" lon="38.3229"><ele>113.4</ele><time>2026-07-25T16:42:35Z</time></trkpt><trkpt lat="58.09664" lon="38.32287"><ele>112.9</ele><time>2026-07-25T16:42:40Z</time></trkpt><trkpt lat="58.096715" lon="38.322835"><ele>112.8</ele><time>2026-07-25T16:42:45Z</time></trkpt><trkpt lat="58.096795" lon="38.32281"><ele>113.4</ele><time>2026-07-25T16:42:50Z</time></trkpt><trkpt lat="58.096865" lon="38.322775"><ele>113.2</ele><time>2026-07-25T16:42:55Z</time></trkpt><trkpt lat="58.096945" lon="38.32275"><ele>113.3</ele><time>2026-07-25T16:43:00Z</time></trkpt><trkpt lat="58.097025" lon="38.322725"><ele>112.0</ele><time>2026-07-25T16:43:05Z</time></trkpt><trkpt lat="58.097105" lon="38.322692"><ele>111.5</ele><time>2026-07-25T16:43:10Z</time></trkpt><trkpt lat="58.09718" lon="38.32268"><ele>111.5</ele><time>2026-07-25T16:43:16Z</time></trkpt><trkpt lat="58.097265" lon="38.32268"><ele>111.9</ele><time>2026-07-25T16:43:22Z</time></trkpt><trkpt lat="58.097338" lon="38.322675"><ele>111.2</ele><time>2026-07-25T16:43:29Z</time></trkpt><trkpt lat="58.09742" lon="38.32268"><ele>111.5</ele><time>2026-07-25T16:43:35Z</time></trkpt><trkpt lat="58.097492" lon="38.32268"><ele>112.0</ele><time>2026-07-25T16:43:40Z</time></trkpt><trkpt lat="58.09758" lon="38.322685"><ele>111.8</ele><time>2026-07-25T16:43:45Z</time></trkpt><trkpt lat="58.097665" lon="38.32269"><ele>112.5</ele><time>2026-07-25T16:43:50Z</time></trkpt><trkpt lat="58.09775" lon="38.322685"><ele>112.8</ele><time>2026-07-25T16:43:55Z</time></trkpt><trkpt lat="58.09783" lon="38.32268"><ele>112.6</ele><time>2026-07-25T16:44:00Z</time></trkpt><trkpt lat="58.09791" lon="38.322665"><ele>113.6</ele><time>2026-07-25T16:44:05Z</time></trkpt><trkpt lat="58.09799" lon="38.322645"><ele>114.2</ele><time>2026-07-25T16:44:10Z</time></trkpt><trkpt lat="58.098065" lon="38.32262"><ele>113.4</ele><time>2026-07-25T16:44:15Z</time></trkpt><trkpt lat="58.098135" lon="38.32261"><ele>114.1</ele><time>2026-07-25T16:44:20Z</time></trkpt><trkpt lat="58.098215" lon="38.322585"><ele>115.6</ele><time>2026-07-25T16:44:25Z</time></trkpt><trkpt lat="58.098295" lon="38.32258"><ele>114.7</ele><time>2026-07-25T16:44:30Z</time></trkpt><trkpt lat="58.098375" lon="38.32258"><ele>114.9</ele><time>2026-07-25T16:44:36Z</time></trkpt><trkpt lat="58.09845" lon="38.322585"><ele>114.7</ele><time>2026-07-25T16:44:41Z</time></trkpt><trkpt lat="58.09853" lon="38.322595"><ele>114.8</ele><time>2026-07-25T16:44:46Z</time></trkpt><trkpt lat="58.0986" lon="38.32261"><ele>114.6</ele><time>2026-07-25T16:44:51Z</time></trkpt><trkpt lat="58.09868" lon="38.32261"><ele>115.3</ele><time>2026-07-25T16:44:57Z</time></trkpt><trkpt lat="58.09875" lon="38.3226"><ele>115.7</ele><time>2026-07-25T16:45:04Z</time></trkpt><trkpt lat="58.098815" lon="38.322585"><ele>115.3</ele><time>2026-07-25T16:45:11Z</time></trkpt><trkpt lat="58.09889" lon="38.32258"><ele>114.9</ele><time>2026-07-25T16:45:17Z</time></trkpt><trkpt lat="58.098975" lon="38.322575"><ele>115.0</ele><time>2026-07-25T16:45:23Z</time></trkpt><trkpt lat="58.09905" lon="38.322575"><ele>115.3</ele><time>2026-07-25T16:45:28Z</time></trkpt><trkpt lat="58.09912" lon="38.322575"><ele>115.0</ele><time>2026-07-25T16:45:33Z</time></trkpt><trkpt lat="58.09921" lon="38.32258"><ele>115.3</ele><time>2026-07-25T16:45:39Z</time></trkpt><trkpt lat="58.09929" lon="38.32258"><ele>115.1</ele><time>2026-07-25T16:45:45Z</time></trkpt><trkpt lat="58.09937" lon="38.32258"><ele>114.9</ele><time>2026-07-25T16:45:50Z</time></trkpt><trkpt lat="58.09945" lon="38.322585"><ele>114.8</ele><time>2026-07-25T16:45:55Z</time></trkpt><trkpt lat="58.099525" lon="38.3226"><ele>114.7</ele><time>2026-07-25T16:46:00Z</time></trkpt><trkpt lat="58.0996" lon="38.3226"><ele>114.8</ele><time>2026-07-25T16:46:05Z</time></trkpt><trkpt lat="58.099675" lon="38.322605"><ele>115.0</ele><time>2026-07-25T16:46:11Z</time></trkpt><trkpt lat="58.09975" lon="38.32261"><ele>114.8</ele><time>2026-07-25T16:46:18Z</time></trkpt><trkpt lat="58.09983" lon="38.32257"><ele>114.3</ele><time>2026-07-25T16:46:25Z</time></trkpt><trkpt lat="58.0999" lon="38.3225"><ele>114.2</ele><time>2026-07-25T16:46:31Z</time></trkpt><trkpt lat="58.099975" lon="38.32242"><ele>114.3</ele><time>2026-07-25T16:46:37Z</time></trkpt><trkpt lat="58.100045" lon="38.322345"><ele>114.0</ele><time>2026-07-25T16:46:42Z</time></trkpt><trkpt lat="58.100115" lon="38.322275"><ele>114.0</ele><time>2026-07-25T16:46:47Z</time></trkpt><trkpt lat="58.10018" lon="38.322215"><ele>114.3</ele><time>2026-07-25T16:46:52Z</time></trkpt><trkpt lat="58.10025" lon="38.32216"><ele>114.1</ele><time>2026-07-25T16:46:57Z</time></trkpt><trkpt lat="58.10031" lon="38.322105"><ele>113.8</ele><time>2026-07-25T16:47:02Z</time></trkpt><trkpt lat="58.100375" lon="38.322045"><ele>114.4</ele><time>2026-07-25T16:47:08Z</time></trkpt><trkpt lat="58.100445" lon="38.321975"><ele>114.5</ele><time>2026-07-25T16:47:14Z</time></trkpt><trkpt lat="58.100515" lon="38.32191"><ele>114.9</ele><time>2026-07-25T16:47:20Z</time></trkpt><trkpt lat="58.10059" lon="38.32186"><ele>114.3</ele><time>2026-07-25T16:47:27Z</time></trkpt><trkpt lat="58.100665" lon="38.32186"><ele>114.6</ele><time>2026-07-25T16:47:34Z</time></trkpt><trkpt lat="58.100745" lon="38.321895"><ele>114.7</ele><time>2026-07-25T16:47:41Z</time></trkpt><trkpt lat="58.100825" lon="38.321935"><ele>114.3</ele><time>2026-07-25T16:47:47Z</time></trkpt><trkpt lat="58.100895" lon="38.321995"><ele>114.5</ele><time>2026-07-25T16:47:54Z</time></trkpt><trkpt lat="58.100935" lon="38.32206"><ele>117.0</ele><time>2026-07-25T16:48:01Z</time></trkpt><trkpt lat="58.100965" lon="38.322115"><ele>117.5</ele><time>2026-07-25T16:48:08Z</time></trkpt><trkpt lat="58.10097" lon="38.32214"><ele>117.1</ele><time>2026-07-25T16:48:13Z</time></trkpt><trkpt lat="58.10098" lon="38.322175"><ele>116.3</ele><time>2026-07-25T16:48:21Z</time></trkpt><trkpt lat="58.10098" lon="38.322185"><ele>116.3</ele><time>2026-07-25T16:48:22Z</time></trkpt><trkpt lat="58.101005" lon="38.32224"><ele>117.2</ele><time>2026-07-25T16:48:30Z</time></trkpt><trkpt lat="58.101065" lon="38.3223"><ele>117.3</ele><time>2026-07-25T16:48:37Z</time></trkpt><trkpt lat="58.10114" lon="38.32233"><ele>118.4</ele><time>2026-07-25T16:48:43Z</time></trkpt><trkpt lat="58.101205" lon="38.322355"><ele>117.3</ele><time>2026-07-25T16:48:48Z</time></trkpt><trkpt lat="58.101277" lon="38.32237"><ele>116.3</ele><time>2026-07-25T16:48:53Z</time></trkpt><trkpt lat="58.10136" lon="38.3224"><ele>117.1</ele><time>2026-07-25T16:48:58Z</time></trkpt><trkpt lat="58.10143" lon="38.32242"><ele>115.6</ele><time>2026-07-25T16:49:03Z</time></trkpt><trkpt lat="58.10152" lon="38.322445"><ele>115.8</ele><time>2026-07-25T16:49:09Z</time></trkpt><trkpt lat="58.1016" lon="38.322468"><ele>117.4</ele><time>2026-07-25T16:49:14Z</time></trkpt><trkpt lat="58.101675" lon="38.322505"><ele>116.3</ele><time>2026-07-25T16:49:20Z</time></trkpt><trkpt lat="58.101755" lon="38.322555"><ele>115.7</ele><time>2026-07-25T16:49:25Z</time></trkpt><trkpt lat="58.10183" lon="38.322605"><ele>115.0</ele><time>2026-07-25T16:49:30Z</time></trkpt><trkpt lat="58.1019" lon="38.322655"><ele>114.6</ele><time>2026-07-25T16:49:35Z</time></trkpt><trkpt lat="58.101985" lon="38.322705"><ele>113.9</ele><time>2026-07-25T16:49:40Z</time></trkpt><trkpt lat="58.102055" lon="38.32275"><ele>114.0</ele><time>2026-07-25T16:49:45Z</time></trkpt><trkpt lat="58.102125" lon="38.32279"><ele>113.7</ele><time>2026-07-25T16:49:50Z</time></trkpt><trkpt lat="58.10219" lon="38.322835"><ele>113.2</ele><time>2026-07-25T16:49:55Z</time></trkpt><trkpt lat="58.102263" lon="38.322875"><ele>112.9</ele><time>2026-07-25T16:50:01Z</time></trkpt><trkpt lat="58.102335" lon="38.322915"><ele>112.8</ele><time>2026-07-25T16:50:06Z</time></trkpt><trkpt lat="58.102415" lon="38.32295"><ele>112.7</ele><time>2026-07-25T16:50:11Z</time></trkpt><trkpt lat="58.102485" lon="38.322985"><ele>112.7</ele><time>2026-07-25T16:50:16Z</time></trkpt><trkpt lat="58.10257" lon="38.32303"><ele>112.6</ele><time>2026-07-25T16:50:21Z</time></trkpt><trkpt lat="58.10264" lon="38.323065"><ele>112.6</ele><time>2026-07-25T16:50:26Z</time></trkpt><trkpt lat="58.102715" lon="38.3231"><ele>112.7</ele><time>2026-07-25T16:50:31Z</time></trkpt><trkpt lat="58.102795" lon="38.323135"><ele>113.1</ele><time>2026-07-25T16:50:36Z</time></trkpt><trkpt lat="58.102865" lon="38.32318"><ele>113.0</ele><time>2026-07-25T16:50:41Z</time></trkpt><trkpt lat="58.10295" lon="38.32324"><ele>113.2</ele><time>2026-07-25T16:50:46Z</time></trkpt><trkpt lat="58.10302" lon="38.323295"><ele>113.2</ele><time>2026-07-25T16:50:51Z</time></trkpt><trkpt lat="58.103095" lon="38.32335"><ele>113.4</ele><time>2026-07-25T16:50:56Z</time></trkpt><trkpt lat="58.10317" lon="38.323405"><ele>113.5</ele><time>2026-07-25T16:51:01Z</time></trkpt><trkpt lat="58.103235" lon="38.32345"><ele>113.8</ele><time>2026-07-25T16:51:06Z</time></trkpt><trkpt lat="58.103305" lon="38.323525"><ele>113.8</ele><time>2026-07-25T16:51:11Z</time></trkpt><trkpt lat="58.10337" lon="38.323595"><ele>113.8</ele><time>2026-07-25T16:51:16Z</time></trkpt><trkpt lat="58.10343" lon="38.323665"><ele>113.7</ele><time>2026-07-25T16:51:21Z</time></trkpt><trkpt lat="58.10349" lon="38.323735"><ele>113.9</ele><time>2026-07-25T16:51:26Z</time></trkpt><trkpt lat="58.103555" lon="38.323805"><ele>114.0</ele><time>2026-07-25T16:51:31Z</time></trkpt><trkpt lat="58.103625" lon="38.32388"><ele>114.1</ele><time>2026-07-25T16:51:36Z</time></trkpt><trkpt lat="58.10369" lon="38.32396"><ele>114.5</ele><time>2026-07-25T16:51:41Z</time></trkpt><trkpt lat="58.103755" lon="38.324045"><ele>114.8</ele><time>2026-07-25T16:51:46Z</time></trkpt><trkpt lat="58.103815" lon="38.32412"><ele>114.9</ele><time>2026-07-25T16:51:51Z</time></trkpt><trkpt lat="58.10388" lon="38.3242"><ele>115.0</ele><time>2026-07-25T16:51:56Z</time></trkpt><trkpt lat="58.103935" lon="38.324285"><ele>115.0</ele><time>2026-07-25T16:52:01Z</time></trkpt><trkpt lat="58.104005" lon="38.324365"><ele>115.2</ele><time>2026-07-25T16:52:06Z</time></trkpt><trkpt lat="58.10407" lon="38.324435"><ele>115.2</ele><time>2026-07-25T16:52:11Z</time></trkpt><trkpt lat="58.10413" lon="38.32452"><ele>115.5</ele><time>2026-07-25T16:52:16Z</time></trkpt><trkpt lat="58.10419" lon="38.324605"><ele>116.1</ele><time>2026-07-25T16:52:21Z</time></trkpt><trkpt lat="58.10425" lon="38.32468"><ele>116.1</ele><time>2026-07-25T16:52:26Z</time></trkpt><trkpt lat="58.104315" lon="38.32476"><ele>116.0</ele><time>2026-07-25T16:52:31Z</time></trkpt><trkpt lat="58.104385" lon="38.324845"><ele>116.0</ele><time>2026-07-25T16:52:37Z</time></trkpt><trkpt lat="58.104445" lon="38.32492"><ele>116.0</ele><time>2026-07-25T16:52:42Z</time></trkpt><trkpt lat="58.104505" lon="38.324995"><ele>115.8</ele><time>2026-07-25T16:52:47Z</time></trkpt><trkpt lat="58.104575" lon="38.325075"><ele>115.6</ele><time>2026-07-25T16:52:52Z</time></trkpt><trkpt lat="58.10464" lon="38.32515"><ele>115.4</ele><time>2026-07-25T16:52:57Z</time></trkpt><trkpt lat="58.104715" lon="38.32522"><ele>115.4</ele><time>2026-07-25T16:53:03Z</time></trkpt><trkpt lat="58.104785" lon="38.325305"><ele>115.7</ele><time>2026-07-25T16:53:09Z</time></trkpt><trkpt lat="58.104837" lon="38.32539"><ele>115.7</ele><time>2026-07-25T16:53:14Z</time></trkpt><trkpt lat="58.104905" lon="38.325485"><ele>115.4</ele><time>2026-07-25T16:53:19Z</time></trkpt><trkpt lat="58.10496" lon="38.325575"><ele>115.3</ele><time>2026-07-25T16:53:24Z</time></trkpt><trkpt lat="58.10501" lon="38.325665"><ele>115.2</ele><time>2026-07-25T16:53:29Z</time></trkpt><trkpt lat="58.105075" lon="38.32578"><ele>115.0</ele><time>2026-07-25T16:53:35Z</time></trkpt><trkpt lat="58.10514" lon="38.325885"><ele>115.3</ele><time>2026-07-25T16:53:41Z</time></trkpt><trkpt lat="58.105205" lon="38.32598"><ele>115.5</ele><time>2026-07-25T16:53:47Z</time></trkpt><trkpt lat="58.10527" lon="38.32608"><ele>115.3</ele><time>2026-07-25T16:53:53Z</time></trkpt><trkpt lat="58.105325" lon="38.326165"><ele>115.4</ele><time>2026-07-25T16:53:58Z</time></trkpt><trkpt lat="58.10539" lon="38.326255"><ele>115.6</ele><time>2026-07-25T16:54:04Z</time></trkpt><trkpt lat="58.105455" lon="38.326335"><ele>115.4</ele><time>2026-07-25T16:54:09Z</time></trkpt><trkpt lat="58.105515" lon="38.326425"><ele>115.0</ele><time>2026-07-25T16:54:15Z</time></trkpt><trkpt lat="58.10559" lon="38.32652"><ele>115.2</ele><time>2026-07-25T16:54:22Z</time></trkpt><trkpt lat="58.10564" lon="38.326585"><ele>115.1</ele><time>2026-07-25T16:54:29Z</time></trkpt><trkpt lat="58.10571" lon="38.32666"><ele>114.9</ele><time>2026-07-25T16:54:35Z</time></trkpt><trkpt lat="58.105785" lon="38.326745"><ele>115.3</ele><time>2026-07-25T16:54:41Z</time></trkpt><trkpt lat="58.10584" lon="38.326815"><ele>115.6</ele><time>2026-07-25T16:54:46Z</time></trkpt><trkpt lat="58.10592" lon="38.32689"><ele>115.6</ele><time>2026-07-25T16:54:52Z</time></trkpt><trkpt lat="58.105977" lon="38.32698"><ele>115.6</ele><time>2026-07-25T16:54:58Z</time></trkpt><trkpt lat="58.106045" lon="38.327085"><ele>115.5</ele><time>2026-07-25T16:55:04Z</time></trkpt><trkpt lat="58.106085" lon="38.327235"><ele>114.9</ele><time>2026-07-25T16:55:09Z</time></trkpt><trkpt lat="58.106125" lon="38.327385"><ele>114.7</ele><time>2026-07-25T16:55:14Z</time></trkpt><trkpt lat="58.10615" lon="38.32752"><ele>114.8</ele><time>2026-07-25T16:55:19Z</time></trkpt><trkpt lat="58.106185" lon="38.32765"><ele>114.8</ele><time>2026-07-25T16:55:25Z</time></trkpt><trkpt lat="58.1062" lon="38.32777"><ele>115.0</ele><time>2026-07-25T16:55:32Z</time></trkpt><trkpt lat="58.1062" lon="38.327785"><ele>115.8</ele><time>2026-07-25T16:55:38Z</time></trkpt><trkpt lat="58.1062" lon="38.32777"><ele>114.8</ele><time>2026-07-25T16:55:46Z</time></trkpt><trkpt lat="58.1062" lon="38.32777"><ele>114.8</ele><time>2026-07-25T16:55:47Z</time></trkpt><trkpt lat="58.106195" lon="38.327772"><ele>116.2</ele><time>2026-07-25T16:56:01Z</time></trkpt><trkpt lat="58.106195" lon="38.327772"><ele>116.1</ele><time>2026-07-25T16:56:02Z</time></trkpt><trkpt lat="58.106195" lon="38.32777"><ele>115.3</ele><time>2026-07-25T16:56:10Z</time></trkpt><trkpt lat="58.106195" lon="38.32777"><ele>115.6</ele><time>2026-07-25T16:56:11Z</time></trkpt></trkseg></trk></gpx>