<?xml version="1.0" encoding="UTF-8" standalone="no"?><gpx xmlns="http://www.topografix.com/GPX/1/1" xmlns:gpxtpx="http://www.garmin.com/xmlschemas/TrackPointExtension/v1" xmlns:xsi="http://www.w3.org/2001/XMLSchema-instance" creator="Suunto app" version="1.1" xsi:schemaLocation="http://www.topografix.com/GPX/1/1 http://www.topografix.com/GPX/1/1/gpx.xsd http://www.garmin.com/xmlschemas/TrackPointExtension/v1 http://www.garmin.com/xmlschemas/TrackPointExtensionv1.xsd"><metadata><name>suuntoapp-Walking-2026-07-26T17-14-50Z</name><desc/><author><name>Александр</name></author></metadata><trk><name>suuntoapp-Walking-2026-07-26T17-14-50Z</name><trkseg><trkpt lat="58.106165" lon="38.328265"><ele>115.4</ele><time>2026-07-26T17:14:50Z</time></trkpt><trkpt lat="58.106165" lon="38.328265"><ele>115.4</ele><time>2026-07-26T17:14:51Z</time></trkpt><trkpt lat="58.106235" lon="38.328315"><ele>119.1</ele><time>2026-07-26T17:14:57Z</time></trkpt><trkpt lat="58.1063" lon="38.328355"><ele>122.0</ele><time>2026-07-26T17:15:04Z</time></trkpt><trkpt lat="58.106362" lon="38.32837"><ele>123.7</ele><time>2026-07-26T17:15:11Z</time></trkpt><trkpt lat="58.106362" lon="38.32836"><ele>123.8</ele><time>2026-07-26T17:15:18Z</time></trkpt><trkpt lat="58.106362" lon="38.328362"><ele>123.8</ele><time>2026-07-26T17:15:19Z</time></trkpt><trkpt lat="58.106425" lon="38.32843"><ele>122.9</ele><time>2026-07-26T17:15:28Z</time></trkpt><trkpt lat="58.106465" lon="38.3285"><ele>121.2</ele><time>2026-07-26T17:15:35Z</time></trkpt><trkpt lat="58.106495" lon="38.32857"><ele>120.1</ele><time>2026-07-26T17:15:42Z</time></trkpt><trkpt lat="58.106507" lon="38.328635"><ele>117.9</ele><time>2026-07-26T17:15:49Z</time></trkpt><trkpt lat="58.10654" lon="38.32862"><ele>117.3</ele><time>2026-07-26T17:15:56Z</time></trkpt><trkpt lat="58.10655" lon="38.3286"><ele>116.8</ele><time>2026-07-26T17:16:03Z</time></trkpt><trkpt lat="58.106547" lon="38.3286"><ele>116.3</ele><time>2026-07-26T17:16:05Z</time></trkpt><trkpt lat="58.106595" lon="38.328677"><ele>118.0</ele><time>2026-07-26T17:16:13Z</time></trkpt><trkpt lat="58.106642" lon="38.328712"><ele>117.2</ele><time>2026-07-26T17:16:20Z</time></trkpt><trkpt lat="58.106702" lon="38.328735"><ele>117.4</ele><time>2026-07-26T17:16:27Z</time></trkpt><trkpt lat="58.106705" lon="38.32881"><ele>117.7</ele><time>2026-07-26T17:16:34Z</time></trkpt><trkpt lat="58.106715" lon="38.328875"><ele>116.5</ele><time>2026-07-26T17:16:41Z</time></trkpt><trkpt lat="58.106765" lon="38.328885"><ele>116.0</ele><time>2026-07-26T17:16:48Z</time></trkpt><trkpt lat="58.10682" lon="38.3289"><ele>117.1</ele><time>2026-07-26T17:16:55Z</time></trkpt><trkpt lat="58.106855" lon="38.328955"><ele>119.0</ele><time>2026-07-26T17:17:02Z</time></trkpt><trkpt lat="58.106892" lon="38.329025"><ele>118.8</ele><time>2026-07-26T17:17:09Z</time></trkpt><trkpt lat="58.106945" lon="38.329022"><ele>120.1</ele><time>2026-07-26T17:17:16Z</time></trkpt><trkpt lat="58.106937" lon="38.328918"><ele>120.7</ele><time>2026-07-26T17:17:23Z</time></trkpt><trkpt lat="58.106925" lon="38.3289"><ele>120.8</ele><time>2026-07-26T17:17:30Z</time></trkpt><trkpt lat="58.106925" lon="38.3289"><ele>120.8</ele><time>2026-07-26T17:17:31Z</time></trkpt><trkpt lat="58.106952" lon="38.328995"><ele>120.8</ele><time>2026-07-26T17:17:47Z</time></trkpt><trkpt lat="58.106982" lon="38.329095"><ele>120.2</ele><time>2026-07-26T17:17:54Z</time></trkpt><trkpt lat="58.10702" lon="38.32915"><ele>119.3</ele><time>2026-07-26T17:18:01Z</time></trkpt><trkpt lat="58.107037" lon="38.329227"><ele>121.0</ele><time>2026-07-26T17:18:08Z</time></trkpt><trkpt lat="58.10708" lon="38.329275"><ele>121.2</ele><time>2026-07-26T17:18:15Z</time></trkpt><trkpt lat="58.107135" lon="38.329265"><ele>120.3</ele><time>2026-07-26T17:18:22Z</time></trkpt><trkpt lat="58.107192" lon="38.329245"><ele>120.6</ele><time>2026-07-26T17:18:29Z</time></trkpt><trkpt lat="58.107245" lon="38.329282"><ele>122.2</ele><time>2026-07-26T17:18:36Z</time></trkpt><trkpt lat="58.10729" lon="38.32932"><ele>122.6</ele><time>2026-07-26T17:18:43Z</time></trkpt><trkpt lat="58.107325" lon="38.329382"><ele>124.3</ele><time>2026-07-26T17:18:50Z</time></trkpt><trkpt lat="58.107375" lon="38.32942"><ele>124.4</ele><time>2026-07-26T17:18:57Z</time></trkpt><trkpt lat="58.107442" lon="38.32946"><ele>122.6</ele><time>2026-07-26T17:19:04Z</time></trkpt><trkpt lat="58.107495" lon="38.32949"><ele>121.6</ele><time>2026-07-26T17:19:11Z</time></trkpt><trkpt lat="58.10753" lon="38.32955"><ele>120.6</ele><time>2026-07-26T17:19:18Z</time></trkpt><trkpt lat="58.107565" lon="38.329545"><ele>120.4</ele><time>2026-07-26T17:19:25Z</time></trkpt><trkpt lat="58.107585" lon="38.32951"><ele>119.4</ele><time>2026-07-26T17:19:32Z</time></trkpt><trkpt lat="58.107632" lon="38.329515"><ele>121.1</ele><time>2026-07-26T17:19:39Z</time></trkpt><trkpt lat="58.10767" lon="38.32956"><ele>119.8</ele><time>2026-07-26T17:19:46Z</time></trkpt><trkpt lat="58.1077" lon="38.329575"><ele>120.6</ele><time>2026-07-26T17:19:53Z</time></trkpt><trkpt lat="58.10778" lon="38.329585"><ele>120.9</ele><time>2026-07-26T17:20:00Z</time></trkpt><trkpt lat="58.107842" lon="38.329625"><ele>119.6</ele><time>2026-07-26T17:20:07Z</time></trkpt><trkpt lat="58.1079" lon="38.32964"><ele>120.8</ele><time>2026-07-26T17:20:14Z</time></trkpt><trkpt lat="58.107953" lon="38.329657"><ele>118.7</ele><time>2026-07-26T17:20:21Z</time></trkpt><trkpt lat="58.108007" lon="38.329655"><ele>119.0</ele><time>2026-07-26T17:20:28Z</time></trkpt><trkpt lat="58.10806" lon="38.329645"><ele>119.2</ele><time>2026-07-26T17:20:35Z</time></trkpt><trkpt lat="58.1081" lon="38.329655"><ele>120.5</ele><time>2026-07-26T17:20:42Z</time></trkpt><trkpt lat="58.10817" lon="38.329655"><ele>123.3</ele><time>2026-07-26T17:20:49Z</time></trkpt><trkpt lat="58.10823" lon="38.32969"><ele>125.1</ele><time>2026-07-26T17:20:56Z</time></trkpt><trkpt lat="58.10823" lon="38.3297"><ele>122.5</ele><time>2026-07-26T17:21:03Z</time></trkpt><trkpt lat="58.108275" lon="38.329707"><ele>124.8</ele><time>2026-07-26T17:21:10Z</time></trkpt><trkpt lat="58.10832" lon="38.329742"><ele>123.0</ele><time>2026-07-26T17:21:17Z</time></trkpt><trkpt lat="58.10838" lon="38.32978"><ele>123.2</ele><time>2026-07-26T17:21:24Z</time></trkpt><trkpt lat="58.10843" lon="38.329785"><ele>122.0</ele><time>2026-07-26T17:21:31Z</time></trkpt><trkpt lat="58.10848" lon="38.329837"><ele>121.8</ele><time>2026-07-26T17:21:38Z</time></trkpt><trkpt lat="58.10852" lon="38.329867"><ele>122.5</ele><time>2026-07-26T17:21:45Z</time></trkpt><trkpt lat="58.108565" lon="38.329882"><ele>122.8</ele><time>2026-07-26T17:21:52Z</time></trkpt><trkpt lat="58.108612" lon="38.329897"><ele>118.8</ele><time>2026-07-26T17:21:59Z</time></trkpt><trkpt lat="58.108627" lon="38.329957"><ele>120.6</ele><time>2026-07-26T17:22:06Z</time></trkpt><trkpt lat="58.108665" lon="38.33"><ele>121.2</ele><time>2026-07-26T17:22:13Z</time></trkpt><trkpt lat="58.108705" lon="38.330117"><ele>122.1</ele><time>2026-07-26T17:22:20Z</time></trkpt><trkpt lat="58.108755" lon="38.33015"><ele>120.8</ele><time>2026-07-26T17:22:27Z</time></trkpt><trkpt lat="58.10879" lon="38.330197"><ele>120.0</ele><time>2026-07-26T17:22:34Z</time></trkpt><trkpt lat="58.108853" lon="38.330225"><ele>120.1</ele><time>2026-07-26T17:22:41Z</time></trkpt><trkpt lat="58.108915" lon="38.33025"><ele>122.7</ele><time>2026-07-26T17:22:48Z</time></trkpt><trkpt lat="58.108953" lon="38.330267"><ele>121.9</ele><time>2026-07-26T17:22:55Z</time></trkpt><trkpt lat="58.109025" lon="38.330282"><ele>122.5</ele><time>2026-07-26T17:23:02Z</time></trkpt><trkpt lat="58.109097" lon="38.33028"><ele>122.3</ele><time>2026-07-26T17:23:09Z</time></trkpt><trkpt lat="58.10916" lon="38.330332"><ele>123.3</ele><time>2026-07-26T17:23:16Z</time></trkpt><trkpt lat="58.109205" lon="38.330375"><ele>121.1</ele><time>2026-07-26T17:23:23Z</time></trkpt><trkpt lat="58.10926" lon="38.330365"><ele>123.8</ele><time>2026-07-26T17:23:30Z</time></trkpt><trkpt lat="58.109305" lon="38.33033"><ele>124.9</ele><time>2026-07-26T17:23:37Z</time></trkpt><trkpt lat="58.10936" lon="38.33034"><ele>128.1</ele><time>2026-07-26T17:23:44Z</time></trkpt><trkpt lat="58.109395" lon="38.33039"><ele>127.8</ele><time>2026-07-26T17:23:51Z</time></trkpt><trkpt lat="58.10943" lon="38.330415"><ele>123.6</ele><time>2026-07-26T17:23:58Z</time></trkpt><trkpt lat="58.109435" lon="38.33046"><ele>122.7</ele><time>2026-07-26T17:24:05Z</time></trkpt><trkpt lat="58.109435" lon="38.330435"><ele>122.0</ele><time>2026-07-26T17:24:12Z</time></trkpt><trkpt lat="58.109435" lon="38.330435"><ele>122.0</ele><time>2026-07-26T17:24:15Z</time></trkpt><trkpt lat="58.109427" lon="38.330495"><ele>120.5</ele><time>2026-07-26T17:24:26Z</time></trkpt><trkpt lat="58.109365" lon="38.330542"><ele>119.6</ele><time>2026-07-26T17:24:33Z</time></trkpt><trkpt lat="58.10933" lon="38.33055"><ele>119.8</ele><time>2026-07-26T17:24:40Z</time></trkpt><trkpt lat="58.109295" lon="38.33056"><ele>120.9</ele><time>2026-07-26T17:24:47Z</time></trkpt><trkpt lat="58.109255" lon="38.33056"><ele>118.2</ele><time>2026-07-26T17:24:54Z</time></trkpt><trkpt lat="58.109237" lon="38.33053"><ele>118.8</ele><time>2026-07-26T17:25:01Z</time></trkpt><trkpt lat="58.109197" lon="38.33049"><ele>119.3</ele><time>2026-07-26T17:25:10Z</time></trkpt><trkpt lat="58.109157" lon="38.33042"><ele>119.3</ele><time>2026-07-26T17:25:17Z</time></trkpt><trkpt lat="58.109125" lon="38.330345"><ele>118.9</ele><time>2026-07-26T17:25:24Z</time></trkpt><trkpt lat="58.109087" lon="38.330307"><ele>119.6</ele><time>2026-07-26T17:25:31Z</time></trkpt><trkpt lat="58.109055" lon="38.330255"><ele>119.0</ele><time>2026-07-26T17:25:38Z</time></trkpt><trkpt lat="58.109042" lon="38.330225"><ele>117.3</ele><time>2026-07-26T17:25:45Z</time></trkpt><trkpt lat="58.109002" lon="38.33022"><ele>117.3</ele><time>2026-07-26T17:25:52Z</time></trkpt><trkpt lat="58.10895" lon="38.330195"><ele>116.0</ele><time>2026-07-26T17:25:59Z</time></trkpt><trkpt lat="58.10891" lon="38.330197"><ele>113.5</ele><time>2026-07-26T17:26:06Z</time></trkpt><trkpt lat="58.108965" lon="38.330142"><ele>114.6</ele><time>2026-07-26T17:26:13Z</time></trkpt><trkpt lat="58.108975" lon="38.330065"><ele>116.8</ele><time>2026-07-26T17:26:20Z</time></trkpt><trkpt lat="58.10896" lon="38.330042"><ele>117.5</ele><time>2026-07-26T17:26:27Z</time></trkpt><trkpt lat="58.10896" lon="38.330042"><ele>117.6</ele><time>2026-07-26T17:26:28Z</time></trkpt><trkpt lat="58.109005" lon="38.330147"><ele>117.5</ele><time>2026-07-26T17:26:36Z</time></trkpt><trkpt lat="58.10897" lon="38.330225"><ele>117.8</ele><time>2026-07-26T17:26:43Z</time></trkpt><trkpt lat="58.108935" lon="38.33024"><ele>118.0</ele><time>2026-07-26T17:26:50Z</time></trkpt><trkpt lat="58.1089" lon="38.33021"><ele>119.0</ele><time>2026-07-26T17:26:57Z</time></trkpt><trkpt lat="58.108905" lon="38.33021"><ele>118.6</ele><time>2026-07-26T17:27:04Z</time></trkpt><trkpt lat="58.10889" lon="38.330197"><ele>120.4</ele><time>2026-07-26T17:27:08Z</time></trkpt><trkpt lat="58.108845" lon="38.33017"><ele>120.8</ele><time>2026-07-26T17:27:23Z</time></trkpt><trkpt lat="58.10879" lon="38.330128"><ele>119.9</ele><time>2026-07-26T17:27:30Z</time></trkpt><trkpt lat="58.108735" lon="38.33007"><ele>117.8</ele><time>2026-07-26T17:27:37Z</time></trkpt><trkpt lat="58.10868" lon="38.33004"><ele>118.2</ele><time>2026-07-26T17:27:44Z</time></trkpt><trkpt lat="58.10862" lon="38.32999"><ele>116.9</ele><time>2026-07-26T17:27:51Z</time></trkpt><trkpt lat="58.108597" lon="38.32992"><ele>117.9</ele><time>2026-07-26T17:27:58Z</time></trkpt><trkpt lat="58.10857" lon="38.329855"><ele>117.8</ele><time>2026-07-26T17:28:05Z</time></trkpt><trkpt lat="58.108515" lon="38.329817"><ele>119.0</ele><time>2026-07-26T17:28:12Z</time></trkpt><trkpt lat="58.108455" lon="38.329805"><ele>120.0</ele><time>2026-07-26T17:28:19Z</time></trkpt><trkpt lat="58.10839" lon="38.32979"><ele>119.1</ele><time>2026-07-26T17:28:26Z</time></trkpt><trkpt lat="58.108333" lon="38.329745"><ele>118.4</ele><time>2026-07-26T17:28:33Z</time></trkpt><trkpt lat="58.1083" lon="38.329685"><ele>120.9</ele><time>2026-07-26T17:28:40Z</time></trkpt><trkpt lat="58.1083" lon="38.329685"><ele>120.6</ele><time>2026-07-26T17:28:47Z</time></trkpt><trkpt lat="58.108265" lon="38.329667"><ele>120.4</ele><time>2026-07-26T17:28:58Z</time></trkpt><trkpt lat="58.108227" lon="38.32961"><ele>120.6</ele><time>2026-07-26T17:29:05Z</time></trkpt><trkpt lat="58.108175" lon="38.329615"><ele>120.1</ele><time>2026-07-26T17:29:12Z</time></trkpt><trkpt lat="58.10813" lon="38.329617"><ele>119.4</ele><time>2026-07-26T17:29:19Z</time></trkpt><trkpt lat="58.108077" lon="38.329602"><ele>119.6</ele><time>2026-07-26T17:29:26Z</time></trkpt><trkpt lat="58.108017" lon="38.329575"><ele>120.2</ele><time>2026-07-26T17:29:33Z</time></trkpt><trkpt lat="58.107975" lon="38.329592"><ele>119.7</ele><time>2026-07-26T17:29:40Z</time></trkpt><trkpt lat="58.107935" lon="38.329685"><ele>120.2</ele><time>2026-07-26T17:29:47Z</time></trkpt><trkpt lat="58.107925" lon="38.329795"><ele>119.7</ele><time>2026-07-26T17:29:54Z</time></trkpt><trkpt lat="58.107968" lon="38.329875"><ele>117.4</ele><time>2026-07-26T17:30:01Z</time></trkpt><trkpt lat="58.108023" lon="38.329955"><ele>119.1</ele><time>2026-07-26T17:30:08Z</time></trkpt><trkpt lat="58.108045" lon="38.329985"><ele>119.9</ele><time>2026-07-26T17:30:15Z</time></trkpt><trkpt lat="58.108045" lon="38.329985"><ele>119.9</ele><time>2026-07-26T17:30:18Z</time></trkpt><trkpt lat="58.107992" lon="38.330043"><ele>121.5</ele><time>2026-07-26T17:30:26Z</time></trkpt><trkpt lat="58.107925" lon="38.33"><ele>123.8</ele><time>2026-07-26T17:30:32Z</time></trkpt><trkpt lat="58.10788" lon="38.329985"><ele>124.1</ele><time>2026-07-26T17:30:39Z</time></trkpt><trkpt lat="58.10783" lon="38.33002"><ele>122.8</ele><time>2026-07-26T17:30:46Z</time></trkpt><trkpt lat="58.10778" lon="38.33003"><ele>122.5</ele><time>2026-07-26T17:30:53Z</time></trkpt><trkpt lat="58.107725" lon="38.329965"><ele>120.4</ele><time>2026-07-26T17:31:00Z</time></trkpt><trkpt lat="58.107675" lon="38.329925"><ele>121.8</ele><time>2026-07-26T17:31:07Z</time></trkpt><trkpt lat="58.107657" lon="38.32991"><ele>123.2</ele><time>2026-07-26T17:31:14Z</time></trkpt><trkpt lat="58.107643" lon="38.329807"><ele>123.8</ele><time>2026-07-26T17:31:21Z</time></trkpt><trkpt lat="58.10763" lon="38.32969"><ele>121.4</ele><time>2026-07-26T17:31:28Z</time></trkpt><trkpt lat="58.107595" lon="38.329585"><ele>121.3</ele><time>2026-07-26T17:31:35Z</time></trkpt><trkpt lat="58.107557" lon="38.329495"><ele>122.0</ele><time>2026-07-26T17:31:42Z</time></trkpt><trkpt lat="58.10751" lon="38.3295"><ele>119.4</ele><time>2026-07-26T17:31:49Z</time></trkpt><trkpt lat="58.107507" lon="38.329517"><ele>119.7</ele><time>2026-07-26T17:31:56Z</time></trkpt><trkpt lat="58.107507" lon="38.329517"><ele>119.7</ele><time>2026-07-26T17:31:57Z</time></trkpt><trkpt lat="58.107465" lon="38.32948"><ele>118.6</ele><time>2026-07-26T17:32:18Z</time></trkpt><trkpt lat="58.10741" lon="38.329417"><ele>119.5</ele><time>2026-07-26T17:32:25Z</time></trkpt><trkpt lat="58.107348" lon="38.32938"><ele>121.9</ele><time>2026-07-26T17:32:32Z</time></trkpt><trkpt lat="58.10729" lon="38.32929"><ele>124.0</ele><time>2026-07-26T17:32:39Z</time></trkpt><trkpt lat="58.107235" lon="38.329245"><ele>123.8</ele><time>2026-07-26T17:32:46Z</time></trkpt><trkpt lat="58.107185" lon="38.329185"><ele>124.0</ele><time>2026-07-26T17:32:53Z</time></trkpt><trkpt lat="58.107117" lon="38.32911"><ele>125.7</ele><time>2026-07-26T17:33:00Z</time></trkpt><trkpt lat="58.107065" lon="38.32907"><ele>124.8</ele><time>2026-07-26T17:33:07Z</time></trkpt><trkpt lat="58.107" lon="38.329045"><ele>125.5</ele><time>2026-07-26T17:33:14Z</time></trkpt><trkpt lat="58.10695" lon="38.329025"><ele>125.0</ele><time>2026-07-26T17:33:21Z</time></trkpt><trkpt lat="58.106915" lon="38.32897"><ele>124.0</ele><time>2026-07-26T17:33:28Z</time></trkpt><trkpt lat="58.106882" lon="38.328895"><ele>123.1</ele><time>2026-07-26T17:33:35Z</time></trkpt><trkpt lat="58.10684" lon="38.328907"><ele>122.3</ele><time>2026-07-26T17:33:42Z</time></trkpt><trkpt lat="58.106775" lon="38.32891"><ele>122.8</ele><time>2026-07-26T17:33:49Z</time></trkpt><trkpt lat="58.106712" lon="38.328885"><ele>122.8</ele><time>2026-07-26T17:33:56Z</time></trkpt><trkpt lat="58.106685" lon="38.328832"><ele>121.9</ele><time>2026-07-26T17:34:03Z</time></trkpt><trkpt lat="58.106685" lon="38.328755"><ele>122.6</ele><time>2026-07-26T17:34:10Z</time></trkpt><trkpt lat="58.10669" lon="38.32873"><ele>122.5</ele><time>2026-07-26T17:34:17Z</time></trkpt><trkpt lat="58.10665" lon="38.32869"><ele>121.7</ele><time>2026-07-26T17:34:24Z</time></trkpt><trkpt lat="58.106587" lon="38.32864"><ele>121.7</ele><time>2026-07-26T17:34:31Z</time></trkpt><trkpt lat="58.106545" lon="38.328577"><ele>123.0</ele><time>2026-07-26T17:34:38Z</time></trkpt><trkpt lat="58.10649" lon="38.328538"><ele>122.6</ele><time>2026-07-26T17:34:45Z</time></trkpt><trkpt lat="58.106448" lon="38.328538"><ele>120.5</ele><time>2026-07-26T17:34:52Z</time></trkpt><trkpt lat="58.106415" lon="38.32849"><ele>120.9</ele><time>2026-07-26T17:34:59Z</time></trkpt><trkpt lat="58.10637" lon="38.328405"><ele>121.4</ele><time>2026-07-26T17:35:06Z</time></trkpt><trkpt lat="58.106325" lon="38.328352"><ele>121.2</ele><time>2026-07-26T17:35:13Z</time></trkpt><trkpt lat="58.106267" lon="38.328325"><ele>121.6</ele><time>2026-07-26T17:35:20Z</time></trkpt><trkpt lat="58.106217" lon="38.32832"><ele>119.9</ele><time>2026-07-26T17:35:27Z</time></trkpt><trkpt lat="58.10616" lon="38.328375"><ele>118.6</ele><time>2026-07-26T17:35:34Z</time></trkpt><trkpt lat="58.10612" lon="38.3284"><ele>118.5</ele><time>2026-07-26T17:35:41Z</time></trkpt><trkpt lat="58.106115" lon="38.328382"><ele>118.6</ele><time>2026-07-26T17:35:48Z</time></trkpt><trkpt lat="58.10612" lon="38.32836"><ele>119.0</ele><time>2026-07-26T17:35:56Z</time></trkpt><trkpt lat="58.106122" lon="38.328355"><ele>118.4</ele><time>2026-07-26T17:35:57Z</time></trkpt><trkpt lat="58.106125" lon="38.328337"><ele>118.8</ele><time>2026-07-26T17:36:17Z</time></trkpt><trkpt lat="58.106125" lon="38.328335"><ele>119.5</ele><time>2026-07-26T17:36:18Z</time></trkpt><trkpt lat="58.106105" lon="38.328305"><ele>119.5</ele><time>2026-07-26T17:36:26Z</time></trkpt><trkpt lat="58.106105" lon="38.328302"><ele>119.5</ele><time>2026-07-26T17:36:27Z</time></trkpt><trkpt lat="58.10612" lon="38.328297"><ele>118.7</ele><time>2026-07-26T17:37:02Z</time></trkpt><trkpt lat="58.106122" lon="38.328295"><ele>118.7</ele><time>2026-07-26T17:37:04Z</time></trkpt><trkpt lat="58.106117" lon="38.32827"><ele>118.9</ele><time>2026-07-26T17:37:33Z</time></trkpt><trkpt lat="58.106117" lon="38.32827"><ele>118.9</ele><time>2026-07-26T17:37:34Z</time></trkpt><trkpt lat="58.106125" lon="38.328235"><ele>121.0</ele><time>2026-07-26T18:02:55Z</time></trkpt><trkpt lat="58.10608" lon="38.328125"><ele>121.0</ele><time>2026-07-26T18:03:01Z</time></trkpt><trkpt lat="58.10606" lon="38.328002"><ele>121.1</ele><time>2026-07-26T18:03:08Z</time></trkpt><trkpt lat="58.10605" lon="38.327892"><ele>120.3</ele><time>2026-07-26T18:03:15Z</time></trkpt><trkpt lat="58.106025" lon="38.327785"><ele>118.0</ele><time>2026-07-26T18:03:22Z</time></trkpt><trkpt lat="58.105978" lon="38.327692"><ele>119.6</ele><time>2026-07-26T18:03:29Z</time></trkpt><trkpt lat="58.10593" lon="38.32767"><ele>121.5</ele><time>2026-07-26T18:03:36Z</time></trkpt><trkpt lat="58.105905" lon="38.32758"><ele>121.4</ele><time>2026-07-26T18:03:43Z</time></trkpt><trkpt lat="58.105865" lon="38.32752"><ele>119.4</ele><time>2026-07-26T18:03:50Z</time></trkpt><trkpt lat="58.105822" lon="38.32749"><ele>119.5</ele><time>2026-07-26T18:03:57Z</time></trkpt><trkpt lat="58.10577" lon="38.327425"><ele>119.1</ele><time>2026-07-26T18:04:04Z</time></trkpt><trkpt lat="58.105737" lon="38.327397"><ele>120.0</ele><time>2026-07-26T18:04:11Z</time></trkpt><trkpt lat="58.105735" lon="38.327395"><ele>120.0</ele><time>2026-07-26T18:04:15Z</time></trkpt><trkpt lat="58.10569" lon="38.32732"><ele>119.9</ele><time>2026-07-26T18:04:22Z</time></trkpt><trkpt lat="58.105655" lon="38.327317"><ele>120.1</ele><time>2026-07-26T18:04:29Z</time></trkpt><trkpt lat="58.10561" lon="38.327242"><ele>120.4</ele><time>2026-07-26T18:04:36Z</time></trkpt><trkpt lat="58.105557" lon="38.32714"><ele>120.8</ele><time>2026-07-26T18:04:43Z</time></trkpt><trkpt lat="58.105485" lon="38.327132"><ele>121.9</ele><time>2026-07-26T18:04:50Z</time></trkpt><trkpt lat="58.105417" lon="38.32705"><ele>122.7</ele><time>2026-07-26T18:04:57Z</time></trkpt><trkpt lat="58.105347" lon="38.32699"><ele>123.4</ele><time>2026-07-26T18:05:03Z</time></trkpt><trkpt lat="58.105285" lon="38.32692"><ele>122.5</ele><time>2026-07-26T18:05:10Z</time></trkpt><trkpt lat="58.105242" lon="38.326863"><ele>120.6</ele><time>2026-07-26T18:05:17Z</time></trkpt><trkpt lat="58.10521" lon="38.326755"><ele>119.0</ele><time>2026-07-26T18:05:24Z</time></trkpt><trkpt lat="58.10521" lon="38.326675"><ele>120.5</ele><time>2026-07-26T18:05:31Z</time></trkpt><trkpt lat="58.10521" lon="38.3266"><ele>119.2</ele><time>2026-07-26T18:05:38Z</time></trkpt><trkpt lat="58.1052" lon="38.326497"><ele>119.0</ele><time>2026-07-26T18:05:45Z</time></trkpt><trkpt lat="58.10516" lon="38.326407"><ele>119.4</ele><time>2026-07-26T18:05:52Z</time></trkpt><trkpt lat="58.10511" lon="38.32633"><ele>119.2</ele><time>2026-07-26T18:05:59Z</time></trkpt><trkpt lat="58.105082" lon="38.32628"><ele>119.2</ele><time>2026-07-26T18:06:06Z</time></trkpt><trkpt lat="58.105065" lon="38.326225"><ele>118.6</ele><time>2026-07-26T18:06:13Z</time></trkpt><trkpt lat="58.105035" lon="38.326102"><ele>117.9</ele><time>2026-07-26T18:06:20Z</time></trkpt><trkpt lat="58.104985" lon="38.326027"><ele>117.6</ele><time>2026-07-26T18:06:27Z</time></trkpt><trkpt lat="58.104932" lon="38.326072"><ele>121.0</ele><time>2026-07-26T18:06:34Z</time></trkpt><trkpt lat="58.104907" lon="38.32609"><ele>120.4</ele><time>2026-07-26T18:06:41Z</time></trkpt><trkpt lat="58.104912" lon="38.326075"><ele>120.4</ele><time>2026-07-26T18:06:48Z</time></trkpt><trkpt lat="58.104913" lon="38.326075"><ele>120.4</ele><time>2026-07-26T18:06:49Z</time></trkpt><trkpt lat="58.10492" lon="38.326065"><ele>120.9</ele><time>2026-07-26T18:07:03Z</time></trkpt><trkpt lat="58.10492" lon="38.326065"><ele>120.9</ele><time>2026-07-26T18:07:04Z</time></trkpt><trkpt lat="58.104907" lon="38.326092"><ele>121.0</ele><time>2026-07-26T18:07:12Z</time></trkpt><trkpt lat="58.10485" lon="38.326032"><ele>121.3</ele><time>2026-07-26T18:07:19Z</time></trkpt><trkpt lat="58.104805" lon="38.325992"><ele>119.6</ele><time>2026-07-26T18:07:26Z</time></trkpt><trkpt lat="58.104762" lon="38.325945"><ele>120.1</ele><time>2026-07-26T18:07:33Z</time></trkpt><trkpt lat="58.104715" lon="38.325892"><ele>120.5</ele><time>2026-07-26T18:07:40Z</time></trkpt><trkpt lat="58.10466" lon="38.325855"><ele>121.7</ele><time>2026-07-26T18:07:47Z</time></trkpt><trkpt lat="58.104602" lon="38.325803"><ele>121.2</ele><time>2026-07-26T18:07:54Z</time></trkpt><trkpt lat="58.104555" lon="38.325745"><ele>120.5</ele><time>2026-07-26T18:08:01Z</time></trkpt><trkpt lat="58.10451" lon="38.32571"><ele>119.9</ele><time>2026-07-26T18:08:08Z</time></trkpt><trkpt lat="58.104475" lon="38.32577"><ele>119.8</ele><time>2026-07-26T18:08:15Z</time></trkpt><trkpt lat="58.1045" lon="38.325705"><ele>119.6</ele><time>2026-07-26T18:08:22Z</time></trkpt><trkpt lat="58.104532" lon="38.325575"><ele>118.0</ele><time>2026-07-26T18:08:29Z</time></trkpt><trkpt lat="58.1045" lon="38.325485"><ele>118.1</ele><time>2026-07-26T18:08:36Z</time></trkpt><trkpt lat="58.10443" lon="38.325495"><ele>118.7</ele><time>2026-07-26T18:08:41Z</time></trkpt><trkpt lat="58.104375" lon="38.325427"><ele>118.4</ele><time>2026-07-26T18:08:48Z</time></trkpt><trkpt lat="58.10434" lon="38.325322"><ele>118.9</ele><time>2026-07-26T18:08:55Z</time></trkpt><trkpt lat="58.104305" lon="38.32523"><ele>119.0</ele><time>2026-07-26T18:09:02Z</time></trkpt><trkpt lat="58.10426" lon="38.325215"><ele>119.7</ele><time>2026-07-26T18:09:09Z</time></trkpt><trkpt lat="58.104215" lon="38.325215"><ele>120.2</ele><time>2026-07-26T18:09:16Z</time></trkpt><trkpt lat="58.104167" lon="38.325255"><ele>121.4</ele><time>2026-07-26T18:09:23Z</time></trkpt><trkpt lat="58.10414" lon="38.325315"><ele>121.5</ele><time>2026-07-26T18:09:30Z</time></trkpt><trkpt lat="58.104102" lon="38.3254"><ele>121.2</ele><time>2026-07-26T18:09:37Z</time></trkpt><trkpt lat="58.10406" lon="38.325455"><ele>120.9</ele><time>2026-07-26T18:09:44Z</time></trkpt><trkpt lat="58.104028" lon="38.325445"><ele>121.1</ele><time>2026-07-26T18:09:51Z</time></trkpt><trkpt lat="58.104082" lon="38.325417"><ele>119.8</ele><time>2026-07-26T18:09:58Z</time></trkpt><trkpt lat="58.10413" lon="38.32533"><ele>119.2</ele><time>2026-07-26T18:10:05Z</time></trkpt><trkpt lat="58.104165" lon="38.325265"><ele>119.2</ele><time>2026-07-26T18:10:12Z</time></trkpt><trkpt lat="58.10419" lon="38.3252"><ele>117.8</ele><time>2026-07-26T18:10:19Z</time></trkpt><trkpt lat="58.104235" lon="38.32518"><ele>116.1</ele><time>2026-07-26T18:10:26Z</time></trkpt><trkpt lat="58.10426" lon="38.32506"><ele>115.8</ele><time>2026-07-26T18:10:33Z</time></trkpt><trkpt lat="58.104232" lon="38.325002"><ele>116.3</ele><time>2026-07-26T18:10:40Z</time></trkpt><trkpt lat="58.10418" lon="38.324932"><ele>115.7</ele><time>2026-07-26T18:10:47Z</time></trkpt><trkpt lat="58.10414" lon="38.32488"><ele>116.9</ele><time>2026-07-26T18:10:54Z</time></trkpt><trkpt lat="58.104093" lon="38.324842"><ele>118.4</ele><time>2026-07-26T18:11:01Z</time></trkpt><trkpt lat="58.104042" lon="38.324875"><ele>119.8</ele><time>2026-07-26T18:11:08Z</time></trkpt><trkpt lat="58.103975" lon="38.324822"><ele>119.1</ele><time>2026-07-26T18:11:15Z</time></trkpt><trkpt lat="58.103925" lon="38.324817"><ele>119.2</ele><time>2026-07-26T18:11:22Z</time></trkpt><trkpt lat="58.103855" lon="38.324865"><ele>120.8</ele><time>2026-07-26T18:11:29Z</time></trkpt><trkpt lat="58.103812" lon="38.324882"><ele>119.5</ele><time>2026-07-26T18:11:36Z</time></trkpt><trkpt lat="58.103782" lon="38.324832"><ele>120.2</ele><time>2026-07-26T18:11:43Z</time></trkpt><trkpt lat="58.103755" lon="38.324737"><ele>120.2</ele><time>2026-07-26T18:11:50Z</time></trkpt><trkpt lat="58.103735" lon="38.324705"><ele>119.6</ele><time>2026-07-26T18:11:57Z</time></trkpt><trkpt lat="58.10371" lon="38.324662"><ele>118.7</ele><time>2026-07-26T18:12:04Z</time></trkpt><trkpt lat="58.103655" lon="38.324677"><ele>122.1</ele><time>2026-07-26T18:12:11Z</time></trkpt><trkpt lat="58.1036" lon="38.324742"><ele>121.7</ele><time>2026-07-26T18:12:18Z</time></trkpt><trkpt lat="58.10354" lon="38.324735"><ele>121.4</ele><time>2026-07-26T18:12:25Z</time></trkpt><trkpt lat="58.103485" lon="38.32472"><ele>120.7</ele><time>2026-07-26T18:12:32Z</time></trkpt><trkpt lat="58.103435" lon="38.32476"><ele>120.6</ele><time>2026-07-26T18:12:39Z</time></trkpt><trkpt lat="58.103407" lon="38.324738"><ele>119.9</ele><time>2026-07-26T18:12:46Z</time></trkpt><trkpt lat="58.103397" lon="38.324745"><ele>119.2</ele><time>2026-07-26T18:12:53Z</time></trkpt><trkpt lat="58.103397" lon="38.324747"><ele>119.2</ele><time>2026-07-26T18:12:54Z</time></trkpt><trkpt lat="58.103412" lon="38.324762"><ele>117.7</ele><time>2026-07-26T18:13:04Z</time></trkpt><trkpt lat="58.10349" lon="38.3248"><ele>117.2</ele><time>2026-07-26T18:13:11Z</time></trkpt><trkpt lat="58.103475" lon="38.32477"><ele>118.8</ele><time>2026-07-26T18:13:18Z</time></trkpt><trkpt lat="58.103445" lon="38.32475"><ele>118.4</ele><time>2026-07-26T18:13:25Z</time></trkpt><trkpt lat="58.103445" lon="38.324752"><ele>118.4</ele><time>2026-07-26T18:13:28Z</time></trkpt><trkpt lat="58.10344" lon="38.324782"><ele>118.8</ele><time>2026-07-26T18:13:41Z</time></trkpt><trkpt lat="58.103462" lon="38.324787"><ele>117.9</ele><time>2026-07-26T18:13:48Z</time></trkpt><trkpt lat="58.103465" lon="38.324787"><ele>118.0</ele><time>2026-07-26T18:13:51Z</time></trkpt><trkpt lat="58.10349" lon="38.32484"><ele>118.1</ele><time>2026-07-26T18:14:00Z</time></trkpt><trkpt lat="58.103495" lon="38.324875"><ele>119.4</ele><time>2026-07-26T18:14:07Z</time></trkpt><trkpt lat="58.103495" lon="38.324877"><ele>119.0</ele><time>2026-07-26T18:14:09Z</time></trkpt><trkpt lat="58.1035" lon="38.32489"><ele>118.6</ele><time>2026-07-26T18:14:17Z</time></trkpt><trkpt lat="58.1035" lon="38.324887"><ele>118.6</ele><time>2026-07-26T18:14:18Z</time></trkpt><trkpt lat="58.103478" lon="38.324812"><ele>117.1</ele><time>2026-07-26T18:14:27Z</time></trkpt><trkpt lat="58.1035" lon="38.324785"><ele>118.1</ele><time>2026-07-26T18:14:34Z</time></trkpt><trkpt lat="58.10357" lon="38.324745"><ele>118.1</ele><time>2026-07-26T18:14:41Z</time></trkpt><trkpt lat="58.10361" lon="38.324792"><ele>120.4</ele><time>2026-07-26T18:14:48Z</time></trkpt><trkpt lat="58.103575" lon="38.324835"><ele>117.7</ele><time>2026-07-26T18:14:55Z</time></trkpt><trkpt lat="58.103565" lon="38.324865"><ele>118.3</ele><time>2026-07-26T18:15:02Z</time></trkpt><trkpt lat="58.103557" lon="38.324877"><ele>119.1</ele><time>2026-07-26T18:15:10Z</time></trkpt><trkpt lat="58.10356" lon="38.324875"><ele>118.8</ele><time>2026-07-26T18:15:11Z</time></trkpt><trkpt lat="58.103562" lon="38.32489"><ele>120.6</ele><time>2026-07-26T18:15:24Z</time></trkpt><trkpt lat="58.103562" lon="38.32489"><ele>120.6</ele><time>2026-07-26T18:15:25Z</time></trkpt><trkpt lat="58.10356" lon="38.324897"><ele>119.7</ele><time>2026-07-26T18:15:58Z</time></trkpt><trkpt lat="58.103555" lon="38.32478"><ele>119.6</ele><time>2026-07-26T18:16:05Z</time></trkpt><trkpt lat="58.103555" lon="38.32475"><ele>120.6</ele><time>2026-07-26T18:16:12Z</time></trkpt><trkpt lat="58.103565" lon="38.32473"><ele>120.3</ele><time>2026-07-26T18:16:19Z</time></trkpt><trkpt lat="58.103592" lon="38.32479"><ele>120.8</ele><time>2026-07-26T18:16:29Z</time></trkpt><trkpt lat="58.10363" lon="38.32479"><ele>120.1</ele><time>2026-07-26T18:16:36Z</time></trkpt><trkpt lat="58.10367" lon="38.324782"><ele>120.4</ele><time>2026-07-26T18:16:43Z</time></trkpt><trkpt lat="58.10373" lon="38.324735"><ele>121.0</ele><time>2026-07-26T18:16:50Z</time></trkpt><trkpt lat="58.103742" lon="38.324735"><ele>119.2</ele><time>2026-07-26T18:16:57Z</time></trkpt><trkpt lat="58.10377" lon="38.32479"><ele>116.8</ele><time>2026-07-26T18:17:05Z</time></trkpt><trkpt lat="58.10383" lon="38.32488"><ele>118.6</ele><time>2026-07-26T18:17:11Z</time></trkpt><trkpt lat="58.103907" lon="38.32486"><ele>116.5</ele><time>2026-07-26T18:17:17Z</time></trkpt><trkpt lat="58.103945" lon="38.32485"><ele>117.5</ele><time>2026-07-26T18:17:24Z</time></trkpt><trkpt lat="58.10396" lon="38.324837"><ele>117.9</ele><time>2026-07-26T18:17:31Z</time></trkpt><trkpt lat="58.10396" lon="38.324835"><ele>118.4</ele><time>2026-07-26T18:17:33Z</time></trkpt><trkpt lat="58.10398" lon="38.324855"><ele>118.3</ele><time>2026-07-26T18:17:41Z</time></trkpt><trkpt lat="58.10398" lon="38.324855"><ele>118.3</ele><time>2026-07-26T18:17:42Z</time></trkpt><trkpt lat="58.103995" lon="38.324817"><ele>118.2</ele><time>2026-07-26T18:18:01Z</time></trkpt><trkpt lat="58.103995" lon="38.324817"><ele>118.4</ele><time>2026-07-26T18:18:04Z</time></trkpt><trkpt lat="58.10405" lon="38.324885"><ele>118.1</ele><time>2026-07-26T18:18:13Z</time></trkpt><trkpt lat="58.104115" lon="38.324893"><ele>116.2</ele><time>2026-07-26T18:18:20Z</time></trkpt><trkpt lat="58.10418" lon="38.324985"><ele>117.0</ele><time>2026-07-26T18:18:27Z</time></trkpt><trkpt lat="58.10423" lon="38.32508"><ele>116.3</ele><time>2026-07-26T18:18:33Z</time></trkpt><trkpt lat="58.10428" lon="38.32519"><ele>117.1</ele><time>2026-07-26T18:18:38Z</time></trkpt><trkpt lat="58.10434" lon="38.325285"><ele>116.6</ele><time>2026-07-26T18:18:44Z</time></trkpt><trkpt lat="58.104388" lon="38.32539"><ele>116.6</ele><time>2026-07-26T18:18:49Z</time></trkpt><trkpt lat="58.10444" lon="38.32549"><ele>117.5</ele><time>2026-07-26T18:18:55Z</time></trkpt><trkpt lat="58.104445" lon="38.325505"><ele>118.1</ele><time>2026-07-26T18:19:02Z</time></trkpt><trkpt lat="58.104445" lon="38.325505"><ele>118.0</ele><time>2026-07-26T18:19:04Z</time></trkpt><trkpt lat="58.1045" lon="38.325512"><ele>116.5</ele><time>2026-07-26T18:19:22Z</time></trkpt><trkpt lat="58.104555" lon="38.325615"><ele>116.8</ele><time>2026-07-26T18:19:28Z</time></trkpt><trkpt lat="58.104547" lon="38.325617"><ele>117.0</ele><time>2026-07-26T18:19:34Z</time></trkpt><trkpt lat="58.104502" lon="38.325695"><ele>119.5</ele><time>2026-07-26T18:20:02Z</time></trkpt><trkpt lat="58.10446" lon="38.325792"><ele>120.1</ele><time>2026-07-26T18:20:09Z</time></trkpt><trkpt lat="58.104458" lon="38.3258"><ele>119.4</ele><time>2026-07-26T18:20:16Z</time></trkpt><trkpt lat="58.104457" lon="38.32579"><ele>118.8</ele><time>2026-07-26T18:20:29Z</time></trkpt><trkpt lat="58.104457" lon="38.32579"><ele>118.8</ele><time>2026-07-26T18:20:30Z</time></trkpt><trkpt lat="58.104495" lon="38.32569"><ele>119.7</ele><time>2026-07-26T18:22:23Z</time></trkpt><trkpt lat="58.104557" lon="38.32562"><ele>118.3</ele><time>2026-07-26T18:22:29Z</time></trkpt><trkpt lat="58.10463" lon="38.325615"><ele>117.2</ele><time>2026-07-26T18:22:36Z</time></trkpt><trkpt lat="58.104677" lon="38.32567"><ele>116.8</ele><time>2026-07-26T18:22:43Z</time></trkpt><trkpt lat="58.104727" lon="38.325707"><ele>115.0</ele><time>2026-07-26T18:22:50Z</time></trkpt><trkpt lat="58.10479" lon="38.325747"><ele>112.0</ele><time>2026-07-26T18:22:57Z</time></trkpt><trkpt lat="58.104837" lon="38.32583"><ele>116.5</ele><time>2026-07-26T18:23:04Z</time></trkpt><trkpt lat="58.104867" lon="38.325912"><ele>116.3</ele><time>2026-07-26T18:23:11Z</time></trkpt><trkpt lat="58.104922" lon="38.326"><ele>115.4</ele><time>2026-07-26T18:23:17Z</time></trkpt><trkpt lat="58.104993" lon="38.326032"><ele>115.4</ele><time>2026-07-26T18:23:23Z</time></trkpt><trkpt lat="58.105045" lon="38.32615"><ele>115.1</ele><time>2026-07-26T18:23:30Z</time></trkpt><trkpt lat="58.10509" lon="38.32627"><ele>115.2</ele><time>2026-07-26T18:23:36Z</time></trkpt><trkpt lat="58.105145" lon="38.32637"><ele>115.8</ele><time>2026-07-26T18:23:42Z</time></trkpt><trkpt lat="58.105212" lon="38.326465"><ele>115.8</ele><time>2026-07-26T18:23:48Z</time></trkpt><trkpt lat="58.105287" lon="38.326535"><ele>115.5</ele><time>2026-07-26T18:23:54Z</time></trkpt><trkpt lat="58.105347" lon="38.326635"><ele>115.9</ele><time>2026-07-26T18:24:01Z</time></trkpt><trkpt lat="58.10539" lon="38.326765"><ele>117.0</ele><time>2026-07-26T18:24:08Z</time></trkpt><trkpt lat="58.105443" lon="38.326877"><ele>117.8</ele><time>2026-07-26T18:24:14Z</time></trkpt><trkpt lat="58.105515" lon="38.326948"><ele>116.7</ele><time>2026-07-26T18:24:20Z</time></trkpt><trkpt lat="58.10559" lon="38.327017"><ele>116.5</ele><time>2026-07-26T18:24:27Z</time></trkpt><trkpt lat="58.105667" lon="38.327075"><ele>116.3</ele><time>2026-07-26T18:24:34Z</time></trkpt><trkpt lat="58.10574" lon="38.327155"><ele>115.4</ele><time>2026-07-26T18:24:41Z</time></trkpt><trkpt lat="58.105817" lon="38.32721"><ele>113.8</ele><time>2026-07-26T18:24:48Z</time></trkpt><trkpt lat="58.105875" lon="38.3273"><ele>115.9</ele><time>2026-07-26T18:24:54Z</time></trkpt><trkpt lat="58.10594" lon="38.327365"><ele>116.0</ele><time>2026-07-26T18:25:00Z</time></trkpt><trkpt lat="58.106005" lon="38.32746"><ele>115.1</ele><time>2026-07-26T18:25:06Z</time></trkpt><trkpt lat="58.10605" lon="38.327585"><ele>114.9</ele><time>2026-07-26T18:25:12Z</time></trkpt><trkpt lat="58.106102" lon="38.327705"><ele>116.8</ele><time>2026-07-26T18:25:18Z</time></trkpt><trkpt lat="58.10608" lon="38.327845"><ele>116.5</ele><time>2026-07-26T18:25:24Z</time></trkpt><trkpt lat="58.106068" lon="38.327965"><ele>119.4</ele><time>2026-07-26T18:25:31Z</time></trkpt><trkpt lat="58.106065" lon="38.32798"><ele>120.7</ele><time>2026-07-26T18:25:38Z</time></trkpt></trkseg></trk></gpx>